{"type":"FeatureCollection","meta":{"model":"Cao2024","reconstruction_time_ma":1705.0,"anchor_plate_id":0,"pygplates_version":"1.0.0","tessellate_degrees":0.5,"polarity_convention":"gpml:subductionPolarity. 'Left'/'Right' names the side of the line, in vertex order, on which the OVERRIDING plate lies. Triangles are drawn on that side.","antimeridian":"Lines are NOT split at +/-180 deg. The renderer works in 3D unit vectors where the dateline is not special; splitting would only add spurious breaks. Do not treat this as RFC 7946 GIS-ready 2D data."},"features":[{"type":"Feature","properties":{"boundary_type":"subduction","feature_type":"gpml:SubductionZone","polarity":"Left","overriding_plate_id":101,"subducting_plate_id":10103,"plate_ids":[101,10103],"name":"eastern Laurentia-greenland-western baltica"},"geometry":{"type":"LineString","coordinates":[[-130.57,70.153],[-131.931,70.057],[-133.278,69.951],[-134.612,69.834],[-135.93,69.708],[-137.232,69.572],[-138.517,69.427],[-139.784,69.272],[-141.032,69.108],[-142.262,68.935],[-143.472,68.754],[-144.6,68.508],[-145.704,68.254],[-146.784,67.993],[-147.839,67.725],[-148.869,67.451],[-149.876,67.17],[-150.86,66.883],[-151.821,66.59],[-152.759,66.291],[-153.674,65.987],[-154.568,65.677],[-155.441,65.363]]}},{"type":"Feature","properties":{"boundary_type":"subduction","feature_type":"gpml:SubductionZone","polarity":"Left","overriding_plate_id":101,"subducting_plate_id":90106,"plate_ids":[101,90106],"name":"eastern Laurentia-greenland-western baltica"},"geometry":{"type":"LineString","coordinates":[[-155.441,65.363],[-156.272,65.051],[-157.084,64.735],[-157.877,64.414],[-158.651,64.09],[-159.408,63.761],[-160.147,63.428],[-160.869,63.092],[-161.574,62.752],[-162.263,62.409],[-162.937,62.062],[-163.595,61.713],[-164.152,61.321],[-164.696,60.926],[-165.227,60.53],[-165.745,60.132],[-166.25,59.731],[-166.743,59.329],[-167.225,58.925],[-167.695,58.519],[-168.155,58.112],[-168.605,57.702],[-169.044,57.292],[-169.473,56.88],[-169.685,56.418],[-169.892,55.955],[-170.093,55.493],[-170.29,55.03],[-170.483,54.566],[-170.671,54.103],[-170.855,53.639],[-171.035,53.175],[-171.211,52.71],[-171.384,52.245],[-171.553,51.781],[-171.718,51.315],[-171.88,50.85],[-172.039,50.384],[-172.195,49.918],[-172.348,49.452],[-172.498,48.986],[-172.645,48.52],[-172.818,48.044],[-172.988,47.568],[-173.156,47.092],[-173.32,46.616],[-173.481,46.139],[-173.639,45.663],[-173.795,45.186],[-173.948,44.709],[-174.099,44.231],[-174.247,43.754],[-174.393,43.276],[-174.537,42.798],[-174.679,42.32],[-174.818,41.841],[-174.955,41.363],[-175.09,40.884]]}},{"type":"Feature","properties":{"boundary_type":"subduction","feature_type":"gpml:SubductionZone","polarity":"Left","overriding_plate_id":101,"subducting_plate_id":501001,"plate_ids":[101,501001],"name":"eastern Laurentia-greenland-western baltica"},"geometry":{"type":"LineString","coordinates":[[-175.09,40.884],[-175.221,40.414],[-175.351,39.943],[-175.478,39.473]]}},{"type":"Feature","properties":{"boundary_type":"subduction","feature_type":"gpml:SubductionZone","polarity":"Left","overriding_plate_id":302,"subducting_plate_id":501,"plate_ids":[302,501],"name":"Baltica_SZ"},"geometry":{"type":"LineString","coordinates":[[-159.802,-4.588],[-159.931,-5.018],[-160.061,-5.448],[-160.191,-5.878],[-160.321,-6.308],[-160.451,-6.738],[-160.581,-7.168],[-160.712,-7.598]]}},{"type":"Feature","properties":{"boundary_type":"subduction","feature_type":"gpml:SubductionZone","polarity":"Left","overriding_plate_id":101,"subducting_plate_id":501,"plate_ids":[101,501],"name":"Baltica_SZ"},"geometry":{"type":"LineString","coordinates":[[-160.712,-7.598],[-160.852,-8.058],[-160.993,-8.518],[-161.134,-8.978],[-161.275,-9.437],[-161.416,-9.897],[-161.558,-10.357],[-161.701,-10.817],[-161.844,-11.276],[-162.065,-11.706],[-162.287,-12.137],[-162.509,-12.567],[-162.732,-12.996],[-162.956,-13.426],[-163.181,-13.855],[-163.407,-14.284],[-163.633,-14.713],[-163.86,-15.142],[-164.089,-15.57],[-164.318,-15.999],[-164.548,-16.427],[-164.779,-16.854],[-165.012,-17.282],[-165.245,-17.709],[-165.48,-18.136],[-165.715,-18.563],[-165.952,-18.989],[-166.19,-19.415],[-166.429,-19.841],[-166.67,-20.266],[-166.912,-20.692],[-167.155,-21.116],[-167.4,-21.541],[-167.646,-21.965],[-167.893,-22.388],[-168.142,-22.812]]}},{"type":"Feature","properties":{"boundary_type":"subduction","feature_type":"gpml:SubductionZone","polarity":"Right","overriding_plate_id":801,"subducting_plate_id":701,"plate_ids":[701,801],"name":"NorthChina_SZ"},"geometry":{"type":"LineString","coordinates":[[-85.719,6.424],[-85.554,6.013],[-85.389,5.601],[-85.224,5.19],[-85.06,4.779],[-84.896,4.367],[-84.86,3.894],[-84.823,3.42],[-84.787,2.947],[-84.751,2.473],[-84.715,1.999],[-84.679,1.526],[-84.643,1.052],[-84.607,0.579],[-84.77,0.135],[-84.934,-0.308],[-85.097,-0.752],[-85.26,-1.195],[-85.424,-1.639],[-85.587,-2.082],[-85.751,-2.526],[-85.915,-2.969],[-86.079,-3.412],[-86.242,-3.856],[-86.634,-4.107],[-87.026,-4.358],[-87.418,-4.609],[-87.81,-4.86],[-88.203,-5.11],[-88.596,-5.36],[-88.989,-5.61],[-89.383,-5.86],[-89.777,-6.109],[-90.171,-6.358],[-90.566,-6.607],[-90.961,-6.856],[-91.356,-7.104],[-91.812,-7.241],[-92.268,-7.378],[-92.724,-7.514],[-93.181,-7.649],[-93.637,-7.784],[-94.094,-7.919],[-94.552,-8.053],[-95.01,-8.187],[-95.468,-8.32],[-95.926,-8.453],[-96.384,-8.585],[-96.843,-8.716],[-97.303,-8.847]]}},{"type":"Feature","properties":{"boundary_type":"subduction","feature_type":"gpml:SubductionZone","polarity":"Right","overriding_plate_id":801,"subducting_plate_id":811001,"plate_ids":[801,811001],"name":"SouthAustralia_SZ"},"geometry":{"type":"LineString","coordinates":[[-71.831,33.947],[-72.02,33.582],[-72.234,33.158],[-72.447,32.734],[-72.657,32.31],[-72.866,31.885],[-73.072,31.459],[-73.277,31.034],[-73.48,30.608],[-73.681,30.182],[-74.065,29.811],[-74.447,29.439],[-74.826,29.066],[-75.202,28.691],[-75.575,28.316],[-75.946,27.94],[-76.314,27.563],[-76.68,27.185],[-77.043,26.805],[-77.404,26.425],[-77.762,26.044],[-78.118,25.663],[-78.472,25.28],[-78.908,25.028],[-79.342,24.774],[-79.775,24.52]]}},{"type":"Feature","properties":{"boundary_type":"subduction","feature_type":"gpml:SubductionZone","polarity":"Left","overriding_plate_id":90107,"subducting_plate_id":90106,"plate_ids":[90106,90107],"name":"Wyoming_SZ"},"geometry":{"type":"LineString","coordinates":[[-29.695,60.264],[-30.567,60.513],[-31.453,60.757],[-32.352,60.994],[-33.264,61.226],[-34.19,61.451],[-35.129,61.67],[-36.081,61.882],[-37.047,62.088],[-38.025,62.287],[-39.016,62.479],[-40.02,62.664],[-40.814,62.971],[-41.625,63.274],[-42.453,63.571],[-43.299,63.864],[-44.162,64.152],[-45.043,64.435],[-45.943,64.712],[-46.861,64.984],[-47.797,65.25],[-48.752,65.51],[-49.727,65.764],[-50.72,66.011],[-51.733,66.252],[-52.765,66.487],[-53.816,66.714]]}},{"type":"Feature","properties":{"boundary_type":"subduction","feature_type":"gpml:SubductionZone","polarity":"Left","overriding_plate_id":101,"subducting_plate_id":90106,"plate_ids":[101,90106],"name":"Wyoming_SZ"},"geometry":{"type":"LineString","coordinates":[[-53.816,66.714],[-54.87,66.931],[-55.943,67.141],[-57.034,67.344],[-58.144,67.539],[-59.271,67.726],[-60.417,67.905],[-61.58,68.077],[-62.759,68.24],[-63.956,68.394],[-65.168,68.54],[-66.396,68.677],[-67.638,68.805],[-68.894,68.924],[-70.163,69.034],[-71.444,69.134],[-72.705,69.334],[-73.988,69.525],[-75.293,69.706],[-76.621,69.878],[-77.97,70.039],[-79.339,70.19],[-80.728,70.33],[-82.135,70.46],[-83.559,70.579],[-84.999,70.686],[-86.455,70.782],[-87.923,70.866],[-89.403,70.939],[-90.893,71.0],[-92.391,71.048]]}},{"type":"Feature","properties":{"boundary_type":"subduction","feature_type":"gpml:SubductionZone","polarity":"Left","overriding_plate_id":101,"subducting_plate_id":10103,"plate_ids":[101,10103],"name":"Wyoming_SZ"},"geometry":{"type":"LineString","coordinates":[[-92.391,71.048],[-93.899,71.085],[-95.412,71.109],[-96.928,71.122],[-98.445,71.122],[-99.961,71.109],[-101.474,71.085],[-102.982,71.048],[-104.484,70.999],[-105.977,70.938],[-107.46,70.865],[-108.932,70.78],[-110.385,70.833],[-111.845,70.875],[-113.311,70.905],[-114.78,70.924],[-116.251,70.93],[-117.723,70.926],[-119.192,70.909],[-120.659,70.881],[-122.12,70.841],[-123.575,70.79],[-125.021,70.728],[-126.458,70.654],[-127.883,70.569],[-129.296,70.473],[-129.938,70.314],[-130.57,70.153]]}},{"type":"Feature","properties":{"boundary_type":"subduction","feature_type":"gpml:SubductionZone","polarity":"Left","overriding_plate_id":801,"subducting_plate_id":701,"plate_ids":[701,801],"name":"South_NorthAustralia_SZ"},"geometry":{"type":"LineString","coordinates":[[-85.719,6.424],[-85.434,6.802],[-85.148,7.18],[-84.861,7.558],[-84.574,7.936],[-84.287,8.313],[-83.999,8.691],[-83.711,9.068],[-83.421,9.445],[-83.132,9.821],[-82.841,10.198]]}},{"type":"Feature","properties":{"boundary_type":"subduction","feature_type":"gpml:SubductionZone","polarity":"Left","overriding_plate_id":801,"subducting_plate_id":811001,"plate_ids":[801,811001],"name":"South_NorthAustralia_SZ"},"geometry":{"type":"LineString","coordinates":[[-82.841,10.198],[-82.538,10.589],[-82.235,10.98],[-81.93,11.371],[-81.625,11.761],[-81.319,12.151],[-81.012,12.54],[-80.704,12.93],[-80.395,13.319],[-80.289,13.777],[-80.181,14.235],[-80.074,14.694],[-79.966,15.152],[-79.857,15.611],[-79.748,16.069],[-79.639,16.527],[-79.529,16.985],[-79.418,17.443],[-79.307,17.901],[-79.195,18.359],[-79.083,18.817],[-78.97,19.275],[-78.856,19.733],[-78.945,20.211],[-79.035,20.69],[-79.125,21.169],[-79.216,21.648],[-79.308,22.127],[-79.4,22.605],[-79.492,23.084],[-79.586,23.563],[-79.68,24.041],[-79.775,24.52]]}},{"type":"Feature","properties":{"boundary_type":"subduction","feature_type":"gpml:SubductionZone","polarity":"Left","overriding_plate_id":801,"subducting_plate_id":101,"plate_ids":[101,801],"name":"South_NorthAustralia_SZ"},"geometry":{"type":"LineString","coordinates":[[-53.949,65.064],[-54.993,65.02],[-56.034,64.969],[-57.07,64.911],[-58.102,64.845],[-59.128,64.773],[-60.149,64.693],[-61.164,64.607],[-62.171,64.513],[-63.137,64.241],[-64.084,63.962],[-65.011,63.677],[-65.92,63.386],[-66.811,63.09],[-67.684,62.788],[-68.538,62.481],[-69.375,62.168],[-70.195,61.851],[-70.998,61.529],[-71.785,61.203],[-72.555,60.871],[-73.309,60.536],[-74.048,60.197],[-74.72,59.827],[-75.378,59.455],[-76.022,59.079],[-76.651,58.701],[-77.267,58.319],[-77.87,57.934],[-78.459,57.547],[-79.037,57.156],[-79.602,56.764],[-80.156,56.368],[-80.698,55.971],[-81.229,55.571],[-81.749,55.168],[-82.259,54.764],[-82.759,54.357],[-83.249,53.949],[-83.729,53.538],[-84.133,53.1],[-84.528,52.661],[-84.915,52.22],[-85.294,51.778],[-85.666,51.335],[-86.032,50.891],[-86.39,50.446],[-86.741,49.999],[-87.086,49.552],[-87.425,49.103],[-87.757,48.654],[-88.084,48.204],[-88.405,47.752],[-88.699,47.309],[-88.987,46.865],[-89.271,46.421],[-89.55,45.976],[-89.825,45.53],[-90.096,45.083],[-90.362,44.636],[-90.624,44.188],[-90.882,43.74],[-91.137,43.291],[-91.387,42.841],[-91.634,42.391],[-91.938,41.979],[-92.238,41.565],[-92.533,41.151],[-92.826,40.737],[-93.114,40.321],[-93.399,39.905],[-93.681,39.488],[-93.959,39.07],[-94.234,38.652],[-94.505,38.233],[-94.921,37.867],[-95.332,37.5],[-95.739,37.131],[-96.142,36.76],[-96.542,36.389],[-96.937,36.016],[-97.329,35.641],[-97.717,35.266],[-98.102,34.889],[-98.483,34.511],[-98.861,34.132],[-99.235,33.752],[-99.606,33.37],[-99.959,32.973],[-100.31,32.575],[-100.657,32.175],[-101.001,31.775],[-101.342,31.374],[-101.681,30.972],[-102.016,30.569],[-102.349,30.165],[-102.679,29.761],[-103.006,29.356],[-103.331,28.949],[-103.373,28.474],[-103.415,27.998],[-103.457,27.523],[-103.498,27.047],[-103.539,26.571],[-103.579,26.096],[-103.62,25.62],[-103.659,25.144],[-103.699,24.668],[-103.738,24.193],[-103.777,23.717],[-103.816,23.241],[-103.854,22.765],[-103.892,22.29],[-103.93,21.814],[-103.968,21.338],[-103.894,20.863],[-103.822,20.389],[-103.749,19.914],[-103.677,19.439],[-103.606,18.964],[-103.534,18.49],[-103.464,18.015],[-103.393,17.54],[-103.323,17.065],[-103.253,16.59],[-103.184,16.115],[-103.115,15.64],[-103.046,15.165],[-102.925,14.831],[-102.804,14.497],[-102.683,14.162]]}},{"type":"Feature","properties":{"boundary_type":"subduction","feature_type":"gpml:SubductionZone","polarity":"Left","overriding_plate_id":101,"subducting_plate_id":302,"plate_ids":[101,302],"name":"EasternFennoscandia_SZ"},"geometry":{"type":"LineString","coordinates":[[-172.761,3.993],[-172.311,4.191],[-171.861,4.39],[-171.411,4.588],[-170.961,4.785],[-170.51,4.983],[-170.059,5.18],[-169.608,5.377],[-169.157,5.573],[-168.705,5.769],[-168.302,6.029],[-167.899,6.288],[-167.495,6.547],[-167.091,6.806],[-166.686,7.064],[-166.281,7.322],[-165.876,7.58],[-165.47,7.837],[-165.063,8.094],[-164.656,8.351],[-164.249,8.607],[-163.841,8.862],[-163.432,9.117],[-163.023,9.372],[-162.635,9.672],[-162.247,9.972],[-161.858,10.272],[-161.468,10.57],[-161.077,10.869],[-160.686,11.167],[-160.294,11.464],[-159.901,11.761],[-159.507,12.057],[-159.112,12.353],[-158.76,12.671],[-158.408,12.987],[-158.054,13.304],[-157.699,13.62],[-157.344,13.935],[-156.987,14.25],[-156.63,14.564],[-156.271,14.878],[-155.912,15.191],[-155.551,15.504],[-155.19,15.816],[-154.827,16.128],[-154.608,16.513],[-154.389,16.898],[-154.168,17.283],[-153.947,17.668],[-153.725,18.052],[-153.502,18.436],[-153.278,18.82]]}},{"type":"Feature","properties":{"boundary_type":"subduction","feature_type":"gpml:SubductionZone","polarity":"Left","overriding_plate_id":801,"subducting_plate_id":811001,"plate_ids":[801,811001],"name":"NorthwesternMawson_SZ"},"geometry":{"type":"LineString","coordinates":[[-71.831,33.947],[-71.268,34.09],[-70.703,34.23],[-70.136,34.367],[-69.568,34.502],[-68.997,34.634],[-68.434,34.731],[-67.87,34.826],[-67.305,34.917],[-66.738,35.007],[-66.171,35.093],[-65.602,35.177],[-65.031,35.259],[-64.46,35.337],[-63.917,35.435],[-63.373,35.53],[-62.827,35.623],[-62.281,35.714],[-61.733,35.802],[-61.183,35.887],[-60.665,36.077],[-60.143,36.265],[-59.619,36.45],[-59.093,36.633],[-58.564,36.813],[-58.033,36.991],[-57.683,37.377],[-57.329,37.762],[-56.972,38.146],[-56.611,38.528],[-56.246,38.91],[-56.194,39.376],[-56.141,39.842],[-56.088,40.308],[-56.034,40.774],[-55.98,41.24],[-55.924,41.706],[-55.868,42.172],[-55.811,42.638],[-55.753,43.104],[-55.854,43.563],[-55.955,44.023],[-56.059,44.482],[-56.163,44.941],[-56.27,45.4],[-56.378,45.859],[-56.489,46.318],[-56.601,46.776],[-56.715,47.235],[-56.831,47.693],[-56.949,48.152],[-56.923,48.627],[-56.897,49.103],[-56.87,49.579],[-56.843,50.054],[-56.815,50.53],[-56.786,51.006],[-56.757,51.481],[-56.728,51.957],[-56.697,52.433],[-56.666,52.908],[-56.635,53.384],[-56.603,53.859],[-56.463,54.271],[-56.32,54.682],[-56.174,55.093],[-56.026,55.503],[-55.874,55.914]]}},{"type":"Feature","properties":{"boundary_type":"subduction","feature_type":"gpml:SubductionZone","polarity":"Left","overriding_plate_id":801,"subducting_plate_id":90107,"plate_ids":[801,90107],"name":"NorthwesternMawson_SZ"},"geometry":{"type":"LineString","coordinates":[[-55.874,55.914],[-55.693,56.392],[-55.507,56.87],[-55.317,57.348],[-55.121,57.825],[-54.921,58.303],[-54.714,58.779],[-54.503,59.256],[-54.285,59.732],[-54.259,60.217],[-54.232,60.702],[-54.204,61.186],[-54.176,61.671],[-54.147,62.156],[-54.116,62.64],[-54.085,63.125],[-54.053,63.61],[-54.019,64.094],[-53.984,64.579],[-53.949,65.064]]}},{"type":"Feature","properties":{"boundary_type":"subduction","feature_type":"gpml:SubductionZone","polarity":"Left","overriding_plate_id":101,"subducting_plate_id":90107,"plate_ids":[101,90107],"name":"NorthwesternMawson_SZ"},"geometry":{"type":"LineString","coordinates":[[-53.949,65.064],[-53.917,65.476],[-53.884,65.889],[-53.851,66.302],[-53.816,66.714]]}},{"type":"Feature","properties":{"boundary_type":"subduction","feature_type":"gpml:SubductionZone","polarity":"Right","overriding_plate_id":801,"subducting_plate_id":701,"plate_ids":[701,801],"name":"Cathaysia_SZ"},"geometry":{"type":"LineString","coordinates":[[-97.303,-8.847],[-97.344,-9.345],[-97.385,-9.842],[-97.426,-10.34],[-97.467,-10.837],[-97.508,-11.335],[-97.55,-11.832],[-97.591,-12.33],[-97.633,-12.827],[-97.675,-13.325],[-97.717,-13.822],[-97.76,-14.32],[-97.802,-14.817],[-97.845,-15.315],[-97.811,-15.813],[-97.777,-16.312],[-97.742,-16.81],[-97.708,-17.308],[-97.673,-17.807],[-97.638,-18.305],[-97.603,-18.803],[-97.567,-19.302],[-97.531,-19.8],[-97.496,-20.299],[-97.459,-20.797],[-97.423,-21.295],[-97.387,-21.793],[-97.35,-22.292],[-97.313,-22.79],[-97.15,-23.227],[-96.986,-23.664]]}},{"type":"Feature","properties":{"boundary_type":"subduction","feature_type":"gpml:SubductionZone","polarity":"Left","overriding_plate_id":80101,"subducting_plate_id":90107,"plate_ids":[80101,90107],"name":""},"geometry":{"type":"LineString","coordinates":[[-16.111,22.912],[-16.118,23.395],[-16.125,23.877],[-16.132,24.36],[-16.14,24.842],[-16.147,25.325],[-16.154,25.807],[-16.162,26.29],[-16.169,26.772],[-16.176,27.255],[-16.184,27.737],[-16.192,28.22],[-16.199,28.702],[-16.207,29.185],[-16.215,29.668],[-16.281,30.131],[-16.348,30.595],[-16.415,31.058],[-16.483,31.522],[-16.551,31.985],[-16.62,32.449],[-16.69,32.912],[-16.761,33.376],[-16.832,33.839],[-16.905,34.302],[-16.978,34.765],[-17.051,35.229],[-17.126,35.692],[-17.202,36.155],[-17.278,36.618],[-17.566,37.032],[-17.857,37.446],[-18.151,37.858],[-18.449,38.27],[-18.75,38.681],[-19.054,39.092],[-19.362,39.501],[-19.674,39.91],[-19.989,40.318],[-20.308,40.725],[-20.631,41.132],[-20.959,41.537],[-21.29,41.941],[-21.712,42.281],[-22.14,42.62],[-22.571,42.957],[-23.008,43.292],[-23.449,43.626],[-23.895,43.958],[-24.347,44.288],[-24.803,44.617],[-25.264,44.943],[-25.731,45.268],[-26.203,45.591],[-26.681,45.912],[-27.164,46.231],[-27.664,46.554],[-28.169,46.876],[-28.681,47.195],[-29.199,47.513],[-29.724,47.827],[-30.254,48.14],[-30.791,48.449],[-31.335,48.757],[-31.885,49.062],[-32.443,49.364],[-33.007,49.663],[-33.578,49.96],[-34.156,50.253],[-34.741,50.544],[-35.333,50.832],[-35.903,51.017],[-36.477,51.199],[-37.055,51.378],[-37.639,51.554],[-38.226,51.727]]}},{"type":"Feature","properties":{"boundary_type":"subduction","feature_type":"gpml:SubductionZone","polarity":"Left","overriding_plate_id":811001,"subducting_plate_id":90107,"plate_ids":[90107,811001],"name":""},"geometry":{"type":"LineString","coordinates":[[-38.226,51.727],[-38.912,51.924],[-39.604,52.117],[-40.302,52.306],[-41.006,52.491],[-41.716,52.671],[-42.432,52.848],[-43.153,53.02],[-43.88,53.187],[-44.613,53.35],[-45.351,53.509],[-46.095,53.663],[-46.844,53.812],[-47.598,53.956],[-48.358,54.096],[-49.122,54.231],[-49.844,54.436],[-50.573,54.637],[-51.31,54.833],[-52.053,55.025],[-52.803,55.212],[-53.561,55.395],[-54.325,55.573],[-55.096,55.746],[-55.874,55.914]]}},{"type":"Feature","properties":{"boundary_type":"subduction","feature_type":"gpml:SubductionZone","polarity":"Left","overriding_plate_id":201,"subducting_plate_id":501001,"plate_ids":[201,501001],"name":"Amazonia_SZ"},"geometry":{"type":"LineString","coordinates":[[121.803,15.75],[121.542,15.321],[121.282,14.892],[121.023,14.462],[120.765,14.032],[120.508,13.602],[120.252,13.172],[119.997,12.741],[119.743,12.311],[119.489,11.88],[119.237,11.448],[118.985,11.017],[118.734,10.585],[118.483,10.153],[118.234,9.721],[117.984,9.289],[117.736,8.856],[117.488,8.424],[117.241,7.991],[116.994,7.558],[116.747,7.125],[116.502,6.692],[116.256,6.259],[116.011,5.825],[115.766,5.392],[115.522,4.958],[115.278,4.524],[115.034,4.091],[114.791,3.657],[114.548,3.223],[114.305,2.789],[114.062,2.355],[113.819,1.921],[113.577,1.487],[113.334,1.053],[113.092,0.618],[112.85,0.184],[112.607,-0.25],[112.365,-0.684],[112.122,-1.118],[111.88,-1.552],[111.637,-1.986],[111.395,-2.42],[111.152,-2.854],[110.909,-3.288],[110.666,-3.722],[110.422,-4.156],[110.178,-4.59],[109.934,-5.024],[109.779,-5.494],[109.624,-5.965],[109.468,-6.435],[109.312,-6.905],[109.156,-7.376],[109.0,-7.846],[108.843,-8.316],[108.686,-8.786],[108.528,-9.257],[108.37,-9.727],[108.211,-10.197],[108.052,-10.666],[107.893,-11.136],[107.733,-11.606],[107.572,-12.076],[107.411,-12.545]]}},{"type":"Feature","properties":{"boundary_type":"subduction","feature_type":"gpml:SubductionZone","polarity":"Left","overriding_plate_id":201,"subducting_plate_id":90105,"plate_ids":[201,90105],"name":"Amazonia_SZ"},"geometry":{"type":"LineString","coordinates":[[107.411,-12.545],[107.264,-12.973],[107.116,-13.402],[106.967,-13.83],[106.818,-14.258],[106.668,-14.686],[106.654,-15.185],[106.64,-15.684],[106.626,-16.183],[106.612,-16.682],[106.598,-17.181],[106.584,-17.68],[106.57,-18.179],[106.555,-18.678],[106.541,-19.177],[106.526,-19.676],[106.512,-20.175],[106.497,-20.674],[106.482,-21.173],[106.467,-21.672],[106.452,-22.171],[106.437,-22.67],[106.422,-23.169],[106.406,-23.668],[106.557,-24.136],[106.708,-24.604],[106.86,-25.071],[107.014,-25.538],[107.169,-26.005],[107.325,-26.472],[107.482,-26.939],[107.641,-27.406],[107.801,-27.872],[107.962,-28.338],[108.125,-28.804],[108.289,-29.27],[108.455,-29.736],[108.622,-30.201],[108.791,-30.666],[108.961,-31.131],[109.133,-31.596],[109.307,-32.061],[109.483,-32.525],[109.66,-32.989],[110.027,-33.374],[110.397,-33.757],[110.77,-34.14],[111.146,-34.521],[111.526,-34.901],[111.91,-35.28],[112.297,-35.657],[112.687,-36.034],[113.082,-36.409],[113.48,-36.783],[113.882,-37.155],[114.288,-37.526],[114.699,-37.896],[115.113,-38.264],[115.532,-38.631],[115.954,-38.996],[116.382,-39.36],[116.813,-39.722],[117.25,-40.083],[117.69,-40.442],[118.136,-40.799],[118.586,-41.155],[119.042,-41.508],[119.502,-41.86],[119.967,-42.21],[120.438,-42.558],[120.914,-42.904],[121.395,-43.249],[121.882,-43.591],[122.374,-43.931],[122.872,-44.269],[123.375,-44.604],[123.885,-44.938],[124.4,-45.269],[124.921,-45.598],[125.449,-45.925],[125.982,-46.249],[126.523,-46.57],[127.069,-46.889],[127.622,-47.205],[128.181,-47.519],[128.748,-47.83],[129.321,-48.138],[129.901,-48.443],[130.488,-48.745],[131.081,-49.044],[131.683,-49.34],[132.291,-49.633],[132.907,-49.923],[133.53,-50.209],[134.16,-50.492],[134.798,-50.772],[135.444,-51.048],[136.098,-51.321]]}},{"type":"Feature","properties":{"boundary_type":"subduction","feature_type":"gpml:SubductionZone","polarity":"Left","overriding_plate_id":201,"subducting_plate_id":701,"plate_ids":[201,701],"name":"Amazonia_SZ"},"geometry":{"type":"LineString","coordinates":[[136.098,-51.321],[136.715,-51.572],[137.34,-51.82],[137.971,-52.065],[138.61,-52.306],[139.255,-52.544],[139.907,-52.778],[140.566,-53.009],[141.233,-53.236],[141.906,-53.459],[142.586,-53.678],[143.326,-53.839],[144.072,-53.996]]}},{"type":"Feature","properties":{"boundary_type":"transform","feature_type":"gpml:Transform","polarity":null,"overriding_plate_id":null,"subducting_plate_id":null,"plate_ids":[201,501001],"name":""},"geometry":{"type":"LineString","coordinates":[[121.803,15.75],[122.257,15.507],[122.709,15.263],[123.16,15.018],[123.61,14.773],[124.059,14.526],[124.507,14.279],[124.954,14.031],[125.4,13.782],[125.845,13.532],[126.29,13.282],[126.733,13.031],[127.175,12.779],[127.617,12.526],[128.058,12.272],[128.497,12.018],[128.936,11.763],[129.375,11.508],[129.812,11.251],[130.249,10.995],[130.684,10.737],[131.12,10.479],[131.554,10.22],[131.988,9.961],[132.42,9.701],[132.853,9.441],[133.284,9.18],[133.715,8.919],[134.146,8.657],[134.576,8.395],[135.005,8.132],[135.433,7.868],[135.862,7.605],[136.289,7.341],[136.716,7.076],[137.143,6.811],[137.569,6.546],[137.995,6.28],[138.42,6.014],[138.845,5.748],[139.269,5.481],[139.693,5.214],[140.117,4.947],[140.54,4.68],[140.963,4.412],[141.386,4.144],[141.808,3.876],[142.23,3.607],[142.652,3.339],[143.074,3.07],[143.495,2.801],[143.917,2.532],[144.338,2.263],[144.759,1.993],[145.179,1.724],[145.6,1.454],[146.021,1.185],[146.441,0.915],[146.862,0.645],[147.282,0.375],[147.702,0.106],[148.127,-0.152],[148.551,-0.409],[148.976,-0.666],[149.401,-0.923],[149.825,-1.18],[150.25,-1.437],[150.675,-1.694],[151.1,-1.951],[151.525,-2.207],[151.95,-2.464],[152.376,-2.72],[152.801,-2.977],[153.227,-3.233],[153.653,-3.489],[154.08,-3.744],[154.506,-4.0],[154.933,-4.255],[155.36,-4.51],[155.787,-4.765],[156.215,-5.02],[156.643,-5.274],[157.071,-5.528],[157.5,-5.782],[157.929,-6.035],[158.359,-6.288],[158.789,-6.541],[159.219,-6.793],[159.65,-7.045],[160.081,-7.297],[160.513,-7.548],[160.945,-7.798],[161.378,-8.049],[161.811,-8.299],[162.245,-8.548],[162.679,-8.797],[163.114,-9.045],[163.55,-9.293],[163.986,-9.54],[164.423,-9.787],[164.861,-10.033],[165.299,-10.279],[165.738,-10.524],[166.177,-10.768],[166.618,-11.012],[167.059,-11.255],[167.5,-11.498],[167.943,-11.74],[168.386,-11.981],[168.83,-12.222],[169.275,-12.461],[169.721,-12.7],[170.167,-12.939],[170.615,-13.176],[171.063,-13.413],[171.512,-13.649],[171.962,-13.884],[172.413,-14.119],[172.865,-14.352],[173.318,-14.585],[173.772,-14.817],[174.226,-15.047],[174.682,-15.277],[175.139,-15.506],[175.597,-15.735],[176.056,-15.962],[176.515,-16.188],[176.976,-16.413],[177.438,-16.637],[177.901,-16.86],[178.365,-17.083],[178.83,-17.304],[179.297,-17.524],[179.764,-17.743]]}},{"type":"Feature","properties":{"boundary_type":"transform","feature_type":"gpml:Transform","polarity":null,"overriding_plate_id":null,"subducting_plate_id":null,"plate_ids":[201,501],"name":""},"geometry":{"type":"LineString","coordinates":[[179.764,-17.743],[-179.767,-17.96],[-179.297,-18.177],[-178.825,-18.393],[-178.353,-18.607],[-177.879,-18.821],[-177.405,-19.033],[-176.929,-19.244],[-176.451,-19.453],[-175.973,-19.662],[-175.493,-19.869],[-175.012,-20.075],[-174.53,-20.279],[-174.046,-20.483],[-173.562,-20.685],[-173.076,-20.885],[-172.588,-21.084],[-172.1,-21.282],[-171.61,-21.478],[-171.118,-21.673],[-170.626,-21.867],[-170.132,-22.059],[-169.636,-22.249],[-169.14,-22.438],[-168.642,-22.626],[-168.142,-22.812]]}},{"type":"Feature","properties":{"boundary_type":"transform","feature_type":"gpml:Transform","polarity":null,"overriding_plate_id":null,"subducting_plate_id":null,"plate_ids":[101,201],"name":""},"geometry":{"type":"LineString","coordinates":[[-168.142,-22.812],[-167.682,-22.981],[-167.221,-23.15],[-166.758,-23.316],[-166.294,-23.482],[-165.83,-23.646],[-165.364,-23.809],[-164.896,-23.97],[-164.428,-24.13],[-163.958,-24.289],[-163.488,-24.446],[-163.016,-24.601]]}},{"type":"Feature","properties":{"boundary_type":"transform","feature_type":"gpml:Transform","polarity":null,"overriding_plate_id":null,"subducting_plate_id":null,"plate_ids":[101,302],"name":""},"geometry":{"type":"LineString","coordinates":[[-153.278,18.82],[-152.864,18.946],[-152.45,19.071],[-152.035,19.195],[-151.541,19.144],[-151.046,19.092],[-150.552,19.038],[-150.058,18.983],[-149.565,18.927],[-149.072,18.869],[-148.579,18.81],[-148.087,18.75],[-147.727,18.448],[-147.369,18.146],[-147.012,17.843],[-146.657,17.539],[-146.302,17.234],[-145.949,16.929],[-145.596,16.624],[-145.245,16.318],[-144.895,16.011],[-144.713,15.593],[-144.532,15.174],[-144.351,14.756],[-144.171,14.338],[-143.992,13.919],[-143.813,13.5],[-143.635,13.081],[-143.458,12.662],[-143.281,12.243],[-143.105,11.824],[-143.128,11.387],[-143.152,10.951],[-143.175,10.515],[-143.199,10.079],[-143.222,9.642],[-143.246,9.206],[-143.269,8.77]]}},{"type":"Feature","properties":{"boundary_type":"ridge","feature_type":"gpml:MidOceanRidge","polarity":null,"overriding_plate_id":null,"subducting_plate_id":null,"plate_ids":[101,302],"name":""},"geometry":{"type":"LineString","coordinates":[[-143.269,8.77],[-143.631,8.475],[-143.993,8.18],[-144.354,7.885],[-144.715,7.59],[-145.075,7.294],[-145.434,6.998],[-145.794,6.701],[-146.153,6.405],[-146.511,6.108],[-146.212,5.724],[-145.913,5.34],[-145.615,4.955],[-145.317,4.571],[-145.019,4.186],[-144.722,3.801],[-144.425,3.417],[-144.128,3.032],[-144.45,2.65],[-144.772,2.268],[-145.094,1.887],[-145.416,1.505],[-145.738,1.123],[-146.059,0.742],[-146.381,0.36],[-146.703,-0.022],[-147.024,-0.404],[-147.346,-0.786],[-147.668,-1.168],[-147.989,-1.549],[-148.311,-1.931],[-148.633,-2.313],[-148.955,-2.694],[-149.278,-3.076],[-149.6,-3.457],[-149.923,-3.839],[-150.246,-4.22],[-150.57,-4.601],[-150.894,-4.982],[-151.218,-5.362],[-151.543,-5.743],[-151.868,-6.123],[-152.193,-6.503],[-152.519,-6.883],[-152.846,-7.263],[-153.173,-7.643],[-153.5,-8.022],[-153.829,-8.401],[-154.158,-8.78],[-154.487,-9.158],[-154.817,-9.536],[-155.148,-9.914],[-155.48,-10.292],[-155.813,-10.669],[-156.146,-11.046],[-156.48,-11.422],[-156.837,-11.106],[-157.193,-10.789],[-157.548,-10.471],[-157.902,-10.153],[-158.255,-9.835],[-158.608,-9.516],[-158.96,-9.197],[-159.312,-8.878],[-159.663,-8.558],[-160.013,-8.239],[-160.363,-7.918],[-160.712,-7.598]]}},{"type":"Feature","properties":{"boundary_type":"transform","feature_type":"gpml:Transform","polarity":null,"overriding_plate_id":null,"subducting_plate_id":null,"plate_ids":[101,701],"name":""},"geometry":{"type":"LineString","coordinates":[[-150.82,-22.731],[-150.691,-22.782]]}},{"type":"Feature","properties":{"boundary_type":"transform","feature_type":"gpml:Transform","polarity":null,"overriding_plate_id":null,"subducting_plate_id":null,"plate_ids":[401,701],"name":""},"geometry":{"type":"LineString","coordinates":[[-150.691,-22.782],[-150.296,-22.936],[-149.9,-23.089],[-149.503,-23.241],[-149.106,-23.392],[-148.593,-23.529],[-148.08,-23.664],[-147.565,-23.797],[-147.05,-23.929],[-146.533,-24.059],[-146.015,-24.187],[-145.497,-24.314],[-144.977,-24.439],[-144.456,-24.562],[-143.934,-24.683],[-143.412,-24.802],[-142.888,-24.92],[-142.363,-25.035],[-141.837,-25.149],[-141.311,-25.261],[-140.783,-25.372],[-140.254,-25.48],[-139.725,-25.586],[-139.194,-25.691],[-138.663,-25.793],[-138.13,-25.894],[-137.597,-25.993],[-137.063,-26.089],[-136.528,-26.184],[-135.992,-26.277],[-135.455,-26.368],[-134.918,-26.456],[-134.379,-26.543],[-133.84,-26.628],[-133.3,-26.711],[-132.76,-26.791],[-132.218,-26.87],[-131.676,-26.946],[-131.133,-27.021],[-130.589,-27.093],[-130.031,-27.101],[-129.472,-27.106],[-128.913,-27.11],[-128.355,-27.111],[-127.796,-27.109],[-127.237,-27.106],[-126.679,-27.1],[-126.12,-27.093],[-125.562,-27.083],[-125.003,-27.071],[-124.445,-27.056],[-123.887,-27.039],[-123.329,-27.021],[-122.772,-27.0],[-122.214,-26.976],[-121.657,-26.951],[-121.1,-26.924],[-120.543,-26.894],[-119.987,-26.862],[-119.431,-26.828],[-118.875,-26.791],[-118.32,-26.753],[-117.765,-26.712],[-117.21,-26.67],[-116.656,-26.625],[-116.103,-26.578],[-115.549,-26.528],[-114.997,-26.477],[-114.444,-26.424],[-113.893,-26.368],[-113.342,-26.31],[-112.791,-26.25],[-112.241,-26.189],[-111.692,-26.125]]}},{"type":"Feature","properties":{"boundary_type":"transform","feature_type":"gpml:Transform","polarity":null,"overriding_plate_id":null,"subducting_plate_id":null,"plate_ids":[701,801],"name":""},"geometry":{"type":"LineString","coordinates":[[-111.692,-26.125],[-111.442,-26.095],[-110.897,-26.03],[-110.353,-25.964],[-109.809,-25.895],[-109.266,-25.824],[-108.724,-25.752],[-108.182,-25.677],[-107.641,-25.6],[-107.101,-25.522],[-106.562,-25.441],[-106.023,-25.359],[-105.485,-25.274],[-104.947,-25.187],[-104.411,-25.099],[-103.875,-25.009],[-103.34,-24.916],[-102.806,-24.822],[-102.273,-24.726],[-101.74,-24.628],[-101.208,-24.528],[-100.678,-24.427],[-100.148,-24.323],[-99.618,-24.218],[-99.09,-24.11],[-98.563,-24.001],[-98.037,-23.891],[-97.511,-23.778],[-96.986,-23.664]]}},{"type":"Feature","properties":{"boundary_type":"transform","feature_type":"gpml:Transform","polarity":null,"overriding_plate_id":null,"subducting_plate_id":null,"plate_ids":[101,401],"name":""},"geometry":{"type":"LineString","coordinates":[[-141.297,-2.007],[-140.807,-2.04],[-140.316,-2.072],[-139.826,-2.105],[-139.335,-2.137],[-138.845,-2.17],[-138.354,-2.202],[-137.863,-2.234],[-137.373,-2.265],[-136.882,-2.297],[-136.391,-2.328],[-135.901,-2.359],[-135.41,-2.391],[-134.919,-2.421],[-134.428,-2.452],[-133.938,-2.483],[-133.447,-2.513],[-132.956,-2.543],[-132.465,-2.573],[-131.974,-2.603],[-131.483,-2.632],[-130.992,-2.662],[-130.501,-2.691],[-130.01,-2.72],[-129.519,-2.749],[-129.028,-2.778],[-128.537,-2.806],[-128.046,-2.834],[-127.555,-2.862],[-127.064,-2.89],[-126.573,-2.917],[-126.081,-2.945],[-125.59,-2.972],[-125.099,-2.999],[-124.608,-3.026],[-124.117,-3.052],[-123.625,-3.078],[-123.134,-3.104],[-122.643,-3.13],[-122.151,-3.156],[-121.66,-3.181],[-121.168,-3.206],[-120.677,-3.231],[-120.185,-3.256],[-119.694,-3.28],[-119.202,-3.304],[-118.711,-3.328],[-118.219,-3.352],[-117.728,-3.375],[-117.236,-3.398],[-116.745,-3.421],[-116.253,-3.444],[-115.761,-3.466],[-115.269,-3.489],[-114.778,-3.51],[-114.286,-3.532]]}},{"type":"Feature","properties":{"boundary_type":"transform","feature_type":"gpml:Transform","polarity":null,"overriding_plate_id":null,"subducting_plate_id":null,"plate_ids":[101,801],"name":""},"geometry":{"type":"LineString","coordinates":[[-114.286,-3.532],[-113.828,-3.552],[-113.369,-3.572],[-112.91,-3.591],[-112.452,-3.611],[-111.993,-3.63],[-111.535,-3.648],[-111.076,-3.667],[-110.617,-3.685]]}},{"type":"Feature","properties":{"boundary_type":"subduction","feature_type":"gpml:SubductionZone","polarity":"Left","overriding_plate_id":401,"subducting_plate_id":101,"plate_ids":[101,401],"name":""},"geometry":{"type":"LineString","coordinates":[[-141.297,-2.007],[-141.597,-2.369],[-141.896,-2.73],[-142.196,-3.092],[-142.495,-3.454],[-142.795,-3.815],[-143.096,-4.177],[-143.396,-4.538],[-143.697,-4.899],[-143.94,-5.326],[-144.184,-5.753],[-144.428,-6.18],[-144.672,-6.606],[-144.917,-7.033],[-145.162,-7.459],[-145.408,-7.885],[-145.654,-8.311],[-145.9,-8.737],[-146.148,-9.163],[-146.298,-9.626],[-146.449,-10.088],[-146.601,-10.55],[-146.753,-11.012],[-146.905,-11.475],[-147.058,-11.937],[-147.212,-12.399],[-147.366,-12.861],[-147.52,-13.323],[-147.675,-13.784],[-147.831,-14.246],[-147.988,-14.707],[-148.145,-15.169],[-148.302,-15.63],[-148.461,-16.091],[-148.62,-16.552],[-148.763,-16.998],[-148.907,-17.444],[-149.051,-17.889],[-149.196,-18.335],[-149.342,-18.78],[-149.488,-19.225],[-149.636,-19.67],[-149.784,-20.115],[-149.933,-20.56],[-150.083,-21.004],[-150.233,-21.449],[-150.385,-21.893],[-150.538,-22.337],[-150.691,-22.782]]}},{"type":"Feature","properties":{"boundary_type":"subduction","feature_type":"gpml:SubductionZone","polarity":"Left","overriding_plate_id":801,"subducting_plate_id":101,"plate_ids":[101,801],"name":""},"geometry":{"type":"LineString","coordinates":[[-102.683,14.162],[-102.98,13.779],[-103.277,13.394],[-103.572,13.01],[-103.867,12.625],[-104.161,12.24],[-104.454,11.854],[-104.746,11.469],[-105.037,11.083],[-105.328,10.696],[-105.618,10.31],[-105.907,9.923],[-106.195,9.536],[-106.483,9.148],[-106.77,8.761],[-107.056,8.373],[-107.221,7.908],[-107.386,7.442],[-107.55,6.977],[-107.713,6.511],[-107.877,6.045],[-108.04,5.58],[-108.203,5.114],[-108.365,4.648],[-108.528,4.183],[-108.69,3.717],[-108.852,3.251],[-109.014,2.785],[-109.176,2.319],[-109.337,1.853],[-109.499,1.387],[-109.66,0.921],[-109.822,0.455],[-109.983,-0.011],[-110.063,-0.47],[-110.142,-0.929],[-110.221,-1.389],[-110.3,-1.848],[-110.379,-2.307],[-110.459,-2.767],[-110.538,-3.226],[-110.617,-3.685]]}},{"type":"Feature","properties":{"boundary_type":"ridge","feature_type":"gpml:MidOceanRidge","polarity":null,"overriding_plate_id":null,"subducting_plate_id":null,"plate_ids":[401,801],"name":""},"geometry":{"type":"LineString","coordinates":[[-111.692,-26.125],[-111.756,-25.636],[-111.82,-25.147],[-111.883,-24.659],[-111.946,-24.17],[-112.008,-23.682],[-112.07,-23.193],[-112.131,-22.704],[-112.192,-22.215],[-112.253,-21.727],[-112.313,-21.238],[-112.373,-20.749],[-112.432,-20.26],[-112.491,-19.771],[-112.549,-19.282],[-112.608,-18.794],[-112.666,-18.305],[-112.723,-17.816],[-112.78,-17.327],[-112.837,-16.838],[-112.894,-16.349],[-112.95,-15.86],[-113.007,-15.371],[-113.062,-14.882],[-113.118,-14.393],[-113.173,-13.904],[-113.625,-13.919],[-114.077,-13.933],[-114.529,-13.947],[-114.517,-13.451],[-114.505,-12.955],[-114.493,-12.459],[-114.481,-11.963],[-114.47,-11.467],[-114.458,-10.971],[-114.446,-10.475],[-114.435,-9.979],[-114.423,-9.483],[-114.411,-8.987],[-114.4,-8.491],[-114.388,-7.996],[-114.377,-7.5],[-114.366,-7.004],[-114.354,-6.508],[-114.343,-6.012],[-114.331,-5.516],[-114.32,-5.02],[-114.309,-4.524],[-114.297,-4.028],[-114.286,-3.532]]}},{"type":"Feature","properties":{"boundary_type":"transform","feature_type":"gpml:Transform","polarity":null,"overriding_plate_id":null,"subducting_plate_id":null,"plate_ids":[101,302],"name":""},"geometry":{"type":"LineString","coordinates":[[-172.761,3.993],[-172.472,3.803],[-172.183,3.612],[-171.895,3.422]]}},{"type":"Feature","properties":{"boundary_type":"transform","feature_type":"gpml:Transform","polarity":null,"overriding_plate_id":null,"subducting_plate_id":null,"plate_ids":[302,501],"name":""},"geometry":{"type":"LineString","coordinates":[[-171.895,3.422],[-171.477,3.146],[-171.06,2.871],[-170.643,2.595],[-170.225,2.318],[-169.809,2.042],[-169.392,1.766],[-168.975,1.489],[-168.559,1.213],[-168.142,0.936],[-167.726,0.659],[-167.31,0.382],[-166.893,0.106],[-166.477,-0.171],[-166.061,-0.448],[-165.644,-0.725],[-165.228,-1.001],[-164.812,-1.278],[-164.395,-1.554],[-163.978,-1.831],[-163.562,-2.107],[-163.145,-2.384],[-162.728,-2.66],[-162.31,-2.936],[-161.893,-3.212],[-161.475,-3.487],[-161.057,-3.763],[-160.639,-4.038],[-160.22,-4.313],[-159.802,-4.588]]}},{"type":"Feature","properties":{"boundary_type":"ridge","feature_type":"gpml:MidOceanRidge","polarity":null,"overriding_plate_id":null,"subducting_plate_id":null,"plate_ids":[90106,501001],"name":""},"geometry":{"type":"LineString","coordinates":[[-175.09,40.884],[-175.732,40.961],[-176.376,41.035],[-177.021,41.105],[-177.667,41.171],[-178.314,41.233],[-178.963,41.292],[-179.613,41.348],[179.737,41.4],[179.085,41.448],[178.432,41.492],[177.778,41.533],[177.124,41.57],[176.469,41.603],[175.813,41.632],[175.157,41.658],[174.5,41.68],[173.843,41.698],[173.185,41.713],[172.527,41.724],[171.869,41.731],[171.211,41.734],[170.553,41.734],[169.895,41.729],[169.237,41.721],[168.579,41.71],[167.922,41.694],[167.265,41.675],[166.608,41.652],[165.952,41.625],[165.296,41.595],[164.641,41.561],[163.987,41.523],[163.333,41.481],[162.681,41.436],[162.029,41.387],[161.379,41.334],[160.729,41.278],[160.081,41.218],[159.434,41.155],[158.788,41.088],[158.466,40.683],[158.148,40.278],[157.834,39.873],[157.523,39.466],[157.216,39.058],[156.913,38.65],[156.613,38.241],[156.316,37.831],[156.023,37.42],[155.733,37.009],[155.446,36.597],[155.162,36.184],[154.881,35.771],[154.603,35.357],[154.328,34.942],[154.056,34.527],[153.475,34.648],[152.893,34.767],[152.31,34.882],[151.724,34.995],[151.137,35.105],[150.549,35.213],[149.959,35.317],[149.367,35.418],[148.774,35.517],[148.18,35.613],[147.584,35.705],[146.987,35.795],[146.389,35.882],[145.789,35.966],[145.188,36.047],[144.585,36.125],[143.982,36.199],[143.377,36.271],[142.772,36.34],[142.165,36.406],[141.557,36.468],[140.949,36.528],[140.339,36.584],[139.729,36.638],[139.117,36.688],[138.505,36.735],[137.892,36.779],[137.81,36.29],[137.728,35.801],[137.647,35.312],[137.567,34.823],[137.488,34.334],[137.41,33.845],[137.333,33.356],[137.256,32.866],[137.181,32.377],[137.106,31.888],[137.032,31.398],[136.959,30.909],[136.887,30.419],[136.815,29.93],[136.744,29.44],[136.674,28.951],[136.605,28.461],[136.536,27.971],[136.467,27.482],[136.4,26.992],[136.332,26.502],[136.266,26.012],[135.712,26.012],[135.158,26.01],[134.604,26.005],[134.051,25.998],[133.497,25.989],[132.943,25.979],[132.39,25.966],[131.836,25.95],[131.283,25.933],[130.73,25.914],[130.177,25.892],[129.625,25.869],[129.072,25.843],[128.52,25.816],[127.968,25.786],[127.417,25.754],[126.866,25.72],[126.315,25.684],[125.764,25.646],[125.214,25.606],[124.664,25.564],[124.114,25.519],[123.565,25.473],[123.017,25.425],[122.468,25.374],[121.921,25.322],[121.374,25.268],[120.827,25.211],[120.281,25.153],[119.735,25.092]]}},{"type":"Feature","properties":{"boundary_type":"ridge","feature_type":"gpml:MidOceanRidge","polarity":null,"overriding_plate_id":null,"subducting_plate_id":null,"plate_ids":[90105,501001],"name":""},"geometry":{"type":"LineString","coordinates":[[120.833,24.853],[120.384,24.573],[119.937,24.291],[119.492,24.008],[119.048,23.723],[118.607,23.438],[118.168,23.151],[117.73,22.863],[117.294,22.573],[116.86,22.283],[116.428,21.991],[115.998,21.698],[115.569,21.404],[115.143,21.109],[114.717,20.813],[114.294,20.516],[113.872,20.218],[113.452,19.919],[113.033,19.619],[112.616,19.318],[112.201,19.016],[111.787,18.713],[111.374,18.409],[110.963,18.104],[110.554,17.799],[110.145,17.492],[109.738,17.185],[109.333,16.877],[108.929,16.568],[108.526,16.259],[108.124,15.948],[107.724,15.637],[107.325,15.325],[106.927,15.013],[106.53,14.699],[106.134,14.385],[105.74,14.071],[105.346,13.756],[104.954,13.44],[104.562,13.123],[104.172,12.806],[103.783,12.489],[103.394,12.17],[103.007,11.852],[102.62,11.532],[102.234,11.213],[101.849,10.892],[101.465,10.572],[101.082,10.25],[100.7,9.929],[100.318,9.607],[99.937,9.284],[99.557,8.961],[99.177,8.638],[98.798,8.314],[98.42,7.99],[98.042,7.666],[97.665,7.341],[97.288,7.016],[96.912,6.691],[96.537,6.365],[96.162,6.04],[95.787,5.714],[95.413,5.387],[95.039,5.061],[94.665,4.734],[94.292,4.407],[93.92,4.08],[93.547,3.752],[93.913,3.422],[94.279,3.091],[94.645,2.76],[95.01,2.43],[95.376,2.099],[95.741,1.768],[96.106,1.437],[96.471,1.105],[96.836,0.774],[97.2,0.443],[97.565,0.112],[97.93,-0.219],[98.295,-0.551],[98.659,-0.882],[99.024,-1.213],[99.389,-1.544],[99.754,-1.875],[100.119,-2.206],[100.485,-2.537],[100.85,-2.868],[101.216,-3.199],[101.582,-3.529],[101.948,-3.86],[102.315,-4.19],[102.682,-4.52],[103.049,-4.85],[103.416,-5.18],[103.784,-5.509],[104.153,-5.838],[104.521,-6.167],[104.89,-6.496],[105.26,-6.825],[105.63,-7.153],[106.001,-7.481],[106.372,-7.808],[106.744,-8.136],[107.117,-8.463],[106.861,-8.836],[106.604,-9.209],[106.347,-9.582],[106.089,-9.955],[105.831,-10.328],[105.572,-10.7],[105.877,-11.008],[106.182,-11.316],[106.488,-11.624],[106.795,-11.931],[107.103,-12.238],[107.411,-12.545]]}},{"type":"Feature","properties":{"boundary_type":"subduction","feature_type":"gpml:SubductionZone","polarity":"Right","overriding_plate_id":701,"subducting_plate_id":90105,"plate_ids":[701,90105],"name":""},"geometry":{"type":"LineString","coordinates":[[48.441,-78.896],[50.961,-78.976],[53.513,-79.035],[56.087,-79.073],[58.674,-79.09],[61.263,-79.084],[63.845,-79.057],[66.409,-79.008],[68.946,-78.938],[71.447,-78.847],[73.904,-78.736],[76.308,-78.605],[78.655,-78.455],[80.939,-78.286],[83.156,-78.1],[85.303,-77.898],[87.377,-77.679],[89.378,-77.445],[91.304,-77.197],[93.157,-76.935],[94.936,-76.661],[96.643,-76.375],[98.28,-76.078],[99.849,-75.77],[101.352,-75.452],[102.791,-75.125],[104.169,-74.79],[105.488,-74.447],[106.788,-74.097],[108.034,-73.739],[109.227,-73.375],[110.37,-73.004],[111.465,-72.627],[112.515,-72.245],[113.521,-71.857],[114.487,-71.464],[115.413,-71.066],[116.303,-70.664],[117.158,-70.258],[117.979,-69.848],[118.769,-69.434],[119.528,-69.017],[120.26,-68.596],[120.964,-68.173],[121.643,-67.746],[122.297,-67.317],[122.928,-66.885],[123.538,-66.451],[124.126,-66.015],[124.695,-65.576],[125.245,-65.136],[125.776,-64.693],[126.291,-64.249],[126.789,-63.802],[127.272,-63.354],[127.74,-62.905],[128.193,-62.454],[128.634,-62.002],[129.061,-61.548],[129.476,-61.093],[129.879,-60.637],[130.271,-60.179],[130.652,-59.721],[131.023,-59.261],[131.384,-58.8],[131.736,-58.339],[132.078,-57.876],[132.412,-57.413],[132.737,-56.948],[133.054,-56.483],[133.364,-56.017],[133.666,-55.55],[133.961,-55.083],[134.25,-54.615],[134.532,-54.146],[134.807,-53.677],[135.076,-53.207],[135.34,-52.736],[135.598,-52.265],[135.85,-51.793],[136.098,-51.321]]}},{"type":"Feature","properties":{"boundary_type":"ridge","feature_type":"gpml:MidOceanRidge","polarity":null,"overriding_plate_id":null,"subducting_plate_id":null,"plate_ids":[90105,90107],"name":""},"geometry":{"type":"LineString","coordinates":[[-15.403,-55.388],[-15.419,-55.75]]}},{"type":"Feature","properties":{"boundary_type":"ridge","feature_type":"gpml:MidOceanRidge","polarity":null,"overriding_plate_id":null,"subducting_plate_id":null,"plate_ids":[701,90105],"name":""},"geometry":{"type":"LineString","coordinates":[[-15.419,-55.75],[-15.441,-56.241],[-15.464,-56.732],[-15.487,-57.223],[-15.511,-57.714],[-15.536,-58.204],[-15.561,-58.695],[-15.587,-59.186],[-15.614,-59.677],[-15.642,-60.168],[-15.67,-60.658],[-15.699,-61.149],[-15.73,-61.64],[-15.761,-62.131],[-15.793,-62.621],[-15.826,-63.112],[-15.861,-63.603],[-15.896,-64.094],[-15.933,-64.584],[-15.972,-65.075],[-16.011,-65.566],[-16.053,-66.057],[-16.096,-66.547],[-16.14,-67.038],[-16.187,-67.529],[-16.235,-68.019],[-16.285,-68.51],[-16.338,-69.0],[-16.393,-69.491],[-16.451,-69.982],[-15.052,-70.022],[-13.649,-70.051],[-12.242,-70.069],[-10.834,-70.076],[-9.425,-70.071],[-9.2,-70.54],[-8.963,-71.009],[-8.716,-71.477],[-8.455,-71.945],[-8.182,-72.412],[-7.894,-72.88],[-7.59,-73.346],[-7.269,-73.812],[-6.93,-74.278],[-6.571,-74.743],[-6.19,-75.208],[-5.784,-75.672],[-5.352,-76.135],[-4.891,-76.597],[-4.397,-77.059],[-2.784,-77.381],[-1.089,-77.693],[0.691,-77.994],[2.559,-78.283],[4.519,-78.56],[6.572,-78.823],[8.72,-79.071],[10.963,-79.304],[13.302,-79.52],[15.733,-79.718],[18.254,-79.897],[20.861,-80.057],[23.546,-80.196],[26.301,-80.313],[29.116,-80.407],[31.98,-80.479],[34.88,-80.527],[37.44,-80.296],[39.878,-80.047],[42.195,-79.781],[44.392,-79.5],[46.472,-79.204],[48.441,-78.896]]}},{"type":"Feature","properties":{"boundary_type":"ridge","feature_type":"gpml:MidOceanRidge","polarity":null,"overriding_plate_id":null,"subducting_plate_id":null,"plate_ids":[90105,501001],"name":""},"geometry":{"type":"LineString","coordinates":[[120.833,24.853],[120.468,24.934],[120.101,25.013],[119.735,25.092]]}},{"type":"Feature","properties":{"boundary_type":"ridge","feature_type":"gpml:MidOceanRidge","polarity":null,"overriding_plate_id":null,"subducting_plate_id":null,"plate_ids":[90105,90106],"name":""},"geometry":{"type":"LineString","coordinates":[[119.735,25.092],[119.202,25.205],[118.669,25.316],[118.135,25.424],[117.599,25.531],[117.063,25.636],[116.526,25.739],[115.988,25.84],[115.449,25.939],[114.909,26.036],[114.368,26.131],[113.826,26.224],[113.284,26.315],[112.74,26.404],[112.196,26.49],[111.651,26.575],[111.105,26.658],[110.558,26.738],[110.011,26.817],[109.463,26.893],[108.914,26.968],[108.364,27.04],[107.814,27.11],[107.263,27.177],[106.712,27.243],[106.159,27.307],[105.606,27.368],[105.053,27.427],[104.499,27.484],[103.944,27.539],[103.389,27.592],[102.833,27.642],[102.277,27.69],[101.72,27.736],[101.163,27.78],[100.606,27.821],[100.048,27.86],[99.489,27.897],[98.931,27.932],[98.372,27.965],[97.812,27.995],[97.252,28.023],[96.692,28.048],[96.132,28.072],[95.572,28.093],[95.011,28.112],[94.45,28.128],[93.889,28.143],[93.328,28.155],[92.767,28.164],[92.205,28.172],[91.644,28.177],[91.082,28.18],[90.521,28.18],[89.959,28.179],[89.398,28.175],[88.836,28.168],[88.275,28.16],[87.714,28.149],[87.153,28.135],[86.592,28.12],[86.031,28.102],[85.47,28.082],[85.493,28.498],[85.517,28.914],[85.54,29.33],[84.968,29.307],[84.396,29.282],[83.825,29.255],[83.254,29.225],[82.683,29.193],[82.113,29.158],[81.543,29.121],[80.974,29.082],[80.405,29.04],[79.836,28.995],[79.268,28.949],[78.7,28.9],[78.133,28.848],[77.567,28.794],[77.001,28.738],[76.436,28.68],[75.871,28.619],[75.307,28.555],[74.744,28.49],[74.182,28.422],[73.62,28.352],[73.059,28.279],[72.499,28.205],[71.939,28.128],[71.381,28.048],[70.823,27.967],[70.266,27.883],[69.71,27.797],[69.155,27.709],[68.6,27.618],[68.047,27.525],[67.495,27.431],[66.943,27.334],[66.393,27.234],[65.843,27.133],[65.295,27.03],[65.189,27.498],[65.082,27.967],[64.974,28.436],[64.865,28.905],[64.755,29.373],[64.644,29.842],[64.532,30.31],[64.419,30.778],[64.305,31.246],[64.19,31.715],[63.608,31.659],[63.027,31.601],[62.447,31.541],[61.868,31.477],[61.289,31.412],[60.711,31.343],[60.134,31.272],[59.558,31.199],[58.983,31.123],[58.409,31.044],[57.836,30.963],[57.264,30.879],[56.692,30.793],[56.122,30.704],[55.553,30.613],[54.985,30.519],[54.418,30.423],[53.852,30.324],[53.288,30.223],[52.724,30.12],[52.162,30.014],[51.601,29.906],[51.041,29.795],[50.483,29.682],[49.925,29.567],[49.369,29.449],[48.814,29.329],[48.261,29.207],[47.709,29.083],[47.158,28.956],[46.609,28.827],[46.061,28.696],[45.514,28.562],[44.969,28.427],[44.425,28.289],[43.883,28.149],[43.342,28.007],[42.802,27.863],[42.264,27.717],[41.728,27.568],[41.192,27.418],[40.659,27.266],[40.126,27.111],[39.596,26.955],[39.066,26.796],[38.538,26.636],[38.012,26.474],[37.487,26.309],[36.964,26.143],[36.442,25.975],[35.922,25.805],[35.403,25.634],[34.886,25.46],[34.37,25.285],[33.855,25.108],[33.343,24.929]]}},{"type":"Feature","properties":{"boundary_type":"subduction","feature_type":"gpml:SubductionZone","polarity":"Right","overriding_plate_id":201,"subducting_plate_id":701,"plate_ids":[201,701],"name":""},"geometry":{"type":"LineString","coordinates":[[-165.689,-24.356],[-165.993,-24.772],[-166.299,-25.187],[-166.607,-25.601],[-166.917,-26.015],[-167.229,-26.428],[-167.544,-26.841],[-167.861,-27.253],[-168.18,-27.664],[-168.502,-28.074],[-168.826,-28.484],[-169.152,-28.892],[-169.481,-29.3],[-169.813,-29.708],[-170.148,-30.114],[-170.485,-30.519],[-170.825,-30.924],[-171.168,-31.328],[-171.514,-31.73],[-171.863,-32.132],[-172.215,-32.533],[-172.57,-32.933],[-172.929,-33.332],[-173.29,-33.73],[-173.655,-34.127],[-174.024,-34.522],[-174.396,-34.917],[-174.771,-35.31],[-175.151,-35.703],[-175.534,-36.094],[-175.921,-36.483],[-176.311,-36.872],[-176.706,-37.259],[-177.105,-37.645],[-177.508,-38.03],[-177.915,-38.413],[-178.344,-38.771],[-178.778,-39.127],[-179.216,-39.481],[-179.658,-39.834],[179.895,-40.185],[179.444,-40.535],[178.987,-40.882],[178.526,-41.228],[178.06,-41.572],[177.589,-41.914],[177.113,-42.254],[176.632,-42.593],[176.146,-42.929],[175.654,-43.263],[175.157,-43.595],[174.654,-43.924],[174.146,-44.252],[173.632,-44.577],[173.113,-44.9],[172.587,-45.22],[172.056,-45.538],[171.518,-45.854],[170.975,-46.167],[170.425,-46.477],[169.869,-46.785],[169.307,-47.09],[168.738,-47.392],[168.163,-47.692],[167.581,-47.988],[166.992,-48.282],[166.396,-48.572],[165.794,-48.86],[165.185,-49.144],[164.569,-49.425],[163.946,-49.702],[163.315,-49.977],[162.678,-50.247],[161.994,-50.471],[161.304,-50.691],[160.608,-50.907],[159.905,-51.119],[159.196,-51.326],[158.48,-51.529],[157.758,-51.728],[157.03,-51.922],[156.296,-52.112],[155.555,-52.297],[154.808,-52.477],[154.055,-52.653],[153.296,-52.824],[152.532,-52.99],[151.761,-53.151],[150.985,-53.307],[150.203,-53.458],[149.416,-53.603],[148.659,-53.674],[147.899,-53.74],[147.138,-53.801],[146.374,-53.857],[145.608,-53.908],[144.841,-53.954],[144.072,-53.996]]}},{"type":"Feature","properties":{"boundary_type":"ridge","feature_type":"gpml:MidOceanRidge","polarity":null,"overriding_plate_id":null,"subducting_plate_id":null,"plate_ids":[90106,90107],"name":""},"geometry":{"type":"LineString","coordinates":[[33.574,25.262],[33.23,25.654],[32.884,26.045],[32.535,26.435],[32.184,26.824],[31.831,27.212],[31.475,27.6],[31.117,27.986],[30.756,28.372],[30.392,28.756],[30.026,29.14],[29.657,29.523],[29.285,29.904],[28.911,30.285],[28.533,30.664],[28.152,31.043],[27.769,31.42],[27.382,31.796],[26.992,32.171],[26.599,32.545],[26.203,32.917],[25.803,33.289],[25.4,33.659],[24.994,34.027],[24.584,34.395],[24.17,34.76],[23.753,35.125],[23.332,35.488],[22.907,35.85],[22.478,36.21],[22.045,36.568],[21.608,36.925],[21.167,37.28],[20.722,37.634],[21.154,37.972],[21.59,38.308],[22.03,38.642],[22.474,38.974],[22.922,39.305],[23.374,39.635],[22.959,40.018],[22.538,40.4],[22.113,40.781],[21.683,41.16],[21.248,41.537],[20.808,41.913],[20.362,42.287],[19.912,42.659],[19.456,43.029],[18.994,43.398],[18.527,43.765],[18.054,44.129],[17.575,44.492],[17.09,44.853],[16.599,45.212],[16.102,45.568],[15.599,45.923],[15.089,46.275],[14.572,46.625],[14.049,46.972],[13.519,47.317],[12.982,47.66],[12.438,48.0],[11.887,48.338],[11.328,48.672],[10.762,49.004],[10.189,49.334],[9.608,49.66],[9.019,49.984],[8.422,50.304],[7.816,50.621],[7.203,50.935],[6.582,51.246],[5.952,51.554],[5.313,51.858],[4.666,52.159],[4.01,52.456],[3.346,52.749],[2.672,53.039],[1.989,53.324],[1.297,53.606],[0.596,53.884],[-0.114,54.158],[-0.834,54.427],[-1.563,54.692],[-2.302,54.953],[-3.05,55.209],[-3.808,55.46],[-4.575,55.707],[-5.353,55.949],[-6.139,56.186],[-6.936,56.418],[-7.742,56.644],[-8.558,56.866],[-9.383,57.082],[-10.218,57.292],[-11.063,57.497],[-11.917,57.696],[-12.78,57.89],[-13.652,58.077],[-14.533,58.259],[-15.424,58.434],[-16.323,58.603],[-17.231,58.766],[-18.147,58.922],[-19.071,59.072],[-20.003,59.215],[-20.943,59.352],[-21.89,59.482],[-22.844,59.604],[-23.805,59.72],[-24.773,59.829],[-25.746,59.93],[-26.726,60.025],[-27.711,60.112],[-28.7,60.192],[-29.695,60.264]]}},{"type":"Feature","properties":{"boundary_type":"ridge","feature_type":"gpml:MidOceanRidge","polarity":null,"overriding_plate_id":null,"subducting_plate_id":null,"plate_ids":[701,90107],"name":""},"geometry":{"type":"LineString","coordinates":[[-15.419,-55.75],[-16.299,-55.733],[-17.177,-55.71],[-18.055,-55.681],[-18.931,-55.645],[-19.805,-55.603],[-20.677,-55.555],[-21.547,-55.5],[-22.414,-55.44],[-23.279,-55.373],[-24.14,-55.301],[-24.998,-55.222],[-25.853,-55.137],[-26.704,-55.047],[-27.551,-54.95],[-28.394,-54.848],[-29.232,-54.739],[-30.066,-54.625],[-30.895,-54.506],[-31.719,-54.38],[-31.586,-53.891],[-31.456,-53.402],[-31.329,-52.913],[-31.204,-52.423],[-31.082,-51.933],[-30.963,-51.444],[-30.847,-50.954],[-30.733,-50.464],[-30.621,-49.974],[-30.511,-49.483],[-30.404,-48.993],[-30.299,-48.503],[-30.195,-48.012],[-30.094,-47.522],[-29.995,-47.031],[-29.897,-46.54],[-29.801,-46.049],[-29.707,-45.558],[-29.614,-45.067],[-29.523,-44.576],[-29.434,-44.085],[-29.346,-43.594],[-29.26,-43.103],[-29.174,-42.611],[-29.091,-42.12],[-29.008,-41.628],[-28.927,-41.137],[-28.847,-40.645],[-28.768,-40.154],[-28.69,-39.662],[-28.613,-39.17],[-28.538,-38.678],[-28.463,-38.186],[-28.389,-37.695],[-28.317,-37.203],[-28.245,-36.711],[-28.174,-36.219],[-28.105,-35.727],[-28.035,-35.234],[-28.588,-35.081],[-29.138,-34.926],[-29.686,-34.768],[-30.232,-34.607],[-30.775,-34.445],[-31.317,-34.279],[-31.857,-34.112],[-32.394,-33.942],[-32.929,-33.769],[-33.462,-33.595],[-33.993,-33.418],[-34.522,-33.239],[-35.048,-33.058],[-35.573,-32.874],[-36.095,-32.688],[-36.615,-32.5],[-37.132,-32.31],[-37.648,-32.118],[-38.162,-31.924],[-37.937,-31.468],[-37.714,-31.011],[-37.494,-30.554],[-37.275,-30.097],[-37.059,-29.639],[-36.844,-29.181],[-36.632,-28.723],[-36.421,-28.264],[-36.212,-27.805],[-36.005,-27.346],[-35.8,-26.887],[-35.596,-26.427],[-35.394,-25.966],[-35.193,-25.506],[-34.994,-25.045],[-34.797,-24.584],[-34.601,-24.123],[-34.406,-23.662],[-34.213,-23.2],[-34.021,-22.738],[-33.83,-22.276],[-33.641,-21.813],[-33.452,-21.351],[-33.265,-20.888],[-33.08,-20.425],[-32.895,-19.961],[-32.711,-19.498],[-32.529,-19.034],[-32.347,-18.571],[-32.166,-18.107],[-31.987,-17.642],[-31.808,-17.178],[-31.63,-16.714],[-31.453,-16.249],[-31.277,-15.784],[-31.102,-15.319],[-30.927,-14.854],[-30.753,-14.389],[-30.58,-13.924],[-30.408,-13.459],[-30.236,-12.993],[-30.065,-12.527],[-29.894,-12.062],[-29.725,-11.596],[-29.555,-11.13],[-29.387,-10.664],[-29.218,-10.198],[-29.05,-9.732],[-28.883,-9.265],[-28.716,-8.799],[-28.55,-8.332],[-28.384,-7.866],[-28.218,-7.399],[-28.053,-6.933],[-27.888,-6.466],[-27.723,-5.999],[-27.559,-5.532],[-27.395,-5.066],[-27.231,-4.599],[-27.067,-4.132],[-26.904,-3.665],[-26.74,-3.198],[-26.577,-2.731],[-26.414,-2.264],[-26.251,-1.797],[-26.088,-1.33],[-25.926,-0.862],[-25.763,-0.395]]}},{"type":"Feature","properties":{"boundary_type":"ridge","feature_type":"gpml:MidOceanRidge","polarity":null,"overriding_plate_id":null,"subducting_plate_id":null,"plate_ids":[90106,90107],"name":""},"geometry":{"type":"LineString","coordinates":[[33.574,25.262],[33.343,24.929]]}},{"type":"Feature","properties":{"boundary_type":"ridge","feature_type":"gpml:MidOceanRidge","polarity":null,"overriding_plate_id":null,"subducting_plate_id":null,"plate_ids":[90105,90107],"name":""},"geometry":{"type":"LineString","coordinates":[[33.343,24.929],[33.057,24.515],[32.774,24.102],[32.493,23.687],[32.213,23.273],[31.935,22.857],[31.659,22.442],[31.385,22.025],[31.112,21.609],[30.84,21.192],[30.571,20.774],[30.302,20.356],[30.035,19.938],[29.77,19.519],[29.506,19.1],[29.243,18.68],[28.982,18.26],[28.721,17.84],[28.462,17.419],[28.205,16.998],[27.948,16.577],[27.693,16.156],[27.438,15.734],[27.185,15.312],[26.932,14.889],[26.681,14.466],[26.431,14.043],[26.181,13.62],[25.933,13.197],[25.685,12.773],[25.438,12.349],[25.192,11.925],[24.947,11.5],[24.702,11.076],[24.458,10.651],[24.215,10.226],[23.972,9.801],[23.73,9.376],[24.151,9.104],[24.572,8.832],[24.991,8.56],[25.41,8.287],[25.829,8.014],[26.247,7.741],[26.664,7.467],[27.081,7.192],[27.497,6.918],[27.913,6.642],[28.328,6.367],[28.743,6.091],[29.158,5.815],[29.572,5.539],[29.985,5.262],[30.399,4.985],[30.812,4.708],[31.224,4.43],[31.637,4.153],[32.049,3.875],[32.461,3.597],[32.872,3.318],[33.283,3.04],[33.694,2.761],[33.429,2.345],[33.164,1.93],[32.898,1.514],[32.633,1.098],[32.368,0.682],[32.103,0.266],[31.838,-0.15],[31.573,-0.566],[31.308,-0.982],[31.043,-1.398],[30.778,-1.814],[30.512,-2.229],[30.247,-2.645],[29.981,-3.061],[29.715,-3.477],[29.449,-3.892],[29.183,-4.308],[28.916,-4.723],[28.649,-5.139],[28.382,-5.554],[28.114,-5.969],[27.846,-6.384],[27.578,-6.799],[27.309,-7.213],[27.039,-7.628],[26.769,-8.042],[26.498,-8.456],[26.227,-8.87],[25.956,-9.284],[25.683,-9.698],[25.41,-10.111],[25.136,-10.524],[24.862,-10.937],[24.586,-11.35],[24.31,-11.762],[24.033,-12.174],[23.756,-12.586],[23.477,-12.998],[23.197,-13.409],[22.917,-13.82],[22.635,-14.23],[22.353,-14.641],[22.069,-15.051],[21.784,-15.46],[21.499,-15.87],[21.212,-16.278],[20.923,-16.687],[20.634,-17.095],[20.343,-17.503],[20.051,-17.91],[19.758,-18.317],[19.463,-18.723],[19.167,-19.129],[18.869,-19.534],[18.57,-19.939],[18.27,-20.344],[17.967,-20.748],[17.663,-21.151],[17.358,-21.554],[17.051,-21.956],[16.742,-22.358],[16.431,-22.759],[16.118,-23.159],[15.804,-23.559],[15.488,-23.959],[15.169,-24.357],[14.849,-24.755],[15.243,-25.072],[15.639,-25.387],[16.037,-25.701],[16.437,-26.015],[16.839,-26.327],[17.243,-26.638],[17.65,-26.948],[18.059,-27.257],[18.47,-27.564],[18.883,-27.871],[19.299,-28.176],[19.717,-28.48],[20.138,-28.782],[20.561,-29.084],[20.986,-29.383],[21.414,-29.682],[21.845,-29.979],[21.467,-30.348],[21.087,-30.716],[20.703,-31.083],[20.317,-31.449],[19.928,-31.814],[19.536,-32.177],[19.14,-32.539],[18.741,-32.9],[18.339,-33.26],[17.934,-33.618],[17.526,-33.975],[17.114,-34.331],[16.698,-34.685],[16.279,-35.038],[15.856,-35.389],[15.43,-35.739],[14.999,-36.087],[14.565,-36.434],[14.127,-36.78],[13.686,-37.123],[13.24,-37.465],[12.79,-37.805],[12.336,-38.144],[11.877,-38.481],[11.415,-38.816],[10.948,-39.149],[10.476,-39.48],[10.0,-39.809],[9.52,-40.137],[9.035,-40.462],[8.545,-40.786],[8.05,-41.107],[7.551,-41.426],[7.916,-41.805],[8.286,-42.182],[8.66,-42.559],[9.038,-42.934],[9.422,-43.308],[9.81,-43.681],[10.203,-44.052],[10.6,-44.422],[11.003,-44.791],[10.48,-45.119],[9.951,-45.445],[9.416,-45.769],[8.874,-46.09],[8.326,-46.409],[7.772,-46.725],[7.211,-47.038],[6.644,-47.348],[6.07,-47.656],[5.489,-47.961],[4.901,-48.263],[4.307,-48.561],[3.705,-48.857],[3.096,-49.149],[2.48,-49.439],[1.857,-49.724],[1.226,-50.007],[0.589,-50.286],[-0.057,-50.562],[-0.71,-50.834],[-1.37,-51.102],[-2.039,-51.366],[-2.715,-51.627],[-3.398,-51.884],[-4.09,-52.136],[-4.789,-52.385],[-5.496,-52.629],[-6.211,-52.869],[-6.934,-53.105],[-7.665,-53.337],[-8.404,-53.564],[-9.151,-53.786],[-9.905,-54.003],[-10.667,-54.216],[-11.437,-54.424],[-12.215,-54.627],[-13.001,-54.825],[-13.794,-55.018],[-14.595,-55.206],[-15.403,-55.388]]}},{"type":"Feature","properties":{"boundary_type":"subduction","feature_type":"gpml:SubductionZone","polarity":"Left","overriding_plate_id":10103,"subducting_plate_id":90106,"plate_ids":[10103,90106],"name":""},"geometry":{"type":"LineString","coordinates":[[-92.391,71.048],[-92.632,71.501],[-92.884,71.954],[-93.149,72.406],[-93.428,72.858],[-93.721,73.309],[-94.031,73.76],[-94.357,74.211],[-94.702,74.661],[-96.226,74.912],[-97.798,75.152],[-99.421,75.381],[-101.092,75.598],[-102.812,75.804],[-104.58,75.996],[-106.395,76.176],[-108.255,76.342],[-110.158,76.494],[-112.101,76.631],[-114.081,76.753],[-116.095,76.859],[-118.14,76.95],[-120.209,77.024],[-122.3,77.082],[-124.406,77.123],[-126.522,77.147],[-128.366,76.902],[-130.141,76.645],[-131.849,76.376],[-133.49,76.096],[-135.067,75.805],[-136.58,75.504],[-138.033,75.194],[-139.426,74.875],[-140.763,74.548],[-142.045,74.214],[-143.274,73.872],[-144.453,73.523],[-145.584,73.168],[-146.67,72.807],[-147.712,72.441],[-148.712,72.069],[-149.673,71.693],[-150.596,71.311],[-151.483,70.926],[-152.336,70.536],[-153.157,70.143],[-153.947,69.746],[-154.143,69.259],[-154.33,68.773],[-154.509,68.286],[-154.68,67.799],[-154.845,67.312],[-155.003,66.825],[-155.154,66.338],[-155.3,65.85],[-155.441,65.363]]}},{"type":"Feature","properties":{"boundary_type":"subduction","feature_type":"gpml:SubductionZone","polarity":"Left","overriding_plate_id":101,"subducting_plate_id":501001,"plate_ids":[101,501001],"name":"Baltica_SZ"},"geometry":{"type":"LineString","coordinates":[[-175.478,39.473],[-175.343,39.019],[-175.21,38.565],[-175.079,38.11],[-174.949,37.656],[-174.821,37.202],[-174.695,36.747],[-174.57,36.292],[-174.435,35.838],[-174.302,35.383],[-174.17,34.928],[-174.04,34.473],[-173.911,34.018],[-173.784,33.563],[-173.658,33.108],[-173.533,32.652],[-173.41,32.197],[-173.288,31.741],[-173.237,31.277],[-173.188,30.813],[-173.138,30.349],[-173.09,29.885],[-173.041,29.421],[-172.994,28.957],[-172.946,28.493],[-172.899,28.029],[-172.853,27.564],[-172.806,27.1],[-172.76,26.636],[-172.715,26.172],[-172.64,25.69],[-172.566,25.208],[-172.493,24.726],[-172.42,24.243],[-172.348,23.761],[-172.276,23.279],[-172.205,22.797],[-172.134,22.314],[-172.064,21.832],[-171.994,21.35],[-171.982,20.867],[-171.97,20.385],[-171.958,19.903],[-171.946,19.421],[-171.935,18.938],[-171.923,18.456],[-171.912,17.974],[-171.9,17.491],[-171.889,17.009],[-171.877,16.527],[-171.866,16.045],[-171.855,15.562],[-171.844,15.08],[-171.832,14.598],[-171.872,14.107],[-171.911,13.616],[-171.95,13.125],[-171.989,12.634],[-172.028,12.143],[-172.066,11.653],[-172.105,11.162],[-172.143,10.671],[-172.182,10.18],[-172.22,9.689],[-172.258,9.198],[-172.296,8.707],[-172.258,8.212],[-172.22,7.717],[-172.182,7.222],[-172.144,6.727],[-172.107,6.232]]}},{"type":"Feature","properties":{"boundary_type":"subduction","feature_type":"gpml:SubductionZone","polarity":"Left","overriding_plate_id":101,"subducting_plate_id":501,"plate_ids":[101,501],"name":"Baltica_SZ"},"geometry":{"type":"LineString","coordinates":[[-172.107,6.232],[-172.071,5.764],[-172.036,5.296],[-172.001,4.827],[-171.965,4.359],[-171.93,3.891],[-171.895,3.422]]}},{"type":"Feature","properties":{"boundary_type":"subduction","feature_type":"gpml:SubductionZone","polarity":"Left","overriding_plate_id":201,"subducting_plate_id":701,"plate_ids":[201,701],"name":""},"geometry":{"type":"LineString","coordinates":[[-165.689,-24.356],[-165.156,-24.409],[-164.621,-24.46],[-164.086,-24.509],[-163.551,-24.556],[-163.016,-24.601]]}},{"type":"Feature","properties":{"boundary_type":"subduction","feature_type":"gpml:SubductionZone","polarity":"Left","overriding_plate_id":101,"subducting_plate_id":701,"plate_ids":[101,701],"name":""},"geometry":{"type":"LineString","coordinates":[[-163.016,-24.601],[-162.509,-24.643],[-162.002,-24.682],[-161.495,-24.72],[-160.987,-24.756],[-160.479,-24.79],[-159.971,-24.822],[-159.462,-24.853],[-158.953,-24.882],[-158.444,-24.91],[-157.935,-24.935],[-157.419,-24.789],[-156.904,-24.641],[-156.39,-24.491],[-155.878,-24.339],[-155.366,-24.186],[-154.856,-24.031],[-154.347,-23.874],[-153.84,-23.716],[-153.333,-23.556],[-152.828,-23.394],[-152.324,-23.231],[-151.822,-23.066],[-151.32,-22.899],[-150.82,-22.731]]}},{"type":"Feature","properties":{"boundary_type":"ridge","feature_type":"gpml:MidOceanRidge","polarity":null,"overriding_plate_id":null,"subducting_plate_id":null,"plate_ids":[80101,811001],"name":""},"geometry":{"type":"LineString","coordinates":[[-63.551,9.407],[-63.16,9.303],[-62.77,9.199],[-62.38,9.095]]}},{"type":"Feature","properties":{"boundary_type":"ridge","feature_type":"gpml:MidOceanRidge","polarity":null,"overriding_plate_id":null,"subducting_plate_id":null,"plate_ids":[701,80101],"name":""},"geometry":{"type":"LineString","coordinates":[[-62.38,9.095],[-61.906,8.967],[-61.433,8.839],[-60.961,8.71],[-60.488,8.581],[-60.016,8.451],[-59.545,8.321],[-59.073,8.19],[-58.602,8.058],[-58.131,7.926],[-57.661,7.794],[-57.191,7.661],[-56.721,7.527],[-56.251,7.393],[-55.782,7.259],[-55.943,6.824],[-56.105,6.388],[-56.265,5.953],[-56.426,5.518],[-56.586,5.083],[-56.746,4.648],[-56.906,4.212],[-57.066,3.777],[-56.574,3.717],[-56.082,3.657],[-55.59,3.597],[-55.098,3.536],[-54.607,3.475],[-54.115,3.414],[-53.624,3.353],[-53.132,3.291],[-52.641,3.229],[-52.149,3.167],[-51.658,3.105],[-51.167,3.042],[-50.676,2.979],[-50.185,2.916],[-49.694,2.853],[-49.203,2.79],[-48.712,2.726],[-48.221,2.662],[-47.73,2.598],[-47.239,2.534],[-46.748,2.469],[-46.258,2.405],[-45.767,2.34],[-45.277,2.275],[-44.786,2.21],[-44.295,2.145],[-43.805,2.079],[-43.315,2.014],[-42.824,1.948],[-42.334,1.882],[-41.843,1.816],[-41.353,1.75],[-40.863,1.684],[-40.373,1.617],[-39.883,1.551],[-39.392,1.484],[-38.902,1.417],[-38.412,1.351],[-37.922,1.284],[-37.432,1.217],[-36.942,1.15],[-36.452,1.082],[-35.962,1.015],[-35.472,0.948],[-34.982,0.88],[-34.492,0.813],[-34.002,0.745],[-33.513,0.678],[-33.023,0.61],[-32.533,0.542],[-32.043,0.474],[-31.553,0.407],[-31.063,0.339],[-30.573,0.271],[-30.084,0.203],[-29.594,0.135],[-29.104,0.068],[-28.614,-0.0],[-28.124,-0.068],[-27.635,-0.136]]}},{"type":"Feature","properties":{"boundary_type":"ridge","feature_type":"gpml:MidOceanRidge","polarity":null,"overriding_plate_id":null,"subducting_plate_id":null,"plate_ids":[701,90107],"name":""},"geometry":{"type":"LineString","coordinates":[[-27.635,-0.136],[-27.167,-0.201],[-26.699,-0.266],[-26.231,-0.331],[-25.763,-0.395]]}},{"type":"Feature","properties":{"boundary_type":"ridge","feature_type":"gpml:MidOceanRidge","polarity":null,"overriding_plate_id":null,"subducting_plate_id":null,"plate_ids":[80101,811001],"name":""},"geometry":{"type":"LineString","coordinates":[[-38.226,51.727],[-38.736,51.361],[-39.238,50.992],[-39.733,50.622],[-40.219,50.249],[-40.698,49.874],[-41.169,49.497],[-41.633,49.119],[-42.09,48.739],[-42.541,48.356],[-42.984,47.972],[-43.421,47.587],[-43.852,47.2],[-44.276,46.811],[-44.694,46.42],[-45.106,46.029],[-45.513,45.635],[-45.914,45.24],[-46.309,44.844],[-46.699,44.447],[-47.083,44.048],[-47.463,43.648],[-47.837,43.247],[-48.206,42.844],[-48.571,42.44],[-48.931,42.036],[-48.461,41.736],[-47.995,41.435],[-47.533,41.132],[-47.076,40.827],[-46.623,40.52],[-46.174,40.212],[-45.729,39.902],[-46.094,39.489],[-46.454,39.075],[-46.81,38.66],[-47.162,38.243],[-47.51,37.826],[-47.854,37.408],[-48.194,36.989],[-48.531,36.568],[-48.864,36.147],[-49.193,35.725],[-49.519,35.302],[-49.841,34.878],[-50.16,34.454],[-50.476,34.028],[-50.042,33.806],[-49.61,33.581],[-49.18,33.356],[-48.752,33.128],[-48.327,32.9],[-47.903,32.669],[-48.246,32.262],[-48.586,31.854],[-48.923,31.445],[-49.257,31.036],[-49.589,30.625],[-49.917,30.213],[-50.242,29.801],[-50.565,29.388],[-50.886,28.974],[-51.203,28.56],[-51.519,28.144],[-51.832,27.728],[-52.142,27.312],[-52.45,26.894],[-52.756,26.476],[-53.06,26.057],[-53.361,25.638],[-53.66,25.218],[-53.958,24.797],[-54.253,24.376],[-54.546,23.954],[-54.838,23.532],[-55.127,23.109],[-55.415,22.686],[-55.701,22.262],[-55.985,21.838],[-56.268,21.413],[-56.549,20.988],[-56.785,20.57],[-57.02,20.151],[-57.253,19.732],[-57.486,19.313],[-57.717,18.894],[-57.947,18.474],[-58.176,18.055],[-58.404,17.634],[-58.631,17.214],[-58.856,16.793],[-59.081,16.372],[-59.305,15.951],[-59.528,15.53],[-59.75,15.108],[-59.971,14.686],[-60.191,14.264],[-60.476,13.861],[-60.76,13.458],[-61.043,13.054],[-61.325,12.65],[-61.606,12.245],[-61.886,11.841],[-62.165,11.436],[-62.444,11.031],[-62.722,10.625],[-62.999,10.219],[-63.275,9.813],[-63.551,9.407]]}},{"type":"Feature","properties":{"boundary_type":"subduction","feature_type":"gpml:SubductionZone","polarity":"Right","overriding_plate_id":80101,"subducting_plate_id":90107,"plate_ids":[80101,90107],"name":""},"geometry":{"type":"LineString","coordinates":[[-16.111,22.912],[-16.237,22.495],[-16.363,22.077],[-16.488,21.66],[-16.612,21.243],[-16.736,20.825],[-16.858,20.407],[-17.074,19.95],[-17.288,19.493],[-17.501,19.036],[-17.713,18.578],[-17.924,18.12],[-18.134,17.662],[-18.342,17.204],[-18.55,16.745],[-18.757,16.286],[-18.962,15.827],[-19.167,15.368],[-19.371,14.909],[-19.574,14.449],[-19.776,13.989],[-19.977,13.529],[-20.178,13.069],[-20.411,12.629],[-20.643,12.189],[-20.875,11.748],[-21.106,11.307],[-21.336,10.866],[-21.566,10.425],[-21.795,9.984],[-22.023,9.542],[-22.251,9.1],[-22.478,8.659],[-22.705,8.217],[-22.931,7.775],[-23.157,7.333],[-23.382,6.89],[-23.607,6.448],[-23.831,6.006],[-24.055,5.563],[-24.312,5.156],[-24.569,4.75],[-24.826,4.343],[-25.082,3.936],[-25.338,3.529],[-25.593,3.122],[-25.849,2.715],[-26.104,2.308],[-26.36,1.9],[-26.615,1.493],[-26.87,1.086],[-27.125,0.679],[-27.38,0.271],[-27.635,-0.136]]}},{"type":"Feature","properties":{"boundary_type":"ridge","feature_type":"gpml:MidOceanRidge","polarity":null,"overriding_plate_id":null,"subducting_plate_id":null,"plate_ids":[701,811001],"name":""},"geometry":{"type":"LineString","coordinates":[[-82.841,10.198],[-82.347,10.222],[-81.853,10.246],[-81.359,10.269],[-80.865,10.292],[-80.37,10.313],[-79.876,10.334],[-79.381,10.354],[-78.887,10.374],[-78.392,10.392],[-77.898,10.41],[-77.403,10.427],[-76.908,10.444],[-76.413,10.459],[-75.919,10.474],[-75.424,10.488],[-74.929,10.501],[-74.434,10.514],[-73.939,10.526],[-73.444,10.537],[-72.949,10.547],[-72.453,10.556],[-71.958,10.565],[-71.978,10.19],[-71.998,9.814],[-72.017,9.438],[-72.037,9.063],[-71.554,9.071],[-71.071,9.078],[-70.588,9.084],[-70.105,9.09],[-69.623,9.095],[-69.14,9.099],[-68.657,9.103],[-68.174,9.106],[-67.691,9.109],[-67.208,9.111],[-66.725,9.112],[-66.243,9.113],[-65.76,9.113],[-65.277,9.112],[-64.794,9.111],[-64.311,9.109],[-63.828,9.106],[-63.345,9.103],[-62.862,9.099],[-62.38,9.095]]}},{"type":"Feature","properties":{"boundary_type":"subduction","feature_type":"gpml:SubductionZone","polarity":"Left","overriding_plate_id":501,"subducting_plate_id":501001,"plate_ids":[501,501001],"name":""},"geometry":{"type":"LineString","coordinates":[[-172.107,6.232],[-172.152,6.007],[-172.299,5.538],[-172.445,5.069],[-172.592,4.601],[-172.738,4.132],[-172.883,3.663],[-173.029,3.194],[-173.175,2.725],[-173.32,2.256],[-173.465,1.787],[-173.611,1.319],[-173.756,0.85],[-173.901,0.381],[-174.046,-0.088],[-174.192,-0.557],[-174.337,-1.026],[-174.482,-1.495],[-174.627,-1.964],[-174.773,-2.433],[-174.918,-2.902],[-175.064,-3.371],[-175.21,-3.84],[-175.355,-4.308],[-175.502,-4.777],[-175.648,-5.246],[-175.794,-5.715],[-175.941,-6.183],[-176.088,-6.652],[-176.235,-7.121],[-176.383,-7.589],[-176.531,-8.058],[-176.702,-8.52],[-176.873,-8.982],[-177.044,-9.444],[-177.216,-9.906],[-177.389,-10.368],[-177.562,-10.83],[-177.735,-11.291],[-177.909,-11.753],[-178.084,-12.215],[-178.259,-12.676],[-178.435,-13.137],[-178.612,-13.598],[-178.789,-14.059],[-178.967,-14.52],[-179.146,-14.981],[-179.326,-15.442],[-179.506,-15.902],[-179.687,-16.363],[-179.869,-16.823],[179.948,-17.283],[179.764,-17.743]]}}]}