{"type":"FeatureCollection","meta":{"model":"Cao2024","reconstruction_time_ma":1635.0,"anchor_plate_id":0,"pygplates_version":"1.0.0","tessellate_degrees":0.5,"polarity_convention":"gpml:subductionPolarity. 'Left'/'Right' names the side of the line, in vertex order, on which the OVERRIDING plate lies. Triangles are drawn on that side.","antimeridian":"Lines are NOT split at +/-180 deg. The renderer works in 3D unit vectors where the dateline is not special; splitting would only add spurious breaks. Do not treat this as RFC 7946 GIS-ready 2D data."},"features":[{"type":"Feature","properties":{"boundary_type":"subduction","feature_type":"gpml:SubductionZone","polarity":"Left","overriding_plate_id":101,"subducting_plate_id":10104,"plate_ids":[101,10104],"name":"eastern Laurentia-greenland-western baltica"},"geometry":{"type":"LineString","coordinates":[[-163.572,52.271],[-163.905,51.821],[-164.231,51.371],[-164.551,50.919],[-164.864,50.467],[-165.172,50.014],[-165.366,49.59],[-165.556,49.165],[-165.743,48.74],[-165.927,48.315],[-166.108,47.89],[-166.286,47.464],[-166.461,47.038],[-166.633,46.612]]}},{"type":"Feature","properties":{"boundary_type":"subduction","feature_type":"gpml:SubductionZone","polarity":"Left","overriding_plate_id":101,"subducting_plate_id":90106,"plate_ids":[101,90106],"name":"eastern Laurentia-greenland-western baltica"},"geometry":{"type":"LineString","coordinates":[[-166.633,46.612],[-166.798,46.198],[-166.96,45.784],[-167.12,45.369],[-167.278,44.955],[-167.433,44.54],[-167.43,44.056],[-167.426,43.572],[-167.423,43.088],[-167.42,42.604],[-167.417,42.119],[-167.414,41.635],[-167.411,41.151],[-167.408,40.667],[-167.405,40.183],[-167.402,39.699]]}},{"type":"Feature","properties":{"boundary_type":"subduction","feature_type":"gpml:SubductionZone","polarity":"Left","overriding_plate_id":101,"subducting_plate_id":803,"plate_ids":[101,803],"name":"eastern Laurentia-greenland-western baltica"},"geometry":{"type":"LineString","coordinates":[[-167.402,39.699],[-167.399,39.232],[-167.396,38.765],[-167.393,38.299],[-167.391,37.832],[-167.388,37.365],[-167.385,36.898],[-167.383,36.431],[-167.38,35.964],[-167.399,35.477],[-167.417,34.989],[-167.435,34.501],[-167.452,34.013],[-167.47,33.526],[-167.487,33.038],[-167.504,32.55],[-167.521,32.062],[-167.538,31.574],[-167.554,31.087],[-167.57,30.599],[-167.587,30.111],[-167.603,29.623],[-167.619,29.135],[-167.634,28.648],[-167.65,28.16],[-167.665,27.672],[-167.681,27.184],[-167.696,26.696]]}},{"type":"Feature","properties":{"boundary_type":"subduction","feature_type":"gpml:SubductionZone","polarity":"Left","overriding_plate_id":101,"subducting_plate_id":803,"plate_ids":[101,803],"name":"SouthIndia_SZ"},"geometry":{"type":"LineString","coordinates":[[-164.293,-1.94],[-164.043,-2.335],[-163.792,-2.73],[-163.542,-3.125],[-163.291,-3.52],[-163.04,-3.915],[-162.789,-4.309],[-162.538,-4.704],[-162.286,-5.099],[-162.019,-5.478],[-161.752,-5.857],[-161.484,-6.236],[-161.216,-6.614],[-160.948,-6.993],[-160.679,-7.371],[-160.41,-7.75],[-160.14,-8.128],[-159.87,-8.506],[-159.599,-8.883],[-159.328,-9.261],[-159.056,-9.638],[-158.946,-10.099],[-158.836,-10.559],[-158.726,-11.02],[-158.616,-11.48],[-158.505,-11.94],[-158.394,-12.4],[-158.282,-12.861],[-158.17,-13.321],[-158.058,-13.781],[-157.945,-14.241],[-157.832,-14.701],[-157.718,-15.161],[-157.604,-15.621],[-157.489,-16.081],[-157.374,-16.541],[-157.258,-17.0],[-157.319,-17.496],[-157.38,-17.992],[-157.442,-18.488],[-157.504,-18.984],[-157.567,-19.481],[-157.63,-19.977],[-157.693,-20.472],[-157.757,-20.968],[-157.821,-21.464],[-157.886,-21.96],[-157.951,-22.456],[-158.016,-22.952],[-158.232,-23.392],[-158.45,-23.831],[-158.668,-24.27],[-158.889,-24.709],[-159.11,-25.147],[-159.334,-25.586],[-159.559,-26.023],[-159.786,-26.461],[-160.014,-26.898],[-160.244,-27.335],[-160.476,-27.771],[-160.71,-28.207],[-160.894,-28.633],[-161.078,-29.059],[-161.265,-29.484],[-161.453,-29.91],[-161.642,-30.335],[-161.833,-30.76]]}},{"type":"Feature","properties":{"boundary_type":"subduction","feature_type":"gpml:SubductionZone","polarity":"Right","overriding_plate_id":801,"subducting_plate_id":80104,"plate_ids":[801,80104],"name":"NorthChina_SZ"},"geometry":{"type":"LineString","coordinates":[[-82.958,18.435],[-82.929,18.4]]}},{"type":"Feature","properties":{"boundary_type":"subduction","feature_type":"gpml:SubductionZone","polarity":"Right","overriding_plate_id":801,"subducting_plate_id":90107,"plate_ids":[801,90107],"name":"NorthChina_SZ"},"geometry":{"type":"LineString","coordinates":[[-82.929,18.4],[-82.642,18.063],[-82.357,17.724],[-82.072,17.386],[-81.788,17.047],[-81.506,16.707],[-81.327,16.264],[-81.149,15.821],[-80.972,15.378],[-80.796,14.934],[-80.62,14.491],[-80.446,14.047],[-80.271,13.603],[-80.098,13.159],[-80.13,12.688],[-80.161,12.216],[-80.193,11.745],[-80.224,11.273],[-80.256,10.801],[-80.287,10.33],[-80.318,9.858],[-80.349,9.387],[-80.38,8.915],[-80.411,8.443],[-80.717,8.091],[-81.022,7.738],[-81.327,7.386],[-81.631,7.033],[-81.935,6.679],[-82.238,6.326],[-82.541,5.972],[-82.843,5.619],[-83.145,5.265],[-83.447,4.911],[-83.749,4.557],[-84.05,4.202],[-84.351,3.848],[-84.742,3.581],[-85.132,3.314],[-85.522,3.047],[-85.912,2.78],[-86.302,2.513],[-86.692,2.245],[-87.082,1.978],[-87.471,1.71],[-87.861,1.442],[-88.25,1.175],[-88.639,0.907],[-89.028,0.639],[-89.417,0.371]]}},{"type":"Feature","properties":{"boundary_type":"subduction","feature_type":"gpml:SubductionZone","polarity":"Right","overriding_plate_id":801,"subducting_plate_id":811001,"plate_ids":[801,811001],"name":"SouthAustralia_SZ"},"geometry":{"type":"LineString","coordinates":[[-78.359,48.581],[-78.399,48.184],[-78.442,47.725],[-78.483,47.266],[-78.524,46.807],[-78.565,46.347],[-78.604,45.888],[-78.643,45.429],[-78.681,44.969],[-78.719,44.51],[-78.983,44.068],[-79.243,43.625],[-79.499,43.182],[-79.752,42.738],[-80.001,42.294],[-80.246,41.849],[-80.488,41.404]]}},{"type":"Feature","properties":{"boundary_type":"subduction","feature_type":"gpml:SubductionZone","polarity":"Right","overriding_plate_id":801,"subducting_plate_id":80104,"plate_ids":[801,80104],"name":"SouthAustralia_SZ"},"geometry":{"type":"LineString","coordinates":[[-80.488,41.404],[-80.709,40.991],[-80.928,40.578],[-81.143,40.164],[-81.356,39.751],[-81.567,39.336],[-81.775,38.921],[-81.98,38.506],[-82.354,38.141],[-82.723,37.774],[-83.089,37.406]]}},{"type":"Feature","properties":{"boundary_type":"subduction","feature_type":"gpml:SubductionZone","polarity":"Left","overriding_plate_id":101,"subducting_plate_id":90106,"plate_ids":[101,90106],"name":"Eastern_Laurentia_SZ"},"geometry":{"type":"LineString","coordinates":[[-110.859,82.077],[-113.896,81.864],[-116.771,81.629],[-119.39,81.358],[-121.846,81.07],[-124.146,80.767],[-126.298,80.45],[-128.311,80.121],[-130.192,79.781],[-131.953,79.431],[-133.6,79.071],[-135.142,78.704],[-136.587,78.328]]}},{"type":"Feature","properties":{"boundary_type":"subduction","feature_type":"gpml:SubductionZone","polarity":"Left","overriding_plate_id":101,"subducting_plate_id":10104,"plate_ids":[101,10104],"name":"Eastern_Laurentia_SZ"},"geometry":{"type":"LineString","coordinates":[[-136.587,78.328],[-137.883,77.964],[-139.103,77.594],[-140.254,77.219],[-141.339,76.839],[-142.364,76.454],[-143.333,76.066],[-144.502,75.67],[-145.609,75.269],[-146.658,74.863],[-147.653,74.452],[-148.598,74.037],[-149.496,73.618],[-150.35,73.195],[-151.163,72.769],[-151.938,72.34],[-152.678,71.908],[-153.383,71.474],[-154.058,71.036],[-154.703,70.597],[-155.321,70.155],[-155.912,69.712],[-156.48,69.266],[-157.024,68.818],[-157.547,68.369],[-157.991,67.925],[-158.419,67.479],[-158.831,67.032],[-159.227,66.585],[-159.61,66.136],[-159.98,65.686],[-160.337,65.236],[-160.681,64.784],[-161.015,64.332],[-161.338,63.879],[-161.65,63.426],[-161.953,62.972],[-162.246,62.517],[-162.531,62.061],[-162.807,61.605],[-163.075,61.149],[-163.336,60.692],[-163.589,60.234],[-163.588,59.736],[-163.586,59.239],[-163.585,58.741],[-163.584,58.243],[-163.583,57.746],[-163.582,57.248],[-163.581,56.75],[-163.58,56.252],[-163.578,55.755],[-163.577,55.257],[-163.576,54.759],[-163.576,54.262],[-163.575,53.764],[-163.574,53.266],[-163.573,52.769],[-163.572,52.271]]}},{"type":"Feature","properties":{"boundary_type":"subduction","feature_type":"gpml:SubductionZone","polarity":"Left","overriding_plate_id":801,"subducting_plate_id":80104,"plate_ids":[801,80104],"name":"South_NorthAustralia_SZ"},"geometry":{"type":"LineString","coordinates":[[-82.958,18.435],[-82.787,18.888],[-82.615,19.34],[-82.442,19.793],[-82.268,20.246],[-82.093,20.698],[-81.917,21.15],[-81.739,21.602],[-81.561,22.054],[-81.382,22.505],[-81.201,22.957],[-81.019,23.408],[-80.836,23.859],[-80.652,24.31],[-80.466,24.76],[-80.279,25.211],[-80.091,25.661],[-79.901,26.11],[-79.709,26.56],[-79.747,27.029],[-79.785,27.498],[-79.823,27.967],[-79.862,28.435],[-79.901,28.904],[-79.94,29.373],[-79.98,29.842],[-80.02,30.311],[-80.06,30.78],[-80.101,31.248],[-80.142,31.717],[-80.184,32.186],[-80.226,32.655],[-80.269,33.123],[-80.538,33.555],[-80.81,33.985],[-81.084,34.415],[-81.361,34.844],[-81.642,35.273],[-81.925,35.701],[-82.211,36.128],[-82.5,36.555],[-82.793,36.981],[-83.089,37.406]]}},{"type":"Feature","properties":{"boundary_type":"subduction","feature_type":"gpml:SubductionZone","polarity":"Left","overriding_plate_id":801,"subducting_plate_id":101,"plate_ids":[101,801],"name":"South_NorthAustralia_SZ"},"geometry":{"type":"LineString","coordinates":[[-98.292,80.853],[-99.725,80.476],[-101.049,80.094],[-102.275,79.707],[-103.413,79.315],[-104.471,78.92],[-105.456,78.521],[-106.376,78.119],[-107.236,77.715],[-107.374,77.217],[-107.502,76.719],[-107.621,76.221],[-107.732,75.723],[-107.836,75.225],[-107.932,74.727],[-108.023,74.229],[-108.109,73.731],[-108.189,73.233],[-108.265,72.735],[-108.337,72.236],[-108.405,71.738],[-108.469,71.24],[-108.531,70.742],[-108.482,70.243],[-108.436,69.744],[-108.393,69.245],[-108.351,68.746],[-108.311,68.246],[-108.272,67.747],[-108.235,67.248],[-108.2,66.749],[-108.166,66.25],[-108.134,65.751],[-108.102,65.252],[-108.072,64.753],[-108.043,64.254],[-108.015,63.755],[-107.988,63.256],[-107.962,62.757],[-107.936,62.257],[-107.81,61.761],[-107.688,61.265],[-107.57,60.768],[-107.455,60.271],[-107.344,59.775],[-107.236,59.278],[-107.131,58.781],[-107.029,58.284],[-106.93,57.787],[-106.833,57.29],[-106.739,56.792],[-106.648,56.295],[-106.559,55.798],[-106.457,55.316],[-106.359,54.834],[-106.262,54.352],[-106.168,53.869],[-106.076,53.387],[-105.986,52.905],[-105.898,52.422],[-105.811,51.94],[-105.727,51.457],[-105.644,50.974],[-105.564,50.492],[-105.484,50.009],[-105.495,49.539],[-105.505,49.07],[-105.515,48.6],[-105.525,48.13],[-105.535,47.66],[-105.545,47.19],[-105.554,46.721],[-105.564,46.251],[-105.573,45.781],[-105.582,45.311],[-105.77,44.839],[-105.956,44.366],[-106.139,43.893],[-106.319,43.419],[-106.496,42.946],[-106.67,42.472],[-106.842,41.998],[-107.011,41.523],[-107.178,41.049],[-107.342,40.574],[-107.504,40.098],[-107.664,39.623],[-107.821,39.147],[-107.955,38.663],[-108.087,38.179],[-108.217,37.694],[-108.345,37.209],[-108.472,36.724],[-108.598,36.239],[-108.721,35.754],[-108.844,35.269],[-108.964,34.784],[-109.084,34.298],[-109.202,33.812],[-109.015,33.361],[-108.831,32.91],[-108.649,32.458],[-108.468,32.006],[-108.289,31.554],[-108.112,31.102],[-107.937,30.649],[-107.763,30.196],[-107.591,29.743],[-107.42,29.289],[-107.251,28.836],[-107.083,28.382],[-106.917,27.928],[-106.752,27.474],[-106.589,27.02],[-106.426,26.565],[-106.159,26.15],[-105.893,25.734],[-105.63,25.317],[-105.368,24.901],[-105.107,24.483],[-104.849,24.066],[-104.592,23.647],[-104.337,23.229],[-104.084,22.81],[-103.832,22.39],[-103.581,21.971],[-103.332,21.551],[-103.084,21.13],[-102.772,20.783],[-102.461,20.436],[-102.151,20.088],[-101.843,19.74],[-101.536,19.391],[-101.231,19.042],[-100.926,18.692],[-100.623,18.342],[-100.321,17.991]]}},{"type":"Feature","properties":{"boundary_type":"subduction","feature_type":"gpml:SubductionZone","polarity":"Left","overriding_plate_id":701,"subducting_plate_id":101,"plate_ids":[101,701],"name":"Siberia_SZ"},"geometry":{"type":"LineString","coordinates":[[-101.184,2.166],[-101.604,2.426],[-102.025,2.686],[-102.445,2.946],[-102.866,3.206],[-103.287,3.465],[-103.709,3.724],[-104.13,3.983],[-104.552,4.242],[-104.974,4.501],[-105.397,4.759],[-105.82,5.017],[-106.243,5.275],[-106.666,5.533],[-107.09,5.79],[-107.514,6.047],[-107.939,6.304],[-108.412,6.335],[-108.885,6.366],[-109.358,6.397],[-109.831,6.428],[-110.304,6.457],[-110.777,6.487],[-111.25,6.516],[-111.724,6.545],[-112.197,6.573],[-112.671,6.6],[-113.144,6.628],[-113.618,6.655],[-114.091,6.681],[-114.565,6.707],[-115.036,6.612],[-115.507,6.517],[-115.978,6.422],[-116.449,6.326],[-116.92,6.23],[-117.39,6.134],[-117.86,6.037],[-118.33,5.939],[-118.8,5.841],[-119.27,5.743],[-119.74,5.645],[-120.209,5.546],[-120.679,5.446],[-121.148,5.347],[-121.617,5.247],[-122.085,5.146],[-122.554,5.046],[-123.023,4.945],[-123.478,4.752],[-123.933,4.559],[-124.388,4.366],[-124.842,4.173],[-125.296,3.979],[-125.75,3.785],[-126.204,3.591],[-126.658,3.396],[-127.111,3.202],[-127.565,3.007],[-128.018,2.812],[-128.471,2.617],[-128.923,2.421],[-129.376,2.226],[-129.829,2.03],[-130.281,1.834],[-130.49,1.386],[-130.699,0.937],[-130.908,0.489],[-131.117,0.04],[-131.326,-0.408],[-131.535,-0.857],[-131.744,-1.305],[-131.953,-1.754],[-132.163,-2.202],[-132.372,-2.651],[-132.581,-3.099],[-132.791,-3.548],[-133.001,-3.996],[-133.211,-4.444],[-133.421,-4.892],[-133.632,-5.341],[-133.843,-5.789],[-134.054,-6.237],[-134.223,-6.687],[-134.392,-7.137],[-134.561,-7.587],[-134.731,-8.037],[-134.9,-8.487],[-135.071,-8.937],[-135.242,-9.386],[-135.413,-9.836],[-135.585,-10.286],[-135.757,-10.735],[-135.929,-11.185],[-136.103,-11.634],[-136.276,-12.083],[-136.451,-12.532],[-136.626,-12.981],[-136.801,-13.43],[-136.978,-13.879],[-137.155,-14.327],[-137.332,-14.776],[-137.511,-15.224],[-137.69,-15.672],[-137.87,-16.121],[-138.051,-16.568],[-138.236,-17.017],[-138.421,-17.466],[-138.608,-17.914],[-138.796,-18.362],[-138.985,-18.81],[-139.174,-19.257],[-139.365,-19.705],[-139.557,-20.152],[-139.75,-20.599],[-139.944,-21.046],[-140.139,-21.493],[-140.336,-21.939],[-140.533,-22.386],[-140.732,-22.832],[-140.932,-23.277],[-141.134,-23.723],[-141.337,-24.168],[-141.541,-24.613],[-141.747,-25.057],[-141.954,-25.502],[-142.163,-25.946],[-142.374,-26.39],[-142.586,-26.833]]}},{"type":"Feature","properties":{"boundary_type":"subduction","feature_type":"gpml:SubductionZone","polarity":"Left","overriding_plate_id":801,"subducting_plate_id":811001,"plate_ids":[801,811001],"name":"NorthwesternMawson_SZ"},"geometry":{"type":"LineString","coordinates":[[-78.359,48.581],[-77.764,48.871],[-77.162,49.157],[-76.553,49.441],[-75.936,49.721],[-75.313,49.998],[-74.678,50.238],[-74.036,50.475],[-73.389,50.708],[-72.734,50.938],[-72.073,51.163],[-71.406,51.386],[-70.733,51.604],[-70.053,51.818],[-69.414,52.043],[-68.768,52.264],[-68.117,52.481],[-67.459,52.695],[-66.794,52.905],[-66.123,53.111],[-65.536,53.409],[-64.941,53.704],[-64.337,53.997],[-63.725,54.286],[-63.104,54.572],[-62.474,54.855],[-62.178,55.299],[-61.875,55.743],[-61.565,56.187],[-61.248,56.629],[-60.923,57.071],[-61.073,57.532],[-61.227,57.992],[-61.385,58.453],[-61.547,58.913],[-61.714,59.373],[-61.885,59.833],[-62.061,60.292],[-62.242,60.752],[-62.428,61.211],[-62.844,61.626],[-63.271,62.04],[-63.71,62.452],[-64.161,62.863],[-64.625,63.273],[-65.102,63.681],[-65.593,64.087],[-66.098,64.492],[-66.619,64.895]]}},{"type":"Feature","properties":{"boundary_type":"subduction","feature_type":"gpml:SubductionZone","polarity":"Left","overriding_plate_id":801,"subducting_plate_id":90106,"plate_ids":[801,90106],"name":"NorthwesternMawson_SZ"},"geometry":{"type":"LineString","coordinates":[[-66.619,64.895],[-67.187,65.319],[-67.773,65.741],[-68.144,66.192],[-68.528,66.642],[-68.926,67.092],[-69.34,67.541],[-69.769,67.988],[-70.215,68.434],[-70.679,68.879],[-71.162,69.323],[-71.666,69.765],[-72.191,70.206],[-72.738,70.645],[-73.31,71.083],[-73.677,71.53],[-74.061,71.976],[-74.464,72.421],[-74.888,72.866],[-75.333,73.309],[-75.802,73.752],[-76.296,74.193],[-76.818,74.634],[-77.369,75.073],[-77.954,75.51],[-78.574,75.946],[-79.232,76.381],[-79.934,76.813],[-81.114,77.219],[-82.37,77.62],[-83.709,78.014],[-85.136,78.401],[-86.659,78.781],[-88.286,79.153],[-90.026,79.516],[-91.888,79.868],[-93.88,80.209],[-96.011,80.538],[-98.292,80.853]]}},{"type":"Feature","properties":{"boundary_type":"subduction","feature_type":"gpml:SubductionZone","polarity":"Left","overriding_plate_id":101,"subducting_plate_id":90106,"plate_ids":[101,90106],"name":"NorthwesternMawson_SZ"},"geometry":{"type":"LineString","coordinates":[[-98.292,80.853],[-100.521,81.129],[-102.889,81.391],[-105.4,81.637],[-108.056,81.866],[-110.859,82.077]]}},{"type":"Feature","properties":{"boundary_type":"subduction","feature_type":"gpml:SubductionZone","polarity":"Right","overriding_plate_id":801,"subducting_plate_id":90107,"plate_ids":[801,90107],"name":"Cathaysia_SZ"},"geometry":{"type":"LineString","coordinates":[[-89.417,0.371],[-89.298,-0.114],[-89.178,-0.598],[-89.059,-1.083],[-88.939,-1.568],[-88.82,-2.052],[-88.7,-2.537],[-88.58,-3.021],[-88.46,-3.506],[-88.34,-3.991],[-88.22,-4.475],[-88.1,-4.96],[-87.979,-5.444],[-87.859,-5.929],[-87.667,-6.39],[-87.475,-6.852],[-87.282,-7.313],[-87.089,-7.775],[-86.896,-8.236],[-86.702,-8.697],[-86.507,-9.158],[-86.313,-9.619],[-86.117,-10.08],[-85.921,-10.541],[-85.725,-11.002],[-85.528,-11.462],[-85.33,-11.923],[-85.131,-12.383],[-84.932,-12.843],[-84.688,-13.148],[-84.444,-13.453],[-84.199,-13.758]]}},{"type":"Feature","properties":{"boundary_type":"subduction","feature_type":"gpml:SubductionZone","polarity":"Left","overriding_plate_id":201,"subducting_plate_id":803,"plate_ids":[201,803],"name":"Amazonia_SZ"},"geometry":{"type":"LineString","coordinates":[[136.398,1.706],[136.097,1.307],[135.797,0.909],[135.496,0.51],[135.195,0.111],[134.895,-0.287],[134.594,-0.686],[134.294,-1.085],[133.993,-1.484],[133.692,-1.882],[133.391,-2.281],[133.09,-2.679],[132.789,-3.078],[132.488,-3.476],[132.186,-3.874],[131.884,-4.273],[131.581,-4.671],[131.279,-5.069],[130.976,-5.466],[130.672,-5.864],[130.368,-6.261],[130.064,-6.659],[129.759,-7.056],[129.454,-7.453],[129.148,-7.849],[128.841,-8.246],[128.534,-8.642],[128.226,-9.038]]}},{"type":"Feature","properties":{"boundary_type":"subduction","feature_type":"gpml:SubductionZone","polarity":"Left","overriding_plate_id":201,"subducting_plate_id":90105,"plate_ids":[201,90105],"name":"Amazonia_SZ"},"geometry":{"type":"LineString","coordinates":[[128.226,-9.038],[127.921,-9.43],[127.614,-9.822],[127.307,-10.213],[127.0,-10.604],[126.691,-10.995],[126.382,-11.386],[126.072,-11.776],[125.761,-12.166],[125.449,-12.555],[125.136,-12.944],[124.822,-13.333],[124.507,-13.721],[124.191,-14.109],[123.874,-14.497],[123.556,-14.884],[123.237,-15.271],[122.917,-15.657],[122.595,-16.043],[122.272,-16.428],[121.948,-16.813],[121.623,-17.197],[121.384,-17.625],[121.145,-18.053],[120.904,-18.481],[120.662,-18.908],[120.419,-19.336],[120.175,-19.762],[119.93,-20.189],[119.683,-20.615],[119.434,-21.041],[119.184,-21.466],[118.933,-21.891],[118.681,-22.316],[118.426,-22.74],[118.17,-23.164],[117.913,-23.587],[117.654,-24.01],[117.393,-24.433],[117.13,-24.855],[116.866,-25.276],[116.6,-25.698],[116.332,-26.118],[116.209,-26.605],[116.085,-27.092],[115.96,-27.579],[115.834,-28.065],[115.707,-28.552],[115.579,-29.038],[115.449,-29.524],[115.319,-30.011],[115.187,-30.497],[115.053,-30.982],[114.919,-31.468],[114.783,-31.954],[114.645,-32.439],[114.506,-32.924],[114.365,-33.41],[114.223,-33.895],[114.079,-34.379],[113.934,-34.864],[113.976,-35.35],[114.018,-35.836],[114.062,-36.323],[114.105,-36.809],[114.149,-37.295],[114.194,-37.781],[114.24,-38.267],[114.285,-38.753],[114.332,-39.24],[114.379,-39.726],[114.427,-40.212],[114.476,-40.698],[114.525,-41.184],[114.575,-41.67],[114.626,-42.156],[114.678,-42.642],[114.73,-43.128],[114.783,-43.614],[114.838,-44.1],[114.893,-44.585],[115.194,-45.036],[115.5,-45.486],[115.811,-45.936],[116.127,-46.384],[116.448,-46.832],[116.774,-47.279],[117.107,-47.724],[117.444,-48.169],[117.788,-48.613],[118.138,-49.055],[118.494,-49.497],[118.857,-49.938],[119.226,-50.377],[119.602,-50.815],[119.986,-51.252],[120.376,-51.688],[120.775,-52.122],[121.181,-52.555],[121.595,-52.987],[122.017,-53.417],[122.448,-53.845],[122.888,-54.272],[123.338,-54.698],[123.796,-55.121],[124.265,-55.543],[124.743,-55.963],[125.233,-56.381],[125.733,-56.798],[126.244,-57.212],[126.766,-57.624],[127.301,-58.034],[127.848,-58.441],[128.408,-58.846],[128.981,-59.249],[129.568,-59.649],[130.169,-60.047],[130.784,-60.441],[131.415,-60.833],[132.061,-61.222],[132.723,-61.607],[133.402,-61.989],[134.098,-62.368],[134.811,-62.743],[135.543,-63.115],[136.294,-63.483],[137.064,-63.846],[137.855,-64.206],[138.666,-64.561],[139.498,-64.911],[140.352,-65.257],[141.229,-65.598],[142.129,-65.934],[143.052,-66.264],[144.0,-66.588],[144.973,-66.907],[145.971,-67.22],[146.995,-67.526],[148.046,-67.825],[149.123,-68.118],[150.229,-68.404],[151.361,-68.682],[152.522,-68.952]]}},{"type":"Feature","properties":{"boundary_type":"transform","feature_type":"gpml:Transform","polarity":null,"overriding_plate_id":null,"subducting_plate_id":null,"plate_ids":[101,801],"name":""},"geometry":{"type":"LineString","coordinates":[[-100.321,17.991],[-100.363,17.501],[-100.405,17.01],[-100.447,16.52],[-100.489,16.03],[-100.53,15.54],[-100.571,15.05],[-100.612,14.559],[-100.653,14.069],[-100.693,13.579],[-100.734,13.089],[-100.774,12.599],[-100.814,12.108],[-100.854,11.618],[-100.894,11.128],[-100.934,10.638],[-100.973,10.147],[-101.013,9.657],[-101.052,9.167],[-101.091,8.677],[-101.13,8.186],[-101.169,7.696],[-101.208,7.206],[-101.247,6.716],[-101.286,6.225],[-101.325,5.735],[-101.363,5.245],[-101.402,4.754],[-101.44,4.264],[-101.479,3.774],[-101.517,3.284],[-101.406,2.911],[-101.295,2.539],[-101.184,2.166]]}},{"type":"Feature","properties":{"boundary_type":"transform","feature_type":"gpml:Transform","polarity":null,"overriding_plate_id":null,"subducting_plate_id":null,"plate_ids":[701,801],"name":""},"geometry":{"type":"LineString","coordinates":[[-101.184,2.166],[-101.042,1.689],[-100.9,1.212],[-100.758,0.736],[-100.616,0.259],[-100.474,-0.218],[-100.332,-0.695],[-100.19,-1.172],[-100.048,-1.649],[-99.906,-2.126],[-99.764,-2.603],[-99.622,-3.079],[-99.479,-3.556],[-99.337,-4.033],[-99.194,-4.51],[-99.051,-4.987],[-98.908,-5.463],[-98.765,-5.94],[-98.621,-6.417],[-98.477,-6.893],[-98.333,-7.37],[-98.189,-7.846],[-98.044,-8.323],[-97.899,-8.799],[-97.753,-9.276],[-97.607,-9.752],[-97.461,-10.228],[-97.314,-10.704],[-97.167,-11.18],[-96.904,-11.6],[-96.641,-12.02],[-96.376,-12.44],[-96.111,-12.859],[-95.845,-13.278],[-95.578,-13.696],[-95.31,-14.115],[-95.041,-14.533],[-94.771,-14.951],[-94.5,-15.368],[-94.227,-15.785],[-93.954,-16.202],[-93.68,-16.619],[-93.404,-17.035],[-93.127,-17.45],[-92.849,-17.866],[-92.57,-18.281],[-92.289,-18.695],[-92.007,-19.109],[-91.723,-19.523],[-91.438,-19.936],[-91.151,-20.349],[-90.863,-20.761],[-90.574,-21.173],[-90.282,-21.584],[-89.99,-21.995],[-89.695,-22.405],[-89.399,-22.815],[-89.1,-23.224],[-88.8,-23.633],[-88.499,-24.041],[-88.195,-24.448],[-87.889,-24.855],[-87.581,-25.261],[-87.271,-25.667],[-86.959,-26.072],[-86.645,-26.476],[-86.329,-26.88],[-86.01,-27.283],[-85.69,-27.685],[-85.366,-28.086],[-85.041,-28.487],[-84.712,-28.886],[-84.382,-29.285],[-84.048,-29.684],[-83.712,-30.081],[-83.374,-30.478],[-83.032,-30.873],[-82.639,-31.21],[-82.243,-31.546],[-81.843,-31.881]]}},{"type":"Feature","properties":{"boundary_type":"transform","feature_type":"gpml:Transform","polarity":null,"overriding_plate_id":null,"subducting_plate_id":null,"plate_ids":[201,803],"name":""},"geometry":{"type":"LineString","coordinates":[[136.398,1.706],[136.804,1.415],[137.21,1.124],[137.616,0.833],[138.022,0.542],[138.428,0.25],[138.833,-0.041],[139.239,-0.332],[139.645,-0.623],[140.051,-0.914],[140.457,-1.205],[140.863,-1.497],[141.269,-1.788],[141.675,-2.078],[142.082,-2.369],[142.488,-2.66],[142.895,-2.95],[143.302,-3.241],[143.709,-3.531],[144.117,-3.821],[144.525,-4.111],[144.933,-4.401],[145.341,-4.69],[145.75,-4.979],[146.159,-5.268],[146.568,-5.557],[146.978,-5.845],[147.388,-6.133],[147.799,-6.421],[148.21,-6.709],[148.622,-6.996],[149.034,-7.282],[149.447,-7.569],[149.86,-7.855],[150.274,-8.14],[150.688,-8.426],[151.103,-8.71],[151.519,-8.995],[151.935,-9.278],[152.352,-9.562],[152.77,-9.845],[153.188,-10.127],[153.608,-10.409],[154.027,-10.69],[154.448,-10.971],[154.87,-11.251],[155.292,-11.53],[155.715,-11.809],[156.139,-12.087],[156.564,-12.365],[156.99,-12.642],[157.416,-12.918],[157.844,-13.194],[158.272,-13.469],[158.702,-13.743],[159.133,-14.016],[159.564,-14.289],[159.997,-14.561],[160.431,-14.832],[160.865,-15.102],[161.301,-15.372],[161.74,-15.626],[162.18,-15.88],[162.621,-16.132],[163.063,-16.384],[163.507,-16.635],[163.951,-16.885],[164.397,-17.134],[164.844,-17.382],[165.292,-17.629],[165.741,-17.875],[166.191,-18.119],[166.643,-18.363],[167.096,-18.606],[167.551,-18.848],[168.006,-19.088],[168.463,-19.328],[168.922,-19.566],[169.381,-19.803],[169.842,-20.039],[170.305,-20.274],[170.769,-20.508],[171.234,-20.74],[171.7,-20.971],[172.169,-21.201],[172.638,-21.43],[173.109,-21.657],[173.582,-21.883],[174.056,-22.107],[174.531,-22.331],[175.008,-22.552],[175.487,-22.773],[175.967,-22.992],[176.449,-23.209],[176.932,-23.425],[177.417,-23.64],[177.903,-23.853],[178.391,-24.064],[178.881,-24.274],[179.372,-24.482],[179.865,-24.689],[-179.641,-24.894],[-179.145,-25.098],[-178.647,-25.3],[-178.148,-25.5],[-177.647,-25.698],[-177.144,-25.895],[-176.64,-26.09],[-176.134,-26.283],[-175.626,-26.475],[-175.116,-26.664],[-174.605,-26.852],[-174.092,-27.038],[-173.578,-27.222],[-173.062,-27.405],[-172.544,-27.585],[-172.024,-27.763],[-171.503,-27.94],[-170.98,-28.114],[-170.455,-28.287],[-169.929,-28.457],[-169.401,-28.626],[-168.871,-28.792],[-168.34,-28.957],[-167.806,-29.119],[-167.272,-29.279],[-166.735,-29.437],[-166.197,-29.593],[-165.657,-29.747],[-165.116,-29.898],[-164.573,-30.047],[-164.028,-30.194],[-163.482,-30.339],[-162.934,-30.482],[-162.385,-30.622],[-161.833,-30.76]]}},{"type":"Feature","properties":{"boundary_type":"transform","feature_type":"gpml:Transform","polarity":null,"overriding_plate_id":null,"subducting_plate_id":null,"plate_ids":[101,201],"name":""},"geometry":{"type":"LineString","coordinates":[[-161.833,-30.76],[-161.289,-30.893],[-160.744,-31.024],[-160.197,-31.153],[-159.648,-31.28],[-159.098,-31.404],[-158.547,-31.526],[-157.994,-31.645],[-157.44,-31.762],[-156.884,-31.877],[-156.327,-31.989],[-155.769,-32.099],[-155.209,-32.206],[-154.648,-32.311],[-154.086,-32.414],[-153.523,-32.514],[-152.958,-32.611],[-152.392,-32.706],[-151.825,-32.798],[-151.256,-32.888],[-150.687,-32.975],[-150.116,-33.06],[-149.545,-33.142],[-148.972,-33.221],[-148.398,-33.298],[-147.824,-33.372],[-147.248,-33.443],[-146.671,-33.512]]}},{"type":"Feature","properties":{"boundary_type":"transform","feature_type":"gpml:Transform","polarity":null,"overriding_plate_id":null,"subducting_plate_id":null,"plate_ids":[101,701],"name":""},"geometry":{"type":"LineString","coordinates":[[-142.586,-26.833],[-142.829,-27.244],[-143.075,-27.654],[-143.322,-28.064],[-143.571,-28.474],[-143.822,-28.883],[-144.075,-29.292],[-144.33,-29.7],[-144.588,-30.108],[-144.847,-30.515],[-145.108,-30.922],[-145.372,-31.328],[-145.638,-31.733],[-145.907,-32.138],[-146.096,-32.482],[-146.286,-32.826],[-146.478,-33.169],[-146.671,-33.512]]}},{"type":"Feature","properties":{"boundary_type":"transform","feature_type":"gpml:Transform","polarity":null,"overriding_plate_id":null,"subducting_plate_id":null,"plate_ids":[201,701],"name":""},"geometry":{"type":"LineString","coordinates":[[-146.671,-33.512],[-146.927,-33.961],[-147.186,-34.409],[-147.447,-34.857],[-147.712,-35.305],[-147.979,-35.752],[-148.249,-36.198],[-148.522,-36.643],[-148.799,-37.088],[-149.079,-37.533],[-149.362,-37.976],[-149.648,-38.419],[-149.938,-38.862],[-150.232,-39.303],[-150.53,-39.744],[-150.831,-40.184],[-151.136,-40.623],[-151.445,-41.062],[-151.759,-41.499],[-152.076,-41.936],[-152.398,-42.372],[-152.725,-42.807],[-153.056,-43.241],[-153.392,-43.674],[-153.733,-44.106],[-154.078,-44.537],[-154.429,-44.966],[-154.786,-45.395],[-155.147,-45.823],[-155.514,-46.25],[-155.887,-46.675],[-156.266,-47.099],[-156.651,-47.522],[-157.043,-47.943],[-157.44,-48.364],[-157.844,-48.782],[-158.256,-49.2],[-158.674,-49.616],[-159.099,-50.03],[-159.531,-50.443],[-159.972,-50.854],[-160.42,-51.263],[-160.876,-51.671],[-161.34,-52.077],[-161.813,-52.481],[-162.294,-52.883],[-162.785,-53.283],[-163.285,-53.681],[-163.794,-54.077],[-164.313,-54.471],[-164.842,-54.863],[-165.382,-55.252],[-165.932,-55.638],[-166.493,-56.023],[-167.065,-56.404],[-167.649,-56.783],[-168.231,-57.167],[-168.825,-57.547],[-169.431,-57.925],[-170.05,-58.3],[-170.683,-58.671],[-171.329,-59.04],[-171.989,-59.405],[-172.663,-59.767],[-173.352,-60.125],[-174.056,-60.48],[-174.775,-60.831],[-175.511,-61.178],[-176.262,-61.52],[-177.031,-61.859],[-177.816,-62.193],[-178.619,-62.523],[-179.439,-62.848],[179.722,-63.168],[178.864,-63.483],[177.988,-63.793],[177.092,-64.097],[176.177,-64.396],[175.242,-64.689],[174.286,-64.976],[173.31,-65.257],[172.313,-65.531],[171.296,-65.799],[170.257,-66.059]]}},{"type":"Feature","properties":{"boundary_type":"transform","feature_type":"gpml:Transform","polarity":null,"overriding_plate_id":null,"subducting_plate_id":null,"plate_ids":[201,90105],"name":""},"geometry":{"type":"LineString","coordinates":[[170.257,-66.059],[169.214,-66.309],[168.151,-66.551],[167.066,-66.786],[165.962,-67.014],[164.836,-67.233],[163.691,-67.445],[162.525,-67.649],[161.339,-67.843],[160.134,-68.03],[158.91,-68.207],[157.667,-68.375],[156.406,-68.534],[155.128,-68.683],[153.833,-68.822],[152.522,-68.952]]}},{"type":"Feature","properties":{"boundary_type":"ridge","feature_type":"gpml:MidOceanRidge","polarity":null,"overriding_plate_id":null,"subducting_plate_id":null,"plate_ids":[803,90106],"name":""},"geometry":{"type":"LineString","coordinates":[[-167.402,39.699],[-167.999,39.835],[-168.599,39.967],[-169.201,40.097],[-169.806,40.223],[-170.412,40.346],[-171.021,40.466],[-171.632,40.583],[-172.245,40.696],[-172.86,40.806],[-173.477,40.913],[-174.096,41.017],[-174.718,41.117],[-175.34,41.214],[-175.965,41.308],[-176.592,41.398],[-177.22,41.485],[-177.85,41.568],[-178.469,41.402],[-179.084,41.232],[-179.697,41.059],[179.694,40.883],[179.088,40.703],[178.486,40.52],[177.887,40.335],[177.291,40.146],[176.698,39.954],[176.109,39.759],[175.523,39.561],[174.94,39.36],[174.361,39.157],[173.785,38.95],[173.212,38.741],[172.643,38.529],[172.078,38.314],[171.515,38.096],[171.109,37.721],[170.706,37.345],[170.308,36.967],[169.913,36.588],[169.523,36.207],[169.136,35.826],[168.753,35.443],[168.374,35.059],[167.998,34.673],[167.625,34.287],[167.256,33.899],[166.891,33.511],[166.528,33.121],[166.169,32.73],[165.58,32.747],[164.991,32.761],[164.401,32.773],[163.811,32.781],[163.221,32.787],[162.632,32.79],[162.042,32.791],[161.452,32.788],[160.862,32.783],[160.272,32.775],[159.683,32.764],[159.093,32.751],[158.504,32.735],[157.915,32.716],[157.326,32.694],[156.738,32.669],[156.15,32.642],[155.562,32.612],[154.975,32.579],[154.388,32.544],[153.801,32.506],[153.216,32.465],[152.63,32.421],[152.045,32.375],[151.461,32.326],[150.878,32.274],[150.848,31.863],[150.819,31.452],[150.79,31.041],[150.761,30.63],[150.732,30.219],[150.18,30.077],[149.63,29.933],[149.082,29.787],[148.535,29.639],[147.99,29.488],[147.446,29.335],[146.904,29.18],[146.364,29.022],[145.825,28.863],[145.288,28.701],[144.753,28.538],[144.22,28.372],[143.688,28.204],[143.157,28.034],[142.629,27.862],[142.102,27.688],[141.577,27.512],[141.053,27.334],[140.531,27.154],[140.011,26.972],[139.493,26.789],[138.976,26.603],[138.461,26.416],[137.947,26.226],[137.436,26.035],[136.926,25.842],[136.417,25.648],[135.91,25.451],[135.405,25.253],[134.902,25.053],[134.4,24.851],[133.9,24.648],[133.401,24.443],[132.905,24.237],[132.409,24.029],[131.916,23.819],[131.424,23.608],[130.933,23.395],[130.444,23.18],[129.957,22.965],[129.471,22.747],[128.987,22.528],[128.504,22.308],[128.023,22.087],[127.543,21.863],[127.065,21.639],[126.589,21.413],[126.113,21.186],[125.64,20.957],[125.168,20.728],[124.697,20.497],[124.227,20.264]]}},{"type":"Feature","properties":{"boundary_type":"ridge","feature_type":"gpml:MidOceanRidge","polarity":null,"overriding_plate_id":null,"subducting_plate_id":null,"plate_ids":[90106,90107],"name":""},"geometry":{"type":"LineString","coordinates":[[13.583,-0.577],[13.404,-0.97],[13.224,-1.364],[13.045,-1.757],[12.865,-2.15],[12.685,-2.544],[12.505,-2.937],[12.325,-3.33]]}},{"type":"Feature","properties":{"boundary_type":"ridge","feature_type":"gpml:MidOceanRidge","polarity":null,"overriding_plate_id":null,"subducting_plate_id":null,"plate_ids":[90105,90107],"name":""},"geometry":{"type":"LineString","coordinates":[[12.325,-3.33],[12.12,-3.778],[11.914,-4.225],[11.708,-4.673],[11.502,-5.121],[11.296,-5.568],[11.09,-6.016],[10.883,-6.463],[10.675,-6.91],[10.468,-7.357],[10.26,-7.804],[10.051,-8.251],[9.842,-8.698],[9.632,-9.145],[9.422,-9.592],[9.212,-10.038],[9.001,-10.484],[8.789,-10.931],[8.576,-11.377],[8.363,-11.823],[8.15,-12.268],[7.935,-12.714],[7.72,-13.16],[7.504,-13.605],[7.287,-14.05],[7.069,-14.495],[6.851,-14.939],[6.631,-15.384],[6.411,-15.828],[6.189,-16.272],[5.967,-16.716],[5.743,-17.159],[5.519,-17.603],[5.293,-18.046],[5.067,-18.489],[4.839,-18.931],[4.61,-19.373],[4.379,-19.815],[4.147,-20.257],[3.914,-20.698],[3.68,-21.139],[3.444,-21.58],[3.207,-22.02],[2.969,-22.46],[2.728,-22.9],[2.487,-23.339],[2.243,-23.778],[1.998,-24.217],[1.752,-24.655],[1.503,-25.093],[1.253,-25.53],[1.001,-25.967],[0.747,-26.403],[0.491,-26.839],[0.233,-27.275],[-0.027,-27.71],[0.286,-28.126],[0.602,-28.54],[0.92,-28.955],[1.24,-29.368],[1.564,-29.781],[1.889,-30.192],[2.218,-30.603],[2.549,-31.013],[2.883,-31.423],[3.221,-31.831],[3.561,-32.239],[3.904,-32.645],[4.25,-33.051],[4.6,-33.456],[4.952,-33.859],[5.309,-34.262],[5.668,-34.664],[6.031,-35.064],[6.398,-35.464],[6.768,-35.862],[7.142,-36.259],[7.52,-36.655],[7.902,-37.05],[8.287,-37.444],[8.677,-37.836],[9.071,-38.227],[9.469,-38.617],[9.872,-39.005],[10.279,-39.392],[10.69,-39.778],[11.107,-40.162],[11.527,-40.544],[11.953,-40.925],[12.384,-41.305],[12.819,-41.682],[13.26,-42.058],[13.706,-42.433],[14.158,-42.806],[14.614,-43.176],[15.077,-43.545],[15.545,-43.913],[16.019,-44.278],[16.499,-44.641],[16.984,-45.002],[17.476,-45.361],[17.975,-45.718],[18.479,-46.073],[18.99,-46.426],[19.508,-46.776],[20.033,-47.124],[20.564,-47.469],[21.102,-47.812],[21.648,-48.152],[22.201,-48.49],[22.761,-48.825],[23.329,-49.158],[23.904,-49.487],[24.487,-49.814],[25.078,-50.137],[25.677,-50.458],[26.284,-50.776],[26.899,-51.09],[26.401,-51.475],[25.894,-51.857],[25.379,-52.238],[24.854,-52.616],[24.321,-52.991],[23.778,-53.365],[23.225,-53.735],[22.663,-54.104],[22.091,-54.469],[21.508,-54.832],[20.915,-55.192],[20.311,-55.549],[19.696,-55.903],[19.07,-56.254],[18.433,-56.601],[17.783,-56.946],[17.122,-57.287],[16.448,-57.624],[15.762,-57.958],[15.062,-58.288],[14.35,-58.614],[13.625,-58.936],[12.885,-59.254],[12.132,-59.567],[11.365,-59.877],[10.584,-60.181],[9.788,-60.481],[8.977,-60.777],[8.152,-61.067],[7.311,-61.352],[6.455,-61.632],[5.584,-61.906],[4.697,-62.175],[3.794,-62.438],[2.875,-62.695],[1.94,-62.946],[0.99,-63.19],[0.023,-63.429],[-0.959,-63.66],[-1.958,-63.885],[-2.972,-64.103],[-4.002,-64.313],[-5.048,-64.517],[-6.109,-64.712],[-7.185,-64.9],[-8.276,-65.081],[-9.381,-65.253],[-10.501,-65.417],[-11.634,-65.572],[-12.781,-65.719],[-13.941,-65.857],[-15.112,-65.987],[-16.295,-66.107],[-17.489,-66.219],[-18.693,-66.321],[-19.907,-66.413],[-21.129,-66.497],[-22.358,-66.57],[-23.595,-66.634],[-24.837,-66.688],[-26.085,-66.733],[-27.336,-66.767],[-28.591,-66.791],[-29.847,-66.806],[-31.104,-66.811],[-32.362,-66.805],[-33.618,-66.79],[-34.872,-66.764],[-36.123,-66.729],[-37.37,-66.684],[-38.612,-66.629],[-39.848,-66.564],[-41.077,-66.489],[-42.299,-66.405],[-43.511,-66.312],[-44.714,-66.209],[-45.907,-66.097],[-47.09,-65.976],[-48.26,-65.845],[-49.418,-65.706],[-50.564,-65.558],[-51.696,-65.402],[-52.815,-65.237],[-53.919,-65.065],[-55.008,-64.884],[-56.083,-64.695],[-57.143,-64.499],[-58.187,-64.295],[-59.216,-64.083]]}},{"type":"Feature","properties":{"boundary_type":"ridge","feature_type":"gpml:MidOceanRidge","polarity":null,"overriding_plate_id":null,"subducting_plate_id":null,"plate_ids":[803,90105],"name":""},"geometry":{"type":"LineString","coordinates":[[126.037,19.129],[125.802,18.692],[125.568,18.254],[125.334,17.816],[125.102,17.378],[124.872,16.939],[124.642,16.501],[124.413,16.062],[124.185,15.622],[123.959,15.183],[123.733,14.743],[123.508,14.303],[123.284,13.863],[123.061,13.423],[122.838,12.982],[122.617,12.542],[122.396,12.101],[122.176,11.66],[121.957,11.218],[121.738,10.777],[121.52,10.335],[121.302,9.894],[121.086,9.452],[120.869,9.01],[120.653,8.568],[120.438,8.126],[120.877,7.891],[121.314,7.656],[121.752,7.421],[122.189,7.185],[122.625,6.949],[123.062,6.712],[123.497,6.475],[123.932,6.238],[124.367,6.0],[124.802,5.762],[125.236,5.524],[125.67,5.285],[126.103,5.046],[126.536,4.807],[126.969,4.568],[127.401,4.328],[127.834,4.088],[128.266,3.848],[128.697,3.607],[129.129,3.366],[129.56,3.126],[129.991,2.885],[129.765,2.485],[129.539,2.085],[129.314,1.685],[129.088,1.285],[128.862,0.885],[128.637,0.485],[128.411,0.085],[128.185,-0.315],[127.96,-0.715],[127.734,-1.115],[128.119,-1.371],[128.504,-1.627],[128.889,-1.883],[129.275,-2.139],[129.66,-2.395],[130.046,-2.651],[130.431,-2.906],[130.817,-3.162],[131.203,-3.417],[130.976,-3.85],[130.749,-4.283],[130.521,-4.716],[130.293,-5.148],[130.065,-5.581],[129.837,-6.013],[129.608,-6.446],[129.379,-6.878],[129.149,-7.31],[128.919,-7.743],[128.689,-8.174],[128.458,-8.606],[128.226,-9.038]]}},{"type":"Feature","properties":{"boundary_type":"ridge","feature_type":"gpml:MidOceanRidge","polarity":null,"overriding_plate_id":null,"subducting_plate_id":null,"plate_ids":[90105,90107],"name":""},"geometry":{"type":"LineString","coordinates":[[-59.216,-64.083],[-59.449,-64.487],[-59.69,-64.89],[-59.938,-65.292],[-60.194,-65.694],[-60.458,-66.096]]}},{"type":"Feature","properties":{"boundary_type":"ridge","feature_type":"gpml:MidOceanRidge","polarity":null,"overriding_plate_id":null,"subducting_plate_id":null,"plate_ids":[701,90105],"name":""},"geometry":{"type":"LineString","coordinates":[[-60.458,-66.096],[-60.78,-66.57],[-61.115,-67.043],[-61.464,-67.516],[-61.826,-67.987],[-62.204,-68.458],[-62.598,-68.928],[-63.009,-69.397],[-63.438,-69.865],[-63.886,-70.332],[-64.356,-70.798],[-64.848,-71.263],[-65.364,-71.726],[-65.905,-72.188],[-66.475,-72.648],[-67.075,-73.106],[-67.707,-73.563],[-68.374,-74.017],[-69.079,-74.47],[-69.825,-74.92],[-70.616,-75.367],[-71.455,-75.812],[-72.348,-76.254],[-73.298,-76.692],[-74.311,-77.126],[-75.394,-77.556],[-76.552,-77.982],[-77.794,-78.403],[-79.127,-78.817],[-80.561,-79.226],[-82.105,-79.627],[-83.771,-80.021],[-85.571,-80.405],[-87.517,-80.78],[-89.624,-81.143],[-91.907,-81.493],[-94.379,-81.829],[-97.057,-82.148],[-99.954,-82.45],[-102.23,-82.069],[-104.296,-81.677],[-106.175,-81.275],[-107.889,-80.865],[-109.455,-80.447],[-110.89,-80.023],[-112.208,-79.594],[-113.423,-79.159],[-114.545,-78.72],[-115.583,-78.277],[-116.546,-77.831],[-117.442,-77.381],[-118.277,-76.929],[-119.057,-76.474],[-121.123,-76.57],[-123.215,-76.649],[-125.33,-76.71],[-127.46,-76.754],[-129.602,-76.78],[-131.749,-76.789],[-133.896,-76.779],[-136.037,-76.751],[-138.166,-76.706],[-140.279,-76.643],[-142.369,-76.563],[-144.433,-76.466],[-146.465,-76.352],[-148.462,-76.222],[-150.42,-76.076],[-152.336,-75.915],[-154.208,-75.739],[-156.033,-75.548],[-157.81,-75.344],[-159.538,-75.127],[-161.216,-74.898],[-162.844,-74.656],[-164.421,-74.403],[-165.948,-74.139],[-167.425,-73.865],[-168.853,-73.581],[-170.234,-73.287],[-171.567,-72.985],[-172.855,-72.674],[-174.098,-72.355],[-175.297,-72.029],[-176.455,-71.696],[-177.573,-71.356],[-178.651,-71.01],[-179.692,-70.657],[179.303,-70.299],[178.333,-69.936],[177.396,-69.567],[176.491,-69.193],[175.617,-68.815],[174.773,-68.433],[173.956,-68.046],[173.167,-67.656],[172.403,-67.262],[171.664,-66.864],[170.949,-66.463],[170.257,-66.059]]}},{"type":"Feature","properties":{"boundary_type":"subduction","feature_type":"gpml:SubductionZone","polarity":"Right","overriding_plate_id":801,"subducting_plate_id":90107,"plate_ids":[801,90107],"name":"SaoFrancisco_SZ"},"geometry":{"type":"LineString","coordinates":[[-84.199,-13.758],[-84.18,-14.242],[-84.161,-14.725],[-84.142,-15.208],[-84.123,-15.692],[-84.103,-16.175],[-84.084,-16.659],[-84.065,-17.142],[-84.045,-17.625],[-84.025,-18.109],[-84.005,-18.592],[-83.985,-19.075],[-83.965,-19.559],[-83.945,-20.042],[-83.925,-20.526],[-83.904,-21.009],[-83.884,-21.492],[-83.863,-21.976],[-83.842,-22.459],[-83.821,-22.942],[-83.8,-23.426],[-83.779,-23.909],[-83.757,-24.393],[-83.736,-24.876],[-83.617,-25.344],[-83.497,-25.811],[-83.376,-26.279],[-83.255,-26.746],[-83.132,-27.214],[-83.008,-27.681],[-82.884,-28.148],[-82.758,-28.615],[-82.631,-29.082],[-82.503,-29.549],[-82.373,-30.015],[-82.243,-30.482],[-82.111,-30.948],[-81.978,-31.415],[-81.843,-31.881]]}},{"type":"Feature","properties":{"boundary_type":"subduction","feature_type":"gpml:SubductionZone","polarity":"Right","overriding_plate_id":701,"subducting_plate_id":90107,"plate_ids":[701,90107],"name":"SaoFrancisco_SZ"},"geometry":{"type":"LineString","coordinates":[[-81.843,-31.881],[-81.761,-32.164],[-81.678,-32.446],[-81.565,-32.901],[-81.45,-33.355],[-81.334,-33.81],[-81.216,-34.264],[-81.097,-34.718],[-80.978,-35.172],[-80.856,-35.626],[-80.733,-36.08],[-80.609,-36.533],[-80.484,-36.987],[-80.357,-37.44],[-80.228,-37.894],[-80.098,-38.347],[-79.912,-38.811],[-79.725,-39.275],[-79.535,-39.738],[-79.342,-40.201],[-79.146,-40.664],[-78.948,-41.127],[-78.747,-41.589],[-78.543,-42.051],[-78.337,-42.513],[-78.127,-42.974],[-77.914,-43.435],[-77.697,-43.895],[-77.478,-44.355],[-77.254,-44.814],[-77.028,-45.273],[-76.797,-45.732],[-76.563,-46.19],[-76.324,-46.648],[-76.082,-47.105],[-75.836,-47.562],[-75.653,-48.02],[-75.468,-48.478],[-75.279,-48.936],[-75.087,-49.394],[-74.891,-49.851],[-74.691,-50.308],[-74.487,-50.764],[-74.279,-51.221],[-74.068,-51.676],[-73.852,-52.132],[-73.631,-52.587],[-73.406,-53.042],[-73.176,-53.496],[-72.941,-53.949],[-72.701,-54.403],[-72.455,-54.855],[-72.204,-55.308],[-71.869,-55.76],[-71.526,-56.21],[-71.175,-56.66],[-70.816,-57.109],[-70.448,-57.557],[-70.071,-58.004],[-69.684,-58.45],[-69.287,-58.894],[-68.88,-59.337],[-68.462,-59.779],[-68.033,-60.22],[-67.592,-60.659],[-67.139,-61.096],[-66.674,-61.532],[-66.195,-61.967],[-65.702,-62.399],[-65.195,-62.83],[-64.673,-63.259],[-64.123,-63.672],[-63.557,-64.082],[-62.974,-64.49],[-62.373,-64.895],[-61.754,-65.298],[-61.116,-65.698],[-60.458,-66.096]]}},{"type":"Feature","properties":{"boundary_type":"subduction","feature_type":"gpml:SubductionZone","polarity":"Left","overriding_plate_id":101,"subducting_plate_id":803,"plate_ids":[101,803],"name":"Baltica_SZ"},"geometry":{"type":"LineString","coordinates":[[-167.696,26.696],[-167.492,26.268],[-167.289,25.839],[-167.088,25.41],[-166.889,24.981],[-166.691,24.551],[-166.494,24.121],[-166.298,23.691],[-166.095,23.263],[-165.892,22.834],[-165.691,22.405],[-165.491,21.976],[-165.292,21.547],[-165.095,21.117],[-164.898,20.687],[-164.703,20.257],[-164.509,19.827],[-164.316,19.397],[-164.247,18.936],[-164.179,18.475],[-164.112,18.015],[-164.045,17.554],[-163.978,17.093],[-163.911,16.632],[-163.845,16.172],[-163.779,15.711],[-163.713,15.25],[-163.813,14.801],[-163.912,14.353],[-164.011,13.904],[-164.109,13.455],[-164.207,13.006],[-164.305,12.558],[-164.402,12.109],[-164.499,11.66],[-164.596,11.211],[-164.692,10.762],[-164.789,10.313],[-164.884,9.864],[-164.918,9.402],[-164.951,8.941],[-164.984,8.479],[-165.017,8.017],[-165.05,7.556],[-165.083,7.094],[-165.116,6.632],[-165.149,6.171],[-165.182,5.709],[-165.214,5.248],[-165.247,4.786],[-165.28,4.324],[-165.238,3.87],[-165.196,3.416],[-165.154,2.962],[-165.112,2.508],[-165.07,2.054],[-165.028,1.6],[-164.986,1.146],[-164.945,0.692],[-164.903,0.237],[-164.861,-0.217],[-164.719,-0.647],[-164.577,-1.078],[-164.435,-1.509],[-164.293,-1.94]]}},{"type":"Feature","properties":{"boundary_type":"ridge","feature_type":"gpml:MidOceanRidge","polarity":null,"overriding_plate_id":null,"subducting_plate_id":null,"plate_ids":[803,90105],"name":""},"geometry":{"type":"LineString","coordinates":[[126.037,19.129],[125.677,19.358],[125.316,19.585],[124.954,19.812],[124.591,20.039],[124.227,20.264]]}},{"type":"Feature","properties":{"boundary_type":"ridge","feature_type":"gpml:MidOceanRidge","polarity":null,"overriding_plate_id":null,"subducting_plate_id":null,"plate_ids":[90105,90106],"name":""},"geometry":{"type":"LineString","coordinates":[[124.227,20.264],[123.782,20.539],[123.334,20.812],[122.885,21.084],[122.435,21.354],[121.982,21.624],[121.528,21.892],[121.073,22.159],[120.615,22.425],[120.156,22.69],[119.695,22.953],[119.232,23.215],[118.768,23.475],[118.301,23.735],[117.833,23.992],[117.363,24.249],[116.891,24.504],[116.417,24.757],[115.941,25.009],[115.463,25.259],[114.984,25.508],[114.502,25.755],[114.018,26.001],[113.532,26.245],[113.045,26.487],[112.555,26.728],[112.063,26.967],[111.569,27.205],[111.073,27.44],[110.574,27.674],[110.074,27.906],[109.571,28.136],[109.067,28.365],[108.56,28.591],[108.051,28.816],[107.54,29.039],[107.026,29.259],[106.511,29.478],[105.993,29.695],[105.473,29.91],[104.951,30.122],[104.426,30.333],[103.899,30.542],[103.37,30.748],[102.839,30.952],[102.305,31.155],[101.769,31.354],[101.231,31.552],[100.691,31.747],[100.148,31.941],[99.603,32.131],[99.056,32.32],[98.507,32.506],[97.955,32.689],[97.401,32.871],[96.845,33.049],[96.684,32.571],[96.526,32.093],[96.369,31.615],[96.214,31.136],[96.06,30.657],[95.908,30.178],[95.758,29.699],[95.608,29.22],[95.461,28.74],[95.314,28.26],[95.169,27.78],[95.025,27.3],[94.882,26.82],[94.741,26.34],[94.601,25.86],[94.462,25.379],[94.324,24.898],[94.187,24.417],[94.051,23.937],[93.916,23.455],[93.782,22.974],[93.649,22.493],[93.117,22.557],[92.585,22.619],[92.052,22.68],[91.519,22.739],[90.985,22.796],[90.451,22.851],[89.917,22.904],[89.382,22.956],[88.846,23.006],[88.31,23.054],[87.774,23.1],[87.238,23.145],[86.701,23.187],[86.164,23.228],[85.626,23.267],[85.089,23.304],[84.55,23.34],[84.012,23.373],[83.473,23.405],[82.935,23.434],[82.395,23.462],[81.856,23.488],[81.317,23.513],[80.777,23.535],[80.237,23.556],[79.697,23.574],[79.157,23.591],[78.616,23.606],[78.076,23.619],[77.535,23.63],[76.995,23.639],[76.454,23.647],[75.913,23.652],[75.372,23.656],[74.832,23.658],[74.291,23.658],[74.313,23.165],[74.336,22.673],[74.358,22.181],[74.381,21.689],[74.403,21.196],[74.425,20.704],[74.446,20.212],[74.468,19.72],[74.489,19.227],[74.511,18.735],[74.532,18.243],[74.019,18.14],[73.507,18.037],[72.996,17.931],[72.485,17.825],[71.975,17.717],[71.465,17.608],[70.956,17.498],[70.448,17.386],[69.94,17.273],[69.433,17.159],[68.926,17.043],[68.42,16.926],[67.915,16.808],[67.41,16.689],[66.906,16.568],[66.403,16.447],[65.9,16.324],[65.398,16.2],[64.897,16.074],[64.396,15.948],[63.896,15.82],[63.396,15.692],[62.897,15.562],[62.399,15.431],[61.901,15.299],[61.404,15.166],[60.908,15.031],[60.412,14.896],[59.917,14.759],[59.422,14.622],[58.929,14.483],[58.435,14.344],[57.943,14.203],[57.451,14.062],[56.959,13.919],[56.468,13.776],[55.978,13.631],[55.488,13.486],[54.999,13.339],[54.511,13.192],[54.023,13.044],[53.536,12.894],[53.049,12.744],[52.563,12.593],[52.077,12.441],[51.593,12.289],[51.108,12.135],[50.624,11.981],[50.141,11.825],[49.658,11.669],[49.176,11.513],[48.694,11.355],[48.213,11.196],[47.733,11.037],[47.885,10.59],[48.036,10.142],[48.187,9.694],[48.338,9.246],[48.489,8.798],[48.639,8.35],[48.788,7.902],[48.938,7.454],[49.087,7.006],[49.235,6.558],[49.384,6.11],[49.532,5.662],[49.68,5.213],[49.192,5.109],[48.704,5.004],[48.217,4.899],[47.729,4.793],[47.242,4.687],[46.754,4.581],[46.267,4.475],[45.78,4.368],[45.293,4.26],[44.807,4.153],[44.32,4.045],[43.834,3.937],[43.347,3.829],[42.861,3.72],[42.375,3.611],[41.889,3.502],[41.403,3.392],[40.918,3.283],[40.432,3.173],[39.946,3.063],[39.461,2.952],[38.976,2.842],[38.49,2.731],[38.005,2.62],[37.52,2.509],[37.035,2.398],[36.55,2.286],[36.066,2.174],[35.581,2.063],[35.096,1.951],[34.612,1.838],[34.127,1.726],[33.643,1.614],[33.158,1.501],[32.674,1.389],[32.189,1.276],[31.705,1.163],[31.221,1.05],[30.737,0.937],[30.252,0.824],[29.768,0.711],[29.284,0.598],[28.8,0.485],[28.316,0.372],[27.832,0.259],[27.348,0.145],[26.864,0.032],[26.379,-0.081],[25.895,-0.194],[25.411,-0.308],[24.927,-0.421],[24.443,-0.534],[23.959,-0.647],[23.475,-0.76],[22.991,-0.873],[22.506,-0.986],[22.022,-1.099],[21.538,-1.212],[21.054,-1.325],[20.569,-1.437],[20.085,-1.55],[19.6,-1.662],[19.116,-1.775],[18.631,-1.887],[18.147,-1.999],[17.662,-2.111],[17.177,-2.223],[16.692,-2.334],[16.207,-2.446],[15.722,-2.557],[15.237,-2.668],[14.752,-2.779],[14.267,-2.889],[13.781,-3.0],[13.296,-3.11],[12.81,-3.22],[12.325,-3.33]]}},{"type":"Feature","properties":{"boundary_type":"subduction","feature_type":"gpml:SubductionZone","polarity":"Left","overriding_plate_id":10104,"subducting_plate_id":90106,"plate_ids":[10104,90106],"name":""},"geometry":{"type":"LineString","coordinates":[[-136.587,78.328],[-138.307,78.404],[-140.048,78.469],[-141.806,78.524],[-144.211,78.495],[-146.599,78.447],[-148.964,78.38],[-151.299,78.293],[-153.596,78.188],[-155.85,78.065],[-158.055,77.924],[-160.207,77.766],[-162.302,77.592],[-164.338,77.402],[-166.312,77.198],[-167.166,76.752],[-167.964,76.303],[-168.713,75.852],[-169.417,75.398],[-170.079,74.943],[-170.703,74.486],[-171.292,74.027],[-171.849,73.567],[-172.376,73.106],[-172.876,72.643],[-173.351,72.179],[-173.634,71.715],[-173.903,71.251],[-174.16,70.786],[-174.405,70.321],[-174.64,69.856],[-174.864,69.391],[-175.079,68.925],[-175.284,68.459],[-175.482,67.993],[-175.672,67.526],[-175.854,67.06],[-176.03,66.593],[-176.15,66.117],[-176.266,65.641],[-176.377,65.165],[-176.485,64.689],[-176.589,64.212],[-176.69,63.736],[-176.787,63.26],[-176.881,62.783],[-176.972,62.307],[-177.06,61.83],[-177.146,61.353],[-177.229,60.877],[-177.309,60.4],[-177.387,59.923],[-177.162,59.458],[-176.942,58.993],[-176.728,58.527],[-176.52,58.061],[-176.317,57.594],[-176.119,57.127],[-175.926,56.66],[-175.738,56.193],[-175.555,55.725],[-175.375,55.257],[-175.2,54.789],[-175.029,54.32],[-174.679,53.883],[-174.336,53.445],[-174.0,53.006],[-173.671,52.566],[-173.348,52.125],[-173.032,51.683],[-172.722,51.24],[-172.417,50.797],[-172.119,50.353],[-171.68,49.973],[-171.248,49.592],[-170.822,49.21],[-170.404,48.826],[-169.991,48.44],[-169.585,48.053],[-169.185,47.665],[-168.667,47.459],[-168.152,47.25],[-167.642,47.04],[-167.136,46.827],[-166.633,46.612]]}},{"type":"Feature","properties":{"boundary_type":"subduction","feature_type":"gpml:SubductionZone","polarity":"Right","overriding_plate_id":80104,"subducting_plate_id":811001,"plate_ids":[80104,811001],"name":""},"geometry":{"type":"LineString","coordinates":[[-80.488,41.404],[-80.102,41.029],[-79.721,40.652],[-79.344,40.274],[-78.971,39.895],[-78.603,39.515],[-78.238,39.133],[-77.877,38.751],[-77.52,38.367],[-77.167,37.983],[-76.818,37.597],[-76.472,37.21],[-76.13,36.823],[-75.791,36.434],[-75.455,36.044],[-75.123,35.654],[-74.794,35.262],[-74.468,34.87],[-74.416,34.419],[-74.364,33.968],[-74.312,33.517],[-74.261,33.066],[-74.21,32.615],[-74.16,32.164],[-74.111,31.713],[-74.062,31.262]]}},{"type":"Feature","properties":{"boundary_type":"subduction","feature_type":"gpml:SubductionZone","polarity":"Right","overriding_plate_id":80104,"subducting_plate_id":90107,"plate_ids":[80104,90107],"name":""},"geometry":{"type":"LineString","coordinates":[[-74.062,31.262],[-74.014,30.817],[-73.966,30.371],[-74.08,29.919],[-74.193,29.467],[-74.305,29.015],[-74.416,28.562],[-74.526,28.11],[-74.635,27.657],[-74.743,27.205],[-74.85,26.752],[-74.956,26.299],[-75.062,25.846],[-75.178,25.393],[-75.293,24.939],[-75.408,24.486],[-75.521,24.032],[-75.634,23.578],[-75.746,23.124],[-75.857,22.67],[-76.136,22.298],[-76.414,21.926],[-76.69,21.554],[-76.965,21.181],[-77.238,20.807],[-77.51,20.433],[-77.781,20.059],[-78.05,19.684],[-78.442,19.564],[-78.832,19.444],[-79.223,19.322],[-79.633,19.215],[-80.042,19.107],[-80.451,18.998],[-80.86,18.888],[-81.268,18.777],[-81.684,18.685],[-82.099,18.591],[-82.514,18.496],[-82.929,18.4]]}},{"type":"Feature","properties":{"boundary_type":"subduction","feature_type":"gpml:SubductionZone","polarity":"Right","overriding_plate_id":80101,"subducting_plate_id":90106,"plate_ids":[80101,90106],"name":""},"geometry":{"type":"LineString","coordinates":[[-25.675,52.304],[-25.332,51.902],[-24.996,51.5],[-24.665,51.097],[-24.34,50.693],[-24.02,50.287],[-23.706,49.881],[-23.521,49.433],[-23.339,48.985],[-23.161,48.537],[-22.985,48.088],[-22.813,47.639],[-22.644,47.189],[-22.477,46.74],[-22.313,46.29],[-22.152,45.84],[-22.158,45.345],[-22.164,44.851],[-22.169,44.357],[-22.175,43.863],[-22.18,43.369],[-22.186,42.875],[-22.191,42.381],[-22.473,41.97],[-22.752,41.559],[-23.028,41.147],[-23.3,40.734],[-23.569,40.321],[-23.834,39.907],[-24.096,39.493]]}},{"type":"Feature","properties":{"boundary_type":"subduction","feature_type":"gpml:SubductionZone","polarity":"Right","overriding_plate_id":80101,"subducting_plate_id":90107,"plate_ids":[80101,90107],"name":""},"geometry":{"type":"LineString","coordinates":[[-24.096,39.493],[-24.295,39.175],[-24.64,38.774],[-24.981,38.372],[-25.318,37.969],[-25.652,37.565],[-25.981,37.16],[-26.308,36.754],[-26.631,36.347],[-26.95,35.939],[-27.267,35.531],[-27.665,35.2],[-28.059,34.869],[-28.451,34.535],[-28.839,34.201],[-29.225,33.865],[-29.607,33.529],[-29.986,33.191],[-30.363,32.852],[-30.736,32.511],[-31.187,32.228],[-31.635,31.943],[-32.081,31.656],[-32.523,31.367],[-32.963,31.078],[-33.4,30.786],[-33.834,30.494],[-34.266,30.199],[-34.695,29.904],[-35.224,29.76],[-35.751,29.613],[-36.276,29.465],[-36.8,29.315],[-37.323,29.162],[-37.843,29.008],[-38.363,28.851],[-38.88,28.693],[-39.396,28.532],[-39.911,28.37],[-40.424,28.206],[-40.935,28.039],[-41.445,27.871]]}},{"type":"Feature","properties":{"boundary_type":"transform","feature_type":"gpml:Transform","polarity":null,"overriding_plate_id":null,"subducting_plate_id":null,"plate_ids":[90107,811001],"name":""},"geometry":{"type":"LineString","coordinates":[[-74.062,31.262],[-73.488,31.274],[-72.913,31.284],[-72.339,31.291],[-71.764,31.296],[-71.189,31.298],[-70.615,31.298],[-70.04,31.295],[-69.466,31.289],[-68.891,31.281],[-68.317,31.27],[-67.743,31.257],[-67.169,31.241],[-66.595,31.223]]}},{"type":"Feature","properties":{"boundary_type":"transform","feature_type":"gpml:Transform","polarity":null,"overriding_plate_id":null,"subducting_plate_id":null,"plate_ids":[80101,90107],"name":""},"geometry":{"type":"LineString","coordinates":[[-66.595,31.223],[-66.021,31.202],[-65.448,31.179],[-64.876,31.153],[-64.303,31.124],[-63.731,31.093],[-63.159,31.06],[-62.588,31.023],[-62.017,30.985],[-61.447,30.944],[-60.877,30.9],[-60.308,30.854],[-59.739,30.806],[-59.171,30.754],[-58.603,30.701],[-58.036,30.645],[-57.47,30.587],[-56.905,30.526],[-56.34,30.462],[-55.776,30.397],[-55.213,30.328],[-54.65,30.258],[-54.088,30.185],[-53.528,30.109],[-52.968,30.032],[-52.409,29.951],[-51.85,29.869],[-51.293,29.784],[-50.737,29.697],[-50.182,29.608],[-49.627,29.516],[-49.074,29.422],[-48.522,29.325],[-47.971,29.227],[-47.421,29.126],[-46.872,29.023],[-46.324,28.917],[-45.777,28.81],[-45.231,28.7],[-44.687,28.588],[-44.143,28.474],[-43.601,28.358],[-43.06,28.239],[-42.521,28.119],[-41.982,27.996],[-41.445,27.871]]}},{"type":"Feature","properties":{"boundary_type":"ridge","feature_type":"gpml:MidOceanRidge","polarity":null,"overriding_plate_id":null,"subducting_plate_id":null,"plate_ids":[80101,811001],"name":""},"geometry":{"type":"LineString","coordinates":[[-52.173,62.799],[-52.364,62.327],[-52.55,61.854],[-52.729,61.381],[-52.904,60.908],[-53.073,60.435],[-53.237,59.961],[-53.397,59.488],[-53.552,59.014],[-53.703,58.54],[-53.85,58.065],[-53.993,57.591],[-54.133,57.116],[-54.269,56.642],[-54.401,56.167],[-54.53,55.692],[-54.657,55.217],[-54.78,54.741],[-54.9,54.266],[-55.018,53.79],[-55.133,53.315],[-55.245,52.839],[-55.972,52.857],[-56.699,52.871],[-57.427,52.88],[-58.154,52.884],[-58.882,52.885],[-59.61,52.88],[-60.338,52.872],[-61.065,52.859],[-61.08,52.403],[-61.094,51.948],[-61.109,51.493],[-61.123,51.038],[-61.136,50.583],[-61.15,50.128],[-61.163,49.673],[-61.176,49.218],[-61.189,48.763],[-61.87,48.759],[-62.55,48.751],[-63.23,48.74],[-63.91,48.724],[-64.589,48.704],[-64.662,48.219],[-64.733,47.734],[-64.803,47.249],[-64.872,46.764],[-64.939,46.279],[-65.005,45.793],[-65.071,45.308],[-65.135,44.823],[-65.197,44.337],[-65.259,43.852],[-65.32,43.367],[-65.38,42.881],[-65.439,42.396],[-65.497,41.91],[-65.555,41.425],[-65.611,40.939],[-65.666,40.453],[-65.721,39.968],[-65.775,39.482],[-65.828,38.996],[-65.881,38.511],[-65.933,38.025],[-65.984,37.539],[-66.034,37.054],[-66.084,36.568],[-66.133,36.082],[-66.182,35.596],[-66.23,35.11],[-66.277,34.624],[-66.324,34.139],[-66.371,33.653],[-66.416,33.167],[-66.462,32.681],[-66.507,32.195],[-66.551,31.709],[-66.595,31.223]]}},{"type":"Feature","properties":{"boundary_type":"subduction","feature_type":"gpml:SubductionZone","polarity":"Right","overriding_plate_id":811001,"subducting_plate_id":90106,"plate_ids":[90106,811001],"name":""},"geometry":{"type":"LineString","coordinates":[[-66.619,64.895],[-65.521,64.794],[-64.431,64.686],[-63.35,64.57],[-62.278,64.445],[-61.217,64.313],[-60.166,64.174],[-59.126,64.027],[-58.097,63.872],[-57.079,63.711],[-56.073,63.542],[-55.08,63.366],[-54.098,63.184],[-53.129,62.995],[-52.173,62.799]]}},{"type":"Feature","properties":{"boundary_type":"subduction","feature_type":"gpml:SubductionZone","polarity":"Right","overriding_plate_id":80101,"subducting_plate_id":90106,"plate_ids":[80101,90106],"name":""},"geometry":{"type":"LineString","coordinates":[[-52.173,62.799],[-51.188,62.588],[-50.217,62.369],[-49.26,62.145],[-48.317,61.913],[-47.389,61.676],[-46.475,61.432],[-45.576,61.182],[-44.69,60.926],[-43.819,60.665],[-42.962,60.398],[-42.12,60.125],[-41.291,59.848],[-40.476,59.565],[-39.675,59.277],[-38.887,58.984],[-38.113,58.687],[-37.352,58.385],[-36.604,58.079],[-35.869,57.768],[-35.146,57.453],[-34.436,57.134],[-33.738,56.811],[-33.052,56.485],[-32.377,56.154],[-31.715,55.82],[-31.063,55.483],[-30.423,55.142],[-29.794,54.798],[-29.175,54.45],[-28.567,54.1],[-27.969,53.746],[-27.381,53.39],[-26.803,53.031],[-26.234,52.669],[-25.675,52.304]]}},{"type":"Feature","properties":{"boundary_type":"ridge","feature_type":"gpml:MidOceanRidge","polarity":null,"overriding_plate_id":null,"subducting_plate_id":null,"plate_ids":[90106,90107],"name":""},"geometry":{"type":"LineString","coordinates":[[13.583,-0.577],[13.274,-0.189],[12.964,0.199],[12.654,0.587],[12.344,0.976],[12.035,1.364],[11.725,1.752],[11.414,2.14],[11.104,2.528],[10.794,2.916],[10.483,3.304],[10.172,3.691],[9.861,4.079],[9.55,4.466],[9.238,4.854],[8.926,5.241],[8.613,5.628],[8.3,6.015],[7.987,6.402],[7.673,6.788],[7.358,7.174],[7.044,7.561],[6.728,7.946],[6.412,8.332],[6.095,8.717],[5.778,9.103],[5.46,9.487],[5.141,9.872],[4.822,10.256],[4.501,10.64],[4.18,11.024],[3.734,10.786],[3.289,10.547],[2.844,10.308],[2.4,10.068],[1.956,9.827],[1.514,9.586],[1.071,9.344],[0.63,9.102],[0.189,8.859],[-0.252,8.616],[-0.691,8.372],[-1.131,8.128],[-1.569,7.883],[-2.008,7.638],[-2.287,8.046],[-2.568,8.453],[-2.849,8.86],[-3.13,9.268],[-3.413,9.674],[-3.696,10.081],[-3.979,10.488],[-4.264,10.894],[-4.549,11.3],[-4.835,11.705],[-5.122,12.111],[-5.41,12.516],[-5.698,12.921],[-5.988,13.325],[-6.278,13.729],[-6.57,14.133],[-6.862,14.536],[-7.156,14.939],[-7.451,15.342],[-7.747,15.744],[-8.044,16.146],[-8.342,16.548],[-8.642,16.949],[-8.942,17.349],[-9.245,17.75],[-9.548,18.149],[-9.853,18.548],[-10.159,18.947],[-10.467,19.345],[-10.121,19.637],[-9.775,19.929],[-9.427,20.219],[-9.077,20.509],[-8.727,20.798],[-9.008,21.221],[-9.29,21.642],[-9.574,22.064],[-9.859,22.485],[-10.147,22.905],[-10.436,23.325],[-10.727,23.744],[-11.02,24.163],[-11.315,24.581],[-11.611,24.999],[-11.91,25.416],[-12.211,25.833],[-12.514,26.248],[-12.819,26.664],[-13.127,27.078],[-13.436,27.492],[-13.748,27.905],[-14.063,28.318],[-14.38,28.729],[-14.699,29.14],[-15.021,29.55],[-15.345,29.96],[-15.673,30.369],[-16.002,30.776],[-16.335,31.183],[-16.671,31.589],[-17.009,31.995],[-17.351,32.399],[-17.696,32.802],[-18.043,33.205],[-18.394,33.606],[-18.749,34.007],[-19.106,34.406],[-19.467,34.805],[-19.832,35.202],[-20.2,35.598],[-20.572,35.993],[-20.947,36.387],[-21.327,36.78],[-21.71,37.171],[-22.097,37.562],[-22.488,37.951],[-22.884,38.338],[-23.284,38.725],[-23.688,39.11],[-24.096,39.493]]}}]}