{"type":"FeatureCollection","meta":{"model":"Cao2024","reconstruction_time_ma":1400.0,"anchor_plate_id":0,"pygplates_version":"1.0.0","tessellate_degrees":0.5,"polarity_convention":"gpml:subductionPolarity. 'Left'/'Right' names the side of the line, in vertex order, on which the OVERRIDING plate lies. Triangles are drawn on that side.","antimeridian":"Lines are NOT split at +/-180 deg. The renderer works in 3D unit vectors where the dateline is not special; splitting would only add spurious breaks. Do not treat this as RFC 7946 GIS-ready 2D data."},"features":[{"type":"Feature","properties":{"boundary_type":"subduction","feature_type":"gpml:SubductionZone","polarity":"Left","overriding_plate_id":101,"subducting_plate_id":911001,"plate_ids":[101,911001],"name":"Indo-Antarctica_SZ"},"geometry":{"type":"LineString","coordinates":[[-152.644,-33.05],[-152.548,-33.501],[-152.452,-33.952],[-152.354,-34.403],[-152.255,-34.854],[-152.156,-35.304],[-152.055,-35.755],[-151.953,-36.205],[-152.076,-36.675],[-152.2,-37.145],[-152.326,-37.615],[-152.453,-38.084],[-152.582,-38.554],[-152.713,-39.023],[-152.845,-39.492],[-152.979,-39.961],[-153.116,-40.43],[-153.254,-40.899],[-153.394,-41.368],[-153.536,-41.836],[-153.68,-42.304],[-153.826,-42.772],[-154.0,-43.246],[-154.177,-43.72],[-154.356,-44.193],[-154.539,-44.666],[-154.724,-45.139],[-154.913,-45.612],[-155.105,-46.084],[-155.3,-46.556],[-155.498,-47.027],[-155.7,-47.499],[-155.906,-47.969],[-156.115,-48.44],[-156.181,-48.934],[-156.248,-49.428],[-156.317,-49.922],[-156.387,-50.415],[-156.459,-50.909],[-156.532,-51.403],[-156.607,-51.897],[-156.683,-52.39],[-156.761,-52.884],[-156.841,-53.378],[-156.923,-53.871],[-157.006,-54.364],[-157.092,-54.858],[-157.18,-55.351],[-157.015,-55.84],[-156.845,-56.329],[-156.671,-56.817],[-156.493,-57.305],[-156.31,-57.793],[-156.121,-58.28],[-155.928,-58.768],[-155.729,-59.255],[-155.524,-59.741],[-155.313,-60.228],[-155.096,-60.714],[-154.872,-61.199],[-154.641,-61.685],[-154.526,-61.796]]}},{"type":"Feature","properties":{"boundary_type":"subduction","feature_type":"gpml:SubductionZone","polarity":"Left","overriding_plate_id":null,"subducting_plate_id":null,"plate_ids":[911001],"name":"Indo-Antarctica_SZ"},"geometry":{"type":"LineString","coordinates":[[-154.526,-61.796],[-154.081,-62.219],[-153.624,-62.64],[-153.153,-63.06],[-152.669,-63.478],[-152.17,-63.894],[-151.656,-64.309],[-151.127,-64.722],[-150.581,-65.132],[-150.018,-65.541],[-149.438,-65.948]]}},{"type":"Feature","properties":{"boundary_type":"subduction","feature_type":"gpml:SubductionZone","polarity":"Right","overriding_plate_id":101,"subducting_plate_id":90107,"plate_ids":[101,90107],"name":"NorthChina_SZ"},"geometry":{"type":"LineString","coordinates":[[-92.694,22.165],[-92.344,22.089],[-91.995,22.012],[-91.556,21.769],[-91.118,21.524],[-90.681,21.278],[-90.246,21.032],[-89.812,20.784],[-89.38,20.535],[-88.949,20.285],[-88.52,20.034],[-88.243,19.639],[-87.968,19.244],[-87.694,18.849],[-87.421,18.453],[-87.15,18.057],[-86.88,17.661],[-86.611,17.264],[-86.343,16.866],[-86.076,16.469],[-85.811,16.071],[-85.847,15.608],[-85.884,15.145],[-85.92,14.682],[-85.956,14.218],[-85.992,13.755],[-86.028,13.292],[-86.064,12.829],[-86.1,12.366],[-86.135,11.903],[-86.17,11.44],[-86.206,10.976],[-86.241,10.513],[-86.276,10.05],[-86.44,9.597],[-86.603,9.144],[-86.766,8.691],[-86.929,8.238],[-87.091,7.785],[-87.253,7.331],[-87.415,6.878],[-87.576,6.424],[-87.737,5.971],[-87.898,5.517]]}},{"type":"Feature","properties":{"boundary_type":"subduction","feature_type":"gpml:SubductionZone","polarity":"Right","overriding_plate_id":801,"subducting_plate_id":80101,"plate_ids":[801,80101],"name":"SouthAustralia_SZ"},"geometry":{"type":"LineString","coordinates":[[-110.31,46.787],[-110.131,46.409],[-109.923,45.972],[-109.719,45.534],[-109.518,45.096],[-109.32,44.658],[-109.125,44.22],[-108.932,43.781],[-108.743,43.342],[-108.556,42.902],[-108.588,42.411],[-108.619,41.921],[-108.65,41.43],[-108.681,40.939],[-108.71,40.448],[-108.74,39.957],[-108.769,39.466],[-108.798,38.975],[-108.826,38.484],[-108.854,37.994]]}},{"type":"Feature","properties":{"boundary_type":"subduction","feature_type":"gpml:SubductionZone","polarity":"Left","overriding_plate_id":101,"subducting_plate_id":90106,"plate_ids":[101,90106],"name":"Eastern_Laurentia_SZ"},"geometry":{"type":"LineString","coordinates":[[-171.194,50.454],[-171.524,50.037],[-171.847,49.62],[-172.166,49.201],[-172.479,48.782],[-172.787,48.362],[-173.089,47.941],[-173.387,47.519],[-173.68,47.097],[-173.897,46.629],[-174.109,46.161],[-174.318,45.692],[-174.523,45.223],[-174.726,44.754],[-174.924,44.284],[-175.12,43.814],[-175.313,43.344],[-175.502,42.874],[-175.689,42.403],[-175.873,41.931],[-176.054,41.46],[-176.233,40.988],[-176.409,40.516],[-176.536,40.052],[-176.662,39.588],[-176.785,39.124],[-176.908,38.66],[-177.028,38.196],[-177.147,37.732],[-177.265,37.267],[-177.381,36.803],[-177.495,36.338],[-177.609,35.873]]}},{"type":"Feature","properties":{"boundary_type":"subduction","feature_type":"gpml:SubductionZone","polarity":"Left","overriding_plate_id":101,"subducting_plate_id":201,"plate_ids":[101,201],"name":"Eastern_Laurentia_SZ"},"geometry":{"type":"LineString","coordinates":[[-177.609,35.873],[-177.714,35.435],[-177.818,34.997],[-177.922,34.56],[-178.024,34.122],[-178.125,33.683],[-178.225,33.245],[-178.324,32.807],[-178.422,32.369],[-178.41,31.9],[-178.398,31.431],[-178.386,30.962],[-178.375,30.494],[-178.363,30.025],[-178.352,29.556],[-178.341,29.087],[-178.33,28.618],[-178.319,28.149],[-178.308,27.681],[-178.297,27.212],[-178.286,26.743],[-178.275,26.274],[-178.265,25.805],[-178.254,25.336],[-178.004,24.933],[-177.756,24.528],[-177.509,24.124],[-177.264,23.719],[-177.02,23.313],[-176.778,22.907],[-176.537,22.501],[-176.298,22.094],[-176.06,21.688],[-175.823,21.28],[-175.501,20.913],[-175.181,20.545],[-174.862,20.177],[-174.544,19.808],[-174.228,19.439],[-173.914,19.069],[-173.601,18.698],[-173.289,18.327],[-172.979,17.956],[-172.67,17.584],[-172.362,17.211],[-172.055,16.838],[-171.717,16.583],[-171.379,16.326],[-171.043,16.069],[-170.707,15.812]]}},{"type":"Feature","properties":{"boundary_type":"subduction","feature_type":"gpml:SubductionZone","polarity":"Left","overriding_plate_id":101,"subducting_plate_id":90107,"plate_ids":[101,90107],"name":"South_NorthAustralia_SZ"},"geometry":{"type":"LineString","coordinates":[[-92.694,22.165],[-92.88,22.621],[-93.067,23.077],[-93.256,23.534],[-93.445,23.989],[-93.636,24.445],[-93.829,24.9],[-94.023,25.356],[-94.218,25.81],[-94.415,26.265],[-94.613,26.719],[-94.813,27.173],[-95.015,27.627],[-95.218,28.081],[-95.423,28.534],[-95.63,28.987],[-95.839,29.439],[-96.049,29.891],[-96.262,30.343]]}},{"type":"Feature","properties":{"boundary_type":"subduction","feature_type":"gpml:SubductionZone","polarity":"Left","overriding_plate_id":101,"subducting_plate_id":80101,"plate_ids":[101,80101],"name":"South_NorthAustralia_SZ"},"geometry":{"type":"LineString","coordinates":[[-96.262,30.343],[-96.474,30.79],[-96.688,31.237],[-96.904,31.683],[-97.123,32.129],[-97.523,32.474],[-97.927,32.819],[-98.334,33.162],[-98.744,33.503],[-99.157,33.844],[-99.573,34.182],[-99.993,34.52],[-100.417,34.856],[-100.843,35.19],[-101.274,35.524],[-101.707,35.855],[-102.145,36.185],[-102.586,36.513],[-103.031,36.84],[-103.48,37.165],[-103.932,37.488],[-104.468,37.554],[-105.005,37.616],[-105.542,37.677],[-106.081,37.735],[-106.62,37.79],[-107.16,37.844],[-107.701,37.894]]}},{"type":"Feature","properties":{"boundary_type":"subduction","feature_type":"gpml:SubductionZone","polarity":"Left","overriding_plate_id":801,"subducting_plate_id":80101,"plate_ids":[801,80101],"name":"South_NorthAustralia_SZ"},"geometry":{"type":"LineString","coordinates":[[-107.701,37.894],[-108.277,37.945],[-108.854,37.994]]}},{"type":"Feature","properties":{"boundary_type":"subduction","feature_type":"gpml:SubductionZone","polarity":"Left","overriding_plate_id":801,"subducting_plate_id":80101,"plate_ids":[801,80101],"name":"NorthwesternMawson_SZ"},"geometry":{"type":"LineString","coordinates":[[-110.31,46.787],[-109.937,47.203],[-109.557,47.617],[-109.171,48.031],[-108.779,48.443],[-108.38,48.854],[-107.951,49.234],[-107.515,49.613],[-107.073,49.989],[-106.623,50.364],[-106.167,50.738],[-105.702,51.109],[-105.231,51.479],[-104.752,51.847],[-104.318,52.213],[-103.876,52.578],[-103.428,52.941],[-102.972,53.302],[-102.508,53.662],[-102.036,54.019],[-101.709,54.439],[-101.376,54.857],[-101.036,55.275],[-100.689,55.691],[-100.334,56.107],[-99.971,56.521],[-100.057,56.995],[-100.144,57.469],[-100.234,57.942],[-100.327,58.416],[-100.421,58.889],[-101.021,59.281],[-101.634,59.669],[-102.262,60.055],[-102.905,60.437],[-103.562,60.817]]}},{"type":"Feature","properties":{"boundary_type":"subduction","feature_type":"gpml:SubductionZone","polarity":"Left","overriding_plate_id":null,"subducting_plate_id":null,"plate_ids":[801],"name":"NorthwesternMawson_SZ"},"geometry":{"type":"LineString","coordinates":[[-103.562,60.817],[-104.143,61.142],[-104.736,61.464],[-105.341,61.784],[-105.959,62.101],[-106.751,62.338],[-107.554,62.57]]}},{"type":"Feature","properties":{"boundary_type":"subduction","feature_type":"gpml:SubductionZone","polarity":"Left","overriding_plate_id":801,"subducting_plate_id":90106,"plate_ids":[801,90106],"name":"NorthwesternMawson_SZ"},"geometry":{"type":"LineString","coordinates":[[-107.554,62.57],[-108.432,62.814],[-109.325,63.052],[-110.232,63.285],[-111.154,63.512],[-112.091,63.734],[-113.042,63.948],[-114.007,64.157],[-114.987,64.359],[-115.981,64.555],[-116.887,64.831],[-117.812,65.102],[-118.756,65.367],[-119.718,65.627],[-120.7,65.88],[-121.701,66.126],[-122.721,66.366],[-123.761,66.6],[-124.821,66.826],[-125.9,67.045],[-126.998,67.256],[-128.115,67.46],[-129.128,67.714],[-130.163,67.961],[-131.22,68.202],[-132.299,68.436],[-133.4,68.662],[-134.523,68.882],[-135.669,69.093],[-136.836,69.297],[-138.025,69.493],[-139.236,69.681],[-140.467,69.86],[-141.72,70.031],[-142.992,70.193],[-144.357,70.254],[-145.729,70.305],[-147.108,70.346],[-148.491,70.376],[-149.878,70.395],[-151.266,70.404],[-152.655,70.402],[-154.043,70.39]]}},{"type":"Feature","properties":{"boundary_type":"ridge","feature_type":"gpml:MidOceanRidge","polarity":null,"overriding_plate_id":null,"subducting_plate_id":null,"plate_ids":[101,801],"name":"SouthAustralia-NorthAustralia ridge"},"geometry":{"type":"LineString","coordinates":[[-126.839,32.571],[-126.321,32.604],[-125.802,32.634],[-125.282,32.662],[-124.763,32.687],[-124.243,32.711],[-123.723,32.733],[-123.203,32.752],[-123.086,33.114],[-122.968,33.477],[-122.44,33.625],[-121.911,33.77],[-121.38,33.914],[-120.848,34.055],[-120.313,34.194],[-119.777,34.33],[-119.847,34.707],[-119.917,35.083],[-119.414,35.032],[-118.911,34.979],[-118.41,34.924],[-117.908,34.867],[-117.739,35.202],[-117.567,35.536],[-117.157,35.368],[-116.748,35.198],[-116.341,35.027],[-116.043,35.407],[-115.742,35.786],[-115.438,36.164],[-114.855,36.315],[-114.271,36.463],[-113.684,36.608],[-113.095,36.75],[-112.504,36.889],[-111.911,37.025],[-111.316,37.158],[-110.718,37.289],[-110.119,37.416],[-109.517,37.54],[-108.914,37.661],[-108.309,37.779],[-107.701,37.894]]}},{"type":"Feature","properties":{"boundary_type":"ridge","feature_type":"gpml:MidOceanRidge","polarity":null,"overriding_plate_id":null,"subducting_plate_id":null,"plate_ids":[101,801],"name":"Laurentia-SouthAustralia ridge"},"geometry":{"type":"LineString","coordinates":[[-126.839,32.571],[-126.883,33.036],[-126.928,33.501],[-126.973,33.965],[-127.018,34.43],[-127.064,34.894],[-127.111,35.359],[-127.675,35.481],[-128.241,35.6],[-128.808,35.716],[-129.377,35.83],[-129.948,35.942],[-130.52,36.05],[-131.094,36.156],[-131.669,36.259],[-132.246,36.359],[-132.824,36.457],[-133.404,36.551],[-133.985,36.643],[-134.568,36.732],[-135.152,36.818],[-135.737,36.902],[-136.323,36.982],[-136.911,37.06],[-137.5,37.134],[-137.493,37.599],[-137.487,38.064],[-137.481,38.529],[-137.474,38.994],[-137.468,39.458],[-137.461,39.923],[-137.454,40.388],[-138.059,40.44],[-138.665,40.49],[-139.272,40.536],[-139.879,40.579],[-140.488,40.619],[-141.097,40.656],[-141.706,40.689],[-142.317,40.72],[-142.927,40.747],[-143.538,40.771],[-143.471,41.242],[-143.403,41.714],[-143.334,42.186],[-143.264,42.657],[-143.192,43.129],[-143.12,43.6],[-143.046,44.072],[-142.972,44.543],[-142.896,45.014],[-142.818,45.486],[-142.74,45.957],[-142.66,46.428],[-142.579,46.899],[-142.496,47.37],[-143.149,47.582],[-143.807,47.79],[-144.471,47.994],[-145.14,48.195],[-145.814,48.391],[-146.493,48.584],[-147.177,48.772],[-147.867,48.957],[-148.561,49.137],[-149.261,49.313],[-149.965,49.485],[-150.674,49.652],[-150.515,50.104],[-150.352,50.556],[-150.186,51.007],[-150.017,51.458],[-149.844,51.909],[-149.668,52.36],[-149.488,52.81],[-149.305,53.26],[-149.117,53.71],[-149.919,53.87],[-150.727,54.024],[-151.541,54.173],[-152.36,54.317],[-153.185,54.455],[-154.016,54.587],[-154.851,54.714],[-155.692,54.834],[-156.538,54.949],[-157.389,55.058],[-158.244,55.161],[-158.06,55.603],[-157.871,56.044],[-157.678,56.485],[-157.48,56.926],[-157.278,57.367],[-157.071,57.807],[-157.874,58.043],[-158.688,58.274],[-159.512,58.5],[-160.347,58.721],[-161.192,58.936],[-162.048,59.145],[-162.914,59.349],[-163.79,59.547],[-164.677,59.739],[-165.573,59.925]]}},{"type":"Feature","properties":{"boundary_type":"subduction","feature_type":"gpml:SubductionZone","polarity":"Right","overriding_plate_id":101,"subducting_plate_id":90107,"plate_ids":[101,90107],"name":"SaoFrancisco_SZ"},"geometry":{"type":"LineString","coordinates":[[-70.016,-7.732],[-69.723,-8.093],[-69.428,-8.454],[-69.133,-8.815],[-68.838,-9.175],[-68.541,-9.536],[-68.245,-9.896],[-67.947,-10.255],[-67.649,-10.615],[-67.371,-11.031],[-67.092,-11.446],[-66.812,-11.861],[-66.532,-12.276],[-66.25,-12.69],[-65.968,-13.104],[-65.684,-13.518],[-65.4,-13.932],[-65.115,-14.345],[-64.828,-14.758],[-64.541,-15.17],[-64.252,-15.582],[-63.962,-15.994],[-63.671,-16.405],[-63.379,-16.816],[-63.086,-17.227],[-62.791,-17.637],[-62.495,-18.047],[-62.197,-18.456],[-61.898,-18.865],[-61.598,-19.273],[-61.296,-19.681],[-60.993,-20.088],[-60.688,-20.495],[-60.325,-20.844],[-59.961,-21.192],[-59.595,-21.539],[-59.228,-21.886],[-58.859,-22.232],[-58.487,-22.577],[-58.114,-22.921],[-57.739,-23.264],[-57.363,-23.606],[-56.984,-23.948],[-56.603,-24.288],[-56.22,-24.628],[-55.835,-24.966],[-55.448,-25.304],[-55.059,-25.641],[-54.668,-25.976],[-54.274,-26.311],[-53.878,-26.644],[-53.483,-26.966],[-53.086,-27.287],[-52.687,-27.607],[-52.286,-27.926],[-51.882,-28.243],[-51.475,-28.56],[-51.066,-28.875],[-50.655,-29.189],[-50.241,-29.502],[-49.825,-29.813],[-49.406,-30.123],[-48.984,-30.432],[-48.56,-30.739],[-48.133,-31.045],[-47.704,-31.35],[-47.271,-31.653],[-46.836,-31.954],[-46.463,-32.331],[-46.087,-32.706],[-45.708,-33.08],[-45.325,-33.453],[-44.94,-33.824],[-44.55,-34.195],[-44.158,-34.564],[-43.762,-34.932],[-43.362,-35.299],[-42.959,-35.664],[-42.552,-36.028],[-42.142,-36.391],[-41.727,-36.752],[-41.309,-37.112],[-40.886,-37.47],[-40.46,-37.827],[-40.029,-38.182],[-39.594,-38.535],[-39.155,-38.887],[-38.712,-39.238],[-38.264,-39.586],[-37.812,-39.933],[-37.355,-40.278],[-36.893,-40.622],[-36.613,-41.074],[-36.33,-41.525],[-36.042,-41.975],[-35.751,-42.425],[-35.455,-42.874],[-35.155,-43.323],[-34.851,-43.77],[-34.542,-44.217],[-34.228,-44.663],[-33.909,-45.108],[-33.585,-45.552],[-33.256,-45.995],[-32.922,-46.437],[-32.583,-46.879],[-32.238,-47.319],[-31.886,-47.758],[-31.529,-48.196],[-31.166,-48.633],[-30.797,-49.069],[-30.421,-49.503],[-30.038,-49.937],[-29.648,-50.369],[-29.252,-50.799],[-28.847,-51.229],[-28.758,-51.713],[-28.666,-52.197],[-28.572,-52.681],[-28.476,-53.165],[-28.378,-53.649],[-28.278,-54.133]]}},{"type":"Feature","properties":{"boundary_type":"subduction","feature_type":"gpml:SubductionZone","polarity":"Right","overriding_plate_id":101,"subducting_plate_id":90105,"plate_ids":[101,90105],"name":"SaoFrancisco_SZ"},"geometry":{"type":"LineString","coordinates":[[-28.278,-54.133],[-28.179,-54.599],[-28.078,-55.065],[-27.974,-55.531],[-27.868,-55.996],[-27.76,-56.462],[-27.649,-56.927],[-27.535,-57.392],[-27.418,-57.857],[-27.298,-58.322],[-27.174,-58.787],[-27.048,-59.252],[-26.918,-59.717],[-26.784,-60.181],[-26.646,-60.646],[-26.594,-61.11],[-26.54,-61.575],[-26.484,-62.039],[-26.426,-62.504],[-26.367,-62.969],[-26.306,-63.433],[-26.242,-63.898],[-26.177,-64.362],[-26.11,-64.827],[-26.04,-65.291],[-25.967,-65.755],[-25.892,-66.22],[-25.814,-66.684]]}},{"type":"Feature","properties":{"boundary_type":"subduction","feature_type":"gpml:SubductionZone","polarity":"Left","overriding_plate_id":201,"subducting_plate_id":90106,"plate_ids":[201,90106],"name":""},"geometry":{"type":"LineString","coordinates":[[-177.609,35.873],[-178.18,36.059],[-178.753,36.242],[-179.33,36.422],[-179.909,36.6],[179.509,36.775],[178.925,36.946],[178.338,37.115],[177.748,37.282],[177.161,37.415],[176.572,37.545],[175.981,37.673],[175.388,37.797],[174.793,37.919],[174.196,38.037],[173.598,38.153],[172.997,38.265],[172.394,38.375],[171.79,38.481],[171.184,38.584],[170.576,38.684],[169.967,38.781],[169.356,38.875],[168.743,38.965],[168.129,39.053],[167.513,39.137],[166.896,39.218],[166.277,39.295],[165.657,39.369],[165.036,39.44],[164.414,39.508],[163.79,39.572],[163.165,39.633],[162.54,39.691],[161.913,39.745],[161.285,39.796],[160.656,39.844],[160.027,39.888],[159.396,39.929],[158.77,39.859],[158.146,39.786],[157.522,39.709],[156.9,39.629],[156.28,39.546],[155.661,39.46],[155.044,39.37],[154.428,39.277],[153.814,39.181],[153.201,39.081],[152.591,38.979],[151.982,38.873],[151.375,38.764],[150.77,38.652],[150.167,38.537],[149.565,38.419],[148.966,38.297],[148.369,38.173],[147.774,38.045],[147.181,37.915],[146.59,37.782],[146.001,37.645],[145.414,37.506],[144.83,37.364],[144.247,37.219],[143.667,37.071],[143.09,36.921],[142.514,36.767],[141.941,36.611],[141.371,36.452],[140.802,36.291],[140.236,36.127],[139.707,35.902],[139.181,35.675],[138.658,35.446],[138.138,35.214],[137.62,34.98],[137.106,34.745],[136.595,34.506],[136.087,34.266],[135.581,34.024],[135.078,33.78],[134.579,33.533],[134.082,33.285],[133.588,33.035],[133.097,32.782],[132.608,32.528],[132.123,32.272],[131.64,32.014],[131.159,31.755],[130.682,31.493],[130.207,31.23],[129.735,30.965],[129.265,30.698],[128.798,30.43],[128.334,30.16],[127.872,29.888],[127.413,29.615],[126.956,29.34],[126.502,29.064],[126.05,28.786],[125.821,28.335],[125.594,27.884],[125.37,27.433],[125.147,26.981],[124.925,26.529],[124.706,26.077],[124.488,25.624],[124.272,25.171],[124.058,24.718],[123.845,24.264],[123.633,23.81],[123.423,23.356],[123.215,22.901],[123.007,22.446],[122.802,21.991],[122.597,21.536],[122.394,21.08],[122.192,20.625]]}},{"type":"Feature","properties":{"boundary_type":"subduction","feature_type":"gpml:SubductionZone","polarity":"Left","overriding_plate_id":201,"subducting_plate_id":90105,"plate_ids":[201,90105],"name":""},"geometry":{"type":"LineString","coordinates":[[122.192,20.625],[122.004,20.198],[121.817,19.77],[121.631,19.343],[121.446,18.915],[121.262,18.488],[121.079,18.06],[120.897,17.631],[120.715,17.203],[120.535,16.775],[120.355,16.346],[120.176,15.917],[120.197,15.427],[120.218,14.937],[120.24,14.447],[120.261,13.957],[120.281,13.467],[120.302,12.977],[120.323,12.487],[120.344,11.997],[120.364,11.507],[120.385,11.017],[120.405,10.527],[120.426,10.037],[120.446,9.547],[120.466,9.057],[120.486,8.567],[120.507,8.077],[120.527,7.587],[120.547,7.097],[120.567,6.607],[120.587,6.117],[120.607,5.627],[120.627,5.137],[120.646,4.647],[120.666,4.157],[120.686,3.667],[120.706,3.177],[120.726,2.687],[120.745,2.197],[120.765,1.707],[120.785,1.217],[120.805,0.73],[120.824,0.243],[120.844,-0.243],[120.863,-0.73],[120.883,-1.216],[120.903,-1.703],[120.922,-2.19],[120.942,-2.676],[120.961,-3.163],[120.981,-3.649],[121.001,-4.136],[121.021,-4.623],[121.04,-5.109],[121.06,-5.596],[121.08,-6.082],[121.1,-6.569],[121.12,-7.056],[121.139,-7.542],[121.159,-8.029],[121.179,-8.515],[121.199,-9.002],[121.22,-9.489],[121.24,-9.975],[121.26,-10.462],[121.28,-10.948],[121.301,-11.435]]}},{"type":"Feature","properties":{"boundary_type":"subduction","feature_type":"gpml:SubductionZone","polarity":"Right","overriding_plate_id":101,"subducting_plate_id":90107,"plate_ids":[101,90107],"name":"Cathaysia_SZ"},"geometry":{"type":"LineString","coordinates":[[-87.898,5.517],[-87.595,5.155],[-87.293,4.793],[-86.991,4.43],[-86.689,4.067],[-86.388,3.704],[-86.086,3.341],[-85.785,2.978],[-85.484,2.615],[-85.184,2.252],[-84.883,1.889],[-84.583,1.525],[-84.282,1.162],[-83.982,0.799],[-83.682,0.435],[-83.382,0.072],[-82.957,-0.191],[-82.532,-0.454],[-82.107,-0.717],[-81.683,-0.979],[-81.258,-1.242],[-80.833,-1.505],[-80.408,-1.767],[-79.983,-2.03],[-79.557,-2.292],[-79.132,-2.554],[-78.706,-2.817],[-78.28,-3.079],[-77.854,-3.34],[-77.428,-3.602],[-77.001,-3.863],[-76.569,-4.111],[-76.136,-4.359],[-75.703,-4.606],[-75.269,-4.853],[-74.835,-5.1],[-74.401,-5.347],[-73.966,-5.593],[-73.531,-5.839],[-73.096,-6.084],[-72.66,-6.33],[-72.224,-6.574],[-71.788,-6.819],[-71.351,-7.063],[-70.913,-7.307],[-70.475,-7.55],[-70.016,-7.732]]}},{"type":"Feature","properties":{"boundary_type":"subduction","feature_type":"gpml:SubductionZone","polarity":"Right","overriding_plate_id":101,"subducting_plate_id":90106,"plate_ids":[101,90106],"name":""},"geometry":{"type":"LineString","coordinates":[[-171.194,50.454],[-170.971,50.905],[-170.744,51.357],[-170.513,51.807],[-170.276,52.257],[-170.035,52.707],[-169.789,53.156],[-169.538,53.605],[-169.281,54.053],[-169.018,54.501],[-168.75,54.948],[-168.495,55.403],[-168.234,55.858],[-167.967,56.313],[-167.693,56.766],[-167.413,57.22],[-167.125,57.672],[-166.831,58.124],[-166.529,58.576],[-166.219,59.026],[-165.9,59.476],[-165.573,59.925]]}},{"type":"Feature","properties":{"boundary_type":"subduction","feature_type":"gpml:SubductionZone","polarity":"Right","overriding_plate_id":801,"subducting_plate_id":90106,"plate_ids":[801,90106],"name":""},"geometry":{"type":"LineString","coordinates":[[-165.573,59.925],[-165.242,60.367],[-164.902,60.808],[-164.552,61.248],[-164.193,61.688],[-163.823,62.126],[-163.442,62.564],[-163.049,63.0],[-162.645,63.435],[-162.229,63.869],[-161.799,64.302],[-161.356,64.733],[-160.898,65.163],[-160.425,65.592],[-159.937,66.019],[-159.431,66.445],[-158.909,66.869],[-158.368,67.291],[-157.821,67.74],[-157.252,68.187],[-156.661,68.632],[-156.046,69.075],[-155.406,69.516],[-154.739,69.954],[-154.043,70.39]]}},{"type":"Feature","properties":{"boundary_type":"subduction","feature_type":"gpml:SubductionZone","polarity":"Left","overriding_plate_id":101,"subducting_plate_id":201,"plate_ids":[101,201],"name":"Baltica_SZ"},"geometry":{"type":"LineString","coordinates":[[-166.089,-1.579],[-165.82,-1.974],[-165.55,-2.368],[-165.281,-2.762],[-165.011,-3.156],[-164.74,-3.55],[-164.47,-3.944],[-164.199,-4.338],[-163.928,-4.732],[-163.657,-5.126],[-163.385,-5.519],[-163.114,-5.913],[-162.841,-6.306],[-162.568,-6.699],[-162.295,-7.092],[-162.022,-7.485],[-161.747,-7.878],[-161.468,-8.262],[-161.188,-8.645],[-160.907,-9.029],[-160.626,-9.412],[-160.344,-9.795]]}},{"type":"Feature","properties":{"boundary_type":"subduction","feature_type":"gpml:SubductionZone","polarity":"Left","overriding_plate_id":101,"subducting_plate_id":911001,"plate_ids":[101,911001],"name":"Baltica_SZ"},"geometry":{"type":"LineString","coordinates":[[-160.344,-9.795],[-160.069,-10.168],[-159.792,-10.541],[-159.515,-10.914],[-159.238,-11.287],[-158.96,-11.659],[-158.786,-12.092],[-158.612,-12.525],[-158.438,-12.958],[-158.263,-13.391],[-158.087,-13.824],[-157.911,-14.256],[-157.734,-14.689],[-157.556,-15.121],[-157.378,-15.553],[-157.363,-16.012],[-157.348,-16.47],[-157.333,-16.929],[-157.317,-17.388],[-157.302,-17.846],[-157.287,-18.305],[-157.271,-18.763],[-157.256,-19.222],[-157.24,-19.681],[-157.224,-20.139],[-157.208,-20.598],[-157.193,-21.056],[-157.109,-21.513],[-157.025,-21.969],[-156.941,-22.425],[-156.856,-22.881],[-156.77,-23.337],[-156.684,-23.793],[-156.597,-24.249],[-156.51,-24.705],[-156.422,-25.161],[-156.333,-25.617],[-156.244,-26.072],[-156.154,-26.528],[-155.984,-26.958],[-155.813,-27.388],[-155.641,-27.818],[-155.467,-28.247],[-155.292,-28.676],[-155.115,-29.105],[-154.937,-29.534],[-154.758,-29.963],[-154.577,-30.391],[-154.394,-30.819],[-154.108,-31.193],[-153.82,-31.565],[-153.53,-31.938],[-153.237,-32.309],[-152.942,-32.68],[-152.644,-33.05]]}},{"type":"Feature","properties":{"boundary_type":"subduction","feature_type":"gpml:SubductionZone","polarity":"Left","overriding_plate_id":101,"subducting_plate_id":201,"plate_ids":[101,201],"name":"Eastern_Laurentia_SZ"},"geometry":{"type":"LineString","coordinates":[[-170.707,15.812],[-170.415,15.417],[-170.124,15.022],[-169.834,14.627],[-169.545,14.232],[-169.257,13.836],[-168.97,13.44],[-168.684,13.043],[-168.399,12.646],[-168.115,12.249],[-167.832,11.851],[-167.706,11.395],[-167.581,10.939],[-167.456,10.482],[-167.331,10.026],[-167.207,9.569],[-167.083,9.113],[-166.96,8.656],[-166.836,8.2],[-166.713,7.743],[-166.591,7.286],[-166.468,6.83],[-166.346,6.373],[-166.224,5.916],[-166.228,5.449],[-166.232,4.981],[-166.236,4.514],[-166.24,4.046],[-166.244,3.579],[-166.248,3.112],[-166.252,2.644],[-166.256,2.177],[-166.26,1.709],[-166.264,1.242],[-166.268,0.775],[-166.272,0.307],[-166.226,-0.164],[-166.181,-0.636],[-166.135,-1.108],[-166.089,-1.579]]}},{"type":"Feature","properties":{"boundary_type":"subduction","feature_type":"gpml:SubductionZone","polarity":"Right","overriding_plate_id":null,"subducting_plate_id":null,"plate_ids":[90106],"name":""},"geometry":{"type":"LineString","coordinates":[[-107.554,62.57],[-106.574,62.539],[-105.597,62.502],[-104.622,62.458],[-103.65,62.408],[-102.682,62.35],[-101.718,62.286],[-100.757,62.216]]}},{"type":"Feature","properties":{"boundary_type":"subduction","feature_type":"gpml:SubductionZone","polarity":"Right","overriding_plate_id":80101,"subducting_plate_id":90106,"plate_ids":[80101,90106],"name":""},"geometry":{"type":"LineString","coordinates":[[-100.757,62.216],[-100.293,62.179],[-99.333,62.087],[-98.379,61.988],[-97.432,61.883],[-96.492,61.771],[-95.558,61.653],[-94.632,61.528],[-93.714,61.397],[-92.803,61.261],[-91.912,61.029],[-91.034,60.791],[-90.169,60.548],[-89.317,60.3],[-88.478,60.046],[-87.652,59.787],[-86.838,59.523],[-86.038,59.253],[-85.25,58.979],[-84.837,58.603]]}},{"type":"Feature","properties":{"boundary_type":"subduction","feature_type":"gpml:SubductionZone","polarity":"Right","overriding_plate_id":80101,"subducting_plate_id":90107,"plate_ids":[80101,90107],"name":""},"geometry":{"type":"LineString","coordinates":[[-84.837,58.603],[-84.414,58.208],[-84.0,57.812],[-83.595,57.415],[-83.199,57.016],[-82.812,56.616],[-82.432,56.215],[-82.061,55.813],[-81.697,55.41],[-81.34,55.005],[-81.087,54.537],[-80.84,54.068],[-80.598,53.598],[-80.362,53.128],[-80.13,52.658],[-79.904,52.187],[-79.682,51.716],[-79.465,51.244],[-79.252,50.772],[-79.044,50.3],[-78.994,49.805],[-78.946,49.311],[-78.898,48.817],[-78.852,48.323],[-78.806,47.828],[-78.761,47.334],[-78.717,46.84],[-78.674,46.345],[-78.82,45.873],[-78.963,45.401],[-79.104,44.928],[-79.242,44.455],[-79.378,43.982],[-79.512,43.509],[-79.644,43.036],[-79.774,42.562],[-79.902,42.089],[-80.097,41.722],[-80.29,41.354],[-80.48,40.987]]}},{"type":"Feature","properties":{"boundary_type":"transform","feature_type":"gpml:Transform","polarity":null,"overriding_plate_id":null,"subducting_plate_id":null,"plate_ids":[80101],"name":""},"geometry":{"type":"LineString","coordinates":[[-103.562,60.817],[-102.885,61.172],[-102.192,61.523],[-101.483,61.871],[-100.757,62.216]]}},{"type":"Feature","properties":{"boundary_type":"transform","feature_type":"gpml:Transform","polarity":null,"overriding_plate_id":null,"subducting_plate_id":null,"plate_ids":[80101,90107],"name":""},"geometry":{"type":"LineString","coordinates":[[-96.262,30.343],[-95.854,30.683],[-95.443,31.021],[-95.029,31.358],[-94.613,31.694],[-94.193,32.028],[-93.77,32.361],[-93.344,32.693],[-92.915,33.023],[-92.483,33.351],[-92.047,33.678],[-91.608,34.004],[-91.166,34.328],[-90.72,34.65],[-90.271,34.971],[-89.818,35.29],[-89.362,35.607],[-88.902,35.923],[-88.438,36.236],[-87.971,36.548],[-87.5,36.859],[-87.025,37.167],[-86.546,37.473],[-86.064,37.778],[-85.577,38.08],[-85.086,38.381],[-84.591,38.679],[-84.093,38.975],[-83.589,39.269],[-83.082,39.561],[-82.571,39.851],[-82.055,40.139],[-81.534,40.424],[-81.01,40.706],[-80.48,40.987]]}},{"type":"Feature","properties":{"boundary_type":"ridge","feature_type":"gpml:MidOceanRidge","polarity":null,"overriding_plate_id":null,"subducting_plate_id":null,"plate_ids":[90105,90107],"name":""},"geometry":{"type":"LineString","coordinates":[[23.487,15.138],[23.268,14.693],[23.051,14.248],[22.834,13.802],[22.618,13.356],[22.403,12.91],[22.189,12.464],[21.975,12.018],[21.763,11.571],[21.55,11.124],[21.339,10.677],[21.128,10.23],[20.918,9.783],[20.708,9.336],[20.499,8.889],[20.29,8.441],[20.082,7.994],[19.874,7.546],[19.667,7.098],[19.46,6.65],[19.253,6.202],[19.047,5.754],[18.841,5.306],[18.636,4.858],[18.431,4.41],[18.225,3.961],[18.021,3.513],[17.816,3.064],[17.612,2.616],[17.407,2.167],[17.203,1.719],[16.999,1.27],[16.795,0.822],[16.591,0.373],[16.387,-0.075],[16.183,-0.524],[15.979,-0.972],[16.385,-1.2],[16.791,-1.427],[17.196,-1.654],[17.602,-1.881],[18.008,-2.108],[18.414,-2.335],[18.821,-2.562],[19.227,-2.789],[18.975,-3.218],[18.722,-3.647],[18.469,-4.076],[18.216,-4.505],[17.963,-4.934],[17.71,-5.363],[17.456,-5.792],[17.201,-6.22],[16.947,-6.649],[16.691,-7.077],[16.436,-7.505],[16.179,-7.933],[15.923,-8.361],[15.665,-8.789],[15.408,-9.217],[15.149,-9.644],[14.89,-10.071],[14.63,-10.498],[14.37,-10.925],[14.108,-11.352],[13.846,-11.778],[13.583,-12.204],[13.319,-12.63],[13.055,-13.056],[12.789,-13.481],[12.523,-13.906],[12.255,-14.331],[11.987,-14.755],[11.717,-15.179],[11.447,-15.603],[11.175,-16.027],[10.902,-16.45],[10.628,-16.872],[10.353,-17.295],[10.076,-17.717],[9.798,-18.139],[9.519,-18.56],[9.238,-18.981],[8.956,-19.401],[8.673,-19.821],[8.388,-20.241],[8.101,-20.66],[7.813,-21.078],[7.523,-21.496],[7.232,-21.914],[6.939,-22.331],[6.644,-22.748],[6.347,-23.164],[6.049,-23.579],[5.748,-23.994],[5.446,-24.408],[5.141,-24.822],[4.835,-25.235],[4.527,-25.647],[4.216,-26.059],[3.903,-26.47],[3.588,-26.881],[3.271,-27.29],[2.951,-27.699],[2.629,-28.108],[2.304,-28.515],[1.977,-28.922],[1.648,-29.328],[1.315,-29.733],[0.98,-30.137],[0.643,-30.541],[0.302,-30.943],[-0.041,-31.345],[-0.388,-31.745],[-0.737,-32.145],[-1.09,-32.544],[-1.445,-32.942],[-1.804,-33.339],[-2.166,-33.734],[-2.532,-34.129],[-2.9,-34.523],[-3.273,-34.915],[-3.649,-35.306],[-4.028,-35.697],[-3.648,-36.032],[-3.264,-36.366],[-2.877,-36.699],[-2.486,-37.031],[-2.092,-37.361],[-1.695,-37.69],[-1.294,-38.018],[-0.89,-38.344],[-0.481,-38.669],[-0.07,-38.992],[0.346,-39.314],[-0.093,-39.676],[-0.537,-40.037],[-0.986,-40.396],[-1.44,-40.752],[-1.898,-41.108],[-2.362,-41.461],[-2.83,-41.812],[-3.304,-42.162],[-3.783,-42.509],[-4.267,-42.855],[-4.757,-43.198],[-5.252,-43.54],[-5.753,-43.879],[-6.26,-44.216],[-6.772,-44.551],[-7.29,-44.883],[-7.815,-45.213],[-8.345,-45.541],[-8.882,-45.866],[-9.425,-46.188],[-9.974,-46.508],[-10.53,-46.826],[-11.092,-47.14],[-11.661,-47.452],[-12.237,-47.761],[-12.819,-48.067],[-13.409,-48.37],[-14.005,-48.67],[-14.609,-48.967],[-15.22,-49.261],[-15.838,-49.551],[-16.463,-49.838],[-17.096,-50.122],[-17.736,-50.402],[-18.384,-50.679],[-19.04,-50.952],[-19.703,-51.221],[-20.374,-51.487],[-21.053,-51.748],[-21.74,-52.006],[-22.434,-52.26],[-23.137,-52.509],[-23.847,-52.755],[-24.566,-52.996],[-25.292,-53.232],[-26.027,-53.464],[-26.769,-53.692],[-27.519,-53.915],[-28.278,-54.133]]}},{"type":"Feature","properties":{"boundary_type":"ridge","feature_type":"gpml:MidOceanRidge","polarity":null,"overriding_plate_id":null,"subducting_plate_id":null,"plate_ids":[90105,90106],"name":""},"geometry":{"type":"LineString","coordinates":[[26.201,11.091],[25.933,11.497],[25.665,11.903],[25.396,12.308],[25.126,12.713],[24.855,13.118],[24.583,13.523],[24.311,13.927],[24.037,14.331],[23.762,14.735],[23.487,15.138]]}},{"type":"Feature","properties":{"boundary_type":"ridge","feature_type":"gpml:MidOceanRidge","polarity":null,"overriding_plate_id":null,"subducting_plate_id":null,"plate_ids":[90106,90107],"name":""},"geometry":{"type":"LineString","coordinates":[[23.487,15.138],[23.202,15.553],[22.917,15.967],[22.63,16.38],[22.342,16.794],[22.053,17.206],[21.762,17.619],[21.47,18.031],[21.177,18.442],[20.882,18.853],[20.586,19.264],[20.289,19.674],[19.99,20.084],[19.689,20.493],[19.387,20.901],[19.083,21.309],[18.777,21.717],[18.47,22.124],[18.161,22.53],[17.85,22.936],[17.537,23.341],[17.222,23.746],[16.905,24.15],[16.587,24.553],[16.266,24.956],[15.943,25.357],[15.618,25.759],[15.291,26.159],[14.961,26.559],[14.63,26.958],[14.296,27.356],[13.959,27.753],[13.62,28.15],[13.278,28.545],[12.934,28.94],[12.588,29.334],[12.238,29.727],[11.886,30.119],[11.531,30.511],[11.173,30.901],[10.813,31.29],[10.449,31.678],[10.082,32.065],[9.712,32.452],[9.339,32.837],[8.963,33.22],[8.583,33.603],[8.13,33.292],[7.679,32.978],[7.232,32.664],[6.788,32.347],[6.347,32.029],[5.91,31.71],[5.475,31.389],[5.043,31.067],[4.614,30.743],[4.188,30.418],[3.765,30.091],[3.344,29.763],[2.927,29.434],[2.589,29.831],[2.248,30.228],[1.905,30.624],[1.559,31.019],[1.21,31.413],[0.858,31.806],[0.503,32.198],[0.145,32.59],[-0.216,32.98],[-0.581,33.369],[-0.948,33.757],[-1.319,34.144],[-1.694,34.529],[-2.072,34.914],[-2.453,35.297],[-2.838,35.679],[-3.227,36.06],[-3.619,36.44],[-4.016,36.819],[-4.416,37.196],[-4.82,37.571],[-5.229,37.946],[-5.641,38.319],[-6.058,38.69],[-6.479,39.06],[-6.905,39.428],[-7.335,39.795],[-7.77,40.16],[-8.209,40.524],[-8.653,40.886],[-9.102,41.246],[-9.556,41.605],[-10.016,41.961],[-10.48,42.316],[-10.949,42.669],[-11.424,43.02],[-11.905,43.369],[-12.39,43.716],[-12.882,44.06],[-13.379,44.403],[-13.882,44.744],[-14.391,45.082],[-14.906,45.418],[-15.427,45.752],[-15.955,46.083],[-16.489,46.412],[-17.029,46.738],[-17.576,47.062],[-18.129,47.383],[-18.689,47.701],[-19.256,48.017],[-19.83,48.33],[-20.411,48.639],[-21.0,48.946],[-21.595,49.25],[-22.198,49.551],[-22.808,49.849],[-23.426,50.143],[-24.051,50.434],[-24.684,50.722],[-25.325,51.006],[-25.974,51.287],[-26.63,51.564],[-27.295,51.837],[-27.967,52.107],[-28.648,52.373],[-29.337,52.634],[-30.034,52.892],[-30.74,53.146],[-31.454,53.395],[-32.176,53.64],[-32.906,53.881],[-33.645,54.117],[-34.392,54.348],[-35.148,54.575],[-35.912,54.797],[-36.684,55.015],[-37.465,55.227],[-38.254,55.434],[-38.074,55.868],[-37.891,56.301],[-37.703,56.734],[-37.511,57.166],[-37.314,57.598],[-37.112,58.03],[-37.977,58.21],[-38.85,58.384],[-39.732,58.552],[-40.623,58.714],[-41.521,58.87],[-42.427,59.019],[-43.341,59.162],[-44.263,59.298],[-45.192,59.428],[-46.127,59.552],[-47.07,59.668],[-48.019,59.778],[-48.973,59.881],[-49.934,59.977],[-50.9,60.066],[-51.871,60.147],[-52.847,60.222],[-53.827,60.29],[-54.81,60.35],[-55.797,60.403],[-56.788,60.448],[-57.78,60.487],[-58.775,60.518],[-59.772,60.541],[-60.769,60.557],[-61.768,60.566],[-62.767,60.567],[-63.765,60.561],[-64.763,60.547],[-65.76,60.526],[-66.755,60.497],[-67.749,60.461],[-68.74,60.418],[-69.728,60.367],[-70.713,60.309],[-71.694,60.244],[-72.671,60.171],[-73.643,60.092],[-74.611,60.005],[-75.573,59.911],[-76.53,59.81],[-77.481,59.703],[-78.425,59.588],[-79.363,59.467],[-80.294,59.339],[-81.218,59.205],[-82.134,59.064],[-83.043,58.916],[-83.944,58.763],[-84.837,58.603]]}},{"type":"Feature","properties":{"boundary_type":"ridge","feature_type":"gpml:MidOceanRidge","polarity":null,"overriding_plate_id":null,"subducting_plate_id":null,"plate_ids":[90105,90106],"name":""},"geometry":{"type":"LineString","coordinates":[[26.201,11.091],[26.695,11.07],[27.19,11.048],[27.684,11.025],[28.178,11.002],[28.672,10.978],[29.166,10.953],[29.66,10.927],[30.154,10.9],[30.648,10.873],[31.142,10.844],[31.635,10.815],[32.129,10.785],[32.622,10.755],[33.116,10.723],[33.609,10.691],[34.102,10.658],[34.595,10.625],[35.088,10.59],[35.581,10.555],[36.073,10.519],[36.566,10.482],[37.058,10.445],[37.55,10.406],[38.043,10.367],[38.535,10.327],[39.027,10.287],[39.518,10.246],[40.01,10.204],[40.502,10.161],[40.993,10.117],[41.484,10.073],[41.976,10.028],[42.467,9.983],[42.957,9.936],[42.997,10.427],[43.038,10.917],[43.078,11.407],[43.119,11.897],[43.159,12.388],[43.2,12.878],[43.241,13.368],[43.282,13.858],[43.323,14.349],[43.365,14.839],[43.407,15.329],[43.448,15.819],[43.491,16.309],[43.533,16.8],[43.575,17.29],[43.618,17.78],[43.661,18.27],[43.704,18.76],[43.748,19.25],[43.791,19.741],[43.835,20.231],[43.88,20.721],[43.924,21.211],[43.969,21.701],[44.014,22.191],[44.553,22.23],[45.091,22.267],[45.63,22.303],[46.17,22.336],[46.709,22.368],[47.249,22.398],[47.789,22.426],[48.329,22.453],[48.869,22.477],[49.41,22.5],[49.951,22.521],[50.492,22.54],[51.033,22.558],[51.574,22.573],[52.115,22.587],[52.657,22.599],[53.198,22.609],[53.74,22.618],[54.281,22.624],[54.823,22.629],[55.365,22.632],[55.906,22.633],[56.448,22.632],[56.99,22.63],[57.531,22.625],[58.073,22.619],[58.615,22.611],[59.156,22.601],[59.698,22.589],[60.239,22.576],[60.78,22.561],[61.321,22.544],[61.862,22.525],[62.403,22.504],[62.943,22.481],[63.484,22.457],[64.024,22.431],[64.564,22.403],[65.104,22.373],[65.643,22.342],[66.183,22.309],[66.722,22.274],[67.261,22.237],[67.799,22.198],[68.337,22.158],[68.875,22.116],[69.413,22.072],[69.95,22.026],[70.487,21.979],[71.023,21.93],[71.559,21.879],[72.095,21.826],[72.63,21.772],[73.165,21.716],[73.7,21.658],[74.234,21.598],[74.767,21.537],[75.3,21.474],[75.833,21.41],[76.365,21.343],[76.897,21.275],[77.428,21.206],[77.521,21.67],[77.614,22.133],[77.708,22.597],[77.803,23.061],[77.898,23.525],[77.994,23.988],[78.091,24.452],[78.188,24.915],[78.287,25.379],[78.385,25.842],[78.485,26.305],[78.586,26.768],[78.687,27.232],[78.789,27.695],[78.892,28.158],[78.996,28.62],[79.101,29.083],[79.669,29.063],[80.237,29.041],[80.805,29.016],[81.373,28.988],[81.94,28.959],[82.507,28.927],[83.074,28.892],[83.64,28.855],[84.206,28.816],[84.772,28.775],[85.337,28.731],[85.901,28.684],[86.465,28.636],[87.029,28.585],[87.591,28.532],[88.154,28.476],[88.715,28.418],[89.276,28.358],[89.837,28.296],[90.397,28.231],[90.956,28.164],[91.514,28.094],[92.072,28.023],[92.629,27.949],[93.185,27.873],[93.74,27.795],[94.294,27.714],[94.848,27.632],[95.401,27.547],[95.953,27.46],[96.504,27.37],[97.054,27.279],[97.603,27.185],[98.152,27.09],[98.699,26.992],[99.245,26.892],[99.791,26.79],[100.335,26.686],[100.879,26.58],[101.421,26.471],[101.963,26.361],[102.503,26.249],[103.042,26.135],[103.58,26.018],[104.118,25.9],[104.654,25.78],[105.189,25.657],[105.723,25.533],[106.255,25.407],[106.787,25.279],[107.318,25.149],[107.847,25.017],[108.375,24.883],[108.902,24.748],[109.428,24.61],[109.953,24.471],[110.477,24.33],[110.999,24.187],[111.52,24.043],[112.04,23.896],[112.559,23.748],[113.077,23.598],[113.593,23.447],[114.109,23.294],[114.623,23.139],[115.136,22.982],[115.648,22.824],[116.158,22.664],[116.668,22.503],[117.176,22.34],[117.683,22.175],[118.188,22.009],[118.693,21.841],[119.196,21.672],[119.699,21.501],[120.2,21.328],[120.7,21.155],[121.198,20.979],[121.696,20.803],[122.192,20.625]]}},{"type":"Feature","properties":{"boundary_type":"subduction","feature_type":"gpml:SubductionZone","polarity":"Right","overriding_plate_id":null,"subducting_plate_id":null,"plate_ids":[911001],"name":""},"geometry":{"type":"LineString","coordinates":[[-149.438,-65.948],[-150.407,-66.067],[-151.384,-66.18],[-152.371,-66.287],[-153.365,-66.387],[-154.367,-66.481]]}},{"type":"Feature","properties":{"boundary_type":"subduction","feature_type":"gpml:SubductionZone","polarity":"Right","overriding_plate_id":911001,"subducting_plate_id":90105,"plate_ids":[90105,911001],"name":""},"geometry":{"type":"LineString","coordinates":[[-154.367,-66.481],[-155.519,-66.581],[-156.68,-66.672],[-157.849,-66.754],[-159.025,-66.828],[-160.29,-66.809],[-161.552,-66.78],[-162.812,-66.741],[-164.066,-66.692],[-165.316,-66.633],[-166.558,-66.565],[-167.794,-66.486],[-169.021,-66.398],[-170.239,-66.3],[-171.448,-66.193],[-172.645,-66.077],[-173.832,-65.951],[-175.006,-65.816],[-176.167,-65.673],[-177.316,-65.52],[-178.451,-65.359],[-179.571,-65.19],[179.323,-65.012],[178.232,-64.827],[177.156,-64.633],[176.096,-64.432],[175.051,-64.223],[174.023,-64.007],[173.01,-63.784],[172.014,-63.553],[171.034,-63.316],[170.07,-63.073],[169.122,-62.822],[168.19,-62.566],[167.275,-62.304],[166.376,-62.035],[165.492,-61.761],[164.624,-61.481],[163.772,-61.196],[162.935,-60.906],[162.114,-60.61],[161.307,-60.31],[160.516,-60.005],[159.739,-59.695],[158.976,-59.38],[158.227,-59.062],[157.493,-58.739],[156.771,-58.411],[156.064,-58.08],[155.369,-57.746],[154.687,-57.407],[154.018,-57.065],[153.361,-56.719],[152.716,-56.37],[152.082,-56.017],[151.461,-55.662],[150.85,-55.303],[150.251,-54.941],[149.662,-54.577],[149.084,-54.209],[148.516,-53.839],[147.957,-53.466],[147.409,-53.091],[146.87,-52.713],[146.341,-52.333],[145.82,-51.95],[145.309,-51.566],[144.806,-51.179],[144.311,-50.79],[143.825,-50.398],[143.406,-49.988],[142.994,-49.577],[142.59,-49.163],[142.192,-48.749],[141.801,-48.333],[141.416,-47.916],[141.037,-47.498],[140.664,-47.078],[140.297,-46.657],[139.935,-46.235],[139.58,-45.812],[139.229,-45.388],[138.884,-44.962],[138.544,-44.536],[138.209,-44.109],[137.878,-43.681],[137.553,-43.251],[137.231,-42.821],[136.915,-42.39],[136.602,-41.959],[136.294,-41.526],[135.99,-41.092],[135.69,-40.658],[135.394,-40.223],[135.102,-39.787],[134.813,-39.351],[134.528,-38.914],[134.246,-38.476],[133.968,-38.037],[133.693,-37.598],[133.421,-37.158],[133.153,-36.718],[132.887,-36.276],[132.625,-35.835],[132.365,-35.393],[132.109,-34.95]]}},{"type":"Feature","properties":{"boundary_type":"subduction","feature_type":"gpml:SubductionZone","polarity":"Right","overriding_plate_id":201,"subducting_plate_id":90105,"plate_ids":[201,90105],"name":""},"geometry":{"type":"LineString","coordinates":[[132.109,-34.95],[131.85,-34.498],[131.593,-34.045],[131.34,-33.592],[131.089,-33.138],[130.841,-32.684],[130.595,-32.23],[130.352,-31.774],[130.111,-31.319],[129.872,-30.863],[129.636,-30.406],[129.402,-29.95],[129.17,-29.492],[128.94,-29.035],[128.712,-28.577],[128.486,-28.118],[128.262,-27.659],[128.04,-27.2],[127.82,-26.741],[127.601,-26.281],[127.385,-25.821],[127.17,-25.36],[126.956,-24.899],[126.744,-24.438],[126.534,-23.977],[126.325,-23.515],[126.118,-23.053],[125.912,-22.591],[125.707,-22.128],[125.504,-21.666],[125.302,-21.203],[125.101,-20.739],[124.902,-20.276],[124.704,-19.812],[124.507,-19.348],[124.311,-18.884],[124.116,-18.42],[123.922,-17.955],[123.729,-17.491],[123.537,-17.026],[123.346,-16.561],[123.156,-16.096],[122.967,-15.63],[122.779,-15.165],[122.592,-14.699],[122.405,-14.233],[122.219,-13.767],[122.034,-13.301],[121.85,-12.835],[121.666,-12.368],[121.483,-11.902],[121.301,-11.435]]}},{"type":"Feature","properties":{"boundary_type":"ridge","feature_type":"gpml:MidOceanRidge","polarity":null,"overriding_plate_id":null,"subducting_plate_id":null,"plate_ids":[201,911001],"name":""},"geometry":{"type":"LineString","coordinates":[[132.109,-34.95],[132.713,-34.907],[133.318,-34.861],[133.921,-34.812],[134.524,-34.76],[135.126,-34.705],[135.728,-34.647],[136.328,-34.586],[136.927,-34.523],[137.526,-34.456],[138.124,-34.386],[138.72,-34.314],[139.316,-34.239],[139.91,-34.16],[140.504,-34.079],[141.096,-33.995],[141.687,-33.908],[142.276,-33.819],[142.865,-33.726],[143.452,-33.631],[144.038,-33.533],[144.623,-33.433],[145.206,-33.329],[145.788,-33.223],[146.368,-33.114],[146.947,-33.003],[147.524,-32.888],[148.1,-32.772],[148.675,-32.652],[149.247,-32.53],[149.819,-32.405],[150.388,-32.278],[150.956,-32.148],[151.523,-32.016],[152.088,-31.881],[152.651,-31.744],[153.212,-31.604],[153.772,-31.462],[154.33,-31.317],[154.463,-31.709],[154.597,-32.101],[154.732,-32.493],[154.868,-32.885],[155.005,-33.277],[155.561,-33.121],[156.114,-32.963],[156.666,-32.803],[157.215,-32.64],[157.763,-32.475],[158.308,-32.307],[158.851,-32.137],[159.393,-31.965],[159.932,-31.79],[160.47,-31.614],[161.005,-31.435],[161.538,-31.253],[162.069,-31.07],[162.598,-30.884],[163.125,-30.697],[163.65,-30.507],[164.173,-30.315],[164.694,-30.121],[165.213,-29.925],[165.73,-29.726],[166.244,-29.526],[166.757,-29.324],[167.268,-29.12],[167.776,-28.914],[168.283,-28.706],[168.787,-28.497],[169.29,-28.285],[169.79,-28.071],[170.289,-27.856],[170.786,-27.639],[171.28,-27.42],[171.773,-27.2],[172.264,-26.978],[172.752,-26.754],[172.531,-26.303],[172.311,-25.852],[172.093,-25.401],[171.877,-24.949],[171.662,-24.497],[171.449,-24.045],[171.238,-23.592],[171.027,-23.139],[170.819,-22.686],[171.3,-22.463],[171.78,-22.238],[172.259,-22.013],[172.736,-21.785],[173.211,-21.557],[173.685,-21.327],[174.158,-21.096],[174.629,-20.863],[175.098,-20.629],[175.567,-20.394],[176.033,-20.158],[176.499,-19.92],[176.962,-19.681],[177.425,-19.441],[177.886,-19.2],[178.346,-18.958],[178.804,-18.714],[179.261,-18.47],[179.717,-18.224],[-179.828,-17.978],[-179.375,-17.73],[-178.923,-17.481],[-178.472,-17.231],[-178.023,-16.98],[-177.574,-16.729],[-177.127,-16.476],[-176.901,-16.849],[-176.674,-17.222],[-176.446,-17.595],[-176.217,-17.967],[-175.987,-18.339],[-175.756,-18.711],[-175.524,-19.083],[-175.07,-18.833],[-174.619,-18.582],[-174.168,-18.329],[-173.719,-18.076],[-173.271,-17.821],[-172.824,-17.566],[-172.379,-17.31],[-171.935,-17.052],[-171.492,-16.794],[-171.05,-16.534],[-170.61,-16.274],[-170.17,-16.013],[-169.732,-15.751],[-169.295,-15.488],[-168.859,-15.224],[-168.424,-14.96],[-167.991,-14.694],[-167.558,-14.428],[-167.126,-14.161],[-166.696,-13.893],[-166.266,-13.624],[-165.837,-13.355],[-165.41,-13.085],[-164.983,-12.814],[-164.557,-12.543],[-164.132,-12.271],[-163.708,-11.998],[-163.285,-11.725],[-162.862,-11.451],[-162.441,-11.176],[-162.02,-10.901],[-161.6,-10.625],[-161.18,-10.349],[-160.762,-10.072],[-160.344,-9.795]]}},{"type":"Feature","properties":{"boundary_type":"transform","feature_type":"gpml:Transform","polarity":null,"overriding_plate_id":null,"subducting_plate_id":null,"plate_ids":[101,90105],"name":""},"geometry":{"type":"LineString","coordinates":[[-25.814,-66.684],[-25.948,-67.157],[-26.088,-67.63],[-26.233,-68.102],[-26.385,-68.575],[-26.543,-69.047],[-26.708,-69.519],[-26.88,-69.991],[-27.061,-70.463],[-27.25,-70.935],[-27.448,-71.406],[-27.656,-71.877],[-27.875,-72.348],[-28.503,-72.81],[-29.165,-73.269],[-29.862,-73.727],[-30.599,-74.182],[-31.378,-74.634],[-32.203,-75.083],[-33.078,-75.529],[-34.008,-75.972],[-34.996,-76.411],[-36.048,-76.846],[-37.171,-77.277],[-38.371,-77.702],[-39.655,-78.121],[-41.031,-78.535],[-42.507,-78.942],[-44.093,-79.34],[-45.8,-79.731],[-47.639,-80.111],[-49.621,-80.481],[-51.759,-80.839],[-54.066,-81.183],[-56.554,-81.512],[-59.237,-81.824],[-62.124,-82.118],[-65.224,-82.389],[-68.542,-82.637],[-72.077,-82.86],[-75.823,-83.053],[-79.765,-83.216],[-83.88,-83.345],[-88.134,-83.439],[-92.487,-83.496],[-96.891,-83.516],[-101.297,-83.497],[-105.651,-83.441],[-109.909,-83.348],[-114.027,-83.22],[-117.974,-83.058],[-121.726,-82.865],[-125.267,-82.644],[-128.59,-82.396],[-131.696,-82.125],[-134.588,-81.832],[-136.432,-81.413],[-138.103,-80.985],[-139.623,-80.551],[-141.01,-80.11],[-142.279,-79.665],[-143.444,-79.215],[-144.516,-78.76],[-145.505,-78.303],[-146.421,-77.842],[-147.27,-77.378],[-148.061,-76.912],[-148.797,-76.444],[-149.485,-75.973],[-150.13,-75.501],[-150.734,-75.027],[-151.302,-74.552],[-151.837,-74.075],[-152.342,-73.597],[-152.819,-73.118],[-153.27,-72.638],[-153.698,-72.157],[-154.103,-71.675],[-154.133,-71.203],[-154.162,-70.731],[-154.189,-70.259],[-154.214,-69.786],[-154.239,-69.314],[-154.263,-68.842],[-154.285,-68.37],[-154.307,-67.898],[-154.328,-67.426],[-154.348,-66.954],[-154.367,-66.481]]}},{"type":"Feature","properties":{"boundary_type":"transform","feature_type":"gpml:Transform","polarity":null,"overriding_plate_id":null,"subducting_plate_id":null,"plate_ids":[101],"name":""},"geometry":{"type":"LineString","coordinates":[[-154.367,-66.481],[-154.386,-66.013],[-154.404,-65.544],[-154.421,-65.076],[-154.437,-64.607],[-154.453,-64.139],[-154.469,-63.67],[-154.484,-63.202],[-154.498,-62.733],[-154.512,-62.265],[-154.526,-61.796]]}}]}