{"type":"FeatureCollection","meta":{"model":"Cao2024","reconstruction_time_ma":610.0,"anchor_plate_id":0,"pygplates_version":"1.0.0","tessellate_degrees":0.5,"polarity_convention":"gpml:subductionPolarity. 'Left'/'Right' names the side of the line, in vertex order, on which the OVERRIDING plate lies. Triangles are drawn on that side.","antimeridian":"Lines are NOT split at +/-180 deg. The renderer works in 3D unit vectors where the dateline is not special; splitting would only add spurious breaks. Do not treat this as RFC 7946 GIS-ready 2D data."},"features":[{"type":"Feature","properties":{"boundary_type":"subduction","feature_type":"gpml:SubductionZone","polarity":"Right","overriding_plate_id":5032,"subducting_plate_id":501,"plate_ids":[501,5032],"name":"Mozambique ocean transform"},"geometry":{"type":"LineString","coordinates":[[52.227,-11.276],[52.724,-11.185],[53.221,-11.093],[53.718,-11.0],[54.214,-10.906],[54.71,-10.811],[55.205,-10.716],[55.701,-10.62],[56.196,-10.523],[56.69,-10.425],[57.185,-10.327],[57.679,-10.228],[58.173,-10.128],[58.666,-10.027],[59.159,-9.925],[59.653,-9.945],[60.146,-9.965],[60.639,-9.983],[61.133,-10.001],[61.627,-10.018],[62.12,-10.035],[62.614,-10.051],[63.108,-10.066],[63.602,-10.08],[64.095,-10.093],[64.589,-10.106],[65.083,-10.118],[65.559,-10.25],[66.035,-10.381],[66.511,-10.512],[66.988,-10.642],[67.465,-10.771],[67.942,-10.899],[68.42,-11.027],[68.899,-11.154],[69.377,-11.28],[69.857,-11.406],[70.336,-11.53],[70.816,-11.654],[71.297,-11.777],[71.778,-11.899],[72.259,-12.021],[72.741,-12.141],[73.223,-12.261],[73.706,-12.38],[74.189,-12.498],[74.672,-12.615],[75.156,-12.732],[75.641,-12.847],[76.125,-12.962],[76.611,-13.075],[77.097,-13.188],[77.578,-13.286],[78.06,-13.383],[78.542,-13.479],[79.024,-13.575],[79.507,-13.669],[79.99,-13.763],[80.474,-13.855],[80.958,-13.947],[81.442,-14.037],[81.927,-14.127],[82.412,-14.216],[82.898,-14.303],[83.384,-14.39],[83.87,-14.476]]}},{"type":"Feature","properties":{"boundary_type":"subduction","feature_type":"gpml:SubductionZone","polarity":"Left","overriding_plate_id":760,"subducting_plate_id":714,"plate_ids":[714,760],"name":"Araguaia Belt"},"geometry":{"type":"LineString","coordinates":[[31.213,-54.457],[31.989,-54.46],[32.765,-54.458],[33.541,-54.451],[34.317,-54.439],[34.987,-54.611],[35.662,-54.778],[36.343,-54.942],[37.03,-55.103],[37.722,-55.259],[38.42,-55.411],[39.052,-55.72],[39.693,-56.026],[40.346,-56.328],[41.008,-56.627],[41.681,-56.922]]}},{"type":"Feature","properties":{"boundary_type":"subduction","feature_type":"gpml:SubductionZone","polarity":"Left","overriding_plate_id":206,"subducting_plate_id":714,"plate_ids":[206,714],"name":"Araguaia Belt"},"geometry":{"type":"LineString","coordinates":[[41.681,-56.922],[42.289,-57.181],[42.905,-57.438],[43.575,-57.574],[44.249,-57.706],[44.928,-57.835],[45.481,-58.17],[46.044,-58.501],[46.618,-58.831],[47.203,-59.158],[47.564,-59.597],[47.934,-60.035],[48.314,-60.473],[48.704,-60.909],[49.106,-61.344],[49.704,-61.695],[50.316,-62.044],[50.942,-62.39],[51.583,-62.733],[52.239,-63.073],[52.91,-63.41],[53.877,-63.636],[54.86,-63.856],[55.857,-64.069],[56.87,-64.274],[57.898,-64.473],[58.654,-64.691],[59.423,-64.905],[59.881,-65.076],[60.346,-65.245],[61.29,-65.517],[61.927,-65.783],[62.578,-66.046],[63.244,-66.32],[63.408,-66.577],[63.577,-66.834]]}},{"type":"Feature","properties":{"boundary_type":"subduction","feature_type":"gpml:SubductionZone","polarity":"Right","overriding_plate_id":701,"subducting_plate_id":715,"plate_ids":[701,715],"name":"Mozambique Belt"},"geometry":{"type":"LineString","coordinates":[[58.602,-26.092],[58.845,-25.787],[59.088,-25.481],[59.329,-25.175],[59.516,-24.732],[59.703,-24.29],[59.888,-23.846],[60.095,-23.474],[60.3,-23.102]]}},{"type":"Feature","properties":{"boundary_type":"subduction","feature_type":"gpml:SubductionZone","polarity":"Right","overriding_plate_id":701,"subducting_plate_id":5032,"plate_ids":[701,5032],"name":"Mozambique Belt"},"geometry":{"type":"LineString","coordinates":[[60.3,-23.102],[60.521,-22.701],[60.671,-22.302],[60.82,-21.903],[60.968,-21.504],[61.115,-21.106],[61.262,-20.706],[61.483,-20.436],[61.704,-20.166],[61.924,-19.895],[62.357,-19.965],[62.791,-20.035],[63.224,-20.103],[63.657,-20.382],[64.091,-20.66],[64.526,-20.937],[64.757,-21.28],[64.988,-21.622],[65.221,-21.964],[65.455,-22.306],[65.815,-22.54],[66.177,-22.774],[66.54,-23.007],[66.904,-23.24],[67.269,-23.471],[67.738,-23.705],[68.209,-23.937],[68.681,-24.167],[69.155,-24.397],[69.631,-24.624],[70.019,-24.736],[70.408,-24.847],[70.919,-24.981],[71.431,-25.114],[71.793,-25.205],[72.155,-25.295],[72.518,-25.385],[72.921,-25.481],[73.326,-25.576],[73.731,-25.67],[74.27,-25.682],[74.811,-25.691],[75.287,-25.774],[75.763,-25.855],[76.241,-25.934],[76.719,-26.012],[77.129,-26.192],[77.541,-26.37],[77.954,-26.548],[78.368,-26.724],[78.851,-26.88],[79.336,-27.035],[79.822,-27.188],[80.309,-27.339],[80.78,-27.594],[81.254,-27.848],[81.679,-28.167],[82.108,-28.485],[82.646,-28.596],[83.185,-28.704],[83.622,-28.813],[84.06,-28.922],[84.499,-29.028],[84.939,-29.133],[85.359,-29.234],[85.781,-29.334],[86.203,-29.432],[86.669,-29.409],[87.134,-29.384],[87.599,-29.358],[88.064,-29.33],[88.419,-29.381],[88.775,-29.431]]}},{"type":"Feature","properties":{"boundary_type":"subduction","feature_type":"gpml:SubductionZone","polarity":"Right","overriding_plate_id":715,"subducting_plate_id":5031,"plate_ids":[715,5031],"name":"ANS SZ"},"geometry":{"type":"LineString","coordinates":[[30.545,-16.46],[30.999,-16.579],[31.454,-16.696],[31.941,-16.826],[32.429,-16.954],[32.918,-17.081],[33.407,-17.206],[33.88,-17.323],[34.353,-17.439],[34.826,-17.554],[35.3,-17.668],[35.738,-17.799],[36.176,-17.93],[36.615,-18.059],[37.0,-18.259],[37.386,-18.458],[37.733,-18.566],[38.08,-18.674],[38.427,-18.781],[38.748,-18.965],[39.07,-19.15],[39.393,-19.333],[39.794,-19.524],[40.196,-19.713],[40.6,-19.902],[40.98,-19.989],[41.36,-20.075],[41.741,-20.16],[42.217,-20.319],[42.693,-20.476],[43.01,-20.647],[43.328,-20.817],[43.647,-20.987],[44.158,-21.131],[44.671,-21.274],[45.135,-21.309],[45.599,-21.343],[46.063,-21.375],[46.465,-21.289],[46.866,-21.202],[47.266,-21.113],[47.666,-21.024],[48.059,-21.087],[48.452,-21.148],[48.845,-21.209],[49.354,-21.324],[49.863,-21.438],[50.373,-21.551],[50.794,-21.653],[51.214,-21.754],[51.636,-21.853],[52.037,-21.813],[52.437,-21.771],[52.838,-21.728],[53.233,-21.714],[53.627,-21.699],[54.021,-21.682],[54.439,-21.601],[54.856,-21.518],[55.273,-21.434],[55.689,-21.349],[56.186,-21.502],[56.684,-21.652],[57.183,-21.802],[57.518,-21.941],[57.853,-22.079]]}},{"type":"Feature","properties":{"boundary_type":"subduction","feature_type":"gpml:SubductionZone","polarity":"Right","overriding_plate_id":715,"subducting_plate_id":5032,"plate_ids":[715,5032],"name":"ANS SZ"},"geometry":{"type":"LineString","coordinates":[[57.853,-22.079],[57.983,-22.133],[58.319,-22.287],[58.656,-22.44],[58.994,-22.592],[59.316,-22.78],[59.638,-22.966],[59.961,-23.153],[60.3,-23.102]]}},{"type":"Feature","properties":{"boundary_type":"subduction","feature_type":"gpml:SubductionZone","polarity":"Left","overriding_plate_id":760,"subducting_plate_id":206,"plate_ids":[206,760],"name":"Sergipano SZ (SF and Borb)"},"geometry":{"type":"LineString","coordinates":[[47.99,-56.132],[48.035,-56.102],[48.371,-55.774],[48.701,-55.446],[49.026,-55.117],[49.345,-54.786],[49.541,-54.315],[49.732,-53.844],[49.92,-53.372],[50.148,-53.041],[50.373,-52.709],[50.595,-52.377],[50.897,-51.916],[51.192,-51.453],[51.481,-50.99],[51.493,-50.641],[51.504,-50.292],[51.514,-49.947],[51.523,-49.602]]}},{"type":"Feature","properties":{"boundary_type":"subduction","feature_type":"gpml:SubductionZone","polarity":"Left","overriding_plate_id":760,"subducting_plate_id":701,"plate_ids":[701,760],"name":"Sergipano SZ (SF and Borb)"},"geometry":{"type":"LineString","coordinates":[[51.523,-49.602],[51.528,-49.447],[51.67,-48.966]]}},{"type":"Feature","properties":{"boundary_type":"subduction","feature_type":"gpml:SubductionZone","polarity":"Right","overriding_plate_id":5031,"subducting_plate_id":501,"plate_ids":[501,5031],"name":"ANS formation"},"geometry":{"type":"LineString","coordinates":[[33.603,-13.596],[34.043,-13.426],[34.483,-13.255],[34.922,-13.084],[35.36,-12.912],[35.798,-12.74],[36.235,-12.566],[36.672,-12.392],[37.108,-12.217],[37.543,-12.042],[37.978,-11.866],[38.413,-11.689],[38.799,-11.512],[39.185,-11.335],[39.57,-11.157],[39.955,-10.979],[40.338,-10.84],[40.72,-10.701],[41.216,-10.59],[41.712,-10.478],[42.207,-10.365],[42.582,-10.326],[42.958,-10.286],[43.333,-10.246],[43.769,-10.218],[44.206,-10.189],[44.625,-10.234],[45.044,-10.277],[45.393,-10.379],[45.743,-10.481],[46.107,-10.668],[46.472,-10.855],[46.855,-10.947],[47.239,-11.039],[47.59,-10.978],[47.942,-10.918],[48.293,-10.857],[48.679,-10.806],[49.066,-10.753],[49.452,-10.701],[49.833,-10.672],[50.214,-10.643],[50.608,-10.742],[51.003,-10.841],[51.357,-10.962],[51.712,-11.082],[52.067,-11.202],[52.227,-11.276]]}},{"type":"Feature","properties":{"boundary_type":"subduction","feature_type":"gpml:SubductionZone","polarity":"Right","overriding_plate_id":5031,"subducting_plate_id":5032,"plate_ids":[5031,5032],"name":"ANS formation"},"geometry":{"type":"LineString","coordinates":[[52.227,-11.276],[52.555,-11.429],[52.884,-11.581],[53.213,-11.733],[53.561,-11.887],[53.91,-12.04],[54.259,-12.192],[54.657,-12.426],[55.055,-12.659],[55.299,-12.998],[55.544,-13.336],[55.79,-13.674],[55.993,-14.122],[56.197,-14.57],[56.402,-15.018],[56.607,-15.465],[56.814,-15.912],[57.021,-16.359],[57.23,-16.806],[57.439,-17.252],[57.589,-17.697],[57.739,-18.142],[57.889,-18.586],[58.041,-19.031],[58.194,-19.475]]}},{"type":"Feature","properties":{"boundary_type":"subduction","feature_type":"gpml:SubductionZone","polarity":"Left","overriding_plate_id":701,"subducting_plate_id":77030,"plate_ids":[701,77030],"name":"Damara-Lufilian-Zambezi SZ?"},"geometry":{"type":"LineString","coordinates":[[91.863,-50.771],[92.27,-50.506],[92.672,-50.241],[93.07,-49.974],[93.321,-49.631],[93.569,-49.288],[93.813,-48.944],[94.054,-48.6],[94.096,-48.187],[94.138,-47.775],[94.179,-47.363],[94.219,-46.951],[94.285,-46.501],[94.35,-46.052],[94.413,-45.602],[94.475,-45.152],[94.537,-44.702],[94.597,-44.253],[94.657,-43.803],[94.455,-43.401],[94.257,-42.999],[94.06,-42.597],[93.866,-42.194],[93.675,-41.791],[93.486,-41.388],[93.272,-40.927],[93.061,-40.467],[92.853,-40.006],[92.647,-39.545],[92.444,-39.083],[92.244,-38.621],[92.047,-38.159],[91.852,-37.696],[91.659,-37.233],[91.279,-36.855],[90.903,-36.475],[90.531,-36.093],[90.162,-35.711],[89.797,-35.327],[89.647,-34.852],[89.499,-34.376],[89.353,-33.9],[89.209,-33.423],[89.066,-32.947],[88.925,-32.47],[88.902,-32.033],[88.88,-31.596],[88.859,-31.159],[88.837,-30.723],[88.816,-30.286],[88.795,-29.849]]}},{"type":"Feature","properties":{"boundary_type":"subduction","feature_type":"gpml:SubductionZone","polarity":"Left","overriding_plate_id":701,"subducting_plate_id":5032,"plate_ids":[701,5032],"name":"Damara-Lufilian-Zambezi SZ?"},"geometry":{"type":"LineString","coordinates":[[88.795,-29.849],[88.775,-29.431]]}},{"type":"Feature","properties":{"boundary_type":"subduction","feature_type":"gpml:SubductionZone","polarity":"Right","overriding_plate_id":801,"subducting_plate_id":8011,"plate_ids":[801,8011],"name":"Paterson-Petermann Orogen"},"geometry":{"type":"LineString","coordinates":[[94.817,8.021],[95.135,8.337],[95.453,8.652],[95.772,8.968],[96.091,9.283],[96.411,9.598],[96.731,9.912],[97.064,10.215],[97.397,10.518],[97.731,10.82],[98.066,11.122],[98.401,11.423],[98.737,11.724],[99.073,12.025],[99.558,12.052],[100.043,12.079],[100.528,12.105],[101.014,12.13],[101.499,12.154],[101.984,12.177],[102.47,12.2],[102.886,12.354],[103.303,12.507],[103.721,12.659],[104.175,12.584],[104.629,12.509],[105.082,12.432],[105.536,12.355],[105.989,12.277],[106.427,12.43],[106.866,12.583],[107.306,12.735],[107.746,12.886],[108.186,13.037],[108.628,13.187],[109.069,13.336],[109.511,13.484],[109.884,13.736],[110.257,13.987],[110.631,14.237],[111.006,14.487]]}},{"type":"Feature","properties":{"boundary_type":"subduction","feature_type":"gpml:SubductionZone","polarity":"Right","overriding_plate_id":401,"subducting_plate_id":98044,"plate_ids":[401,98044],"name":"Isakov arc"},"geometry":{"type":"LineString","coordinates":[[-107.248,23.802],[-107.054,23.336],[-106.862,22.869],[-106.67,22.402],[-106.48,21.935],[-106.291,21.468],[-106.104,21.001],[-105.877,20.556],[-105.651,20.111],[-105.427,19.666],[-105.204,19.221],[-104.983,18.775],[-104.762,18.329],[-104.543,17.883],[-104.325,17.436],[-104.107,16.99],[-103.891,16.543],[-103.676,16.096],[-103.462,15.648],[-103.248,15.201],[-103.036,14.753],[-102.824,14.305],[-102.614,13.857],[-102.404,13.409],[-102.195,12.96]]}},{"type":"Feature","properties":{"boundary_type":"subduction","feature_type":"gpml:SubductionZone","polarity":"Right","overriding_plate_id":401,"subducting_plate_id":3003,"plate_ids":[401,3003],"name":"Isakov arc"},"geometry":{"type":"LineString","coordinates":[[-102.195,12.96],[-102.092,12.739],[-101.911,12.387],[-101.73,12.034],[-101.549,11.681],[-101.369,11.328],[-101.343,10.851],[-101.317,10.375],[-101.292,9.899],[-101.266,9.422],[-101.24,8.946],[-101.215,8.47],[-101.189,7.993],[-101.164,7.517],[-101.138,7.041],[-101.045,6.619],[-100.951,6.198],[-100.858,5.777],[-100.765,5.355],[-100.672,4.934],[-100.497,4.554],[-100.322,4.174],[-100.148,3.794],[-99.973,3.414],[-99.798,3.035],[-99.86,2.546],[-99.921,2.057],[-99.982,1.568],[-100.043,1.079],[-100.104,0.59],[-100.165,0.101],[-100.226,-0.388],[-100.287,-0.877],[-100.348,-1.365],[-100.409,-1.854],[-100.471,-2.343],[-100.532,-2.832],[-100.593,-3.321],[-100.836,-3.694],[-101.079,-4.068],[-101.323,-4.441],[-101.567,-4.814]]}},{"type":"Feature","properties":{"boundary_type":"subduction","feature_type":"gpml:SubductionZone","polarity":"Left","overriding_plate_id":715,"subducting_plate_id":701,"plate_ids":[701,715],"name":"Oubanguides"},"geometry":{"type":"LineString","coordinates":[[42.995,-45.867],[43.21,-45.455],[43.422,-45.043],[43.631,-44.631],[43.836,-44.218],[44.039,-43.805],[44.44,-43.456],[44.836,-43.107],[45.227,-42.756],[45.614,-42.403],[45.997,-42.05],[46.376,-41.695],[46.75,-41.339],[46.915,-40.882],[47.079,-40.426],[47.24,-39.969],[47.398,-39.511],[47.555,-39.054],[47.71,-38.596],[47.863,-38.138],[48.014,-37.68],[48.163,-37.222],[48.31,-36.763],[48.456,-36.305],[48.599,-35.846],[48.741,-35.387],[48.699,-34.945],[48.657,-34.504],[48.616,-34.062],[48.846,-33.617],[49.074,-33.172],[49.299,-32.726],[49.752,-32.489],[50.203,-32.25],[50.652,-32.01],[51.098,-31.769],[51.593,-31.573],[52.086,-31.376],[52.576,-31.177],[53.065,-30.976],[53.527,-30.776],[53.988,-30.573],[54.446,-30.369],[54.902,-30.164],[55.332,-29.89],[55.758,-29.615],[56.183,-29.338],[56.531,-29.085],[56.877,-28.831],[57.221,-28.576],[57.563,-28.32],[57.919,-27.975],[58.273,-27.628],[58.625,-27.281]]}},{"type":"Feature","properties":{"boundary_type":"subduction","feature_type":"gpml:SubductionZone","polarity":"Right","overriding_plate_id":715,"subducting_plate_id":98043,"plate_ids":[715,98043],"name":"SM SZ"},"geometry":{"type":"LineString","coordinates":[[18.768,-29.693],[18.972,-29.311],[19.377,-28.995],[19.78,-28.678],[20.18,-28.361],[20.578,-28.042],[20.973,-27.721],[21.366,-27.4],[21.757,-27.078],[22.145,-26.754],[22.532,-26.43],[22.916,-26.104],[23.298,-25.777],[23.678,-25.45],[24.056,-25.121],[24.432,-24.792],[24.806,-24.461],[25.177,-24.13],[25.417,-23.736],[25.654,-23.341],[25.89,-22.946],[26.125,-22.551],[26.359,-22.155],[26.591,-21.759],[26.822,-21.363]]}},{"type":"Feature","properties":{"boundary_type":"subduction","feature_type":"gpml:SubductionZone","polarity":"Right","overriding_plate_id":715,"subducting_plate_id":501,"plate_ids":[501,715],"name":"SM SZ"},"geometry":{"type":"LineString","coordinates":[[26.822,-21.363],[26.85,-21.314],[27.15,-20.907],[27.447,-20.499],[27.744,-20.091],[28.038,-19.683],[28.331,-19.274],[28.623,-18.864],[28.913,-18.454],[29.188,-18.123],[29.461,-17.791],[29.734,-17.459],[30.005,-17.126],[30.276,-16.794],[30.545,-16.46]]}},{"type":"Feature","properties":{"boundary_type":"subduction","feature_type":"gpml:SubductionZone","polarity":"Right","overriding_plate_id":5031,"subducting_plate_id":501,"plate_ids":[501,5031],"name":"SM SZ"},"geometry":{"type":"LineString","coordinates":[[30.545,-16.46],[30.814,-16.126],[31.082,-15.792],[31.541,-15.564],[31.998,-15.336],[32.454,-15.106],[32.909,-14.876],[33.363,-14.644],[33.443,-14.295],[33.523,-13.945],[33.603,-13.596]]}},{"type":"Feature","properties":{"boundary_type":"subduction","feature_type":"gpml:SubductionZone","polarity":"Left","overriding_plate_id":206,"subducting_plate_id":714,"plate_ids":[206,714],"name":"SZ_Parana_Paraguay Belt"},"geometry":{"type":"LineString","coordinates":[[63.577,-66.834],[63.945,-66.912],[65.203,-66.853],[66.455,-66.783],[67.387,-66.907],[68.329,-67.026],[69.304,-67.271],[70.3,-67.51],[71.103,-67.766],[71.924,-68.018],[72.692,-68.068],[73.464,-68.114],[74.435,-68.094],[75.405,-68.068],[76.489,-68.264],[77.592,-68.454],[78.611,-68.694],[79.652,-68.928],[80.545,-69.119],[81.454,-69.306],[82.367,-69.396],[83.288,-69.481],[84.215,-69.562],[85.188,-69.34],[86.141,-69.113],[86.619,-68.714],[87.081,-68.315],[87.526,-67.914],[87.526,-67.911]]}},{"type":"Feature","properties":{"boundary_type":"subduction","feature_type":"gpml:SubductionZone","polarity":"Left","overriding_plate_id":206,"subducting_plate_id":77030,"plate_ids":[206,77030],"name":"SZ_Parana_Paraguay Belt"},"geometry":{"type":"LineString","coordinates":[[87.526,-67.911],[87.457,-67.518],[87.392,-67.124],[87.328,-66.73],[87.266,-66.336]]}},{"type":"Feature","properties":{"boundary_type":"subduction","feature_type":"gpml:SubductionZone","polarity":"Left","overriding_plate_id":501,"subducting_plate_id":580,"plate_ids":[501,580],"name":"Alxa SZ"},"geometry":{"type":"LineString","coordinates":[[57.538,41.271],[57.25,40.909],[56.966,40.545],[56.685,40.181],[56.407,39.816],[56.132,39.45],[55.86,39.084],[55.811,38.598],[55.763,38.112],[55.715,37.626],[55.668,37.14],[55.622,36.654],[55.576,36.168],[55.531,35.682],[55.486,35.196],[55.442,34.71],[55.464,34.29],[55.485,33.87],[55.506,33.45],[55.526,33.031],[55.547,32.611],[55.567,32.191],[55.468,31.722]]}},{"type":"Feature","properties":{"boundary_type":"subduction","feature_type":"gpml:SubductionZone","polarity":"Left","overriding_plate_id":701,"subducting_plate_id":206,"plate_ids":[206,701],"name":"Aracuai-West Congo-Kaoko SZ"},"geometry":{"type":"LineString","coordinates":[[51.523,-49.602],[52.135,-49.701],[52.749,-49.798],[53.366,-49.891],[53.985,-49.98],[54.606,-50.067],[55.13,-50.385],[55.662,-50.7],[56.201,-51.013],[56.728,-51.202],[57.259,-51.388],[57.795,-51.572],[58.316,-51.705],[58.841,-51.837],[59.369,-51.966],[59.877,-52.349],[60.393,-52.73],[60.841,-52.84],[61.291,-52.949],[61.958,-52.985],[62.659,-52.82],[63.355,-52.651],[63.932,-52.439],[64.503,-52.225],[65.069,-52.008],[65.752,-51.94],[66.433,-51.868],[67.112,-51.792],[67.876,-51.828],[68.641,-51.86],[69.419,-51.778],[70.194,-51.692],[70.96,-51.745],[71.727,-51.794],[72.454,-51.734],[73.178,-51.669],[73.9,-51.6],[74.576,-51.436],[75.247,-51.268],[75.914,-51.096],[76.454,-51.105],[76.996,-51.112],[77.537,-51.116],[78.088,-51.103],[78.639,-51.087],[79.19,-51.069],[79.854,-51.16],[80.522,-51.247],[81.192,-51.33],[81.798,-51.361],[82.405,-51.389],[83.013,-51.413],[83.621,-51.435],[84.399,-51.365],[85.175,-51.289],[85.947,-51.209],[86.718,-51.124],[87.322,-50.93],[87.921,-50.733],[88.515,-50.533],[89.104,-50.331],[89.636,-50.122],[90.164,-49.911],[90.687,-49.698],[91.229,-49.58]]}},{"type":"Feature","properties":{"boundary_type":"subduction","feature_type":"gpml:SubductionZone","polarity":"Left","overriding_plate_id":3003,"subducting_plate_id":401,"plate_ids":[401,3003],"name":"Taimyr SZ"},"geometry":{"type":"LineString","coordinates":[[-101.567,-4.814],[-101.952,-5.115],[-102.337,-5.417],[-102.723,-5.718],[-103.109,-6.019],[-103.496,-6.319],[-103.891,-6.617],[-104.286,-6.915]]}},{"type":"Feature","properties":{"boundary_type":"subduction","feature_type":"gpml:SubductionZone","polarity":"Left","overriding_plate_id":4012,"subducting_plate_id":401,"plate_ids":[401,4012],"name":"Taimyr SZ"},"geometry":{"type":"LineString","coordinates":[[-104.286,-6.915],[-104.591,-7.144],[-104.896,-7.373],[-105.201,-7.602],[-105.507,-7.83],[-105.882,-8.107],[-106.258,-8.384],[-106.635,-8.661],[-107.012,-8.937],[-107.39,-9.212],[-107.768,-9.488],[-108.131,-9.775],[-108.494,-10.063],[-108.858,-10.35],[-109.222,-10.637],[-109.588,-10.923],[-109.954,-11.209],[-110.32,-11.494],[-110.688,-11.779],[-111.082,-11.975],[-111.477,-12.17],[-111.873,-12.364],[-112.27,-12.558],[-112.667,-12.751],[-113.064,-12.944],[-113.463,-13.136],[-113.854,-13.387],[-114.247,-13.637],[-114.641,-13.887],[-115.035,-14.136],[-115.43,-14.385],[-115.826,-14.632],[-116.223,-14.88],[-116.685,-14.947],[-117.147,-15.013],[-117.61,-15.078],[-118.073,-15.143],[-118.536,-15.206],[-118.999,-15.269],[-119.463,-15.33],[-119.906,-15.404],[-120.35,-15.477],[-120.794,-15.549],[-121.238,-15.62],[-121.674,-15.526],[-122.11,-15.432],[-122.546,-15.336]]}},{"type":"Feature","properties":{"boundary_type":"subduction","feature_type":"gpml:SubductionZone","polarity":"Left","overriding_plate_id":501,"subducting_plate_id":601,"plate_ids":[501,601],"name":"Intraoceanic SZ"},"geometry":{"type":"LineString","coordinates":[[86.254,24.648],[86.069,24.964],[85.884,25.28],[85.697,25.595],[85.427,26.012],[85.156,26.428],[84.882,26.843],[84.607,27.258],[84.329,27.672],[84.05,28.086],[83.768,28.499],[83.484,28.912],[83.198,29.324],[82.909,29.735],[82.618,30.146],[82.428,30.592],[82.235,31.038],[82.041,31.484],[81.845,31.929],[81.647,32.374],[81.447,32.819],[81.245,33.263],[81.041,33.707],[80.834,34.151],[80.626,34.595],[80.415,35.038],[80.203,35.48],[80.008,35.95],[79.811,36.42],[79.612,36.89],[79.411,37.359],[79.207,37.827],[79.0,38.296],[78.791,38.763],[78.579,39.231],[78.364,39.698],[78.146,40.165],[77.925,40.631],[77.701,41.097],[77.553,41.557],[77.402,42.017],[77.25,42.477],[77.095,42.936],[76.939,43.395],[76.779,43.854],[76.617,44.313],[76.453,44.771],[76.286,45.23],[76.116,45.687],[75.944,46.145],[75.768,46.603],[75.59,47.06],[75.792,47.522],[75.997,47.984],[76.206,48.446],[76.419,48.907],[76.635,49.368],[76.856,49.829],[77.081,50.289],[77.311,50.749],[77.545,51.208],[77.783,51.667],[78.027,52.125],[78.182,52.566],[78.34,53.008],[78.502,53.449],[78.667,53.889],[78.835,54.33],[78.837,54.332]]}},{"type":"Feature","properties":{"boundary_type":"subduction","feature_type":"gpml:SubductionZone","polarity":"Right","overriding_plate_id":580,"subducting_plate_id":501,"plate_ids":[501,580],"name":"Tarim Oceanic arc"},"geometry":{"type":"LineString","coordinates":[[56.007,44.322],[56.241,43.891],[56.471,43.459],[56.699,43.027],[56.923,42.595],[57.144,42.162],[57.362,41.729],[57.538,41.271]]}},{"type":"Feature","properties":{"boundary_type":"subduction","feature_type":"gpml:SubductionZone","polarity":"Right","overriding_plate_id":5032,"subducting_plate_id":501,"plate_ids":[501,5032],"name":"East Africa SZ"},"geometry":{"type":"LineString","coordinates":[[83.87,-14.476],[84.244,-14.72],[84.619,-14.963],[84.994,-15.206],[85.371,-15.448],[85.748,-15.69],[86.05,-15.943],[86.353,-16.195],[86.656,-16.447],[86.961,-16.698],[87.352,-16.855],[87.744,-17.011],[88.136,-17.166],[88.529,-17.321],[88.923,-17.474],[89.344,-17.545],[89.766,-17.614],[90.188,-17.683],[90.61,-17.75],[91.08,-17.973],[91.551,-18.195],[92.024,-18.415],[92.497,-18.634],[92.972,-18.852],[93.448,-19.069],[93.759,-19.407],[94.07,-19.744],[94.383,-20.081],[94.697,-20.418],[95.013,-20.754]]}},{"type":"Feature","properties":{"boundary_type":"subduction","feature_type":"gpml:SubductionZone","polarity":"Right","overriding_plate_id":5032,"subducting_plate_id":77030,"plate_ids":[5032,77030],"name":"East Africa SZ"},"geometry":{"type":"LineString","coordinates":[[95.013,-20.754],[95.286,-21.043],[95.56,-21.331],[95.692,-21.815],[95.825,-22.298],[95.959,-22.782],[96.094,-23.265],[96.23,-23.748],[96.368,-24.231],[96.506,-24.714],[96.645,-25.197],[96.785,-25.68],[96.681,-26.145],[96.576,-26.611],[96.47,-27.076],[96.363,-27.541]]}},{"type":"Feature","properties":{"boundary_type":"subduction","feature_type":"gpml:SubductionZone","polarity":"Left","overriding_plate_id":98043,"subducting_plate_id":77144,"plate_ids":[77144,98043],"name":"Serouenent Terrane accretion"},"geometry":{"type":"LineString","coordinates":[[17.638,-35.582],[17.882,-35.852],[18.127,-36.122],[18.128,-36.123]]}},{"type":"Feature","properties":{"boundary_type":"subduction","feature_type":"gpml:SubductionZone","polarity":"Left","overriding_plate_id":760,"subducting_plate_id":77144,"plate_ids":[760,77144],"name":"Serouenent Terrane accretion"},"geometry":{"type":"LineString","coordinates":[[18.128,-36.123],[18.514,-36.507],[18.904,-36.89],[19.298,-37.272],[19.696,-37.653],[20.099,-38.032],[20.423,-38.329],[20.75,-38.626],[21.08,-38.922],[21.413,-39.216],[21.652,-39.426],[21.905,-39.797],[22.161,-40.168],[22.42,-40.538],[22.438,-40.567]]}},{"type":"Feature","properties":{"boundary_type":"subduction","feature_type":"gpml:SubductionZone","polarity":"Right","overriding_plate_id":206,"subducting_plate_id":701,"plate_ids":[206,701],"name":"Congo arc"},"geometry":{"type":"LineString","coordinates":[[91.229,-49.58],[91.437,-49.977],[91.648,-50.374],[91.863,-50.771]]}},{"type":"Feature","properties":{"boundary_type":"subduction","feature_type":"gpml:SubductionZone","polarity":"Right","overriding_plate_id":206,"subducting_plate_id":77030,"plate_ids":[206,77030],"name":"Congo arc"},"geometry":{"type":"LineString","coordinates":[[91.863,-50.771],[92.05,-51.11],[92.239,-51.449],[92.432,-51.788],[92.55,-52.209],[92.67,-52.631],[92.793,-53.052],[92.918,-53.474],[93.045,-53.895],[93.175,-54.316],[93.216,-54.801],[93.258,-55.286],[93.301,-55.771],[93.346,-56.256],[93.391,-56.741],[93.437,-57.227],[93.485,-57.712],[93.534,-58.197],[93.463,-58.648],[93.39,-59.099],[93.316,-59.551],[93.239,-60.002],[93.16,-60.453],[93.079,-60.904],[92.996,-61.355],[92.91,-61.806],[92.604,-62.219],[92.289,-62.631],[91.965,-63.042],[91.633,-63.453],[91.29,-63.863],[90.937,-64.272],[90.574,-64.68],[89.946,-65.017],[89.301,-65.351],[88.64,-65.682],[87.962,-66.011],[87.266,-66.336]]}},{"type":"Feature","properties":{"boundary_type":"subduction","feature_type":"gpml:SubductionZone","polarity":"Left","overriding_plate_id":606,"subducting_plate_id":8011,"plate_ids":[606,8011],"name":"Lhasa-Australia convergence"},"geometry":{"type":"LineString","coordinates":[[94.58,10.535],[94.92,10.735],[95.261,10.934],[95.602,11.133],[95.819,11.552],[96.038,11.97],[96.257,12.388],[96.477,12.806],[96.697,13.224],[96.918,13.641],[97.14,14.059],[97.226,14.514],[97.312,14.97],[97.398,15.426],[97.485,15.882],[97.572,16.337],[97.659,16.793],[97.747,17.249],[97.835,17.704],[97.924,18.16],[97.996,18.604],[98.067,19.049],[98.14,19.493],[98.212,19.937],[98.285,20.382],[98.359,20.826],[98.433,21.27],[98.394,21.711],[98.356,22.151],[98.317,22.591],[98.278,23.032],[98.239,23.472]]}},{"type":"Feature","properties":{"boundary_type":"subduction","feature_type":"gpml:SubductionZone","polarity":"Left","overriding_plate_id":606,"subducting_plate_id":601,"plate_ids":[601,606],"name":"Lhasa-Australia convergence"},"geometry":{"type":"LineString","coordinates":[[98.239,23.472],[98.205,23.85],[98.171,24.228],[98.136,24.606],[97.859,24.997],[97.58,25.388],[97.299,25.777],[97.016,26.167]]}},{"type":"Feature","properties":{"boundary_type":"subduction","feature_type":"gpml:SubductionZone","polarity":"Right","overriding_plate_id":606,"subducting_plate_id":8011,"plate_ids":[606,8011],"name":"Lhasa-India convergence"},"geometry":{"type":"LineString","coordinates":[[94.58,10.535],[94.409,10.541]]}},{"type":"Feature","properties":{"boundary_type":"subduction","feature_type":"gpml:SubductionZone","polarity":"Right","overriding_plate_id":606,"subducting_plate_id":501,"plate_ids":[501,606],"name":"Lhasa-India convergence"},"geometry":{"type":"LineString","coordinates":[[94.409,10.541],[94.017,10.552],[93.81,10.765],[93.602,10.978],[93.441,11.385],[93.279,11.791],[93.117,12.198],[92.954,12.604],[92.791,13.01],[92.627,13.416],[92.664,13.877],[92.701,14.338],[92.737,14.799],[92.774,15.26],[92.811,15.721],[92.848,16.182],[92.886,16.643],[92.806,17.118],[92.725,17.593],[92.644,18.068],[92.562,18.542],[92.48,19.017],[92.593,19.495],[92.707,19.974],[92.822,20.452],[92.938,20.93]]}},{"type":"Feature","properties":{"boundary_type":"subduction","feature_type":"gpml:SubductionZone","polarity":"Right","overriding_plate_id":606,"subducting_plate_id":601,"plate_ids":[601,606],"name":"Lhasa-India convergence"},"geometry":{"type":"LineString","coordinates":[[92.938,20.93],[93.053,21.405],[93.292,21.806],[93.531,22.207],[93.772,22.608],[94.015,23.009],[94.218,23.464],[94.422,23.919],[94.627,24.373],[94.834,24.828],[94.807,25.092],[94.781,25.356]]}},{"type":"Feature","properties":{"boundary_type":"subduction","feature_type":"gpml:SubductionZone","polarity":"Left","overriding_plate_id":401,"subducting_plate_id":98044,"plate_ids":[401,98044],"name":"offshore oceanic sub zone"},"geometry":{"type":"LineString","coordinates":[[-125.52,23.732],[-126.0,23.939],[-126.482,24.145],[-126.966,24.349],[-127.451,24.551],[-127.938,24.753],[-128.426,24.952],[-128.916,25.15],[-129.407,25.346],[-129.9,25.541],[-130.395,25.734],[-130.891,25.925],[-131.389,26.115],[-131.888,26.303],[-132.39,26.489],[-132.892,26.673],[-133.396,26.856],[-133.902,27.037],[-134.41,27.216],[-134.919,27.393]]}},{"type":"Feature","properties":{"boundary_type":"subduction","feature_type":"gpml:SubductionZone","polarity":"Left","overriding_plate_id":101,"subducting_plate_id":98044,"plate_ids":[101,98044],"name":"offshore oceanic sub zone"},"geometry":{"type":"LineString","coordinates":[[-134.919,27.393],[-135.429,27.568],[-135.94,27.741],[-136.453,27.913],[-136.968,28.082],[-137.484,28.249],[-138.002,28.415],[-138.521,28.578],[-139.042,28.74],[-139.565,28.899],[-140.089,29.057],[-140.615,29.212],[-141.143,29.366],[-141.672,29.517],[-142.116,29.79],[-142.563,30.062],[-143.012,30.332],[-143.463,30.601],[-143.917,30.868],[-144.374,31.134],[-144.833,31.398],[-145.295,31.66],[-145.759,31.921],[-146.226,32.18],[-146.696,32.437],[-147.168,32.692],[-147.643,32.946],[-148.121,33.198],[-148.602,33.448],[-149.085,33.696],[-149.571,33.942],[-150.06,34.187],[-150.547,34.466],[-151.036,34.744],[-151.529,35.019],[-152.026,35.293],[-152.526,35.565],[-153.029,35.834],[-153.536,36.102],[-154.046,36.367],[-154.559,36.63],[-155.076,36.891],[-155.597,37.15],[-156.121,37.406],[-156.649,37.66],[-157.18,37.912],[-157.715,38.161],[-158.253,38.408],[-158.796,38.652],[-159.342,38.894],[-159.891,39.133],[-160.445,39.37],[-161.002,39.604],[-161.563,39.835],[-162.127,40.064],[-162.696,40.29],[-163.268,40.513],[-163.818,40.764],[-164.372,41.013],[-164.931,41.259],[-165.494,41.502],[-166.06,41.743],[-166.632,41.981],[-167.207,42.216],[-167.787,42.448],[-168.371,42.677],[-168.959,42.903],[-169.551,43.126],[-170.148,43.346],[-170.749,43.563],[-171.355,43.777],[-171.965,43.988],[-172.579,44.195],[-173.197,44.399],[-173.82,44.599],[-174.447,44.797],[-175.078,44.99],[-175.713,45.18],[-176.353,45.367],[-176.997,45.55],[-177.645,45.73],[-178.297,45.905],[-178.953,46.077],[-179.614,46.246],[179.722,46.41],[179.054,46.571],[178.401,46.761],[177.744,46.948],[177.082,47.132],[176.416,47.311],[175.746,47.486],[175.071,47.658],[174.391,47.826],[173.707,47.989],[173.019,48.148],[172.327,48.304],[171.63,48.455],[170.929,48.602],[170.225,48.744],[169.516,48.883],[168.804,49.017],[168.087,49.146],[167.367,49.271],[166.644,49.392],[165.917,49.508],[165.186,49.619],[164.472,49.791],[163.752,49.959],[163.027,50.122],[162.297,50.281],[161.562,50.435],[160.823,50.584],[160.079,50.729],[159.331,50.868],[158.578,51.003],[157.821,51.134],[157.059,51.259],[156.294,51.379],[155.524,51.494],[154.781,51.63],[154.033,51.762],[153.282,51.888],[152.526,52.01],[151.765,52.127],[151.002,52.239],[150.234,52.346],[149.462,52.448],[148.688,52.544],[147.909,52.636],[147.128,52.723],[146.343,52.805],[145.556,52.881],[144.766,52.952],[143.974,53.018],[143.179,53.079],[142.382,53.134],[141.583,53.184],[140.783,53.228],[139.98,53.268],[139.177,53.302],[138.372,53.33],[137.566,53.353],[136.76,53.371],[135.953,53.383],[135.253,53.212],[134.559,53.037],[133.87,52.859],[133.187,52.676],[132.51,52.49],[131.839,52.299],[131.173,52.105],[130.514,51.907]]}},{"type":"Feature","properties":{"boundary_type":"subduction","feature_type":"gpml:SubductionZone","polarity":"Left","overriding_plate_id":101,"subducting_plate_id":601,"plate_ids":[101,601],"name":"offshore oceanic sub zone"},"geometry":{"type":"LineString","coordinates":[[130.514,51.907],[129.806,51.689],[129.105,51.466],[128.411,51.24],[127.801,51.065],[127.195,50.888],[126.593,50.707],[125.997,50.523]]}},{"type":"Feature","properties":{"boundary_type":"subduction","feature_type":"gpml:SubductionZone","polarity":"Right","overriding_plate_id":760,"subducting_plate_id":714,"plate_ids":[714,760],"name":"4.50 dextral fault"},"geometry":{"type":"LineString","coordinates":[[31.213,-54.457],[30.908,-54.122],[30.607,-53.787],[30.311,-53.45],[30.02,-53.113],[29.73,-52.661],[29.446,-52.208],[29.167,-51.754],[28.894,-51.3],[28.627,-50.845],[28.365,-50.39],[28.107,-49.934],[27.855,-49.477],[27.607,-49.02],[27.383,-48.544],[27.164,-48.068],[26.949,-47.592],[26.738,-47.115],[26.53,-46.637]]}},{"type":"Feature","properties":{"boundary_type":"subduction","feature_type":"gpml:SubductionZone","polarity":"Right","overriding_plate_id":3003,"subducting_plate_id":98043,"plate_ids":[3003,98043],"name":"Avalonian-Cadomian arc"},"geometry":{"type":"LineString","coordinates":[[-40.221,-59.138],[-39.532,-58.823],[-38.856,-58.505]]}},{"type":"Feature","properties":{"boundary_type":"subduction","feature_type":"gpml:SubductionZone","polarity":"Right","overriding_plate_id":714,"subducting_plate_id":98043,"plate_ids":[714,98043],"name":"Avalonian-Cadomian arc"},"geometry":{"type":"LineString","coordinates":[[-38.856,-58.505],[-38.16,-58.168],[-37.478,-57.827],[-36.808,-57.482],[-36.151,-57.134],[-35.506,-56.782],[-34.874,-56.428],[-34.253,-56.07],[-33.643,-55.709],[-33.045,-55.345],[-32.458,-54.978],[-31.881,-54.608],[-31.315,-54.236],[-30.759,-53.861],[-30.212,-53.484],[-29.676,-53.104],[-29.149,-52.721],[-28.631,-52.337],[-28.122,-51.95],[-27.622,-51.561],[-27.13,-51.17],[-26.646,-50.777],[-26.171,-50.382],[-25.704,-49.985],[-25.244,-49.587],[-24.791,-49.186],[-24.346,-48.784],[-23.908,-48.38],[-23.477,-47.974],[-23.053,-47.567],[-22.635,-47.158],[-22.224,-46.748],[-21.819,-46.336],[-21.42,-45.923],[-20.875,-45.614],[-20.336,-45.303],[-19.803,-44.99],[-19.276,-44.673],[-18.755,-44.355],[-18.24,-44.034],[-17.73,-43.711],[-17.225,-43.385],[-16.726,-43.057],[-16.232,-42.728],[-15.744,-42.396],[-15.26,-42.062],[-14.782,-41.726],[-14.309,-41.388],[-13.84,-41.048],[-13.377,-40.706],[-12.918,-40.363],[-12.463,-40.017],[-12.014,-39.67],[-11.569,-39.321],[-11.128,-38.971],[-10.692,-38.619],[-10.26,-38.265],[-9.832,-37.91],[-9.408,-37.553],[-8.989,-37.194],[-8.573,-36.835],[-8.161,-36.473],[-7.753,-36.111],[-7.349,-35.747],[-6.779,-35.595],[-6.212,-35.441],[-5.647,-35.285],[-5.084,-35.126],[-4.524,-34.964],[-3.965,-34.799],[-3.409,-34.632],[-2.855,-34.463],[-2.304,-34.291],[-1.754,-34.116],[-1.207,-33.94],[-0.663,-33.76],[-0.12,-33.579],[0.42,-33.395],[0.958,-33.208],[1.494,-33.02],[2.027,-32.829],[2.558,-32.636],[3.087,-32.44],[3.613,-32.243],[4.131,-32.13],[4.648,-32.015],[5.164,-31.898],[5.678,-31.779],[6.191,-31.658],[6.703,-31.535],[7.213,-31.409],[7.722,-31.282],[8.23,-31.153],[8.736,-31.022]]}},{"type":"Feature","properties":{"boundary_type":"subduction","feature_type":"gpml:SubductionZone","polarity":"Left","overriding_plate_id":98043,"subducting_plate_id":714,"plate_ids":[714,98043],"name":"Iforas Granulite Unit SZ"},"geometry":{"type":"LineString","coordinates":[[8.736,-31.022],[8.92,-31.401],[9.106,-31.78],[9.372,-32.182],[9.641,-32.584],[9.912,-32.985],[10.185,-33.386],[10.461,-33.786],[10.739,-34.185],[11.021,-34.584],[11.304,-34.982],[11.616,-35.356],[11.931,-35.728],[12.249,-36.1],[12.57,-36.471],[12.894,-36.841],[13.221,-37.21],[13.552,-37.579]]}},{"type":"Feature","properties":{"boundary_type":"subduction","feature_type":"gpml:SubductionZone","polarity":"Left","overriding_plate_id":77144,"subducting_plate_id":714,"plate_ids":[714,77144],"name":"Iforas Granulite Unit SZ"},"geometry":{"type":"LineString","coordinates":[[13.552,-37.579],[13.905,-37.968],[14.263,-38.356],[14.624,-38.743],[14.772,-39.14],[14.922,-39.536],[15.074,-39.933],[15.228,-40.329],[15.383,-40.725],[15.698,-41.135],[16.017,-41.544],[16.34,-41.952],[16.667,-42.359],[16.998,-42.766],[17.334,-43.171],[17.674,-43.575],[18.019,-43.979],[18.368,-44.381],[18.722,-44.782],[19.082,-45.183],[19.446,-45.582],[19.815,-45.979],[20.19,-46.376],[20.57,-46.771],[21.038,-47.087],[21.511,-47.4],[21.99,-47.712],[22.475,-48.021],[22.745,-48.138]]}},{"type":"Feature","properties":{"boundary_type":"subduction","feature_type":"gpml:SubductionZone","polarity":"Right","overriding_plate_id":4012,"subducting_plate_id":3003,"plate_ids":[3003,4012],"name":"Offshore Timan ocean arc?"},"geometry":{"type":"LineString","coordinates":[[-97.845,-13.215],[-98.239,-13.479],[-98.633,-13.741],[-99.028,-14.003],[-99.424,-14.264],[-99.821,-14.525],[-100.218,-14.785],[-100.617,-15.044],[-101.017,-15.303],[-101.418,-15.561],[-101.819,-15.818],[-102.222,-16.074],[-102.626,-16.33],[-103.08,-16.546],[-103.536,-16.762],[-103.993,-16.976],[-104.451,-17.189],[-104.91,-17.402],[-105.37,-17.613],[-105.628,-18.042],[-105.887,-18.47],[-106.147,-18.898],[-106.409,-19.325],[-106.672,-19.753],[-106.937,-20.179],[-107.203,-20.606],[-107.47,-21.032],[-107.739,-21.457],[-108.01,-21.883],[-108.198,-22.342],[-108.388,-22.802],[-108.578,-23.261],[-108.77,-23.72],[-108.964,-24.179],[-109.159,-24.637],[-109.355,-25.095],[-109.553,-25.553],[-109.752,-26.011],[-109.953,-26.469],[-110.155,-26.926],[-110.36,-27.383],[-110.565,-27.839],[-110.773,-28.295],[-110.982,-28.751],[-111.193,-29.207],[-111.18,-29.395]]}},{"type":"Feature","properties":{"boundary_type":"subduction","feature_type":"gpml:SubductionZone","polarity":"Right","overriding_plate_id":101,"subducting_plate_id":3003,"plate_ids":[101,3003],"name":"Offshore Timan ocean arc?"},"geometry":{"type":"LineString","coordinates":[[-111.18,-29.395],[-111.147,-29.882],[-111.113,-30.369],[-111.079,-30.856],[-111.045,-31.343],[-111.01,-31.83],[-110.975,-32.316],[-110.939,-32.803],[-110.484,-33.089],[-110.026,-33.373],[-109.565,-33.656],[-109.101,-33.937],[-108.633,-34.216],[-108.163,-34.493],[-107.69,-34.768],[-107.143,-34.949],[-106.594,-35.127],[-106.042,-35.302],[-105.488,-35.475],[-104.932,-35.646],[-104.373,-35.813],[-103.812,-35.979],[-103.249,-36.141],[-102.683,-36.301],[-102.115,-36.459],[-101.545,-36.613],[-100.972,-36.765],[-100.42,-36.913],[-99.865,-37.058],[-99.308,-37.201],[-98.75,-37.34],[-98.189,-37.478],[-97.626,-37.612],[-97.061,-37.744],[-96.494,-37.874],[-95.925,-38.0],[-95.354,-38.124],[-94.782,-38.245],[-94.227,-38.39],[-93.67,-38.533],[-93.112,-38.673],[-92.551,-38.81],[-91.987,-38.945],[-91.422,-39.077],[-90.855,-39.206],[-90.285,-39.333],[-89.714,-39.456],[-89.14,-39.577],[-88.565,-39.695],[-88.006,-39.863],[-87.444,-40.027],[-86.879,-40.189],[-86.311,-40.348],[-85.741,-40.505],[-85.169,-40.658],[-84.593,-40.809],[-84.015,-40.957],[-83.435,-41.102],[-82.852,-41.244],[-82.266,-41.383],[-81.678,-41.519],[-81.148,-41.743],[-80.615,-41.965],[-80.078,-42.184],[-79.537,-42.4],[-78.993,-42.614],[-78.445,-42.825],[-77.893,-43.034],[-77.337,-43.24],[-76.797,-43.489],[-76.253,-43.735],[-75.705,-43.979],[-75.152,-44.22],[-74.594,-44.458],[-74.032,-44.694],[-73.465,-44.926],[-72.894,-45.156],[-72.318,-45.383],[-71.738,-45.607],[-71.153,-45.829],[-70.563,-46.047],[-69.969,-46.262],[-69.37,-46.474],[-69.059,-46.819],[-68.744,-47.163],[-68.425,-47.506]]}},{"type":"Feature","properties":{"boundary_type":"ridge","feature_type":"gpml:MidOceanRidge","polarity":null,"overriding_plate_id":null,"subducting_plate_id":null,"plate_ids":[101,4012],"name":"MoR"},"geometry":{"type":"LineString","coordinates":[[-120.584,-25.203],[-120.684,-24.734],[-120.782,-24.264],[-120.881,-23.795],[-120.978,-23.325],[-121.075,-22.856],[-121.171,-22.386],[-121.267,-21.916],[-121.361,-21.447],[-121.456,-20.977],[-121.549,-20.507],[-121.642,-20.037],[-121.735,-19.567],[-121.827,-19.097],[-121.918,-18.627],[-122.009,-18.157],[-122.1,-17.687],[-122.19,-17.217],[-122.279,-16.747],[-122.369,-16.277],[-122.457,-15.806],[-122.546,-15.336]]}},{"type":"Feature","properties":{"boundary_type":"ridge","feature_type":"gpml:MidOceanRidge","polarity":null,"overriding_plate_id":null,"subducting_plate_id":null,"plate_ids":[101,401],"name":"MoR"},"geometry":{"type":"LineString","coordinates":[[-122.546,-15.336],[-122.635,-14.858],[-122.724,-14.381],[-122.812,-13.903],[-122.9,-13.425],[-122.988,-12.947],[-123.075,-12.469],[-123.163,-11.991],[-123.249,-11.514],[-123.336,-11.036],[-123.422,-10.558],[-123.508,-10.08],[-123.594,-9.602],[-123.679,-9.124],[-123.764,-8.646],[-123.849,-8.168],[-123.934,-7.689],[-124.019,-7.211],[-124.103,-6.733],[-124.188,-6.255],[-124.272,-5.777],[-124.356,-5.299],[-124.439,-4.821],[-124.523,-4.342],[-124.607,-3.864],[-124.69,-3.386],[-124.774,-2.908],[-124.857,-2.43],[-124.94,-1.951],[-125.434,-1.979],[-125.928,-2.005],[-126.422,-2.032],[-126.916,-2.059],[-127.41,-2.085],[-127.903,-2.112],[-128.397,-2.138],[-128.44,-1.65],[-128.483,-1.162],[-128.526,-0.674],[-128.569,-0.187],[-128.612,0.301],[-128.655,0.789],[-128.698,1.277],[-128.741,1.764],[-128.784,2.252],[-128.827,2.74],[-128.87,3.228],[-128.913,3.716],[-128.956,4.203],[-128.999,4.691],[-129.042,5.179],[-129.085,5.667],[-129.129,6.154],[-129.172,6.642],[-129.216,7.13],[-129.259,7.618],[-129.303,8.105],[-129.347,8.593],[-129.391,9.081],[-129.435,9.568],[-129.479,10.056],[-129.523,10.544],[-129.568,11.032],[-129.612,11.519],[-129.657,12.007],[-129.702,12.495],[-129.747,12.982],[-129.792,13.47],[-129.838,13.958],[-129.884,14.445],[-129.929,14.933],[-129.975,15.421],[-130.022,15.908],[-130.068,16.396],[-130.115,16.884],[-130.162,17.371],[-130.209,17.859],[-130.257,18.346],[-130.304,18.834],[-130.804,18.811],[-131.304,18.786],[-131.804,18.76],[-132.303,18.733],[-132.803,18.705],[-133.302,18.675],[-133.801,18.644],[-133.859,19.13],[-133.918,19.616],[-133.978,20.103],[-134.037,20.589],[-134.097,21.075],[-134.158,21.561],[-134.219,22.047],[-134.28,22.533],[-134.342,23.019],[-134.404,23.505],[-134.467,23.992],[-134.53,24.478],[-134.593,24.964],[-134.657,25.45],[-134.722,25.935],[-134.787,26.421],[-134.853,26.907],[-134.919,27.393]]}},{"type":"Feature","properties":{"boundary_type":"ridge","feature_type":"gpml:MidOceanRidge","polarity":null,"overriding_plate_id":null,"subducting_plate_id":null,"plate_ids":[501],"name":"Tarim-Lut MOR"},"geometry":{"type":"LineString","coordinates":[[7.166,22.676],[7.479,22.743],[7.793,22.81],[7.896,22.386],[7.999,21.961],[8.102,21.537],[8.203,21.112],[8.305,20.687]]}},{"type":"Feature","properties":{"boundary_type":"ridge","feature_type":"gpml:MidOceanRidge","polarity":null,"overriding_plate_id":null,"subducting_plate_id":null,"plate_ids":[501,580],"name":"Tarim-Lut MOR"},"geometry":{"type":"LineString","coordinates":[[8.305,20.687],[8.41,20.242],[8.913,20.398],[9.417,20.553],[9.922,20.707],[10.428,20.859],[10.935,21.009],[11.443,21.158],[11.952,21.305],[12.462,21.451],[12.973,21.595],[13.485,21.738],[13.998,21.879],[14.512,22.019],[15.028,22.157],[15.544,22.293],[16.061,22.428],[16.579,22.561],[17.098,22.692],[17.618,22.822],[18.139,22.95],[18.661,23.077],[19.184,23.201],[19.708,23.324],[20.233,23.445],[20.759,23.565],[21.286,23.682],[21.814,23.798],[22.343,23.912],[22.873,24.024],[23.403,24.135],[23.935,24.243],[24.467,24.35],[24.566,24.71],[24.665,25.071],[24.765,25.431],[25.293,25.548],[25.822,25.663],[26.352,25.776],[26.883,25.887],[27.415,25.997],[27.949,26.104],[28.483,26.209],[29.018,26.313],[29.554,26.414],[30.091,26.513],[30.629,26.611],[31.167,26.706],[31.707,26.799],[32.248,26.89],[32.789,26.979],[33.331,27.067],[33.874,27.152],[33.74,27.517],[33.605,27.883],[33.469,28.248],[33.994,28.285],[34.52,28.319],[35.045,28.351],[35.571,28.382],[36.097,28.41],[36.624,28.436],[37.151,28.461],[37.678,28.483],[38.205,28.503],[38.733,28.521],[39.26,28.538],[39.788,28.552],[40.316,28.564],[40.327,28.224],[40.339,27.884],[40.867,27.894],[41.395,27.903],[41.923,27.909],[42.452,27.914],[42.98,27.916],[43.508,27.917],[44.037,27.915],[44.565,27.912]]}},{"type":"Feature","properties":{"boundary_type":"ridge","feature_type":"gpml:MidOceanRidge","polarity":null,"overriding_plate_id":null,"subducting_plate_id":null,"plate_ids":[601,8011],"name":"North China-Australia divergence"},"geometry":{"type":"LineString","coordinates":[[98.239,23.472],[98.68,23.492],[99.121,23.51],[99.563,23.527],[99.818,23.924],[100.075,24.321],[100.333,24.717],[100.593,25.113],[100.855,25.509],[101.297,25.49],[101.738,25.47],[102.18,25.449],[102.39,25.867],[102.601,26.285],[102.815,26.703],[103.029,27.12],[103.246,27.537],[103.464,27.954],[103.683,28.37],[103.905,28.786],[104.128,29.201],[104.353,29.616],[104.92,29.635],[105.488,29.652],[106.056,29.666],[106.209,30.099],[106.364,30.531],[106.52,30.963],[106.678,31.395],[106.837,31.826],[106.997,32.258],[107.159,32.689],[107.323,33.12],[107.914,33.149],[108.505,33.175],[109.096,33.198],[109.688,33.218],[110.28,33.236],[110.873,33.251],[111.465,33.263],[112.058,33.272],[112.651,33.278],[113.244,33.282],[113.836,33.282],[114.429,33.28],[115.022,33.275],[115.615,33.268],[116.207,33.257],[116.202,33.726],[116.196,34.195],[116.19,34.664],[116.185,35.134],[116.76,35.143],[117.336,35.15],[117.911,35.154],[118.487,35.155],[119.062,35.154]]}},{"type":"Feature","properties":{"boundary_type":"ridge","feature_type":"gpml:MidOceanRidge","polarity":null,"overriding_plate_id":null,"subducting_plate_id":null,"plate_ids":[101,601],"name":"North China-Australia divergence"},"geometry":{"type":"LineString","coordinates":[[119.062,35.154],[119.537,35.15],[120.012,35.145],[120.486,35.138],[120.96,35.129]]}},{"type":"Feature","properties":{"boundary_type":"ridge","feature_type":"gpml:MidOceanRidge","polarity":null,"overriding_plate_id":null,"subducting_plate_id":null,"plate_ids":[3003,98044],"name":"Mirovoi MOR"},"geometry":{"type":"LineString","coordinates":[[-62.714,-10.076],[-62.427,-9.949],[-62.14,-9.822]]}},{"type":"Feature","properties":{"boundary_type":"ridge","feature_type":"gpml:MidOceanRidge","polarity":null,"overriding_plate_id":null,"subducting_plate_id":null,"plate_ids":[98043,98044],"name":"Mirovoi MOR"},"geometry":{"type":"LineString","coordinates":[[-62.14,-9.822],[-61.695,-9.625],[-61.251,-9.428],[-60.808,-9.23],[-60.365,-9.032],[-59.923,-8.832],[-59.481,-8.633],[-59.039,-8.433],[-58.598,-8.232],[-58.158,-8.031],[-57.717,-7.83],[-57.278,-7.628],[-56.838,-7.425],[-56.4,-7.223],[-55.961,-7.019],[-55.523,-6.816],[-55.085,-6.612],[-55.168,-6.158],[-55.25,-5.705],[-55.333,-5.251],[-55.415,-4.798],[-55.497,-4.345],[-55.58,-3.891],[-55.119,-3.708],[-54.658,-3.524],[-54.197,-3.34],[-53.737,-3.156],[-53.277,-2.972],[-52.817,-2.787],[-52.357,-2.602],[-51.897,-2.417],[-51.437,-2.232],[-50.978,-2.047],[-50.518,-1.862],[-50.059,-1.676],[-49.6,-1.491],[-49.141,-1.305],[-48.682,-1.119],[-48.222,-0.933],[-47.763,-0.747],[-47.305,-0.561],[-46.846,-0.375],[-46.387,-0.189],[-45.928,-0.003],[-45.469,0.183],[-45.01,0.369],[-44.551,0.555],[-44.092,0.74],[-43.633,0.926],[-43.174,1.112],[-42.715,1.298],[-42.256,1.484],[-41.797,1.669],[-41.337,1.855],[-40.878,2.04],[-40.418,2.225],[-39.959,2.41],[-39.499,2.595],[-39.039,2.78],[-38.579,2.965],[-38.119,3.149],[-37.658,3.333],[-37.198,3.517],[-36.737,3.701],[-36.276,3.884],[-35.815,4.068],[-35.974,4.533],[-36.134,4.999],[-36.294,5.465],[-36.454,5.931],[-36.615,6.396],[-36.775,6.862],[-36.324,7.085],[-35.873,7.307],[-35.421,7.529],[-34.969,7.75],[-34.516,7.971],[-34.063,8.191],[-33.609,8.411],[-33.155,8.63],[-32.7,8.849],[-32.244,9.067],[-31.788,9.285],[-31.332,9.502],[-30.875,9.718],[-30.417,9.934],[-29.959,10.15],[-29.5,10.364],[-29.04,10.578],[-28.58,10.791],[-28.12,11.004],[-27.658,11.216],[-27.196,11.427],[-26.733,11.638],[-26.27,11.848],[-25.805,12.057],[-25.34,12.265],[-24.875,12.472],[-24.408,12.679],[-23.941,12.885],[-23.473,13.09],[-23.004,13.294],[-22.535,13.497],[-22.064,13.7],[-21.593,13.901],[-21.121,14.102],[-20.648,14.301],[-20.175,14.5],[-19.7,14.698],[-19.225,14.895],[-18.749,15.091],[-18.272,15.286],[-17.794,15.479],[-17.315,15.672],[-16.835,15.864],[-16.354,16.055],[-15.873,16.245],[-15.39,16.433],[-14.907,16.621],[-14.422,16.807],[-13.937,16.992],[-13.451,17.176],[-12.963,17.359],[-12.475,17.541],[-12.189,17.184],[-11.904,16.827],[-11.621,16.47],[-11.338,16.112],[-11.056,15.754],[-10.553,15.839],[-10.05,15.923],[-9.546,16.006],[-9.042,16.088],[-8.537,16.168],[-8.032,16.248],[-7.527,16.326],[-7.021,16.403],[-6.515,16.479],[-6.008,16.553],[-5.501,16.627],[-4.994,16.699],[-4.486,16.77],[-3.978,16.839],[-3.469,16.908],[-2.96,16.975],[-2.451,17.041],[-1.941,17.105],[-1.431,17.169],[-0.921,17.231],[-0.41,17.291],[0.101,17.351],[0.612,17.409],[1.124,17.466],[1.636,17.521],[2.148,17.576],[2.66,17.629],[3.173,17.68],[3.686,17.73],[4.2,17.779],[4.713,17.827],[5.227,17.873],[5.742,17.918],[6.256,17.962],[6.771,18.004],[7.286,18.045],[7.801,18.084],[8.317,18.122],[8.832,18.159],[9.348,18.194]]}},{"type":"Feature","properties":{"boundary_type":"ridge","feature_type":"gpml:MidOceanRidge","polarity":null,"overriding_plate_id":null,"subducting_plate_id":null,"plate_ids":[3003,98044],"name":"Mirovoi MOR"},"geometry":{"type":"LineString","coordinates":[[-89.059,16.472],[-88.664,16.159],[-88.27,15.844],[-87.877,15.53],[-87.485,15.214],[-87.095,14.898],[-86.705,14.581],[-86.317,14.263],[-85.93,13.945],[-85.544,13.626],[-85.159,13.307],[-84.774,12.987],[-84.391,12.666],[-84.009,12.345],[-83.628,12.024],[-83.248,11.702],[-82.868,11.379],[-82.49,11.056],[-82.112,10.732],[-81.735,10.408],[-81.359,10.084],[-80.984,9.759],[-80.609,9.434],[-80.236,9.108],[-79.862,8.782],[-79.49,8.456],[-79.118,8.129],[-78.746,7.802],[-78.376,7.474],[-78.006,7.146],[-77.636,6.818],[-77.267,6.49],[-76.898,6.161],[-76.53,5.833],[-76.162,5.503],[-75.795,5.174],[-75.428,4.845],[-75.061,4.515],[-74.695,4.185],[-74.329,3.855],[-73.963,3.525],[-73.598,3.194],[-73.233,2.864],[-72.868,2.533],[-72.503,2.202],[-72.138,1.872],[-71.774,1.541],[-71.409,1.21],[-71.782,0.894],[-72.154,0.578],[-72.526,0.262],[-72.899,-0.053],[-73.271,-0.369],[-72.911,-0.706],[-72.551,-1.043],[-72.191,-1.38],[-71.83,-1.716],[-71.47,-2.053],[-71.109,-2.389],[-70.748,-2.726],[-70.387,-3.062],[-70.026,-3.398],[-69.664,-3.734],[-69.303,-4.07],[-68.94,-4.406],[-68.578,-4.742],[-68.215,-5.077],[-67.852,-5.412],[-67.489,-5.747],[-67.125,-6.082],[-66.76,-6.416],[-66.395,-6.75],[-66.03,-7.084],[-65.664,-7.418],[-65.297,-7.751],[-64.93,-8.085],[-64.563,-8.417],[-64.194,-8.75],[-63.825,-9.082],[-63.456,-9.413],[-63.085,-9.745],[-62.714,-10.076]]}},{"type":"Feature","properties":{"boundary_type":"ridge","feature_type":"gpml:MidOceanRidge","polarity":null,"overriding_plate_id":null,"subducting_plate_id":null,"plate_ids":[801,77030],"name":"Aus-DML MoR"},"geometry":{"type":"LineString","coordinates":[[129.098,-29.672],[128.689,-29.35],[128.282,-29.027],[127.877,-28.703],[127.475,-28.377],[127.076,-28.051],[126.679,-27.723],[126.284,-27.394],[125.892,-27.064],[125.502,-26.733],[125.114,-26.401],[124.729,-26.068],[124.345,-25.734],[123.964,-25.399],[123.585,-25.062],[123.208,-24.725],[122.833,-24.387],[122.508,-24.767],[122.181,-25.145],[121.78,-24.826],[121.381,-24.506],[120.984,-24.185],[120.589,-23.862],[120.196,-23.539],[119.805,-23.215],[119.416,-22.889],[119.029,-22.563],[118.643,-22.236],[118.259,-21.908],[117.877,-21.579],[117.497,-21.249],[117.756,-20.984],[118.014,-20.719],[117.618,-20.397],[117.224,-20.075],[116.831,-19.752],[116.439,-19.427],[116.05,-19.103],[115.661,-18.777],[115.275,-18.45],[114.889,-18.123],[114.505,-17.795],[114.123,-17.466],[113.742,-17.136],[113.362,-16.806],[113.115,-17.034],[112.867,-17.262],[112.519,-16.891],[112.173,-16.519],[111.828,-16.146],[111.484,-15.773],[111.142,-15.4],[110.801,-15.025]]}},{"type":"Feature","properties":{"boundary_type":"ridge","feature_type":"gpml:MidOceanRidge","polarity":null,"overriding_plate_id":null,"subducting_plate_id":null,"plate_ids":[3003,98043],"name":"MoR"},"geometry":{"type":"LineString","coordinates":[[-62.14,-9.822],[-62.082,-10.292],[-62.024,-10.762],[-61.966,-11.231],[-61.908,-11.701],[-61.85,-12.171],[-61.791,-12.641],[-61.733,-13.11],[-61.674,-13.58],[-61.614,-14.05],[-61.555,-14.519],[-61.495,-14.989],[-61.435,-15.458],[-61.375,-15.928],[-61.314,-16.398],[-61.254,-16.867],[-61.193,-17.337],[-61.131,-17.806],[-61.069,-18.276],[-60.621,-18.288],[-60.173,-18.299],[-59.725,-18.31],[-59.277,-18.319],[-59.206,-18.809],[-59.135,-19.299],[-59.064,-19.789],[-58.992,-20.279],[-58.92,-20.77],[-58.848,-21.26],[-58.775,-21.75],[-58.701,-22.24],[-58.627,-22.73],[-58.552,-23.22],[-58.477,-23.71],[-58.401,-24.199],[-58.325,-24.689],[-58.248,-25.179],[-58.17,-25.669],[-58.092,-26.158],[-58.013,-26.648],[-57.934,-27.138],[-57.854,-27.627],[-57.773,-28.117],[-57.691,-28.606],[-57.608,-29.096],[-57.525,-29.585],[-57.441,-30.075],[-57.356,-30.564],[-57.271,-31.053],[-56.777,-31.048],[-56.284,-31.041],[-55.79,-31.032],[-55.297,-31.021],[-55.193,-31.509],[-55.088,-31.997],[-54.981,-32.484],[-54.873,-32.972],[-54.765,-33.459],[-54.655,-33.947],[-54.543,-34.434],[-54.431,-34.922],[-54.317,-35.409],[-54.201,-35.896],[-54.085,-36.383],[-53.966,-36.869],[-53.847,-37.356],[-53.725,-37.843],[-53.602,-38.329],[-53.478,-38.815],[-53.351,-39.302],[-53.223,-39.788],[-53.093,-40.274],[-52.962,-40.759],[-52.828,-41.245],[-52.692,-41.73],[-52.554,-42.216],[-52.414,-42.701],[-52.272,-43.186],[-52.128,-43.67],[-51.981,-44.155],[-51.832,-44.639],[-51.68,-45.124],[-51.526,-45.608],[-50.911,-45.704],[-50.294,-45.797],[-49.675,-45.886],[-49.054,-45.972],[-48.826,-46.435],[-48.594,-46.898],[-48.358,-47.36],[-48.117,-47.822],[-47.873,-48.283],[-47.624,-48.744],[-47.37,-49.204],[-47.112,-49.664],[-46.848,-50.123],[-46.58,-50.581],[-46.306,-51.039],[-46.027,-51.496],[-45.742,-51.952],[-45.452,-52.408],[-45.155,-52.863],[-44.852,-53.317],[-44.542,-53.771],[-44.226,-54.223],[-43.903,-54.675],[-43.572,-55.126],[-43.234,-55.576],[-42.888,-56.025],[-42.534,-56.473],[-42.172,-56.92],[-41.801,-57.366],[-41.42,-57.811],[-41.03,-58.254],[-40.631,-58.697],[-40.221,-59.138]]}},{"type":"Feature","properties":{"boundary_type":"ridge","feature_type":"gpml:MidOceanRidge","polarity":null,"overriding_plate_id":null,"subducting_plate_id":null,"plate_ids":[714,77144],"name":"Hoggar-Borborema divergence"},"geometry":{"type":"LineString","coordinates":[[22.745,-48.138],[23.307,-47.984],[23.865,-47.827],[24.419,-47.667],[24.092,-47.28],[24.636,-47.143],[25.176,-47.003]]}},{"type":"Feature","properties":{"boundary_type":"ridge","feature_type":"gpml:MidOceanRidge","polarity":null,"overriding_plate_id":null,"subducting_plate_id":null,"plate_ids":[714,760],"name":"Hoggar-Borborema divergence"},"geometry":{"type":"LineString","coordinates":[[25.176,-47.003],[25.855,-46.822],[26.53,-46.637]]}},{"type":"Feature","properties":{"boundary_type":"ridge","feature_type":"gpml:MidOceanRidge","polarity":null,"overriding_plate_id":null,"subducting_plate_id":null,"plate_ids":[760,760],"name":"Hoggar-Borborema divergence"},"geometry":{"type":"LineString","coordinates":[[26.53,-46.637],[27.127,-46.47],[27.72,-46.299],[27.46,-45.957],[28.074,-45.769],[28.683,-45.578],[29.289,-45.384],[29.89,-45.186],[30.487,-44.986],[31.08,-44.782],[30.937,-44.519],[30.796,-44.255],[31.341,-44.049],[31.882,-43.84],[32.42,-43.629],[32.953,-43.415]]}},{"type":"Feature","properties":{"boundary_type":"ridge","feature_type":"gpml:MidOceanRidge","polarity":null,"overriding_plate_id":null,"subducting_plate_id":null,"plate_ids":[715,760],"name":"Hoggar-Borborema divergence"},"geometry":{"type":"LineString","coordinates":[[32.953,-43.415],[33.375,-43.243],[33.795,-43.07]]}},{"type":"Feature","properties":{"boundary_type":"ridge","feature_type":"gpml:MidOceanRidge","polarity":null,"overriding_plate_id":null,"subducting_plate_id":null,"plate_ids":[98044],"name":"india closure"},"geometry":{"type":"LineString","coordinates":[[8.206,20.575],[8.305,20.687]]}},{"type":"Feature","properties":{"boundary_type":"ridge","feature_type":"gpml:MidOceanRidge","polarity":null,"overriding_plate_id":null,"subducting_plate_id":null,"plate_ids":[580,98044],"name":"india closure"},"geometry":{"type":"LineString","coordinates":[[8.305,20.687],[8.642,21.072],[8.981,21.455],[9.322,21.838],[9.665,22.22],[10.01,22.602],[10.356,22.982],[10.705,23.362],[11.055,23.741],[11.408,24.12],[11.763,24.497],[12.12,24.874],[12.479,25.25],[12.84,25.625],[13.203,25.999],[13.569,26.372],[13.937,26.744],[14.308,27.116],[14.681,27.486],[15.056,27.855],[15.435,28.224],[15.815,28.591],[16.199,28.957],[16.585,29.322],[16.974,29.686],[17.366,30.049],[17.76,30.41],[18.158,30.771],[18.558,31.13],[18.962,31.488],[19.368,31.845],[19.778,32.2],[20.191,32.554],[20.607,32.907],[21.027,33.258],[21.45,33.608],[21.264,33.994],[21.076,34.38],[20.886,34.766],[20.695,35.152],[20.502,35.537],[20.908,35.909],[21.319,36.28],[21.733,36.649],[22.152,37.017],[22.574,37.383],[23.001,37.748],[23.431,38.111],[23.866,38.473],[24.306,38.833],[24.75,39.192],[25.198,39.548],[25.651,39.903],[26.109,40.257],[26.572,40.608],[27.039,40.957],[27.512,41.305],[27.989,41.651],[28.472,41.994],[28.96,42.336],[29.453,42.676],[29.951,43.013],[30.455,43.348],[30.965,43.681],[31.48,44.012],[32.001,44.34],[32.528,44.666],[33.061,44.99],[33.6,45.311],[34.145,45.629],[34.696,45.945],[35.254,46.258],[35.817,46.568],[36.388,46.876],[36.965,47.181],[37.548,47.482],[38.138,47.781],[38.735,48.077],[39.339,48.37],[39.95,48.659],[40.568,48.945],[41.192,49.228],[41.824,49.507],[42.464,49.783],[43.11,50.056],[43.764,50.324],[44.425,50.589],[45.094,50.851],[45.77,51.108],[46.454,51.361],[46.244,51.739],[46.031,52.115],[45.814,52.492],[45.593,52.868]]}},{"type":"Feature","properties":{"boundary_type":"ridge","feature_type":"gpml:MidOceanRidge","polarity":null,"overriding_plate_id":null,"subducting_plate_id":null,"plate_ids":[501,98044],"name":"india closure"},"geometry":{"type":"LineString","coordinates":[[45.593,52.868],[45.486,53.046],[46.193,53.3],[46.907,53.55],[47.63,53.796],[48.362,54.037],[49.102,54.273],[49.85,54.505],[50.607,54.732],[51.372,54.955],[52.146,55.172],[52.928,55.385],[53.719,55.593],[54.517,55.795],[55.324,55.992],[56.139,56.184],[56.963,56.371],[57.794,56.552],[58.633,56.727],[59.48,56.897],[60.334,57.061],[61.196,57.219],[62.065,57.371],[62.942,57.517],[63.825,57.657],[64.715,57.791],[65.611,57.919],[66.514,58.04],[67.422,58.154],[68.336,58.263],[69.256,58.364],[70.181,58.459],[71.11,58.548],[72.044,58.629],[72.983,58.704],[73.925,58.772],[74.871,58.833],[75.82,58.887],[76.771,58.934]]}},{"type":"Feature","properties":{"boundary_type":"ridge","feature_type":"gpml:MidOceanRidge","polarity":null,"overriding_plate_id":null,"subducting_plate_id":null,"plate_ids":[601,98044],"name":"india closure"},"geometry":{"type":"LineString","coordinates":[[76.771,58.934],[77.726,58.974],[78.684,59.008],[79.643,59.034],[80.603,59.053],[80.978,58.598],[81.343,58.143],[81.699,57.687],[82.046,57.23],[82.384,56.772],[83.288,56.789],[84.192,56.799],[85.096,56.804],[86.0,56.801],[86.905,56.792],[87.808,56.776],[88.711,56.754],[89.612,56.726],[90.512,56.691],[91.41,56.649],[92.306,56.601],[93.2,56.546],[94.091,56.486],[94.979,56.418],[95.863,56.345],[96.744,56.265],[97.621,56.179],[98.494,56.087],[99.363,55.989],[100.227,55.884],[101.087,55.774],[101.942,55.657],[102.791,55.535],[103.635,55.407],[104.473,55.273],[105.306,55.133],[106.132,54.988],[106.953,54.837],[107.767,54.681],[108.575,54.519],[109.377,54.352],[110.172,54.18],[110.96,54.002],[111.742,53.82],[112.516,53.632],[113.284,53.439],[114.045,53.242],[114.798,53.04],[115.545,52.833],[115.93,53.128],[116.32,53.422],[116.716,53.715],[117.118,54.007],[117.87,53.786],[118.614,53.561],[119.35,53.331],[120.078,53.096],[120.798,52.858],[121.51,52.615],[122.214,52.367],[122.911,52.116],[123.599,51.861],[124.28,51.601],[124.889,51.82],[125.505,52.037],[126.126,52.25],[126.754,52.459],[127.387,52.665],[128.027,52.868],[128.659,52.633],[129.284,52.394],[129.902,52.152],[130.514,51.907]]}},{"type":"Feature","properties":{"boundary_type":"ridge","feature_type":"gpml:MidOceanRidge","polarity":null,"overriding_plate_id":null,"subducting_plate_id":null,"plate_ids":[801,8011],"name":"NAC-SAC MOR"},"geometry":{"type":"LineString","coordinates":[[123.558,20.479],[123.125,20.531],[122.692,20.582],[122.259,20.632],[122.158,20.197],[122.057,19.762],[121.957,19.327],[121.857,18.892],[121.758,18.457],[121.27,18.469],[120.782,18.48],[120.294,18.489],[119.806,18.497],[119.318,18.504],[118.83,18.51],[118.342,18.515],[117.854,18.518],[117.366,18.52],[116.877,18.521],[116.389,18.52],[116.209,18.175],[116.03,17.83],[115.852,17.484],[115.674,17.138],[115.25,17.201],[114.826,17.264],[114.402,17.325],[113.977,17.386]]}},{"type":"Feature","properties":{"boundary_type":"ridge","feature_type":"gpml:MidOceanRidge","polarity":null,"overriding_plate_id":null,"subducting_plate_id":null,"plate_ids":[101,801],"name":"Australia-Laurentia spreading"},"geometry":{"type":"LineString","coordinates":[[144.046,-20.065],[144.479,-19.878],[144.911,-19.689],[145.342,-19.5],[145.772,-19.309],[146.201,-19.118],[146.588,-18.949],[146.973,-18.779],[147.358,-18.608],[147.742,-18.437],[148.126,-18.265],[147.954,-17.841],[147.782,-17.418],[147.612,-16.995],[147.442,-16.571],[147.273,-16.147],[147.105,-15.723],[146.938,-15.299],[147.394,-15.067],[147.849,-14.834],[148.304,-14.6],[148.757,-14.365],[149.21,-14.129],[149.662,-13.892],[150.112,-13.655],[150.562,-13.416],[151.011,-13.177],[151.459,-12.937],[151.906,-12.697],[152.352,-12.455],[152.798,-12.213],[153.242,-11.97],[153.047,-11.534],[152.853,-11.097],[152.66,-10.66],[152.466,-10.223],[152.224,-9.873],[151.983,-9.522],[151.742,-9.171],[151.501,-8.82],[151.261,-8.469],[151.657,-8.217],[152.053,-7.966],[152.448,-7.714],[152.843,-7.461],[153.238,-7.208],[153.632,-6.955],[154.025,-6.702],[154.418,-6.448],[154.811,-6.194],[155.203,-5.939],[155.595,-5.685],[155.345,-5.3],[155.094,-4.915],[154.844,-4.531],[154.594,-4.146],[154.345,-3.761],[154.095,-3.376],[153.765,-3.035],[153.435,-2.694],[153.105,-2.353],[152.776,-2.012],[152.446,-1.67],[152.117,-1.329],[152.403,-0.974],[152.689,-0.619],[152.975,-0.263],[153.261,0.092],[153.547,0.447],[153.833,0.802],[154.119,1.157],[154.405,1.512],[154.089,1.847],[153.774,2.182],[153.458,2.517],[153.142,2.852],[152.825,3.187],[152.472,3.463],[152.119,3.739],[151.765,4.015],[151.411,4.291],[151.057,4.567],[151.308,4.851],[151.56,5.136],[151.811,5.42],[152.063,5.705]]}},{"type":"Feature","properties":{"boundary_type":"ridge","feature_type":"gpml:MidOceanRidge","polarity":null,"overriding_plate_id":null,"subducting_plate_id":null,"plate_ids":[101,77030],"name":"CLB-Laur MoR"},"geometry":{"type":"LineString","coordinates":[[155.63,-38.561],[155.145,-38.275],[154.664,-37.987],[154.186,-37.697],[153.712,-37.405],[153.242,-37.112],[152.776,-36.816],[152.313,-36.519],[151.854,-36.22],[151.398,-35.919],[150.945,-35.617],[150.496,-35.313],[150.051,-35.007],[149.609,-34.7],[149.17,-34.391],[149.481,-34.015],[149.79,-33.639],[150.096,-33.261],[150.399,-32.883],[149.991,-32.521],[149.586,-32.157],[149.184,-31.792],[148.785,-31.426],[148.39,-31.059],[147.997,-30.69],[147.608,-30.32],[147.221,-29.949],[146.837,-29.577],[146.457,-29.204],[146.078,-28.83],[145.703,-28.454],[145.33,-28.078],[144.96,-27.701],[145.271,-27.321],[145.579,-26.941],[145.885,-26.561],[146.19,-26.18],[146.492,-25.798],[146.793,-25.415],[147.091,-25.032],[147.388,-24.649],[147.682,-24.265],[147.976,-23.88],[147.617,-23.544],[147.261,-23.208],[146.906,-22.871],[146.553,-22.534],[146.202,-22.195],[145.852,-21.856],[145.505,-21.516],[145.158,-21.175],[144.814,-20.834],[144.471,-20.492],[144.129,-20.149]]}},{"type":"Feature","properties":{"boundary_type":"ridge","feature_type":"gpml:MidOceanRidge","polarity":null,"overriding_plate_id":null,"subducting_plate_id":null,"plate_ids":[101,801],"name":"CLB-Laur MoR"},"geometry":{"type":"LineString","coordinates":[[144.129,-20.149],[144.046,-20.065]]}},{"type":"Feature","properties":{"boundary_type":"ridge","feature_type":"gpml:MidOceanRidge","polarity":null,"overriding_plate_id":null,"subducting_plate_id":null,"plate_ids":[101,601],"name":"Proto-Pacific ridge"},"geometry":{"type":"LineString","coordinates":[[120.96,35.129],[121.263,35.538],[121.569,35.947],[121.878,36.354],[122.19,36.76],[122.506,37.166],[122.825,37.571],[123.147,37.975],[123.473,38.378],[123.803,38.78],[124.136,39.182],[124.474,39.582],[124.815,39.981],[125.16,40.38],[125.509,40.777],[125.863,41.173],[126.22,41.568],[125.818,41.951],[125.412,42.333],[125.0,42.713],[124.583,43.091],[124.161,43.468],[123.734,43.844],[123.301,44.218],[123.665,44.637],[124.034,45.055],[124.409,45.472],[124.789,45.888],[125.175,46.302],[125.567,46.715],[125.965,47.127],[126.369,47.537],[126.78,47.946],[127.197,48.354],[127.621,48.76],[128.051,49.164],[127.549,49.507],[127.039,49.848],[126.521,50.187],[125.997,50.523]]}},{"type":"Feature","properties":{"boundary_type":"ridge","feature_type":"gpml:MidOceanRidge","polarity":null,"overriding_plate_id":null,"subducting_plate_id":null,"plate_ids":[101,714],"name":""},"geometry":{"type":"LineString","coordinates":[[146.926,-52.836],[146.728,-53.319],[146.525,-53.802],[146.318,-54.285],[146.105,-54.767],[145.888,-55.249],[145.665,-55.731],[145.437,-56.212],[145.202,-56.693],[144.962,-57.173],[144.716,-57.653],[144.462,-58.132],[144.202,-58.611],[143.935,-59.089],[143.66,-59.566],[143.378,-60.043],[143.087,-60.52],[142.787,-60.996],[142.478,-61.471],[142.16,-61.945],[141.831,-62.419],[141.492,-62.891],[141.142,-63.363],[140.78,-63.834],[140.406,-64.305],[140.019,-64.774],[139.619,-65.242],[139.204,-65.709],[138.773,-66.175],[138.327,-66.639],[137.863,-67.103],[137.381,-67.564],[136.881,-68.025],[136.36,-68.484],[135.817,-68.941],[135.251,-69.396],[134.661,-69.85],[134.025,-70.287],[133.361,-70.722],[132.667,-71.154],[131.942,-71.584],[131.184,-72.011],[130.39,-72.435],[129.558,-72.856],[128.686,-73.273],[127.771,-73.686],[126.81,-74.095],[125.8,-74.499],[124.738,-74.899],[123.619,-75.294],[122.441,-75.682],[121.198,-76.065],[119.888,-76.441],[118.505,-76.81],[117.045,-77.171],[115.502,-77.524],[113.873,-77.867],[115.493,-78.2],[117.204,-78.524],[119.011,-78.838],[120.92,-79.14],[122.934,-79.429],[125.058,-79.705],[127.294,-79.967],[129.644,-80.212],[132.111,-80.441],[134.692,-80.651],[133.134,-81.047],[131.436,-81.436],[129.578,-81.816],[127.544,-82.187],[125.31,-82.548],[122.855,-82.896],[120.154,-83.23],[117.181,-83.548],[113.912,-83.846],[110.323,-84.123],[106.398,-84.375],[102.128,-84.598],[105.037,-85.022],[108.475,-85.431],[112.57,-85.821],[117.473,-86.185],[123.355,-86.515],[130.376,-86.802],[138.624,-87.031],[148.022,-87.191],[158.236,-87.267],[168.685,-87.253],[178.702,-87.15],[-172.229,-86.968],[-164.357,-86.72],[-157.698,-86.418],[-151.804,-86.745],[-144.69,-87.03],[-136.23,-87.261],[-126.474,-87.422],[-115.776,-87.5],[-104.797,-87.487],[-94.306,-87.385],[-84.888,-87.203],[-76.805,-86.956],[-70.046,-86.658],[-64.455,-86.322],[-59.837,-85.957],[-56.003,-85.569],[-52.796,-85.165],[-50.089,-84.749],[-47.783,-84.323],[-45.802,-83.888],[-44.084,-83.448],[-42.582,-83.002],[-41.261,-82.552],[-40.09,-82.099],[-43.338,-81.958],[-46.466,-81.792],[-49.462,-81.603],[-52.32,-81.393],[-55.037,-81.162],[-57.612,-80.913],[-60.045,-80.647],[-62.342,-80.366],[-64.506,-80.07],[-66.543,-79.76],[-68.46,-79.439],[-66.753,-79.061],[-65.16,-78.674],[-63.672,-78.278],[-62.281,-77.876],[-60.979,-77.467],[-59.758,-77.052],[-58.612,-76.632],[-57.535,-76.207],[-56.522,-75.778],[-55.567,-75.344],[-54.666,-74.907],[-53.814,-74.467],[-53.009,-74.023],[-52.246,-73.577],[-53.565,-73.314],[-54.844,-73.043],[-56.082,-72.764],[-57.282,-72.477],[-58.445,-72.184],[-59.57,-71.884],[-60.659,-71.578],[-61.714,-71.266],[-62.735,-70.948],[-63.724,-70.624],[-64.681,-70.295],[-65.607,-69.962],[-64.58,-69.626],[-63.584,-69.285],[-62.62,-68.938],[-61.685,-68.585],[-60.78,-68.228],[-59.903,-67.866],[-59.053,-67.499],[-58.228,-67.128],[-57.429,-66.753],[-56.654,-66.374],[-55.902,-65.991],[-55.173,-65.605],[-54.465,-65.215],[-53.778,-64.822],[-53.11,-64.426],[-52.462,-64.027],[-51.831,-63.625],[-51.219,-63.221],[-50.623,-62.814],[-50.044,-62.404],[-49.481,-61.992],[-48.932,-61.578],[-48.398,-61.162],[-47.878,-60.744],[-47.371,-60.323],[-46.878,-59.901],[-46.396,-59.477],[-45.927,-59.052],[-45.469,-58.624],[-45.022,-58.196]]}},{"type":"Feature","properties":{"boundary_type":"transform","feature_type":"gpml:Transform","polarity":null,"overriding_plate_id":null,"subducting_plate_id":null,"plate_ids":[760,77144],"name":"4.50 dextral fault"},"geometry":{"type":"LineString","coordinates":[[25.176,-47.003],[24.924,-46.568],[24.676,-46.132],[24.432,-45.696],[24.192,-45.259],[23.955,-44.822],[23.722,-44.384],[23.492,-43.946],[23.266,-43.507],[23.043,-43.068],[22.823,-42.628],[22.744,-42.216],[22.666,-41.804],[22.589,-41.392],[22.513,-40.979],[22.438,-40.567]]}},{"type":"Feature","properties":{"boundary_type":"transform","feature_type":"gpml:Transform","polarity":null,"overriding_plate_id":null,"subducting_plate_id":null,"plate_ids":[101,4012],"name":"transform"},"geometry":{"type":"LineString","coordinates":[[-120.584,-25.203],[-120.139,-25.476],[-119.693,-25.747],[-119.245,-26.018],[-118.794,-26.286],[-118.341,-26.554],[-117.887,-26.82],[-117.43,-27.084],[-116.971,-27.347],[-116.51,-27.609],[-116.046,-27.869],[-115.581,-28.127],[-115.113,-28.384],[-114.643,-28.639],[-114.151,-28.753],[-113.659,-28.864],[-113.165,-28.974],[-112.671,-29.082],[-112.175,-29.188],[-111.678,-29.292],[-111.18,-29.395]]}},{"type":"Feature","properties":{"boundary_type":"transform","feature_type":"gpml:Transform","polarity":null,"overriding_plate_id":null,"subducting_plate_id":null,"plate_ids":[101,8011],"name":"NAC transform"},"geometry":{"type":"LineString","coordinates":[[119.062,35.154],[119.272,34.73],[119.48,34.306],[119.686,33.882],[119.915,33.423],[120.141,32.964],[120.365,32.504],[120.587,32.044],[120.807,31.584],[121.025,31.123],[121.24,30.662],[121.454,30.201],[121.665,29.739],[121.874,29.277],[122.082,28.814],[122.235,28.389],[122.387,27.964],[122.537,27.539],[122.687,27.113],[122.835,26.687],[122.982,26.262],[123.128,25.836],[123.273,25.409],[123.422,24.943],[123.57,24.476],[123.717,24.01],[123.699,23.547],[123.682,23.085],[123.665,22.622],[123.647,22.159],[123.63,21.697],[123.613,21.234],[123.596,20.772],[123.558,20.479]]}},{"type":"Feature","properties":{"boundary_type":"transform","feature_type":"gpml:Transform","polarity":null,"overriding_plate_id":null,"subducting_plate_id":null,"plate_ids":[101,801],"name":"NAC transform"},"geometry":{"type":"LineString","coordinates":[[123.558,20.479],[123.546,20.387]]}},{"type":"Feature","properties":{"boundary_type":"transform","feature_type":"gpml:Transform","polarity":null,"overriding_plate_id":null,"subducting_plate_id":null,"plate_ids":[5031,5032],"name":"transform"},"geometry":{"type":"LineString","coordinates":[[58.194,-19.475],[58.178,-19.874],[58.163,-20.273],[58.148,-20.672],[58.133,-21.071],[58.04,-21.407],[57.946,-21.743],[57.853,-22.079]]}},{"type":"Feature","properties":{"boundary_type":"transform","feature_type":"gpml:Transform","polarity":null,"overriding_plate_id":null,"subducting_plate_id":null,"plate_ids":[701,715],"name":"transform"},"geometry":{"type":"LineString","coordinates":[[58.602,-26.092],[58.609,-26.489],[58.617,-26.885],[58.625,-27.281]]}},{"type":"Feature","properties":{"boundary_type":"transform","feature_type":"gpml:Transform","polarity":null,"overriding_plate_id":null,"subducting_plate_id":null,"plate_ids":[715,98043],"name":"8.50 fault?"},"geometry":{"type":"LineString","coordinates":[[18.768,-29.693],[18.962,-30.153],[19.159,-30.612],[19.357,-31.072],[19.558,-31.531],[19.76,-31.989],[19.964,-32.448],[20.122,-32.846],[20.28,-33.244],[20.441,-33.642],[20.603,-34.04],[20.766,-34.437],[20.996,-34.776],[21.229,-35.115],[21.463,-35.453]]}},{"type":"Feature","properties":{"boundary_type":"transform","feature_type":"gpml:Transform","polarity":null,"overriding_plate_id":null,"subducting_plate_id":null,"plate_ids":[715,760],"name":"8.50 fault?"},"geometry":{"type":"LineString","coordinates":[[21.463,-35.453],[21.718,-35.818],[21.976,-36.183],[22.236,-36.547],[22.498,-36.91]]}},{"type":"Feature","properties":{"boundary_type":"transform","feature_type":"gpml:Transform","polarity":null,"overriding_plate_id":null,"subducting_plate_id":null,"plate_ids":[715,760],"name":"Assode-Issalane transform"},"geometry":{"type":"LineString","coordinates":[[33.795,-43.07],[33.602,-42.927],[33.017,-42.748],[32.435,-42.565],[31.857,-42.38],[31.283,-42.192],[30.711,-42.001],[30.213,-41.754],[29.718,-41.504],[29.227,-41.253],[28.74,-41.0],[28.283,-40.683],[27.831,-40.365],[27.383,-40.045],[26.939,-39.723],[26.52,-39.487],[26.105,-39.249],[25.692,-39.01],[25.22,-38.696],[24.753,-38.38],[24.43,-38.16],[24.109,-37.938],[23.702,-37.683],[23.298,-37.427],[22.897,-37.169],[22.498,-36.91]]}},{"type":"Feature","properties":{"boundary_type":"transform","feature_type":"gpml:Transform","polarity":null,"overriding_plate_id":null,"subducting_plate_id":null,"plate_ids":[3003,98044],"name":"Isakov Island arc transform"},"geometry":{"type":"LineString","coordinates":[[-89.059,16.472],[-89.553,16.356],[-90.047,16.238],[-90.54,16.12],[-91.032,16.0],[-91.524,15.879],[-92.015,15.758],[-92.506,15.635],[-92.996,15.51],[-93.485,15.385],[-93.974,15.259],[-94.462,15.132],[-94.95,15.003],[-95.437,14.874],[-95.923,14.744],[-96.409,14.612],[-96.895,14.48],[-97.379,14.346],[-97.863,14.212],[-98.347,14.077],[-98.83,13.94],[-99.312,13.803],[-99.794,13.665],[-100.275,13.526],[-100.756,13.386],[-101.236,13.245],[-101.716,13.103],[-102.195,12.96]]}},{"type":"Feature","properties":{"boundary_type":"transform","feature_type":"gpml:Transform","polarity":null,"overriding_plate_id":null,"subducting_plate_id":null,"plate_ids":[715,760],"name":"8.50 fault?"},"geometry":{"type":"LineString","coordinates":[[32.953,-43.415],[33.577,-43.57],[34.205,-43.723],[34.835,-43.871],[35.468,-44.016],[36.105,-44.158],[36.745,-44.296],[37.387,-44.431],[38.033,-44.562],[38.681,-44.689],[39.332,-44.812],[39.986,-44.932],[40.643,-45.048],[41.224,-45.258],[41.81,-45.464],[42.401,-45.667],[42.995,-45.867]]}},{"type":"Feature","properties":{"boundary_type":"transform","feature_type":"gpml:Transform","polarity":null,"overriding_plate_id":null,"subducting_plate_id":null,"plate_ids":[701,760],"name":"8.50 fault?"},"geometry":{"type":"LineString","coordinates":[[42.995,-45.867],[43.555,-46.051],[44.118,-46.233],[44.685,-46.411],[45.256,-46.587],[45.831,-46.76],[46.439,-47.007],[47.053,-47.251],[47.673,-47.491],[48.298,-47.728],[48.929,-47.961],[49.566,-48.191],[50.208,-48.418],[50.856,-48.64],[51.51,-48.859],[51.67,-48.966]]}},{"type":"Feature","properties":{"boundary_type":"transform","feature_type":"gpml:Transform","polarity":null,"overriding_plate_id":null,"subducting_plate_id":null,"plate_ids":[801,77030],"name":"TOAST-DML compressive(?) transform"},"geometry":{"type":"LineString","coordinates":[[110.801,-15.025],[110.352,-15.273],[109.903,-15.519],[109.443,-15.683],[108.983,-15.846],[108.522,-16.008],[108.061,-16.169],[107.598,-16.329],[107.135,-16.488],[106.671,-16.646],[106.248,-16.871],[105.825,-17.095],[105.4,-17.319],[104.974,-17.541],[104.548,-17.763],[104.12,-17.984],[103.691,-18.204],[103.261,-18.422],[102.795,-18.608],[102.329,-18.792],[101.861,-18.976],[101.392,-19.158],[100.922,-19.339],[100.451,-19.518],[99.991,-19.649],[99.529,-19.778],[99.067,-19.906],[98.604,-20.034],[98.14,-20.159],[97.675,-20.284],[97.21,-20.407]]}},{"type":"Feature","properties":{"boundary_type":"transform","feature_type":"gpml:Transform","polarity":null,"overriding_plate_id":null,"subducting_plate_id":null,"plate_ids":[501,77030],"name":"TOAST-DML compressive(?) transform"},"geometry":{"type":"LineString","coordinates":[[97.21,-20.407],[96.715,-20.537],[96.29,-20.593],[95.864,-20.648],[95.439,-20.701],[95.013,-20.754]]}},{"type":"Feature","properties":{"boundary_type":"transform","feature_type":"gpml:Transform","polarity":null,"overriding_plate_id":null,"subducting_plate_id":null,"plate_ids":[501,8011],"name":"India-Australia transform"},"geometry":{"type":"LineString","coordinates":[[94.409,10.541],[94.351,10.052],[94.445,9.646],[94.538,9.239],[94.632,8.833],[94.725,8.427],[94.817,8.021]]}},{"type":"Feature","properties":{"boundary_type":"transform","feature_type":"gpml:Transform","polarity":null,"overriding_plate_id":null,"subducting_plate_id":null,"plate_ids":[501,801],"name":"India-Australia transform"},"geometry":{"type":"LineString","coordinates":[[94.817,8.021],[94.927,7.539],[95.036,7.058],[95.146,6.577],[95.255,6.095],[95.364,5.614],[95.472,5.132],[95.581,4.651],[95.689,4.169],[95.797,3.687],[95.905,3.206],[96.013,2.724],[96.121,2.243],[96.229,1.761],[96.337,1.28],[96.444,0.798],[96.552,0.316],[96.66,-0.165],[96.767,-0.647],[96.95,-1.082],[97.133,-1.518],[97.316,-1.954],[97.499,-2.389],[97.682,-2.825],[97.865,-3.26],[98.048,-3.696],[98.232,-4.131],[98.416,-4.566],[98.6,-5.002],[98.784,-5.437],[98.968,-5.872],[99.153,-6.307],[99.338,-6.743],[99.325,-7.231],[99.312,-7.72],[99.298,-8.209],[99.285,-8.698],[99.272,-9.186],[99.258,-9.675],[99.245,-10.164],[99.231,-10.652],[99.187,-11.126],[99.142,-11.599],[99.098,-12.072],[99.053,-12.545],[99.008,-13.018],[98.963,-13.491],[98.917,-13.964],[98.872,-14.438],[98.78,-14.881],[98.687,-15.324],[98.594,-15.767],[98.501,-16.21],[98.407,-16.653],[98.313,-17.096],[98.219,-17.539],[98.124,-17.981],[98.028,-18.424],[97.866,-18.821],[97.703,-19.218],[97.54,-19.615],[97.375,-20.011],[97.21,-20.407]]}},{"type":"Feature","properties":{"boundary_type":"transform","feature_type":"gpml:Transform","polarity":null,"overriding_plate_id":null,"subducting_plate_id":null,"plate_ids":[501],"name":"India closure transform"},"geometry":{"type":"LineString","coordinates":[[7.166,22.676],[7.376,22.256],[7.585,21.836],[7.794,21.416],[8.001,20.996],[8.206,20.575]]}},{"type":"Feature","properties":{"boundary_type":"transform","feature_type":"gpml:Transform","polarity":null,"overriding_plate_id":null,"subducting_plate_id":null,"plate_ids":[501,98044],"name":"India closure transform"},"geometry":{"type":"LineString","coordinates":[[8.206,20.575],[8.399,20.179],[8.591,19.782],[8.781,19.386],[8.971,18.989],[9.16,18.592],[9.348,18.194]]}},{"type":"Feature","properties":{"boundary_type":"transform","feature_type":"gpml:Transform","polarity":null,"overriding_plate_id":null,"subducting_plate_id":null,"plate_ids":[501,98043],"name":"India closure transform"},"geometry":{"type":"LineString","coordinates":[[9.348,18.194],[9.561,17.742],[9.773,17.29],[9.984,16.837],[10.193,16.384],[10.402,15.931],[10.61,15.478],[10.817,15.025],[11.023,14.571],[11.228,14.118],[11.433,13.664],[11.636,13.209],[11.839,12.755],[12.041,12.301],[12.243,11.846],[12.443,11.392],[12.643,10.937],[12.843,10.482],[13.042,10.027],[13.24,9.571],[13.438,9.116],[13.635,8.661],[13.832,8.205],[14.029,7.749],[14.225,7.294],[14.42,6.838],[14.615,6.382],[14.81,5.926],[15.005,5.47],[15.199,5.014],[15.393,4.558],[15.587,4.102],[15.78,3.645],[15.973,3.189],[16.167,2.733],[16.36,2.276],[16.552,1.82],[16.745,1.364],[16.938,0.907],[17.13,0.451],[17.323,-0.006],[17.516,-0.462],[17.708,-0.918],[17.901,-1.375],[18.094,-1.831],[18.287,-2.288],[18.48,-2.744],[18.673,-3.2],[18.866,-3.657],[19.06,-4.113],[19.253,-4.569],[19.447,-5.025],[19.642,-5.481],[19.836,-5.937],[20.031,-6.393],[20.226,-6.849],[20.422,-7.305],[20.618,-7.761],[20.814,-8.216],[21.011,-8.672],[21.208,-9.127],[21.406,-9.582],[21.604,-10.038],[21.803,-10.493],[22.003,-10.948],[22.203,-11.403],[22.404,-11.857],[22.605,-12.312],[22.807,-12.766],[23.01,-13.22],[23.214,-13.675],[23.418,-14.129],[23.624,-14.582],[23.83,-15.036],[24.037,-15.489],[24.244,-15.942],[24.453,-16.395],[24.663,-16.848],[24.874,-17.301],[25.086,-17.753],[25.299,-18.205],[25.513,-18.657],[25.728,-19.109],[25.944,-19.56],[26.162,-20.011],[26.38,-20.462],[26.6,-20.913],[26.822,-21.363]]}},{"type":"Feature","properties":{"boundary_type":"transform","feature_type":"gpml:Transform","polarity":null,"overriding_plate_id":null,"subducting_plate_id":null,"plate_ids":[501,580],"name":"Tarim transform"},"geometry":{"type":"LineString","coordinates":[[44.565,27.912],[44.785,28.343],[45.007,28.773],[45.231,29.203],[45.716,29.428],[46.204,29.651],[46.693,29.872],[47.185,30.092],[47.68,30.31],[48.176,30.525],[48.674,30.739],[49.175,30.951],[49.672,31.123],[50.171,31.294],[50.672,31.462],[51.174,31.628],[51.679,31.793],[52.185,31.955],[52.692,32.115],[53.25,32.041],[53.806,31.965],[54.361,31.886],[54.915,31.805],[55.468,31.722]]}},{"type":"Feature","properties":{"boundary_type":"transform","feature_type":"gpml:Transform","polarity":null,"overriding_plate_id":null,"subducting_plate_id":null,"plate_ids":[5032,77030],"name":"Azania-Kalahari transform"},"geometry":{"type":"LineString","coordinates":[[88.795,-29.849],[89.106,-29.809],[89.417,-29.769],[89.962,-29.61],[90.505,-29.45],[91.046,-29.287],[91.586,-29.122],[92.124,-28.954],[92.66,-28.785],[93.194,-28.613],[93.726,-28.44],[94.257,-28.264],[94.786,-28.086],[95.314,-27.907],[95.839,-27.725],[96.363,-27.541]]}},{"type":"Feature","properties":{"boundary_type":"transform","feature_type":"gpml:Transform","polarity":null,"overriding_plate_id":null,"subducting_plate_id":null,"plate_ids":[760,98043],"name":"Hoggar Transform"},"geometry":{"type":"LineString","coordinates":[[18.128,-36.123],[18.658,-35.984],[19.186,-35.843],[19.712,-35.699],[20.297,-35.62],[20.88,-35.538],[21.463,-35.453]]}},{"type":"Feature","properties":{"boundary_type":"transform","feature_type":"gpml:Transform","polarity":null,"overriding_plate_id":null,"subducting_plate_id":null,"plate_ids":[501,601],"name":"Transform closing Indian plate"},"geometry":{"type":"LineString","coordinates":[[76.771,58.934],[76.801,58.843],[77.071,58.394],[77.334,57.944],[77.591,57.494],[77.841,57.043],[78.086,56.592],[78.324,56.141],[78.558,55.689],[78.653,55.237],[78.746,54.785],[78.837,54.332]]}},{"type":"Feature","properties":{"boundary_type":"transform","feature_type":"gpml:Transform","polarity":null,"overriding_plate_id":null,"subducting_plate_id":null,"plate_ids":[101,77030],"name":"Transbrasiliano Lineament"},"geometry":{"type":"LineString","coordinates":[[155.63,-38.561],[155.48,-39.034],[155.328,-39.507],[155.174,-39.98],[155.018,-40.452],[154.859,-40.924],[154.699,-41.396],[154.535,-41.868],[154.37,-42.34],[154.202,-42.811],[154.031,-43.283],[153.76,-43.725],[153.486,-44.167],[153.207,-44.609],[152.923,-45.05],[152.636,-45.49],[152.343,-45.929],[152.047,-46.368],[151.745,-46.805],[151.438,-47.242],[151.126,-47.678],[150.81,-48.114],[150.487,-48.548],[150.159,-48.982],[149.825,-49.414],[149.486,-49.846],[149.14,-50.276],[148.788,-50.706],[148.429,-51.134],[148.064,-51.561],[147.692,-51.988],[147.313,-52.412],[146.926,-52.836]]}},{"type":"Feature","properties":{"boundary_type":"transform","feature_type":"gpml:Transform","polarity":null,"overriding_plate_id":null,"subducting_plate_id":null,"plate_ids":[714,77030],"name":"Transbrasiliano Lineament"},"geometry":{"type":"LineString","coordinates":[[146.926,-52.836],[146.576,-53.212],[146.22,-53.586],[145.857,-53.959],[145.488,-54.331],[145.113,-54.702],[144.73,-55.072],[144.321,-55.482],[143.904,-55.891],[143.479,-56.299],[143.043,-56.704],[142.599,-57.109],[142.145,-57.511],[141.68,-57.912],[141.205,-58.312],[140.719,-58.709],[140.223,-59.105],[139.714,-59.498],[139.194,-59.89],[138.563,-60.259],[137.917,-60.625],[137.257,-60.987],[136.582,-61.346],[135.891,-61.702],[135.184,-62.054],[134.461,-62.403],[133.721,-62.748],[132.963,-63.089],[132.187,-63.425],[131.393,-63.757],[130.581,-64.085],[129.749,-64.408],[128.897,-64.727],[127.982,-65.003],[127.049,-65.274],[126.096,-65.538],[125.123,-65.797],[124.131,-66.049],[123.12,-66.295],[122.089,-66.534],[121.038,-66.766],[119.968,-66.991],[118.877,-67.209],[117.726,-67.351],[116.56,-67.486],[115.382,-67.612],[114.192,-67.729],[112.99,-67.838],[111.778,-67.937],[110.555,-68.028],[109.324,-68.109],[108.084,-68.182],[106.837,-68.245],[105.505,-68.314],[104.165,-68.373],[102.82,-68.421],[101.469,-68.458],[100.115,-68.484],[98.758,-68.499],[97.4,-68.504],[96.042,-68.497],[94.685,-68.479],[93.332,-68.451],[92.149,-68.359],[90.977,-68.259],[89.815,-68.151],[88.664,-68.035],[87.526,-67.911]]}},{"type":"Feature","properties":{"boundary_type":"transform","feature_type":"gpml:Transform","polarity":null,"overriding_plate_id":null,"subducting_plate_id":null,"plate_ids":[206,760],"name":"Borborema closure transform"},"geometry":{"type":"LineString","coordinates":[[41.681,-56.922],[42.484,-56.841],[43.282,-56.754],[44.077,-56.663],[44.869,-56.567],[45.656,-56.465],[46.438,-56.359],[47.217,-56.248],[47.99,-56.132]]}},{"type":"Feature","properties":{"boundary_type":"transform","feature_type":"gpml:Transform","polarity":null,"overriding_plate_id":null,"subducting_plate_id":null,"plate_ids":[3003,4012],"name":"Taimyr Transform"},"geometry":{"type":"LineString","coordinates":[[-104.286,-6.915],[-103.986,-7.262],[-103.686,-7.61],[-103.385,-7.957],[-103.083,-8.304],[-102.782,-8.65],[-102.479,-8.996],[-102.176,-9.343],[-101.873,-9.688],[-101.6,-9.959],[-101.328,-10.229],[-101.055,-10.499],[-100.781,-10.768],[-100.488,-11.064],[-100.194,-11.36],[-99.9,-11.656],[-99.605,-11.951],[-99.309,-12.246],[-98.944,-12.489],[-98.579,-12.732],[-98.212,-12.974],[-97.845,-13.215]]}},{"type":"Feature","properties":{"boundary_type":"transform","feature_type":"gpml:Transform","polarity":null,"overriding_plate_id":null,"subducting_plate_id":null,"plate_ids":[801,77030],"name":"Kalahari transform"},"geometry":{"type":"LineString","coordinates":[[129.098,-29.672],[129.564,-29.452],[130.028,-29.23],[130.49,-29.007],[130.92,-28.722],[131.347,-28.435],[131.772,-28.147],[132.195,-27.857],[132.615,-27.567],[133.034,-27.275],[133.45,-26.981],[133.864,-26.687],[134.285,-26.434],[134.704,-26.179],[135.121,-25.924],[135.537,-25.667],[135.951,-25.409],[136.347,-25.077],[136.74,-24.744],[137.132,-24.411],[137.521,-24.076],[137.908,-23.74],[138.294,-23.403],[138.677,-23.065],[139.14,-22.829],[139.601,-22.592],[140.061,-22.353],[140.519,-22.113],[140.976,-21.872],[141.431,-21.629],[141.884,-21.385],[142.336,-21.14],[142.786,-20.894],[143.235,-20.647],[143.683,-20.399],[144.129,-20.149]]}},{"type":"Feature","properties":{"boundary_type":"transform","feature_type":"gpml:Transform","polarity":null,"overriding_plate_id":null,"subducting_plate_id":null,"plate_ids":[501,601],"name":"Lhasa-India transform"},"geometry":{"type":"LineString","coordinates":[[86.254,24.648],[86.71,24.393],[87.164,24.138],[87.617,23.88],[88.067,23.622],[88.516,23.362],[88.963,23.101],[89.408,22.839],[89.851,22.576],[90.293,22.311],[90.733,22.045],[91.177,21.824],[91.619,21.603],[92.06,21.379],[92.499,21.155],[92.938,20.93]]}},{"type":"Feature","properties":{"boundary_type":"transform","feature_type":"gpml:Transform","polarity":null,"overriding_plate_id":null,"subducting_plate_id":null,"plate_ids":[601,606],"name":"Lhasa transform"},"geometry":{"type":"LineString","coordinates":[[94.781,25.356],[95.225,25.521],[95.671,25.685],[96.118,25.847],[96.566,26.007],[97.016,26.167]]}},{"type":"Feature","properties":{"boundary_type":"transform","feature_type":"gpml:Transform","polarity":null,"overriding_plate_id":null,"subducting_plate_id":null,"plate_ids":[801,8011],"name":"Paterson-Peterman transform"},"geometry":{"type":"LineString","coordinates":[[113.977,17.386],[113.869,16.927],[113.762,16.469],[113.656,16.01],[113.375,15.617],[113.095,15.223],[112.78,14.984],[112.465,14.744],[112.151,14.504],[111.769,14.499],[111.388,14.494],[111.006,14.487]]}},{"type":"Feature","properties":{"boundary_type":"transform","feature_type":"gpml:Transform","polarity":null,"overriding_plate_id":null,"subducting_plate_id":null,"plate_ids":[101,801],"name":"Australia-Laurentia spreading"},"geometry":{"type":"LineString","coordinates":[[152.063,5.705],[151.633,5.958],[151.202,6.21],[150.771,6.463],[150.339,6.715],[149.907,6.966],[149.475,7.218],[149.042,7.468],[148.609,7.719],[148.175,7.969],[147.74,8.218],[147.305,8.467],[146.869,8.716],[146.433,8.964],[145.996,9.212],[145.559,9.459],[145.121,9.705],[144.682,9.951],[144.243,10.196],[143.803,10.441],[143.362,10.685],[142.921,10.929],[142.479,11.172],[142.036,11.414],[141.592,11.656],[141.148,11.897],[140.703,12.137],[140.257,12.376],[139.81,12.615],[139.362,12.853],[138.914,13.091],[138.464,13.327],[138.014,13.563],[137.563,13.798],[137.111,14.032],[136.658,14.265],[136.204,14.497],[135.749,14.729],[135.293,14.96],[134.836,15.189],[134.379,15.418],[133.92,15.646],[133.46,15.873],[132.999,16.099],[132.537,16.324],[132.074,16.548],[131.61,16.771],[131.145,16.992],[130.679,17.213],[130.212,17.433],[129.743,17.652],[129.274,17.869],[128.803,18.086],[128.331,18.301],[127.858,18.515],[127.384,18.728],[126.908,18.94],[126.432,19.15],[125.954,19.359],[125.475,19.567],[124.994,19.774],[124.513,19.98],[124.03,20.184],[123.546,20.387]]}},{"type":"Feature","properties":{"boundary_type":"transform","feature_type":"gpml:Transform","polarity":null,"overriding_plate_id":null,"subducting_plate_id":null,"plate_ids":[501,580],"name":"Transform closing Tarim plate"},"geometry":{"type":"LineString","coordinates":[[45.593,52.868],[45.906,52.515],[46.214,52.162],[46.517,51.808],[46.815,51.453],[47.154,51.062],[47.487,50.67],[47.815,50.276],[48.138,49.882],[48.455,49.487],[48.767,49.091],[49.074,48.694],[49.438,48.34],[49.797,47.984],[50.151,47.627],[50.5,47.27],[50.844,46.911],[51.184,46.551],[51.519,46.19],[52.096,45.966],[52.669,45.74],[53.237,45.51],[53.8,45.278],[54.358,45.043],[54.912,44.805],[55.462,44.565],[56.007,44.322]]}},{"type":"Feature","properties":{"boundary_type":"transform","feature_type":"gpml:Transform","polarity":null,"overriding_plate_id":null,"subducting_plate_id":null,"plate_ids":[401,98044],"name":"Transform closing Siberia plate"},"geometry":{"type":"LineString","coordinates":[[-125.52,23.732],[-125.081,23.923],[-124.642,24.113],[-124.148,24.24],[-123.653,24.366],[-123.157,24.49],[-122.66,24.612],[-122.163,24.733],[-121.664,24.852],[-121.164,24.97],[-120.664,25.085],[-120.162,25.199],[-119.66,25.312],[-119.156,25.423],[-118.652,25.532],[-118.112,25.5],[-117.573,25.466],[-117.034,25.43],[-116.496,25.392],[-115.957,25.352],[-115.419,25.31],[-114.882,25.266],[-114.345,25.221],[-113.808,25.173],[-113.272,25.123],[-112.736,25.072],[-112.201,25.019],[-111.701,24.904],[-111.203,24.788],[-110.705,24.671],[-110.208,24.551],[-109.713,24.43],[-109.218,24.308],[-108.724,24.184],[-108.231,24.058],[-107.739,23.931],[-107.248,23.802]]}},{"type":"Feature","properties":{"boundary_type":"transform","feature_type":"gpml:Transform","polarity":null,"overriding_plate_id":null,"subducting_plate_id":null,"plate_ids":[77144,98043],"name":"Hoggar Transform"},"geometry":{"type":"LineString","coordinates":[[17.638,-35.582],[17.541,-35.614],[17.085,-35.809],[16.627,-36.002],[16.167,-36.194],[15.704,-36.384],[15.279,-36.626],[14.851,-36.866],[14.421,-37.105],[13.988,-37.343],[13.552,-37.579]]}},{"type":"Feature","properties":{"boundary_type":"transform","feature_type":"gpml:Transform","polarity":null,"overriding_plate_id":null,"subducting_plate_id":null,"plate_ids":[101,3003],"name":"Baltica transform"},"geometry":{"type":"LineString","coordinates":[[-68.425,-47.506],[-68.297,-47.991],[-68.167,-48.475],[-68.034,-48.959],[-67.899,-49.443],[-67.761,-49.927],[-67.62,-50.411],[-67.476,-50.894],[-67.329,-51.377],[-66.847,-51.751],[-66.357,-52.123],[-65.858,-52.492],[-65.352,-52.86],[-64.836,-53.225],[-64.312,-53.588],[-63.778,-53.949],[-63.236,-54.307],[-62.683,-54.663],[-62.122,-55.016],[-61.55,-55.366],[-60.968,-55.714],[-60.189,-55.896],[-59.403,-56.073],[-58.61,-56.245],[-57.81,-56.412],[-57.003,-56.574],[-56.189,-56.73],[-55.369,-56.881],[-54.542,-57.027],[-53.708,-57.167],[-52.868,-57.302],[-52.023,-57.431],[-51.171,-57.554],[-50.314,-57.671],[-49.451,-57.783],[-48.574,-57.878],[-47.692,-57.967],[-46.806,-58.049],[-45.916,-58.125],[-45.022,-58.196]]}},{"type":"Feature","properties":{"boundary_type":"transform","feature_type":"gpml:Transform","polarity":null,"overriding_plate_id":null,"subducting_plate_id":null,"plate_ids":[714,3003],"name":"Baltica transform"},"geometry":{"type":"LineString","coordinates":[[-45.022,-58.196],[-44.149,-58.258],[-43.272,-58.314],[-42.393,-58.365],[-41.512,-58.409],[-40.628,-58.447],[-39.743,-58.479],[-38.856,-58.505]]}}]}