{"type":"FeatureCollection","meta":{"model":"Cao2024","reconstruction_time_ma":1730.0,"anchor_plate_id":0,"pygplates_version":"1.0.0","tessellate_degrees":0.5,"polarity_convention":"gpml:subductionPolarity. 'Left'/'Right' names the side of the line, in vertex order, on which the OVERRIDING plate lies. Triangles are drawn on that side.","antimeridian":"Lines are NOT split at +/-180 deg. The renderer works in 3D unit vectors where the dateline is not special; splitting would only add spurious breaks. Do not treat this as RFC 7946 GIS-ready 2D data."},"features":[{"type":"Feature","properties":{"boundary_type":"subduction","feature_type":"gpml:SubductionZone","polarity":"Left","overriding_plate_id":101,"subducting_plate_id":10103,"plate_ids":[101,10103],"name":"eastern Laurentia-greenland-western baltica"},"geometry":{"type":"LineString","coordinates":[[-127.393,67.486],[-128.625,67.457],[-129.853,67.418],[-131.077,67.37],[-132.295,67.312],[-133.507,67.246],[-134.712,67.17],[-135.909,67.085],[-137.097,66.991],[-138.276,66.889],[-139.444,66.778],[-140.586,66.596],[-141.71,66.406],[-142.818,66.209],[-143.907,66.003],[-144.979,65.79],[-146.034,65.57],[-147.07,65.342],[-148.088,65.107],[-149.088,64.866],[-150.07,64.618],[-151.033,64.363],[-151.98,64.103],[-152.908,63.836],[-153.819,63.564],[-154.712,63.285],[-155.588,63.002],[-156.447,62.713],[-157.289,62.419],[-158.115,62.12]]}},{"type":"Feature","properties":{"boundary_type":"subduction","feature_type":"gpml:SubductionZone","polarity":"Left","overriding_plate_id":101,"subducting_plate_id":90106,"plate_ids":[101,90106],"name":"eastern Laurentia-greenland-western baltica"},"geometry":{"type":"LineString","coordinates":[[-158.115,62.12],[-158.799,61.863],[-159.472,61.604],[-160.134,61.341],[-160.784,61.075],[-161.439,60.724],[-162.08,60.37],[-162.706,60.013],[-163.32,59.654],[-163.92,59.291],[-164.507,58.926],[-165.082,58.558],[-165.646,58.188],[-166.197,57.815],[-166.737,57.44],[-167.266,57.062],[-167.785,56.683],[-168.098,56.239],[-168.403,55.794],[-168.702,55.349],[-168.994,54.902],[-169.28,54.456],[-169.56,54.008],[-169.833,53.56],[-170.101,53.111],[-170.364,52.662],[-170.621,52.212],[-170.872,51.761],[-171.119,51.31],[-171.361,50.859],[-171.599,50.407],[-171.832,49.954],[-172.06,49.502],[-172.285,49.048],[-172.505,48.594],[-172.708,48.215],[-172.908,47.835],[-173.106,47.455],[-173.3,47.075],[-173.492,46.694]]}},{"type":"Feature","properties":{"boundary_type":"subduction","feature_type":"gpml:SubductionZone","polarity":"Left","overriding_plate_id":101,"subducting_plate_id":501001,"plate_ids":[101,501001],"name":"eastern Laurentia-greenland-western baltica"},"geometry":{"type":"LineString","coordinates":[[-173.492,46.694],[-173.719,46.236],[-173.942,45.777],[-174.161,45.319],[-174.377,44.859],[-174.589,44.4],[-174.798,43.94],[-175.004,43.479],[-175.207,43.018],[-175.407,42.557],[-175.604,42.096],[-175.798,41.634],[-175.989,41.172],[-176.178,40.709],[-176.364,40.246],[-176.547,39.783]]}},{"type":"Feature","properties":{"boundary_type":"subduction","feature_type":"gpml:SubductionZone","polarity":"Left","overriding_plate_id":101,"subducting_plate_id":501,"plate_ids":[101,501],"name":"Baltica_SZ"},"geometry":{"type":"LineString","coordinates":[[-164.456,-5.229],[-164.632,-5.696],[-164.809,-6.163],[-164.986,-6.63],[-165.163,-7.097],[-165.341,-7.564],[-165.519,-8.031],[-165.698,-8.497],[-165.877,-8.964],[-166.056,-9.431],[-166.236,-9.897],[-166.416,-10.364],[-166.597,-10.83],[-166.779,-11.296],[-166.961,-11.762],[-167.213,-12.177],[-167.466,-12.592],[-167.72,-13.007],[-167.974,-13.421],[-168.23,-13.835],[-168.486,-14.249],[-168.743,-14.663],[-169.001,-15.076],[-169.261,-15.489],[-169.521,-15.902],[-169.782,-16.314],[-170.045,-16.726],[-170.309,-17.138],[-170.573,-17.55],[-170.839,-17.961],[-171.107,-18.371],[-171.375,-18.782],[-171.645,-19.192],[-171.916,-19.601],[-172.189,-20.01],[-172.463,-20.419],[-172.738,-20.827],[-173.015,-21.235],[-173.293,-21.643],[-173.573,-22.05],[-173.855,-22.456],[-174.138,-22.862]]}},{"type":"Feature","properties":{"boundary_type":"subduction","feature_type":"gpml:SubductionZone","polarity":"Right","overriding_plate_id":801,"subducting_plate_id":701,"plate_ids":[701,801],"name":"NorthChina_SZ"},"geometry":{"type":"LineString","coordinates":[[-87.449,1.032],[-87.304,0.613],[-87.158,0.195],[-87.013,-0.223],[-86.868,-0.641],[-86.722,-1.06],[-86.707,-1.534],[-86.692,-2.009],[-86.677,-2.484],[-86.662,-2.958],[-86.646,-3.433],[-86.631,-3.908],[-86.616,-4.382],[-86.601,-4.857],[-86.784,-5.293],[-86.968,-5.729],[-87.152,-6.165],[-87.336,-6.6],[-87.52,-7.036],[-87.705,-7.471],[-87.891,-7.907],[-88.076,-8.342],[-88.262,-8.778],[-88.449,-9.213],[-88.856,-9.445],[-89.264,-9.677],[-89.673,-9.909],[-90.082,-10.14],[-90.492,-10.371],[-90.902,-10.601],[-91.313,-10.83],[-91.725,-11.059],[-92.137,-11.288],[-92.55,-11.515],[-92.963,-11.743],[-93.377,-11.969],[-93.792,-12.195],[-94.262,-12.307],[-94.732,-12.417],[-95.203,-12.527],[-95.674,-12.636],[-96.145,-12.744],[-96.617,-12.852],[-97.089,-12.958],[-97.562,-13.064],[-98.035,-13.169],[-98.508,-13.273],[-98.982,-13.376],[-99.456,-13.478],[-99.931,-13.579]]}},{"type":"Feature","properties":{"boundary_type":"subduction","feature_type":"gpml:SubductionZone","polarity":"Right","overriding_plate_id":801,"subducting_plate_id":811001,"plate_ids":[801,811001],"name":"SouthAustralia_SZ"},"geometry":{"type":"LineString","coordinates":[[-73.006,28.083],[-73.194,27.721],[-73.408,27.302],[-73.62,26.883],[-73.831,26.463],[-74.04,26.043],[-74.247,25.622],[-74.454,25.202],[-74.658,24.781],[-74.862,24.359],[-75.238,23.998],[-75.612,23.635],[-75.984,23.272],[-76.354,22.907],[-76.721,22.542],[-77.087,22.176],[-77.451,21.81],[-77.814,21.442],[-78.174,21.074],[-78.532,20.705],[-78.889,20.335],[-79.244,19.964],[-79.598,19.593],[-80.026,19.355],[-80.452,19.116],[-80.878,18.876]]}},{"type":"Feature","properties":{"boundary_type":"subduction","feature_type":"gpml:SubductionZone","polarity":"Left","overriding_plate_id":90107,"subducting_plate_id":90106,"plate_ids":[90106,90107],"name":"Wyoming_SZ"},"geometry":{"type":"LineString","coordinates":[[-52.878,60.932],[-53.648,61.162],[-54.43,61.387],[-55.222,61.608],[-56.026,61.824],[-56.841,62.036]]}},{"type":"Feature","properties":{"boundary_type":"subduction","feature_type":"gpml:SubductionZone","polarity":"Left","overriding_plate_id":101,"subducting_plate_id":90106,"plate_ids":[101,90106],"name":"Wyoming_SZ"},"geometry":{"type":"LineString","coordinates":[[-56.841,62.036],[-57.779,62.27],[-58.731,62.497],[-59.698,62.718],[-60.68,62.932],[-61.675,63.14],[-62.685,63.34],[-63.708,63.533],[-64.745,63.718],[-65.796,63.896],[-66.859,64.067],[-67.936,64.229],[-69.024,64.384],[-70.125,64.53],[-71.237,64.668],[-72.361,64.797],[-73.495,64.918],[-74.638,65.031],[-75.791,65.134],[-76.953,65.229],[-77.967,65.408],[-78.994,65.581],[-80.035,65.746],[-81.089,65.905],[-82.155,66.056],[-83.234,66.199],[-84.325,66.335],[-85.428,66.464],[-86.542,66.584],[-87.666,66.697],[-88.8,66.801]]}},{"type":"Feature","properties":{"boundary_type":"subduction","feature_type":"gpml:SubductionZone","polarity":"Left","overriding_plate_id":101,"subducting_plate_id":10103,"plate_ids":[101,10103],"name":"Wyoming_SZ"},"geometry":{"type":"LineString","coordinates":[[-88.8,66.801],[-89.995,66.901],[-91.199,66.993],[-92.412,67.075],[-93.633,67.148],[-94.861,67.211],[-96.094,67.265],[-97.333,67.31],[-98.576,67.345],[-99.822,67.37],[-101.07,67.386],[-102.319,67.392],[-103.568,67.388],[-104.817,67.375],[-106.063,67.352],[-107.307,67.319],[-108.547,67.277],[-109.769,67.373],[-111.0,67.46],[-112.24,67.537],[-113.487,67.604],[-114.742,67.662],[-116.001,67.711],[-117.266,67.749],[-118.534,67.778],[-119.805,67.797],[-121.077,67.806],[-122.35,67.805],[-123.622,67.795],[-124.892,67.774],[-126.16,67.744],[-126.78,67.616],[-127.393,67.486]]}},{"type":"Feature","properties":{"boundary_type":"subduction","feature_type":"gpml:SubductionZone","polarity":"Left","overriding_plate_id":801,"subducting_plate_id":701,"plate_ids":[701,801],"name":"South_NorthAustralia_SZ"},"geometry":{"type":"LineString","coordinates":[[-87.449,1.032],[-87.143,1.403],[-86.837,1.775],[-86.531,2.146],[-86.225,2.518],[-85.919,2.889],[-85.612,3.26],[-85.306,3.631],[-84.999,4.002],[-84.691,4.373],[-84.384,4.744],[-84.076,5.115],[-83.767,5.485],[-83.459,5.856],[-83.15,6.226],[-82.84,6.596],[-82.53,6.966],[-82.22,7.335],[-81.909,7.705],[-81.783,8.173],[-81.657,8.642],[-81.531,9.11],[-81.404,9.579],[-81.277,10.047],[-81.15,10.516],[-81.022,10.984],[-80.894,11.452],[-80.766,11.921],[-80.637,12.389],[-80.508,12.857]]}},{"type":"Feature","properties":{"boundary_type":"subduction","feature_type":"gpml:SubductionZone","polarity":"Left","overriding_plate_id":801,"subducting_plate_id":811001,"plate_ids":[801,811001],"name":"South_NorthAustralia_SZ"},"geometry":{"type":"LineString","coordinates":[[-80.508,12.857],[-80.396,13.258],[-80.284,13.66],[-80.172,14.061],[-80.241,14.543],[-80.311,15.025],[-80.38,15.506],[-80.45,15.988],[-80.521,16.469],[-80.591,16.95],[-80.662,17.432],[-80.734,17.913],[-80.806,18.395],[-80.878,18.876]]}},{"type":"Feature","properties":{"boundary_type":"subduction","feature_type":"gpml:SubductionZone","polarity":"Left","overriding_plate_id":801,"subducting_plate_id":101,"plate_ids":[101,801],"name":"South_NorthAustralia_SZ"},"geometry":{"type":"LineString","coordinates":[[-56.909,59.103],[-57.765,59.051],[-58.618,58.993],[-59.468,58.93],[-60.315,58.861],[-61.158,58.787],[-61.998,58.707],[-62.834,58.621],[-63.665,58.531],[-64.467,58.262],[-65.257,57.989],[-66.034,57.71],[-66.8,57.427],[-67.554,57.14],[-68.296,56.848],[-69.026,56.551],[-69.745,56.251],[-70.453,55.946],[-71.15,55.637],[-71.836,55.325],[-72.511,55.009],[-73.175,54.689],[-73.829,54.365],[-74.431,54.011],[-75.023,53.655],[-75.605,53.295],[-76.178,52.933],[-76.74,52.568],[-77.294,52.2],[-77.838,51.83],[-78.373,51.457],[-78.9,51.082],[-79.418,50.705],[-79.928,50.325],[-80.43,49.943],[-80.924,49.56],[-81.41,49.173],[-81.889,48.785],[-82.36,48.395],[-82.824,48.004],[-83.223,47.582],[-83.616,47.158],[-84.002,46.734],[-84.383,46.308],[-84.757,45.881],[-85.126,45.453],[-85.489,45.023],[-85.847,44.593],[-86.2,44.161],[-86.547,43.728],[-86.889,43.294],[-87.227,42.86],[-87.56,42.424],[-87.867,41.995],[-88.17,41.566],[-88.47,41.135],[-88.765,40.704],[-89.056,40.272],[-89.344,39.84],[-89.628,39.407],[-89.909,38.973],[-90.186,38.538],[-90.46,38.103],[-90.731,37.667],[-90.999,37.231],[-91.315,36.835],[-91.629,36.438],[-91.939,36.04],[-92.246,35.642],[-92.551,35.243],[-92.852,34.843],[-93.15,34.442],[-93.446,34.041],[-93.738,33.639],[-94.028,33.236],[-94.448,32.894],[-94.866,32.551],[-95.28,32.206],[-95.69,31.86],[-96.098,31.513],[-96.503,31.164],[-96.905,30.814],[-97.304,30.463],[-97.699,30.111],[-98.093,29.757],[-98.483,29.403],[-98.871,29.047],[-99.256,28.69],[-99.626,28.317],[-99.993,27.942],[-100.358,27.566],[-100.721,27.19],[-101.081,26.812],[-101.439,26.434],[-101.794,26.055],[-102.147,25.675],[-102.498,25.294],[-102.847,24.912],[-103.193,24.53],[-103.275,24.058],[-103.356,23.587],[-103.436,23.116],[-103.516,22.644],[-103.596,22.173],[-103.674,21.702],[-103.753,21.23],[-103.831,20.759],[-103.908,20.287],[-103.985,19.816],[-104.061,19.344],[-104.137,18.872],[-104.213,18.401],[-104.288,17.929],[-104.363,17.457],[-104.437,16.985],[-104.403,16.507],[-104.37,16.029],[-104.336,15.55],[-104.303,15.071],[-104.27,14.593],[-104.237,14.114],[-104.204,13.636],[-104.172,13.157],[-104.139,12.679],[-104.107,12.2],[-104.074,11.722],[-104.042,11.243],[-104.01,10.765],[-103.916,10.423],[-103.821,10.081],[-103.727,9.739]]}},{"type":"Feature","properties":{"boundary_type":"subduction","feature_type":"gpml:SubductionZone","polarity":"Left","overriding_plate_id":801,"subducting_plate_id":811001,"plate_ids":[801,811001],"name":"NorthwesternMawson_SZ"},"geometry":{"type":"LineString","coordinates":[[-73.006,28.083],[-72.473,28.214],[-71.939,28.343],[-71.403,28.47],[-70.866,28.595],[-70.328,28.718],[-69.798,28.807],[-69.267,28.894],[-68.736,28.978],[-68.203,29.06],[-67.67,29.14],[-67.136,29.219],[-66.601,29.295],[-66.065,29.368],[-65.556,29.462],[-65.046,29.554],[-64.535,29.644],[-64.023,29.732],[-63.51,29.818],[-62.997,29.902],[-62.511,30.091],[-62.024,30.278],[-61.535,30.463],[-61.045,30.646],[-60.552,30.828],[-60.057,31.008],[-59.733,31.395],[-59.406,31.781],[-59.077,32.166],[-58.744,32.55],[-58.409,32.934],[-58.366,33.4],[-58.322,33.867],[-58.277,34.333],[-58.232,34.8],[-58.187,35.266],[-58.141,35.732],[-58.094,36.199],[-58.047,36.665],[-58.0,37.131],[-58.097,37.59],[-58.195,38.049],[-58.294,38.507],[-58.395,38.966],[-58.497,39.424],[-58.6,39.882],[-58.705,40.34],[-58.812,40.798],[-58.919,41.256],[-59.028,41.714],[-59.139,42.172],[-59.121,42.648],[-59.102,43.124],[-59.083,43.599],[-59.063,44.075],[-59.044,44.551],[-59.024,45.027],[-59.003,45.502],[-58.982,45.978],[-58.961,46.454],[-58.94,46.93],[-58.918,47.406],[-58.896,47.881],[-58.766,48.335],[-58.635,48.789],[-58.501,49.243],[-58.364,49.696],[-58.225,50.149],[-58.083,50.603],[-57.938,51.056],[-57.791,51.508],[-57.641,51.961],[-57.487,52.413],[-57.33,52.866],[-57.171,53.318],[-57.007,53.769],[-57.0,54.196],[-56.993,54.623],[-56.986,55.051],[-56.979,55.478],[-56.971,55.905]]}},{"type":"Feature","properties":{"boundary_type":"subduction","feature_type":"gpml:SubductionZone","polarity":"Left","overriding_plate_id":801,"subducting_plate_id":90107,"plate_ids":[801,90107],"name":"NorthwesternMawson_SZ"},"geometry":{"type":"LineString","coordinates":[[-56.971,55.905],[-56.963,56.361],[-56.955,56.818],[-56.946,57.275],[-56.937,57.732],[-56.928,58.189],[-56.919,58.646],[-56.909,59.103]]}},{"type":"Feature","properties":{"boundary_type":"subduction","feature_type":"gpml:SubductionZone","polarity":"Left","overriding_plate_id":101,"subducting_plate_id":90107,"plate_ids":[101,90107],"name":"NorthwesternMawson_SZ"},"geometry":{"type":"LineString","coordinates":[[-56.909,59.103],[-56.899,59.592],[-56.888,60.081],[-56.877,60.57],[-56.865,61.058],[-56.853,61.547],[-56.841,62.036]]}},{"type":"Feature","properties":{"boundary_type":"subduction","feature_type":"gpml:SubductionZone","polarity":"Right","overriding_plate_id":801,"subducting_plate_id":701,"plate_ids":[701,801],"name":"Cathaysia_SZ"},"geometry":{"type":"LineString","coordinates":[[-99.931,-13.579],[-100.005,-14.073],[-100.081,-14.567],[-100.156,-15.061],[-100.232,-15.554],[-100.309,-16.048],[-100.385,-16.542],[-100.462,-17.035],[-100.54,-17.529],[-100.618,-18.023],[-100.696,-18.516],[-100.775,-19.01],[-100.854,-19.503],[-100.934,-19.997],[-100.936,-20.496],[-100.937,-20.996],[-100.938,-21.495],[-100.94,-21.995],[-100.941,-22.494],[-100.943,-22.994],[-100.944,-23.493],[-100.946,-23.993],[-100.947,-24.492],[-100.948,-24.992],[-100.95,-25.491],[-100.951,-25.991],[-100.953,-26.49],[-100.955,-26.989],[-100.956,-27.489],[-100.823,-27.935],[-100.689,-28.381],[-100.553,-28.827]]}},{"type":"Feature","properties":{"boundary_type":"subduction","feature_type":"gpml:SubductionZone","polarity":"Left","overriding_plate_id":80101,"subducting_plate_id":90107,"plate_ids":[80101,90107],"name":""},"geometry":{"type":"LineString","coordinates":[[-15.102,19.177],[-15.089,19.66],[-15.075,20.142],[-15.062,20.624],[-15.048,21.107],[-15.034,21.589],[-15.02,22.072],[-15.006,22.554],[-14.992,23.037],[-14.978,23.519],[-14.964,24.001],[-14.949,24.484],[-14.935,24.966],[-14.92,25.449],[-14.906,25.931],[-14.948,26.397],[-14.99,26.862],[-15.033,27.328],[-15.076,27.793],[-15.119,28.259],[-15.163,28.724],[-15.207,29.19],[-15.252,29.655],[-15.297,30.121],[-15.342,30.586],[-15.388,31.052],[-15.434,31.517],[-15.481,31.983],[-15.528,32.448],[-15.576,32.914],[-15.828,33.338],[-16.082,33.762],[-16.339,34.185],[-16.598,34.608],[-16.861,35.03],[-17.125,35.452],[-17.393,35.873],[-17.663,36.294],[-17.937,36.714],[-18.213,37.133],[-18.493,37.551],[-18.775,37.969],[-19.061,38.387],[-19.437,38.744],[-19.817,39.1],[-20.201,39.454],[-20.589,39.807],[-20.98,40.159],[-21.376,40.51],[-21.776,40.859],[-22.18,41.207],[-22.588,41.554],[-23.001,41.899],[-23.419,42.242],[-23.84,42.584],[-24.267,42.925],[-24.708,43.271],[-25.154,43.616],[-25.605,43.959],[-26.061,44.3],[-26.523,44.64],[-26.99,44.977],[-27.463,45.313],[-27.941,45.646],[-28.425,45.978],[-28.915,46.307],[-29.411,46.635],[-29.912,46.96],[-30.42,47.283],[-30.934,47.603],[-31.454,47.922],[-31.984,48.144],[-32.519,48.364],[-33.058,48.581]]}},{"type":"Feature","properties":{"boundary_type":"subduction","feature_type":"gpml:SubductionZone","polarity":"Left","overriding_plate_id":811001,"subducting_plate_id":90107,"plate_ids":[90107,811001],"name":""},"geometry":{"type":"LineString","coordinates":[[-33.058,48.581],[-33.69,48.83],[-34.328,49.076],[-34.973,49.319],[-35.625,49.557],[-36.282,49.792],[-36.946,50.024],[-37.616,50.251],[-38.293,50.475],[-38.976,50.694],[-39.665,50.91],[-40.361,51.121],[-41.063,51.328],[-41.772,51.532],[-42.486,51.73],[-43.207,51.925],[-43.934,52.115],[-44.593,52.369],[-45.259,52.62],[-45.933,52.867],[-46.614,53.11],[-47.303,53.349],[-48.0,53.584],[-48.705,53.815],[-49.417,54.042],[-50.137,54.264],[-50.865,54.483],[-51.6,54.696],[-52.343,54.906],[-53.094,55.111],[-53.853,55.311],[-54.619,55.506],[-55.398,55.644],[-56.182,55.777],[-56.971,55.905]]}},{"type":"Feature","properties":{"boundary_type":"subduction","feature_type":"gpml:SubductionZone","polarity":"Left","overriding_plate_id":201,"subducting_plate_id":501001,"plate_ids":[201,501001],"name":"Amazonia_SZ"},"geometry":{"type":"LineString","coordinates":[[117.856,19.488],[117.578,19.066],[117.301,18.644],[117.026,18.221],[116.751,17.797],[116.479,17.373],[116.207,16.949],[115.937,16.525],[115.667,16.1],[115.399,15.675],[115.132,15.249],[114.867,14.824],[114.602,14.398],[114.338,13.971],[114.075,13.544],[113.813,13.118],[113.552,12.69],[113.292,12.263],[113.033,11.835],[112.775,11.407],[112.517,10.979],[112.26,10.551],[112.004,10.122],[111.748,9.693],[111.493,9.264],[111.239,8.835],[110.985,8.406],[110.732,7.976],[110.48,7.547],[110.228,7.117],[109.976,6.687],[109.725,6.257],[109.474,5.827],[109.224,5.396],[108.974,4.966],[108.724,4.536],[108.475,4.105],[108.226,3.674],[107.977,3.244],[107.728,2.813],[107.48,2.382],[107.232,1.951],[106.983,1.52],[106.735,1.089],[106.487,0.658],[106.239,0.227],[105.991,-0.204],[105.743,-0.635],[105.495,-1.066],[105.336,-1.534],[105.177,-2.002],[105.017,-2.47],[104.857,-2.938],[104.698,-3.406],[104.538,-3.874],[104.378,-4.343],[104.217,-4.811],[104.057,-5.279],[103.896,-5.747],[103.735,-6.214],[103.574,-6.682]]}},{"type":"Feature","properties":{"boundary_type":"subduction","feature_type":"gpml:SubductionZone","polarity":"Left","overriding_plate_id":201,"subducting_plate_id":90105,"plate_ids":[201,90105],"name":"Amazonia_SZ"},"geometry":{"type":"LineString","coordinates":[[103.574,-6.682],[103.419,-7.129],[103.265,-7.575],[103.11,-8.022],[102.955,-8.468],[102.799,-8.914],[102.643,-9.361],[102.487,-9.807],[102.33,-10.253],[102.173,-10.699],[102.156,-11.198],[102.138,-11.697],[102.121,-12.195],[102.103,-12.694],[102.086,-13.193],[102.068,-13.692],[102.051,-14.191],[102.033,-14.69],[102.015,-15.189],[101.997,-15.688],[101.979,-16.187],[101.961,-16.686],[101.943,-17.184],[101.925,-17.683],[101.906,-18.182],[101.888,-18.681],[101.869,-19.18],[101.851,-19.679],[101.993,-20.148],[102.136,-20.616],[102.28,-21.085],[102.426,-21.553],[102.572,-22.021],[102.719,-22.489],[102.867,-22.957],[103.016,-23.425],[103.166,-23.893],[103.317,-24.36],[103.469,-24.828],[103.623,-25.295],[103.777,-25.762],[103.933,-26.229],[104.09,-26.695],[104.249,-27.162],[104.409,-27.628],[104.57,-28.095],[104.732,-28.561],[104.896,-29.026],[105.244,-29.417],[105.595,-29.806],[105.948,-30.195],[106.304,-30.583],[106.663,-30.969],[107.025,-31.355],[107.39,-31.74],[107.757,-32.124],[108.128,-32.506],[108.503,-32.888],[108.88,-33.268],[109.261,-33.647],[109.645,-34.025],[110.032,-34.402],[110.423,-34.778],[110.818,-35.152],[111.216,-35.525],[111.618,-35.897],[112.023,-36.267],[112.433,-36.636],[112.847,-37.004],[113.264,-37.37],[113.686,-37.734],[114.111,-38.097],[114.541,-38.459],[114.976,-38.819],[115.414,-39.177],[115.857,-39.534],[116.305,-39.889],[116.758,-40.242],[117.215,-40.594],[117.677,-40.943],[118.144,-41.291],[118.615,-41.637],[119.092,-41.981],[119.574,-42.323],[120.062,-42.663],[120.555,-43.001],[121.053,-43.336],[121.556,-43.67],[122.066,-44.001],[122.58,-44.33],[123.101,-44.657],[123.628,-44.981],[124.16,-45.303],[124.699,-45.622],[125.244,-45.939],[125.795,-46.253],[126.352,-46.564],[126.916,-46.873],[127.486,-47.179],[128.063,-47.482],[128.646,-47.782],[129.237,-48.079],[129.834,-48.373],[130.438,-48.664],[131.049,-48.952],[131.667,-49.236],[132.292,-49.517],[132.924,-49.795],[133.563,-50.069],[134.21,-50.34],[134.864,-50.607],[135.534,-50.8],[136.21,-50.989]]}},{"type":"Feature","properties":{"boundary_type":"transform","feature_type":"gpml:Transform","polarity":null,"overriding_plate_id":null,"subducting_plate_id":null,"plate_ids":[201,501001],"name":""},"geometry":{"type":"LineString","coordinates":[[117.856,19.488],[118.312,19.234],[118.766,18.978],[119.219,18.722],[119.67,18.464],[120.12,18.205],[120.569,17.945],[121.017,17.685],[121.463,17.423],[121.908,17.16],[122.351,16.896],[122.793,16.631],[123.235,16.366],[123.674,16.099],[124.113,15.831],[124.551,15.563],[124.987,15.294],[125.423,15.024],[125.857,14.753],[126.29,14.481],[126.722,14.208],[127.153,13.935],[127.583,13.661],[128.012,13.386],[128.44,13.111],[128.867,12.835],[129.293,12.558],[129.718,12.28],[130.143,12.002],[130.566,11.723],[130.989,11.443],[131.41,11.163],[131.831,10.883],[132.251,10.601],[132.671,10.32],[133.089,10.037],[133.507,9.754],[133.925,9.471],[134.341,9.187],[134.757,8.903],[135.172,8.618],[135.587,8.333],[136.0,8.047],[136.414,7.761],[136.827,7.474],[137.239,7.187],[137.651,6.9],[138.062,6.613],[138.473,6.325],[138.883,6.036],[139.293,5.748],[139.702,5.459],[140.111,5.17],[140.52,4.88],[140.928,4.591],[141.336,4.301],[141.744,4.011],[142.151,3.72],[142.558,3.43],[142.965,3.139],[143.372,2.848],[143.786,2.568],[144.2,2.287],[144.614,2.007],[145.027,1.726],[145.441,1.445],[145.854,1.164],[146.268,0.883],[146.681,0.602],[147.094,0.321],[147.507,0.04],[147.92,-0.241],[148.334,-0.522],[148.747,-0.803],[149.16,-1.084],[149.573,-1.365],[149.987,-1.646],[150.4,-1.927],[150.814,-2.208],[151.228,-2.488],[151.642,-2.769],[152.056,-3.049],[152.471,-3.329],[152.885,-3.609],[153.3,-3.889],[153.716,-4.169],[154.131,-4.448],[154.547,-4.727],[154.963,-5.006],[155.38,-5.285],[155.797,-5.563],[156.214,-5.841],[156.632,-6.119],[157.05,-6.396],[157.468,-6.673],[157.887,-6.95],[158.307,-7.227],[158.727,-7.503],[159.148,-7.778],[159.569,-8.053],[159.991,-8.328],[160.413,-8.602],[160.836,-8.876],[161.259,-9.15],[161.684,-9.422],[162.109,-9.695],[162.534,-9.967],[162.96,-10.238]]}},{"type":"Feature","properties":{"boundary_type":"transform","feature_type":"gpml:Transform","polarity":null,"overriding_plate_id":null,"subducting_plate_id":null,"plate_ids":[201,501],"name":""},"geometry":{"type":"LineString","coordinates":[[162.96,-10.238],[163.384,-10.506],[163.808,-10.774],[164.232,-11.041],[164.658,-11.308],[165.084,-11.574],[165.512,-11.839],[165.94,-12.104],[166.368,-12.368],[166.798,-12.632],[167.229,-12.895],[167.66,-13.157],[168.093,-13.418],[168.526,-13.679],[168.96,-13.938],[169.396,-14.197],[169.832,-14.456],[170.269,-14.713],[170.707,-14.97],[171.147,-15.226],[171.587,-15.481],[172.029,-15.735],[172.471,-15.988],[172.915,-16.24],[173.36,-16.492],[173.806,-16.742],[174.253,-16.991],[174.702,-17.24],[175.151,-17.487],[175.602,-17.734],[176.054,-17.979],[176.508,-18.224],[176.962,-18.467],[177.418,-18.709],[177.875,-18.95],[178.334,-19.19],[178.794,-19.429],[179.255,-19.667],[179.717,-19.903],[-179.819,-20.139],[-179.353,-20.373],[-178.886,-20.606],[-178.418,-20.837],[-177.949,-21.068],[-177.478,-21.297],[-177.005,-21.524],[-176.531,-21.751],[-176.056,-21.976],[-175.579,-22.199],[-175.1,-22.422],[-174.62,-22.643],[-174.138,-22.862]]}},{"type":"Feature","properties":{"boundary_type":"transform","feature_type":"gpml:Transform","polarity":null,"overriding_plate_id":null,"subducting_plate_id":null,"plate_ids":[101,201],"name":""},"geometry":{"type":"LineString","coordinates":[[-174.138,-22.862],[-173.7,-23.06],[-173.261,-23.256],[-172.82,-23.452],[-172.378,-23.646],[-171.934,-23.839],[-171.49,-24.03]]}},{"type":"Feature","properties":{"boundary_type":"transform","feature_type":"gpml:Transform","polarity":null,"overriding_plate_id":null,"subducting_plate_id":null,"plate_ids":[401,701],"name":""},"geometry":{"type":"LineString","coordinates":[[-153.486,-33.219],[-153.041,-33.352],[-152.594,-33.483],[-152.146,-33.613],[-151.697,-33.74],[-151.121,-33.847],[-150.545,-33.95],[-149.967,-34.051],[-149.388,-34.149],[-148.807,-34.244],[-148.226,-34.337],[-147.642,-34.427],[-147.058,-34.514],[-146.473,-34.599],[-145.886,-34.68],[-145.298,-34.759],[-144.709,-34.835],[-144.119,-34.908],[-143.528,-34.978],[-142.936,-35.045],[-142.343,-35.11],[-141.749,-35.171],[-141.154,-35.23],[-140.559,-35.286],[-139.962,-35.339],[-139.365,-35.388],[-138.767,-35.435],[-138.168,-35.479],[-137.569,-35.52],[-136.969,-35.558],[-136.369,-35.594],[-135.768,-35.626],[-135.167,-35.655],[-134.565,-35.681],[-133.963,-35.704],[-133.36,-35.724],[-132.758,-35.741],[-132.155,-35.755],[-131.552,-35.767],[-130.948,-35.775],[-130.343,-35.716],[-129.739,-35.655],[-129.136,-35.591],[-128.534,-35.523],[-127.933,-35.453],[-127.333,-35.38],[-126.735,-35.304],[-126.137,-35.225],[-125.541,-35.142],[-124.945,-35.057],[-124.351,-34.969],[-123.759,-34.879],[-123.167,-34.785],[-122.577,-34.688],[-121.989,-34.589],[-121.401,-34.487],[-120.816,-34.382],[-120.231,-34.274],[-119.649,-34.164],[-119.067,-34.05],[-118.488,-33.934],[-117.91,-33.816],[-117.333,-33.694],[-116.759,-33.57],[-116.186,-33.443],[-115.614,-33.314],[-115.044,-33.182],[-114.477,-33.048],[-113.91,-32.911],[-113.346,-32.771]]}},{"type":"Feature","properties":{"boundary_type":"transform","feature_type":"gpml:Transform","polarity":null,"overriding_plate_id":null,"subducting_plate_id":null,"plate_ids":[701,801],"name":""},"geometry":{"type":"LineString","coordinates":[[-113.346,-32.771],[-112.822,-32.638],[-112.299,-32.504],[-111.778,-32.367],[-111.258,-32.228],[-110.741,-32.087],[-110.188,-31.936],[-109.636,-31.783],[-109.087,-31.627],[-108.539,-31.468],[-107.994,-31.308],[-107.45,-31.145],[-106.908,-30.979],[-106.368,-30.812],[-105.83,-30.642],[-105.293,-30.47],[-104.759,-30.296],[-104.227,-30.12],[-103.696,-29.941],[-103.167,-29.761],[-102.641,-29.578],[-102.116,-29.394],[-101.593,-29.207],[-101.072,-29.018],[-100.553,-28.827]]}},{"type":"Feature","properties":{"boundary_type":"transform","feature_type":"gpml:Transform","polarity":null,"overriding_plate_id":null,"subducting_plate_id":null,"plate_ids":[101,401],"name":""},"geometry":{"type":"LineString","coordinates":[[-145.091,-11.873],[-144.582,-11.867],[-144.073,-11.86],[-143.563,-11.852],[-143.054,-11.843],[-142.545,-11.833],[-142.036,-11.822],[-141.526,-11.81],[-141.017,-11.798],[-140.508,-11.784],[-139.999,-11.77],[-139.49,-11.755],[-138.981,-11.738],[-138.472,-11.721],[-137.964,-11.703],[-137.455,-11.684],[-136.946,-11.665],[-136.438,-11.644],[-135.929,-11.622],[-135.421,-11.6],[-134.912,-11.577],[-134.404,-11.552],[-133.896,-11.527],[-133.388,-11.501],[-132.88,-11.474],[-132.372,-11.446],[-131.864,-11.418],[-131.357,-11.388],[-130.849,-11.358],[-130.342,-11.327],[-129.834,-11.295],[-129.327,-11.262],[-128.82,-11.228],[-128.313,-11.193],[-127.806,-11.157],[-127.299,-11.121],[-126.793,-11.084],[-126.286,-11.046],[-125.78,-11.007],[-125.274,-10.967],[-124.768,-10.926],[-124.262,-10.885],[-123.756,-10.843],[-123.25,-10.799],[-122.745,-10.756],[-122.239,-10.711],[-121.734,-10.665],[-121.229,-10.619],[-120.724,-10.572],[-120.22,-10.524],[-119.715,-10.475],[-119.211,-10.425],[-118.706,-10.375],[-118.202,-10.324],[-117.698,-10.272],[-117.195,-10.219]]}},{"type":"Feature","properties":{"boundary_type":"transform","feature_type":"gpml:Transform","polarity":null,"overriding_plate_id":null,"subducting_plate_id":null,"plate_ids":[101,801],"name":""},"geometry":{"type":"LineString","coordinates":[[-117.195,-10.219],[-116.743,-10.171],[-116.293,-10.123],[-115.842,-10.074],[-115.391,-10.024],[-114.941,-9.974],[-114.49,-9.923],[-114.04,-9.871],[-113.59,-9.819]]}},{"type":"Feature","properties":{"boundary_type":"subduction","feature_type":"gpml:SubductionZone","polarity":"Left","overriding_plate_id":401,"subducting_plate_id":101,"plate_ids":[101,401],"name":""},"geometry":{"type":"LineString","coordinates":[[-145.091,-11.873],[-145.367,-12.257],[-145.644,-12.641],[-145.922,-13.025],[-146.2,-13.408],[-146.48,-13.791],[-146.76,-14.173],[-147.041,-14.556],[-147.323,-14.938],[-147.542,-15.381],[-147.761,-15.824],[-147.982,-16.266],[-148.203,-16.709],[-148.426,-17.151],[-148.649,-17.593],[-148.874,-18.035],[-149.1,-18.477],[-149.327,-18.918],[-149.555,-19.359],[-149.68,-19.83],[-149.806,-20.301],[-149.933,-20.772],[-150.06,-21.243],[-150.189,-21.714],[-150.318,-22.185],[-150.448,-22.655],[-150.579,-23.126],[-150.711,-23.596],[-150.843,-24.067],[-150.977,-24.537],[-151.112,-25.007],[-151.248,-25.477],[-151.385,-25.947],[-151.523,-26.417],[-151.662,-26.886],[-151.79,-27.359],[-151.92,-27.832],[-152.05,-28.304],[-152.182,-28.777],[-152.315,-29.249],[-152.449,-29.721],[-152.584,-30.193],[-152.721,-30.665],[-152.859,-31.137],[-152.999,-31.608],[-153.139,-32.08],[-153.282,-32.551]]}},{"type":"Feature","properties":{"boundary_type":"subduction","feature_type":"gpml:SubductionZone","polarity":"Left","overriding_plate_id":401,"subducting_plate_id":701,"plate_ids":[401,701],"name":""},"geometry":{"type":"LineString","coordinates":[[-153.282,-32.551],[-153.384,-32.885],[-153.486,-33.219]]}},{"type":"Feature","properties":{"boundary_type":"subduction","feature_type":"gpml:SubductionZone","polarity":"Left","overriding_plate_id":801,"subducting_plate_id":101,"plate_ids":[101,801],"name":""},"geometry":{"type":"LineString","coordinates":[[-103.727,9.739],[-104.047,9.377],[-104.367,9.015],[-104.686,8.652],[-105.004,8.289],[-105.321,7.926],[-105.638,7.563],[-105.955,7.2],[-106.271,6.836],[-106.586,6.472],[-106.901,6.108],[-107.216,5.743],[-107.53,5.379],[-107.844,5.014],[-108.157,4.649],[-108.47,4.284],[-108.669,3.833],[-108.868,3.381],[-109.066,2.93],[-109.265,2.478],[-109.463,2.027],[-109.661,1.575],[-109.859,1.123],[-110.057,0.672],[-110.255,0.22],[-110.453,-0.232],[-110.651,-0.684],[-110.848,-1.135],[-111.046,-1.587],[-111.244,-2.039],[-111.443,-2.49],[-111.641,-2.942],[-111.839,-3.393],[-112.038,-3.845],[-112.156,-4.305],[-112.275,-4.764],[-112.393,-5.224],[-112.512,-5.684],[-112.631,-6.143],[-112.75,-6.603],[-112.869,-7.063],[-112.988,-7.522],[-113.108,-7.982],[-113.228,-8.441],[-113.348,-8.901],[-113.469,-9.36],[-113.59,-9.819]]}},{"type":"Feature","properties":{"boundary_type":"ridge","feature_type":"gpml:MidOceanRidge","polarity":null,"overriding_plate_id":null,"subducting_plate_id":null,"plate_ids":[401,801],"name":""},"geometry":{"type":"LineString","coordinates":[[-113.346,-32.771],[-113.438,-32.293],[-113.53,-31.816],[-113.621,-31.338],[-113.71,-30.861],[-113.799,-30.383],[-113.887,-29.905],[-113.974,-29.428],[-114.061,-28.95],[-114.146,-28.472],[-114.231,-27.994],[-114.315,-27.516],[-114.398,-27.038],[-114.481,-26.56],[-114.563,-26.082],[-114.644,-25.604],[-114.725,-25.125],[-114.805,-24.647],[-114.884,-24.169],[-114.963,-23.69],[-115.041,-23.212],[-115.119,-22.734],[-115.196,-22.255],[-115.272,-21.777],[-115.348,-21.298],[-115.424,-20.819],[-115.499,-20.341],[-115.574,-19.862],[-115.648,-19.383],[-115.722,-18.905],[-116.184,-18.935],[-116.647,-18.964],[-117.11,-18.992],[-117.115,-18.505],[-117.12,-18.018],[-117.125,-17.53],[-117.129,-17.043],[-117.134,-16.555],[-117.139,-16.068],[-117.144,-15.581],[-117.148,-15.093],[-117.153,-14.606],[-117.158,-14.118],[-117.162,-13.631],[-117.167,-13.144],[-117.172,-12.656],[-117.176,-12.169],[-117.181,-11.681],[-117.185,-11.194],[-117.19,-10.707],[-117.195,-10.219]]}},{"type":"Feature","properties":{"boundary_type":"transform","feature_type":"gpml:Transform","polarity":null,"overriding_plate_id":null,"subducting_plate_id":null,"plate_ids":[101,501],"name":""},"geometry":{"type":"LineString","coordinates":[[-175.974,3.59],[-175.577,3.286],[-175.179,2.983],[-174.782,2.679],[-174.385,2.374],[-173.988,2.07],[-173.591,1.766],[-173.194,1.461],[-172.798,1.157],[-172.401,0.852],[-172.005,0.548],[-171.609,0.243],[-171.212,-0.062],[-170.816,-0.366],[-170.42,-0.671],[-170.023,-0.976],[-169.627,-1.28],[-169.23,-1.585],[-168.834,-1.889],[-168.437,-2.194],[-168.04,-2.498],[-167.643,-2.802],[-167.245,-3.106],[-166.848,-3.41],[-166.45,-3.713],[-166.052,-4.017],[-165.653,-4.32],[-165.254,-4.623],[-164.855,-4.926],[-164.456,-5.229]]}},{"type":"Feature","properties":{"boundary_type":"ridge","feature_type":"gpml:MidOceanRidge","polarity":null,"overriding_plate_id":null,"subducting_plate_id":null,"plate_ids":[90106,501001],"name":""},"geometry":{"type":"LineString","coordinates":[[-173.492,46.694],[-174.176,46.852],[-174.864,47.006],[-175.556,47.155],[-176.252,47.301],[-176.952,47.442],[-177.656,47.579],[-178.363,47.712],[-179.074,47.84],[-179.788,47.964],[179.495,48.084],[178.774,48.199],[178.05,48.309],[177.323,48.415],[176.593,48.516],[175.86,48.613],[175.124,48.705],[174.386,48.792],[173.645,48.875],[172.902,48.953],[172.156,49.026],[171.409,49.094],[170.659,49.157],[169.908,49.216],[169.155,49.269],[168.4,49.318],[167.644,49.362],[166.887,49.401],[166.128,49.434],[165.369,49.463],[164.609,49.487],[163.848,49.506],[163.087,49.52],[162.325,49.529],[161.563,49.533],[160.801,49.532],[160.039,49.526],[159.277,49.515],[158.516,49.499],[157.755,49.478],[156.995,49.452],[156.236,49.421],[155.478,49.385],[154.722,49.344],[153.966,49.298],[153.212,49.247],[152.46,49.192],[151.709,49.131],[150.961,49.066],[150.214,48.996],[149.469,48.921],[148.727,48.841],[147.987,48.756],[147.25,48.667],[146.912,48.252],[146.578,47.836],[146.25,47.42],[145.928,47.002],[145.61,46.583],[145.297,46.164],[144.989,45.744],[144.685,45.322],[144.386,44.901],[144.092,44.478],[143.801,44.054],[143.515,43.63],[143.233,43.205],[142.954,42.78],[142.68,42.354],[142.409,41.927],[141.758,42.021],[141.106,42.112],[140.451,42.199],[139.795,42.282],[139.137,42.361],[138.477,42.437],[137.816,42.509],[137.154,42.577],[136.49,42.641],[135.824,42.702],[135.158,42.758],[134.49,42.811],[133.821,42.86],[133.151,42.905],[132.48,42.946],[131.809,42.983],[131.136,43.016],[130.463,43.045],[129.789,43.071],[129.115,43.092],[128.441,43.109],[127.766,43.123],[127.09,43.132],[126.415,43.137],[125.739,43.139],[125.064,43.136],[124.389,43.13],[124.367,42.637],[124.345,42.144],[124.324,41.651],[124.303,41.157],[124.283,40.664],[124.262,40.171],[124.242,39.678],[124.223,39.185],[124.203,38.691],[124.184,38.198],[124.165,37.705],[124.147,37.212],[124.128,36.719],[124.11,36.225],[124.092,35.732],[124.074,35.239],[124.057,34.746],[124.04,34.253],[124.022,33.759],[124.006,33.266],[123.989,32.773],[123.972,32.28],[123.389,32.233],[122.807,32.184],[122.225,32.132],[121.644,32.077],[121.063,32.02],[120.484,31.96],[119.905,31.898],[119.326,31.833],[118.749,31.765],[118.173,31.695],[117.597,31.622],[117.022,31.546],[116.449,31.468],[115.876,31.388],[115.304,31.304],[114.734,31.219],[114.164,31.13],[113.595,31.04],[113.028,30.947],[112.462,30.851],[111.896,30.753],[111.332,30.652],[110.769,30.549],[110.208,30.444],[109.647,30.336],[109.088,30.226],[108.53,30.113],[107.973,29.998],[107.418,29.881],[106.864,29.761],[106.311,29.639],[105.76,29.515],[105.21,29.389],[104.661,29.26],[104.114,29.129],[103.568,28.996],[103.024,28.861],[102.481,28.723],[101.94,28.584],[101.399,28.442],[100.861,28.298],[100.324,28.152],[99.788,28.004],[99.254,27.853],[98.721,27.701],[98.19,27.547],[97.66,27.39],[97.132,27.232],[96.605,27.072],[96.08,26.91],[95.556,26.745],[95.034,26.579],[94.514,26.411],[93.994,26.241],[93.477,26.07]]}},{"type":"Feature","properties":{"boundary_type":"ridge","feature_type":"gpml:MidOceanRidge","polarity":null,"overriding_plate_id":null,"subducting_plate_id":null,"plate_ids":[90105,501001],"name":""},"geometry":{"type":"LineString","coordinates":[[97.346,25.76],[96.894,25.471],[96.444,25.181],[95.996,24.889],[95.55,24.595],[95.107,24.301],[94.665,24.005],[94.226,23.708],[93.788,23.41],[93.352,23.11],[92.919,22.809],[92.487,22.507],[92.057,22.204],[91.629,21.9],[91.203,21.595],[90.779,21.289],[90.356,20.981],[89.935,20.673],[89.516,20.363],[89.098,20.053],[88.683,19.741],[88.268,19.429],[87.856,19.116],[87.445,18.801],[87.035,18.486],[86.627,18.17],[86.221,17.853],[85.816,17.536],[85.412,17.217],[85.01,16.898],[85.381,16.557],[85.751,16.215],[86.12,15.873],[86.487,15.53],[86.854,15.186],[87.219,14.842],[87.583,14.498],[87.946,14.152],[88.307,13.807],[88.668,13.46],[89.028,13.114],[89.386,12.766],[89.744,12.419],[90.1,12.07],[90.456,11.722],[90.811,11.373],[91.165,11.023],[91.518,10.673],[91.87,10.323],[92.222,9.972],[92.573,9.621],[92.923,9.269],[93.272,8.918],[93.621,8.565],[93.969,8.213],[94.316,7.86],[94.663,7.507],[95.009,7.154],[95.355,6.8],[95.7,6.447],[96.045,6.093],[96.389,5.738],[96.733,5.384],[97.076,5.029],[97.419,4.674],[97.762,4.319],[98.104,3.964],[97.822,3.612],[97.539,3.26],[97.257,2.908],[96.975,2.556],[96.693,2.203],[96.411,1.851],[96.721,1.479],[97.032,1.108],[97.342,0.737],[97.653,0.365],[97.963,-0.006],[98.273,-0.378],[98.584,-0.749],[98.894,-1.121],[99.204,-1.492],[99.515,-1.864],[99.826,-2.235],[100.136,-2.606],[100.447,-2.977],[100.759,-3.348],[101.07,-3.719],[101.382,-4.09],[101.694,-4.461],[102.006,-4.832],[102.319,-5.202],[102.632,-5.572],[102.945,-5.943],[103.259,-6.313],[103.574,-6.682]]}},{"type":"Feature","properties":{"boundary_type":"subduction","feature_type":"gpml:SubductionZone","polarity":"Right","overriding_plate_id":701,"subducting_plate_id":90105,"plate_ids":[701,90105],"name":""},"geometry":{"type":"LineString","coordinates":[[22.337,-69.454],[23.301,-69.809],[24.297,-70.159],[25.327,-70.502],[26.393,-70.84],[27.494,-71.172],[28.634,-71.496],[29.812,-71.814],[31.031,-72.124],[32.29,-72.427],[33.592,-72.721],[34.936,-73.006],[36.324,-73.283],[37.757,-73.549],[39.235,-73.806],[40.759,-74.053],[42.327,-74.288],[43.941,-74.511],[45.6,-74.723],[47.303,-74.922],[49.05,-75.108],[50.837,-75.281],[52.665,-75.44],[54.53,-75.584],[56.43,-75.713],[58.361,-75.827],[60.34,-75.934],[62.346,-76.025],[64.376,-76.099],[66.425,-76.157],[68.488,-76.197],[70.56,-76.22],[72.636,-76.226],[74.712,-76.214],[76.781,-76.185],[78.84,-76.139],[80.882,-76.075],[82.904,-75.995],[84.901,-75.898],[86.869,-75.785],[88.805,-75.656],[90.705,-75.512],[92.566,-75.352],[94.386,-75.179],[96.164,-74.991],[97.897,-74.79],[99.584,-74.576],[101.225,-74.349],[102.819,-74.111],[104.367,-73.861],[105.867,-73.601],[107.321,-73.33],[108.729,-73.049],[110.091,-72.759],[111.409,-72.46],[112.684,-72.153],[113.917,-71.838],[115.108,-71.515],[116.259,-71.185],[117.372,-70.848],[118.448,-70.504],[119.487,-70.155],[120.491,-69.8],[121.462,-69.439],[122.4,-69.073],[123.308,-68.702],[124.186,-68.326],[125.035,-67.946],[125.856,-67.561],[126.651,-67.173],[127.421,-66.78],[128.166,-66.384],[128.889,-65.985],[129.588,-65.582],[130.267,-65.177],[130.925,-64.768],[131.563,-64.356],[132.182,-63.942],[132.783,-63.525],[133.367,-63.106],[133.934,-62.684],[134.486,-62.261],[135.021,-61.835],[135.543,-61.407],[136.05,-60.977],[136.543,-60.545],[137.024,-60.112],[137.492,-59.676],[137.948,-59.239],[138.392,-58.801],[138.825,-58.361],[139.248,-57.92],[139.66,-57.477],[140.062,-57.033],[140.455,-56.588],[140.839,-56.141],[141.214,-55.694],[141.58,-55.245],[141.939,-54.795],[142.289,-54.344],[142.632,-53.892],[142.967,-53.44],[143.296,-52.986],[143.617,-52.531],[143.932,-52.076],[144.24,-51.62],[144.543,-51.162],[144.839,-50.705],[145.13,-50.246]]}},{"type":"Feature","properties":{"boundary_type":"ridge","feature_type":"gpml:MidOceanRidge","polarity":null,"overriding_plate_id":null,"subducting_plate_id":null,"plate_ids":[701,90107],"name":""},"geometry":{"type":"LineString","coordinates":[[-8.881,-48.618],[-8.824,-49.036],[-8.766,-49.455],[-8.707,-49.874],[-8.648,-50.292],[-8.587,-50.711],[-8.525,-51.129]]}},{"type":"Feature","properties":{"boundary_type":"ridge","feature_type":"gpml:MidOceanRidge","polarity":null,"overriding_plate_id":null,"subducting_plate_id":null,"plate_ids":[701,90105],"name":""},"geometry":{"type":"LineString","coordinates":[[-8.525,-51.129],[-8.451,-51.622],[-8.375,-52.115],[-8.297,-52.608],[-8.218,-53.1],[-8.136,-53.593],[-8.053,-54.085],[-7.968,-54.578],[-7.881,-55.07],[-7.791,-55.562],[-7.699,-56.055],[-7.605,-56.547],[-7.509,-57.039],[-7.409,-57.531],[-7.308,-58.023],[-7.203,-58.515],[-7.095,-59.007],[-6.165,-58.974],[-5.238,-58.936],[-4.312,-58.89],[-3.389,-58.838],[-2.469,-58.78],[-2.223,-59.237],[-1.971,-59.695],[-1.711,-60.151],[-1.444,-60.608],[-1.17,-61.063],[-0.888,-61.519],[-0.597,-61.973],[-0.297,-62.427],[0.012,-62.88],[0.33,-63.333],[0.659,-63.785],[0.999,-64.236],[1.349,-64.686],[1.712,-65.135],[2.087,-65.584],[3.021,-65.873],[3.976,-66.157],[4.953,-66.434],[5.951,-66.705],[6.972,-66.97],[8.014,-67.228],[9.079,-67.48],[10.166,-67.724],[11.276,-67.96],[12.408,-68.189],[13.563,-68.411],[14.739,-68.624],[15.939,-68.828],[17.16,-69.024],[18.402,-69.212],[19.665,-69.39],[20.949,-69.559],[22.337,-69.454]]}},{"type":"Feature","properties":{"boundary_type":"ridge","feature_type":"gpml:MidOceanRidge","polarity":null,"overriding_plate_id":null,"subducting_plate_id":null,"plate_ids":[90105,501001],"name":""},"geometry":{"type":"LineString","coordinates":[[97.346,25.76],[96.795,25.811],[96.243,25.859],[95.69,25.905],[95.138,25.95],[94.584,25.992],[94.031,26.032],[93.477,26.07]]}},{"type":"Feature","properties":{"boundary_type":"ridge","feature_type":"gpml:MidOceanRidge","polarity":null,"overriding_plate_id":null,"subducting_plate_id":null,"plate_ids":[90105,90106],"name":""},"geometry":{"type":"LineString","coordinates":[[93.477,26.07],[92.938,26.104],[92.399,26.137],[91.859,26.168],[91.32,26.197],[90.78,26.224],[90.239,26.248],[89.699,26.271],[89.158,26.292],[88.617,26.31],[88.076,26.327],[87.535,26.342],[86.994,26.354],[86.453,26.365],[85.911,26.373],[85.37,26.38],[84.828,26.384],[84.286,26.387],[83.745,26.387],[83.203,26.385],[82.661,26.382],[82.12,26.376],[82.156,26.791],[82.192,27.206],[82.229,27.621],[81.666,27.613],[81.102,27.603],[80.539,27.591],[79.976,27.576],[79.414,27.559],[78.851,27.539],[78.289,27.518],[77.726,27.494],[77.165,27.468],[76.603,27.44],[76.042,27.409],[75.481,27.376],[74.92,27.341],[74.36,27.304],[73.8,27.264],[73.24,27.223],[72.681,27.179],[72.123,27.132],[71.564,27.084],[71.007,27.033],[70.45,26.981],[69.893,26.926],[69.337,26.868],[68.782,26.809],[68.227,26.748],[67.672,26.684],[67.119,26.618],[66.566,26.55],[66.013,26.48],[65.462,26.408],[64.911,26.333],[64.361,26.257],[63.811,26.178],[63.262,26.098],[62.714,26.015],[62.167,25.93],[62.082,26.403],[61.997,26.875],[61.91,27.347],[61.823,27.819],[61.735,28.291],[61.647,28.763],[61.557,29.235],[61.467,29.706],[61.376,30.178],[61.284,30.65],[60.708,30.615],[60.132,30.577],[59.556,30.537],[58.981,30.494],[58.407,30.449],[57.833,30.401],[57.26,30.351],[56.687,30.298],[56.115,30.242],[55.544,30.185],[54.973,30.125],[54.403,30.062],[53.834,29.997],[53.265,29.929],[52.697,29.859],[52.131,29.787],[51.564,29.712],[50.999,29.634],[50.435,29.555],[49.871,29.473],[49.309,29.388],[48.747,29.302],[48.187,29.212],[47.627,29.121],[47.069,29.027],[46.511,28.931],[45.955,28.833],[45.399,28.732],[44.845,28.629],[44.291,28.524],[43.739,28.417],[43.188,28.307],[42.638,28.195],[42.09,28.081],[41.542,27.965],[40.996,27.846],[40.45,27.726],[39.906,27.603],[39.364,27.479],[38.822,27.352],[38.282,27.223],[37.743,27.092],[37.205,26.959],[36.669,26.824],[36.134,26.686],[35.6,26.547],[35.067,26.406],[34.536,26.263],[34.006,26.118],[33.478,25.971],[32.95,25.822],[32.424,25.672],[31.9,25.519]]}},{"type":"Feature","properties":{"boundary_type":"subduction","feature_type":"gpml:SubductionZone","polarity":"Right","overriding_plate_id":201,"subducting_plate_id":101,"plate_ids":[101,201],"name":""},"geometry":{"type":"LineString","coordinates":[[-171.49,-24.03],[-171.808,-24.404],[-172.129,-24.778],[-172.451,-25.15],[-172.776,-25.522],[-173.102,-25.894],[-173.431,-26.264],[-173.761,-26.634],[-174.094,-27.003]]}},{"type":"Feature","properties":{"boundary_type":"subduction","feature_type":"gpml:SubductionZone","polarity":"Right","overriding_plate_id":201,"subducting_plate_id":701,"plate_ids":[201,701],"name":""},"geometry":{"type":"LineString","coordinates":[[-174.094,-27.003],[-174.443,-27.387],[-174.795,-27.77],[-175.148,-28.152],[-175.505,-28.533],[-175.864,-28.913],[-176.226,-29.292],[-176.59,-29.67],[-176.957,-30.048],[-177.327,-30.424],[-177.7,-30.799],[-178.076,-31.173],[-178.454,-31.546],[-178.836,-31.917],[-179.221,-32.288],[-179.609,-32.658],[180.0,-33.026],[179.605,-33.393],[179.207,-33.759],[178.806,-34.123],[178.402,-34.486],[177.993,-34.848],[177.582,-35.209],[177.166,-35.568],[176.747,-35.925],[176.324,-36.281],[175.897,-36.636],[175.466,-36.989],[175.031,-37.34],[174.592,-37.69],[174.13,-38.017],[173.663,-38.343],[173.191,-38.666],[172.716,-38.987],[172.236,-39.307],[171.752,-39.624],[171.264,-39.94],[170.771,-40.253],[170.273,-40.565],[169.771,-40.874],[169.264,-41.181],[168.752,-41.485],[168.235,-41.788],[167.714,-42.088],[167.188,-42.385],[166.656,-42.681],[166.12,-42.973],[165.578,-43.264],[165.032,-43.551],[164.48,-43.836],[163.922,-44.119],[163.36,-44.398],[162.792,-44.675],[162.219,-44.949],[161.64,-45.22],[161.056,-45.488],[160.466,-45.754],[159.87,-46.016],[159.269,-46.275],[158.663,-46.53],[158.05,-46.783],[157.432,-47.032],[156.808,-47.278],[156.178,-47.52],[155.543,-47.759],[154.901,-47.995],[154.254,-48.227],[153.579,-48.407],[152.9,-48.583],[152.216,-48.756],[151.527,-48.924],[150.834,-49.088],[150.136,-49.248],[149.434,-49.404],[148.727,-49.555],[148.016,-49.702],[147.301,-49.845],[146.581,-49.983],[145.857,-50.117],[145.13,-50.246]]}},{"type":"Feature","properties":{"boundary_type":"subduction","feature_type":"gpml:SubductionZone","polarity":"Right","overriding_plate_id":201,"subducting_plate_id":90105,"plate_ids":[201,90105],"name":""},"geometry":{"type":"LineString","coordinates":[[145.13,-50.246],[144.49,-50.355],[143.848,-50.461],[143.202,-50.564],[142.554,-50.662],[141.903,-50.757],[141.25,-50.849],[140.532,-50.882],[139.813,-50.911],[139.094,-50.935],[138.373,-50.956],[137.653,-50.971],[136.931,-50.982],[136.21,-50.989]]}},{"type":"Feature","properties":{"boundary_type":"ridge","feature_type":"gpml:MidOceanRidge","polarity":null,"overriding_plate_id":null,"subducting_plate_id":null,"plate_ids":[90106,90107],"name":""},"geometry":{"type":"LineString","coordinates":[[32.199,25.955],[31.875,26.333],[31.549,26.71],[31.221,27.087],[30.89,27.463],[30.557,27.839],[30.222,28.213],[29.885,28.587],[29.545,28.959],[29.203,29.331],[28.858,29.702],[28.511,30.073],[28.161,30.442],[27.808,30.81],[27.453,31.178],[27.095,31.544],[26.734,31.909],[27.17,32.216],[27.608,32.521],[28.05,32.825],[28.494,33.127],[28.942,33.428],[29.392,33.727],[29.048,34.135],[28.7,34.543],[28.349,34.949],[27.994,35.355],[27.636,35.76],[27.274,36.163],[26.908,36.565],[26.538,36.967],[26.165,37.367],[25.788,37.766],[25.406,38.163],[25.02,38.56],[24.63,38.955],[24.236,39.349],[23.837,39.741],[23.434,40.132],[23.026,40.522],[22.613,40.91],[22.195,41.297],[21.773,41.682],[21.345,42.066],[20.912,42.448],[20.474,42.828],[20.03,43.207],[19.581,43.584],[19.126,43.959],[18.666,44.332],[18.199,44.704],[17.727,45.073],[17.248,45.441],[16.763,45.807],[16.272,46.17],[15.774,46.531],[15.27,46.891],[14.759,47.247],[14.241,47.602],[13.716,47.954],[13.183,48.304],[12.644,48.652],[12.097,48.996],[11.542,49.338],[10.979,49.678],[10.409,50.015],[9.831,50.348],[9.244,50.679],[8.65,51.007],[8.046,51.332],[7.435,51.654],[6.814,51.973],[6.185,52.288],[5.546,52.6],[4.899,52.908],[4.242,53.213],[3.576,53.514],[2.901,53.811],[2.216,54.105],[1.521,54.395],[0.817,54.68],[0.102,54.962],[-0.622,55.239],[-1.357,55.511],[-2.101,55.78],[-2.856,56.044],[-3.622,56.303],[-4.397,56.557],[-5.183,56.807],[-5.98,57.051],[-6.787,57.29],[-7.604,57.524],[-8.432,57.753],[-9.27,57.976],[-10.118,58.194],[-10.977,58.406],[-11.846,58.612],[-12.726,58.812],[-13.615,59.007],[-14.514,59.195],[-15.423,59.376],[-16.342,59.552],[-17.27,59.721],[-18.207,59.883],[-19.154,60.038],[-20.109,60.187],[-21.072,60.329],[-22.044,60.464],[-23.024,60.591],[-24.011,60.712],[-25.006,60.825],[-26.007,60.931],[-27.015,61.029],[-28.028,61.119],[-29.048,61.202],[-30.072,61.278],[-31.101,61.345],[-32.134,61.405],[-33.171,61.457],[-34.212,61.501],[-35.254,61.537],[-36.3,61.565],[-37.346,61.585],[-38.394,61.597],[-39.442,61.601],[-40.49,61.598],[-41.538,61.586],[-42.585,61.566],[-43.63,61.538],[-44.673,61.502],[-45.713,61.458],[-46.75,61.406],[-47.784,61.346],[-48.813,61.279],[-49.837,61.204],[-50.857,61.121],[-51.87,61.03],[-52.878,60.932]]}},{"type":"Feature","properties":{"boundary_type":"ridge","feature_type":"gpml:MidOceanRidge","polarity":null,"overriding_plate_id":null,"subducting_plate_id":null,"plate_ids":[701,90107],"name":""},"geometry":{"type":"LineString","coordinates":[[-8.881,-48.618],[-9.62,-48.616],[-10.36,-48.609],[-11.099,-48.598],[-11.838,-48.581],[-12.577,-48.561],[-13.315,-48.535],[-14.052,-48.505],[-14.788,-48.47],[-15.522,-48.43],[-16.256,-48.386],[-16.988,-48.337],[-17.719,-48.283],[-18.449,-48.225],[-19.176,-48.162],[-19.902,-48.095],[-20.626,-48.023],[-21.347,-47.946],[-22.067,-47.865],[-22.784,-47.78],[-23.499,-47.69],[-24.211,-47.596],[-24.921,-47.497],[-24.844,-47.004],[-24.769,-46.512],[-24.695,-46.019],[-24.623,-45.526],[-24.551,-45.033],[-24.481,-44.541],[-24.412,-44.048],[-24.345,-43.555],[-24.278,-43.062],[-24.213,-42.569],[-24.148,-42.076],[-24.085,-41.583],[-24.022,-41.09],[-23.96,-40.597],[-23.9,-40.104],[-23.84,-39.61],[-23.781,-39.117],[-23.723,-38.624],[-23.665,-38.131],[-23.609,-37.637],[-23.553,-37.144],[-23.498,-36.651],[-23.443,-36.157],[-23.389,-35.664],[-23.336,-35.171],[-23.284,-34.677],[-23.232,-34.184],[-23.181,-33.69],[-23.13,-33.197],[-23.08,-32.703],[-23.03,-32.21],[-22.981,-31.716],[-22.933,-31.223],[-22.885,-30.729],[-22.837,-30.235],[-22.79,-29.742],[-22.744,-29.248],[-22.698,-28.754],[-22.652,-28.261],[-23.17,-28.123],[-23.686,-27.983],[-24.201,-27.841],[-24.715,-27.697],[-25.227,-27.552],[-25.738,-27.404],[-26.247,-27.255],[-26.756,-27.103],[-27.262,-26.95],[-27.768,-26.795],[-28.272,-26.639],[-28.774,-26.48],[-29.276,-26.32],[-29.775,-26.158],[-30.274,-25.995],[-30.771,-25.829],[-31.267,-25.662],[-31.761,-25.494],[-32.254,-25.323],[-32.068,-24.853],[-31.885,-24.383],[-31.702,-23.912],[-31.521,-23.441],[-31.341,-22.97],[-31.163,-22.499],[-30.985,-22.028],[-30.809,-21.556],[-30.634,-21.085],[-30.46,-20.613],[-30.287,-20.141],[-30.116,-19.668],[-29.945,-19.196],[-29.775,-18.723],[-29.606,-18.251],[-29.438,-17.778],[-29.271,-17.305],[-29.105,-16.831],[-28.94,-16.358],[-28.775,-15.885],[-28.611,-15.411],[-28.448,-14.938],[-28.286,-14.464],[-28.124,-13.99],[-27.963,-13.516],[-27.803,-13.042],[-27.643,-12.568],[-27.484,-12.093],[-27.325,-11.619],[-27.167,-11.144],[-27.01,-10.67],[-26.853,-10.195],[-26.696,-9.72],[-26.54,-9.246],[-26.384,-8.771],[-26.229,-8.296],[-26.074,-7.821],[-25.919,-7.346],[-25.765,-6.871],[-25.611,-6.396],[-25.458,-5.921],[-25.304,-5.445],[-25.151,-4.97],[-24.998,-4.495],[-24.845,-4.019],[-24.693,-3.544],[-24.54,-3.069],[-24.388,-2.593],[-24.236,-2.118],[-24.084,-1.642],[-23.932,-1.167],[-23.78,-0.692],[-23.628,-0.216],[-23.476,0.259],[-23.324,0.735],[-23.172,1.21],[-23.02,1.686],[-22.868,2.161],[-22.716,2.637],[-22.564,3.112],[-22.412,3.587],[-22.259,4.063],[-22.106,4.538],[-21.953,5.013]]}},{"type":"Feature","properties":{"boundary_type":"ridge","feature_type":"gpml:MidOceanRidge","polarity":null,"overriding_plate_id":null,"subducting_plate_id":null,"plate_ids":[90106,90107],"name":""},"geometry":{"type":"LineString","coordinates":[[32.199,25.955],[32.049,25.737],[31.9,25.519]]}},{"type":"Feature","properties":{"boundary_type":"ridge","feature_type":"gpml:MidOceanRidge","polarity":null,"overriding_plate_id":null,"subducting_plate_id":null,"plate_ids":[90105,90107],"name":""},"geometry":{"type":"LineString","coordinates":[[31.9,25.519],[31.611,25.095],[31.325,24.671],[31.041,24.246],[30.758,23.821],[30.477,23.395],[30.198,22.968],[29.921,22.541],[29.646,22.114],[29.372,21.686],[29.1,21.258],[28.829,20.829],[28.56,20.4],[28.293,19.971],[28.027,19.541],[27.762,19.11],[27.499,18.68],[27.237,18.249],[26.976,17.817],[26.717,17.386],[26.458,16.954],[26.201,16.521],[25.946,16.088],[25.691,15.655],[25.437,15.222],[25.185,14.789],[24.933,14.355],[24.682,13.921],[25.11,13.649],[25.537,13.378],[25.963,13.105],[26.388,12.832],[26.812,12.558],[27.236,12.284],[27.658,12.008],[28.079,11.733],[28.5,11.456],[28.92,11.179],[29.339,10.901],[29.757,10.623],[30.174,10.345],[30.591,10.065],[31.007,9.785],[31.422,9.505],[31.837,9.224],[32.251,8.943],[32.664,8.661],[33.077,8.379],[33.489,8.097],[33.901,7.814],[34.312,7.53],[34.722,7.246],[34.449,6.834],[34.177,6.421],[33.906,6.009],[33.634,5.596],[33.363,5.183],[33.093,4.77],[32.823,4.357],[32.553,3.944],[32.283,3.53],[32.014,3.117],[31.745,2.703],[31.476,2.29],[31.207,1.876],[30.938,1.463],[30.669,1.049],[30.401,0.635],[30.132,0.222],[29.864,-0.192],[29.595,-0.606],[29.327,-1.019],[29.058,-1.433],[28.789,-1.847],[28.521,-2.26],[28.252,-2.674],[27.982,-3.087],[27.713,-3.501],[27.443,-3.914],[27.174,-4.327],[26.903,-4.74],[26.633,-5.153],[26.362,-5.566],[26.091,-5.979],[25.819,-6.392],[25.547,-6.804],[25.274,-7.217],[25.001,-7.629],[24.728,-8.041],[24.454,-8.453],[24.179,-8.865],[23.904,-9.276],[23.628,-9.687],[23.351,-10.098],[23.074,-10.509],[22.796,-10.92],[22.517,-11.33],[22.237,-11.74],[21.956,-12.15],[21.675,-12.559],[21.393,-12.968],[21.11,-13.377],[20.825,-13.786],[20.54,-14.194],[20.254,-14.602],[19.967,-15.01],[19.678,-15.417],[19.389,-15.824],[19.098,-16.23],[18.807,-16.636],[18.513,-17.042],[18.219,-17.447],[17.923,-17.852],[17.626,-18.256],[17.328,-18.66],[17.028,-19.063],[16.727,-19.466],[16.424,-19.869],[16.12,-20.271],[16.505,-20.582],[16.893,-20.893],[17.282,-21.203],[17.672,-21.512],[18.065,-21.82],[18.459,-22.127],[18.854,-22.433],[19.252,-22.738],[19.651,-23.042],[20.052,-23.346],[20.455,-23.648],[20.859,-23.949],[21.266,-24.249],[21.674,-24.548],[22.085,-24.846],[22.497,-25.143],[22.912,-25.438],[22.551,-25.809],[22.189,-26.178],[21.824,-26.547],[21.457,-26.915],[21.087,-27.281],[20.715,-27.647],[20.341,-28.012],[19.964,-28.376],[19.584,-28.739],[19.202,-29.1],[18.817,-29.461],[18.429,-29.82],[18.039,-30.179],[17.645,-30.536],[17.249,-30.892],[16.85,-31.246],[16.448,-31.6],[16.042,-31.952],[15.634,-32.303],[15.222,-32.653],[14.808,-33.001],[14.39,-33.348],[13.968,-33.693],[13.543,-34.037],[13.115,-34.38],[12.683,-34.721],[12.248,-35.061],[11.809,-35.398],[11.366,-35.735],[10.92,-36.069],[10.47,-36.403],[10.016,-36.734],[9.558,-37.063],[9.914,-37.434],[10.274,-37.804],[10.638,-38.173],[11.006,-38.54],[11.377,-38.907],[11.752,-39.272],[12.131,-39.636],[12.514,-39.999],[12.901,-40.36],[12.425,-40.698],[11.943,-41.034],[11.457,-41.367],[10.966,-41.699],[10.47,-42.028],[9.969,-42.355],[9.462,-42.68],[8.951,-43.003],[8.433,-43.324],[7.911,-43.642],[7.383,-43.958],[6.849,-44.271],[6.309,-44.582],[5.764,-44.89],[5.213,-45.195],[4.656,-45.498],[4.093,-45.799],[3.523,-46.096],[2.948,-46.39],[2.367,-46.682],[1.779,-46.971],[1.185,-47.256],[0.584,-47.539],[-0.023,-47.818],[-0.636,-48.094],[-1.257,-48.367],[-1.883,-48.636],[-2.517,-48.902],[-3.157,-49.165],[-3.804,-49.423],[-4.458,-49.679],[-5.118,-49.93],[-5.786,-50.178],[-6.46,-50.422],[-7.141,-50.662],[-7.83,-50.898],[-8.525,-51.129]]}},{"type":"Feature","properties":{"boundary_type":"subduction","feature_type":"gpml:SubductionZone","polarity":"Left","overriding_plate_id":10103,"subducting_plate_id":90106,"plate_ids":[10103,90106],"name":""},"geometry":{"type":"LineString","coordinates":[[-88.8,66.801],[-88.658,67.276],[-88.509,67.751],[-88.354,68.226],[-88.193,68.7],[-88.025,69.175],[-88.028,69.673],[-88.031,70.172],[-88.034,70.67],[-88.037,71.169],[-88.04,71.668],[-88.044,72.166],[-88.048,72.665],[-88.052,73.163],[-88.056,73.662],[-88.061,74.161],[-88.065,74.659],[-88.07,75.158],[-88.076,75.656],[-88.082,76.155],[-88.088,76.654],[-89.584,76.98],[-91.154,77.297],[-92.803,77.604],[-94.532,77.901],[-96.345,78.187],[-98.245,78.46],[-100.233,78.721],[-102.312,78.968],[-104.482,79.2],[-106.743,79.416],[-109.093,79.616],[-111.53,79.797],[-114.05,79.96],[-116.648,80.104],[-119.315,80.227],[-122.044,80.329],[-124.824,80.408],[-127.423,80.209],[-129.914,79.991],[-132.296,79.754],[-134.567,79.502],[-136.731,79.234],[-138.787,78.952],[-140.74,78.656],[-142.594,78.348],[-144.351,78.029],[-146.017,77.7],[-147.597,77.361],[-149.094,77.014],[-150.514,76.658],[-151.86,76.295],[-153.138,75.924],[-154.35,75.548],[-155.502,75.165],[-156.597,74.778],[-157.639,74.385],[-158.63,73.987],[-159.575,73.585],[-160.475,73.179],[-160.645,72.706],[-160.807,72.233],[-160.961,71.76],[-161.107,71.287],[-161.246,70.813],[-161.379,70.34],[-161.506,69.866],[-161.627,69.393],[-161.743,68.919],[-161.854,68.445],[-161.96,67.972],[-162.062,67.498],[-162.161,67.024],[-162.255,66.55],[-162.346,66.076],[-161.813,65.642],[-161.297,65.207],[-160.799,64.771],[-160.316,64.333],[-159.848,63.893],[-159.394,63.451],[-158.955,63.009],[-158.529,62.565],[-158.115,62.12]]}},{"type":"Feature","properties":{"boundary_type":"subduction","feature_type":"gpml:SubductionZone","polarity":"Left","overriding_plate_id":101,"subducting_plate_id":501001,"plate_ids":[101,501001],"name":"Baltica_SZ"},"geometry":{"type":"LineString","coordinates":[[-176.547,39.783],[-176.465,39.322],[-176.383,38.861],[-176.303,38.399],[-176.223,37.938],[-176.145,37.476],[-176.067,37.014],[-175.991,36.553],[-175.904,36.09],[-175.818,35.628],[-175.733,35.166],[-175.65,34.704],[-175.567,34.241],[-175.485,33.779],[-175.404,33.317],[-175.324,32.854],[-175.244,32.392],[-175.166,31.929],[-175.159,31.463],[-175.153,30.997],[-175.147,30.531],[-175.141,30.065],[-175.135,29.599],[-175.129,29.133],[-175.123,28.668],[-175.118,28.202],[-175.112,27.736],[-175.106,27.27],[-175.1,26.804],[-175.095,26.338],[-175.061,25.852],[-175.028,25.366],[-174.995,24.881],[-174.962,24.395],[-174.93,23.909],[-174.897,23.423],[-174.865,22.937],[-174.834,22.451],[-174.802,21.966],[-174.771,21.48],[-174.794,21.056],[-174.817,20.632],[-174.839,20.208],[-174.862,19.784],[-174.884,19.361]]}},{"type":"Feature","properties":{"boundary_type":"subduction","feature_type":"gpml:SubductionZone","polarity":"Left","overriding_plate_id":101,"subducting_plate_id":501,"plate_ids":[101,501],"name":"Baltica_SZ"},"geometry":{"type":"LineString","coordinates":[[-174.884,19.361],[-174.909,18.898],[-174.933,18.435],[-174.957,17.973],[-174.981,17.51],[-175.005,17.047],[-175.029,16.585],[-175.053,16.122],[-175.076,15.66],[-175.1,15.197],[-175.123,14.734],[-175.198,14.247],[-175.273,13.76],[-175.348,13.274],[-175.422,12.787],[-175.496,12.3],[-175.57,11.813],[-175.643,11.326],[-175.717,10.839],[-175.79,10.352],[-175.862,9.864],[-175.935,9.377],[-176.007,8.89],[-176.004,8.408],[-176.001,7.927],[-175.998,7.445],[-175.995,6.963],[-175.992,6.481],[-175.989,5.999],[-175.986,5.518],[-175.983,5.036],[-175.98,4.554],[-175.977,4.072],[-175.974,3.59]]}},{"type":"Feature","properties":{"boundary_type":"subduction","feature_type":"gpml:SubductionZone","polarity":"Right","overriding_plate_id":701,"subducting_plate_id":101,"plate_ids":[101,701],"name":""},"geometry":{"type":"LineString","coordinates":[[-174.094,-27.003],[-173.577,-27.189],[-173.059,-27.372],[-172.539,-27.554],[-172.017,-27.734],[-171.494,-27.911],[-170.968,-28.087],[-170.442,-28.261],[-169.913,-28.433],[-169.383,-28.602],[-168.851,-28.77],[-168.317,-28.935],[-167.781,-29.099],[-167.244,-29.26],[-166.705,-29.419],[-166.165,-29.576],[-165.623,-29.731],[-165.079,-29.883],[-164.534,-30.034],[-163.986,-30.182],[-163.438,-30.328],[-162.887,-30.471],[-162.335,-30.612],[-161.782,-30.751],[-161.227,-30.887],[-160.67,-31.021],[-160.111,-31.153],[-159.552,-31.282],[-158.99,-31.409],[-158.426,-31.535],[-157.86,-31.658],[-157.293,-31.778],[-156.724,-31.897],[-156.154,-32.012],[-155.582,-32.125],[-155.009,-32.235],[-154.435,-32.343],[-153.859,-32.448],[-153.282,-32.551]]}},{"type":"Feature","properties":{"boundary_type":"ridge","feature_type":"gpml:MidOceanRidge","polarity":null,"overriding_plate_id":null,"subducting_plate_id":null,"plate_ids":[701,811001],"name":""},"geometry":{"type":"LineString","coordinates":[[-58.558,13.32],[-58.147,13.235],[-57.735,13.15],[-57.325,13.064],[-56.914,12.977],[-56.504,12.889]]}},{"type":"Feature","properties":{"boundary_type":"ridge","feature_type":"gpml:MidOceanRidge","polarity":null,"overriding_plate_id":null,"subducting_plate_id":null,"plate_ids":[701,80101],"name":""},"geometry":{"type":"LineString","coordinates":[[-56.504,12.889],[-56.028,12.787],[-55.552,12.684],[-55.076,12.58],[-54.601,12.475],[-54.127,12.369],[-53.653,12.263],[-53.179,12.155],[-52.705,12.047],[-52.232,11.938],[-51.76,11.828],[-51.902,11.386],[-52.043,10.944],[-52.184,10.501],[-52.325,10.059],[-52.465,9.616],[-52.605,9.174],[-52.744,8.731],[-52.883,8.289],[-52.383,8.253],[-51.883,8.216],[-51.383,8.179],[-50.883,8.142],[-50.383,8.103],[-49.884,8.065],[-49.384,8.025],[-48.884,7.985],[-48.385,7.944],[-47.886,7.903],[-47.386,7.861],[-46.887,7.819],[-46.388,7.776],[-45.889,7.732],[-45.391,7.688],[-44.892,7.643],[-44.393,7.598],[-43.895,7.552],[-43.396,7.505],[-42.898,7.458],[-42.4,7.411],[-41.902,7.362],[-41.404,7.314],[-40.906,7.265],[-40.408,7.215],[-39.911,7.164],[-39.413,7.114],[-38.916,7.062],[-38.419,7.01],[-37.921,6.958],[-37.424,6.905],[-36.927,6.851],[-36.431,6.797],[-35.934,6.743],[-35.437,6.688],[-34.941,6.632],[-34.444,6.576],[-33.948,6.52],[-33.452,6.463],[-32.956,6.405],[-32.46,6.347],[-31.964,6.289],[-31.468,6.23],[-30.973,6.171],[-30.477,6.111],[-29.982,6.051],[-29.486,5.99],[-28.991,5.929],[-28.496,5.867],[-28.001,5.805],[-27.506,5.743],[-27.012,5.68],[-26.517,5.617],[-26.023,5.553],[-25.528,5.489],[-25.034,5.425],[-24.54,5.36],[-24.046,5.294],[-23.552,5.229],[-23.058,5.163],[-22.564,5.096],[-22.07,5.029]]}},{"type":"Feature","properties":{"boundary_type":"ridge","feature_type":"gpml:MidOceanRidge","polarity":null,"overriding_plate_id":null,"subducting_plate_id":null,"plate_ids":[701,90107],"name":""},"geometry":{"type":"LineString","coordinates":[[-22.07,5.029],[-21.953,5.013]]}},{"type":"Feature","properties":{"boundary_type":"ridge","feature_type":"gpml:MidOceanRidge","polarity":null,"overriding_plate_id":null,"subducting_plate_id":null,"plate_ids":[80101,811001],"name":""},"geometry":{"type":"LineString","coordinates":[[-33.058,48.581],[-33.58,48.226],[-34.096,47.869],[-34.605,47.509],[-35.106,47.147],[-35.601,46.783],[-36.089,46.416],[-36.571,46.048],[-37.046,45.678],[-37.515,45.306],[-37.978,44.932],[-38.435,44.556],[-38.885,44.178],[-39.331,43.798],[-39.77,43.417],[-40.204,43.034],[-40.633,42.65],[-41.056,42.264],[-41.474,41.876],[-41.888,41.487],[-42.296,41.096],[-42.699,40.704],[-43.098,40.311],[-43.492,39.916],[-43.881,39.52],[-44.266,39.123],[-44.647,38.724],[-45.024,38.325],[-45.396,37.924],[-44.972,37.608],[-44.552,37.29],[-44.135,36.971],[-43.721,36.651],[-43.311,36.329],[-42.905,36.006],[-42.502,35.682],[-42.867,35.281],[-43.23,34.879],[-43.588,34.477],[-43.943,34.073],[-44.295,33.668],[-44.644,33.262],[-44.989,32.856],[-45.331,32.448],[-45.67,32.039],[-46.006,31.63],[-46.339,31.219],[-46.67,30.808],[-46.997,30.396],[-47.322,29.983],[-46.918,29.744],[-46.517,29.504],[-46.117,29.262],[-45.72,29.019],[-45.324,28.775],[-44.93,28.53],[-45.278,28.136],[-45.624,27.74],[-45.967,27.344],[-46.308,26.947],[-46.646,26.549],[-46.982,26.151],[-47.315,25.751],[-47.647,25.351],[-47.976,24.95],[-48.303,24.549],[-48.628,24.147],[-48.951,23.744],[-49.272,23.34],[-49.591,22.936],[-49.908,22.531],[-50.223,22.125],[-50.537,21.719],[-50.848,21.312],[-51.158,20.905],[-51.466,20.497],[-51.773,20.089],[-52.078,19.68],[-52.381,19.271],[-52.683,18.861],[-52.984,18.45],[-53.283,18.039],[-53.581,17.628],[-53.877,17.216],[-54.12,16.824],[-54.363,16.432],[-54.604,16.039],[-54.845,15.646],[-55.084,15.253],[-55.323,14.86],[-55.561,14.466],[-55.798,14.072],[-56.034,13.678],[-56.269,13.284],[-56.504,12.889]]}},{"type":"Feature","properties":{"boundary_type":"subduction","feature_type":"gpml:SubductionZone","polarity":"Right","overriding_plate_id":80101,"subducting_plate_id":90107,"plate_ids":[80101,90107],"name":""},"geometry":{"type":"LineString","coordinates":[[-15.102,19.177],[-15.243,18.765],[-15.383,18.353],[-15.522,17.94],[-15.661,17.528],[-15.799,17.115],[-15.936,16.702],[-16.166,16.254],[-16.395,15.805],[-16.623,15.356],[-16.85,14.907],[-17.076,14.457],[-17.301,14.008],[-17.525,13.558],[-17.748,13.108],[-17.971,12.658],[-18.192,12.207],[-18.413,11.757],[-18.633,11.306],[-18.853,10.855],[-19.072,10.404],[-19.29,9.953],[-19.508,9.501],[-19.743,9.095],[-19.978,8.689],[-20.212,8.283],[-20.446,7.877],[-20.679,7.47],[-20.912,7.064],[-21.144,6.657],[-21.376,6.25],[-21.608,5.843],[-21.839,5.436],[-22.07,5.029]]}},{"type":"Feature","properties":{"boundary_type":"ridge","feature_type":"gpml:MidOceanRidge","polarity":null,"overriding_plate_id":null,"subducting_plate_id":null,"plate_ids":[701,811001],"name":""},"geometry":{"type":"LineString","coordinates":[[-80.508,12.857],[-80.003,12.924],[-79.499,12.99],[-78.994,13.055],[-78.489,13.119],[-77.984,13.182],[-77.478,13.244],[-76.972,13.305],[-76.466,13.366],[-75.96,13.425],[-75.453,13.483],[-74.947,13.54],[-74.44,13.596],[-73.932,13.651],[-73.425,13.705],[-72.917,13.758],[-72.409,13.81],[-71.901,13.861],[-71.392,13.911],[-70.884,13.96],[-70.375,14.007],[-69.866,14.054],[-69.357,14.1],[-68.847,14.144],[-68.338,14.188],[-68.33,13.812],[-68.323,13.436],[-68.316,13.06],[-68.31,12.684],[-67.823,12.724],[-67.337,12.764],[-66.85,12.802],[-66.363,12.84],[-65.877,12.877],[-65.39,12.913],[-64.902,12.948],[-64.415,12.982],[-63.928,13.015],[-63.44,13.048],[-62.952,13.079],[-62.465,13.11],[-61.977,13.139],[-61.489,13.168],[-61.0,13.195],[-60.512,13.222],[-60.024,13.248],[-59.535,13.273],[-59.047,13.297],[-58.558,13.32]]}},{"type":"Feature","properties":{"boundary_type":"subduction","feature_type":"gpml:SubductionZone","polarity":"Left","overriding_plate_id":501,"subducting_plate_id":501001,"plate_ids":[501,501001],"name":""},"geometry":{"type":"LineString","coordinates":[[-174.884,19.361],[-175.108,18.954],[-175.33,18.547],[-175.551,18.14],[-175.771,17.732],[-175.99,17.324],[-176.209,16.916],[-176.49,16.5],[-176.771,16.083],[-177.05,15.665],[-177.329,15.247],[-177.606,14.829],[-177.882,14.411],[-178.157,13.992],[-178.431,13.573],[-178.704,13.153],[-178.977,12.734],[-179.248,12.314],[-179.518,11.894],[-179.788,11.473],[179.943,11.052],[179.675,10.631],[179.408,10.21],[179.102,9.823],[178.796,9.435],[178.491,9.048],[178.187,8.659],[177.883,8.271],[177.58,7.883],[177.278,7.494],[176.976,7.105],[176.674,6.716],[176.374,6.326],[176.073,5.937],[175.773,5.547],[175.473,5.157],[175.174,4.767],[174.875,4.377],[174.576,3.987],[174.278,3.597],[173.98,3.206],[173.682,2.816],[173.384,2.425],[173.087,2.035],[172.789,1.644],[172.492,1.253],[172.195,0.863],[171.898,0.472],[171.601,0.081],[171.304,-0.31],[171.007,-0.701],[170.71,-1.091],[170.412,-1.482],[170.092,-1.865],[169.772,-2.247],[169.451,-2.629],[169.13,-3.011],[168.81,-3.393],[168.488,-3.775],[168.167,-4.156],[167.845,-4.538],[167.523,-4.919],[167.2,-5.301],[166.877,-5.682],[166.554,-6.063],[166.23,-6.444],[165.906,-6.824],[165.581,-7.205],[165.256,-7.585],[164.93,-7.964],[164.603,-8.344],[164.276,-8.723],[163.948,-9.103],[163.62,-9.481],[163.29,-9.86],[162.96,-10.238]]}}]}