{"type":"FeatureCollection","meta":{"model":"Cao2024","reconstruction_time_ma":1145.0,"anchor_plate_id":0,"pygplates_version":"1.0.0","tessellate_degrees":0.5,"polarity_convention":"gpml:subductionPolarity. 'Left'/'Right' names the side of the line, in vertex order, on which the OVERRIDING plate lies. Triangles are drawn on that side.","antimeridian":"Lines are NOT split at +/-180 deg. The renderer works in 3D unit vectors where the dateline is not special; splitting would only add spurious breaks. Do not treat this as RFC 7946 GIS-ready 2D data."},"features":[{"type":"Feature","properties":{"boundary_type":"ridge","feature_type":"gpml:MidOceanRidge","polarity":null,"overriding_plate_id":null,"subducting_plate_id":null,"plate_ids":[101,302],"name":"MOR-Greenland-Baltica"},"geometry":{"type":"LineString","coordinates":[[-175.07,30.538],[-174.536,30.692],[-174.001,30.844],[-173.464,30.994],[-172.925,31.142],[-172.385,31.287],[-171.843,31.43],[-171.3,31.571],[-170.754,31.709],[-170.208,31.846],[-169.659,31.979],[-169.109,32.111],[-168.558,32.24],[-168.004,32.367],[-167.45,32.491],[-166.893,32.613],[-166.336,32.732],[-165.777,32.849],[-165.216,32.964],[-164.654,33.076],[-164.09,33.185],[-163.525,33.292],[-162.959,33.396],[-162.392,33.498],[-161.823,33.597],[-161.253,33.693],[-160.681,33.787],[-160.108,33.878],[-159.534,33.967],[-158.959,34.053],[-158.383,34.136],[-158.431,34.619],[-158.48,35.102],[-158.529,35.585],[-158.579,36.068],[-158.63,36.551],[-158.037,36.534],[-157.444,36.514],[-156.851,36.492],[-156.259,36.466],[-155.667,36.437],[-155.076,36.406],[-154.485,36.371],[-153.895,36.334],[-153.305,36.294],[-152.716,36.25],[-152.128,36.204],[-151.54,36.155],[-150.953,36.104],[-150.367,36.049],[-149.782,35.991],[-149.197,35.931],[-148.614,35.868],[-148.031,35.802],[-147.45,35.733],[-146.869,35.662],[-146.835,35.297],[-146.802,34.933],[-146.769,34.569],[-146.18,34.493],[-145.591,34.414],[-145.004,34.332],[-144.418,34.248],[-143.833,34.16],[-143.249,34.07],[-142.667,33.978],[-142.085,33.882],[-141.506,33.784],[-140.927,33.683],[-140.35,33.579],[-139.774,33.473],[-139.2,33.364],[-138.627,33.252],[-138.056,33.138],[-137.486,33.021],[-136.917,32.902],[-136.35,32.78],[-136.325,33.152],[-136.299,33.524],[-136.273,33.896],[-135.73,33.774],[-135.188,33.65],[-134.649,33.524],[-134.111,33.395],[-133.574,33.264],[-133.039,33.13],[-132.506,32.995],[-131.975,32.857],[-131.445,32.716],[-130.917,32.574],[-130.39,32.429],[-129.865,32.282],[-129.342,32.133]]}},{"type":"Feature","properties":{"boundary_type":"ridge","feature_type":"gpml:MidOceanRidge","polarity":null,"overriding_plate_id":null,"subducting_plate_id":null,"plate_ids":[302,580],"name":"MOR-Greenland-Baltica"},"geometry":{"type":"LineString","coordinates":[[-129.342,32.133],[-128.883,32.0],[-128.425,31.865],[-127.968,31.729]]}},{"type":"Feature","properties":{"boundary_type":"transform","feature_type":"gpml:Transform","polarity":null,"overriding_plate_id":null,"subducting_plate_id":null,"plate_ids":[101,801],"name":"inferred transform"},"geometry":{"type":"LineString","coordinates":[[-63.213,27.803],[-63.126,28.297],[-63.038,28.79],[-62.949,29.284],[-62.859,29.777],[-62.768,30.27],[-62.677,30.764],[-62.585,31.257],[-62.491,31.75],[-62.397,32.243],[-62.301,32.736],[-62.205,33.229],[-62.107,33.722],[-62.008,34.214],[-61.908,34.707],[-61.807,35.2],[-61.705,35.692],[-61.601,36.184],[-61.496,36.677],[-61.39,37.169],[-61.283,37.661],[-61.173,38.153],[-61.063,38.645],[-60.951,39.137],[-60.837,39.629],[-60.722,40.12],[-60.605,40.612],[-60.486,41.103],[-60.365,41.594],[-60.243,42.085],[-60.119,42.576],[-59.993,43.067],[-59.864,43.558],[-59.734,44.048],[-59.601,44.539],[-59.467,45.029],[-59.329,45.519],[-59.19,46.009],[-59.048,46.499],[-58.903,46.988],[-58.756,47.478],[-58.606,47.967],[-58.453,48.456],[-58.297,48.945],[-58.138,49.433],[-57.976,49.922],[-57.81,50.41],[-57.641,50.898],[-57.469,51.385],[-57.292,51.873],[-57.112,52.36],[-56.928,52.847],[-56.74,53.333],[-56.547,53.819],[-56.35,54.305],[-56.148,54.791],[-55.941,55.276],[-55.729,55.761],[-55.512,56.245],[-55.322,56.732],[-55.127,57.218],[-54.927,57.704],[-54.721,58.189],[-54.509,58.674],[-54.292,59.159],[-54.068,59.643],[-53.838,60.127],[-53.601,60.611],[-53.357,61.094],[-53.105,61.576],[-52.845,62.058],[-52.577,62.54],[-52.3,63.021],[-52.014,63.502],[-51.717,63.982],[-51.411,64.461],[-51.094,64.94],[-50.765,65.418],[-50.424,65.895],[-50.07,66.372],[-49.702,66.847],[-49.32,67.322],[-48.922,67.796],[-48.508,68.268],[-48.076,68.74],[-47.626,69.211],[-47.156,69.68],[-46.664,70.148],[-46.15,70.615],[-45.612,71.08],[-45.047,71.543],[-44.455,72.005],[-43.832,72.465],[-43.177,72.923],[-42.487,73.378],[-41.76,73.832],[-40.992,74.282],[-40.179,74.73],[-39.319,75.175],[-38.408,75.616],[-37.44,76.053],[-36.411,76.487],[-35.315,76.916],[-34.147,77.34],[-32.87,77.741],[-31.509,78.135],[-30.057,78.523],[-28.505,78.902],[-26.846,79.274],[-25.072,79.636],[-23.172,79.987],[-21.138,80.327],[-18.96,80.654],[-16.629,80.967],[-14.136,81.264],[-11.475,81.544],[-8.639,81.805],[-5.626,82.044],[-2.437,82.261],[0.924,82.452],[4.447,82.617],[8.114,82.753],[11.905,82.858],[15.792,82.932],[19.742,82.972],[23.719,82.98],[27.685,82.954],[31.604,82.895],[35.442,82.803],[39.167,82.681],[42.757,82.529],[46.191,82.349],[49.458,82.144],[52.55,81.914],[55.465,81.663],[58.203,81.391],[60.77,81.102],[63.172,80.795],[65.417,80.474],[67.515,80.14],[69.604,79.799],[71.558,79.446],[73.385,79.082],[75.093,78.707],[76.692,78.324],[78.19,77.932],[79.593,77.532],[80.911,77.126],[82.148,76.713],[83.312,76.295],[84.407,75.872],[85.44,75.444],[86.415,75.012],[87.336,74.576],[88.208,74.136],[89.034,73.693],[89.816,73.247],[90.56,72.799],[91.266,72.347],[91.939,71.893],[92.579,71.437],[93.19,70.979],[93.773,70.519],[94.33,70.058],[94.862,69.594],[95.373,69.129],[95.861,68.663],[96.33,68.195],[96.78,67.726],[97.212,67.256],[97.628,66.784],[98.028,66.312],[98.414,65.839],[98.785,65.364],[99.143,64.889],[99.489,64.413],[99.823,63.936],[100.145,63.459],[100.457,62.98],[100.76,62.501],[101.052,62.022],[101.335,61.542],[101.61,61.061],[101.877,60.58],[102.136,60.098],[102.387,59.615],[102.631,59.133],[102.868,58.65],[103.099,58.166],[103.324,57.682],[103.543,57.197],[103.756,56.713],[103.963,56.228],[104.166,55.742],[104.363,55.256],[104.556,54.77],[104.744,54.284],[104.928,53.797],[105.108,53.31]]}},{"type":"Feature","properties":{"boundary_type":"subduction","feature_type":"gpml:SubductionZone","polarity":"Left","overriding_plate_id":101,"subducting_plate_id":90109,"plate_ids":[101,90109],"name":"E-Lau SZ"},"geometry":{"type":"LineString","coordinates":[[124.829,49.921],[125.526,49.746],[126.219,49.568],[126.906,49.385],[127.588,49.198],[128.265,49.007],[128.937,48.812],[129.603,48.613],[130.265,48.411],[130.921,48.204],[131.571,47.995],[132.216,47.781],[132.856,47.564],[133.491,47.343],[134.12,47.119],[134.744,46.891],[135.363,46.66],[135.976,46.426],[136.584,46.188],[137.273,46.118],[137.96,46.044],[138.645,45.965],[139.328,45.883],[140.008,45.796],[140.687,45.705],[141.364,45.611],[142.038,45.512],[142.709,45.41],[143.379,45.303],[144.045,45.193],[144.709,45.079],[145.371,44.961],[146.029,44.839],[146.734,44.848],[147.439,44.852],[148.145,44.852],[148.85,44.848],[149.555,44.839],[150.259,44.826],[150.964,44.809],[151.668,44.787],[152.371,44.761],[153.073,44.731],[153.775,44.696],[154.476,44.657],[155.105,44.479],[155.731,44.297],[156.352,44.112],[156.969,43.924],[157.583,43.732],[158.192,43.537],[158.798,43.338],[159.399,43.137],[159.997,42.932],[160.591,42.725],[161.18,42.514],[161.766,42.3],[162.402,42.217],[163.037,42.13],[163.669,42.04],[164.3,41.946],[164.929,41.848],[165.556,41.748],[166.182,41.644],[166.805,41.536],[167.426,41.425],[168.044,41.311],[168.661,41.193],[169.275,41.073],[169.887,40.949],[170.319,40.6],[170.746,40.25],[171.168,39.899],[171.586,39.545],[172.0,39.191],[172.41,38.835],[172.816,38.477],[173.217,38.118],[173.615,37.758],[174.009,37.397],[174.558,37.164],[175.104,36.928],[175.647,36.69],[176.186,36.45],[176.722,36.207],[177.254,35.962],[177.784,35.714],[178.309,35.464],[178.832,35.212],[179.351,34.957],[179.868,34.701],[-179.62,34.442],[-179.189,34.094],[-178.762,33.745],[-178.339,33.394],[-177.919,33.041],[-177.502,32.688],[-177.089,32.333],[-176.679,31.976],[-176.272,31.618],[-175.868,31.259],[-175.467,30.899],[-175.07,30.538]]}},{"type":"Feature","properties":{"boundary_type":"subduction","feature_type":"gpml:SubductionZone","polarity":"Left","overriding_plate_id":302,"subducting_plate_id":90109,"plate_ids":[302,90109],"name":"E-Lau SZ"},"geometry":{"type":"LineString","coordinates":[[-175.07,30.538],[-174.762,30.256],[-174.457,29.973],[-174.052,29.644],[-173.65,29.313],[-173.25,28.981],[-172.853,28.648],[-172.459,28.314],[-172.067,27.979],[-171.677,27.643]]}},{"type":"Feature","properties":{"boundary_type":"transform","feature_type":"gpml:Transform","polarity":null,"overriding_plate_id":null,"subducting_plate_id":null,"plate_ids":[101,580],"name":"transform"},"geometry":{"type":"LineString","coordinates":[[-113.574,37.575],[-113.618,37.087],[-113.661,36.598],[-113.704,36.109],[-113.747,35.621],[-113.789,35.132],[-113.83,34.643],[-113.871,34.154],[-113.912,33.666],[-113.952,33.177],[-113.991,32.688],[-114.031,32.199],[-114.069,31.71],[-114.108,31.221],[-114.146,30.733],[-114.183,30.244],[-114.22,29.755],[-114.257,29.266],[-114.294,28.777],[-114.33,28.288],[-114.366,27.799],[-114.401,27.31],[-114.436,26.821],[-114.471,26.332],[-114.506,25.843],[-114.723,25.394],[-114.938,24.945],[-115.152,24.495],[-115.364,24.045],[-115.575,23.595],[-115.785,23.144],[-115.992,22.693],[-116.199,22.242],[-116.404,21.791],[-116.608,21.339],[-116.811,20.887],[-117.013,20.435],[-117.213,19.983],[-117.412,19.53],[-117.61,19.077],[-117.807,18.624],[-118.003,18.171],[-118.198,17.718],[-118.392,17.264],[-118.585,16.81],[-118.777,16.356],[-118.968,15.902],[-119.159,15.448],[-119.348,14.993],[-119.537,14.539],[-119.725,14.084],[-119.912,13.629],[-120.098,13.174],[-120.284,12.719],[-120.469,12.263],[-120.785,11.88],[-121.099,11.496],[-121.413,11.112],[-121.726,10.727],[-122.038,10.342],[-122.349,9.957],[-122.659,9.572],[-122.969,9.186],[-123.278,8.8],[-123.587,8.414],[-123.895,8.027],[-124.202,7.64],[-124.509,7.253],[-124.815,6.866]]}},{"type":"Feature","properties":{"boundary_type":"ridge","feature_type":"gpml:MidOceanRidge","polarity":null,"overriding_plate_id":null,"subducting_plate_id":null,"plate_ids":[101,580],"name":"MOR"},"geometry":{"type":"LineString","coordinates":[[-129.342,32.133],[-129.135,32.569],[-128.927,33.005],[-128.716,33.441],[-128.503,33.876],[-128.288,34.31],[-128.071,34.745],[-127.852,35.179],[-127.63,35.612],[-127.405,36.045],[-127.179,36.478],[-126.949,36.91],[-126.717,37.342],[-126.483,37.774],[-126.245,38.204],[-126.005,38.635],[-125.762,39.065],[-125.183,38.925],[-124.606,38.782],[-124.032,38.637],[-123.46,38.488],[-122.89,38.337],[-122.323,38.183],[-121.758,38.027],[-121.195,37.868],[-120.635,37.706],[-120.077,37.541],[-119.522,37.374],[-118.97,37.204],[-118.682,37.551],[-118.392,37.897],[-118.1,38.242],[-117.804,38.587],[-117.193,38.452],[-116.584,38.313],[-115.977,38.172],[-115.372,38.027],[-114.77,37.88],[-114.171,37.729],[-113.574,37.575]]}},{"type":"Feature","properties":{"boundary_type":"subduction","feature_type":"gpml:SubductionZone","polarity":"Left","overriding_plate_id":580,"subducting_plate_id":101,"plate_ids":[101,580],"name":""},"geometry":{"type":"LineString","coordinates":[[-133.293,14.886],[-132.93,14.557],[-132.567,14.227],[-132.206,13.897],[-131.846,13.567],[-131.486,13.236],[-131.128,12.904],[-130.77,12.572],[-130.414,12.24],[-130.058,11.907],[-129.704,11.573],[-129.35,11.239],[-128.997,10.905],[-128.645,10.571],[-128.293,10.235],[-127.942,9.9],[-127.592,9.564],[-127.243,9.228],[-126.894,8.892],[-126.546,8.555],[-126.199,8.218],[-125.852,7.88],[-125.506,7.543],[-125.16,7.205],[-124.815,6.866]]}},{"type":"Feature","properties":{"boundary_type":"subduction","feature_type":"gpml:SubductionZone","polarity":"Left","overriding_plate_id":602,"subducting_plate_id":101,"plate_ids":[101,602],"name":""},"geometry":{"type":"LineString","coordinates":[[-79.889,-11.504],[-79.515,-11.815],[-79.14,-12.125],[-78.764,-12.435],[-78.387,-12.745],[-78.009,-13.054],[-77.631,-13.362],[-77.251,-13.67],[-76.87,-13.977],[-76.488,-14.284],[-76.105,-14.59],[-75.722,-14.895],[-75.337,-15.2],[-74.951,-15.504]]}},{"type":"Feature","properties":{"boundary_type":"subduction","feature_type":"gpml:SubductionZone","polarity":"Left","overriding_plate_id":602,"subducting_plate_id":501,"plate_ids":[501,602],"name":""},"geometry":{"type":"LineString","coordinates":[[-74.951,-15.504],[-74.555,-15.815],[-74.157,-16.124],[-73.759,-16.433],[-73.359,-16.742],[-72.958,-17.049],[-72.556,-17.356],[-72.152,-17.661],[-71.747,-17.966],[-71.34,-18.27],[-70.932,-18.574],[-70.523,-18.876],[-70.112,-19.178],[-69.7,-19.478],[-69.286,-19.778],[-68.871,-20.076],[-68.454,-20.374],[-68.035,-20.671],[-67.615,-20.967],[-67.193,-21.261],[-66.769,-21.555],[-66.344,-21.847],[-65.917,-22.139],[-65.488,-22.429],[-65.057,-22.718],[-64.625,-23.006],[-64.191,-23.293],[-63.754,-23.579],[-63.316,-23.863],[-62.876,-24.146],[-62.434,-24.428],[-61.99,-24.709],[-61.545,-24.988],[-61.097,-25.266],[-60.647,-25.543],[-60.195,-25.818],[-59.74,-26.092],[-59.284,-26.364],[-58.826,-26.635],[-58.365,-26.905],[-57.848,-27.099],[-57.329,-27.291],[-56.808,-27.481],[-56.285,-27.669],[-55.761,-27.855],[-55.235,-28.039],[-54.707,-28.222],[-54.177,-28.402],[-53.646,-28.58],[-53.112,-28.756],[-52.577,-28.93],[-52.04,-29.102],[-51.501,-29.271],[-50.961,-29.439],[-50.419,-29.604],[-49.875,-29.767],[-49.329,-29.928],[-48.781,-30.087],[-48.232,-30.243],[-47.681,-30.397],[-47.128,-30.549],[-46.574,-30.698],[-46.018,-30.845],[-45.46,-30.99],[-44.9,-31.132],[-44.339,-31.272],[-43.776,-31.409],[-43.212,-31.544],[-42.645,-31.676],[-42.078,-31.806],[-41.508,-31.934],[-40.937,-32.058],[-40.365,-32.181],[-39.791,-32.3],[-39.216,-32.417],[-38.639,-32.532],[-38.06,-32.644],[-37.481,-32.753],[-36.899,-32.859],[-36.317,-32.963],[-35.733,-33.064],[-35.148,-33.162],[-34.561,-33.258],[-33.973,-33.351],[-33.384,-33.441],[-32.794,-33.528],[-32.202,-33.612],[-31.61,-33.694],[-31.016,-33.773],[-30.421,-33.849],[-29.825,-33.922],[-29.229,-33.992],[-28.631,-34.059]]}},{"type":"Feature","properties":{"boundary_type":"subduction","feature_type":"gpml:SubductionZone","polarity":"Left","overriding_plate_id":701,"subducting_plate_id":501,"plate_ids":[501,701],"name":""},"geometry":{"type":"LineString","coordinates":[[-28.631,-34.059],[-28.056,-34.121],[-27.48,-34.181],[-26.903,-34.237]]}},{"type":"Feature","properties":{"boundary_type":"ridge","feature_type":"gpml:MidOceanRidge","polarity":null,"overriding_plate_id":null,"subducting_plate_id":null,"plate_ids":[101,801],"name":""},"geometry":{"type":"LineString","coordinates":[[-63.213,27.803],[-62.972,27.648],[-62.731,27.493]]}},{"type":"Feature","properties":{"boundary_type":"ridge","feature_type":"gpml:MidOceanRidge","polarity":null,"overriding_plate_id":null,"subducting_plate_id":null,"plate_ids":[602,801],"name":""},"geometry":{"type":"LineString","coordinates":[[-62.731,27.493],[-62.297,27.21],[-61.865,26.926],[-61.435,26.641],[-61.008,26.354],[-60.582,26.066],[-60.158,25.777],[-59.737,25.487],[-59.318,25.195],[-58.9,24.902],[-58.485,24.609],[-58.071,24.313],[-57.66,24.017],[-57.25,23.72],[-56.843,23.422],[-56.437,23.122],[-56.032,22.822],[-55.63,22.521],[-55.23,22.218],[-54.831,21.915],[-54.434,21.61],[-54.038,21.305],[-53.784,21.714],[-53.528,22.122],[-53.271,22.53],[-53.012,22.937],[-52.751,23.344],[-52.49,23.75],[-52.226,24.156],[-51.961,24.562],[-51.694,24.967],[-51.25,24.69],[-50.809,24.411],[-50.369,24.13],[-49.931,23.849],[-49.496,23.566],[-49.062,23.283],[-48.63,22.997],[-48.2,22.711],[-47.771,22.424],[-47.345,22.135],[-46.92,21.846],[-46.497,21.555],[-46.075,21.263],[-45.655,20.971],[-45.237,20.677],[-44.821,20.382],[-44.406,20.086],[-43.992,19.789],[-43.58,19.492],[-43.17,19.193],[-42.761,18.894],[-42.354,18.593],[-41.948,18.292],[-41.544,17.99],[-41.14,17.687],[-40.739,17.383],[-40.338,17.078],[-39.939,16.773],[-39.541,16.467],[-39.145,16.16],[-38.749,15.852],[-38.355,15.544],[-38.054,15.893],[-37.752,16.242],[-37.448,16.59],[-37.144,16.938],[-36.838,17.285],[-36.531,17.632],[-36.223,17.978],[-35.914,18.324],[-35.604,18.67],[-35.172,18.388],[-34.742,18.105],[-34.313,17.821],[-33.886,17.536],[-33.46,17.25],[-33.035,16.963],[-32.612,16.676],[-32.189,16.387],[-31.769,16.098],[-31.349,15.808],[-30.93,15.517],[-30.513,15.225],[-30.097,14.933],[-29.682,14.639],[-29.268,14.345],[-28.855,14.051],[-28.443,13.755],[-28.033,13.459],[-27.623,13.163],[-27.214,12.865],[-26.807,12.567],[-26.4,12.269],[-25.994,11.969],[-25.589,11.67],[-25.185,11.369],[-24.782,11.068],[-24.379,10.767],[-23.977,10.465],[-23.577,10.162],[-23.177,9.859],[-22.777,9.556],[-22.379,9.252],[-21.981,8.948],[-21.583,8.643],[-21.187,8.338],[-20.791,8.032],[-20.395,7.726],[-20.0,7.42],[-19.606,7.114],[-19.212,6.807]]}},{"type":"Feature","properties":{"boundary_type":"ridge","feature_type":"gpml:MidOceanRidge","polarity":null,"overriding_plate_id":null,"subducting_plate_id":null,"plate_ids":[602,801],"name":""},"geometry":{"type":"LineString","coordinates":[[-19.212,6.807],[-19.201,6.366],[-19.19,5.926],[-19.178,5.486],[-19.167,5.046],[-19.156,4.606],[-19.145,4.166],[-19.133,3.726]]}},{"type":"Feature","properties":{"boundary_type":"ridge","feature_type":"gpml:MidOceanRidge","polarity":null,"overriding_plate_id":null,"subducting_plate_id":null,"plate_ids":[602,701],"name":""},"geometry":{"type":"LineString","coordinates":[[-19.133,3.726],[-19.121,3.236],[-19.108,2.747],[-19.096,2.257],[-19.084,1.768],[-19.071,1.279],[-19.059,0.789],[-19.046,0.3],[-19.034,-0.189],[-19.021,-0.679],[-19.009,-1.168],[-18.997,-1.658],[-18.984,-2.147],[-18.972,-2.636],[-18.959,-3.126],[-18.947,-3.615],[-18.934,-4.104],[-18.922,-4.594],[-18.909,-5.083],[-18.897,-5.573],[-18.884,-6.062],[-18.872,-6.551],[-18.859,-7.041],[-18.846,-7.53],[-18.834,-8.019],[-18.821,-8.509],[-18.808,-8.998],[-18.795,-9.488],[-18.783,-9.977],[-18.77,-10.466],[-18.757,-10.956],[-18.744,-11.445],[-18.731,-11.934],[-18.718,-12.424],[-18.705,-12.913],[-18.692,-13.402],[-19.193,-13.406],[-19.694,-13.409],[-20.196,-13.411],[-20.697,-13.412],[-21.198,-13.411],[-21.7,-13.41],[-22.201,-13.408],[-22.702,-13.405],[-23.203,-13.401],[-23.705,-13.395],[-24.206,-13.389],[-24.707,-13.382],[-25.208,-13.374],[-25.709,-13.365],[-25.77,-13.858],[-25.831,-14.351],[-25.892,-14.845],[-25.954,-15.338],[-26.015,-15.831],[-26.077,-16.324],[-26.14,-16.817],[-26.202,-17.31],[-26.265,-17.803],[-26.329,-18.297],[-26.393,-18.79],[-26.457,-19.283],[-26.521,-19.776],[-26.586,-20.269],[-26.651,-20.762],[-26.717,-21.255],[-26.783,-21.748],[-26.85,-22.24],[-26.917,-22.733],[-26.985,-23.226],[-27.053,-23.719],[-27.122,-24.212],[-27.191,-24.705],[-27.26,-25.197],[-27.331,-25.69],[-27.402,-26.183],[-27.473,-26.675],[-27.545,-27.168],[-27.618,-27.66],[-27.691,-28.153],[-27.765,-28.645],[-27.84,-29.138],[-27.915,-29.63],[-27.992,-30.122],[-28.069,-30.615],[-28.146,-31.107],[-28.225,-31.599],[-28.304,-32.091],[-28.385,-32.583],[-28.466,-33.076],[-28.548,-33.568],[-28.631,-34.059]]}},{"type":"Feature","properties":{"boundary_type":"ridge","feature_type":"gpml:MidOceanRidge","polarity":null,"overriding_plate_id":null,"subducting_plate_id":null,"plate_ids":[101,302],"name":""},"geometry":{"type":"LineString","coordinates":[[-114.347,-32.293],[-114.667,-31.877],[-114.984,-31.46],[-115.298,-31.042],[-115.609,-30.624],[-115.918,-30.204],[-116.224,-29.784],[-116.527,-29.364],[-116.828,-28.943],[-117.127,-28.521],[-117.423,-28.098],[-117.717,-27.675],[-118.008,-27.251],[-118.297,-26.826],[-118.585,-26.401],[-118.87,-25.976],[-119.153,-25.55],[-119.434,-25.123],[-119.713,-24.696],[-119.99,-24.268],[-120.265,-23.84],[-120.539,-23.411],[-120.81,-22.982],[-121.08,-22.552],[-121.349,-22.122],[-121.615,-21.691],[-121.88,-21.261],[-122.144,-20.829],[-122.406,-20.397],[-122.666,-19.965],[-122.926,-19.533],[-123.183,-19.1],[-123.44,-18.666],[-123.695,-18.233],[-123.949,-17.799],[-124.201,-17.365],[-124.453,-16.93],[-124.703,-16.495],[-124.952,-16.06],[-125.2,-15.624],[-125.447,-15.189],[-125.693,-14.753],[-125.938,-14.316],[-126.182,-13.88],[-126.425,-13.443],[-126.667,-13.006],[-126.909,-12.569],[-127.149,-12.131],[-127.389,-11.694],[-127.628,-11.256],[-127.866,-10.818],[-128.104,-10.38],[-128.341,-9.941],[-128.577,-9.503],[-128.813,-9.064],[-129.048,-8.625],[-129.282,-8.186],[-129.516,-7.747],[-129.75,-7.308],[-129.983,-6.868],[-130.216,-6.429],[-130.448,-5.989],[-130.68,-5.549],[-130.911,-5.11],[-131.142,-4.67],[-131.373,-4.23],[-131.604,-3.79],[-131.835,-3.35],[-132.065,-2.909],[-132.295,-2.469],[-132.525,-2.029],[-132.754,-1.589],[-132.984,-1.148],[-133.214,-0.708],[-133.443,-0.268],[-133.673,0.173],[-133.902,0.613],[-134.132,1.053],[-134.362,1.494],[-134.591,1.934],[-134.821,2.374],[-135.051,2.814],[-135.281,3.254],[-135.512,3.694],[-135.742,4.135],[-135.973,4.575],[-136.204,5.014],[-136.436,5.454],[-136.668,5.894],[-136.9,6.334],[-137.133,6.773],[-137.366,7.213],[-137.599,7.652],[-137.833,8.091],[-138.067,8.53],[-138.302,8.969],[-138.538,9.408],[-138.774,9.846],[-139.011,10.285],[-138.636,10.595],[-138.26,10.905],[-137.883,11.214],[-137.506,11.523],[-137.127,11.832],[-136.748,12.14],[-136.368,12.447],[-135.987,12.754],[-135.605,13.06],[-135.222,13.366],[-134.838,13.671],[-134.454,13.976],[-134.068,14.28],[-133.681,14.583],[-133.293,14.886]]}},{"type":"Feature","properties":{"boundary_type":"ridge","feature_type":"gpml:MidOceanRidge","polarity":null,"overriding_plate_id":null,"subducting_plate_id":null,"plate_ids":[302,580],"name":""},"geometry":{"type":"LineString","coordinates":[[-133.293,14.886],[-132.946,15.155],[-132.598,15.424],[-132.249,15.693],[-131.899,15.961],[-131.548,16.228],[-131.197,16.495],[-131.579,16.778],[-131.962,17.06],[-132.346,17.341],[-132.732,17.622],[-133.119,17.901],[-133.507,18.18],[-133.21,18.583],[-132.912,18.986],[-132.612,19.387],[-132.311,19.789],[-132.009,20.19],[-131.705,20.59],[-131.399,20.99],[-131.092,21.389],[-130.783,21.788],[-130.472,22.186],[-130.16,22.583],[-129.845,22.98],[-129.529,23.377],[-129.211,23.772],[-128.891,24.167],[-128.569,24.562],[-128.245,24.955],[-127.919,25.348],[-128.317,25.533],[-128.717,25.717],[-129.117,25.899],[-129.519,26.081],[-129.922,26.261],[-129.767,26.718],[-129.611,27.174],[-129.453,27.631],[-129.293,28.087],[-129.133,28.543],[-128.971,28.999],[-128.808,29.454],[-128.643,29.91],[-128.476,30.365],[-128.309,30.82],[-128.139,31.275],[-127.968,31.729]]}},{"type":"Feature","properties":{"boundary_type":"ridge","feature_type":"gpml:MidOceanRidge","polarity":null,"overriding_plate_id":null,"subducting_plate_id":null,"plate_ids":[201,501],"name":""},"geometry":{"type":"LineString","coordinates":[[88.955,-22.066],[89.191,-22.508],[89.429,-22.95],[89.668,-23.391],[89.908,-23.832],[90.151,-24.273],[90.394,-24.713],[90.64,-25.153],[90.888,-25.592],[91.137,-26.031],[91.388,-26.47],[91.641,-26.908],[91.896,-27.345],[92.153,-27.783],[92.412,-28.219],[92.673,-28.656],[92.937,-29.091],[93.202,-29.526],[93.47,-29.961],[93.741,-30.395],[94.013,-30.829],[94.288,-31.262],[94.566,-31.694],[94.846,-32.126],[95.129,-32.557],[95.415,-32.987],[95.704,-33.417],[95.995,-33.846],[96.289,-34.275],[96.587,-34.702],[96.887,-35.13],[97.191,-35.556],[97.497,-35.981],[97.807,-36.406],[98.121,-36.83],[98.438,-37.253],[98.759,-37.675],[99.083,-38.097],[99.411,-38.517],[99.743,-38.936],[100.079,-39.355],[100.419,-39.773],[100.763,-40.189],[101.111,-40.605],[101.463,-41.019],[101.821,-41.433],[102.182,-41.845],[102.548,-42.256],[102.92,-42.666],[103.296,-43.075],[103.677,-43.482],[104.063,-43.888],[104.455,-44.293],[104.852,-44.697],[105.254,-45.099],[105.662,-45.5],[106.076,-45.899],[106.756,-45.742],[107.431,-45.58],[108.103,-45.415],[108.771,-45.245],[109.434,-45.072],[110.094,-44.895],[110.75,-44.715],[111.401,-44.53],[112.048,-44.342],[112.691,-44.15],[113.33,-43.955],[113.965,-43.756],[114.595,-43.553],[115.221,-43.348],[115.843,-43.138],[116.461,-42.926],[117.074,-42.71],[117.683,-42.491],[118.288,-42.268],[118.888,-42.043],[119.485,-41.814],[120.077,-41.583],[120.664,-41.348],[121.248,-41.11],[121.827,-40.87],[122.402,-40.626],[122.973,-40.38],[123.539,-40.131],[124.102,-39.879],[124.66,-39.625],[125.214,-39.368],[125.764,-39.108],[126.31,-38.846],[126.852,-38.581],[127.39,-38.313],[127.924,-38.044],[128.454,-37.771],[128.98,-37.497],[129.503,-37.22],[130.021,-36.941],[130.536,-36.66],[131.047,-36.376],[131.554,-36.09],[132.058,-35.803],[132.557,-35.513],[133.054,-35.221],[133.546,-34.927],[134.036,-34.631],[134.521,-34.333],[135.003,-34.033],[135.482,-33.732],[135.958,-33.428],[136.43,-33.123],[136.899,-32.816],[137.364,-32.507],[137.827,-32.196],[138.286,-31.884],[138.742,-31.57],[139.195,-31.255],[139.645,-30.938],[140.092,-30.62],[140.536,-30.299],[140.978,-29.978],[141.416,-29.655],[141.851,-29.33],[142.284,-29.005],[142.714,-28.677],[143.142,-28.349],[143.566,-28.019],[143.989,-27.688],[144.408,-27.355],[144.825,-27.022],[145.24,-26.687],[145.647,-27.027],[146.056,-27.366],[146.468,-27.705],[146.882,-28.041],[147.299,-28.377],[147.719,-28.711],[148.141,-29.044],[148.566,-29.376],[148.994,-29.706],[149.425,-30.035],[149.858,-30.363],[150.295,-30.689],[150.734,-31.014],[151.176,-31.337],[151.622,-31.659],[152.07,-31.979],[152.522,-32.297],[152.919,-31.932],[153.312,-31.565],[153.703,-31.197],[154.09,-30.828],[154.474,-30.457],[154.856,-30.086],[155.234,-29.713],[155.61,-29.34],[155.983,-28.965],[156.354,-28.59],[156.722,-28.213],[157.087,-27.835],[157.449,-27.457],[157.809,-27.077],[158.167,-26.697],[158.522,-26.315],[158.875,-25.933],[159.226,-25.55],[159.575,-25.166],[159.921,-24.782],[160.265,-24.396],[160.607,-24.01],[160.947,-23.623],[161.285,-23.235],[161.621,-22.847],[161.955,-22.458],[162.287,-22.068],[162.618,-21.677],[162.946,-21.286],[163.273,-20.894],[163.598,-20.502],[163.922,-20.109],[164.244,-19.715],[164.564,-19.321]]}},{"type":"Feature","properties":{"boundary_type":"ridge","feature_type":"gpml:MidOceanRidge","polarity":null,"overriding_plate_id":null,"subducting_plate_id":null,"plate_ids":[302,501],"name":""},"geometry":{"type":"LineString","coordinates":[[-124.065,-35.498],[-123.506,-35.341],[-122.95,-35.181],[-122.395,-35.018],[-121.843,-34.853],[-121.293,-34.686],[-120.745,-34.516],[-120.199,-34.343],[-119.656,-34.168],[-119.115,-33.991],[-118.576,-33.812],[-118.039,-33.63],[-117.505,-33.445],[-116.973,-33.259],[-116.443,-33.07],[-115.916,-32.879],[-115.39,-32.686],[-114.868,-32.49],[-114.347,-32.293]]}},{"type":"Feature","properties":{"boundary_type":"ridge","feature_type":"gpml:MidOceanRidge","polarity":null,"overriding_plate_id":null,"subducting_plate_id":null,"plate_ids":[101,501],"name":""},"geometry":{"type":"LineString","coordinates":[[-114.347,-32.293],[-113.82,-32.09],[-113.296,-31.885],[-112.774,-31.678],[-112.255,-31.468],[-111.738,-31.257],[-111.223,-31.044],[-110.71,-30.828],[-110.2,-30.611],[-110.245,-30.196],[-110.289,-29.781],[-110.334,-29.366],[-110.378,-28.951],[-110.421,-28.536],[-109.889,-28.478],[-109.357,-28.419],[-108.826,-28.356],[-108.296,-28.292],[-107.766,-28.226],[-107.237,-28.158],[-106.709,-28.088],[-106.181,-28.016],[-105.654,-27.941],[-105.127,-27.865],[-104.602,-27.787],[-104.077,-27.707],[-103.553,-27.625],[-103.03,-27.54],[-102.508,-27.454],[-101.986,-27.366],[-101.465,-27.276],[-101.03,-27.527],[-100.592,-27.777],[-100.152,-28.025],[-99.711,-28.272],[-99.267,-28.517],[-98.821,-28.761],[-98.373,-29.004],[-97.923,-29.245],[-97.471,-29.484],[-96.949,-29.669],[-96.425,-29.851],[-95.9,-30.032],[-95.372,-30.21],[-94.842,-30.386],[-94.311,-30.56],[-93.777,-30.732],[-93.242,-30.901],[-92.705,-31.069],[-92.166,-31.234],[-91.625,-31.397],[-91.082,-31.558],[-90.538,-31.716],[-89.991,-31.872],[-89.443,-32.026],[-88.892,-32.177],[-88.34,-32.326],[-87.785,-32.166],[-87.232,-32.004],[-86.68,-31.839],[-86.131,-31.672],[-85.583,-31.503],[-85.037,-31.332],[-84.494,-31.158],[-83.952,-30.981],[-83.413,-30.803],[-82.875,-30.622],[-82.475,-30.293],[-82.077,-29.963],[-81.682,-29.631],[-81.289,-29.299],[-80.899,-28.965],[-80.511,-28.63],[-80.126,-28.294],[-79.743,-27.957],[-79.363,-27.619],[-78.985,-27.28],[-78.61,-26.939],[-78.236,-26.598],[-77.99,-26.169],[-77.745,-25.739],[-77.502,-25.309],[-77.261,-24.879],[-77.021,-24.448],[-76.784,-24.016],[-76.547,-23.585],[-76.313,-23.153],[-76.079,-22.72],[-75.848,-22.288],[-75.708,-21.817],[-75.57,-21.347],[-75.433,-20.876],[-75.296,-20.406],[-75.161,-19.935],[-75.026,-19.464],[-74.892,-18.993],[-74.758,-18.522],[-74.626,-18.051],[-74.494,-17.58],[-74.586,-17.165],[-74.678,-16.75],[-74.769,-16.335],[-74.86,-15.92],[-74.951,-15.504]]}},{"type":"Feature","properties":{"boundary_type":"ridge","feature_type":"gpml:MidOceanRidge","polarity":null,"overriding_plate_id":null,"subducting_plate_id":null,"plate_ids":[302,501],"name":""},"geometry":{"type":"LineString","coordinates":[[-136.674,-28.262],[-136.183,-28.096],[-135.694,-27.929],[-135.206,-27.759],[-134.72,-27.589],[-134.235,-27.416],[-133.752,-27.242],[-133.27,-27.066],[-132.79,-26.888],[-132.311,-26.709],[-131.834,-26.528],[-131.358,-26.346],[-130.884,-26.162],[-130.613,-26.575],[-130.34,-26.987],[-130.066,-27.399],[-129.789,-27.81],[-129.51,-28.22],[-129.228,-28.63],[-128.945,-29.04],[-128.659,-29.449],[-128.371,-29.857],[-128.081,-30.265],[-127.788,-30.672],[-127.493,-31.078],[-127.195,-31.483],[-126.895,-31.888],[-126.592,-32.293],[-126.286,-32.696],[-125.978,-33.099],[-125.667,-33.501],[-125.353,-33.902],[-125.035,-34.302],[-124.715,-34.702],[-124.392,-35.101],[-124.065,-35.498]]}},{"type":"Feature","properties":{"boundary_type":"subduction","feature_type":"gpml:SubductionZone","polarity":"Left","overriding_plate_id":302,"subducting_plate_id":90109,"plate_ids":[302,90109],"name":""},"geometry":{"type":"LineString","coordinates":[[-158.459,6.329],[-158.285,5.863],[-158.111,5.396],[-157.937,4.929],[-157.764,4.463],[-157.591,3.996],[-157.418,3.529],[-157.245,3.063],[-157.072,2.596],[-156.9,2.129],[-156.727,1.662],[-156.555,1.195],[-156.383,0.728],[-156.21,0.262],[-156.038,-0.205],[-155.866,-0.672],[-155.694,-1.139],[-155.521,-1.606],[-155.349,-2.073],[-155.176,-2.539],[-155.004,-3.006],[-154.831,-3.473],[-154.658,-3.94],[-154.485,-4.406],[-154.311,-4.873],[-154.138,-5.34],[-153.964,-5.806],[-153.79,-6.273],[-153.615,-6.739],[-153.44,-7.206],[-153.265,-7.672],[-153.09,-8.138],[-152.914,-8.604],[-152.737,-9.071],[-152.56,-9.537],[-152.375,-9.829],[-152.188,-10.122],[-152.002,-10.414]]}},{"type":"Feature","properties":{"boundary_type":"subduction","feature_type":"gpml:SubductionZone","polarity":"Left","overriding_plate_id":302,"subducting_plate_id":501,"plate_ids":[302,501],"name":""},"geometry":{"type":"LineString","coordinates":[[-152.002,-10.414],[-151.741,-10.823],[-151.478,-11.231],[-151.216,-11.639],[-150.952,-12.048],[-150.687,-12.455],[-150.422,-12.863],[-150.156,-13.27],[-149.889,-13.677],[-149.621,-14.084],[-149.352,-14.49],[-149.082,-14.897],[-148.811,-15.302],[-148.539,-15.708],[-148.266,-16.113],[-147.992,-16.518],[-147.717,-16.922],[-147.44,-17.326],[-147.162,-17.73],[-146.826,-18.104],[-146.488,-18.476],[-146.148,-18.849],[-145.807,-19.221],[-145.464,-19.592],[-145.12,-19.962],[-144.774,-20.332],[-144.426,-20.701],[-144.077,-21.069],[-143.726,-21.437],[-143.373,-21.804],[-143.019,-22.17],[-142.662,-22.536],[-142.304,-22.9],[-141.944,-23.264],[-141.581,-23.627],[-141.217,-23.989],[-140.851,-24.351],[-140.482,-24.711],[-140.112,-25.071],[-139.739,-25.429],[-139.364,-25.787],[-138.987,-26.143],[-138.608,-26.499],[-138.226,-26.854],[-137.841,-27.207],[-137.455,-27.56],[-137.066,-27.911],[-136.674,-28.262]]}},{"type":"Feature","properties":{"boundary_type":"subduction","feature_type":"gpml:SubductionZone","polarity":"Right","overriding_plate_id":501,"subducting_plate_id":701,"plate_ids":[501,701],"name":""},"geometry":{"type":"LineString","coordinates":[[36.83,-24.597],[37.237,-24.65],[37.644,-24.701]]}},{"type":"Feature","properties":{"boundary_type":"subduction","feature_type":"gpml:SubductionZone","polarity":"Right","overriding_plate_id":501,"subducting_plate_id":801,"plate_ids":[501,801],"name":""},"geometry":{"type":"LineString","coordinates":[[37.644,-24.701],[38.185,-24.768],[38.726,-24.832],[39.268,-24.895],[39.81,-24.956],[40.353,-25.014],[40.897,-25.071],[41.441,-25.126],[41.985,-25.179],[42.53,-25.23],[43.075,-25.278],[43.621,-25.325],[44.167,-25.37],[44.713,-25.413],[45.26,-25.454],[45.807,-25.492],[46.355,-25.529],[46.903,-25.564],[47.451,-25.596],[48.0,-25.627],[48.549,-25.656],[49.098,-25.682],[49.647,-25.706],[50.196,-25.729],[50.746,-25.749],[51.296,-25.767],[51.846,-25.784],[52.396,-25.798],[52.946,-25.81],[53.497,-25.82],[54.047,-25.828],[54.598,-25.833],[55.149,-25.837],[55.699,-25.839],[56.25,-25.838],[56.8,-25.836],[57.351,-25.831],[57.901,-25.825],[58.452,-25.816],[59.002,-25.805],[59.553,-25.793],[60.103,-25.778],[60.653,-25.761],[61.202,-25.742],[61.752,-25.72],[62.301,-25.697],[62.851,-25.672],[63.4,-25.645],[63.948,-25.615],[64.497,-25.584],[65.045,-25.551],[65.593,-25.515],[66.14,-25.478],[66.687,-25.438],[67.234,-25.397],[67.78,-25.353],[68.326,-25.307],[68.872,-25.26],[69.417,-25.21],[69.962,-25.159],[70.506,-25.105],[71.05,-25.049],[71.593,-24.992],[72.135,-24.932],[72.678,-24.871],[73.219,-24.807],[73.76,-24.742],[74.301,-24.675],[74.841,-24.605],[75.38,-24.534],[75.918,-24.461],[76.456,-24.386],[76.994,-24.309],[77.53,-24.23],[78.067,-24.15],[78.602,-24.067],[79.137,-23.983],[79.67,-23.897],[80.204,-23.808],[80.736,-23.719],[81.268,-23.627],[81.799,-23.533],[82.329,-23.438],[82.844,-23.342],[83.357,-23.245],[83.87,-23.146],[84.382,-23.045],[84.893,-22.943],[85.404,-22.839],[85.914,-22.733],[86.423,-22.626],[86.931,-22.517],[87.438,-22.407],[87.945,-22.295],[88.451,-22.182],[88.955,-22.066]]}},{"type":"Feature","properties":{"boundary_type":"subduction","feature_type":"gpml:SubductionZone","polarity":"Right","overriding_plate_id":201,"subducting_plate_id":801,"plate_ids":[201,801],"name":""},"geometry":{"type":"LineString","coordinates":[[88.955,-22.066],[89.472,-21.947],[89.987,-21.826],[90.502,-21.703],[91.015,-21.579],[91.528,-21.453],[92.04,-21.326],[92.551,-21.197],[93.061,-21.066],[93.57,-20.934],[94.079,-20.801],[94.586,-20.666],[95.092,-20.529],[95.598,-20.391],[96.103,-20.252],[96.606,-20.111],[97.109,-19.969],[97.611,-19.825],[98.112,-19.68],[98.612,-19.533],[99.111,-19.386],[99.61,-19.236],[100.107,-19.086],[100.604,-18.934],[101.099,-18.781],[101.594,-18.626],[102.088,-18.47],[102.58,-18.313],[103.072,-18.155],[103.564,-17.995],[104.054,-17.835],[104.543,-17.673],[105.031,-17.509],[105.519,-17.345],[106.006,-17.179],[106.491,-17.012],[106.976,-16.844],[107.46,-16.675],[107.943,-16.505],[108.426,-16.334],[108.907,-16.162],[109.388,-15.988],[109.868,-15.814],[110.347,-15.638],[110.825,-15.461],[111.302,-15.284],[111.779,-15.105],[112.255,-14.925],[112.729,-14.745],[113.204,-14.563],[113.677,-14.38],[114.15,-14.197],[114.562,-13.966],[114.974,-13.735],[115.385,-13.503],[115.795,-13.27],[116.205,-13.036],[116.614,-12.802],[117.022,-12.568],[117.429,-12.332],[117.835,-12.096],[118.241,-11.86],[118.646,-11.623],[119.05,-11.385],[119.454,-11.147]]}},{"type":"Feature","properties":{"boundary_type":"ridge","feature_type":"gpml:MidOceanRidge","polarity":null,"overriding_plate_id":null,"subducting_plate_id":null,"plate_ids":[101,801],"name":""},"geometry":{"type":"LineString","coordinates":[[105.108,53.31],[105.647,53.387],[106.188,53.462],[106.423,53.001],[106.653,52.539],[106.879,52.077],[107.1,51.614],[107.317,51.151],[107.529,50.687],[107.737,50.223],[107.941,49.759],[108.141,49.294],[108.338,48.829],[108.53,48.363],[108.72,47.898],[108.906,47.432],[109.088,46.966],[109.268,46.499],[109.444,46.032],[109.618,45.565],[109.789,45.098],[109.956,44.63],[110.122,44.162],[110.284,43.694],[110.444,43.226],[110.602,42.757],[110.757,42.288],[111.333,42.365],[111.911,42.439],[112.49,42.511],[113.07,42.579]]}},{"type":"Feature","properties":{"boundary_type":"ridge","feature_type":"gpml:MidOceanRidge","polarity":null,"overriding_plate_id":null,"subducting_plate_id":null,"plate_ids":[101,201],"name":""},"geometry":{"type":"LineString","coordinates":[[113.07,42.579],[113.732,42.653],[114.395,42.723],[115.059,42.79],[115.725,42.852],[116.392,42.911],[117.06,42.966],[117.729,43.017],[118.4,43.064],[119.071,43.107],[119.744,43.146],[120.417,43.182],[121.091,43.213],[121.765,43.24],[122.44,43.264],[123.116,43.283],[123.792,43.298],[124.468,43.31],[125.145,43.317],[125.821,43.321]]}},{"type":"Feature","properties":{"boundary_type":"transform","feature_type":"gpml:Transform","polarity":null,"overriding_plate_id":null,"subducting_plate_id":null,"plate_ids":[201,801],"name":""},"geometry":{"type":"LineString","coordinates":[[113.07,42.579],[113.139,42.083],[113.207,41.587],[113.273,41.091],[113.339,40.595],[113.404,40.099],[113.468,39.602],[113.531,39.106],[113.593,38.61],[113.654,38.114],[113.714,37.617],[113.773,37.121],[113.832,36.625],[113.89,36.128],[113.947,35.632],[114.004,35.136],[114.06,34.639],[114.115,34.143],[114.17,33.646],[114.224,33.15],[114.277,32.653],[114.33,32.156],[114.382,31.66],[114.433,31.163],[114.485,30.667],[114.535,30.17],[114.585,29.673],[114.635,29.176],[114.684,28.68],[114.732,28.183],[114.78,27.686],[114.828,27.189],[114.838,26.696],[114.848,26.203],[114.858,25.709],[114.868,25.216],[114.878,24.722],[114.887,24.229],[114.897,23.735],[114.906,23.242],[114.916,22.749],[114.925,22.255],[114.934,21.762],[114.944,21.268],[114.953,20.775],[114.962,20.281],[114.971,19.788],[114.98,19.294],[114.989,18.801],[114.998,18.308],[115.007,17.814],[115.015,17.321],[115.024,16.827],[115.05,16.339],[115.075,15.851],[115.1,15.363],[115.125,14.875],[115.15,14.388],[115.175,13.9],[115.2,13.412],[115.225,12.924],[115.249,12.436],[115.274,11.948],[115.298,11.46],[115.323,10.972],[115.347,10.484],[115.371,9.996],[115.395,9.508],[115.419,9.02],[115.443,8.532],[115.467,8.044],[115.491,7.556],[115.515,7.068],[115.538,6.58],[115.632,6.093],[115.725,5.606],[115.819,5.119],[115.912,4.633],[116.005,4.146],[116.098,3.659],[116.19,3.172],[116.283,2.685],[116.376,2.198],[116.468,1.711],[116.561,1.224],[116.653,0.737],[116.746,0.25],[116.838,-0.237],[116.931,-0.724],[117.023,-1.211],[117.116,-1.698],[117.208,-2.185],[117.301,-2.672],[117.394,-3.159],[117.486,-3.646],[117.579,-4.133],[117.672,-4.62],[117.765,-5.107],[117.859,-5.594],[117.952,-6.081],[118.046,-6.568],[118.14,-7.055],[118.234,-7.542],[118.328,-8.028],[118.422,-8.515],[118.593,-8.954],[118.764,-9.393],[118.936,-9.831],[119.108,-10.27],[119.281,-10.708],[119.454,-11.147]]}},{"type":"Feature","properties":{"boundary_type":"transform","feature_type":"gpml:Transform","polarity":null,"overriding_plate_id":null,"subducting_plate_id":null,"plate_ids":[101,90109],"name":""},"geometry":{"type":"LineString","coordinates":[[124.829,49.921],[124.909,49.447],[124.987,48.973],[125.064,48.499],[125.14,48.025],[125.214,47.55],[125.287,47.076],[125.359,46.602],[125.429,46.127],[125.498,45.653]]}},{"type":"Feature","properties":{"boundary_type":"transform","feature_type":"gpml:Transform","polarity":null,"overriding_plate_id":null,"subducting_plate_id":null,"plate_ids":[101,90110],"name":""},"geometry":{"type":"LineString","coordinates":[[125.498,45.653],[125.565,45.187],[125.631,44.72],[125.695,44.254],[125.759,43.787],[125.821,43.321]]}},{"type":"Feature","properties":{"boundary_type":"transform","feature_type":"gpml:Transform","polarity":null,"overriding_plate_id":null,"subducting_plate_id":null,"plate_ids":[201,90110],"name":""},"geometry":{"type":"LineString","coordinates":[[125.821,43.321],[125.887,42.829],[125.951,42.337],[126.014,41.845],[126.076,41.353],[126.137,40.861],[126.197,40.369],[126.256,39.877]]}},{"type":"Feature","properties":{"boundary_type":"subduction","feature_type":"gpml:SubductionZone","polarity":"Left","overriding_plate_id":302,"subducting_plate_id":90109,"plate_ids":[302,90109],"name":""},"geometry":{"type":"LineString","coordinates":[[-171.677,27.643],[-171.403,27.264],[-171.132,26.885],[-170.862,26.506],[-170.594,26.126],[-170.328,25.745],[-170.063,25.364],[-169.8,24.983],[-169.539,24.601],[-169.3,24.18],[-169.063,23.759],[-168.828,23.337],[-168.594,22.915],[-168.361,22.493],[-168.13,22.07],[-167.901,21.647],[-167.672,21.224],[-167.445,20.801],[-167.219,20.377],[-166.995,19.953],[-166.771,19.528],[-166.549,19.103],[-166.328,18.678],[-166.108,18.253],[-165.836,17.864],[-165.565,17.474],[-165.295,17.084],[-165.026,16.694],[-164.758,16.303],[-164.491,15.912],[-164.226,15.521],[-163.961,15.129],[-163.698,14.737],[-163.435,14.345],[-163.173,13.953],[-162.912,13.56],[-162.652,13.167],[-162.397,12.751],[-162.143,12.335],[-161.89,11.919],[-161.637,11.503],[-161.386,11.086],[-161.134,10.669],[-160.884,10.252],[-160.634,9.835],[-160.385,9.418],[-160.137,9.0],[-159.889,8.582],[-159.642,8.164],[-159.395,7.746],[-159.148,7.328],[-158.903,6.91],[-158.681,6.62],[-158.459,6.329]]}},{"type":"Feature","properties":{"boundary_type":"ridge","feature_type":"gpml:MidOceanRidge","polarity":null,"overriding_plate_id":null,"subducting_plate_id":null,"plate_ids":[90109,90110],"name":""},"geometry":{"type":"LineString","coordinates":[[125.498,45.653],[126.2,45.572],[126.9,45.486],[127.598,45.396],[128.294,45.302],[128.987,45.203],[129.678,45.101],[130.366,44.994],[131.052,44.883],[131.735,44.768],[132.415,44.649],[133.093,44.527],[133.767,44.4],[134.439,44.269],[135.107,44.134],[135.773,43.995],[136.435,43.853],[137.094,43.706],[137.75,43.556],[138.402,43.402],[139.052,43.245],[139.697,43.083],[140.34,42.919],[140.979,42.75],[141.614,42.578],[142.246,42.403],[142.874,42.224],[143.499,42.042],[144.12,41.856],[144.738,41.667],[145.352,41.475],[145.962,41.279],[146.568,41.081],[147.171,40.879],[147.77,40.674],[148.366,40.466],[148.958,40.255],[149.546,40.041],[150.13,39.824],[150.711,39.604],[151.288,39.381],[151.861,39.155],[152.43,38.927],[152.996,38.695],[153.558,38.461],[154.117,38.225],[154.672,37.986],[155.223,37.744],[155.771,37.5],[156.315,37.253],[156.855,37.003],[157.392,36.752],[157.926,36.497],[158.456,36.241],[158.982,35.982],[159.505,35.721],[160.025,35.458],[160.541,35.192],[161.054,34.924],[161.563,34.654],[162.069,34.382],[162.572,34.108],[163.071,33.832],[163.568,33.554],[164.061,33.274],[164.551,32.992],[165.038,32.708],[165.521,32.422],[166.002,32.135],[166.48,31.845],[166.954,31.554],[167.426,31.261],[167.895,30.966],[168.361,30.67],[168.824,30.372],[169.284,30.072],[169.741,29.771],[170.196,29.468],[170.648,29.164],[171.097,28.858],[171.544,28.551],[171.988,28.242],[172.429,27.932],[172.868,27.62],[173.304,27.307],[173.738,26.993],[174.17,26.678],[174.599,26.361],[175.026,26.042],[175.45,25.723],[175.872,25.402],[176.292,25.081],[176.71,24.758],[177.126,24.433],[177.539,24.108],[177.95,23.782],[178.36,23.454],[178.767,23.126],[179.172,22.796],[179.575,22.465],[179.977,22.134],[-179.624,21.801],[-179.226,21.468],[-178.83,21.133],[-178.436,20.798],[-178.044,20.461],[-177.653,20.124],[-177.264,19.786],[-176.877,19.447],[-176.492,19.108],[-176.108,18.767],[-175.725,18.426],[-175.344,18.084],[-174.965,17.741],[-174.587,17.398],[-174.21,17.053],[-173.835,16.708],[-173.461,16.363],[-173.088,16.017],[-173.452,15.681],[-173.814,15.345],[-174.174,15.008],[-174.534,14.671],[-174.893,14.333],[-175.25,13.995],[-175.607,13.656],[-175.962,13.317],[-176.317,12.977],[-176.67,12.637],[-177.023,12.296],[-176.772,11.882],[-176.522,11.467],[-176.273,11.053],[-176.025,10.638],[-175.777,10.223],[-175.53,9.808],[-175.283,9.392],[-175.037,8.977],[-174.792,8.561],[-174.547,8.145],[-174.303,7.729],[-174.059,7.313],[-173.816,6.897],[-173.573,6.481],[-173.33,6.064],[-173.088,5.648],[-172.846,5.231],[-172.605,4.814],[-172.364,4.397],[-172.123,3.98],[-171.882,3.563],[-171.642,3.146],[-171.401,2.729],[-171.161,2.312],[-170.921,1.895],[-171.329,1.654],[-171.736,1.414],[-172.144,1.174],[-172.551,0.933],[-172.958,0.692],[-173.365,0.452],[-173.773,0.211],[-174.18,-0.029],[-174.587,-0.27],[-174.994,-0.511],[-175.401,-0.751],[-175.195,-1.202],[-174.988,-1.653],[-174.782,-2.103],[-174.575,-2.554],[-174.368,-3.005],[-174.161,-3.455],[-173.953,-3.906],[-173.746,-4.356],[-173.538,-4.807],[-173.33,-5.257],[-173.122,-5.708],[-172.913,-6.158],[-172.704,-6.608],[-172.495,-7.058],[-172.285,-7.508],[-172.074,-7.958],[-171.864,-8.408],[-171.653,-8.857],[-171.441,-9.307],[-171.229,-9.756],[-171.016,-10.205],[-170.802,-10.655],[-170.588,-11.103],[-170.373,-11.552],[-170.158,-12.001],[-169.942,-12.45],[-169.725,-12.898],[-169.507,-13.346],[-169.289,-13.794],[-169.069,-14.242],[-168.849,-14.689],[-168.628,-15.137],[-168.406,-15.584],[-168.183,-16.031],[-167.959,-16.478],[-167.734,-16.924],[-167.508,-17.37],[-167.281,-17.816]]}},{"type":"Feature","properties":{"boundary_type":"ridge","feature_type":"gpml:MidOceanRidge","polarity":null,"overriding_plate_id":null,"subducting_plate_id":null,"plate_ids":[501,90110],"name":""},"geometry":{"type":"LineString","coordinates":[[-167.281,-17.816],[-167.223,-17.928]]}},{"type":"Feature","properties":{"boundary_type":"subduction","feature_type":"gpml:SubductionZone","polarity":"Right","overriding_plate_id":201,"subducting_plate_id":90110,"plate_ids":[201,90110],"name":""},"geometry":{"type":"LineString","coordinates":[[126.256,39.877],[126.887,39.824],[127.516,39.768],[128.145,39.708],[128.772,39.645],[129.398,39.579],[130.023,39.509],[130.646,39.436],[131.268,39.36],[131.889,39.28],[132.509,39.197],[133.127,39.111],[133.743,39.021],[134.358,38.929],[134.971,38.833],[135.582,38.734],[136.192,38.631],[136.8,38.526],[137.406,38.417],[138.011,38.305],[138.613,38.191],[139.214,38.073],[139.812,37.952],[140.409,37.828],[141.003,37.701],[141.596,37.571],[142.186,37.438],[142.775,37.302],[143.361,37.164],[143.945,37.022],[144.527,36.878],[145.106,36.731],[145.683,36.581],[146.259,36.428],[146.742,36.129],[147.222,35.827],[147.698,35.524],[148.17,35.219],[148.639,34.913],[149.105,34.604],[149.567,34.294],[150.025,33.982],[150.48,33.668],[150.932,33.353],[151.381,33.036],[151.826,32.718],[152.269,32.397],[152.708,32.076],[153.144,31.753],[153.577,31.428],[154.007,31.102],[154.434,30.775],[154.858,30.446],[155.279,30.115],[155.697,29.784],[156.113,29.451],[156.526,29.117],[156.936,28.781],[157.344,28.445],[157.749,28.107],[158.151,27.768],[158.551,27.428],[158.949,27.086],[159.344,26.744],[159.556,26.299],[159.765,25.854],[159.974,25.408],[160.18,24.962],[160.386,24.516],[160.589,24.069],[160.792,23.623],[160.993,23.176],[161.193,22.728],[161.391,22.281],[161.588,21.833],[161.784,21.385],[161.979,20.937],[162.172,20.488],[162.364,20.04],[162.556,19.591],[162.746,19.142],[162.935,18.693],[163.123,18.243],[163.311,17.794],[163.497,17.344],[163.682,16.894],[163.867,16.444],[164.05,15.993],[164.233,15.543],[164.27,15.045],[164.307,14.547],[164.343,14.049],[164.38,13.55],[164.416,13.052],[164.452,12.554],[164.489,12.056],[164.524,11.558],[164.56,11.059],[164.596,10.561],[164.631,10.063],[164.667,9.565],[164.702,9.067],[164.737,8.568],[164.773,8.07],[164.808,7.572],[164.843,7.074],[164.877,6.575],[164.912,6.077],[164.947,5.579],[164.982,5.081],[165.016,4.582],[165.051,4.084],[165.086,3.586],[165.12,3.088],[165.155,2.589],[165.189,2.091],[165.223,1.593],[165.275,1.192]]}},{"type":"Feature","properties":{"boundary_type":"transform","feature_type":"gpml:Transform","polarity":null,"overriding_plate_id":null,"subducting_plate_id":null,"plate_ids":[201,90110],"name":""},"geometry":{"type":"LineString","coordinates":[[164.359,-19.316],[164.564,-19.321]]}},{"type":"Feature","properties":{"boundary_type":"transform","feature_type":"gpml:Transform","polarity":null,"overriding_plate_id":null,"subducting_plate_id":null,"plate_ids":[501,90110],"name":""},"geometry":{"type":"LineString","coordinates":[[164.564,-19.321],[165.089,-19.335],[165.613,-19.347],[166.138,-19.358],[166.663,-19.367],[167.188,-19.375],[167.713,-19.381],[168.238,-19.385],[168.763,-19.388],[169.288,-19.39],[169.813,-19.39],[170.338,-19.389],[170.863,-19.386],[171.388,-19.381],[171.913,-19.376],[172.438,-19.368],[172.962,-19.359],[173.487,-19.349],[174.012,-19.337],[174.536,-19.323],[175.061,-19.309],[175.585,-19.292],[176.11,-19.274],[176.634,-19.255],[177.158,-19.234],[177.682,-19.211],[178.206,-19.188],[178.729,-19.162],[179.253,-19.135],[179.776,-19.107],[-179.701,-19.077],[-179.178,-19.046],[-178.655,-19.013],[-178.133,-18.979],[-177.61,-18.943],[-177.088,-18.906],[-176.567,-18.867],[-176.045,-18.827],[-175.524,-18.786],[-175.003,-18.743],[-174.482,-18.699],[-173.961,-18.653],[-173.441,-18.605],[-172.921,-18.557],[-172.401,-18.507],[-171.882,-18.455],[-171.363,-18.402],[-170.844,-18.348],[-170.326,-18.292],[-169.808,-18.235],[-169.29,-18.176],[-168.773,-18.116],[-168.256,-18.055],[-167.74,-17.992],[-167.223,-17.928]]}},{"type":"Feature","properties":{"boundary_type":"transform","feature_type":"gpml:Transform","polarity":null,"overriding_plate_id":null,"subducting_plate_id":null,"plate_ids":[501,90109],"name":""},"geometry":{"type":"LineString","coordinates":[[-167.281,-17.816],[-166.803,-17.61],[-166.326,-17.402],[-165.85,-17.193],[-165.376,-16.984],[-164.902,-16.773],[-164.429,-16.561],[-163.958,-16.347],[-163.487,-16.133],[-163.018,-15.918],[-162.55,-15.702],[-162.082,-15.485],[-161.616,-15.267],[-161.15,-15.048],[-160.686,-14.828],[-160.222,-14.607],[-159.759,-14.385],[-159.298,-14.162],[-158.837,-13.938],[-158.377,-13.714],[-157.918,-13.488],[-157.459,-13.262],[-157.002,-13.035],[-156.546,-12.807],[-156.09,-12.579],[-155.635,-12.349],[-155.181,-12.119],[-154.728,-11.888],[-154.275,-11.656],[-153.895,-11.451],[-153.515,-11.244],[-153.136,-11.037],[-152.758,-10.83],[-152.38,-10.622],[-152.002,-10.414]]}},{"type":"Feature","properties":{"boundary_type":"transform","feature_type":"gpml:Transform","polarity":null,"overriding_plate_id":null,"subducting_plate_id":null,"plate_ids":[201,90110],"name":""},"geometry":{"type":"LineString","coordinates":[[165.275,1.192],[165.256,0.698],[165.236,0.204],[165.217,-0.29],[165.198,-0.784],[165.179,-1.278],[165.16,-1.772],[165.141,-2.266],[165.121,-2.76],[165.102,-3.254],[165.083,-3.748],[165.064,-4.242],[165.045,-4.736],[165.025,-5.23],[165.006,-5.723],[164.987,-6.217],[164.967,-6.711],[164.948,-7.205],[164.928,-7.699],[164.909,-8.193],[164.889,-8.687],[164.87,-9.181],[164.85,-9.675],[164.83,-10.169],[164.81,-10.663],[164.791,-11.157],[164.771,-11.65],[164.751,-12.144],[164.731,-12.638],[164.71,-13.132],[164.69,-13.626],[164.67,-14.12],[164.649,-14.614],[164.629,-15.108],[164.608,-15.602],[164.588,-16.096],[164.567,-16.59],[164.546,-17.083],[164.525,-17.577],[164.504,-18.071],[164.483,-18.565],[164.461,-19.059],[164.359,-19.316]]}},{"type":"Feature","properties":{"boundary_type":"ridge","feature_type":"gpml:MidOceanRidge","polarity":null,"overriding_plate_id":null,"subducting_plate_id":null,"plate_ids":[101,602],"name":""},"geometry":{"type":"LineString","coordinates":[[-62.731,27.493],[-62.896,27.036],[-63.059,26.578],[-63.221,26.12],[-63.382,25.663],[-63.541,25.205],[-63.699,24.746],[-63.856,24.288],[-64.012,23.829],[-64.167,23.371],[-64.321,22.912],[-64.474,22.453],[-64.625,21.994],[-64.776,21.535],[-64.926,21.075],[-65.075,20.616],[-65.223,20.156],[-65.37,19.696],[-65.516,19.236],[-65.662,18.776],[-65.806,18.316],[-66.31,18.337],[-66.813,18.356],[-67.317,18.375],[-67.821,18.391],[-68.325,18.407],[-68.829,18.421],[-69.333,18.434],[-69.838,18.445],[-70.342,18.456],[-70.846,18.465],[-71.351,18.472],[-71.855,18.478],[-72.359,18.483],[-72.344,18.0],[-72.328,17.516],[-72.313,17.033],[-72.298,16.549],[-72.282,16.066],[-72.267,15.582],[-72.252,15.099],[-72.237,14.615],[-72.222,14.132],[-72.207,13.648],[-72.192,13.165],[-72.178,12.681],[-72.163,12.198],[-72.148,11.714],[-72.134,11.231],[-72.119,10.747],[-72.105,10.264],[-72.09,9.78],[-72.076,9.297],[-72.061,8.813],[-72.047,8.33],[-72.033,7.846],[-72.018,7.363],[-72.004,6.88],[-71.99,6.396],[-72.491,6.356],[-72.991,6.315],[-73.492,6.274],[-73.992,6.233],[-74.493,6.191],[-74.993,6.149],[-75.494,6.106],[-75.994,6.062],[-76.494,6.019],[-76.994,5.974],[-77.494,5.93],[-77.994,5.884],[-78.494,5.839],[-78.994,5.793],[-79.493,5.746],[-79.505,5.253],[-79.516,4.761],[-79.527,4.268],[-79.538,3.775],[-79.55,3.282],[-79.561,2.789],[-79.572,2.296],[-79.583,1.803],[-79.594,1.311],[-79.606,0.818],[-79.617,0.325],[-79.628,-0.168],[-79.639,-0.661],[-79.651,-1.154],[-79.662,-1.647],[-79.673,-2.139],[-79.684,-2.632],[-79.695,-3.125],[-79.707,-3.618],[-79.718,-4.111],[-79.729,-4.604],[-79.741,-5.097],[-79.752,-5.589],[-79.763,-6.082],[-79.774,-6.575],[-79.786,-7.068],[-79.797,-7.561],[-79.809,-8.054],[-79.82,-8.547],[-79.832,-9.039],[-79.843,-9.532],[-79.855,-10.025],[-79.866,-10.518],[-79.878,-11.011],[-79.889,-11.504]]}},{"type":"Feature","properties":{"boundary_type":"subduction","feature_type":"gpml:SubductionZone","polarity":"Left","overriding_plate_id":701,"subducting_plate_id":501,"plate_ids":[501,701],"name":""},"geometry":{"type":"LineString","coordinates":[[-26.903,-34.237],[-26.375,-34.466],[-25.845,-34.692],[-25.311,-34.916],[-24.775,-35.137],[-24.236,-35.356],[-23.694,-35.573],[-23.149,-35.788],[-22.601,-35.999],[-22.05,-36.209],[-21.496,-36.415],[-20.939,-36.62],[-20.38,-36.821],[-19.817,-37.02],[-19.251,-37.217],[-18.683,-37.41],[-18.112,-37.601],[-17.537,-37.789],[-16.96,-37.974],[-16.38,-38.157],[-15.797,-38.336],[-15.211,-38.513],[-14.622,-38.687],[-14.031,-38.858],[-13.436,-39.026],[-12.839,-39.19],[-12.239,-39.352],[-11.636,-39.511],[-11.031,-39.666],[-10.422,-39.818],[-9.811,-39.967],[-9.174,-39.925],[-8.537,-39.88],[-7.902,-39.831],[-7.267,-39.778],[-6.633,-39.723],[-6.0,-39.663],[-5.369,-39.6],[-4.738,-39.534],[-4.109,-39.465],[-3.481,-39.392],[-2.855,-39.315],[-2.229,-39.236],[-1.606,-39.152],[-0.983,-39.066],[-0.363,-38.976],[0.256,-38.884],[0.874,-38.787],[1.49,-38.688],[2.104,-38.585],[2.716,-38.479],[3.326,-38.37],[3.935,-38.258],[4.541,-38.143],[5.146,-38.024],[5.749,-37.903],[6.35,-37.778],[6.948,-37.651],[7.542,-37.493],[8.133,-37.332],[8.721,-37.168],[9.307,-37.001],[9.89,-36.831],[10.471,-36.659],[11.049,-36.483],[11.624,-36.305],[12.197,-36.125],[12.767,-35.941],[13.335,-35.755],[13.9,-35.566],[14.462,-35.374],[15.021,-35.18],[15.578,-34.984],[16.132,-34.784],[16.683,-34.583],[17.232,-34.379],[17.778,-34.172],[18.321,-33.963],[18.862,-33.752],[19.4,-33.538],[19.935,-33.322],[20.468,-33.104],[20.998,-32.883],[21.525,-32.66],[22.05,-32.435],[22.572,-32.208],[23.092,-31.979],[23.608,-31.747],[24.123,-31.514],[24.634,-31.278],[25.144,-31.041],[25.65,-30.801],[26.154,-30.56],[26.656,-30.316],[27.155,-30.071],[27.652,-29.824],[28.146,-29.575],[28.637,-29.324],[29.127,-29.071],[29.614,-28.817],[30.098,-28.561],[30.58,-28.303],[31.06,-28.043],[31.537,-27.782],[32.013,-27.519],[32.486,-27.255],[32.956,-26.989],[33.425,-26.721],[33.891,-26.452],[34.355,-26.181],[34.817,-25.909],[35.277,-25.636],[35.734,-25.361],[36.19,-25.084],[36.511,-24.841],[36.83,-24.597]]}},{"type":"Feature","properties":{"boundary_type":"transform","feature_type":"gpml:Transform","polarity":null,"overriding_plate_id":null,"subducting_plate_id":null,"plate_ids":[701,801],"name":""},"geometry":{"type":"LineString","coordinates":[[47.396,5.613],[47.387,5.212],[47.378,4.812],[47.369,4.411],[47.36,4.011],[47.278,3.53],[47.196,3.049],[47.114,2.569],[47.033,2.088],[46.951,1.607],[46.869,1.126],[46.787,0.645],[46.706,0.164],[46.624,-0.316],[46.542,-0.797],[46.461,-1.278],[46.379,-1.759],[46.297,-2.24],[46.215,-2.72],[46.133,-3.201],[46.051,-3.682],[45.969,-4.163],[45.887,-4.644],[45.805,-5.124],[45.722,-5.605],[45.64,-6.086],[45.557,-6.567],[45.474,-7.047],[45.391,-7.528],[45.308,-8.009],[45.159,-8.46],[45.01,-8.911],[44.861,-9.362],[44.711,-9.814],[44.561,-10.265],[44.41,-10.716],[44.259,-11.167],[44.108,-11.617],[43.956,-12.068],[43.803,-12.519],[43.65,-12.969],[43.496,-13.42],[43.342,-13.87],[43.187,-14.321],[43.032,-14.771],[42.876,-15.221],[42.65,-15.655],[42.424,-16.089],[42.197,-16.522],[41.968,-16.955],[41.739,-17.388],[41.509,-17.821],[41.277,-18.253],[41.044,-18.685],[40.81,-19.117],[40.575,-19.549],[40.339,-19.98],[40.101,-20.411],[39.862,-20.842],[39.622,-21.272],[39.38,-21.702],[39.137,-22.131],[38.892,-22.561],[38.645,-22.99],[38.398,-23.418],[38.148,-23.846],[37.897,-24.274],[37.644,-24.701]]}},{"type":"Feature","properties":{"boundary_type":"subduction","feature_type":"gpml:SubductionZone","polarity":"Right","overriding_plate_id":701,"subducting_plate_id":801,"plate_ids":[701,801],"name":""},"geometry":{"type":"LineString","coordinates":[[15.51,28.039],[16.038,28.019],[16.565,27.997],[17.093,27.973],[17.62,27.948],[18.147,27.92],[18.673,27.89],[19.199,27.858],[19.684,27.663],[20.168,27.466],[20.649,27.267],[21.129,27.067],[21.607,26.865],[22.083,26.661],[22.558,26.456],[23.031,26.249],[23.502,26.041],[23.972,25.831],[24.44,25.62],[24.906,25.407],[25.371,25.193],[25.829,24.941],[26.286,24.688],[26.74,24.434],[27.193,24.178],[27.644,23.921],[28.093,23.662],[28.541,23.403],[28.986,23.142],[29.43,22.879],[29.872,22.616],[30.313,22.351],[30.752,22.086],[31.189,21.819],[31.624,21.551],[32.058,21.281],[32.491,21.011],[32.921,20.739],[33.351,20.467],[33.778,20.193],[34.205,19.919],[34.629,19.643],[35.053,19.367],[35.426,19.047],[35.799,18.728],[36.17,18.407],[36.539,18.086],[36.907,17.764],[37.274,17.441],[37.64,17.117],[38.004,16.793],[38.367,16.469],[38.729,16.144],[39.09,15.818],[39.45,15.491],[39.808,15.164],[40.165,14.836],[40.521,14.508],[40.877,14.179],[41.231,13.85],[41.532,13.461],[41.833,13.071],[42.132,12.681],[42.431,12.291],[42.728,11.9],[43.025,11.509],[43.321,11.117],[43.617,10.726],[43.911,10.334],[44.205,9.941],[44.498,9.549],[44.79,9.156],[45.082,8.763],[45.373,8.37],[45.664,7.977],[45.954,7.583],[46.243,7.189],[46.532,6.795],[46.82,6.401],[47.108,6.007],[47.396,5.613]]}},{"type":"Feature","properties":{"boundary_type":"transform","feature_type":"gpml:Transform","polarity":null,"overriding_plate_id":null,"subducting_plate_id":null,"plate_ids":[701,801],"name":""},"geometry":{"type":"LineString","coordinates":[[15.51,28.039],[15.003,28.248],[14.494,28.455],[13.982,28.661],[13.469,28.864],[12.954,29.065],[12.437,29.265],[11.918,29.462],[11.396,29.658],[10.873,29.851],[10.348,30.042],[9.821,30.232],[9.291,30.419],[8.76,30.604],[8.227,30.787],[7.691,30.967],[7.154,31.146],[6.615,31.322],[6.073,31.496],[5.53,31.667],[4.985,31.837],[4.418,31.724],[3.853,31.609],[3.289,31.491],[2.726,31.371],[2.165,31.249],[1.606,31.124],[1.048,30.997],[0.491,30.867],[-0.064,30.735],[-0.617,30.601],[-1.169,30.464],[-1.72,30.325],[-2.268,30.184],[-2.816,30.04],[-3.361,29.894],[-3.905,29.746],[-4.448,29.596],[-4.988,29.443],[-5.528,29.288],[-6.065,29.132],[-6.601,28.973],[-7.135,28.811],[-7.668,28.648],[-8.199,28.483],[-8.728,28.315],[-9.255,28.146],[-9.707,27.854],[-10.156,27.56],[-10.602,27.264],[-11.046,26.967],[-11.488,26.669],[-11.928,26.37],[-12.365,26.069],[-12.8,25.767],[-13.233,25.463],[-13.663,25.158],[-14.092,24.852],[-14.518,24.545],[-14.943,24.237],[-15.365,23.927],[-15.785,23.616],[-16.203,23.305],[-16.619,22.992],[-16.79,22.545],[-16.959,22.099],[-17.127,21.652],[-17.295,21.205],[-17.461,20.758],[-17.626,20.311],[-17.79,19.864],[-17.954,19.416],[-18.116,18.968],[-18.278,18.521],[-18.438,18.073],[-18.598,17.625],[-18.616,17.128],[-18.634,16.632],[-18.652,16.135],[-18.669,15.639],[-18.687,15.142],[-18.704,14.646],[-18.721,14.15],[-18.739,13.653],[-18.756,13.157],[-18.773,12.66],[-18.79,12.164],[-18.807,11.667],[-18.824,11.171],[-18.841,10.674],[-18.857,10.178],[-18.874,9.682],[-18.891,9.185],[-18.908,8.689],[-18.924,8.192],[-18.941,7.696],[-18.957,7.199],[-18.974,6.703],[-18.99,6.206],[-19.007,5.71],[-19.023,5.214],[-19.039,4.717],[-19.056,4.221],[-19.072,3.724],[-19.133,3.726]]}}]}