{"type":"FeatureCollection","meta":{"model":"Cao2024","reconstruction_time_ma":1075.0,"anchor_plate_id":0,"pygplates_version":"1.0.0","tessellate_degrees":0.5,"polarity_convention":"gpml:subductionPolarity. 'Left'/'Right' names the side of the line, in vertex order, on which the OVERRIDING plate lies. Triangles are drawn on that side.","antimeridian":"Lines are NOT split at +/-180 deg. The renderer works in 3D unit vectors where the dateline is not special; splitting would only add spurious breaks. Do not treat this as RFC 7946 GIS-ready 2D data."},"features":[{"type":"Feature","properties":{"boundary_type":"subduction","feature_type":"gpml:SubductionZone","polarity":"Right","overriding_plate_id":null,"subducting_plate_id":null,"plate_ids":[501],"name":"Eastern Ghats-Rayner-Ruker SZ"},"geometry":{"type":"LineString","coordinates":[[-43.954,-2.818],[-43.565,-2.705]]}},{"type":"Feature","properties":{"boundary_type":"subduction","feature_type":"gpml:SubductionZone","polarity":"Right","overriding_plate_id":501,"subducting_plate_id":701,"plate_ids":[501,701],"name":"Eastern Ghats-Rayner-Ruker SZ"},"geometry":{"type":"LineString","coordinates":[[-43.565,-2.705],[-43.094,-2.567],[-42.623,-2.429],[-42.153,-2.291],[-41.682,-2.153],[-41.211,-2.014],[-40.741,-1.876],[-40.27,-1.737],[-39.8,-1.598],[-39.329,-1.459],[-38.859,-1.32],[-38.389,-1.181],[-37.918,-1.042],[-37.448,-0.903],[-36.978,-0.764],[-36.508,-0.624],[-36.038,-0.485],[-35.568,-0.345],[-35.098,-0.206],[-34.628,-0.066],[-34.158,0.073],[-33.688,0.213],[-33.218,0.352],[-32.723,0.346],[-32.229,0.341],[-31.735,0.335],[-31.241,0.33],[-30.747,0.324],[-30.253,0.318],[-29.759,0.313],[-29.265,0.307],[-28.771,0.301],[-28.277,0.296],[-27.783,0.29],[-27.289,0.284],[-26.795,0.278],[-26.301,0.272],[-25.807,0.266],[-25.313,0.261],[-24.819,0.255],[-24.325,0.249],[-23.831,0.243],[-23.337,0.237],[-22.843,0.231],[-22.349,0.225],[-21.855,0.219],[-21.361,0.213],[-20.867,0.207],[-20.373,0.201],[-19.879,0.195],[-19.385,0.189],[-18.891,0.183],[-18.397,0.176],[-17.903,0.17],[-17.409,0.164],[-16.915,0.158],[-16.421,0.152],[-15.927,0.146],[-15.433,0.14],[-14.939,0.133],[-14.445,0.127],[-13.951,0.121],[-13.457,0.115],[-12.963,0.108],[-12.469,0.102],[-11.975,0.096],[-11.555,0.005],[-11.136,-0.085]]}},{"type":"Feature","properties":{"boundary_type":"subduction","feature_type":"gpml:SubductionZone","polarity":"Left","overriding_plate_id":701,"subducting_plate_id":501,"plate_ids":[501,701],"name":"Sao Francisco subduction zone"},"geometry":{"type":"LineString","coordinates":[[3.947,-17.311],[4.108,-17.461],[4.488,-17.747],[4.869,-18.032],[5.252,-18.317],[5.635,-18.6],[6.02,-18.883],[6.406,-19.165],[6.793,-19.446],[7.182,-19.727],[7.572,-20.006],[7.964,-20.285],[8.357,-20.563],[8.718,-20.824],[9.081,-21.085],[9.446,-21.345],[9.811,-21.604],[10.178,-21.863],[10.546,-22.12],[10.957,-22.367],[11.369,-22.612],[11.782,-22.857],[12.197,-23.1],[12.613,-23.342],[13.019,-23.601],[13.426,-23.859],[13.835,-24.116],[14.246,-24.372],[14.658,-24.627],[14.98,-24.911],[15.304,-25.194],[15.629,-25.476],[15.956,-25.758],[16.285,-26.039],[16.591,-26.364],[16.899,-26.689],[17.209,-27.012],[17.52,-27.336],[17.828,-27.668],[18.138,-27.999],[18.45,-28.329],[18.764,-28.659],[19.183,-28.91],[19.604,-29.16],[20.027,-29.408],[20.451,-29.655],[20.878,-29.901],[21.307,-30.145],[21.739,-30.388],[22.172,-30.63],[22.607,-30.87],[23.046,-31.112],[23.487,-31.353],[23.93,-31.592],[24.376,-31.83],[24.823,-32.067],[25.392,-32.008],[25.96,-31.946],[26.527,-31.882],[27.094,-31.816],[27.66,-31.747],[28.224,-31.676],[28.788,-31.602],[29.351,-31.525],[29.913,-31.446],[30.474,-31.365],[31.034,-31.281],[31.594,-31.195],[32.152,-31.107],[32.709,-31.016],[33.265,-30.922],[33.819,-30.826],[34.373,-30.728],[34.926,-30.628],[35.477,-30.525],[36.027,-30.42],[36.576,-30.313],[37.124,-30.203],[37.671,-30.091],[38.216,-29.977],[38.76,-29.86]]}},{"type":"Feature","properties":{"boundary_type":"subduction","feature_type":"gpml:SubductionZone","polarity":"Left","overriding_plate_id":715,"subducting_plate_id":501,"plate_ids":[501,715],"name":"Sahara_SZ"},"geometry":{"type":"LineString","coordinates":[[-12.48,-9.093],[-12.084,-9.343],[-11.687,-9.593],[-11.289,-9.842],[-10.891,-10.09],[-10.492,-10.339],[-10.093,-10.586],[-9.692,-10.834],[-9.292,-11.08],[-8.89,-11.327],[-8.488,-11.572],[-8.085,-11.817],[-7.667,-12.057],[-7.248,-12.297],[-6.828,-12.536],[-6.408,-12.774],[-5.987,-13.012],[-5.565,-13.248],[-5.142,-13.485],[-4.718,-13.72],[-4.294,-13.955],[-3.868,-14.189],[-3.442,-14.422],[-3.015,-14.655],[-2.587,-14.886],[-2.158,-15.117],[-1.728,-15.347],[-1.297,-15.577],[-0.865,-15.805],[-0.859,-15.807]]}},{"type":"Feature","properties":{"boundary_type":"subduction","feature_type":"gpml:SubductionZone","polarity":"Left","overriding_plate_id":701,"subducting_plate_id":501,"plate_ids":[501,701],"name":"Sahara_SZ"},"geometry":{"type":"LineString","coordinates":[[-0.859,-15.807],[-0.382,-15.962],[0.096,-16.117],[0.575,-16.27],[1.054,-16.422],[1.535,-16.573],[2.015,-16.723],[2.497,-16.872],[2.98,-17.019],[3.463,-17.166],[3.947,-17.311]]}},{"type":"Feature","properties":{"boundary_type":"transform","feature_type":"gpml:Transform","polarity":null,"overriding_plate_id":null,"subducting_plate_id":null,"plate_ids":[101,801],"name":"inferred transform"},"geometry":{"type":"LineString","coordinates":[[-142.234,47.696],[-142.899,47.899],[-143.569,48.098],[-144.245,48.294],[-144.926,48.485],[-145.612,48.672],[-146.303,48.856],[-146.999,49.035],[-147.7,49.209],[-148.406,49.38],[-149.117,49.546],[-149.832,49.708],[-150.553,49.866],[-151.278,50.019],[-152.007,50.167],[-152.741,50.311],[-153.48,50.45],[-154.222,50.584],[-154.969,50.714],[-155.72,50.839],[-156.475,50.959],[-157.233,51.074],[-157.996,51.185],[-158.762,51.29],[-159.531,51.39],[-160.304,51.485],[-161.08,51.575],[-161.859,51.66],[-162.64,51.74],[-163.439,51.798],[-164.239,51.85],[-165.042,51.897],[-165.845,51.939],[-166.651,51.974],[-167.457,52.005],[-168.264,52.03],[-169.073,52.049],[-169.882,52.063],[-170.691,52.071],[-171.5,52.074],[-172.31,52.072],[-173.119,52.063],[-173.928,52.049],[-174.736,52.03],[-175.543,52.005],[-176.35,51.975],[-177.155,51.939],[-177.959,51.897],[-178.761,51.851],[-179.562,51.798],[179.64,51.741],[178.843,51.677],[178.049,51.609],[177.258,51.535],[176.469,51.456],[175.682,51.372],[174.899,51.282],[174.119,51.187],[173.342,51.087],[172.569,50.982],[171.799,50.872],[171.033,50.756],[170.271,50.636],[169.513,50.511],[168.759,50.381],[168.009,50.246],[167.263,50.106],[166.522,49.962],[165.786,49.812],[165.054,49.659],[164.326,49.5],[163.603,49.337],[162.886,49.17],[162.173,48.998],[161.473,48.84],[160.778,48.678],[160.087,48.512],[159.4,48.341],[158.719,48.167],[158.042,47.988],[157.369,47.806],[156.702,47.619],[156.039,47.429],[155.381,47.235],[154.728,47.038],[154.08,46.836],[153.437,46.631],[152.798,46.423],[152.165,46.21],[151.536,45.995],[150.913,45.776],[150.294,45.553],[149.68,45.328],[149.071,45.099],[148.467,44.867],[147.868,44.631],[147.274,44.393],[146.684,44.151],[146.099,43.907],[145.52,43.659],[144.945,43.409],[144.374,43.156],[143.809,42.9],[143.248,42.641],[142.692,42.379],[142.141,42.115],[141.594,41.849],[141.051,41.579],[140.513,41.307],[139.98,41.033],[139.457,40.734],[138.939,40.433],[138.425,40.129],[137.916,39.824],[137.412,39.516],[136.912,39.205],[136.416,38.893],[135.925,38.579],[135.438,38.263],[134.955,37.944],[134.477,37.624],[134.002,37.302],[133.532,36.978],[133.065,36.652],[132.603,36.324],[132.144,35.994],[131.69,35.663],[131.239,35.33],[130.791,34.996],[130.348,34.659],[129.908,34.322],[129.471,33.982],[129.038,33.641],[128.609,33.299],[128.182,32.955],[127.76,32.61],[127.34,32.263],[126.924,31.915],[126.51,31.565],[126.1,31.215],[125.693,30.863],[125.289,30.509],[124.887,30.155],[124.489,29.799],[124.093,29.442],[123.701,29.084],[123.311,28.725],[122.923,28.364],[122.539,28.003],[122.156,27.64],[121.777,27.277],[121.4,26.912],[121.025,26.547],[120.653,26.18],[120.283,25.813],[119.915,25.444],[119.549,25.075],[119.186,24.705],[118.825,24.334],[118.466,23.962],[118.109,23.589],[117.754,23.215],[117.401,22.841],[117.05,22.466],[116.701,22.09],[116.354,21.713],[116.009,21.336],[115.665,20.958],[115.323,20.579],[114.983,20.2],[114.644,19.82],[114.307,19.439],[113.972,19.058],[113.638,18.676],[113.306,18.293],[112.991,17.903],[112.678,17.513],[112.365,17.122],[112.055,16.731],[111.745,16.339],[111.437,15.947],[111.13,15.554],[110.824,15.161],[110.519,14.767],[110.216,14.374],[109.913,13.979],[109.612,13.585],[109.311,13.19],[109.011,12.794],[108.713,12.399],[108.415,12.002],[108.118,11.606],[107.822,11.209],[107.527,10.813],[107.233,10.415],[106.939,10.018],[106.646,9.62],[106.354,9.222],[106.062,8.824],[105.771,8.425],[105.481,8.027],[105.191,7.628],[104.902,7.229]]}},{"type":"Feature","properties":{"boundary_type":"subduction","feature_type":"gpml:SubductionZone","polarity":"Left","overriding_plate_id":101,"subducting_plate_id":90109,"plate_ids":[101,90109],"name":"E-Lau SZ"},"geometry":{"type":"LineString","coordinates":[[126.94,1.159],[127.304,0.871],[127.668,0.584],[128.032,0.296],[128.396,0.009],[128.76,-0.279],[129.123,-0.566],[129.487,-0.854],[129.851,-1.141],[130.215,-1.428],[130.579,-1.716],[130.944,-2.003],[131.308,-2.29],[131.771,-2.479],[132.235,-2.667],[132.699,-2.855],[133.163,-3.043],[133.627,-3.23],[134.091,-3.418],[134.556,-3.605],[135.02,-3.792],[135.485,-3.978],[135.95,-4.165],[136.415,-4.351],[136.881,-4.537],[137.259,-4.838],[137.638,-5.138],[138.017,-5.438],[138.397,-5.738],[138.776,-6.038],[139.157,-6.338],[139.537,-6.637],[139.919,-6.936],[140.3,-7.234],[140.683,-7.533],[141.065,-7.831],[141.449,-8.128],[141.899,-8.303],[142.349,-8.476],[142.8,-8.65],[143.251,-8.822],[143.702,-8.995],[144.154,-9.166],[144.607,-9.338],[145.06,-9.508],[145.513,-9.678],[145.967,-9.847],[146.421,-10.016],[146.876,-10.184],[147.331,-10.352],[147.631,-10.728],[147.931,-11.103],[148.233,-11.479],[148.535,-11.854],[148.837,-12.228],[149.141,-12.603],[149.446,-12.977],[149.751,-13.351],[150.058,-13.724],[150.365,-14.097],[150.809,-14.343],[151.253,-14.589],[151.698,-14.833],[152.144,-15.077],[152.592,-15.32],[153.04,-15.562],[153.489,-15.803],[153.94,-16.044],[154.391,-16.283],[154.844,-16.521],[155.298,-16.759],[155.753,-16.995],[156.143,-17.319],[156.535,-17.643],[156.928,-17.966],[157.323,-18.288],[157.719,-18.609],[158.117,-18.929],[158.517,-19.248],[158.917,-19.567],[159.32,-19.885],[159.724,-20.202],[160.13,-20.517]]}},{"type":"Feature","properties":{"boundary_type":"subduction","feature_type":"gpml:SubductionZone","polarity":"Left","overriding_plate_id":null,"subducting_plate_id":null,"plate_ids":[90109],"name":"E-Lau SZ"},"geometry":{"type":"LineString","coordinates":[[160.13,-20.517],[160.182,-20.558]]}},{"type":"Feature","properties":{"boundary_type":"subduction","feature_type":"gpml:SubductionZone","polarity":"Left","overriding_plate_id":602,"subducting_plate_id":501,"plate_ids":[501,602],"name":"NorthIndia SZ"},"geometry":{"type":"LineString","coordinates":[[-62.515,-19.32],[-62.077,-19.061],[-61.641,-18.801],[-61.205,-18.54],[-60.772,-18.278],[-60.339,-18.015],[-59.908,-17.752],[-59.478,-17.487],[-59.049,-17.221],[-58.621,-16.954],[-58.195,-16.687],[-57.77,-16.418],[-57.37,-16.102],[-56.971,-15.784],[-56.574,-15.465],[-56.177,-15.146],[-55.782,-14.827],[-55.388,-14.506],[-54.996,-14.185],[-54.604,-13.863],[-54.213,-13.541],[-53.824,-13.218],[-53.435,-12.894],[-53.048,-12.57],[-52.662,-12.246],[-52.276,-11.92],[-51.891,-11.595],[-51.508,-11.268],[-51.125,-10.942],[-50.743,-10.614],[-50.362,-10.287],[-49.981,-9.959],[-49.602,-9.63],[-49.223,-9.301],[-48.845,-8.972],[-48.467,-8.642],[-48.09,-8.312],[-47.714,-7.981],[-47.338,-7.651],[-46.963,-7.319],[-46.589,-6.988],[-46.324,-6.572],[-46.059,-6.155],[-45.795,-5.738],[-45.531,-5.321],[-45.267,-4.904],[-45.004,-4.487],[-44.741,-4.07],[-44.478,-3.653],[-44.216,-3.236],[-43.954,-2.818]]}},{"type":"Feature","properties":{"boundary_type":"subduction","feature_type":"gpml:SubductionZone","polarity":"Left","overriding_plate_id":null,"subducting_plate_id":null,"plate_ids":[602],"name":"NorthIndia SZ"},"geometry":{"type":"LineString","coordinates":[[-43.954,-2.818],[-43.818,-2.603],[-43.683,-2.387]]}},{"type":"Feature","properties":{"boundary_type":"subduction","feature_type":"gpml:SubductionZone","polarity":"Left","overriding_plate_id":602,"subducting_plate_id":501,"plate_ids":[501,602],"name":""},"geometry":{"type":"LineString","coordinates":[[-106.269,-2.828],[-105.821,-3.043],[-105.372,-3.258],[-104.923,-3.472],[-104.474,-3.686],[-104.025,-3.9],[-103.575,-4.113],[-103.125,-4.327],[-102.675,-4.54],[-102.225,-4.753],[-101.775,-4.965],[-101.324,-5.177],[-100.873,-5.389],[-100.421,-5.601],[-99.969,-5.812],[-99.517,-6.023],[-99.065,-6.234],[-98.612,-6.444],[-98.159,-6.653],[-97.705,-6.863],[-97.251,-7.072],[-96.797,-7.28],[-96.342,-7.488],[-95.887,-7.696],[-95.431,-7.903],[-94.975,-8.109],[-94.518,-8.315],[-94.061,-8.521],[-93.603,-8.726],[-93.145,-8.93],[-92.686,-9.134],[-92.227,-9.337],[-91.768,-9.54],[-91.307,-9.742],[-90.847,-9.943],[-90.385,-10.144],[-89.923,-10.345],[-89.461,-10.544],[-88.998,-10.743],[-88.534,-10.941],[-88.07,-11.139],[-87.605,-11.335],[-87.139,-11.531],[-86.673,-11.727],[-86.206,-11.921],[-85.738,-12.115],[-85.27,-12.308],[-84.801,-12.5],[-84.331,-12.692],[-83.861,-12.882],[-83.39,-13.072],[-82.918,-13.261],[-82.445,-13.449],[-81.972,-13.636],[-81.498,-13.822],[-81.023,-14.007],[-80.548,-14.192],[-80.071,-14.375],[-79.594,-14.558],[-79.116,-14.739],[-78.638,-14.92],[-78.158,-15.099],[-77.678,-15.278],[-77.197,-15.455],[-76.715,-15.632],[-76.232,-15.807],[-75.751,-15.981],[-75.269,-16.153],[-74.786,-16.324],[-74.302,-16.495],[-73.817,-16.664],[-73.332,-16.832],[-72.846,-16.999],[-72.358,-17.164],[-71.87,-17.329],[-71.381,-17.492],[-70.891,-17.654],[-70.401,-17.815],[-69.909,-17.975],[-69.417,-18.133],[-68.923,-18.291],[-68.429,-18.447],[-67.939,-18.526],[-67.448,-18.605],[-66.956,-18.682],[-66.465,-18.758],[-65.972,-18.833],[-65.48,-18.907],[-64.987,-18.979],[-64.493,-19.05],[-63.999,-19.119],[-63.505,-19.188],[-63.01,-19.255],[-62.515,-19.32]]}},{"type":"Feature","properties":{"boundary_type":"ridge","feature_type":"gpml:MidOceanRidge","polarity":null,"overriding_plate_id":null,"subducting_plate_id":null,"plate_ids":[701,715],"name":""},"geometry":{"type":"LineString","coordinates":[[-0.859,-15.807],[-0.581,-15.399],[-0.304,-14.99],[-0.028,-14.582],[0.247,-14.172],[0.521,-13.763],[0.794,-13.353],[1.066,-12.943],[1.337,-12.533],[1.607,-12.122],[1.877,-11.711],[2.146,-11.3],[2.413,-10.889],[2.681,-10.477],[2.947,-10.065],[3.213,-9.653],[3.478,-9.241],[3.743,-8.829],[4.006,-8.416],[4.27,-8.003],[4.533,-7.59],[4.795,-7.177],[5.057,-6.764],[5.318,-6.35],[5.579,-5.937],[5.84,-5.523],[6.1,-5.109],[6.36,-4.696],[6.619,-4.282],[6.879,-3.868],[7.138,-3.453],[7.397,-3.039],[7.655,-2.625],[7.914,-2.211],[8.172,-1.796],[8.43,-1.382],[8.825,-1.581],[9.219,-1.781],[9.613,-1.98],[10.008,-2.18],[10.403,-2.379],[10.797,-2.578],[11.192,-2.777],[11.587,-2.976],[11.853,-2.568],[12.119,-2.161],[12.384,-1.753],[12.649,-1.346],[12.914,-0.939],[13.179,-0.531],[13.444,-0.123],[13.71,0.284],[13.975,0.692],[14.24,1.099],[14.505,1.507],[14.77,1.914],[15.036,2.321],[15.301,2.729],[15.567,3.136],[15.833,3.543],[16.099,3.95],[16.365,4.358],[16.632,4.764],[16.899,5.171],[17.167,5.578],[17.434,5.985],[17.703,6.391],[17.971,6.798],[18.24,7.204],[18.51,7.61],[18.78,8.016],[19.05,8.422]]}},{"type":"Feature","properties":{"boundary_type":"transform","feature_type":"gpml:Transform","polarity":null,"overriding_plate_id":null,"subducting_plate_id":null,"plate_ids":[701,715],"name":""},"geometry":{"type":"LineString","coordinates":[[19.05,8.422],[18.614,8.67],[18.178,8.918],[17.741,9.166],[17.304,9.413],[16.865,9.66],[16.427,9.906],[15.987,10.151],[15.547,10.396],[15.106,10.64],[14.665,10.884],[14.222,11.127],[13.779,11.369],[13.336,11.611],[12.891,11.852],[12.446,12.092],[12.0,12.332],[11.553,12.571],[11.105,12.809],[10.656,13.046],[10.207,13.283],[9.757,13.518],[9.305,13.754],[8.853,13.988],[8.4,14.221],[7.946,14.454],[7.491,14.685],[7.035,14.916],[6.579,15.146],[6.121,15.375],[5.662,15.603],[5.202,15.83],[4.741,16.056],[4.279,16.281],[3.816,16.505],[3.352,16.728],[2.887,16.95],[2.42,17.171],[1.953,17.391],[1.484,17.609],[1.015,17.827],[0.605,18.026],[0.195,18.225],[-0.217,18.423],[-0.63,18.62],[-1.043,18.815]]}},{"type":"Feature","properties":{"boundary_type":"ridge","feature_type":"gpml:MidOceanRidge","polarity":null,"overriding_plate_id":null,"subducting_plate_id":null,"plate_ids":[501,90109],"name":""},"geometry":{"type":"LineString","coordinates":[[154.978,-70.334],[156.418,-70.265],[157.847,-70.184],[159.264,-70.092],[160.668,-69.989],[162.058,-69.876],[163.431,-69.751],[164.788,-69.616],[166.128,-69.47],[167.448,-69.314],[168.749,-69.148],[170.03,-68.973],[171.29,-68.788],[172.529,-68.594],[173.746,-68.391],[174.941,-68.18],[176.114,-67.96],[177.265,-67.731],[178.393,-67.495],[179.498,-67.251],[-179.419,-67.0],[-178.359,-66.741],[-177.321,-66.476],[-176.306,-66.204],[-175.312,-65.925],[-174.339,-65.64],[-173.389,-65.349],[-172.459,-65.052],[-171.55,-64.749],[-170.661,-64.441],[-169.792,-64.128],[-168.942,-63.809],[-168.112,-63.486],[-167.301,-63.158],[-166.507,-62.826],[-165.732,-62.489],[-164.974,-62.148],[-164.233,-61.803],[-163.508,-61.454],[-162.8,-61.101],[-163.551,-60.792],[-164.288,-60.478],[-165.01,-60.16],[-165.718,-59.838],[-166.413,-59.513],[-167.095,-59.184],[-167.763,-58.852],[-168.419,-58.516],[-169.062,-58.177],[-169.693,-57.835],[-170.312,-57.489],[-170.919,-57.141],[-171.515,-56.79],[-172.1,-56.436],[-172.674,-56.079],[-173.237,-55.72],[-173.791,-55.358],[-174.334,-54.994],[-174.867,-54.627],[-174.278,-54.298],[-173.698,-53.966],[-173.128,-53.632],[-172.567,-53.294],[-172.014,-52.954],[-171.47,-52.612],[-170.935,-52.267],[-170.408,-51.92],[-169.889,-51.571],[-169.378,-51.219],[-168.874,-50.865],[-168.379,-50.509],[-167.89,-50.151],[-167.409,-49.79],[-166.935,-49.428],[-166.469,-49.064]]}},{"type":"Feature","properties":{"boundary_type":"ridge","feature_type":"gpml:MidOceanRidge","polarity":null,"overriding_plate_id":null,"subducting_plate_id":null,"plate_ids":[101,6024],"name":"MOR"},"geometry":{"type":"LineString","coordinates":[[-144.432,2.282],[-143.978,2.493],[-143.525,2.703],[-143.071,2.913],[-142.617,3.123],[-142.163,3.333],[-141.709,3.542],[-141.255,3.751],[-140.8,3.961],[-140.345,4.169],[-139.89,4.378],[-139.435,4.586],[-138.979,4.794],[-138.524,5.002],[-138.067,5.209],[-137.611,5.416],[-137.154,5.623],[-136.697,5.829],[-136.24,6.035],[-135.782,6.241],[-135.324,6.446],[-134.865,6.651],[-134.406,6.855],[-133.947,7.059],[-133.487,7.262],[-133.027,7.465],[-132.567,7.668],[-132.106,7.87],[-131.644,8.072],[-131.182,8.273],[-130.72,8.473],[-130.257,8.673],[-129.794,8.872],[-129.33,9.071],[-128.866,9.27],[-128.401,9.467],[-127.936,9.664],[-127.47,9.861],[-127.003,10.056],[-126.536,10.251],[-126.068,10.446],[-125.6,10.64],[-125.131,10.833],[-124.662,11.025],[-124.645,11.521],[-124.627,12.017],[-124.61,12.514],[-124.593,13.01],[-124.575,13.506],[-124.557,14.002],[-124.54,14.499],[-124.522,14.995],[-124.504,15.491],[-124.486,15.987],[-124.468,16.484],[-124.45,16.98],[-124.432,17.476],[-124.414,17.972],[-124.395,18.468],[-124.377,18.965],[-124.358,19.461],[-124.34,19.957],[-124.321,20.453],[-124.302,20.95],[-124.283,21.446],[-124.264,21.942],[-124.244,22.438],[-124.225,22.934],[-124.205,23.431],[-124.185,23.927],[-124.165,24.423],[-124.145,24.919],[-124.125,25.415],[-124.105,25.912],[-124.084,26.408],[-124.063,26.904],[-124.042,27.4],[-124.021,27.896],[-124.0,28.392],[-123.978,28.889],[-123.957,29.385],[-124.487,29.426],[-125.019,29.464],[-125.55,29.501],[-126.082,29.535],[-126.615,29.568],[-127.147,29.598],[-127.68,29.626],[-128.213,29.652],[-128.747,29.676],[-129.281,29.697],[-129.337,30.188],[-129.394,30.678],[-129.452,31.168],[-129.51,31.659],[-129.569,32.149],[-129.629,32.639],[-129.689,33.129],[-129.75,33.62],[-129.812,34.11],[-129.874,34.6],[-129.937,35.09],[-130.001,35.58],[-130.066,36.07],[-130.131,36.56],[-130.197,37.05],[-130.265,37.54],[-130.333,38.03],[-130.402,38.52],[-130.471,39.01],[-130.542,39.499],[-130.614,39.989],[-130.687,40.479],[-130.761,40.968],[-130.836,41.458],[-130.912,41.947],[-130.99,42.437],[-130.32,42.47],[-129.649,42.5],[-128.977,42.526],[-128.305,42.548],[-127.633,42.566],[-126.96,42.58],[-126.287,42.59],[-125.614,42.596],[-124.94,42.598],[-124.267,42.596],[-123.594,42.591],[-122.921,42.581],[-122.248,42.567],[-122.223,43.049],[-122.197,43.53],[-122.171,44.011],[-122.145,44.492],[-122.118,44.973],[-122.091,45.454],[-122.063,45.935],[-122.035,46.417],[-122.007,46.898],[-121.978,47.379],[-121.948,47.86],[-121.918,48.341],[-121.887,48.822]]}},{"type":"Feature","properties":{"boundary_type":"ridge","feature_type":"gpml:MidOceanRidge","polarity":null,"overriding_plate_id":null,"subducting_plate_id":null,"plate_ids":[602],"name":""},"geometry":{"type":"LineString","coordinates":[[-76.58,47.802],[-76.225,47.702],[-75.872,47.601],[-75.773,47.571]]}},{"type":"Feature","properties":{"boundary_type":"ridge","feature_type":"gpml:MidOceanRidge","polarity":null,"overriding_plate_id":null,"subducting_plate_id":null,"plate_ids":[602,701],"name":""},"geometry":{"type":"LineString","coordinates":[[-75.773,47.571],[-75.104,47.36],[-74.439,47.146],[-73.781,46.928],[-73.127,46.707],[-72.48,46.481],[-71.837,46.252],[-71.2,46.02],[-70.568,45.784],[-69.942,45.544],[-69.321,45.302],[-68.705,45.055],[-68.095,44.806],[-67.489,44.553],[-66.89,44.297],[-66.295,44.038],[-65.706,43.776],[-65.121,43.511],[-64.542,43.243],[-63.968,42.972],[-63.399,42.699],[-62.835,42.422],[-62.277,42.143],[-61.723,41.861],[-61.173,41.576],[-60.629,41.289],[-60.09,40.999],[-59.555,40.707],[-59.025,40.412],[-58.499,40.115],[-57.979,39.816],[-57.462,39.514],[-56.951,39.21],[-56.443,38.904],[-55.94,38.596],[-55.441,38.285],[-54.947,37.972],[-54.457,37.658],[-53.971,37.341],[-53.489,37.022],[-53.011,36.702],[-52.537,36.379],[-52.067,36.055],[-51.601,35.729],[-51.898,35.317],[-52.192,34.905],[-52.484,34.492],[-52.772,34.079],[-53.058,33.665],[-53.341,33.25],[-53.621,32.834],[-53.899,32.418],[-54.174,32.001],[-54.446,31.584],[-54.037,31.228],[-53.63,30.87],[-53.227,30.511],[-52.826,30.15],[-52.428,29.789],[-52.034,29.426],[-51.642,29.062],[-51.252,28.697],[-50.866,28.331],[-50.482,27.963],[-50.101,27.595],[-49.722,27.226],[-49.346,26.856],[-48.972,26.484],[-48.601,26.112],[-48.232,25.739],[-47.865,25.365],[-47.501,24.989],[-47.139,24.613],[-46.779,24.237],[-46.421,23.859],[-46.065,23.481],[-45.711,23.101],[-45.359,22.721],[-45.01,22.34],[-44.662,21.959],[-44.316,21.577],[-43.971,21.194],[-43.629,20.81],[-43.288,20.425],[-42.949,20.04],[-42.612,19.655],[-42.276,19.268],[-42.63,18.954],[-42.982,18.638],[-43.333,18.322],[-43.683,18.005],[-44.031,17.687],[-44.378,17.369],[-44.724,17.051],[-45.069,16.731],[-45.413,16.411],[-45.755,16.091],[-46.096,15.77],[-45.778,15.39],[-45.461,15.01],[-45.145,14.63],[-44.83,14.249],[-44.516,13.867],[-44.203,13.486],[-43.892,13.103],[-43.581,12.721],[-43.271,12.338],[-42.962,11.955],[-42.654,11.571],[-42.346,11.187],[-42.04,10.803],[-41.734,10.418],[-41.429,10.034],[-41.125,9.648],[-40.822,9.263],[-40.519,8.877],[-40.216,8.492],[-39.915,8.105],[-39.614,7.719],[-39.952,7.386],[-40.29,7.054],[-40.627,6.72],[-40.964,6.387],[-41.301,6.053],[-41.637,5.72],[-41.973,5.385],[-42.308,5.051],[-42.643,4.717],[-42.978,4.382],[-43.312,4.048],[-43.646,3.713],[-43.98,3.378],[-44.313,3.043],[-44.647,2.708],[-44.98,2.372],[-45.313,2.037],[-45.15,1.595],[-44.987,1.152],[-44.824,0.71],[-44.661,0.268],[-44.498,-0.175],[-44.335,-0.617],[-44.172,-1.06],[-44.009,-1.502],[-43.846,-1.944],[-43.683,-2.387]]}},{"type":"Feature","properties":{"boundary_type":"ridge","feature_type":"gpml:MidOceanRidge","polarity":null,"overriding_plate_id":null,"subducting_plate_id":null,"plate_ids":[701],"name":""},"geometry":{"type":"LineString","coordinates":[[-43.683,-2.387],[-43.565,-2.705]]}},{"type":"Feature","properties":{"boundary_type":"subduction","feature_type":"gpml:SubductionZone","polarity":"Left","overriding_plate_id":715,"subducting_plate_id":701,"plate_ids":[701,715],"name":""},"geometry":{"type":"LineString","coordinates":[[-1.043,18.815],[-1.383,18.438],[-1.721,18.059],[-2.058,17.68],[-2.393,17.301],[-2.727,16.921],[-3.06,16.54],[-3.391,16.159],[-3.721,15.778],[-4.05,15.396],[-4.378,15.013],[-4.704,14.63],[-5.03,14.246],[-5.354,13.862],[-5.677,13.478],[-5.999,13.093],[-6.191,12.635],[-6.383,12.176],[-6.573,11.717],[-6.764,11.258],[-6.953,10.799],[-7.142,10.34],[-7.331,9.881],[-7.519,9.421],[-7.706,8.962],[-7.893,8.502],[-8.079,8.042],[-8.265,7.583],[-8.451,7.123],[-8.636,6.663],[-8.821,6.203],[-9.006,5.743],[-9.19,5.283],[-9.374,4.822],[-9.558,4.362],[-9.742,3.902],[-9.925,3.442],[-10.108,2.981],[-10.291,2.521],[-10.474,2.06],[-10.657,1.6],[-10.84,1.14],[-11.023,0.679],[-11.079,0.297],[-11.136,-0.085]]}},{"type":"Feature","properties":{"boundary_type":"subduction","feature_type":"gpml:SubductionZone","polarity":"Left","overriding_plate_id":715,"subducting_plate_id":501,"plate_ids":[501,715],"name":""},"geometry":{"type":"LineString","coordinates":[[-11.136,-0.085],[-11.206,-0.56],[-11.276,-1.034],[-11.346,-1.508],[-11.417,-1.982],[-11.487,-2.456],[-11.557,-2.93],[-11.628,-3.404],[-11.698,-3.878],[-11.769,-4.352],[-11.839,-4.827],[-11.91,-5.301],[-11.981,-5.775],[-12.052,-6.249],[-12.123,-6.723],[-12.194,-7.197],[-12.265,-7.671],[-12.337,-8.145],[-12.409,-8.619],[-12.48,-9.093]]}},{"type":"Feature","properties":{"boundary_type":"ridge","feature_type":"gpml:MidOceanRidge","polarity":null,"overriding_plate_id":null,"subducting_plate_id":null,"plate_ids":[701],"name":""},"geometry":{"type":"LineString","coordinates":[[-16.2,74.855],[-16.925,74.636],[-17.631,74.415]]}},{"type":"Feature","properties":{"boundary_type":"ridge","feature_type":"gpml:MidOceanRidge","polarity":null,"overriding_plate_id":null,"subducting_plate_id":null,"plate_ids":[701,6024],"name":""},"geometry":{"type":"LineString","coordinates":[[-17.631,74.415],[-18.796,74.031],[-19.908,73.642],[-20.969,73.246],[-21.982,72.846],[-22.95,72.44],[-23.876,72.03],[-24.761,71.616],[-25.608,71.198],[-26.42,70.777],[-27.198,70.351],[-27.944,69.923],[-28.66,69.492],[-29.348,69.058],[-30.009,68.621],[-30.645,68.182],[-31.257,67.74],[-31.846,67.296],[-32.414,66.85],[-32.961,66.402],[-33.489,65.953],[-33.999,65.501],[-34.491,65.048],[-34.967,64.593],[-35.427,64.137],[-35.873,63.68],[-36.304,63.221],[-36.721,62.761],[-37.126,62.299],[-37.519,61.837],[-37.9,61.373],[-38.269,60.909],[-38.629,60.443],[-38.978,59.976],[-39.317,59.509],[-39.647,59.041],[-39.968,58.572],[-40.28,58.102],[-40.585,57.631],[-40.882,57.16],[-41.171,56.688],[-42.044,56.806],[-42.922,56.919],[-43.805,57.025],[-44.693,57.125],[-45.586,57.219],[-46.484,57.306],[-47.385,57.387],[-48.29,57.462],[-49.199,57.53],[-50.111,57.591],[-51.026,57.646],[-51.944,57.694],[-52.863,57.736],[-53.785,57.771],[-54.709,57.799],[-55.633,57.82],[-56.559,57.835],[-57.485,57.843],[-58.411,57.844],[-59.338,57.839],[-60.263,57.827],[-61.189,57.808],[-61.09,57.343],[-60.994,56.879],[-60.9,56.414],[-60.809,55.95],[-60.719,55.485],[-60.632,55.021],[-60.547,54.556],[-60.464,54.091],[-60.382,53.626],[-61.206,53.59],[-62.028,53.548],[-62.848,53.5],[-63.667,53.447],[-64.483,53.388],[-65.297,53.323],[-66.108,53.253],[-66.917,53.178],[-67.723,53.097],[-68.525,53.011],[-69.324,52.919],[-70.12,52.822],[-70.912,52.72],[-71.701,52.612],[-72.485,52.499],[-73.265,52.381],[-74.041,52.258],[-74.813,52.13],[-75.58,51.997],[-76.343,51.859],[-77.1,51.716],[-77.853,51.568],[-78.601,51.415],[-78.285,51.018],[-77.974,50.62],[-77.668,50.22],[-77.367,49.82],[-77.071,49.42],[-76.781,49.018],[-76.494,48.616],[-76.212,48.213]]}},{"type":"Feature","properties":{"boundary_type":"ridge","feature_type":"gpml:MidOceanRidge","polarity":null,"overriding_plate_id":null,"subducting_plate_id":null,"plate_ids":[701],"name":""},"geometry":{"type":"LineString","coordinates":[[-76.212,48.213],[-75.991,47.892],[-75.773,47.571]]}},{"type":"Feature","properties":{"boundary_type":"ridge","feature_type":"gpml:MidOceanRidge","polarity":null,"overriding_plate_id":null,"subducting_plate_id":null,"plate_ids":[101,302],"name":"MOR-Greenland-Baltica"},"geometry":{"type":"LineString","coordinates":[[164.412,-18.412],[164.925,-18.322],[165.438,-18.231],[165.951,-18.139],[166.462,-18.045],[166.974,-17.95],[167.484,-17.853],[167.994,-17.755],[168.504,-17.656],[169.013,-17.556],[169.522,-17.454],[170.029,-17.351],[170.537,-17.247],[171.043,-17.141],[171.55,-17.034],[172.055,-16.926],[172.56,-16.817],[173.065,-16.707],[173.568,-16.595],[174.072,-16.482],[174.574,-16.368],[175.076,-16.252],[175.578,-16.136],[176.079,-16.018],[176.579,-15.899],[177.079,-15.779],[177.578,-15.658],[178.076,-15.536],[178.574,-15.412],[179.071,-15.288],[179.568,-15.162],[-179.936,-15.035],[-179.44,-14.908],[-178.945,-14.779],[-178.451,-14.649],[-177.957,-14.518],[-177.464,-14.386],[-176.971,-14.253],[-176.479,-14.119],[-175.988,-13.984],[-175.497,-13.848],[-175.527,-13.4],[-175.557,-12.952],[-175.587,-12.504],[-175.617,-12.056],[-175.647,-11.608],[-175.677,-11.16],[-175.706,-10.711],[-175.736,-10.263],[-175.236,-10.247],[-174.737,-10.229],[-174.237,-10.211],[-173.737,-10.193],[-173.238,-10.173],[-172.738,-10.153],[-172.239,-10.131],[-171.739,-10.11],[-171.24,-10.087],[-170.741,-10.064],[-170.242,-10.039],[-169.743,-10.015],[-169.244,-9.989],[-168.745,-9.963],[-168.246,-9.935],[-167.747,-9.908],[-167.249,-9.879],[-166.75,-9.85],[-166.252,-9.82],[-165.753,-9.789],[-165.255,-9.757],[-164.757,-9.725],[-164.259,-9.692],[-163.761,-9.659],[-163.263,-9.624],[-162.765,-9.589],[-162.267,-9.553],[-161.77,-9.517],[-161.272,-9.48],[-160.775,-9.442],[-160.278,-9.403],[-159.78,-9.364],[-159.283,-9.324],[-158.787,-9.283],[-158.29,-9.242],[-157.793,-9.2],[-157.296,-9.157],[-156.8,-9.114],[-156.304,-9.069],[-155.808,-9.025],[-155.311,-8.979],[-154.816,-8.933],[-154.32,-8.887]]}},{"type":"Feature","properties":{"boundary_type":"ridge","feature_type":"gpml:MidOceanRidge","polarity":null,"overriding_plate_id":null,"subducting_plate_id":null,"plate_ids":[101,6024],"name":""},"geometry":{"type":"LineString","coordinates":[[-144.432,2.282],[-144.759,1.934],[-145.086,1.585],[-145.414,1.237],[-145.741,0.888],[-146.068,0.54],[-146.395,0.191],[-146.709,-0.173],[-147.024,-0.537],[-147.338,-0.901],[-147.653,-1.265],[-147.968,-1.63],[-148.283,-1.994],[-148.598,-2.358],[-148.913,-2.722],[-149.228,-3.085],[-149.543,-3.449],[-149.859,-3.813],[-150.175,-4.176],[-150.492,-4.54],[-150.808,-4.903],[-151.125,-5.266],[-151.443,-5.629],[-151.76,-5.992],[-152.078,-6.354],[-152.397,-6.717],[-152.716,-7.079],[-153.036,-7.441],[-153.356,-7.803],[-153.677,-8.164],[-153.998,-8.526],[-154.32,-8.887]]}},{"type":"Feature","properties":{"boundary_type":"ridge","feature_type":"gpml:MidOceanRidge","polarity":null,"overriding_plate_id":null,"subducting_plate_id":null,"plate_ids":[302,6024],"name":""},"geometry":{"type":"LineString","coordinates":[[-154.32,-8.887],[-154.633,-9.237],[-154.948,-9.588],[-155.263,-9.938],[-155.578,-10.288],[-155.894,-10.638],[-156.211,-10.987],[-156.529,-11.336],[-156.848,-11.685],[-157.167,-12.033],[-157.487,-12.381],[-157.808,-12.729],[-157.51,-13.121],[-157.211,-13.513],[-156.91,-13.904],[-156.609,-14.295],[-156.307,-14.686],[-156.003,-15.076],[-155.699,-15.466],[-155.393,-15.855],[-155.086,-16.244],[-154.778,-16.633],[-154.469,-17.021],[-154.158,-17.408],[-153.846,-17.796],[-153.533,-18.182],[-153.218,-18.568],[-152.902,-18.954],[-152.585,-19.339],[-152.265,-19.724],[-151.945,-20.108],[-151.623,-20.491],[-151.299,-20.874],[-150.973,-21.256],[-150.646,-21.637],[-150.317,-22.018],[-149.987,-22.399],[-149.654,-22.778],[-149.32,-23.157],[-148.984,-23.535],[-148.646,-23.913],[-148.305,-24.289],[-147.963,-24.665],[-147.619,-25.04],[-147.273,-25.415],[-146.924,-25.788],[-147.36,-26.095],[-147.798,-26.401],[-148.239,-26.706],[-148.682,-27.009],[-149.127,-27.31],[-149.575,-27.61],[-150.025,-27.909],[-150.478,-28.207],[-150.933,-28.502],[-151.391,-28.797],[-151.851,-29.089],[-152.314,-29.381],[-152.78,-29.67],[-153.248,-29.958],[-153.719,-30.244],[-154.193,-30.529],[-154.669,-30.812],[-155.149,-31.093],[-155.631,-31.372],[-156.116,-31.649],[-156.604,-31.925],[-157.095,-32.199],[-157.589,-32.471],[-158.085,-32.741],[-158.585,-33.009],[-159.088,-33.274],[-159.594,-33.538],[-160.103,-33.8],[-160.615,-34.06],[-161.13,-34.317],[-161.649,-34.573],[-162.17,-34.826],[-162.695,-35.077],[-163.223,-35.326],[-162.948,-35.765],[-162.67,-36.203],[-162.389,-36.641],[-162.105,-37.078],[-161.818,-37.515],[-161.527,-37.95],[-161.232,-38.385],[-160.935,-38.82],[-160.633,-39.253],[-160.328,-39.686],[-160.019,-40.118],[-159.706,-40.549],[-159.388,-40.979],[-159.067,-41.408]]}},{"type":"Feature","properties":{"boundary_type":"ridge","feature_type":"gpml:MidOceanRidge","polarity":null,"overriding_plate_id":null,"subducting_plate_id":null,"plate_ids":[201,501],"name":""},"geometry":{"type":"LineString","coordinates":[[155.354,-70.032],[154.485,-69.636],[153.649,-69.237],[152.842,-68.833],[152.065,-68.426],[151.315,-68.015],[150.592,-67.601],[149.893,-67.184],[149.219,-66.764],[148.567,-66.342],[147.936,-65.916],[146.85,-66.144],[145.743,-66.363],[144.618,-66.575],[143.474,-66.778],[142.311,-66.973],[141.13,-67.16],[139.93,-67.337],[138.714,-67.506],[137.48,-67.665],[136.23,-67.814],[134.964,-67.955],[133.684,-68.085],[132.39,-68.205],[131.082,-68.315],[129.762,-68.415],[128.432,-68.504],[127.091,-68.583],[125.742,-68.65],[124.385,-68.708],[123.022,-68.754],[121.654,-68.789],[120.282,-68.813],[118.908,-68.826],[117.533,-68.828],[116.159,-68.818],[114.786,-68.798],[113.417,-68.767],[112.052,-68.724],[110.693,-68.671],[109.341,-68.607],[107.997,-68.532],[106.663,-68.446],[105.339,-68.35],[104.028,-68.243],[102.729,-68.126],[101.444,-67.999],[100.173,-67.863],[98.918,-67.716],[97.679,-67.56],[96.456,-67.395],[95.251,-67.22],[94.063,-67.037],[92.894,-66.845],[91.744,-66.644],[90.612,-66.435],[89.499,-66.218],[88.406,-65.993],[87.332,-65.761],[86.278,-65.521],[85.243,-65.274],[84.227,-65.02],[83.231,-64.76],[84.11,-64.436],[84.969,-64.108],[85.807,-63.774],[86.626,-63.436],[87.425,-63.093],[88.205,-62.746],[88.968,-62.395],[89.712,-62.039],[88.962,-61.699],[88.228,-61.355],[87.51,-61.008],[86.808,-60.656],[86.121,-60.301],[85.448,-59.942],[84.791,-59.58],[84.147,-59.215],[83.517,-58.847],[82.9,-58.476],[82.296,-58.101],[81.705,-57.724],[81.126,-57.345],[80.559,-56.962],[80.004,-56.578],[79.46,-56.19],[78.926,-55.801],[78.403,-55.409],[77.891,-55.015],[77.389,-54.619],[76.896,-54.221],[77.467,-53.863],[78.029,-53.503],[78.581,-53.141],[79.123,-52.776],[79.657,-52.408],[80.182,-52.038],[80.698,-51.666],[81.206,-51.291],[81.705,-50.915],[82.197,-50.536],[82.681,-50.155],[83.157,-49.772],[83.625,-49.388],[84.086,-49.001],[84.54,-48.613],[84.987,-48.223],[85.428,-47.831],[85.862,-47.438],[85.316,-47.184],[84.775,-46.928],[84.24,-46.669],[83.709,-46.408],[83.184,-46.144],[82.664,-45.878],[82.149,-45.61]]}},{"type":"Feature","properties":{"boundary_type":"ridge","feature_type":"gpml:MidOceanRidge","polarity":null,"overriding_plate_id":null,"subducting_plate_id":null,"plate_ids":[302,501],"name":""},"geometry":{"type":"LineString","coordinates":[[-159.12,-41.53],[-159.684,-41.777],[-160.252,-42.021],[-160.825,-42.263],[-161.402,-42.502],[-161.984,-42.738],[-162.57,-42.971],[-163.16,-43.201],[-163.755,-43.427],[-164.354,-43.651],[-164.958,-43.872],[-165.566,-44.089],[-166.179,-44.303],[-166.796,-44.514],[-167.417,-44.722],[-168.043,-44.926],[-168.674,-45.126],[-168.454,-45.549],[-168.23,-45.97],[-168.003,-46.391],[-167.772,-46.812],[-167.538,-47.233],[-167.3,-47.652],[-167.058,-48.072],[-166.812,-48.491]]}},{"type":"Feature","properties":{"boundary_type":"ridge","feature_type":"gpml:MidOceanRidge","polarity":null,"overriding_plate_id":null,"subducting_plate_id":null,"plate_ids":[501,90109],"name":""},"geometry":{"type":"LineString","coordinates":[[-166.812,-48.491],[-166.641,-48.778],[-166.469,-49.064]]}},{"type":"Feature","properties":{"boundary_type":"ridge","feature_type":"gpml:MidOceanRidge","polarity":null,"overriding_plate_id":null,"subducting_plate_id":null,"plate_ids":[302,501],"name":""},"geometry":{"type":"LineString","coordinates":[[-159.12,-41.53],[-159.067,-41.408]]}},{"type":"Feature","properties":{"boundary_type":"ridge","feature_type":"gpml:MidOceanRidge","polarity":null,"overriding_plate_id":null,"subducting_plate_id":null,"plate_ids":[501,6024],"name":""},"geometry":{"type":"LineString","coordinates":[[-159.067,-41.408],[-158.875,-40.961],[-158.686,-40.514],[-158.499,-40.066],[-158.314,-39.618],[-158.132,-39.17],[-157.952,-38.722],[-157.775,-38.273],[-157.599,-37.824],[-157.426,-37.375],[-157.255,-36.925],[-157.086,-36.475],[-156.919,-36.025],[-156.753,-35.575],[-156.59,-35.124],[-156.428,-34.674],[-155.932,-34.857],[-155.433,-35.037],[-154.933,-35.216],[-154.43,-35.392],[-153.925,-35.567],[-153.417,-35.739],[-152.908,-35.91],[-152.396,-36.078],[-151.883,-36.244],[-151.552,-35.894],[-151.225,-35.543],[-150.9,-35.191],[-150.578,-34.839],[-150.259,-34.485],[-149.943,-34.131],[-149.405,-34.227],[-148.867,-34.322],[-148.327,-34.413],[-147.786,-34.503],[-147.244,-34.59],[-146.7,-34.674],[-146.156,-34.756],[-145.61,-34.836],[-145.064,-34.914],[-144.516,-34.988],[-143.968,-35.061],[-143.504,-34.747],[-143.043,-34.431],[-142.586,-34.113],[-142.133,-33.794],[-141.682,-33.473],[-141.235,-33.151],[-140.792,-32.826],[-140.351,-32.501],[-139.914,-32.174],[-139.48,-31.845],[-139.049,-31.515],[-138.621,-31.183],[-138.196,-30.85],[-137.774,-30.516],[-137.355,-30.18],[-136.938,-29.843],[-136.825,-29.359],[-136.713,-28.875],[-136.601,-28.39],[-136.491,-27.906],[-136.382,-27.421],[-136.273,-26.937],[-136.166,-26.452],[-136.059,-25.967],[-135.954,-25.482],[-135.849,-24.997]]}},{"type":"Feature","properties":{"boundary_type":"subduction","feature_type":"gpml:SubductionZone","polarity":"Left","overriding_plate_id":null,"subducting_plate_id":null,"plate_ids":[101],"name":"inferred SZ"},"geometry":{"type":"LineString","coordinates":[[160.13,-20.517],[160.167,-20.567]]}},{"type":"Feature","properties":{"boundary_type":"subduction","feature_type":"gpml:SubductionZone","polarity":"Left","overriding_plate_id":302,"subducting_plate_id":30204,"plate_ids":[302,30204],"name":"inferred SZ"},"geometry":{"type":"LineString","coordinates":[[160.167,-20.567],[160.382,-20.855],[160.659,-21.265],[160.937,-21.674],[161.216,-22.083],[161.498,-22.492],[161.781,-22.9],[162.065,-23.308],[162.352,-23.715],[162.693,-24.061],[163.037,-24.406],[163.382,-24.75],[163.729,-25.093],[164.078,-25.436],[164.43,-25.778],[164.756,-26.127],[165.085,-26.475],[165.416,-26.822],[165.748,-27.169],[165.912,-27.603],[166.078,-28.037],[166.244,-28.471],[166.412,-28.904],[166.582,-29.337],[166.603,-29.783],[166.624,-30.228],[166.646,-30.674],[166.668,-31.119],[166.69,-31.565],[166.712,-32.01],[166.878,-32.49],[167.045,-32.969],[167.215,-33.449],[167.386,-33.928],[167.559,-34.406],[167.734,-34.885],[168.031,-35.314],[168.33,-35.742],[168.633,-36.17],[168.94,-36.597],[169.249,-37.023],[169.562,-37.448],[169.879,-37.872],[169.904,-37.894]]}},{"type":"Feature","properties":{"boundary_type":"subduction","feature_type":"gpml:SubductionZone","polarity":"Left","overriding_plate_id":302,"subducting_plate_id":90109,"plate_ids":[302,90109],"name":"inferred SZ"},"geometry":{"type":"LineString","coordinates":[[169.904,-37.894],[170.32,-38.246],[170.741,-38.596],[171.166,-38.945],[171.594,-39.293],[172.027,-39.638],[172.465,-39.983],[172.907,-40.325],[173.353,-40.666],[173.804,-41.005],[174.26,-41.343],[174.72,-41.678],[175.185,-42.012],[175.655,-42.344],[176.09,-42.679],[176.529,-43.013],[176.973,-43.346],[177.422,-43.676],[177.876,-44.005],[178.335,-44.332],[178.799,-44.657],[179.268,-44.98],[179.743,-45.301],[-179.777,-45.62],[-179.292,-45.937],[-178.745,-46.196],[-178.194,-46.453],[-177.638,-46.706],[-177.076,-46.958],[-176.509,-47.206],[-175.937,-47.451],[-175.359,-47.694],[-174.776,-47.933],[-174.188,-48.17],[-173.594,-48.404],[-172.994,-48.634],[-172.306,-48.635],[-171.618,-48.631],[-170.93,-48.623],[-170.243,-48.611],[-169.555,-48.595],[-168.869,-48.575],[-168.182,-48.551],[-167.497,-48.523],[-166.812,-48.491]]}},{"type":"Feature","properties":{"boundary_type":"subduction","feature_type":"gpml:SubductionZone","polarity":"Left","overriding_plate_id":6024,"subducting_plate_id":501,"plate_ids":[501,6024],"name":""},"geometry":{"type":"LineString","coordinates":[[-135.849,-24.997],[-135.386,-24.756],[-134.924,-24.512],[-134.465,-24.268],[-134.007,-24.022],[-133.551,-23.775],[-133.097,-23.526],[-132.644,-23.276],[-132.193,-23.025],[-131.744,-22.773],[-131.296,-22.519],[-130.85,-22.264],[-130.406,-22.008],[-129.963,-21.751],[-129.522,-21.492],[-129.083,-21.233],[-128.645,-20.972],[-128.208,-20.71],[-127.773,-20.447],[-127.34,-20.183],[-126.908,-19.918],[-126.477,-19.652],[-126.048,-19.384],[-125.631,-19.079],[-125.216,-18.772],[-124.802,-18.465],[-124.39,-18.157],[-123.978,-17.848],[-123.569,-17.538],[-123.161,-17.227],[-122.754,-16.915],[-122.348,-16.603],[-121.944,-16.29],[-121.541,-15.976],[-121.14,-15.661],[-120.74,-15.346],[-120.34,-15.03],[-119.942,-14.713],[-119.546,-14.395],[-119.15,-14.077],[-118.755,-13.758],[-118.362,-13.439],[-117.969,-13.119],[-117.578,-12.798],[-117.187,-12.477],[-116.798,-12.155],[-116.409,-11.833],[-116.022,-11.51],[-115.635,-11.186],[-115.249,-10.863],[-114.864,-10.538],[-114.48,-10.213],[-114.097,-9.888],[-113.714,-9.562],[-113.332,-9.236],[-112.951,-8.91],[-112.57,-8.583],[-112.19,-8.256],[-111.811,-7.928],[-111.432,-7.6],[-111.054,-7.272],[-110.677,-6.943],[-110.3,-6.614],[-109.923,-6.285],[-109.547,-5.956],[-109.172,-5.626],[-108.797,-5.296],[-108.422,-4.966],[-108.047,-4.635],[-107.673,-4.305],[-107.3,-3.974],[-106.926,-3.643],[-106.553,-3.312],[-106.411,-3.07],[-106.269,-2.828]]}},{"type":"Feature","properties":{"boundary_type":"subduction","feature_type":"gpml:SubductionZone","polarity":"Left","overriding_plate_id":6024,"subducting_plate_id":602,"plate_ids":[602,6024],"name":""},"geometry":{"type":"LineString","coordinates":[[-106.269,-2.828],[-106.017,-2.398],[-105.765,-1.969],[-105.513,-1.539],[-105.261,-1.109],[-105.009,-0.679],[-104.758,-0.249],[-104.506,0.181],[-104.254,0.611],[-104.002,1.041],[-103.751,1.471],[-103.499,1.901],[-103.247,2.331],[-102.994,2.761],[-102.742,3.191],[-102.489,3.621],[-102.237,4.05],[-101.983,4.48],[-101.73,4.91],[-101.476,5.339],[-101.222,5.768],[-100.968,6.198],[-100.713,6.627],[-100.458,7.056],[-100.202,7.485],[-99.945,7.913],[-99.689,8.342],[-99.431,8.77],[-99.173,9.198],[-98.915,9.626],[-98.655,10.054],[-98.395,10.482],[-98.135,10.909],[-97.873,11.336],[-97.611,11.763],[-97.348,12.19],[-97.084,12.616],[-96.819,13.042],[-96.554,13.468],[-96.287,13.894],[-96.019,14.319],[-95.751,14.744],[-95.481,15.169],[-95.21,15.594],[-94.939,16.018],[-94.665,16.441],[-94.391,16.865],[-94.116,17.288],[-93.839,17.71],[-93.561,18.133],[-93.282,18.555],[-93.092,19.017],[-92.901,19.479],[-92.709,19.942],[-92.516,20.404],[-92.321,20.865],[-92.126,21.327],[-91.929,21.788],[-91.731,22.249],[-91.532,22.71],[-91.331,23.171],[-91.129,23.631],[-90.926,24.091],[-90.721,24.551],[-90.514,25.011],[-90.306,25.47],[-90.097,25.929],[-89.886,26.387],[-89.673,26.846],[-89.458,27.304],[-89.242,27.761],[-89.023,28.219],[-88.803,28.676],[-88.581,29.132],[-88.357,29.588],[-88.131,30.044],[-87.903,30.5],[-87.673,30.955],[-87.44,31.41],[-87.206,31.864],[-86.969,32.318],[-86.729,32.771],[-86.487,33.224],[-86.243,33.676],[-85.996,34.128],[-85.746,34.58],[-85.494,35.031],[-85.238,35.481],[-84.98,35.931],[-84.719,36.38],[-84.455,36.829],[-84.188,37.277],[-83.918,37.725],[-83.644,38.171],[-83.367,38.618],[-83.087,39.063],[-82.803,39.508],[-82.515,39.952],[-82.223,40.396],[-81.928,40.839],[-81.629,41.281],[-81.325,41.722],[-81.018,42.162],[-80.706,42.602],[-80.39,43.041],[-80.069,43.478],[-79.743,43.915],[-79.413,44.351],[-79.078,44.786],[-78.737,45.22],[-78.392,45.653],[-78.041,46.085],[-77.684,46.516],[-77.322,46.946],[-76.954,47.374],[-76.58,47.802]]}},{"type":"Feature","properties":{"boundary_type":"subduction","feature_type":"gpml:SubductionZone","polarity":"Left","overriding_plate_id":null,"subducting_plate_id":null,"plate_ids":[6024],"name":""},"geometry":{"type":"LineString","coordinates":[[-76.58,47.802],[-76.212,48.213]]}},{"type":"Feature","properties":{"boundary_type":"ridge","feature_type":"gpml:MidOceanRidge","polarity":null,"overriding_plate_id":null,"subducting_plate_id":null,"plate_ids":[101,801],"name":""},"geometry":{"type":"LineString","coordinates":[[104.902,7.229],[105.304,6.95],[105.705,6.67],[106.107,6.39],[106.507,6.11],[106.907,5.829],[107.307,5.548],[107.707,5.267],[107.457,4.854],[107.207,4.44],[106.958,4.027],[106.708,3.613],[106.459,3.2],[106.211,2.786],[105.962,2.372],[105.714,1.959],[105.465,1.545],[105.217,1.131],[104.969,0.717],[104.721,0.303],[104.473,-0.111],[104.225,-0.525],[103.976,-0.938],[103.728,-1.352],[103.48,-1.766],[103.232,-2.18],[102.983,-2.594],[102.734,-3.007],[102.486,-3.421],[102.236,-3.835],[101.987,-4.248],[101.738,-4.661],[102.15,-4.942],[102.564,-5.222],[102.977,-5.501],[103.391,-5.781],[103.805,-6.06],[104.22,-6.339],[104.635,-6.617],[105.051,-6.895],[105.467,-7.173],[105.884,-7.451],[106.301,-7.728],[106.719,-8.004],[107.137,-8.28],[107.556,-8.556],[107.976,-8.831],[108.396,-9.106],[108.817,-9.381]]}},{"type":"Feature","properties":{"boundary_type":"ridge","feature_type":"gpml:MidOceanRidge","polarity":null,"overriding_plate_id":null,"subducting_plate_id":null,"plate_ids":[101,201],"name":""},"geometry":{"type":"LineString","coordinates":[[108.817,-9.381],[109.22,-9.643],[109.625,-9.905],[110.03,-10.166],[110.436,-10.427],[110.842,-10.688],[111.249,-10.948],[111.657,-11.207],[112.066,-11.466],[112.475,-11.724],[112.885,-11.982],[113.296,-12.239],[113.707,-12.495],[114.12,-12.751],[114.533,-13.006],[114.947,-13.261],[115.362,-13.515],[115.778,-13.768]]}},{"type":"Feature","properties":{"boundary_type":"subduction","feature_type":"gpml:SubductionZone","polarity":"Left","overriding_plate_id":30204,"subducting_plate_id":90109,"plate_ids":[30204,90109],"name":""},"geometry":{"type":"LineString","coordinates":[[158.259,-21.693],[158.312,-22.144],[158.365,-22.595],[158.419,-23.046],[158.436,-23.495],[158.453,-23.945],[158.47,-24.394],[158.449,-24.828],[158.429,-25.262],[158.408,-25.696],[158.388,-26.13],[158.393,-26.579],[158.399,-27.028],[158.405,-27.477],[158.41,-27.926],[158.416,-28.375],[158.422,-28.824],[158.428,-29.273],[158.538,-29.748],[158.65,-30.223],[158.762,-30.698],[158.876,-31.173],[158.99,-31.647],[159.106,-32.121],[159.382,-32.499],[159.66,-32.876],[159.94,-33.252],[160.223,-33.628],[160.508,-34.003],[160.795,-34.378],[161.086,-34.751],[161.533,-35.037],[161.983,-35.321],[162.436,-35.603],[162.892,-35.884],[163.352,-36.163],[163.815,-36.44],[164.281,-36.715],[164.835,-36.845],[165.392,-36.972],[165.949,-37.096],[166.509,-37.218],[167.071,-37.337],[167.634,-37.454],[168.199,-37.568],[168.765,-37.679],[169.334,-37.788],[169.904,-37.894]]}},{"type":"Feature","properties":{"boundary_type":"ridge","feature_type":"gpml:MidOceanRidge","polarity":null,"overriding_plate_id":null,"subducting_plate_id":null,"plate_ids":[801,77030],"name":""},"geometry":{"type":"LineString","coordinates":[[63.052,4.972],[62.941,4.821]]}},{"type":"Feature","properties":{"boundary_type":"ridge","feature_type":"gpml:MidOceanRidge","polarity":null,"overriding_plate_id":null,"subducting_plate_id":null,"plate_ids":[701,77030],"name":""},"geometry":{"type":"LineString","coordinates":[[62.941,4.821],[62.781,4.602],[62.621,4.384],[62.304,4.0],[61.986,3.616],[61.669,3.232],[61.353,2.848],[61.036,2.464],[60.72,2.08],[60.403,1.695],[60.087,1.311],[59.771,0.927],[59.455,0.542],[59.14,0.158],[58.824,-0.227],[58.508,-0.611],[58.192,-0.995],[57.876,-1.38],[57.56,-1.764],[57.243,-2.148],[56.927,-2.533],[56.61,-2.917],[56.294,-3.301],[55.977,-3.685],[55.659,-4.069],[55.342,-4.452],[55.024,-4.836],[54.705,-5.219],[54.387,-5.603],[54.067,-5.986],[53.748,-6.369],[53.428,-6.751],[53.107,-7.134],[52.786,-7.516],[52.464,-7.898],[52.142,-8.28],[51.819,-8.661],[51.496,-9.043],[51.172,-9.424],[50.847,-9.804],[50.521,-10.185],[50.194,-10.565],[49.867,-10.944],[49.539,-11.324],[49.21,-11.703],[48.88,-12.081],[49.21,-12.367],[49.54,-12.651],[49.871,-12.936],[50.203,-13.22],[49.93,-13.61],[49.657,-14.001],[49.383,-14.391],[49.108,-14.781],[48.832,-15.171],[48.554,-15.56],[48.276,-15.949],[47.997,-16.337],[47.717,-16.725],[47.435,-17.113],[47.152,-17.5],[46.869,-17.887],[46.583,-18.274],[47.017,-18.498],[47.453,-18.721],[47.889,-18.943],[48.326,-19.164],[48.765,-19.384],[49.205,-19.603],[49.646,-19.82],[50.088,-20.037],[50.531,-20.253],[50.976,-20.467],[51.422,-20.681],[51.869,-20.893],[52.318,-21.104],[52.767,-21.314],[52.504,-21.742],[52.24,-22.17],[51.974,-22.597],[51.706,-23.024],[51.437,-23.45],[51.166,-23.876],[50.893,-24.301],[50.618,-24.726],[50.342,-25.15],[50.063,-25.574],[49.783,-25.998],[49.5,-26.42],[49.215,-26.843],[48.929,-27.264],[48.64,-27.685],[48.349,-28.106],[48.055,-28.526],[47.759,-28.945],[47.461,-29.364],[47.16,-29.781]]}},{"type":"Feature","properties":{"boundary_type":"subduction","feature_type":"gpml:SubductionZone","polarity":"Right","overriding_plate_id":501,"subducting_plate_id":801,"plate_ids":[501,801],"name":""},"geometry":{"type":"LineString","coordinates":[[71.185,-38.685],[71.711,-38.937],[72.241,-39.186],[72.775,-39.433],[73.313,-39.677],[73.854,-39.919],[74.4,-40.159],[74.949,-40.396],[75.502,-40.63],[76.059,-40.861],[76.619,-41.09],[77.184,-41.316],[77.752,-41.54],[78.325,-41.76],[78.901,-41.978],[79.482,-42.193],[80.066,-42.404],[80.654,-42.613],[81.246,-42.819],[81.842,-43.022],[82.442,-43.221],[83.046,-43.418],[83.654,-43.611],[84.265,-43.801]]}},{"type":"Feature","properties":{"boundary_type":"subduction","feature_type":"gpml:SubductionZone","polarity":"Left","overriding_plate_id":501,"subducting_plate_id":801,"plate_ids":[501,801],"name":"inferred SZ"},"geometry":{"type":"LineString","coordinates":[[71.185,-38.685],[71.495,-38.366],[71.802,-38.047],[72.107,-37.726],[72.409,-37.405]]}},{"type":"Feature","properties":{"boundary_type":"subduction","feature_type":"gpml:SubductionZone","polarity":"Left","overriding_plate_id":77030,"subducting_plate_id":801,"plate_ids":[801,77030],"name":"inferred SZ"},"geometry":{"type":"LineString","coordinates":[[72.409,-37.405],[72.781,-37.004],[73.15,-36.601],[73.515,-36.198],[73.877,-35.793],[74.234,-35.387],[74.588,-34.981],[74.939,-34.573],[75.286,-34.164],[75.629,-33.754],[75.97,-33.344],[76.307,-32.932],[76.641,-32.52],[76.972,-32.106],[77.3,-31.692],[77.625,-31.277],[77.948,-30.861],[78.267,-30.444],[78.584,-30.027],[78.759,-29.566],[78.933,-29.105],[79.105,-28.644],[79.276,-28.182],[79.445,-27.72],[79.613,-27.258],[79.78,-26.796],[79.945,-26.334],[80.109,-25.871],[80.271,-25.409],[80.433,-24.946],[80.593,-24.483],[80.752,-24.02],[80.909,-23.556],[81.066,-23.093],[81.221,-22.629],[81.376,-22.165],[81.53,-21.701],[81.433,-21.227],[81.336,-20.753],[81.241,-20.279],[81.145,-19.804],[81.051,-19.33],[80.957,-18.856],[80.863,-18.381],[80.77,-17.907],[80.678,-17.432],[80.586,-16.958],[80.494,-16.483],[80.403,-16.009],[80.312,-15.534],[80.222,-15.059],[80.132,-14.585],[80.043,-14.11],[79.954,-13.635],[79.677,-13.241],[79.401,-12.847],[79.126,-12.453],[78.851,-12.059],[78.578,-11.664],[78.305,-11.269],[78.033,-10.874],[77.762,-10.478],[77.491,-10.083],[77.221,-9.687],[76.952,-9.291],[76.683,-8.894],[76.415,-8.498],[76.148,-8.101],[75.881,-7.704],[75.614,-7.307],[75.348,-6.91],[75.082,-6.513],[74.817,-6.115],[74.552,-5.718],[74.288,-5.32],[73.924,-4.989],[73.56,-4.658],[73.196,-4.327],[72.832,-3.995],[72.469,-3.663],[72.107,-3.332],[71.744,-3.0],[71.382,-2.668],[71.02,-2.335],[70.658,-2.003],[70.296,-1.671],[69.934,-1.339],[69.572,-1.006],[69.211,-0.674],[68.849,-0.341],[68.488,-0.009],[68.126,0.324],[67.765,0.656],[67.403,0.989],[67.042,1.321],[66.68,1.654],[66.318,1.986],[65.956,2.318],[65.594,2.651],[65.232,2.983],[64.869,3.315],[64.506,3.646],[64.143,3.978],[63.78,4.309],[63.416,4.641],[63.052,4.972]]}},{"type":"Feature","properties":{"boundary_type":"transform","feature_type":"gpml:Transform","polarity":null,"overriding_plate_id":null,"subducting_plate_id":null,"plate_ids":[30204,90109],"name":""},"geometry":{"type":"LineString","coordinates":[[158.259,-21.693],[158.643,-21.469],[159.025,-21.245],[159.407,-21.02],[159.787,-20.794],[160.167,-20.567]]}},{"type":"Feature","properties":{"boundary_type":"transform","feature_type":"gpml:Transform","polarity":null,"overriding_plate_id":null,"subducting_plate_id":null,"plate_ids":[101,302,90109],"name":""},"geometry":{"type":"LineString","coordinates":[[160.167,-20.567],[160.182,-20.558]]}},{"type":"Feature","properties":{"boundary_type":"transform","feature_type":"gpml:Transform","polarity":null,"overriding_plate_id":null,"subducting_plate_id":null,"plate_ids":[101,302],"name":""},"geometry":{"type":"LineString","coordinates":[[160.182,-20.558],[160.547,-20.339],[160.91,-20.118],[161.352,-19.909],[161.792,-19.698],[162.232,-19.486],[162.67,-19.273],[163.107,-19.06],[163.543,-18.845],[163.978,-18.629],[164.412,-18.412]]}},{"type":"Feature","properties":{"boundary_type":"subduction","feature_type":"gpml:SubductionZone","polarity":"Right","overriding_plate_id":201,"subducting_plate_id":90109,"plate_ids":[201,90109],"name":""},"geometry":{"type":"LineString","coordinates":[[120.029,-7.749],[120.515,-7.809],[121.001,-7.869],[121.487,-7.928],[121.973,-7.986],[122.46,-8.044],[122.946,-8.102],[123.433,-8.158],[123.92,-8.215],[124.407,-8.27],[124.894,-8.325],[125.381,-8.38],[125.869,-8.433],[126.356,-8.487],[126.844,-8.539],[127.332,-8.591],[127.82,-8.643],[128.308,-8.693],[128.796,-8.744],[129.284,-8.793],[129.773,-8.842],[130.261,-8.89],[130.75,-8.938],[131.239,-8.985],[131.692,-9.188],[132.146,-9.39],[132.6,-9.592],[133.054,-9.793],[133.51,-9.994],[133.966,-10.194],[134.422,-10.393],[134.879,-10.592],[135.337,-10.79],[135.795,-10.987],[136.254,-11.184],[136.713,-11.38],[137.173,-11.575],[137.634,-11.769],[138.095,-11.963],[138.557,-12.156],[139.02,-12.348],[139.483,-12.54],[139.947,-12.731],[140.412,-12.92],[140.877,-13.109],[141.343,-13.298],[141.81,-13.485],[142.278,-13.672],[142.746,-13.857],[143.215,-14.042],[143.685,-14.226],[144.156,-14.409],[144.627,-14.591],[145.099,-14.772],[145.442,-15.124],[145.787,-15.476],[146.132,-15.828],[146.478,-16.179],[146.826,-16.529],[147.175,-16.879],[147.525,-17.228],[147.877,-17.576],[148.23,-17.924],[148.584,-18.272],[148.94,-18.618],[149.297,-18.964],[149.656,-19.31],[150.016,-19.654],[150.378,-19.998],[150.741,-20.341],[151.106,-20.684],[151.473,-21.025],[151.841,-21.366],[152.211,-21.706],[152.583,-22.045],[152.956,-22.384],[153.332,-22.721],[153.709,-23.058],[153.85,-23.522],[153.993,-23.986],[154.136,-24.451],[154.281,-24.915],[154.426,-25.378],[154.573,-25.842],[154.721,-26.306],[154.87,-26.769],[155.021,-27.232],[155.172,-27.695],[155.325,-28.158],[155.479,-28.621],[155.635,-29.083],[155.792,-29.546],[155.95,-30.008],[156.11,-30.47],[156.191,-30.952],[156.272,-31.433],[156.354,-31.915],[156.437,-32.396],[156.521,-32.878],[156.606,-33.359],[156.692,-33.84],[156.778,-34.322],[156.866,-34.803],[156.955,-35.284],[157.045,-35.765],[157.135,-36.246],[157.191,-36.718],[157.246,-37.191],[157.303,-37.663],[157.36,-38.135],[157.418,-38.608],[157.477,-39.08],[157.536,-39.552],[157.597,-40.024],[157.658,-40.497],[157.72,-40.969],[157.783,-41.441],[157.847,-41.913],[157.882,-42.388],[157.917,-42.863],[157.953,-43.337],[157.989,-43.812],[158.026,-44.287],[158.064,-44.762],[158.102,-45.236],[158.141,-45.711],[158.181,-46.186],[158.221,-46.661],[158.262,-47.135],[158.303,-47.61],[158.346,-48.085],[158.363,-48.577],[158.38,-49.07],[158.397,-49.563],[158.415,-50.056],[158.433,-50.549],[158.451,-51.042],[158.47,-51.534],[158.489,-52.027],[158.509,-52.52],[158.529,-53.013],[158.549,-53.506],[158.57,-53.998],[158.592,-54.491],[158.634,-54.966],[158.678,-55.441],[158.722,-55.916],[158.767,-56.391],[158.814,-56.866],[158.862,-57.34],[158.911,-57.815],[158.961,-58.29],[159.013,-58.765],[159.066,-59.239],[159.121,-59.714],[159.177,-60.189],[159.235,-60.664],[159.294,-61.138],[159.356,-61.613],[159.419,-62.087],[159.358,-62.563],[159.296,-63.038],[159.231,-63.513],[159.164,-63.989],[159.094,-64.464],[159.023,-64.939],[158.948,-65.415],[158.871,-65.89],[158.791,-66.365],[158.708,-66.84],[158.284,-67.3],[157.843,-67.759],[157.385,-68.216],[156.908,-68.672],[156.412,-69.127],[155.894,-69.58],[155.354,-70.032]]}},{"type":"Feature","properties":{"boundary_type":"subduction","feature_type":"gpml:SubductionZone","polarity":"Right","overriding_plate_id":501,"subducting_plate_id":90109,"plate_ids":[501,90109],"name":""},"geometry":{"type":"LineString","coordinates":[[155.354,-70.032],[154.978,-70.334]]}},{"type":"Feature","properties":{"boundary_type":"ridge","feature_type":"gpml:MidOceanRidge","polarity":null,"overriding_plate_id":null,"subducting_plate_id":null,"plate_ids":[201,801],"name":""},"geometry":{"type":"LineString","coordinates":[[108.817,-9.381],[108.518,-9.784],[108.219,-10.187],[107.919,-10.589],[107.618,-10.992],[107.317,-11.394],[107.015,-11.796],[106.711,-12.197],[106.407,-12.598],[106.102,-12.999],[105.796,-13.399],[105.489,-13.8],[105.18,-14.199],[104.871,-14.598],[104.561,-14.997],[104.249,-15.396],[103.936,-15.794],[103.622,-16.191],[103.307,-16.588],[102.99,-16.985],[102.673,-17.381],[102.353,-17.777],[102.033,-18.172],[101.71,-18.567],[101.387,-18.961],[101.062,-19.354],[100.735,-19.747],[100.406,-20.139],[100.076,-20.531],[99.745,-20.922],[99.411,-21.312],[99.076,-21.702],[98.739,-22.091],[98.4,-22.479],[98.059,-22.867],[97.716,-23.254],[97.372,-23.64],[97.025,-24.026],[96.676,-24.41],[96.325,-24.794],[95.972,-25.177],[95.616,-25.559],[95.259,-25.941],[94.899,-26.321],[94.536,-26.7],[94.172,-27.079],[93.804,-27.457],[93.435,-27.833],[93.062,-28.209],[92.687,-28.584],[92.31,-28.957],[91.929,-29.33],[91.546,-29.701],[91.16,-30.072],[90.771,-30.441],[91.174,-30.752],[91.579,-31.061],[91.986,-31.369],[92.397,-31.676],[92.81,-31.982],[93.226,-32.286],[93.645,-32.589],[94.066,-32.89],[93.689,-33.261],[93.308,-33.63],[92.924,-33.999],[92.537,-34.366],[92.146,-34.732],[91.752,-35.097],[91.355,-35.46],[90.954,-35.822],[90.549,-36.183],[90.14,-36.542],[89.728,-36.9],[89.311,-37.257],[88.891,-37.612],[88.467,-37.966],[88.038,-38.318],[87.606,-38.668],[87.169,-39.017],[86.728,-39.364],[86.282,-39.71],[85.832,-40.054],[85.378,-40.396],[84.918,-40.736],[84.455,-41.074],[83.986,-41.411],[84.42,-41.672],[84.857,-41.931],[85.298,-42.189],[85.743,-42.445],[85.38,-42.786],[85.012,-43.126],[84.641,-43.464],[84.265,-43.801]]}},{"type":"Feature","properties":{"boundary_type":"ridge","feature_type":"gpml:MidOceanRidge","polarity":null,"overriding_plate_id":null,"subducting_plate_id":null,"plate_ids":[201,501],"name":""},"geometry":{"type":"LineString","coordinates":[[84.265,-43.801],[83.852,-44.166],[83.434,-44.529],[83.011,-44.891],[82.583,-45.251],[82.149,-45.61]]}},{"type":"Feature","properties":{"boundary_type":"ridge","feature_type":"gpml:MidOceanRidge","polarity":null,"overriding_plate_id":null,"subducting_plate_id":null,"plate_ids":[701,77030],"name":""},"geometry":{"type":"LineString","coordinates":[[47.16,-29.781],[47.374,-30.198]]}},{"type":"Feature","properties":{"boundary_type":"ridge","feature_type":"gpml:MidOceanRidge","polarity":null,"overriding_plate_id":null,"subducting_plate_id":null,"plate_ids":[501,77030],"name":""},"geometry":{"type":"LineString","coordinates":[[47.374,-30.198],[47.589,-30.614],[47.806,-31.029],[48.025,-31.443],[48.246,-31.858],[48.469,-32.272],[48.694,-32.685],[48.921,-33.099],[49.15,-33.511],[49.381,-33.924],[49.615,-34.336],[49.851,-34.747],[50.435,-34.647],[51.018,-34.544],[51.599,-34.439],[52.179,-34.331],[52.757,-34.22],[53.334,-34.106],[53.909,-33.99],[54.483,-33.871],[55.055,-33.75],[55.625,-33.625],[56.194,-33.498],[56.761,-33.369],[57.327,-33.237],[57.89,-33.102],[58.056,-33.532],[58.223,-33.961],[58.392,-34.39],[58.562,-34.818],[58.735,-35.246],[59.309,-35.111],[59.881,-34.973],[60.452,-34.833],[61.02,-34.69],[61.587,-34.544],[62.151,-34.396],[62.714,-34.245],[63.274,-34.091],[63.832,-33.935],[64.389,-33.776],[64.943,-33.615],[65.495,-33.452],[66.045,-33.286],[66.593,-33.117],[67.139,-32.947],[67.683,-32.773],[68.225,-32.598],[68.555,-33.004],[68.889,-33.409],[69.225,-33.813],[69.565,-34.216],[69.909,-34.618],[70.255,-35.019],[70.605,-35.42],[70.959,-35.819],[71.316,-36.217],[71.676,-36.614],[72.041,-37.01],[72.409,-37.405]]}},{"type":"Feature","properties":{"boundary_type":"subduction","feature_type":"gpml:SubductionZone","polarity":"Left","overriding_plate_id":701,"subducting_plate_id":501,"plate_ids":[501,701],"name":""},"geometry":{"type":"LineString","coordinates":[[38.76,-29.86],[39.258,-29.938],[39.756,-30.014],[40.255,-30.088],[40.754,-30.161],[41.255,-30.231],[41.756,-30.299],[42.257,-30.366],[42.76,-30.43],[43.237,-30.49],[43.716,-30.548],[44.195,-30.604],[44.674,-30.658],[45.154,-30.711],[45.711,-30.586],[46.267,-30.459],[46.821,-30.33],[47.374,-30.198]]}},{"type":"Feature","properties":{"boundary_type":"transform","feature_type":"gpml:Transform","polarity":null,"overriding_plate_id":null,"subducting_plate_id":null,"plate_ids":[101,90109],"name":""},"geometry":{"type":"LineString","coordinates":[[126.94,1.159],[126.605,0.798],[126.27,0.438],[125.935,0.078],[125.601,-0.283],[125.266,-0.643],[124.931,-1.004],[124.596,-1.364],[124.261,-1.724],[123.989,-2.107],[123.718,-2.49],[123.447,-2.872],[123.175,-3.255],[122.904,-3.637],[122.632,-4.02],[122.359,-4.402],[122.087,-4.784],[121.814,-5.166],[121.541,-5.548],[121.267,-5.93],[120.993,-6.312],[120.753,-6.671],[120.512,-7.031],[120.271,-7.39],[120.029,-7.749]]}},{"type":"Feature","properties":{"boundary_type":"transform","feature_type":"gpml:Transform","polarity":null,"overriding_plate_id":null,"subducting_plate_id":null,"plate_ids":[101,201],"name":""},"geometry":{"type":"LineString","coordinates":[[120.029,-7.749],[119.749,-8.164],[119.469,-8.579],[119.188,-8.993],[118.906,-9.408],[118.624,-9.822],[118.341,-10.235],[118.058,-10.649],[117.773,-11.062],[117.488,-11.475],[117.205,-11.858],[116.921,-12.241],[116.637,-12.623],[116.352,-13.005],[116.065,-13.386],[115.778,-13.768]]}},{"type":"Feature","properties":{"boundary_type":"ridge","feature_type":"gpml:MidOceanRidge","polarity":null,"overriding_plate_id":null,"subducting_plate_id":null,"plate_ids":[6024],"name":""},"geometry":{"type":"LineString","coordinates":[[-17.631,74.415],[-18.666,74.599]]}},{"type":"Feature","properties":{"boundary_type":"ridge","feature_type":"gpml:MidOceanRidge","polarity":null,"overriding_plate_id":null,"subducting_plate_id":null,"plate_ids":[801,6024],"name":""},"geometry":{"type":"LineString","coordinates":[[-18.666,74.599],[-20.269,74.865],[-21.927,75.12],[-23.64,75.363],[-25.408,75.592],[-27.23,75.808],[-29.106,76.01],[-31.034,76.197],[-33.011,76.369],[-35.035,76.525],[-37.104,76.664],[-39.212,76.786],[-41.356,76.89],[-43.531,76.977],[-45.732,77.045],[-47.952,77.094],[-50.186,77.125],[-52.427,77.136],[-54.669,77.129],[-56.905,77.102],[-59.129,77.057],[-61.334,76.993],[-63.515,76.911],[-65.667,76.81],[-67.783,76.692],[-69.861,76.556],[-71.895,76.404],[-73.883,76.236],[-75.821,76.052],[-77.709,75.854],[-79.543,75.641],[-81.323,75.414],[-83.048,75.174],[-84.718,74.922],[-86.333,74.658],[-87.894,74.382],[-89.4,74.096],[-90.855,73.8],[-92.257,73.495],[-93.609,73.18],[-94.913,72.857],[-96.168,72.526],[-97.379,72.187],[-98.545,71.841],[-99.668,71.489],[-100.751,71.13],[-101.794,70.764],[-102.799,70.394],[-103.769,70.017],[-104.703,69.636],[-105.605,69.25],[-106.475,68.859],[-107.314,68.465],[-108.125,68.066],[-108.908,67.663],[-109.664,67.256],[-110.396,66.847],[-111.103,66.433],[-111.787,66.017],[-112.449,65.598],[-113.089,65.176],[-113.71,64.752],[-114.312,64.324],[-114.895,63.895],[-115.46,63.463],[-116.009,63.029],[-116.541,62.593],[-117.058,62.155],[-117.56,61.715],[-118.048,61.274],[-118.523,60.831],[-118.984,60.386],[-119.433,59.939],[-119.87,59.491],[-120.296,59.042],[-121.132,59.269],[-121.978,59.49],[-122.836,59.706],[-123.705,59.917],[-124.584,60.121],[-125.475,60.32],[-126.376,60.512],[-127.288,60.699],[-128.21,60.879],[-129.142,61.053],[-130.085,61.22],[-131.037,61.381],[-132.0,61.535],[-132.971,61.682],[-133.952,61.822],[-134.941,61.955],[-135.939,62.081],[-136.945,62.2],[-137.198,61.721],[-137.443,61.242],[-137.68,60.762],[-137.911,60.281],[-138.135,59.801],[-138.353,59.319],[-138.565,58.838],[-138.771,58.356],[-138.971,57.874],[-139.166,57.392],[-139.356,56.909],[-139.541,56.426],[-139.721,55.943],[-139.897,55.459],[-140.069,54.976],[-140.237,54.492],[-140.4,54.007],[-140.56,53.523],[-140.717,53.038],[-140.87,52.554],[-141.019,52.069],[-141.165,51.583],[-141.309,51.098],[-141.449,50.612],[-141.586,50.127],[-141.721,49.641],[-141.853,49.155],[-141.982,48.668],[-142.109,48.182],[-142.234,47.696]]}},{"type":"Feature","properties":{"boundary_type":"ridge","feature_type":"gpml:MidOceanRidge","polarity":null,"overriding_plate_id":null,"subducting_plate_id":null,"plate_ids":[101,6024],"name":""},"geometry":{"type":"LineString","coordinates":[[-142.234,47.696],[-142.327,47.325]]}},{"type":"Feature","properties":{"boundary_type":"ridge","feature_type":"gpml:MidOceanRidge","polarity":null,"overriding_plate_id":null,"subducting_plate_id":null,"plate_ids":[801],"name":"inferred MOR"},"geometry":{"type":"LineString","coordinates":[[-18.666,74.599],[-17.443,74.73],[-16.2,74.855]]}},{"type":"Feature","properties":{"boundary_type":"ridge","feature_type":"gpml:MidOceanRidge","polarity":null,"overriding_plate_id":null,"subducting_plate_id":null,"plate_ids":[701,801],"name":"inferred MOR"},"geometry":{"type":"LineString","coordinates":[[-16.2,74.855],[-14.43,75.018],[-12.624,75.166],[-10.785,75.301],[-8.913,75.42],[-7.014,75.525],[-5.089,75.614],[-3.143,75.687],[-1.18,75.745],[0.797,75.786],[2.782,75.811],[4.773,75.819],[6.763,75.811],[8.749,75.787],[10.726,75.746],[12.69,75.69],[14.637,75.617],[16.562,75.528],[18.463,75.424],[20.335,75.305],[22.176,75.171],[23.983,75.023],[25.754,74.861],[27.486,74.685],[29.179,74.496],[30.831,74.295],[30.072,73.85],[29.353,73.403],[28.671,72.953],[28.023,72.501],[27.407,72.047],[26.821,71.591],[26.261,71.134],[25.728,70.675],[25.218,70.214],[24.73,69.752],[24.264,69.289],[23.817,68.825],[23.388,68.359],[22.976,67.893],[22.581,67.425],[22.201,66.957],[21.835,66.487],[21.483,66.017],[21.144,65.546],[20.816,65.075],[20.5,64.602],[20.195,64.129],[19.9,63.656],[19.615,63.181],[19.339,62.707],[19.072,62.231],[20.056,62.06],[21.03,61.882],[21.991,61.697],[22.942,61.505],[23.88,61.307],[24.806,61.102],[25.721,60.891],[26.623,60.675],[27.513,60.452],[28.39,60.223],[29.255,59.988],[30.108,59.748],[30.949,59.503],[31.777,59.252],[32.593,58.996],[33.397,58.735],[34.189,58.469],[34.969,58.198],[35.737,57.922],[36.493,57.642],[37.238,57.358],[37.971,57.069],[38.692,56.776],[39.402,56.479],[40.102,56.178],[39.751,55.735],[39.409,55.292],[39.074,54.848],[38.746,54.402],[38.426,53.956],[38.112,53.509],[38.798,53.225],[39.474,52.936],[40.142,52.644],[40.801,52.348],[41.451,52.049],[42.092,51.746],[42.724,51.44],[43.349,51.13],[43.964,50.817],[44.572,50.501],[45.171,50.181],[45.763,49.859],[46.346,49.533],[46.922,49.205],[47.49,48.874],[48.051,48.54],[48.604,48.204],[49.15,47.864],[49.689,47.523],[50.221,47.179],[50.746,46.832],[51.264,46.483],[51.776,46.132],[52.281,45.778],[52.78,45.422],[53.272,45.064],[53.759,44.704],[54.239,44.342],[54.314,43.848],[54.387,43.354],[54.459,42.859],[54.53,42.365],[54.6,41.87],[54.669,41.376],[54.737,40.881],[54.804,40.387],[54.87,39.892],[54.935,39.398],[54.999,38.903],[55.062,38.408],[55.124,37.913],[55.186,37.419],[55.247,36.924],[55.306,36.429],[55.366,35.934],[55.424,35.439],[55.482,34.944],[55.539,34.449],[55.595,33.954],[55.651,33.459],[55.706,32.964],[55.76,32.469],[55.814,31.974],[55.867,31.479],[55.92,30.984],[55.972,30.488],[56.024,29.993],[56.075,29.498],[56.125,29.003],[56.175,28.507],[56.225,28.012],[56.274,27.517],[56.323,27.022],[56.371,26.526],[56.419,26.031],[56.467,25.536],[56.514,25.04],[56.561,24.545],[56.607,24.05],[56.76,23.571],[56.911,23.092],[57.062,22.614],[57.212,22.135],[57.36,21.656],[57.508,21.177],[57.655,20.697],[57.8,20.218],[57.945,19.739],[58.089,19.259],[58.232,18.779],[58.375,18.299],[58.516,17.819],[58.657,17.339],[58.797,16.859],[58.936,16.379],[59.075,15.899],[59.213,15.418],[59.35,14.938],[59.487,14.457],[59.623,13.976],[59.759,13.496],[59.894,13.015],[60.028,12.534],[60.163,12.053],[60.296,11.572],[60.429,11.091],[60.562,10.61],[60.694,10.129],[60.826,9.647],[60.957,9.166],[61.088,8.685],[61.219,8.203],[61.35,7.722],[61.48,7.24],[61.61,6.759],[61.739,6.277],[62.04,5.913],[62.341,5.549],[62.641,5.185],[62.941,4.821]]}},{"type":"Feature","properties":{"boundary_type":"transform","feature_type":"gpml:Transform","polarity":null,"overriding_plate_id":null,"subducting_plate_id":null,"plate_ids":[101,6024],"name":""},"geometry":{"type":"LineString","coordinates":[[-142.327,47.325],[-141.624,47.44],[-140.919,47.551],[-140.211,47.657],[-139.5,47.759],[-138.786,47.856],[-138.07,47.949],[-137.351,48.037],[-136.629,48.121],[-135.906,48.201],[-135.18,48.275],[-134.452,48.346],[-133.722,48.411],[-132.99,48.472],[-132.257,48.529],[-131.522,48.581],[-130.786,48.628],[-130.048,48.67],[-129.309,48.708],[-128.569,48.74],[-127.829,48.769],[-127.087,48.792],[-126.345,48.811],[-125.602,48.824],[-124.859,48.834],[-124.116,48.838],[-123.373,48.837],[-122.63,48.832],[-121.887,48.822]]}}]}