{"type":"FeatureCollection","meta":{"model":"Cao2024","reconstruction_time_ma":250.0,"anchor_plate_id":0,"pygplates_version":"1.0.0","tessellate_degrees":0.5,"polarity_convention":"gpml:subductionPolarity. 'Left'/'Right' names the side of the line, in vertex order, on which the OVERRIDING plate lies. Triangles are drawn on that side.","antimeridian":"Lines are NOT split at +/-180 deg. The renderer works in 3D unit vectors where the dateline is not special; splitting would only add spurious breaks. Do not treat this as RFC 7946 GIS-ready 2D data."},"features":[{"type":"Feature","properties":{"boundary_type":"subduction","feature_type":"gpml:SubductionZone","polarity":"Right","overriding_plate_id":701,"subducting_plate_id":919,"plate_ids":[701,919],"name":"Eastern Gondwana Subduction Zone"},"geometry":{"type":"LineString","coordinates":[[167.885,-75.189],[169.568,-75.344],[171.285,-75.486],[173.033,-75.616],[174.811,-75.732],[176.616,-75.835],[178.446,-75.925],[-179.704,-76.0],[-177.836,-76.062],[-175.953,-76.109],[-173.949,-76.224],[-171.914,-76.322],[-169.852,-76.404],[-167.769,-76.468],[-165.669,-76.515],[-163.556,-76.545],[-161.438,-76.557],[-159.318,-76.551],[-157.204,-76.527],[-155.099,-76.486],[-153.009,-76.428],[-150.939,-76.352],[-148.895,-76.259],[-146.88,-76.149],[-144.897,-76.024],[-142.952,-75.882],[-141.047,-75.726],[-139.184,-75.554],[-137.365,-75.368],[-135.443,-75.436],[-133.505,-75.488],[-131.555,-75.524],[-129.598,-75.544],[-127.638,-75.547],[-125.679,-75.535],[-123.726,-75.506],[-121.783,-75.461],[-119.853,-75.4],[-117.941,-75.324],[-115.973,-75.309],[-114.012,-75.279],[-112.06,-75.231],[-110.123,-75.168],[-108.203,-75.088],[-106.306,-74.993],[-104.434,-74.882],[-102.591,-74.756],[-100.778,-74.615],[-99.133,-74.471],[-97.518,-74.315],[-95.935,-74.148],[-94.386,-73.969],[-92.871,-73.779],[-91.391,-73.579],[-89.946,-73.368],[-88.531,-73.148],[-87.151,-72.918],[-85.808,-72.678],[-84.501,-72.431],[-83.23,-72.174],[-81.995,-71.91],[-80.794,-71.638],[-79.672,-71.386],[-78.58,-71.128],[-77.516,-70.863],[-76.481,-70.593],[-75.473,-70.316],[-74.493,-70.035],[-73.539,-69.748],[-72.358,-69.521],[-71.203,-69.286],[-70.073,-69.044],[-68.968,-68.795],[-67.888,-68.539],[-66.833,-68.276],[-65.802,-68.006],[-64.754,-67.749],[-63.729,-67.486],[-62.728,-67.216],[-61.748,-66.94],[-60.791,-66.659],[-59.856,-66.371],[-58.942,-66.078],[-58.049,-65.78],[-57.176,-65.477],[-56.324,-65.169],[-55.713,-64.786],[-55.119,-64.401],[-54.541,-64.014],[-53.98,-63.625]]}},{"type":"Feature","properties":{"boundary_type":"subduction","feature_type":"gpml:SubductionZone","polarity":"Left","overriding_plate_id":701,"subducting_plate_id":505,"plate_ids":[505,701],"name":"Monghol-Okhosk Subduction Zone"},"geometry":{"type":"LineString","coordinates":[[69.267,28.907],[69.379,29.288],[69.493,29.668],[69.607,30.048],[69.722,30.428],[70.09,30.787],[70.46,31.145],[70.833,31.502],[71.209,31.857],[71.588,32.212],[71.97,32.565],[72.354,32.917],[72.742,33.268],[73.174,33.576],[73.609,33.882],[74.047,34.187],[74.489,34.49],[74.933,34.792],[75.381,35.092],[75.832,35.39],[76.287,35.687],[76.745,35.982],[77.206,36.275],[77.671,36.566],[78.139,36.856],[78.611,37.143],[79.086,37.429],[79.565,37.713],[80.048,37.995],[80.535,38.275],[80.934,38.664],[81.337,39.052],[81.745,39.438],[82.157,39.822],[82.575,40.206],[82.996,40.587],[83.423,40.968],[83.855,41.346],[84.291,41.723],[84.733,42.098],[85.18,42.472],[85.632,42.844]]}},{"type":"Feature","properties":{"boundary_type":"subduction","feature_type":"gpml:SubductionZone","polarity":"Left","overriding_plate_id":701,"subducting_plate_id":601,"plate_ids":[601,701],"name":"Monghol-Okhosk Subduction Zone"},"geometry":{"type":"LineString","coordinates":[[85.632,42.844],[86.012,43.151],[86.395,43.457],[86.782,43.761],[87.172,44.064],[87.567,44.366],[88.032,44.688],[88.501,45.008],[88.976,45.326],[89.456,45.642],[89.942,45.957],[90.433,46.269],[90.93,46.579],[91.432,46.886],[91.94,47.192],[92.454,47.495],[92.974,47.796],[93.432,48.135],[93.896,48.473],[94.366,48.808],[94.842,49.142],[95.325,49.473],[95.814,49.803],[96.31,50.13],[96.812,50.455],[97.322,50.779],[97.969,51.016],[98.622,51.251],[99.282,51.481],[99.949,51.708],[100.622,51.931],[101.303,52.151],[101.989,52.366],[102.683,52.577],[103.383,52.784],[104.089,52.987],[104.803,53.186],[105.522,53.381],[106.249,53.571],[106.982,53.756],[107.721,53.938],[108.269,54.295],[108.827,54.649],[109.395,55.001],[109.973,55.35],[110.561,55.696],[111.16,56.039],[111.769,56.38],[112.389,56.717],[113.02,57.051],[113.663,57.382],[114.317,57.71],[114.984,58.034],[115.662,58.355],[116.353,58.672],[117.056,58.986],[117.772,59.295],[118.502,59.6],[119.244,59.902],[120.0,60.199],[120.77,60.491]]}},{"type":"Feature","properties":{"boundary_type":"subduction","feature_type":"gpml:SubductionZone","polarity":"Left","overriding_plate_id":701,"subducting_plate_id":902,"plate_ids":[701,902],"name":"NAM Subduction"},"geometry":{"type":"LineString","coordinates":[[-41.064,13.278],[-41.18,13.169],[-41.289,12.696],[-41.398,12.222],[-41.506,11.749],[-41.614,11.276],[-41.721,10.802],[-41.829,10.329],[-41.935,9.855],[-42.042,9.382],[-42.148,8.908],[-42.254,8.434],[-42.36,7.961],[-42.406,7.511],[-42.452,7.061],[-42.498,6.612],[-42.544,6.162],[-42.589,5.712],[-42.635,5.263],[-42.68,4.813],[-42.726,4.363],[-42.771,3.913],[-42.817,3.464],[-42.724,3.001],[-42.631,2.539],[-42.539,2.077],[-42.446,1.615],[-42.353,1.152],[-42.239,0.741],[-42.126,0.33],[-42.012,-0.082],[-41.898,-0.493],[-41.784,-0.904],[-41.445,-1.265],[-41.106,-1.626],[-40.767,-1.987],[-40.428,-2.348],[-40.089,-2.709],[-39.8,-2.962],[-39.511,-3.215],[-39.222,-3.468]]}},{"type":"Feature","properties":{"boundary_type":"subduction","feature_type":"gpml:SubductionZone","polarity":"Right","overriding_plate_id":498,"subducting_plate_id":505,"plate_ids":[498,505],"name":"North Junction Subduction"},"geometry":{"type":"LineString","coordinates":[[125.216,-23.334],[125.722,-23.446],[126.228,-23.556],[126.735,-23.665],[127.243,-23.772],[127.752,-23.877],[128.261,-23.981],[128.772,-24.083],[129.283,-24.183],[129.795,-24.282],[130.308,-24.379],[130.821,-24.474]]}},{"type":"Feature","properties":{"boundary_type":"subduction","feature_type":"gpml:SubductionZone","polarity":"Right","overriding_plate_id":498,"subducting_plate_id":926,"plate_ids":[498,926],"name":"North Junction Subduction"},"geometry":{"type":"LineString","coordinates":[[130.821,-24.474],[131.298,-24.56],[131.775,-24.646],[132.253,-24.729],[132.732,-24.811],[133.211,-24.892],[133.69,-24.971],[134.171,-25.048],[134.654,-25.29],[135.138,-25.53],[135.625,-25.769],[136.113,-26.006],[136.604,-26.241],[137.096,-26.475],[137.591,-26.707],[138.087,-26.937],[138.586,-27.166],[139.086,-27.392],[139.589,-27.617],[140.093,-27.84],[140.6,-28.062],[141.109,-28.281],[141.616,-28.439],[142.125,-28.595],[142.636,-28.75],[143.147,-28.902],[143.661,-29.052],[144.176,-29.201],[144.692,-29.347],[145.21,-29.492],[145.729,-29.634],[146.25,-29.775],[146.772,-29.913],[147.296,-30.049],[147.821,-30.184],[148.348,-30.316],[148.696,-30.505],[149.046,-30.694]]}},{"type":"Feature","properties":{"boundary_type":"subduction","feature_type":"gpml:SubductionZone","polarity":"Right","overriding_plate_id":919,"subducting_plate_id":926,"plate_ids":[919,926],"name":"North Junction Subduction"},"geometry":{"type":"LineString","coordinates":[[149.046,-30.694],[149.506,-30.939],[149.968,-31.183],[150.432,-31.424],[150.899,-31.665],[151.368,-31.903],[151.839,-32.14],[152.313,-32.375],[152.79,-32.608],[153.268,-32.839],[153.75,-33.069],[154.234,-33.297]]}},{"type":"Feature","properties":{"boundary_type":"subduction","feature_type":"gpml:SubductionZone","polarity":"Left","overriding_plate_id":701,"subducting_plate_id":919,"plate_ids":[701,919],"name":"Panthalassa Subducting beneath Junction"},"geometry":{"type":"LineString","coordinates":[[160.989,-47.278],[160.424,-46.997],[159.865,-46.714],[159.311,-46.427],[158.764,-46.139],[158.222,-45.847],[157.686,-45.553],[157.155,-45.257],[156.63,-44.958],[156.038,-44.749],[155.451,-44.537],[154.868,-44.322],[154.289,-44.105],[153.851,-43.92],[153.415,-43.734],[152.982,-43.547],[152.675,-43.232],[152.372,-42.917],[152.071,-42.6],[151.752,-42.165],[151.437,-41.729],[151.127,-41.292],[150.777,-40.911],[150.432,-40.529],[150.09,-40.146],[149.752,-39.762],[149.418,-39.378],[149.088,-38.992],[148.761,-38.605],[148.438,-38.218]]}},{"type":"Feature","properties":{"boundary_type":"transform","feature_type":"gpml:Transform","polarity":null,"overriding_plate_id":null,"subducting_plate_id":null,"plate_ids":[505,701],"name":"Transform Gondwana to Tethys"},"geometry":{"type":"LineString","coordinates":[[34.818,14.582],[35.251,14.69],[35.684,14.796],[36.118,14.902],[36.552,15.007],[36.986,15.111],[37.421,15.215],[37.856,15.317],[38.068,15.733],[38.281,16.149],[38.494,16.564],[38.709,16.98],[38.924,17.394]]}},{"type":"Feature","properties":{"boundary_type":"subduction","feature_type":"gpml:SubductionZone","polarity":"Right","overriding_plate_id":701,"subducting_plate_id":919,"plate_ids":[701,919],"name":"Eastern Gondwanaland subduction until 145 Ma"},"geometry":{"type":"LineString","coordinates":[[160.989,-47.278],[161.066,-47.721],[161.144,-48.164],[161.223,-48.608],[161.304,-49.051],[161.386,-49.494],[161.494,-49.939],[161.604,-50.384],[161.715,-50.829],[161.829,-51.273],[161.946,-51.718],[162.064,-52.163],[162.185,-52.607],[162.308,-53.051],[162.434,-53.495],[162.507,-53.981],[162.582,-54.466],[162.659,-54.951],[162.738,-55.436],[162.818,-55.921],[162.901,-56.406],[162.985,-56.891],[163.072,-57.376],[163.161,-57.86],[163.49,-58.314],[163.827,-58.766],[164.173,-59.218],[164.528,-59.669],[164.893,-60.119],[165.268,-60.567],[165.653,-61.015],[166.049,-61.462],[166.457,-61.907],[166.877,-62.351],[167.241,-62.793],[167.615,-63.234],[168.001,-63.674],[168.399,-64.113],[168.81,-64.551],[169.234,-64.987],[169.673,-65.423],[169.759,-65.813],[169.847,-66.203],[169.938,-66.593],[169.727,-66.969],[169.51,-67.344],[169.286,-67.718],[168.82,-68.183],[168.334,-68.646],[167.828,-69.108],[167.3,-69.568],[166.716,-70.025],[166.105,-70.48],[165.466,-70.933],[164.797,-71.384],[164.602,-71.64],[164.402,-71.896],[165.155,-72.312],[165.944,-72.726],[166.229,-73.138],[166.528,-73.549],[166.842,-73.96],[167.172,-74.37],[167.519,-74.78],[167.885,-75.189]]}},{"type":"Feature","properties":{"boundary_type":"ridge","feature_type":"gpml:MidOceanRidge","polarity":null,"overriding_plate_id":null,"subducting_plate_id":null,"plate_ids":[498,701],"name":"Junction Synthetic MOR"},"geometry":{"type":"LineString","coordinates":[[124.671,-28.784],[125.22,-28.854],[125.77,-28.922],[126.321,-28.987],[126.873,-29.05],[127.425,-29.111],[127.978,-29.17],[128.531,-29.226],[129.085,-29.28],[129.64,-29.332],[130.195,-29.382],[130.751,-29.429],[131.307,-29.474],[131.864,-29.516],[132.421,-29.557],[132.979,-29.595],[133.537,-29.63],[134.095,-29.663],[134.654,-29.694],[134.645,-30.158],[134.637,-30.622],[134.628,-31.086],[134.62,-31.55],[134.611,-32.013],[134.602,-32.477],[134.593,-32.941],[134.584,-33.405],[134.575,-33.869],[134.566,-34.332],[134.557,-34.796],[135.152,-34.823],[135.747,-34.846],[136.342,-34.867],[136.938,-34.885],[137.534,-34.9],[138.13,-34.912],[138.727,-34.921],[139.323,-34.927],[139.92,-34.93],[140.516,-34.931],[141.113,-34.928],[141.709,-34.923],[142.306,-34.914],[142.35,-35.37],[142.394,-35.827],[142.439,-36.283],[142.485,-36.739],[143.099,-36.713],[143.713,-36.684],[144.326,-36.652],[144.939,-36.617],[145.551,-36.579],[146.162,-36.537],[146.773,-36.493],[147.383,-36.445],[147.992,-36.395],[148.601,-36.341]]}},{"type":"Feature","properties":{"boundary_type":"subduction","feature_type":"gpml:SubductionZone","polarity":"Left","overriding_plate_id":701,"subducting_plate_id":505,"plate_ids":[505,701],"name":"Subduction North Tethys"},"geometry":{"type":"LineString","coordinates":[[53.901,25.827],[54.294,26.082],[54.688,26.335],[55.085,26.588],[55.483,26.839],[55.852,27.121],[56.222,27.402],[56.595,27.682],[56.97,27.961],[57.346,28.24],[57.867,28.261],[58.389,28.281],[58.911,28.299],[59.433,28.315],[59.955,28.329],[60.477,28.341],[61.03,28.293],[61.582,28.243],[62.133,28.191],[62.684,28.137],[63.234,28.08],[63.722,28.276],[64.212,28.47],[64.704,28.663],[65.198,28.853],[65.693,29.042],[66.19,29.229],[66.595,29.364],[67.0,29.499],[67.407,29.632],[67.815,29.763],[68.224,29.54],[68.632,29.315],[69.037,29.089],[69.267,28.907]]}},{"type":"Feature","properties":{"boundary_type":"transform","feature_type":"gpml:Transform","polarity":null,"overriding_plate_id":null,"subducting_plate_id":null,"plate_ids":[505,701],"name":""},"geometry":{"type":"LineString","coordinates":[[53.901,25.827],[54.193,25.416],[54.483,25.005],[54.77,24.593],[55.056,24.18],[55.341,23.767],[55.623,23.354],[55.904,22.94],[56.183,22.525],[56.46,22.11],[56.735,21.694],[57.009,21.278],[57.282,20.862],[57.553,20.445],[57.794,20.04],[58.034,19.635],[58.273,19.23],[58.511,18.825]]}},{"type":"Feature","properties":{"boundary_type":"ridge","feature_type":"gpml:MidOceanRidge","polarity":null,"overriding_plate_id":null,"subducting_plate_id":null,"plate_ids":[505,701],"name":"Vardar ocean ridge"},"geometry":{"type":"LineString","coordinates":[[34.818,14.582],[34.872,14.515],[35.2,14.133],[35.526,13.749],[35.852,13.366],[36.176,12.981],[36.499,12.597],[36.822,12.212],[37.143,11.827],[37.464,11.441],[37.784,11.055],[38.103,10.668],[38.421,10.282],[38.738,9.895],[39.054,9.508],[39.37,9.12],[39.685,8.732],[40.0,8.344],[40.308,8.573],[40.616,8.802],[40.925,9.03],[41.214,8.721],[41.503,8.412],[41.791,8.102],[42.079,7.792],[42.366,7.482],[42.653,7.172],[43.042,7.452],[43.432,7.732],[43.822,8.012],[44.126,7.622],[44.43,7.231],[44.734,6.84],[45.036,6.449],[45.339,6.058],[45.641,5.667],[45.942,5.275],[46.243,4.884],[46.544,4.492],[46.858,4.119],[47.171,3.747],[47.484,3.374],[47.797,3.001],[48.109,2.628],[48.422,2.255],[48.734,1.882],[49.046,1.509],[49.358,1.136],[49.67,0.763],[49.267,0.495],[48.865,0.228],[48.462,-0.04],[48.059,-0.307],[47.656,-0.574],[47.254,-0.842],[46.851,-1.109],[46.448,-1.376],[46.045,-1.643],[45.642,-1.91],[45.239,-2.177],[44.835,-2.444]]}},{"type":"Feature","properties":{"boundary_type":"ridge","feature_type":"gpml:MidOceanRidge","polarity":null,"overriding_plate_id":null,"subducting_plate_id":null,"plate_ids":[505,701],"name":"Lhasa and Qiangtang (Cimmerian Terranes)-India MOR"},"geometry":{"type":"LineString","coordinates":[[60.51,-30.624],[60.811,-30.885],[61.115,-31.145],[61.42,-31.405],[61.86,-31.092],[62.298,-30.779],[62.694,-31.135],[63.093,-31.49],[63.495,-31.843],[63.9,-32.195],[64.308,-32.546],[64.72,-32.896],[65.134,-33.244],[65.552,-33.591],[65.974,-33.937],[66.398,-34.281],[66.827,-34.623],[67.258,-34.964],[67.694,-35.304],[68.133,-35.642],[68.575,-35.978],[69.022,-36.313],[69.472,-36.646],[69.926,-36.977],[70.385,-37.307],[70.847,-37.635],[71.313,-37.961],[71.784,-38.285],[72.258,-38.607],[72.737,-38.927],[73.221,-39.245],[73.708,-39.562],[74.2,-39.876],[74.697,-40.188],[75.198,-40.498],[75.704,-40.806],[76.215,-41.111],[76.73,-41.415],[77.25,-41.716],[77.028,-42.018],[76.804,-42.32],[76.578,-42.621],[77.176,-42.841],[77.778,-43.057],[78.384,-43.271],[78.995,-43.481],[79.609,-43.687],[80.228,-43.891],[80.852,-44.091],[81.479,-44.288],[82.11,-44.481],[82.746,-44.67],[83.386,-44.857],[84.03,-45.039],[84.678,-45.218],[85.33,-45.393],[85.977,-45.576],[86.629,-45.754],[87.284,-45.929],[87.944,-46.1],[88.608,-46.267],[89.276,-46.431],[89.948,-46.59],[90.624,-46.745],[91.303,-46.897],[91.987,-47.044]]}},{"type":"Feature","properties":{"boundary_type":"ridge","feature_type":"gpml:MidOceanRidge","polarity":null,"overriding_plate_id":null,"subducting_plate_id":null,"plate_ids":[505,701],"name":"Iran and Afghanistan (Cimmerian Terranes)-Arabia MOR"},"geometry":{"type":"LineString","coordinates":[[44.835,-2.444],[45.1,-2.856],[45.366,-3.267],[45.631,-3.678],[45.897,-4.089],[46.163,-4.5],[46.429,-4.911],[46.696,-5.322],[46.963,-5.732],[47.23,-6.143],[47.498,-6.554],[47.766,-6.964],[48.035,-7.374],[48.304,-7.784],[48.574,-8.194],[48.844,-8.603],[49.115,-9.013],[49.386,-9.422],[49.658,-9.831],[49.931,-10.24],[50.205,-10.649],[50.479,-11.057],[50.754,-11.465],[51.03,-11.873],[51.306,-12.28],[50.983,-12.561],[50.658,-12.84],[50.972,-13.223],[51.286,-13.604],[51.602,-13.986],[51.919,-14.367],[52.236,-14.747],[52.555,-15.127],[52.875,-15.507],[53.196,-15.886],[53.519,-16.265],[53.842,-16.643],[54.167,-17.021],[54.493,-17.398],[54.821,-17.775],[54.493,-18.12],[54.165,-18.464],[54.51,-18.828],[54.857,-19.191],[55.205,-19.554],[55.555,-19.916],[55.907,-20.278],[56.26,-20.638],[56.615,-20.998],[56.971,-21.358],[57.329,-21.716],[57.689,-22.074],[58.051,-22.431],[58.415,-22.787],[58.781,-23.142],[59.148,-23.497],[59.518,-23.85],[59.889,-24.203],[60.263,-24.555],[60.639,-24.905],[61.017,-25.255],[61.397,-25.604],[61.779,-25.952],[62.164,-26.299],[62.55,-26.645],[62.94,-26.99],[63.331,-27.334],[63.725,-27.676],[63.377,-28.008],[63.026,-28.338],[62.674,-28.667],[62.319,-28.996],[61.962,-29.323],[61.602,-29.65],[61.24,-29.976],[60.876,-30.3],[60.51,-30.624]]}},{"type":"Feature","properties":{"boundary_type":"transform","feature_type":"gpml:Transform","polarity":null,"overriding_plate_id":null,"subducting_plate_id":null,"plate_ids":[505,60301],"name":"Indochina transform"},"geometry":{"type":"LineString","coordinates":[[92.251,-13.399],[92.706,-13.206],[93.16,-13.013],[93.614,-12.818],[94.068,-12.609],[94.521,-12.4],[94.974,-12.189],[95.425,-11.978],[95.876,-11.767],[96.327,-11.554],[96.777,-11.341],[97.226,-11.127]]}},{"type":"Feature","properties":{"boundary_type":"transform","feature_type":"gpml:Transform","polarity":null,"overriding_plate_id":null,"subducting_plate_id":null,"plate_ids":[505,602],"name":"Indochina transform"},"geometry":{"type":"LineString","coordinates":[[97.226,-11.127],[97.669,-10.915],[98.111,-10.702],[98.553,-10.489],[98.994,-10.275],[99.435,-10.061],[99.875,-9.845],[100.314,-9.63],[100.753,-9.414],[101.192,-9.197],[101.63,-8.98],[102.067,-8.762],[102.504,-8.544],[102.94,-8.325],[103.23,-8.127],[103.52,-7.929]]}},{"type":"Feature","properties":{"boundary_type":"ridge","feature_type":"gpml:MidOceanRidge","polarity":null,"overriding_plate_id":null,"subducting_plate_id":null,"plate_ids":[505,701],"name":"MesoTethys MOR (Sibumasu)"},"geometry":{"type":"LineString","coordinates":[[91.987,-47.044],[92.44,-46.654],[92.887,-46.263],[93.328,-45.869],[93.762,-45.474],[94.191,-45.078],[94.613,-44.68],[95.03,-44.28],[95.441,-43.879],[95.847,-43.476],[96.247,-43.072],[96.642,-42.666],[97.031,-42.259],[97.416,-41.851],[97.796,-41.442],[98.314,-41.691],[98.835,-41.937],[99.36,-42.182],[99.89,-42.423],[100.423,-42.663],[100.961,-42.9],[101.503,-43.134],[102.048,-43.366],[102.381,-42.964],[102.71,-42.562],[103.034,-42.158],[103.354,-41.754],[103.67,-41.349],[103.983,-40.943],[104.291,-40.536],[104.869,-40.659],[105.448,-40.78],[106.03,-40.898],[106.614,-41.013],[107.199,-41.125],[107.787,-41.234],[108.377,-41.34],[108.968,-41.442],[109.562,-41.542],[110.157,-41.639],[110.429,-41.196],[110.697,-40.753],[110.962,-40.309],[111.223,-39.864],[111.481,-39.419],[111.736,-38.974],[111.987,-38.527],[112.236,-38.081],[112.481,-37.633],[112.723,-37.185],[112.963,-36.737],[113.487,-36.854],[114.012,-36.969],[114.539,-37.082],[115.067,-37.192],[115.597,-37.3],[116.128,-37.406],[116.661,-37.509],[116.86,-37.066],[117.056,-36.623],[117.251,-36.18],[117.443,-35.736],[117.633,-35.292],[117.821,-34.848],[118.006,-34.403],[118.19,-33.958],[118.372,-33.513],[118.552,-33.068],[119.043,-33.142],[119.535,-33.214],[120.028,-33.284],[120.521,-33.352],[121.015,-33.419],[121.51,-33.483],[121.613,-32.996],[121.714,-32.509],[121.814,-32.023],[121.913,-31.536],[122.011,-31.049],[122.54,-31.084],[123.07,-31.117],[123.6,-31.148],[124.13,-31.177],[124.259,-30.805],[124.386,-30.433],[124.513,-30.061]]}},{"type":"Feature","properties":{"boundary_type":"subduction","feature_type":"gpml:SubductionZone","polarity":"Right","overriding_plate_id":16111,"subducting_plate_id":902,"plate_ids":[902,16111],"name":"Alexander/Wrangellia SZ"},"geometry":{"type":"LineString","coordinates":[[-79.637,22.914],[-80.078,23.173],[-80.521,23.431],[-80.965,23.687],[-81.412,23.942],[-81.86,24.196],[-82.309,24.449],[-82.761,24.7],[-83.215,24.95],[-83.67,25.198],[-84.127,25.445],[-84.586,25.691],[-85.047,25.935],[-85.51,26.178],[-85.975,26.419],[-86.441,26.659],[-86.916,26.919],[-87.392,27.177],[-87.871,27.434],[-88.352,27.689],[-88.835,27.942],[-89.32,28.194],[-89.808,28.444],[-90.298,28.692],[-90.79,28.939],[-91.285,29.183],[-91.782,29.426],[-92.244,29.648],[-92.709,29.867],[-93.175,30.085],[-93.643,30.302],[-94.113,30.517],[-94.586,30.73],[-95.06,30.941],[-95.537,31.151],[-95.944,31.433],[-96.354,31.713],[-96.767,31.993],[-97.182,32.271],[-97.599,32.548],[-98.019,32.823],[-98.442,33.097],[-98.867,33.369],[-99.224,33.689],[-99.584,34.007],[-99.947,34.324],[-100.312,34.64],[-100.681,34.955],[-100.981,35.326],[-101.284,35.697],[-101.59,36.066],[-101.898,36.435],[-102.21,36.803],[-102.525,37.17],[-102.842,37.536],[-103.163,37.901],[-103.487,38.266],[-103.676,38.619],[-103.866,38.972],[-104.059,39.325]]}},{"type":"Feature","properties":{"boundary_type":"subduction","feature_type":"gpml:SubductionZone","polarity":"Right","overriding_plate_id":16104,"subducting_plate_id":16111,"plate_ids":[16104,16111],"name":"YTT SZ to close Slide Mountain Ocean"},"geometry":{"type":"LineString","coordinates":[[-50.154,48.722],[-49.603,48.382],[-49.058,48.039],[-48.521,47.694],[-47.991,47.346],[-47.468,46.996],[-46.952,46.644]]}},{"type":"Feature","properties":{"boundary_type":"subduction","feature_type":"gpml:SubductionZone","polarity":"Right","overriding_plate_id":16104,"subducting_plate_id":701,"plate_ids":[701,16104],"name":"YTT SZ to close Slide Mountain Ocean"},"geometry":{"type":"LineString","coordinates":[[-46.952,46.644],[-46.59,46.393],[-46.232,46.14],[-45.877,45.887],[-45.388,45.537],[-44.905,45.184],[-44.428,44.83],[-43.957,44.473],[-43.491,44.115],[-43.032,43.754],[-42.577,43.392],[-42.128,43.028],[-41.8,42.637],[-41.476,42.245],[-41.155,41.852],[-40.839,41.459],[-40.526,41.064],[-40.218,40.669],[-39.912,40.272],[-39.611,39.875],[-39.264,39.455],[-38.921,39.034],[-38.583,38.611],[-38.248,38.188],[-37.917,37.764],[-37.59,37.338],[-37.267,36.912],[-36.947,36.485],[-36.631,36.057],[-36.341,35.655],[-36.055,35.252],[-35.771,34.849],[-35.49,34.445]]}},{"type":"Feature","properties":{"boundary_type":"subduction","feature_type":"gpml:SubductionZone","polarity":"Left","overriding_plate_id":701,"subducting_plate_id":601,"plate_ids":[601,701],"name":"Mongol-Okhotsk subducting beneath Siberia"},"geometry":{"type":"LineString","coordinates":[[88.774,72.151],[88.99,72.616],[89.218,73.08],[89.458,73.544],[89.711,74.007],[89.98,74.471],[90.264,74.934],[90.566,75.397],[90.887,75.859],[91.23,76.321],[91.596,76.782],[91.988,77.243],[92.408,77.703],[92.861,78.162],[93.24,78.642],[93.652,79.122],[94.102,79.6],[94.594,80.079],[95.136,80.556],[95.734,81.033],[96.4,81.508],[97.143,81.982],[97.979,82.455],[98.926,82.926],[100.007,83.394],[101.252,83.86],[102.7,84.323],[104.402,84.782],[106.429,85.235],[108.83,85.673],[111.765,86.103],[115.414,86.519],[120.028,86.918],[125.961,87.291],[133.672,87.627],[143.664,87.906],[156.204,88.104],[170.781,88.193],[-174.19,88.159],[-160.591,88.008],[-149.438,87.762],[-140.745,87.45],[-132.792,87.193],[-126.275,86.891],[-120.965,86.556],[-116.625,86.197],[-113.049,85.82]]}},{"type":"Feature","properties":{"boundary_type":"subduction","feature_type":"gpml:SubductionZone","polarity":"Left","overriding_plate_id":701,"subducting_plate_id":902,"plate_ids":[701,902],"name":"Mongol-Okhotsk subducting beneath Siberia"},"geometry":{"type":"LineString","coordinates":[[-113.049,85.82],[-110.055,85.427],[-107.54,85.024],[-105.405,84.612],[-103.574,84.195],[-101.989,83.772],[-100.606,83.345],[-99.39,82.914],[-98.313,82.481],[-96.78,82.034],[-95.41,81.583],[-94.179,81.127],[-93.067,80.668],[-92.06,80.205],[-91.143,79.74],[-90.304,79.273],[-89.535,78.803],[-88.828,78.332],[-88.174,77.859],[-87.217,77.5],[-86.312,77.138],[-85.456,76.773],[-84.646,76.406],[-83.877,76.036],[-82.541,75.683],[-81.268,75.323],[-80.055,74.956],[-78.899,74.583],[-77.797,74.205],[-76.745,73.821],[-75.741,73.432],[-74.783,73.039],[-73.866,72.641],[-72.99,72.24],[-72.151,71.834],[-71.348,71.426],[-70.579,71.014],[-69.602,70.717],[-68.655,70.416],[-67.735,70.111],[-66.843,69.8],[-65.976,69.485],[-65.134,69.166],[-64.317,68.843],[-63.544,68.527],[-62.792,68.208],[-62.061,67.885],[-61.349,67.559],[-60.658,67.229],[-59.985,66.897],[-59.119,66.581],[-58.276,66.261],[-57.453,65.935],[-56.652,65.606],[-55.87,65.272],[-55.109,64.935]]}},{"type":"Feature","properties":{"boundary_type":"subduction","feature_type":"gpml:SubductionZone","polarity":"Left","overriding_plate_id":701,"subducting_plate_id":16111,"plate_ids":[701,16111],"name":"Mongol-Okhotsk subducting beneath Siberia"},"geometry":{"type":"LineString","coordinates":[[-55.109,64.935],[-54.478,64.646],[-53.862,64.354],[-53.196,64.012],[-52.547,63.667],[-51.913,63.319],[-51.295,62.968],[-50.691,62.615],[-50.101,62.259],[-49.526,61.9],[-48.963,61.539],[-48.414,61.176]]}},{"type":"Feature","properties":{"boundary_type":"transform","feature_type":"gpml:Transform","polarity":null,"overriding_plate_id":null,"subducting_plate_id":null,"plate_ids":[902,16111],"name":"Transform near Alexander plate"},"geometry":{"type":"LineString","coordinates":[[-82.831,58.287],[-82.101,58.588],[-81.359,58.885],[-80.603,59.178],[-79.835,59.466],[-79.053,59.75],[-78.259,60.029],[-77.45,60.303],[-76.629,60.572],[-75.793,60.836],[-74.944,61.095],[-74.081,61.349],[-73.204,61.596],[-72.313,61.838],[-71.408,62.075],[-70.489,62.305],[-69.556,62.529],[-68.609,62.747],[-67.648,62.958],[-66.674,63.163],[-65.686,63.361],[-64.684,63.552],[-63.669,63.736],[-62.641,63.912],[-61.601,64.082],[-60.548,64.243],[-59.482,64.398],[-58.405,64.544],[-57.317,64.682],[-56.218,64.813],[-55.109,64.935]]}},{"type":"Feature","properties":{"boundary_type":"subduction","feature_type":"gpml:SubductionZone","polarity":"Right","overriding_plate_id":701,"subducting_plate_id":919,"plate_ids":[701,919],"name":"SAM subduction zone prior to 150Ma"},"geometry":{"type":"LineString","coordinates":[[-46.915,-42.803],[-46.518,-42.46],[-46.125,-42.116],[-45.737,-41.771],[-45.353,-41.424],[-44.972,-41.076],[-44.596,-40.727],[-44.334,-40.285],[-44.075,-39.843],[-43.819,-39.401],[-43.567,-38.958],[-43.317,-38.514],[-43.071,-38.07],[-42.828,-37.626],[-42.588,-37.18],[-42.35,-36.735],[-42.076,-36.385],[-41.804,-36.035],[-41.535,-35.684],[-41.268,-35.333],[-41.004,-34.981],[-40.787,-34.553],[-40.572,-34.124],[-40.36,-33.694],[-40.15,-33.265],[-39.941,-32.835],[-39.735,-32.405],[-39.53,-31.974],[-39.328,-31.543],[-39.156,-31.157],[-38.986,-30.77],[-38.817,-30.383],[-38.778,-29.941],[-38.739,-29.499],[-38.645,-29.167],[-38.552,-28.836],[-38.595,-28.388],[-38.637,-27.94],[-38.81,-27.468],[-38.981,-26.995],[-39.203,-26.637],[-39.423,-26.279],[-39.642,-25.92],[-39.859,-25.561]]}},{"type":"Feature","properties":{"boundary_type":"subduction","feature_type":"gpml:SubductionZone","polarity":"Right","overriding_plate_id":701,"subducting_plate_id":902,"plate_ids":[701,902],"name":"SAM subduction zone prior to 150Ma"},"geometry":{"type":"LineString","coordinates":[[-39.859,-25.561],[-40.031,-25.276],[-40.202,-24.991],[-40.605,-24.67],[-41.007,-24.348],[-41.258,-23.941],[-41.508,-23.534],[-41.756,-23.127],[-42.003,-22.719],[-42.248,-22.31],[-42.492,-21.902],[-42.734,-21.493],[-42.975,-21.083],[-43.215,-20.674],[-43.353,-20.23],[-43.492,-19.785],[-43.629,-19.341],[-43.766,-18.897],[-43.902,-18.453],[-44.037,-18.008],[-44.172,-17.564],[-44.306,-17.119],[-44.439,-16.674],[-44.571,-16.229],[-44.703,-15.784],[-44.754,-15.304],[-44.804,-14.824],[-44.853,-14.343],[-44.903,-13.863],[-44.952,-13.383],[-45.001,-12.902],[-45.05,-12.422],[-45.099,-11.941],[-44.908,-11.485],[-44.719,-11.029],[-44.529,-10.573],[-44.341,-10.116],[-44.153,-9.66],[-43.965,-9.203],[-43.86,-8.938],[-43.772,-8.697],[-43.65,-8.436],[-43.502,-8.088],[-43.409,-7.895],[-43.324,-7.662],[-43.11,-7.313],[-42.927,-7.003],[-42.735,-6.762],[-42.437,-6.38],[-42.217,-6.07],[-41.989,-5.801],[-41.711,-5.451],[-41.406,-5.174],[-41.122,-4.902],[-40.925,-4.738],[-40.595,-4.468],[-40.229,-4.171],[-39.887,-3.924],[-39.612,-3.781],[-39.326,-3.528],[-39.222,-3.468]]}},{"type":"Feature","properties":{"boundary_type":"subduction","feature_type":"gpml:SubductionZone","polarity":"Right","overriding_plate_id":null,"subducting_plate_id":null,"plate_ids":[701],"name":"Paleotethys Sub."},"geometry":{"type":"LineString","coordinates":[[38.924,17.394],[39.381,17.256],[39.837,17.116],[40.292,16.976],[40.746,16.834],[41.2,16.691],[41.653,16.548],[42.106,16.403],[42.581,16.46],[43.057,16.516],[43.533,16.571],[44.01,16.625],[44.487,16.677],[44.964,16.729],[45.441,16.779],[45.932,16.814],[46.423,16.847],[46.914,16.879],[47.406,16.909],[47.897,16.939],[48.389,16.968],[48.881,16.995],[49.373,17.021],[49.865,17.046],[50.331,17.087],[50.798,17.127],[51.265,17.167],[51.732,17.205],[52.199,17.242],[52.667,17.278],[53.134,17.313],[53.602,17.346],[54.089,17.5],[54.577,17.652],[55.066,17.803],[55.555,17.953],[56.046,18.101],[56.537,18.248],[57.029,18.394],[57.522,18.539],[58.016,18.683],[58.511,18.825]]}},{"type":"Feature","properties":{"boundary_type":"subduction","feature_type":"gpml:SubductionZone","polarity":"Right","overriding_plate_id":701,"subducting_plate_id":919,"plate_ids":[701,919],"name":"South America trench taken from COB file and RUM"},"geometry":{"type":"LineString","coordinates":[[-53.98,-63.625],[-54.098,-63.535],[-54.339,-63.142],[-54.356,-63.075],[-54.375,-62.698],[-54.324,-62.335],[-54.25,-61.958],[-54.201,-61.628],[-54.156,-61.465],[-54.155,-61.149],[-54.29,-60.745],[-54.387,-60.367],[-54.417,-60.024],[-54.459,-59.723],[-54.429,-59.469],[-54.414,-59.144],[-54.37,-58.785],[-54.153,-58.349],[-53.861,-58.009],[-53.657,-57.805],[-53.427,-57.559],[-53.147,-57.278],[-52.921,-57.058],[-52.697,-56.837],[-52.282,-56.456],[-51.986,-56.131],[-51.761,-55.81],[-51.727,-55.371],[-51.677,-55.091],[-51.636,-54.859],[-51.613,-54.781],[-51.521,-54.529],[-51.414,-54.226],[-51.272,-53.868],[-51.135,-53.57],[-50.984,-53.25],[-50.815,-52.897],[-50.696,-52.639],[-50.549,-52.318],[-50.404,-51.997],[-50.214,-51.581],[-50.026,-51.186],[-49.84,-50.819],[-49.71,-50.563],[-49.581,-50.308],[-49.439,-50.026],[-49.249,-49.569],[-49.141,-49.287],[-48.998,-48.928],[-48.739,-48.651],[-48.568,-48.367],[-48.4,-48.082],[-48.4,-48.082],[-48.287,-47.607],[-48.089,-47.179],[-47.881,-46.83],[-47.676,-46.481],[-47.473,-46.131],[-47.272,-45.781],[-47.21,-45.285],[-47.149,-44.789],[-47.089,-44.292],[-47.03,-43.796],[-46.972,-43.3],[-46.915,-42.803]]}},{"type":"Feature","properties":{"boundary_type":"transform","feature_type":"gpml:Transform","polarity":null,"overriding_plate_id":null,"subducting_plate_id":null,"plate_ids":[701,16111],"name":"Alexander-Pangea transform"},"geometry":{"type":"LineString","coordinates":[[-48.414,61.176],[-47.984,60.805],[-47.563,60.433],[-47.152,60.059],[-46.75,59.684],[-46.357,59.308],[-45.972,58.931],[-45.488,58.511],[-45.016,58.089],[-44.554,57.666],[-44.103,57.241],[-43.663,56.814],[-43.232,56.386],[-42.811,55.956],[-42.4,55.525],[-41.997,55.093],[-41.603,54.659],[-41.217,54.224],[-40.845,53.789],[-40.48,53.354],[-40.123,52.917],[-39.773,52.479],[-39.43,52.04],[-39.093,51.6]]}},{"type":"Feature","properties":{"boundary_type":"subduction","feature_type":"gpml:SubductionZone","polarity":"Left","overriding_plate_id":16111,"subducting_plate_id":701,"plate_ids":[701,16111],"name":"northern extension Yukon-Tanana SZ, closure of Slide Mountain Ocean"},"geometry":{"type":"LineString","coordinates":[[-46.952,46.644],[-46.584,47.048],[-46.21,47.452],[-45.83,47.854],[-45.444,48.255],[-44.903,48.573],[-44.354,48.888],[-43.799,49.201],[-43.236,49.511],[-42.667,49.818],[-42.09,50.123],[-41.506,50.424],[-40.914,50.723],[-40.315,51.019],[-39.708,51.311],[-39.093,51.6]]}},{"type":"Feature","properties":{"boundary_type":"transform","feature_type":"gpml:Transform","polarity":null,"overriding_plate_id":null,"subducting_plate_id":null,"plate_ids":[902,16111],"name":"Alexander - Farallon transform"},"geometry":{"type":"LineString","coordinates":[[-79.637,22.914],[-79.343,23.238],[-79.048,23.561],[-78.751,23.883],[-78.453,24.205],[-78.153,24.527],[-77.852,24.847],[-77.462,25.197],[-77.069,25.546],[-76.674,25.894],[-76.277,26.241],[-75.877,26.587],[-75.475,26.932],[-75.071,27.275],[-74.664,27.618],[-74.254,27.959],[-73.842,28.299],[-73.427,28.637],[-73.01,28.975],[-72.59,29.311],[-72.167,29.646],[-71.741,29.979],[-71.312,30.311],[-70.881,30.642],[-70.446,30.971],[-70.009,31.299],[-69.568,31.625],[-69.124,31.95],[-68.71,32.276],[-68.292,32.602],[-67.872,32.925],[-67.448,33.247],[-67.021,33.568],[-66.591,33.888],[-66.158,34.206],[-65.722,34.522],[-65.282,34.837],[-64.839,35.15],[-64.392,35.461],[-63.942,35.771],[-63.488,36.079],[-63.031,36.386],[-62.571,36.691],[-62.068,36.947],[-61.561,37.201],[-61.052,37.453],[-60.539,37.703],[-60.022,37.951],[-59.502,38.196],[-58.979,38.439],[-58.452,38.68],[-57.921,38.918],[-57.387,39.154],[-56.849,39.387],[-56.308,39.618],[-55.763,39.847],[-55.214,40.072],[-54.662,40.296],[-54.107,40.516],[-53.547,40.734],[-52.984,40.949],[-52.417,41.162],[-51.847,41.371],[-51.312,41.533],[-50.774,41.693],[-50.234,41.85],[-49.691,42.004],[-49.146,42.156],[-48.598,42.305]]}},{"type":"Feature","properties":{"boundary_type":"subduction","feature_type":"gpml:SubductionZone","polarity":"Right","overriding_plate_id":16104,"subducting_plate_id":902,"plate_ids":[902,16104],"name":"Yukon-Tanana SZ, subduction of Farallon"},"geometry":{"type":"LineString","coordinates":[[-38.274,30.659],[-38.325,30.991],[-38.464,31.316],[-38.604,31.641],[-38.744,31.966],[-39.087,32.306],[-39.432,32.646],[-39.779,32.984],[-40.129,33.321],[-40.482,33.658],[-40.838,33.993],[-41.197,34.327],[-41.558,34.661],[-41.881,35.054],[-42.207,35.446],[-42.536,35.837],[-42.868,36.228],[-43.203,36.617],[-43.542,37.006],[-43.885,37.394],[-44.231,37.78],[-44.581,38.166],[-44.934,38.551],[-45.291,38.934],[-45.643,39.313],[-45.998,39.691],[-46.357,40.068],[-46.72,40.444],[-47.087,40.819],[-47.458,41.192],[-47.834,41.564],[-48.213,41.935],[-48.598,42.305]]}},{"type":"Feature","properties":{"boundary_type":"subduction","feature_type":"gpml:SubductionZone","polarity":"Right","overriding_plate_id":16104,"subducting_plate_id":16111,"plate_ids":[16104,16111],"name":"Yukon-Tanana SZ, subduction of Farallon"},"geometry":{"type":"LineString","coordinates":[[-48.598,42.305],[-48.907,42.599],[-49.219,42.891],[-49.534,43.183],[-49.873,43.547],[-50.216,43.911],[-50.564,44.273],[-50.915,44.635],[-51.271,44.995],[-51.632,45.354],[-51.997,45.713],[-52.28,46.159],[-52.568,46.605],[-52.861,47.051],[-53.158,47.495],[-53.273,47.677]]}},{"type":"Feature","properties":{"boundary_type":"other","feature_type":"gpml:OrogenicBelt","polarity":null,"overriding_plate_id":null,"subducting_plate_id":null,"plate_ids":[701,16104],"name":"Yukon-Tanana orogenic belt"},"geometry":{"type":"LineString","coordinates":[[-35.49,34.445],[-35.438,34.038],[-35.387,33.632],[-35.337,33.225],[-35.287,32.819],[-35.238,32.412],[-35.307,32.027],[-35.376,31.642],[-35.444,31.257],[-35.512,30.872],[-35.878,30.595],[-36.243,30.317],[-36.606,30.038],[-36.966,29.759],[-37.464,29.604],[-37.961,29.448],[-38.456,29.289],[-38.949,29.129],[-39.441,28.967],[-39.931,28.804]]}},{"type":"Feature","properties":{"boundary_type":"subduction","feature_type":"gpml:SubductionZone","polarity":"Right","overriding_plate_id":701,"subducting_plate_id":902,"plate_ids":[701,902],"name":"SZ along western NAM post East Klamath collision"},"geometry":{"type":"LineString","coordinates":[[-41.064,13.278],[-41.214,13.733],[-41.364,14.188],[-41.515,14.643],[-41.666,15.098],[-41.818,15.553],[-41.971,16.008],[-42.124,16.462],[-42.258,16.894],[-42.391,17.326],[-42.526,17.758],[-42.661,18.19],[-42.797,18.622],[-42.933,19.054],[-43.07,19.485],[-43.208,19.917],[-43.221,20.374],[-43.234,20.831],[-43.247,21.288],[-43.26,21.745],[-43.273,22.202],[-43.286,22.659],[-43.299,23.116],[-43.313,23.573],[-43.138,23.984],[-42.963,24.395],[-42.786,24.806],[-42.608,25.217],[-42.429,25.627],[-42.248,26.037],[-41.931,26.428],[-41.611,26.817],[-41.289,27.206],[-40.964,27.595],[-40.638,27.982],[-40.309,28.369],[-40.121,28.586],[-39.931,28.804]]}},{"type":"Feature","properties":{"boundary_type":"subduction","feature_type":"gpml:SubductionZone","polarity":"Right","overriding_plate_id":16104,"subducting_plate_id":902,"plate_ids":[902,16104],"name":"SZ along western NAM post East Klamath collision"},"geometry":{"type":"LineString","coordinates":[[-39.931,28.804],[-39.605,29.177],[-39.276,29.548],[-38.944,29.919],[-38.61,30.29],[-38.274,30.659]]}},{"type":"Feature","properties":{"boundary_type":"transform","feature_type":"gpml:Transform","polarity":null,"overriding_plate_id":null,"subducting_plate_id":null,"plate_ids":[16104,16111],"name":"Yukon-Tanana - Farallon transform"},"geometry":{"type":"LineString","coordinates":[[-53.273,47.677],[-52.833,47.852],[-52.391,48.025],[-51.945,48.196],[-51.352,48.375],[-50.755,48.55],[-50.154,48.722]]}},{"type":"Feature","properties":{"boundary_type":"ridge","feature_type":"gpml:MidOceanRidge","polarity":null,"overriding_plate_id":null,"subducting_plate_id":null,"plate_ids":[919,926],"name":"Izanagi-Farallon MOR"},"geometry":{"type":"LineString","coordinates":[[-130.786,-9.566],[-130.906,-9.242],[-131.026,-8.918]]}},{"type":"Feature","properties":{"boundary_type":"ridge","feature_type":"gpml:MidOceanRidge","polarity":null,"overriding_plate_id":null,"subducting_plate_id":null,"plate_ids":[902,926],"name":"Izanagi-Farallon MOR"},"geometry":{"type":"LineString","coordinates":[[-131.026,-8.918],[-131.193,-8.469],[-131.359,-8.019],[-131.524,-7.569],[-131.689,-7.119],[-131.854,-6.653],[-132.018,-6.187],[-132.181,-5.721],[-132.345,-5.255],[-132.508,-4.789],[-132.671,-4.323],[-132.833,-3.857],[-132.996,-3.391],[-133.158,-2.925],[-133.32,-2.459],[-133.483,-1.992],[-133.645,-1.526],[-133.807,-1.06],[-133.968,-0.594],[-134.13,-0.127],[-134.292,0.339],[-134.454,0.805],[-134.616,1.271],[-134.778,1.738],[-134.94,2.204],[-135.102,2.67],[-135.265,3.136],[-135.427,3.602],[-135.59,4.069],[-135.752,4.535],[-135.915,5.001],[-136.079,5.467],[-136.242,5.933],[-136.406,6.399],[-136.57,6.865],[-136.734,7.33],[-136.899,7.796],[-136.486,7.955],[-136.074,8.114],[-135.66,8.272],[-135.247,8.429],[-134.833,8.587],[-134.419,8.744],[-134.004,8.9],[-134.188,9.362],[-134.372,9.824],[-134.557,10.286],[-134.742,10.748],[-134.928,11.21],[-135.115,11.671],[-135.302,12.133],[-135.49,12.594],[-135.678,13.055],[-135.867,13.516],[-136.057,13.977],[-136.248,14.438],[-136.439,14.899],[-136.631,15.359],[-136.824,15.82],[-137.018,16.28],[-137.213,16.74],[-137.409,17.2],[-137.606,17.659],[-137.804,18.119],[-138.003,18.578],[-138.203,19.037],[-138.404,19.496],[-138.606,19.954],[-138.809,20.413],[-139.014,20.871],[-139.219,21.329],[-139.427,21.786],[-139.635,22.244],[-139.845,22.701],[-140.056,23.158],[-140.269,23.614],[-140.483,24.07],[-140.698,24.526],[-140.916,24.982],[-141.135,25.437],[-141.355,25.892],[-141.577,26.347],[-141.801,26.801],[-142.027,27.255],[-141.523,27.475],[-141.016,27.694],[-140.508,27.91],[-139.997,28.125],[-139.485,28.338],[-138.97,28.549],[-138.454,28.758],[-138.686,29.214],[-138.92,29.67],[-139.157,30.126],[-139.395,30.581],[-139.636,31.036],[-139.88,31.49],[-140.125,31.944],[-140.373,32.397],[-140.624,32.85],[-140.877,33.303],[-141.133,33.754],[-141.391,34.206],[-141.652,34.656],[-141.916,35.107],[-142.183,35.556],[-142.453,36.005],[-142.726,36.454],[-143.003,36.901],[-143.282,37.349],[-143.565,37.795],[-143.851,38.241],[-144.141,38.686],[-144.435,39.13],[-144.732,39.574],[-145.033,40.017],[-145.338,40.459],[-145.647,40.9],[-145.96,41.34],[-146.278,41.78],[-146.599,42.219],[-146.926,42.656],[-147.256,43.093],[-147.592,43.529],[-147.933,43.964],[-148.278,44.398],[-148.629,44.83],[-148.985,45.262],[-149.346,45.693],[-149.713,46.122],[-150.086,46.55],[-149.555,46.811],[-149.018,47.07],[-148.476,47.326],[-147.929,47.579],[-147.377,47.83],[-146.819,48.078],[-146.256,48.324],[-146.658,48.741],[-147.067,49.157],[-147.483,49.572],[-147.906,49.985],[-148.337,50.397],[-148.775,50.807],[-149.221,51.215],[-149.675,51.622],[-150.137,52.027],[-150.607,52.43],[-151.086,52.831],[-151.574,53.23],[-152.071,53.627],[-152.577,54.022],[-153.094,54.415],[-153.62,54.806],[-154.156,55.194],[-154.703,55.58],[-155.261,55.963],[-155.83,56.344],[-156.41,56.722],[-157.002,57.098],[-157.606,57.47],[-158.223,57.84],[-158.852,58.206],[-159.494,58.57],[-160.15,58.93],[-160.819,59.287],[-161.503,59.64],[-162.201,59.99],[-162.914,60.335],[-163.642,60.677],[-164.385,61.015],[-165.145,61.349],[-165.921,61.678],[-166.713,62.003],[-167.522,62.324],[-168.349,62.639],[-169.193,62.95],[-170.056,63.255],[-169.619,63.645],[-169.171,64.034],[-168.71,64.422],[-168.236,64.808],[-167.748,65.192],[-167.246,65.575],[-166.728,65.956],[-167.551,66.215],[-168.39,66.47],[-169.246,66.72],[-170.12,66.966]]}},{"type":"Feature","properties":{"boundary_type":"ridge","feature_type":"gpml:MidOceanRidge","polarity":null,"overriding_plate_id":null,"subducting_plate_id":null,"plate_ids":[902,919],"name":"Phoenix-Farallon MOR"},"geometry":{"type":"LineString","coordinates":[[-131.026,-8.918],[-130.543,-9.052],[-130.058,-9.186],[-129.574,-9.318],[-129.089,-9.45],[-128.604,-9.582],[-128.118,-9.713],[-127.633,-9.843],[-127.146,-9.972],[-126.659,-10.101],[-126.172,-10.229],[-125.685,-10.356],[-125.197,-10.482],[-124.709,-10.608],[-124.22,-10.733],[-123.731,-10.857],[-123.241,-10.981],[-122.752,-11.103],[-122.261,-11.225],[-121.77,-11.345],[-121.278,-11.464],[-120.786,-11.582],[-120.294,-11.699],[-119.801,-11.815],[-119.308,-11.93],[-118.814,-12.045],[-118.32,-12.159],[-117.825,-12.272],[-117.33,-12.384],[-116.835,-12.495],[-116.339,-12.605],[-115.843,-12.714],[-115.346,-12.822],[-114.849,-12.93],[-114.352,-13.036],[-113.854,-13.142],[-113.355,-13.246],[-112.857,-13.35],[-112.357,-13.452],[-111.858,-13.554],[-111.358,-13.655],[-110.857,-13.754],[-110.356,-13.853],[-109.855,-13.95],[-109.353,-14.047],[-108.851,-14.143],[-108.348,-14.237],[-107.845,-14.33],[-107.342,-14.423],[-106.838,-14.514],[-106.334,-14.604],[-105.829,-14.693],[-105.324,-14.782],[-104.818,-14.868],[-104.312,-14.954],[-103.806,-15.039],[-103.299,-15.123],[-102.792,-15.205],[-102.285,-15.286],[-101.777,-15.367],[-101.269,-15.446],[-100.76,-15.524],[-100.251,-15.6],[-99.741,-15.676],[-99.232,-15.75],[-98.722,-15.823],[-98.211,-15.895],[-97.7,-15.966],[-97.189,-16.036],[-96.677,-16.104],[-96.753,-16.56],[-96.83,-17.016],[-96.907,-17.472],[-96.984,-17.927],[-97.061,-18.383],[-97.139,-18.839],[-97.218,-19.294],[-97.297,-19.75],[-97.376,-20.206],[-97.456,-20.661],[-97.536,-21.117],[-97.617,-21.572],[-97.698,-22.027],[-97.177,-22.086],[-96.656,-22.143],[-96.134,-22.198],[-95.612,-22.252],[-95.09,-22.304],[-94.567,-22.354],[-94.044,-22.403],[-93.52,-22.45],[-92.996,-22.495],[-92.472,-22.539],[-91.948,-22.581],[-91.423,-22.621],[-90.898,-22.659],[-90.372,-22.696],[-89.846,-22.731],[-89.32,-22.765],[-88.794,-22.796],[-88.268,-22.826],[-87.742,-22.855],[-87.215,-22.881],[-86.689,-22.906],[-86.162,-22.929],[-85.635,-22.951],[-85.107,-22.97],[-84.58,-22.988],[-84.053,-23.004],[-83.525,-23.019],[-82.997,-23.032],[-82.469,-23.043],[-81.941,-23.052],[-81.414,-23.059],[-80.886,-23.065],[-80.357,-23.069],[-79.829,-23.071],[-79.301,-23.071],[-78.773,-23.07],[-78.245,-23.067],[-77.717,-23.062],[-77.189,-23.055],[-76.661,-23.047],[-76.133,-23.037],[-76.091,-23.525],[-76.048,-24.014],[-76.005,-24.502],[-75.961,-24.991],[-75.917,-25.479],[-75.873,-25.968],[-75.828,-26.456],[-75.783,-26.945],[-75.738,-27.433],[-75.692,-27.921],[-75.646,-28.41],[-75.599,-28.898],[-75.042,-28.85],[-74.485,-28.8],[-73.929,-28.747],[-73.373,-28.693],[-72.818,-28.635],[-72.263,-28.576],[-71.709,-28.514],[-71.156,-28.451],[-70.604,-28.385],[-70.052,-28.316],[-69.501,-28.246],[-68.95,-28.173],[-68.401,-28.098],[-67.852,-28.021],[-67.304,-27.942],[-66.756,-27.86],[-66.21,-27.777],[-65.664,-27.691],[-65.12,-27.603],[-64.576,-27.513],[-64.033,-27.421],[-63.491,-27.327],[-62.95,-27.23],[-62.41,-27.132],[-61.871,-27.031],[-61.333,-26.929],[-60.795,-26.824],[-60.259,-26.718],[-59.724,-26.609],[-59.19,-26.499],[-58.993,-26.948],[-58.795,-27.397],[-58.595,-27.846],[-58.394,-28.294],[-58.191,-28.743],[-57.986,-29.191],[-57.779,-29.638],[-57.571,-30.085],[-57.36,-30.532],[-57.148,-30.979],[-56.598,-30.849],[-56.05,-30.716],[-55.504,-30.581],[-54.959,-30.444],[-54.416,-30.304],[-53.874,-30.162],[-53.334,-30.019],[-52.795,-29.872],[-52.258,-29.724],[-51.723,-29.573],[-51.189,-29.421],[-50.657,-29.266],[-50.126,-29.109],[-49.597,-28.95],[-49.07,-28.789],[-48.544,-28.626],[-48.02,-28.461],[-47.498,-28.294],[-46.977,-28.125],[-46.458,-27.954],[-45.94,-27.781],[-45.425,-27.606],[-44.91,-27.429],[-44.398,-27.251],[-43.887,-27.07],[-43.378,-26.888],[-42.87,-26.703],[-42.364,-26.517],[-41.86,-26.33],[-41.357,-26.14],[-40.856,-25.949],[-40.357,-25.756],[-39.859,-25.561]]}},{"type":"Feature","properties":{"boundary_type":"ridge","feature_type":"gpml:MidOceanRidge","polarity":null,"overriding_plate_id":null,"subducting_plate_id":null,"plate_ids":[919,926],"name":"Phoenix-Izanagi MOR"},"geometry":{"type":"LineString","coordinates":[[-130.786,-9.566],[-131.197,-9.844],[-131.608,-10.122],[-132.02,-10.399],[-132.433,-10.675],[-132.847,-10.951],[-133.261,-11.226],[-133.676,-11.501],[-134.092,-11.775],[-134.509,-12.048],[-134.927,-12.321],[-135.345,-12.593],[-135.764,-12.865],[-136.185,-13.136],[-136.606,-13.406],[-137.028,-13.675],[-137.451,-13.944],[-137.876,-14.212],[-138.301,-14.479],[-138.727,-14.746],[-139.154,-15.012],[-139.582,-15.277],[-140.012,-15.541],[-140.442,-15.804],[-140.874,-16.067],[-141.306,-16.328],[-141.74,-16.589],[-142.175,-16.849],[-142.612,-17.108],[-143.049,-17.366],[-143.488,-17.623],[-143.928,-17.879],[-144.369,-18.134],[-144.811,-18.388],[-145.255,-18.641],[-145.7,-18.893],[-146.147,-19.143],[-146.595,-19.393],[-147.044,-19.642],[-147.494,-19.89],[-147.946,-20.136],[-148.4,-20.381],[-148.855,-20.626],[-149.311,-20.868],[-149.769,-21.11],[-150.228,-21.351],[-150.689,-21.59],[-151.151,-21.828],[-151.346,-21.406],[-151.539,-20.983],[-151.731,-20.561],[-151.923,-20.138],[-152.113,-19.715],[-152.302,-19.292],[-152.49,-18.868],[-152.678,-18.445],[-153.117,-18.703],[-153.557,-18.961],[-153.998,-19.218],[-154.441,-19.474],[-154.886,-19.728],[-155.332,-19.981],[-155.779,-20.234],[-156.227,-20.485],[-156.678,-20.735],[-157.129,-20.984],[-157.582,-21.232],[-158.037,-21.478],[-158.493,-21.723],[-158.951,-21.967],[-159.41,-22.21],[-159.871,-22.451],[-160.334,-22.691],[-160.798,-22.93],[-161.264,-23.167],[-161.731,-23.403],[-162.2,-23.638],[-162.671,-23.871],[-163.143,-24.103],[-163.617,-24.333],[-164.093,-24.562],[-164.571,-24.79],[-165.05,-25.015],[-165.531,-25.24],[-166.014,-25.462],[-166.499,-25.683],[-166.985,-25.903],[-167.474,-26.121],[-167.964,-26.337],[-168.456,-26.552],[-168.949,-26.765],[-169.445,-26.976],[-169.943,-27.185],[-170.442,-27.393],[-170.943,-27.599],[-171.446,-27.803],[-171.951,-28.005],[-172.458,-28.205],[-172.967,-28.404],[-173.477,-28.6],[-173.99,-28.795],[-174.504,-28.988],[-175.021,-29.179],[-175.539,-29.367],[-176.059,-29.554],[-176.177,-29.11],[-176.294,-28.667],[-176.41,-28.223],[-176.525,-27.779],[-176.639,-27.335],[-176.752,-26.89],[-176.865,-26.446],[-176.976,-26.002],[-177.087,-25.557],[-177.585,-25.757],[-178.085,-25.954],[-178.587,-26.15],[-179.091,-26.345],[-179.596,-26.537],[179.897,-26.728],[179.389,-26.917],[178.878,-27.104],[178.367,-27.289],[177.853,-27.472],[177.337,-27.654],[176.82,-27.833],[176.302,-28.011],[175.781,-28.186],[175.259,-28.36],[174.735,-28.532],[174.209,-28.701],[173.682,-28.869],[173.153,-29.034],[172.622,-29.198],[172.09,-29.359],[171.556,-29.518],[171.02,-29.676],[170.483,-29.83],[169.944,-29.983],[169.403,-30.134],[168.861,-30.282],[168.317,-30.428],[167.772,-30.572],[167.224,-30.714],[166.676,-30.853],[166.125,-30.99],[165.573,-31.124],[165.02,-31.257],[164.465,-31.386],[163.908,-31.514],[163.35,-31.639],[162.791,-31.761],[162.23,-31.882],[161.667,-31.999],[161.103,-32.114],[160.538,-32.227],[159.971,-32.337],[159.403,-32.445],[158.834,-32.55],[158.263,-32.653],[157.691,-32.752],[157.118,-32.85],[156.544,-32.944],[155.968,-33.037],[155.391,-33.126],[154.813,-33.213],[154.234,-33.297]]}},{"type":"Feature","properties":{"boundary_type":"subduction","feature_type":"gpml:SubductionZone","polarity":"Left","overriding_plate_id":601,"subducting_plate_id":505,"plate_ids":[505,601],"name":"Southern Eurasia SZ"},"geometry":{"type":"LineString","coordinates":[[90.91,44.076],[91.516,43.904],[92.118,43.729],[92.716,43.55],[93.312,43.369],[93.903,43.184],[94.491,42.997],[95.151,42.903],[95.81,42.806],[96.466,42.705],[97.12,42.601],[97.772,42.492],[98.422,42.38],[99.069,42.265],[99.714,42.145],[100.303,41.955],[100.889,41.762],[101.471,41.565],[102.05,41.366],[102.625,41.164],[103.15,40.873],[103.671,40.579],[104.188,40.284],[104.7,39.986],[105.207,39.686],[105.71,39.384],[106.209,39.079],[106.488,38.921]]}},{"type":"Feature","properties":{"boundary_type":"subduction","feature_type":"gpml:SubductionZone","polarity":"Left","overriding_plate_id":601,"subducting_plate_id":602,"plate_ids":[601,602],"name":"Southern Eurasia SZ"},"geometry":{"type":"LineString","coordinates":[[106.488,38.921],[106.943,38.661],[107.395,38.399],[107.844,38.135],[108.289,37.87],[108.731,37.602],[109.219,37.329],[109.703,37.054],[110.184,36.777],[110.661,36.499],[111.173,36.334],[111.684,36.167],[112.192,35.999],[112.698,35.828],[113.26,35.753],[113.82,35.675],[114.379,35.594],[114.937,35.511],[115.479,35.468],[116.02,35.422],[116.56,35.373],[117.1,35.322],[117.509,35.189],[117.917,35.055],[118.323,34.919],[118.763,34.616],[119.2,34.311],[119.614,34.172],[120.026,34.031],[120.437,33.889],[120.824,33.553],[121.207,33.215],[121.587,32.876],[121.964,32.536],[122.298,32.173],[122.63,31.81],[122.959,31.446],[123.285,31.081],[123.609,30.716],[123.93,30.349],[124.25,29.982],[124.597,29.675],[124.942,29.367],[125.293,29.219],[125.643,29.071],[126.098,29.285],[126.554,29.498],[126.882,29.365],[127.155,29.231],[127.427,29.097]]}},{"type":"Feature","properties":{"boundary_type":"subduction","feature_type":"gpml:SubductionZone","polarity":"Left","overriding_plate_id":601,"subducting_plate_id":926,"plate_ids":[601,926],"name":"Southern Eurasia SZ"},"geometry":{"type":"LineString","coordinates":[[127.427,29.097],[127.74,28.942],[128.051,28.786],[128.58,28.656],[129.108,28.523],[129.658,28.513],[130.208,28.502],[130.757,28.488]]}},{"type":"Feature","properties":{"boundary_type":"transform","feature_type":"gpml:Transform","polarity":null,"overriding_plate_id":null,"subducting_plate_id":null,"plate_ids":[601,926],"name":"Mongol transform"},"geometry":{"type":"LineString","coordinates":[[141.605,25.122],[142.03,25.238],[142.456,25.352],[142.923,25.424],[143.392,25.495],[143.861,25.564],[144.33,25.632],[144.8,25.698],[145.271,25.763],[145.742,25.826],[146.199,25.855],[146.657,25.882],[147.115,25.908],[147.573,25.932],[148.031,25.955],[148.436,26.291],[148.843,26.625],[149.252,26.958],[149.664,27.289],[150.078,27.62],[150.495,27.949],[150.914,28.277],[151.336,28.604],[151.76,28.929],[152.188,29.253],[152.617,29.576],[153.05,29.897],[153.485,30.217],[153.924,30.536],[154.365,30.853],[154.809,31.168],[155.256,31.482],[155.706,31.795],[156.159,32.105],[156.615,32.414],[156.923,32.823],[157.235,33.23],[157.549,33.637],[157.866,34.043],[158.186,34.448],[158.509,34.853],[158.835,35.256],[159.165,35.659],[159.498,36.061],[159.835,36.461],[160.175,36.861],[160.518,37.26],[160.865,37.658],[161.216,38.055],[161.571,38.45],[161.929,38.845],[162.292,39.239],[162.659,39.631],[163.029,40.022],[163.405,40.412],[163.784,40.801],[164.168,41.189],[164.557,41.575],[164.95,41.96],[165.348,42.344],[165.751,42.726],[166.158,43.107],[166.571,43.486],[166.908,43.903],[167.249,44.319],[167.595,44.734],[167.946,45.148],[168.303,45.56],[168.664,45.972],[169.031,46.383],[169.404,46.792],[169.782,47.2],[170.166,47.607],[170.556,48.012],[170.952,48.417],[171.355,48.819],[171.764,49.221],[172.18,49.621],[172.602,50.019],[173.032,50.416],[173.469,50.811],[173.913,51.205],[174.365,51.597],[174.825,51.987],[175.293,52.375],[175.769,52.761],[176.254,53.146],[176.747,53.528],[177.25,53.909],[177.761,54.287],[178.282,54.663],[178.813,55.037],[179.105,55.486],[179.404,55.935],[179.71,56.383],[-179.977,56.83],[-179.656,57.277],[-179.327,57.722],[-178.991,58.167],[-178.645,58.611],[-178.291,59.054],[-177.928,59.495],[-177.555,59.936],[-177.172,60.376],[-176.778,60.815],[-176.374,61.252],[-175.958,61.688],[-175.53,62.123],[-175.09,62.557],[-174.637,62.989],[-174.17,63.42],[-173.689,63.849],[-173.193,64.276],[-172.682,64.702],[-172.154,65.126]]}},{"type":"Feature","properties":{"boundary_type":"transform","feature_type":"gpml:Transform","polarity":null,"overriding_plate_id":null,"subducting_plate_id":null,"plate_ids":[498,505],"name":"Transform west of Junction Plate"},"geometry":{"type":"LineString","coordinates":[[125.216,-23.334],[125.183,-23.829],[125.149,-24.325],[125.115,-24.821],[125.081,-25.316],[125.024,-25.812],[124.966,-26.307],[124.908,-26.803],[124.85,-27.298],[124.79,-27.793],[124.731,-28.289],[124.671,-28.784]]}},{"type":"Feature","properties":{"boundary_type":"transform","feature_type":"gpml:Transform","polarity":null,"overriding_plate_id":null,"subducting_plate_id":null,"plate_ids":[505,701],"name":"Transform west of Junction Plate"},"geometry":{"type":"LineString","coordinates":[[124.671,-28.784],[124.619,-29.21],[124.566,-29.635],[124.513,-30.061]]}},{"type":"Feature","properties":{"boundary_type":"transform","feature_type":"gpml:Transform","polarity":null,"overriding_plate_id":null,"subducting_plate_id":null,"plate_ids":[902,16111],"name":"Transform near Alexander plate"},"geometry":{"type":"LineString","coordinates":[[-104.059,39.325],[-103.937,39.796],[-103.813,40.268],[-103.687,40.739],[-103.56,41.21],[-103.43,41.681],[-103.299,42.152],[-103.057,42.618],[-102.811,43.083],[-102.562,43.548],[-102.308,44.013],[-102.051,44.476],[-101.789,44.94],[-101.524,45.402],[-101.253,45.864],[-100.979,46.326],[-100.699,46.786],[-100.415,47.246],[-100.126,47.706],[-99.832,48.164],[-99.532,48.622],[-99.227,49.079],[-98.916,49.535],[-98.6,49.99],[-98.277,50.445],[-97.948,50.898],[-97.613,51.351],[-97.064,51.703],[-96.507,52.052],[-95.942,52.399],[-95.367,52.743],[-94.783,53.084],[-94.19,53.423],[-93.587,53.758],[-92.975,54.09],[-92.353,54.419],[-91.721,54.745],[-91.079,55.068],[-90.426,55.387],[-89.763,55.702],[-89.089,56.014],[-88.404,56.322],[-87.708,56.627],[-87.001,56.927],[-86.282,57.223],[-85.552,57.516],[-84.81,57.804],[-84.056,58.087],[-83.446,58.188],[-82.831,58.287]]}},{"type":"Feature","properties":{"boundary_type":"transform","feature_type":"gpml:Transform","polarity":null,"overriding_plate_id":null,"subducting_plate_id":null,"plate_ids":[498,919],"name":"Transform near junction"},"geometry":{"type":"LineString","coordinates":[[149.046,-30.694],[149.011,-31.165],[148.976,-31.635],[148.94,-32.106],[148.904,-32.576],[148.868,-33.047],[148.831,-33.517],[148.793,-33.988],[148.756,-34.459],[148.718,-34.929],[148.679,-35.4],[148.64,-35.87],[148.601,-36.341]]}},{"type":"Feature","properties":{"boundary_type":"transform","feature_type":"gpml:Transform","polarity":null,"overriding_plate_id":null,"subducting_plate_id":null,"plate_ids":[701,919],"name":"Transform near junction"},"geometry":{"type":"LineString","coordinates":[[148.601,-36.341],[148.561,-36.81],[148.52,-37.279],[148.48,-37.748],[148.438,-38.218]]}},{"type":"Feature","properties":{"boundary_type":"transform","feature_type":"gpml:Transform","polarity":null,"overriding_plate_id":null,"subducting_plate_id":null,"plate_ids":[602,926],"name":"Eastern China Izanagi transform"},"geometry":{"type":"LineString","coordinates":[[127.427,29.097],[127.009,28.79],[126.593,28.481],[126.179,28.171],[125.768,27.859],[125.36,27.547],[124.953,27.233],[124.549,26.918],[124.147,26.602],[123.748,26.285],[123.35,25.967],[122.955,25.647],[122.562,25.327],[122.171,25.006],[121.697,24.837],[121.224,24.668],[120.753,24.496],[120.282,24.324],[119.814,24.149],[119.346,23.974],[118.88,23.797],[118.415,23.619],[117.951,23.439],[117.7,23.046],[117.451,22.652],[117.203,22.259],[116.956,21.865],[116.711,21.47],[116.467,21.075],[116.225,20.68],[115.984,20.284],[115.743,19.888],[115.505,19.492],[115.439,19.227],[115.373,18.962]]}},{"type":"Feature","properties":{"boundary_type":"transform","feature_type":"gpml:Transform","polarity":null,"overriding_plate_id":null,"subducting_plate_id":null,"plate_ids":[601,926],"name":"China collisional transform"},"geometry":{"type":"LineString","coordinates":[[130.757,28.488],[131.172,28.259],[131.585,28.029],[131.996,27.798],[132.361,27.614],[132.724,27.429],[133.086,27.244],[133.592,27.086],[134.097,26.927],[134.601,26.765],[135.049,26.641],[135.495,26.516],[135.941,26.389],[136.386,26.26],[136.827,26.395],[137.27,26.528],[137.651,26.453],[138.032,26.377],[138.547,26.203],[139.06,26.027],[139.572,25.85],[140.083,25.671],[140.592,25.49],[141.099,25.307],[141.605,25.122]]}},{"type":"Feature","properties":{"boundary_type":"subduction","feature_type":"gpml:SubductionZone","polarity":"Right","overriding_plate_id":601,"subducting_plate_id":505,"plate_ids":[505,601],"name":"Monghol-Okhosk subduction"},"geometry":{"type":"LineString","coordinates":[[90.91,44.076],[90.417,43.961],[89.925,43.844],[89.303,43.711],[88.684,43.575],[88.068,43.435],[87.455,43.292],[86.844,43.146],[86.237,42.996],[85.632,42.844]]}},{"type":"Feature","properties":{"boundary_type":"transform","feature_type":"gpml:Transform","polarity":null,"overriding_plate_id":null,"subducting_plate_id":null,"plate_ids":[505,60301],"name":"transform"},"geometry":{"type":"LineString","coordinates":[[81.343,1.617],[81.723,1.923],[82.102,2.228],[82.481,2.534],[82.861,2.839]]}},{"type":"Feature","properties":{"boundary_type":"transform","feature_type":"gpml:Transform","polarity":null,"overriding_plate_id":null,"subducting_plate_id":null,"plate_ids":[602,60301],"name":"transform"},"geometry":{"type":"LineString","coordinates":[[82.861,2.839],[83.238,3.142],[83.616,3.445]]}},{"type":"Feature","properties":{"boundary_type":"subduction","feature_type":"gpml:SubductionZone","polarity":"Right","overriding_plate_id":60301,"subducting_plate_id":602,"plate_ids":[602,60301],"name":"sz Sukhothai western margin"},"geometry":{"type":"LineString","coordinates":[[83.616,3.445],[83.845,3.082],[84.073,2.718],[84.302,2.354],[84.53,1.99],[84.758,1.627],[85.07,1.273],[85.381,0.92],[85.692,0.567],[86.003,0.213],[86.314,-0.14],[86.626,-0.493],[86.937,-0.847],[87.248,-1.2],[87.559,-1.553],[87.871,-1.906],[88.182,-2.26],[88.494,-2.613],[88.806,-2.966],[89.118,-3.319],[89.43,-3.671],[89.743,-4.024],[90.111,-4.296],[90.479,-4.568],[90.848,-4.84],[91.217,-5.112],[91.597,-5.315],[91.977,-5.518],[92.358,-5.72],[92.738,-5.922],[93.119,-6.124],[93.501,-6.326],[93.724,-6.675],[93.947,-7.024],[94.17,-7.373],[94.41,-7.792],[94.65,-8.21],[94.891,-8.629],[95.132,-9.047],[95.374,-9.466],[95.693,-9.745],[96.014,-10.023],[96.334,-10.302],[96.655,-10.58],[96.977,-10.858],[97.226,-11.127]]}},{"type":"Feature","properties":{"boundary_type":"subduction","feature_type":"gpml:SubductionZone","polarity":"Left","overriding_plate_id":60301,"subducting_plate_id":505,"plate_ids":[505,60301],"name":"Western Sukhothai SZ margin"},"geometry":{"type":"LineString","coordinates":[[81.343,1.617],[81.606,1.209],[81.87,0.801],[82.133,0.393],[82.395,-0.014],[82.658,-0.422],[82.921,-0.83],[83.184,-1.238],[83.448,-1.646],[83.711,-2.054],[83.974,-2.462],[84.238,-2.869],[84.501,-3.277],[84.765,-3.685],[85.03,-4.092],[85.251,-4.494],[85.472,-4.895],[85.693,-5.296],[85.915,-5.698],[86.137,-6.099],[86.36,-6.5],[86.583,-6.901],[86.852,-7.322],[87.121,-7.743],[87.392,-8.164],[87.662,-8.585],[87.934,-9.005],[88.236,-9.338],[88.538,-9.671],[88.841,-10.004],[89.145,-10.336],[89.449,-10.668],[89.754,-11.0],[90.06,-11.331],[90.423,-11.677],[90.787,-12.022],[91.151,-12.367],[91.517,-12.712],[91.884,-13.056],[92.251,-13.399]]}},{"type":"Feature","properties":{"boundary_type":"subduction","feature_type":"gpml:SubductionZone","polarity":"Right","overriding_plate_id":926,"subducting_plate_id":505,"plate_ids":[505,926],"name":"SZ south of SCB"},"geometry":{"type":"LineString","coordinates":[[122.971,0.356],[122.561,0.111],[122.151,-0.134],[121.74,-0.379],[121.33,-0.624],[120.92,-0.868],[120.509,-1.113],[120.099,-1.358],[119.688,-1.602],[119.277,-1.847],[118.867,-2.091],[118.456,-2.336],[118.044,-2.58]]}},{"type":"Feature","properties":{"boundary_type":"subduction","feature_type":"gpml:SubductionZone","polarity":"Right","overriding_plate_id":602,"subducting_plate_id":505,"plate_ids":[505,602],"name":"SZ south of SCB"},"geometry":{"type":"LineString","coordinates":[[118.044,-2.58],[117.947,-2.638],[117.545,-2.912],[117.142,-3.187],[116.74,-3.461],[116.337,-3.735],[115.934,-4.009],[115.53,-4.283],[115.126,-4.557],[114.722,-4.83],[114.318,-5.103],[113.913,-5.376],[113.446,-5.533],[112.979,-5.69],[112.511,-5.846],[112.043,-6.002],[111.575,-6.158],[111.106,-6.313],[110.637,-6.468],[110.168,-6.622],[109.699,-6.776],[109.231,-6.897],[108.763,-7.016],[108.295,-7.136],[107.826,-7.254],[107.358,-7.373],[106.889,-7.491],[106.42,-7.608],[105.95,-7.725],[105.481,-7.841],[104.991,-7.864],[104.501,-7.886],[104.011,-7.908],[103.52,-7.929]]}},{"type":"Feature","properties":{"boundary_type":"transform","feature_type":"gpml:Transform","polarity":null,"overriding_plate_id":null,"subducting_plate_id":null,"plate_ids":[505,926],"name":"Panthalassa transform"},"geometry":{"type":"LineString","coordinates":[[130.821,-24.474],[131.161,-24.139],[131.499,-23.803],[131.835,-23.467],[132.169,-23.13],[132.502,-22.793],[132.81,-22.397],[133.117,-22.002],[133.422,-21.605],[133.725,-21.209],[134.027,-20.811],[134.327,-20.413],[134.626,-20.015],[134.908,-19.633],[135.189,-19.25],[135.468,-18.867],[135.746,-18.484],[136.023,-18.1],[136.298,-17.716],[136.572,-17.331],[136.846,-16.946],[137.118,-16.561],[137.027,-16.07],[136.937,-15.578],[136.847,-15.087],[136.757,-14.596],[136.668,-14.105],[136.58,-13.614],[136.491,-13.123],[136.403,-12.631],[136.138,-12.278],[135.873,-11.925],[135.609,-11.571],[135.345,-11.217]]}},{"type":"Feature","properties":{"boundary_type":"transform","feature_type":"gpml:Transform","polarity":null,"overriding_plate_id":null,"subducting_plate_id":null,"plate_ids":[505,602],"name":"Transform north of SCB"},"geometry":{"type":"LineString","coordinates":[[82.861,2.839],[83.155,3.209],[83.45,3.58],[83.745,3.95],[84.04,4.321],[84.335,4.691],[84.631,5.061],[84.927,5.431],[85.223,5.8],[85.52,6.17],[85.817,6.539],[86.115,6.909],[86.413,7.278],[86.711,7.647],[87.01,8.015],[87.31,8.384],[87.61,8.752],[87.881,9.146],[88.152,9.541],[88.425,9.935],[88.697,10.328],[88.971,10.722],[89.245,11.115],[89.52,11.508],[89.796,11.901],[90.072,12.294],[90.349,12.686],[90.627,13.078],[90.907,13.47],[91.186,13.861],[91.467,14.252],[91.749,14.643],[92.032,15.033],[92.316,15.423],[92.601,15.813],[92.761,16.274],[92.922,16.735],[93.083,17.196],[93.245,17.657],[93.408,18.117],[93.572,18.578],[93.737,19.038],[93.903,19.498],[94.07,19.958],[94.237,20.418],[94.406,20.878],[94.576,21.338],[94.746,21.797],[94.918,22.256],[95.091,22.715],[95.265,23.174],[95.441,23.633],[95.617,24.091],[95.795,24.55],[95.974,25.008],[96.155,25.465],[96.337,25.923],[96.52,26.38],[96.705,26.838],[96.891,27.294],[97.079,27.751],[97.268,28.207],[97.459,28.664],[97.652,29.119],[97.846,29.575],[98.042,30.03],[98.375,30.428],[98.71,30.825],[99.047,31.221],[99.388,31.616],[99.731,32.01],[100.078,32.403],[100.427,32.796],[100.78,33.187],[101.136,33.577],[101.495,33.966],[101.857,34.355],[102.223,34.742],[102.592,35.128],[102.964,35.513],[103.34,35.896],[103.72,36.279],[104.104,36.66],[104.491,37.04],[104.882,37.419],[105.278,37.797],[105.677,38.173],[106.08,38.548],[106.488,38.921]]}},{"type":"Feature","properties":{"boundary_type":"subduction","feature_type":"gpml:SubductionZone","polarity":"Left","overriding_plate_id":505,"subducting_plate_id":926,"plate_ids":[505,926],"name":"Panthalassa SZ"},"geometry":{"type":"LineString","coordinates":[[135.345,-11.217],[135.049,-10.819],[134.755,-10.42],[134.499,-10.019],[134.244,-9.618],[133.989,-9.217],[133.736,-8.815],[133.378,-8.504],[133.022,-8.193],[132.665,-7.881],[132.31,-7.569],[132.003,-7.232],[131.696,-6.895],[131.39,-6.558],[131.084,-6.221],[130.779,-5.884],[130.347,-5.762],[129.915,-5.64],[129.484,-5.517],[129.052,-5.394],[128.621,-5.271],[128.19,-5.148],[127.848,-4.842],[127.507,-4.536],[127.165,-4.23],[126.824,-3.924],[126.484,-3.618],[126.163,-3.273],[125.843,-2.928],[125.523,-2.583],[125.203,-2.238],[124.883,-1.892],[124.563,-1.547],[124.243,-1.201],[123.924,-0.856],[123.604,-0.51],[123.285,-0.165],[122.965,0.181],[122.971,0.356]]}},{"type":"Feature","properties":{"boundary_type":"subduction","feature_type":"gpml:SubductionZone","polarity":"Right","overriding_plate_id":602,"subducting_plate_id":926,"plate_ids":[602,926],"name":"Eastern China Izanagi subduction"},"geometry":{"type":"LineString","coordinates":[[115.373,18.962],[115.257,18.492],[115.142,18.021],[115.027,17.55],[114.913,17.08],[114.8,16.609],[114.687,16.138],[114.575,15.667],[114.463,15.197],[114.352,14.726],[114.312,14.266],[114.273,13.805],[114.234,13.345],[114.196,12.885],[114.157,12.425],[114.119,11.965],[114.08,11.504],[114.257,11.055],[114.433,10.605],[114.609,10.154],[114.784,9.704],[114.958,9.254],[115.132,8.804],[115.306,8.353],[115.48,7.903],[115.652,7.452],[115.825,7.001],[115.997,6.551],[116.169,6.1],[116.341,5.649],[116.512,5.198],[116.684,4.747],[116.855,4.296],[117.15,3.899],[117.445,3.502],[117.74,3.105],[118.035,2.708],[118.33,2.31],[118.624,1.913],[118.919,1.515],[118.822,1.06],[118.724,0.605],[118.627,0.15],[118.53,-0.305],[118.433,-0.76],[118.336,-1.215],[118.239,-1.67],[118.142,-2.125],[118.044,-2.58]]}},{"type":"Feature","properties":{"boundary_type":"transform","feature_type":"gpml:Transform","polarity":null,"overriding_plate_id":null,"subducting_plate_id":null,"plate_ids":[601,701],"name":"Monghol-Okhosk transform"},"geometry":{"type":"LineString","coordinates":[[120.77,60.491],[120.034,60.81],[119.284,61.124],[118.518,61.434],[117.738,61.739],[116.942,62.04],[116.13,62.337],[115.302,62.628],[114.458,62.915],[113.597,63.196],[112.719,63.472],[111.825,63.743],[111.278,64.157],[110.715,64.568],[110.135,64.978],[109.536,65.385],[108.919,65.79],[108.282,66.193],[107.625,66.592],[106.946,66.989],[106.244,67.383],[105.52,67.774],[104.77,68.161],[103.995,68.545],[103.194,68.925],[102.364,69.301],[101.506,69.674],[100.616,70.041],[99.526,70.302],[98.408,70.556],[97.262,70.803],[96.088,71.043],[94.885,71.275],[93.654,71.499],[92.393,71.715],[91.105,71.923],[89.788,72.122],[88.774,72.151]]}},{"type":"Feature","properties":{"boundary_type":"subduction","feature_type":"gpml:SubductionZone","polarity":"Left","overriding_plate_id":601,"subducting_plate_id":926,"plate_ids":[601,926],"name":"Mongol sz margin"},"geometry":{"type":"LineString","coordinates":[[-172.154,65.126],[-171.77,65.496],[-171.375,65.865],[-170.969,66.233],[-170.551,66.6],[-170.12,66.966]]}},{"type":"Feature","properties":{"boundary_type":"subduction","feature_type":"gpml:SubductionZone","polarity":"Left","overriding_plate_id":601,"subducting_plate_id":902,"plate_ids":[601,902],"name":"Mongol sz margin"},"geometry":{"type":"LineString","coordinates":[[-170.12,66.966],[-169.698,67.313],[-169.263,67.659],[-168.94,68.125],[-168.604,68.59],[-168.253,69.055],[-167.887,69.518],[-167.504,69.981],[-167.105,70.444],[-166.687,70.905],[-166.249,71.365],[-165.789,71.824],[-165.307,72.282],[-164.8,72.739],[-164.266,73.195],[-163.704,73.649],[-163.11,74.101],[-162.483,74.552],[-161.819,75.001],[-161.115,75.448],[-160.367,75.892],[-159.572,76.334],[-158.725,76.774],[-157.821,77.21],[-156.855,77.643],[-155.819,78.073],[-154.708,78.498],[-153.9,78.962],[-153.021,79.424],[-152.063,79.883],[-151.016,80.339],[-149.867,80.791],[-148.6,81.24],[-147.199,81.683],[-145.641,82.122],[-143.903,82.554],[-141.955,82.978],[-139.759,83.393],[-137.275,83.797],[-134.452,84.189],[-131.233,84.564],[-127.55,84.919],[-123.336,85.251],[-118.521,85.554],[-113.049,85.82]]}},{"type":"Feature","properties":{"boundary_type":"subduction","feature_type":"gpml:SubductionZone","polarity":"Right","overriding_plate_id":null,"subducting_plate_id":null,"plate_ids":[505],"name":"Paleotethys Sub."},"geometry":{"type":"LineString","coordinates":[[38.924,17.394],[39.381,17.256],[39.837,17.116],[40.292,16.976],[40.746,16.834],[41.2,16.691],[41.653,16.548],[42.106,16.403],[42.581,16.46],[43.057,16.516],[43.533,16.571],[44.01,16.625],[44.487,16.677],[44.964,16.729],[45.441,16.779],[45.932,16.814],[46.423,16.847],[46.914,16.879],[47.406,16.909],[47.897,16.939],[48.389,16.968],[48.881,16.995],[49.373,17.021],[49.865,17.046],[50.331,17.087],[50.798,17.127],[51.265,17.167],[51.732,17.205],[52.199,17.242],[52.667,17.278],[53.134,17.313],[53.602,17.346],[54.089,17.5],[54.577,17.652],[55.066,17.803],[55.555,17.953],[56.046,18.101],[56.537,18.248],[57.029,18.394],[57.522,18.539],[58.016,18.683],[58.511,18.825]]}}]}