{"type":"FeatureCollection","meta":{"model":"Cao2024","reconstruction_time_ma":1760.0,"anchor_plate_id":0,"pygplates_version":"1.0.0","tessellate_degrees":0.5,"polarity_convention":"gpml:subductionPolarity. 'Left'/'Right' names the side of the line, in vertex order, on which the OVERRIDING plate lies. Triangles are drawn on that side.","antimeridian":"Lines are NOT split at +/-180 deg. The renderer works in 3D unit vectors where the dateline is not special; splitting would only add spurious breaks. Do not treat this as RFC 7946 GIS-ready 2D data."},"features":[{"type":"Feature","properties":{"boundary_type":"subduction","feature_type":"gpml:SubductionZone","polarity":"Left","overriding_plate_id":101,"subducting_plate_id":90106,"plate_ids":[101,90106],"name":"eastern Laurentia-greenland-western baltica"},"geometry":{"type":"LineString","coordinates":[[-125.04,64.121],[-126.133,64.161],[-127.228,64.192],[-128.326,64.215],[-129.425,64.23],[-130.525,64.236],[-131.626,64.234],[-132.726,64.224],[-133.824,64.206],[-134.921,64.179],[-136.016,64.145],[-137.122,64.038],[-138.221,63.923],[-139.31,63.8],[-140.389,63.669],[-141.458,63.53],[-142.516,63.383],[-143.563,63.228],[-144.599,63.066],[-145.623,62.896],[-146.635,62.719],[-147.634,62.534],[-148.621,62.343],[-149.596,62.144],[-150.557,61.939],[-151.506,61.727],[-152.441,61.509],[-153.363,61.285],[-154.272,61.054],[-155.167,60.817],[-156.05,60.575],[-156.918,60.327],[-157.774,60.073],[-158.515,59.779],[-159.243,59.48],[-159.958,59.178],[-160.66,58.872],[-161.35,58.562],[-162.028,58.248],[-162.694,57.931],[-163.348,57.611],[-163.991,57.287],[-164.622,56.96],[-165.242,56.63],[-165.852,56.297],[-166.293,55.867],[-166.724,55.435],[-167.146,55.001],[-167.559,54.567],[-167.963,54.13],[-168.359,53.693],[-168.746,53.254],[-169.126,52.814],[-169.498,52.373],[-169.863,51.93],[-170.22,51.487],[-170.571,51.042],[-170.915,50.597]]}},{"type":"Feature","properties":{"boundary_type":"subduction","feature_type":"gpml:SubductionZone","polarity":"Left","overriding_plate_id":101,"subducting_plate_id":501001,"plate_ids":[101,501001],"name":"eastern Laurentia-greenland-western baltica"},"geometry":{"type":"LineString","coordinates":[[-170.915,50.597],[-171.205,50.213],[-171.491,49.828],[-171.773,49.443],[-172.05,49.057],[-172.322,48.671],[-172.653,48.235],[-172.977,47.798],[-173.297,47.36],[-173.611,46.921],[-173.92,46.481],[-174.224,46.041],[-174.523,45.6],[-174.817,45.158],[-175.107,44.715],[-175.393,44.271],[-175.674,43.827],[-175.951,43.382],[-176.224,42.937],[-176.493,42.491],[-176.758,42.044],[-177.02,41.597],[-177.278,41.149],[-177.532,40.7],[-177.783,40.251]]}},{"type":"Feature","properties":{"boundary_type":"subduction","feature_type":"gpml:SubductionZone","polarity":"Right","overriding_plate_id":801,"subducting_plate_id":80103,"plate_ids":[801,80103],"name":"NorthChina_SZ"},"geometry":{"type":"LineString","coordinates":[[-88.622,-2.573],[-88.561,-3.034],[-88.5,-3.496],[-88.438,-3.957],[-88.377,-4.418],[-88.315,-4.879],[-88.254,-5.34],[-88.192,-5.801],[-88.273,-6.269],[-88.354,-6.737],[-88.436,-7.205],[-88.517,-7.673],[-88.599,-8.141],[-88.68,-8.609],[-88.762,-9.077],[-88.845,-9.545],[-89.116,-9.935],[-89.388,-10.325],[-89.66,-10.714],[-89.933,-11.103],[-90.207,-11.492],[-90.482,-11.881],[-90.757,-12.269],[-91.033,-12.657],[-91.31,-13.045],[-91.588,-13.432],[-92.051,-13.579],[-92.514,-13.724],[-92.977,-13.869]]}},{"type":"Feature","properties":{"boundary_type":"subduction","feature_type":"gpml:SubductionZone","polarity":"Right","overriding_plate_id":801,"subducting_plate_id":701,"plate_ids":[701,801],"name":"NorthChina_SZ"},"geometry":{"type":"LineString","coordinates":[[-92.977,-13.869],[-93.431,-14.009],[-93.885,-14.149],[-94.339,-14.287],[-94.794,-14.425],[-95.25,-14.562],[-95.706,-14.698],[-96.163,-14.833],[-96.62,-14.968],[-97.078,-15.101],[-97.537,-15.234],[-98.026,-15.243],[-98.516,-15.251],[-99.006,-15.259],[-99.495,-15.265],[-99.985,-15.27],[-100.474,-15.275],[-100.964,-15.278],[-101.454,-15.28],[-101.944,-15.281],[-102.433,-15.281],[-102.923,-15.279],[-103.413,-15.277],[-103.902,-15.274]]}},{"type":"Feature","properties":{"boundary_type":"subduction","feature_type":"gpml:SubductionZone","polarity":"Left","overriding_plate_id":201,"subducting_plate_id":701,"plate_ids":[201,701],"name":"Amazonia_SZ"},"geometry":{"type":"LineString","coordinates":[[144.566,-51.271],[145.336,-51.303],[146.106,-51.33],[146.877,-51.352],[147.649,-51.369],[148.421,-51.381],[149.193,-51.388],[149.966,-51.39],[150.739,-51.387],[151.511,-51.379],[152.283,-51.365],[153.055,-51.347],[153.825,-51.323],[154.595,-51.295],[155.364,-51.261],[156.132,-51.222],[156.898,-51.179],[157.663,-51.13],[158.426,-51.076],[159.184,-50.933],[159.936,-50.785],[160.684,-50.632],[161.427,-50.474],[162.165,-50.312],[162.897,-50.145],[163.625,-49.973],[164.347,-49.797],[165.064,-49.617],[165.776,-49.432],[166.482,-49.243],[167.183,-49.049],[167.878,-48.851],[168.568,-48.649],[169.252,-48.443],[169.931,-48.233],[170.604,-48.019],[171.271,-47.801],[171.933,-47.58],[172.589,-47.354],[173.24,-47.125],[173.885,-46.892],[174.524,-46.656],[175.158,-46.416],[175.786,-46.172],[176.408,-45.925],[177.025,-45.675],[177.637,-45.422],[178.243,-45.165],[178.843,-44.905],[179.438,-44.642],[-179.972,-44.376],[-179.388,-44.107],[-178.809,-43.835],[-178.235,-43.56],[-177.667,-43.282],[-177.104,-43.002],[-176.546,-42.718],[-175.993,-42.432],[-175.445,-42.144],[-174.902,-41.852],[-174.364,-41.559],[-173.831,-41.263],[-173.302,-40.964],[-172.779,-40.663],[-172.26,-40.359],[-171.746,-40.054],[-171.236,-39.746],[-170.731,-39.436],[-170.231,-39.123],[-169.735,-38.809],[-169.243,-38.492],[-168.756,-38.174],[-168.273,-37.853],[-167.794,-37.531],[-167.319,-37.206],[-166.849,-36.88],[-166.382,-36.552],[-165.919,-36.222],[-165.46,-35.89],[-165.005,-35.557],[-164.554,-35.222],[-164.107,-34.885],[-163.663,-34.547],[-163.223,-34.207],[-162.786,-33.865],[-162.353,-33.522],[-161.923,-33.177],[-161.514,-32.866],[-161.108,-32.554],[-160.705,-32.24],[-160.305,-31.926],[-159.907,-31.609]]}},{"type":"Feature","properties":{"boundary_type":"subduction","feature_type":"gpml:SubductionZone","polarity":"Left","overriding_plate_id":101,"subducting_plate_id":701,"plate_ids":[101,701],"name":"Amazonia_SZ"},"geometry":{"type":"LineString","coordinates":[[-159.907,-31.609],[-159.866,-31.577]]}},{"type":"Feature","properties":{"boundary_type":"subduction","feature_type":"gpml:SubductionZone","polarity":"Left","overriding_plate_id":101,"subducting_plate_id":10101,"plate_ids":[101,10101],"name":"Hearne_SZ"},"geometry":{"type":"LineString","coordinates":[[-106.759,54.305],[-107.559,54.423],[-108.364,54.536],[-109.173,54.644],[-109.986,54.746],[-110.803,54.843],[-111.623,54.934],[-112.448,55.019],[-113.276,55.099],[-114.113,55.116],[-114.951,55.127],[-115.789,55.132],[-116.627,55.131],[-117.465,55.125],[-118.302,55.113],[-119.139,55.095],[-119.976,55.072],[-120.811,55.043],[-121.644,55.008],[-122.476,54.967],[-123.307,54.921],[-124.135,54.869],[-124.961,54.811],[-125.785,54.748],[-126.606,54.679],[-127.424,54.605],[-128.238,54.525]]}},{"type":"Feature","properties":{"boundary_type":"subduction","feature_type":"gpml:SubductionZone","polarity":"Left","overriding_plate_id":801,"subducting_plate_id":90107,"plate_ids":[801,90107],"name":"Wyoming_SZ"},"geometry":{"type":"LineString","coordinates":[[-46.591,53.538],[-46.789,53.583]]}},{"type":"Feature","properties":{"boundary_type":"subduction","feature_type":"gpml:SubductionZone","polarity":"Left","overriding_plate_id":801,"subducting_plate_id":90106,"plate_ids":[801,90106],"name":"Wyoming_SZ"},"geometry":{"type":"LineString","coordinates":[[-46.789,53.583],[-47.566,53.758],[-48.349,53.928],[-49.138,54.092],[-49.934,54.252],[-50.735,54.406],[-51.543,54.555],[-52.356,54.698],[-53.175,54.836],[-54.0,54.968],[-54.83,55.095],[-55.665,55.216],[-56.391,55.482],[-57.127,55.744],[-57.873,56.002],[-58.629,56.255],[-59.394,56.503],[-60.17,56.747],[-60.956,56.986],[-61.751,57.219],[-62.557,57.448],[-63.373,57.671],[-64.199,57.889],[-65.035,58.102],[-65.88,58.309],[-66.736,58.511],[-67.601,58.706],[-68.476,58.896],[-69.36,59.08],[-70.254,59.258],[-71.157,59.43],[-72.069,59.595],[-72.99,59.754],[-73.919,59.906],[-74.857,60.052],[-75.803,60.191],[-76.757,60.324],[-77.718,60.449]]}},{"type":"Feature","properties":{"boundary_type":"subduction","feature_type":"gpml:SubductionZone","polarity":"Left","overriding_plate_id":101,"subducting_plate_id":90106,"plate_ids":[101,90106],"name":"Wyoming_SZ"},"geometry":{"type":"LineString","coordinates":[[-77.718,60.449],[-78.624,60.56],[-79.536,60.665],[-80.455,60.764],[-81.37,60.968],[-82.298,61.166],[-83.237,61.357],[-84.187,61.542],[-85.149,61.72],[-86.121,61.891],[-87.104,62.055],[-88.098,62.212],[-89.101,62.362],[-90.115,62.505],[-91.138,62.64],[-92.17,62.768],[-93.211,62.888],[-94.26,63.001]]}},{"type":"Feature","properties":{"boundary_type":"subduction","feature_type":"gpml:SubductionZone","polarity":"Left","overriding_plate_id":10101,"subducting_plate_id":90106,"plate_ids":[10101,90106],"name":"Wyoming_SZ"},"geometry":{"type":"LineString","coordinates":[[-94.26,63.001],[-95.317,63.105],[-96.38,63.202],[-97.45,63.29],[-98.527,63.371],[-99.609,63.443],[-100.696,63.507],[-101.788,63.563],[-102.884,63.611],[-103.984,63.65],[-105.086,63.681],[-106.19,63.703],[-107.295,63.717],[-108.328,63.868],[-109.373,64.012],[-110.427,64.148],[-111.492,64.277],[-112.567,64.398],[-113.65,64.511],[-114.743,64.615],[-115.843,64.712],[-116.951,64.801],[-118.066,64.881],[-119.187,64.953],[-120.314,65.016],[-121.446,65.071],[-122.583,65.117],[-123.665,64.956],[-124.735,64.787]]}},{"type":"Feature","properties":{"boundary_type":"subduction","feature_type":"gpml:SubductionZone","polarity":"Left","overriding_plate_id":801,"subducting_plate_id":80103,"plate_ids":[801,80103],"name":"South_NorthAustralia_SZ"},"geometry":{"type":"LineString","coordinates":[[-88.622,-2.573],[-88.383,-2.156],[-88.144,-1.738],[-87.905,-1.32],[-87.667,-0.902],[-87.428,-0.484],[-87.19,-0.067],[-86.951,0.351],[-86.713,0.769],[-86.474,1.187],[-86.235,1.605],[-85.997,2.022],[-85.758,2.44],[-85.519,2.858],[-85.279,3.276],[-85.104,3.741],[-84.929,4.206],[-84.753,4.671],[-84.578,5.136],[-84.402,5.601],[-84.225,6.066],[-84.049,6.531],[-83.872,6.995],[-83.694,7.46],[-83.517,7.925],[-83.339,8.389],[-83.16,8.854],[-82.981,9.318],[-82.802,9.783],[-82.65,10.24],[-82.498,10.697],[-82.345,11.155],[-82.192,11.612],[-82.039,12.069],[-81.884,12.526],[-81.73,12.983],[-81.575,13.44],[-81.419,13.896],[-81.212,14.346],[-81.004,14.796],[-80.795,15.246],[-80.585,15.696],[-80.375,16.145],[-80.163,16.594],[-79.951,17.043]]}},{"type":"Feature","properties":{"boundary_type":"subduction","feature_type":"gpml:SubductionZone","polarity":"Left","overriding_plate_id":801,"subducting_plate_id":90107,"plate_ids":[801,90107],"name":"NorthwesternMawson_SZ"},"geometry":{"type":"LineString","coordinates":[[-46.778,52.938],[-46.594,53.401],[-46.591,53.538]]}},{"type":"Feature","properties":{"boundary_type":"subduction","feature_type":"gpml:SubductionZone","polarity":"Left","overriding_plate_id":80101,"subducting_plate_id":90107,"plate_ids":[80101,90107],"name":""},"geometry":{"type":"LineString","coordinates":[[-14.613,11.998],[-14.507,12.432],[-14.401,12.865],[-14.295,13.298],[-14.188,13.731],[-14.153,14.21],[-14.118,14.689],[-14.082,15.167],[-14.047,15.646],[-14.011,16.125],[-13.975,16.604],[-13.939,17.082],[-13.903,17.561],[-13.866,18.04],[-13.83,18.518],[-13.793,18.997],[-13.756,19.476],[-13.719,19.954],[-13.681,20.433],[-13.643,20.912],[-13.605,21.39],[-13.623,21.857],[-13.64,22.324],[-13.657,22.791],[-13.675,23.258],[-13.692,23.725],[-13.71,24.191],[-13.728,24.658],[-13.746,25.125],[-13.764,25.592],[-13.783,26.059],[-13.801,26.526],[-13.82,26.992],[-13.839,27.459],[-13.858,27.926],[-13.877,28.393],[-14.092,28.827],[-14.31,29.262],[-14.529,29.695],[-14.75,30.129],[-14.973,30.562],[-15.198,30.995],[-15.425,31.427],[-15.654,31.859],[-15.886,32.29],[-16.119,32.721],[-16.355,33.152],[-16.593,33.582],[-16.834,34.012],[-17.163,34.386],[-17.496,34.759],[-17.831,35.131],[-18.169,35.502],[-18.511,35.872],[-18.855,36.241],[-19.203,36.609],[-19.555,36.977],[-19.909,37.343],[-20.268,37.708],[-20.629,38.072],[-20.995,38.435],[-21.364,38.796],[-21.761,39.18],[-22.162,39.563],[-22.568,39.944],[-22.978,40.323],[-23.393,40.701],[-23.813,41.078],[-24.237,41.453],[-24.667,41.827],[-25.101,42.198],[-25.541,42.569],[-25.985,42.937],[-26.436,43.304],[-26.891,43.669],[-27.352,44.032]]}},{"type":"Feature","properties":{"boundary_type":"subduction","feature_type":"gpml:SubductionZone","polarity":"Left","overriding_plate_id":801,"subducting_plate_id":90107,"plate_ids":[801,90107],"name":""},"geometry":{"type":"LineString","coordinates":[[-27.352,44.032],[-27.542,44.18],[-28.071,44.467],[-28.605,44.752],[-29.145,45.035],[-29.69,45.315],[-30.24,45.592],[-30.796,45.867],[-31.357,46.139],[-31.924,46.408],[-32.496,46.675],[-33.074,46.938],[-33.658,47.199],[-34.248,47.456],[-34.843,47.711],[-35.444,47.962],[-36.051,48.21],[-36.664,48.455],[-37.282,48.697],[-37.907,48.936],[-38.537,49.171],[-39.125,49.48],[-39.719,49.787],[-40.321,50.09],[-40.931,50.39],[-41.549,50.687],[-42.174,50.981],[-42.807,51.271],[-43.449,51.558],[-44.098,51.841],[-44.756,52.121],[-45.421,52.397],[-46.095,52.669],[-46.778,52.938]]}},{"type":"Feature","properties":{"boundary_type":"subduction","feature_type":"gpml:SubductionZone","polarity":"Left","overriding_plate_id":201,"subducting_plate_id":501001,"plate_ids":[201,501001],"name":"Amazonia_SZ"},"geometry":{"type":"LineString","coordinates":[[113.125,24.094],[112.826,23.679],[112.529,23.263],[112.233,22.846],[111.94,22.43],[111.648,22.012],[111.358,21.594],[111.069,21.176],[110.783,20.757],[110.497,20.337],[110.214,19.918],[109.932,19.497],[109.651,19.076],[109.372,18.655],[109.094,18.234],[108.817,17.812],[108.542,17.389],[108.268,16.967],[107.995,16.544],[107.724,16.12],[107.453,15.696],[107.184,15.272],[106.916,14.848],[106.649,14.423],[106.383,13.998],[106.118,13.573],[105.853,13.147],[105.59,12.721],[105.328,12.295],[105.066,11.868],[104.805,11.442],[104.546,11.015],[104.286,10.588],[104.028,10.161],[103.77,9.733],[103.513,9.305],[103.257,8.877],[103.001,8.449],[102.745,8.021],[102.491,7.593],[102.236,7.164],[101.983,6.736],[101.729,6.307],[101.476,5.878],[101.224,5.449],[100.972,5.02],[100.72,4.59],[100.468,4.161],[100.217,3.732],[100.058,3.274],[99.899,2.815],[99.74,2.357],[99.581,1.899],[99.422,1.441],[99.263,0.983],[99.105,0.524],[98.946,0.066],[98.788,-0.392],[98.629,-0.85],[98.47,-1.308],[98.311,-1.767],[98.153,-2.225],[97.994,-2.683],[97.835,-3.141],[97.675,-3.599],[97.516,-4.057],[97.357,-4.515],[97.197,-4.973],[97.037,-5.431],[96.877,-5.889],[96.859,-6.388],[96.841,-6.887],[96.824,-7.386],[96.806,-7.885],[96.788,-8.384],[96.77,-8.883],[96.752,-9.382],[96.735,-9.881],[96.717,-10.379],[96.698,-10.878],[96.68,-11.377],[96.662,-11.876],[96.644,-12.375],[96.626,-12.874],[96.607,-13.373],[96.589,-13.872],[96.57,-14.37],[96.552,-14.869],[96.679,-15.301],[96.807,-15.733],[96.936,-16.165],[97.065,-16.597],[97.194,-17.028],[97.324,-17.46],[97.455,-17.891]]}},{"type":"Feature","properties":{"boundary_type":"subduction","feature_type":"gpml:SubductionZone","polarity":"Left","overriding_plate_id":201,"subducting_plate_id":90105,"plate_ids":[201,90105],"name":"Amazonia_SZ"},"geometry":{"type":"LineString","coordinates":[[97.455,-17.891],[97.593,-18.344],[97.732,-18.798],[97.872,-19.25],[98.012,-19.703],[98.154,-20.156],[98.296,-20.609],[98.438,-21.061],[98.582,-21.514],[98.727,-21.966],[98.872,-22.418],[99.019,-22.87],[99.166,-23.322],[99.315,-23.774],[99.464,-24.225],[99.795,-24.618],[100.128,-25.009],[100.463,-25.4],[100.801,-25.79],[101.14,-26.179],[101.482,-26.568],[101.826,-26.955],[102.172,-27.342],[102.521,-27.728],[102.873,-28.113],[103.226,-28.497],[103.583,-28.881],[103.942,-29.263],[104.304,-29.644],[104.668,-30.025],[105.036,-30.404],[105.406,-30.782],[105.779,-31.159],[106.155,-31.536],[106.534,-31.911],[106.917,-32.285],[107.302,-32.657],[107.691,-33.029],[108.083,-33.399],[108.478,-33.768],[108.877,-34.136],[109.279,-34.503],[109.684,-34.868],[110.094,-35.232],[110.507,-35.594],[110.924,-35.955],[111.344,-36.315],[111.769,-36.673],[112.197,-37.029],[112.629,-37.384],[113.066,-37.738],[113.507,-38.09],[113.952,-38.44],[114.401,-38.788],[114.855,-39.135],[115.313,-39.48],[115.776,-39.823],[116.243,-40.164],[116.715,-40.503],[117.192,-40.841],[117.674,-41.176],[118.161,-41.51],[118.652,-41.841],[119.149,-42.17],[119.651,-42.497],[120.158,-42.822],[120.671,-43.145],[121.189,-43.465],[121.713,-43.783],[122.242,-44.098],[122.776,-44.411],[123.317,-44.722],[123.863,-45.029],[124.415,-45.335],[124.973,-45.637],[125.538,-45.937],[126.108,-46.234],[126.684,-46.528],[127.222,-46.728],[127.764,-46.925],[128.31,-47.119]]}},{"type":"Feature","properties":{"boundary_type":"subduction","feature_type":"gpml:SubductionZone","polarity":"Left","overriding_plate_id":201,"subducting_plate_id":701,"plate_ids":[201,701],"name":"Amazonia_SZ"},"geometry":{"type":"LineString","coordinates":[[128.31,-47.119],[128.958,-47.345],[129.612,-47.567],[130.271,-47.785],[130.936,-48.0],[131.606,-48.21],[132.282,-48.417],[132.963,-48.62],[133.65,-48.818],[134.342,-49.013],[135.039,-49.203],[135.742,-49.389],[136.449,-49.571],[137.163,-49.748],[137.881,-49.921],[138.604,-50.09],[139.333,-50.254],[140.066,-50.413],[140.805,-50.568],[141.548,-50.718],[142.296,-50.864],[143.048,-51.004],[143.805,-51.14],[144.566,-51.271]]}},{"type":"Feature","properties":{"boundary_type":"ridge","feature_type":"gpml:MidOceanRidge","polarity":null,"overriding_plate_id":null,"subducting_plate_id":null,"plate_ids":[101,801],"name":""},"geometry":{"type":"LineString","coordinates":[[-77.718,60.449],[-78.24,60.032],[-78.749,59.612],[-79.245,59.19],[-79.729,58.767],[-80.202,58.342],[-80.663,57.915],[-81.113,57.486],[-81.553,57.056],[-81.983,56.625],[-82.403,56.192],[-82.814,55.757],[-83.216,55.321],[-83.609,54.884],[-83.993,54.446],[-84.369,54.007],[-84.738,53.566],[-85.099,53.124],[-85.452,52.681],[-85.798,52.237],[-86.138,51.793],[-86.471,51.347],[-86.797,50.9],[-87.117,50.452],[-87.432,50.004],[-87.74,49.555],[-88.043,49.104],[-88.34,48.654],[-88.632,48.202],[-88.919,47.75],[-89.201,47.296],[-89.478,46.843],[-89.751,46.388],[-90.019,45.933],[-90.283,45.477],[-90.542,45.021],[-90.797,44.564],[-91.049,44.107],[-91.296,43.649],[-91.54,43.191],[-91.78,42.732],[-92.017,42.272],[-92.25,41.812],[-92.48,41.352],[-92.706,40.891],[-92.93,40.429],[-93.15,39.968],[-93.368,39.506],[-93.582,39.043],[-94.108,39.188],[-94.636,39.331],[-95.166,39.471],[-95.698,39.609],[-96.232,39.745],[-96.408,39.264],[-96.581,38.783],[-96.751,38.302],[-96.92,37.82],[-97.086,37.338],[-97.25,36.856],[-97.412,36.374],[-97.572,35.891],[-97.73,35.409],[-97.886,34.926],[-98.041,34.443],[-98.193,33.96],[-98.344,33.476],[-98.493,32.992],[-98.641,32.509],[-98.787,32.025],[-98.931,31.54],[-99.074,31.056],[-99.216,30.572],[-99.356,30.087],[-99.495,29.602],[-99.632,29.117],[-99.768,28.632],[-99.903,28.147],[-100.037,27.662],[-100.169,27.176],[-100.301,26.691],[-100.431,26.205],[-100.56,25.719],[-100.688,25.233],[-101.212,25.361],[-101.736,25.487],[-102.262,25.61],[-102.789,25.732],[-103.317,25.852],[-103.846,25.97],[-104.376,26.086],[-104.907,26.2],[-105.439,26.313],[-105.557,25.827],[-105.674,25.341],[-105.79,24.855],[-105.905,24.37],[-106.019,23.883],[-106.132,23.397],[-106.245,22.911],[-106.356,22.425],[-106.467,21.939],[-106.577,21.452],[-106.687,20.966],[-106.795,20.479],[-106.903,19.993],[-107.011,19.506],[-107.117,19.019],[-107.223,18.532],[-107.329,18.045],[-107.434,17.558],[-107.538,17.071],[-107.642,16.584],[-107.745,16.097],[-107.848,15.61],[-107.95,15.123],[-108.052,14.636],[-108.153,14.149],[-108.254,13.661],[-108.355,13.174],[-108.455,12.686],[-108.555,12.199],[-108.654,11.712],[-108.753,11.224],[-108.852,10.737],[-108.95,10.249],[-109.048,9.761],[-109.146,9.274],[-109.243,8.786],[-109.733,8.835],[-110.223,8.883],[-110.713,8.93],[-111.203,8.977],[-111.693,9.023],[-112.183,9.068],[-112.673,9.113],[-113.164,9.157],[-113.655,9.201],[-114.145,9.243],[-114.212,8.772],[-114.278,8.3],[-114.344,7.828],[-114.41,7.357],[-114.475,6.885],[-114.541,6.413],[-114.607,5.942],[-114.672,5.47],[-114.737,4.998],[-114.802,4.526],[-114.867,4.055],[-114.932,3.583],[-114.997,3.111],[-115.492,3.053],[-115.987,2.994],[-116.482,2.936],[-116.977,2.877],[-117.472,2.818],[-117.967,2.758],[-118.462,2.699],[-118.957,2.639],[-119.452,2.579],[-119.946,2.519],[-120.441,2.459],[-120.935,2.398],[-121.43,2.338],[-121.924,2.277],[-122.419,2.216],[-122.913,2.155],[-123.408,2.093],[-123.902,2.032],[-124.396,1.97],[-124.891,1.909],[-125.385,1.847],[-125.879,1.785],[-126.373,1.722],[-126.867,1.66],[-127.361,1.598],[-127.856,1.535],[-128.35,1.472],[-128.844,1.41],[-129.338,1.347],[-129.832,1.284],[-130.325,1.221],[-130.819,1.158],[-131.313,1.094],[-131.807,1.031],[-132.301,0.968],[-132.795,0.904],[-133.289,0.84],[-133.782,0.777],[-134.276,0.713],[-134.77,0.649],[-135.264,0.586],[-135.757,0.522],[-136.251,0.458],[-136.745,0.394],[-137.239,0.33],[-137.732,0.266],[-138.226,0.202],[-138.72,0.138],[-139.214,0.074],[-139.707,0.01],[-140.201,-0.054],[-140.328,-0.506],[-140.456,-0.958],[-140.583,-1.411],[-140.711,-1.863],[-140.838,-2.315],[-140.966,-2.768],[-141.441,-2.829],[-141.917,-2.89],[-142.392,-2.951],[-142.868,-3.012],[-143.343,-3.072],[-143.819,-3.132],[-144.295,-3.192],[-144.771,-3.252],[-145.246,-3.312],[-145.722,-3.371],[-146.198,-3.43],[-146.674,-3.489],[-147.15,-3.548],[-147.627,-3.606],[-148.103,-3.665],[-148.579,-3.722],[-149.055,-3.78],[-149.532,-3.838]]}},{"type":"Feature","properties":{"boundary_type":"transform","feature_type":"gpml:Transform","polarity":null,"overriding_plate_id":null,"subducting_plate_id":null,"plate_ids":[201,501001],"name":""},"geometry":{"type":"LineString","coordinates":[[113.125,24.094],[113.588,23.828],[114.049,23.561],[114.508,23.293],[114.965,23.023],[115.421,22.752],[115.874,22.48],[116.326,22.206],[116.776,21.931],[117.224,21.655],[117.671,21.378],[118.116,21.1],[118.559,20.82],[119.001,20.539],[119.441,20.258],[119.879,19.975],[120.316,19.691],[120.751,19.406],[121.185,19.12],[121.617,18.832],[122.048,18.544],[122.477,18.255],[122.905,17.965],[123.332,17.674],[123.757,17.383],[124.18,17.09],[124.603,16.796],[125.024,16.502],[125.444,16.206],[125.862,15.91],[126.28,15.613],[126.696,15.316],[127.111,15.017],[127.524,14.718],[127.937,14.418],[128.349,14.117],[128.759,13.816],[129.168,13.514],[129.577,13.211],[129.984,12.908],[130.39,12.604],[130.796,12.299],[131.2,11.994],[131.604,11.688],[132.006,11.382],[132.408,11.075],[132.809,10.767],[133.209,10.459],[133.609,10.151],[134.007,9.842],[134.405,9.532],[134.802,9.223],[135.198,8.912],[135.594,8.602],[135.989,8.29],[136.384,7.979],[136.777,7.667],[137.171,7.355],[137.563,7.042],[137.956,6.729],[138.347,6.416],[138.741,6.117],[139.135,5.817],[139.528,5.518],[139.92,5.218],[140.313,4.917],[140.705,4.617],[141.096,4.316],[141.488,4.015],[141.879,3.714],[142.269,3.413],[142.66,3.111],[143.05,2.81],[143.44,2.508]]}},{"type":"Feature","properties":{"boundary_type":"transform","feature_type":"gpml:Transform","polarity":null,"overriding_plate_id":null,"subducting_plate_id":null,"plate_ids":[201,501],"name":""},"geometry":{"type":"LineString","coordinates":[[143.44,2.508],[143.834,2.203],[144.228,1.898],[144.621,1.593],[145.015,1.288],[145.408,0.983],[145.801,0.678],[146.194,0.372],[146.588,0.067],[146.981,-0.238],[147.374,-0.543],[147.767,-0.849],[148.16,-1.154],[148.554,-1.459],[148.947,-1.764],[149.341,-2.069],[149.734,-2.374],[150.128,-2.679],[150.522,-2.983],[150.917,-3.288],[151.311,-3.592],[151.706,-3.896],[152.101,-4.2],[152.497,-4.504],[152.892,-4.808],[153.288,-5.111],[153.685,-5.414],[154.082,-5.717],[154.479,-6.02],[154.877,-6.322],[155.275,-6.624],[155.674,-6.926],[156.073,-7.227],[156.473,-7.528],[156.873,-7.829],[157.274,-8.129],[157.675,-8.429],[158.077,-8.728],[158.48,-9.027],[158.884,-9.326],[159.288,-9.624],[159.692,-9.922],[160.098,-10.219],[160.504,-10.516],[160.911,-10.812],[161.319,-11.108],[161.728,-11.403],[162.138,-11.697],[162.548,-11.991],[162.959,-12.284],[163.372,-12.577],[163.785,-12.869],[164.199,-13.161],[164.614,-13.451],[165.03,-13.742],[165.447,-14.031],[165.866,-14.32],[166.285,-14.608],[166.705,-14.895],[167.127,-15.181],[167.549,-15.467],[167.973,-15.752],[168.398,-16.036],[168.824,-16.319],[169.252,-16.601],[169.681,-16.883],[170.111,-17.163],[170.542,-17.443],[170.975,-17.721],[171.408,-17.999],[171.844,-18.276],[172.281,-18.552],[172.719,-18.827],[173.158,-19.1],[173.599,-19.373],[174.042,-19.645],[174.486,-19.915]]}},{"type":"Feature","properties":{"boundary_type":"transform","feature_type":"gpml:Transform","polarity":null,"overriding_plate_id":null,"subducting_plate_id":null,"plate_ids":[101,201],"name":""},"geometry":{"type":"LineString","coordinates":[[174.486,-19.915],[174.93,-20.184],[175.375,-20.451],[175.822,-20.718],[176.271,-20.983],[176.721,-21.247],[177.173,-21.51],[177.627,-21.771],[178.082,-22.031],[178.539,-22.29],[178.997,-22.548],[179.458,-22.805],[179.92,-23.06],[-179.617,-23.314],[-179.151,-23.566],[-178.684,-23.817],[-178.215,-24.067],[-177.744,-24.315],[-177.271,-24.562],[-176.796,-24.807],[-176.32,-25.051],[-175.842,-25.293],[-175.361,-25.534],[-174.879,-25.773],[-174.395,-26.01],[-173.909,-26.246],[-173.421,-26.48],[-172.931,-26.713],[-172.438,-26.944],[-171.944,-27.173],[-171.448,-27.4],[-170.95,-27.626],[-170.45,-27.85],[-169.941,-28.057],[-169.431,-28.262],[-168.919,-28.466],[-168.405,-28.667],[-167.888,-28.867],[-167.37,-29.064],[-166.85,-29.26],[-166.328,-29.453],[-165.804,-29.645],[-165.277,-29.834],[-164.749,-30.022],[-164.219,-30.207],[-163.687,-30.39],[-163.153,-30.571],[-162.617,-30.75],[-162.079,-30.926],[-161.539,-31.1],[-160.997,-31.272],[-160.453,-31.442],[-159.907,-31.609]]}},{"type":"Feature","properties":{"boundary_type":"transform","feature_type":"gpml:Transform","polarity":null,"overriding_plate_id":null,"subducting_plate_id":null,"plate_ids":[801,80103],"name":""},"geometry":{"type":"LineString","coordinates":[[-79.951,17.043],[-79.47,16.852],[-78.99,16.659],[-78.511,16.465],[-78.033,16.27],[-77.556,16.074],[-77.079,15.877],[-76.604,15.679],[-76.13,15.48],[-75.656,15.28],[-75.184,15.078],[-74.712,14.876],[-74.242,14.673],[-73.772,14.469],[-73.303,14.264],[-72.835,14.058],[-72.367,13.852],[-71.901,13.644],[-71.435,13.435],[-70.971,13.226],[-70.507,13.016],[-70.043,12.805],[-69.581,12.593]]}},{"type":"Feature","properties":{"boundary_type":"transform","feature_type":"gpml:Transform","polarity":null,"overriding_plate_id":null,"subducting_plate_id":null,"plate_ids":[101,801],"name":""},"geometry":{"type":"LineString","coordinates":[[-149.532,-3.838],[-149.664,-4.313],[-149.797,-4.788],[-149.93,-5.263],[-150.063,-5.739],[-150.196,-6.214],[-150.329,-6.689],[-150.463,-7.164],[-150.597,-7.639],[-150.732,-8.115],[-150.866,-8.59],[-151.001,-9.065],[-151.137,-9.54],[-151.272,-10.014],[-151.408,-10.489],[-151.545,-10.964],[-151.682,-11.439],[-151.819,-11.913],[-151.957,-12.388],[-152.096,-12.863],[-152.235,-13.337],[-152.374,-13.811],[-152.514,-14.286],[-152.655,-14.76],[-152.796,-15.234],[-152.938,-15.708],[-153.081,-16.182],[-153.224,-16.656],[-153.368,-17.13],[-153.513,-17.603],[-153.658,-18.077],[-153.804,-18.55],[-153.951,-19.023],[-154.099,-19.497],[-154.248,-19.97],[-154.398,-20.443],[-154.548,-20.915],[-154.7,-21.388],[-154.852,-21.861],[-155.006,-22.333],[-155.161,-22.805],[-155.316,-23.278],[-155.473,-23.749],[-155.631,-24.221],[-155.79,-24.693],[-155.95,-25.164],[-156.205,-25.603],[-156.461,-26.041],[-156.72,-26.478],[-156.98,-26.915],[-157.242,-27.352],[-157.507,-27.788],[-157.773,-28.224],[-158.042,-28.659],[-158.313,-29.093],[-158.587,-29.527],[-158.862,-29.96],[-159.14,-30.393]]}},{"type":"Feature","properties":{"boundary_type":"transform","feature_type":"gpml:Transform","polarity":null,"overriding_plate_id":null,"subducting_plate_id":null,"plate_ids":[101,701],"name":""},"geometry":{"type":"LineString","coordinates":[[-159.14,-30.393],[-159.215,-30.508],[-159.43,-30.865],[-159.647,-31.221],[-159.866,-31.577]]}},{"type":"Feature","properties":{"boundary_type":"subduction","feature_type":"gpml:SubductionZone","polarity":"Right","overriding_plate_id":801,"subducting_plate_id":701,"plate_ids":[701,801],"name":"Cathaysia_SZ"},"geometry":{"type":"LineString","coordinates":[[-103.902,-15.274],[-104.09,-15.739],[-104.278,-16.205],[-104.467,-16.67],[-104.656,-17.135],[-104.847,-17.6],[-105.039,-18.064],[-105.232,-18.529],[-105.426,-18.993],[-105.621,-19.457],[-105.817,-19.92],[-106.014,-20.384],[-106.212,-20.847],[-106.412,-21.31],[-106.537,-21.796],[-106.663,-22.282],[-106.79,-22.767],[-106.917,-23.253],[-107.046,-23.738],[-107.175,-24.224],[-107.306,-24.709],[-107.437,-25.194],[-107.57,-25.679],[-107.703,-26.163],[-107.838,-26.648],[-107.974,-27.133],[-108.111,-27.617],[-108.249,-28.101],[-108.389,-28.585],[-108.383,-29.024],[-108.377,-29.463],[-108.371,-29.902],[-108.365,-30.341],[-108.359,-30.78],[-108.353,-31.219]]}},{"type":"Feature","properties":{"boundary_type":"transform","feature_type":"gpml:Transform","polarity":null,"overriding_plate_id":null,"subducting_plate_id":null,"plate_ids":[701,801],"name":""},"geometry":{"type":"LineString","coordinates":[[-159.14,-30.393],[-158.642,-30.588],[-158.143,-30.78],[-157.641,-30.97],[-157.137,-31.159],[-156.632,-31.346],[-156.124,-31.53],[-155.614,-31.713],[-155.062,-31.852],[-154.508,-31.988],[-153.952,-32.122],[-153.395,-32.254],[-152.836,-32.383],[-152.276,-32.51],[-151.714,-32.634],[-151.151,-32.756],[-150.586,-32.875],[-150.019,-32.991],[-149.451,-33.105],[-148.882,-33.217],[-148.311,-33.326],[-147.739,-33.432],[-147.165,-33.536],[-146.59,-33.637],[-146.014,-33.735],[-145.436,-33.831],[-144.857,-33.924],[-144.277,-34.014],[-143.695,-34.101],[-143.113,-34.186],[-142.529,-34.268],[-141.944,-34.347],[-141.358,-34.424],[-140.771,-34.497],[-140.183,-34.568],[-139.594,-34.636],[-139.004,-34.701],[-138.413,-34.764],[-137.822,-34.823],[-137.229,-34.88],[-136.636,-34.934],[-136.042,-34.984],[-135.447,-35.032],[-134.849,-35.014],[-134.252,-34.994],[-133.656,-34.97],[-133.059,-34.943],[-132.463,-34.914],[-131.868,-34.881],[-131.272,-34.846],[-130.678,-34.808],[-130.084,-34.767],[-129.491,-34.723],[-128.898,-34.676],[-128.306,-34.626],[-127.715,-34.574],[-127.124,-34.518],[-126.534,-34.46],[-125.946,-34.399],[-125.358,-34.335],[-124.77,-34.268],[-124.184,-34.199],[-123.599,-34.126],[-123.015,-34.051],[-122.432,-33.973],[-121.85,-33.893],[-121.269,-33.809],[-120.689,-33.723],[-120.111,-33.635],[-119.534,-33.543],[-118.958,-33.449],[-118.383,-33.352],[-117.809,-33.253],[-117.237,-33.151],[-116.666,-33.046],[-116.097,-32.939],[-115.529,-32.829],[-114.962,-32.717],[-114.403,-32.606],[-113.846,-32.491],[-113.29,-32.375],[-112.735,-32.256],[-112.182,-32.135],[-111.631,-32.011],[-111.08,-31.885],[-110.532,-31.756],[-109.985,-31.626],[-109.439,-31.492],[-108.895,-31.357],[-108.353,-31.219]]}},{"type":"Feature","properties":{"boundary_type":"subduction","feature_type":"gpml:SubductionZone","polarity":"Left","overriding_plate_id":101,"subducting_plate_id":501,"plate_ids":[101,501],"name":"Baltica_SZ"},"geometry":{"type":"LineString","coordinates":[[179.303,6.056],[179.383,5.654],[179.463,5.251],[179.433,4.77],[179.402,4.288],[179.372,3.807],[179.341,3.325],[179.311,2.844],[179.28,2.363],[179.25,1.881],[179.22,1.4],[179.189,0.918],[179.159,0.437],[179.128,-0.045],[179.098,-0.526],[179.068,-1.008],[179.037,-1.489],[179.007,-1.97],[178.977,-2.452],[178.946,-2.933],[178.916,-3.415],[178.885,-3.896],[178.855,-4.378],[178.824,-4.859],[178.794,-5.34],[178.763,-5.822],[178.63,-6.301],[178.497,-6.78],[178.364,-7.26],[178.23,-7.739],[178.097,-8.218],[177.962,-8.697],[177.828,-9.176],[177.693,-9.655],[177.558,-10.134],[177.422,-10.613],[177.286,-11.092],[177.149,-11.57],[177.012,-12.049],[176.875,-12.528],[176.737,-13.006],[176.598,-13.485],[176.459,-13.963],[176.319,-14.442],[176.179,-14.92],[176.038,-15.398],[175.896,-15.876],[175.754,-16.354],[175.598,-16.8],[175.442,-17.245],[175.284,-17.69],[175.126,-18.136],[174.967,-18.581],[174.808,-19.026],[174.647,-19.471],[174.486,-19.915]]}},{"type":"Feature","properties":{"boundary_type":"subduction","feature_type":"gpml:SubductionZone","polarity":"Left","overriding_plate_id":701,"subducting_plate_id":90105,"plate_ids":[701,90105],"name":""},"geometry":{"type":"LineString","coordinates":[[128.31,-47.119],[127.936,-47.546],[127.555,-47.971],[127.168,-48.394],[126.774,-48.816],[126.374,-49.237],[125.967,-49.657],[125.553,-50.075],[125.131,-50.492],[124.703,-50.907],[124.266,-51.32],[123.821,-51.732],[123.369,-52.142],[122.908,-52.55],[122.438,-52.957],[121.959,-53.362],[121.471,-53.764],[120.974,-54.165],[120.467,-54.563],[119.95,-54.96],[119.423,-55.354],[118.886,-55.746],[118.337,-56.135],[117.777,-56.522],[117.206,-56.907],[116.623,-57.288],[116.027,-57.667],[115.419,-58.043],[114.799,-58.417],[114.165,-58.787],[113.517,-59.154],[112.856,-59.517],[112.18,-59.878],[111.489,-60.234],[110.783,-60.587],[110.062,-60.936],[109.325,-61.282],[108.571,-61.623],[107.801,-61.96],[107.014,-62.293],[106.209,-62.621],[105.387,-62.944],[104.546,-63.262],[103.686,-63.576],[102.808,-63.884],[101.91,-64.186],[100.993,-64.483],[100.056,-64.775],[99.098,-65.06],[98.12,-65.339],[97.121,-65.611],[96.102,-65.877],[95.061,-66.136],[93.999,-66.387],[92.916,-66.632],[91.812,-66.868],[90.686,-67.097],[89.539,-67.318],[88.372,-67.531],[87.184,-67.735],[85.975,-67.93],[84.746,-68.116],[83.498,-68.293],[82.231,-68.46],[80.945,-68.618],[79.642,-68.765],[78.322,-68.903],[76.986,-69.03],[75.635,-69.147],[74.271,-69.253],[72.893,-69.348],[71.504,-69.432],[70.105,-69.505],[68.697,-69.567],[67.282,-69.617],[65.861,-69.656],[64.435,-69.684],[63.007,-69.699],[61.577,-69.704],[60.147,-69.696],[58.719,-69.677],[57.295,-69.646],[55.875,-69.604],[54.462,-69.551],[53.056,-69.486],[51.66,-69.41],[50.274,-69.322],[48.9,-69.224],[47.539,-69.115],[46.193,-68.995],[44.861,-68.865],[43.546,-68.725],[42.248,-68.574],[40.967,-68.413],[39.706,-68.243],[38.463,-68.064],[37.24,-67.875],[36.037,-67.677],[34.854,-67.471],[33.693,-67.256],[32.552,-67.033],[31.432,-66.802],[30.334,-66.563],[29.257,-66.317],[28.201,-66.063],[27.167,-65.802],[26.153,-65.534],[25.16,-65.26],[24.188,-64.979],[23.236,-64.692],[22.305,-64.4],[21.393,-64.101],[20.501,-63.797],[19.628,-63.487],[18.774,-63.172],[17.938,-62.852],[17.12,-62.528],[16.321,-62.198],[15.538,-61.865],[14.773,-61.526],[14.024,-61.184],[13.292,-60.838],[12.547,-60.496],[11.818,-60.151],[11.104,-59.802],[10.406,-59.449],[9.721,-59.092],[9.051,-58.732],[8.395,-58.369],[7.752,-58.002],[7.122,-57.632],[6.505,-57.258],[5.9,-56.882],[5.308,-56.503],[4.727,-56.122],[4.158,-55.737],[3.599,-55.35],[3.052,-54.961],[2.515,-54.569],[1.989,-54.175],[1.472,-53.778],[0.965,-53.38],[0.468,-52.979],[-0.021,-52.576],[-0.5,-52.172],[-0.971,-51.765],[-1.433,-51.356],[-1.887,-50.946],[-2.333,-50.534],[-2.772,-50.12],[-3.203,-49.705],[-3.626,-49.288],[-4.043,-48.87],[-4.452,-48.45],[-4.855,-48.029],[-5.251,-47.606],[-5.641,-47.182],[-6.025,-46.757],[-6.402,-46.33]]}},{"type":"Feature","properties":{"boundary_type":"subduction","feature_type":"gpml:SubductionZone","polarity":"Left","overriding_plate_id":701,"subducting_plate_id":90107,"plate_ids":[701,90107],"name":""},"geometry":{"type":"LineString","coordinates":[[-6.402,-46.33],[-6.578,-46.129]]}},{"type":"Feature","properties":{"boundary_type":"ridge","feature_type":"gpml:MidOceanRidge","polarity":null,"overriding_plate_id":null,"subducting_plate_id":null,"plate_ids":[90105,90106],"name":""},"geometry":{"type":"LineString","coordinates":[[34.361,27.695],[34.0,27.336],[33.64,26.976],[33.283,26.615],[32.929,26.253],[32.576,25.89],[32.226,25.527]]}},{"type":"Feature","properties":{"boundary_type":"ridge","feature_type":"gpml:MidOceanRidge","polarity":null,"overriding_plate_id":null,"subducting_plate_id":null,"plate_ids":[90105,90107],"name":""},"geometry":{"type":"LineString","coordinates":[[32.226,25.527],[31.868,25.152],[31.512,24.777],[31.159,24.401],[30.807,24.024],[30.458,23.646],[30.11,23.268],[29.765,22.888],[29.421,22.508],[29.08,22.128],[28.74,21.746],[28.402,21.364],[28.066,20.981],[27.731,20.598],[27.399,20.214],[27.067,19.829],[26.738,19.443],[26.41,19.057],[26.083,18.671],[25.758,18.284],[25.435,17.896],[25.113,17.508],[24.792,17.119],[24.472,16.73],[24.154,16.34],[23.838,15.95],[23.522,15.56],[23.207,15.169],[22.894,14.777],[22.582,14.385],[22.271,13.993],[21.961,13.6],[21.652,13.207],[21.344,12.814],[21.037,12.42],[21.429,12.116],[21.82,11.812],[22.211,11.507],[22.6,11.202],[22.989,10.896],[23.377,10.59],[23.764,10.283],[24.15,9.976],[24.536,9.668],[24.921,9.36],[25.305,9.051],[25.689,8.742],[26.071,8.433],[26.454,8.123],[26.836,7.813],[27.217,7.503],[27.597,7.192],[27.977,6.881],[28.357,6.57],[28.736,6.258],[29.115,5.947],[29.493,5.634],[29.871,5.322],[30.248,5.009],[30.625,4.697],[31.002,4.384],[31.379,4.07],[31.755,3.757],[32.131,3.443],[32.506,3.13],[32.882,2.816],[33.257,2.502],[33.632,2.188],[33.355,1.775],[33.078,1.363],[32.801,0.95],[32.524,0.537],[32.247,0.124],[31.97,-0.289],[31.693,-0.702],[31.416,-1.114],[31.139,-1.527],[30.862,-1.94],[30.585,-2.353],[30.308,-2.765],[30.03,-3.178],[29.752,-3.59],[29.474,-4.003],[29.196,-4.415],[28.917,-4.827],[28.638,-5.239],[28.359,-5.651],[28.079,-6.063],[27.799,-6.475],[27.518,-6.886],[27.237,-7.298],[26.955,-7.709],[26.673,-8.12],[26.39,-8.531],[26.107,-8.942],[25.823,-9.352],[25.538,-9.762],[25.253,-10.172],[24.967,-10.582],[24.68,-10.991],[24.392,-11.4],[24.104,-11.809],[23.814,-12.218],[23.524,-12.626],[23.233,-13.034],[22.941,-13.442],[22.648,-13.849],[22.353,-14.256],[22.058,-14.663],[21.762,-15.069],[21.464,-15.475],[21.166,-15.88],[20.866,-16.285],[20.565,-16.69],[20.262,-17.094],[19.959,-17.498],[19.654,-17.901],[19.347,-18.304],[19.039,-18.706],[18.73,-19.108],[18.419,-19.509],[18.107,-19.91],[17.793,-20.31],[17.477,-20.71],[17.16,-21.109],[16.841,-21.507],[16.52,-21.905],[16.198,-22.302],[15.874,-22.699],[15.547,-23.095],[15.219,-23.49],[14.889,-23.885],[14.557,-24.278],[14.223,-24.672],[14.541,-25.078],[14.862,-25.484],[15.185,-25.89],[15.51,-26.294],[15.838,-26.698],[16.168,-27.101],[16.5,-27.504],[16.834,-27.905],[17.171,-28.306],[17.511,-28.706],[17.853,-29.105],[18.198,-29.503],[18.546,-29.9],[18.896,-30.297],[19.249,-30.692],[19.606,-31.087],[19.965,-31.48],[20.327,-31.872],[20.692,-32.264],[21.06,-32.654],[21.432,-33.043],[21.807,-33.432],[22.185,-33.819],[22.567,-34.205],[22.096,-34.504],[21.622,-34.801],[21.145,-35.096],[20.664,-35.39],[20.179,-35.681],[19.691,-35.971],[19.199,-36.259],[18.704,-36.544],[18.205,-36.828],[17.703,-37.109],[17.196,-37.389],[16.686,-37.666],[16.172,-37.941],[15.655,-38.214],[15.133,-38.484],[14.607,-38.752],[14.078,-39.018],[13.544,-39.281],[13.007,-39.542],[12.465,-39.8],[11.92,-40.056],[11.37,-40.309],[10.816,-40.56],[10.258,-40.808],[9.696,-41.053],[9.13,-41.296],[8.56,-41.535],[7.985,-41.772],[7.406,-42.006],[6.823,-42.237],[6.235,-42.465],[5.644,-42.69],[5.048,-42.912],[4.447,-43.131],[3.843,-43.347],[3.234,-43.559],[2.621,-43.768],[2.004,-43.974],[1.382,-44.177],[0.756,-44.376],[0.126,-44.572],[-0.508,-44.764],[-1.147,-44.953],[-1.789,-45.138],[-2.436,-45.32],[-3.087,-45.498],[-3.742,-45.672],[-4.401,-45.842],[-5.064,-46.009],[-5.731,-46.171],[-6.402,-46.33]]}},{"type":"Feature","properties":{"boundary_type":"ridge","feature_type":"gpml:MidOceanRidge","polarity":null,"overriding_plate_id":null,"subducting_plate_id":null,"plate_ids":[90106,90107],"name":""},"geometry":{"type":"LineString","coordinates":[[32.226,25.527],[31.894,25.922],[31.561,26.317],[31.225,26.711],[30.887,27.104],[30.546,27.496],[30.203,27.888],[29.858,28.278],[29.51,28.668],[29.159,29.056],[28.806,29.444],[28.45,29.831],[28.092,30.217],[27.73,30.602],[27.366,30.986],[26.998,31.369],[26.628,31.751],[26.255,32.132],[25.878,32.511],[25.498,32.89],[25.115,33.267],[24.729,33.644],[24.339,34.019],[23.946,34.392],[23.55,34.765],[23.149,35.136],[22.745,35.506],[22.338,35.875],[21.926,36.242],[21.511,36.607],[21.092,36.972],[20.668,37.334],[20.241,37.696],[19.809,38.055],[19.374,38.413],[18.934,38.77],[18.489,39.125],[18.04,39.478],[18.408,39.838],[18.779,40.196],[19.155,40.554],[19.535,40.91],[19.919,41.265],[20.307,41.619],[19.752,41.874],[19.192,42.127],[18.628,42.377],[18.06,42.625],[17.487,42.869],[16.91,43.111],[16.328,43.35],[15.742,43.586],[15.15,43.818],[14.555,44.048],[13.954,44.275],[13.35,44.498],[12.74,44.718],[12.126,44.935],[11.507,45.149],[10.884,45.359],[10.256,45.566],[9.623,45.77],[8.986,45.969],[8.344,46.166],[7.698,46.358],[7.828,46.823],[7.961,47.287],[8.096,47.751],[8.233,48.215],[8.373,48.679],[8.516,49.142],[8.661,49.606],[8.809,50.069],[8.96,50.532],[9.113,50.994],[9.27,51.457],[9.431,51.919],[9.594,52.382],[9.761,52.843],[9.931,53.305],[9.132,53.382],[8.331,53.453],[7.526,53.519],[6.719,53.58],[5.91,53.635],[5.099,53.685],[4.286,53.729],[3.471,53.768],[2.655,53.801],[1.838,53.829],[1.02,53.851],[0.201,53.867],[-0.618,53.878],[-1.438,53.884],[-2.257,53.883],[-3.077,53.877],[-3.896,53.866],[-4.715,53.849],[-5.533,53.827],[-6.35,53.798],[-6.452,54.282],[-6.555,54.766],[-6.662,55.249],[-6.771,55.733],[-6.882,56.216],[-6.997,56.7],[-7.114,57.183],[-7.235,57.666],[-7.358,58.149],[-7.486,58.632],[-7.616,59.114],[-7.751,59.597],[-7.889,60.079],[-8.032,60.562],[-8.179,61.044],[-8.33,61.526],[-8.486,62.007],[-8.648,62.489],[-8.814,62.97],[-8.986,63.452],[-9.164,63.933],[-9.348,64.413],[-9.539,64.894],[-10.663,64.774],[-11.778,64.646],[-12.881,64.51],[-13.974,64.366],[-15.054,64.213],[-16.123,64.053],[-17.179,63.884],[-18.222,63.709],[-19.252,63.525],[-20.268,63.335],[-21.271,63.137],[-22.26,62.933],[-23.235,62.721],[-24.196,62.503],[-25.143,62.278],[-26.076,62.047],[-26.994,61.81],[-27.898,61.567],[-28.788,61.318],[-29.664,61.063],[-30.526,60.803],[-31.373,60.537],[-32.207,60.266],[-33.027,59.99],[-33.833,59.708],[-34.625,59.422],[-35.405,59.132],[-36.17,58.836],[-36.923,58.536],[-37.663,58.232],[-38.391,57.924],[-39.106,57.611],[-39.808,57.295],[-40.499,56.975],[-41.178,56.651],[-41.845,56.323],[-42.5,55.992],[-43.145,55.657],[-43.778,55.319],[-44.401,54.978],[-45.013,54.634],[-45.615,54.287],[-46.207,53.936],[-46.789,53.583]]}},{"type":"Feature","properties":{"boundary_type":"ridge","feature_type":"gpml:MidOceanRidge","polarity":null,"overriding_plate_id":null,"subducting_plate_id":null,"plate_ids":[90106,501001],"name":""},"geometry":{"type":"LineString","coordinates":[[89.26,23.093],[88.735,23.114],[88.211,23.133],[87.686,23.15],[87.161,23.166],[86.636,23.18],[86.111,23.192],[85.586,23.202],[85.06,23.21],[84.535,23.217],[84.009,23.222],[83.484,23.225],[82.958,23.227],[82.433,23.227],[81.908,23.225],[81.382,23.221]]}},{"type":"Feature","properties":{"boundary_type":"ridge","feature_type":"gpml:MidOceanRidge","polarity":null,"overriding_plate_id":null,"subducting_plate_id":null,"plate_ids":[90105,90106],"name":""},"geometry":{"type":"LineString","coordinates":[[81.382,23.221],[80.848,23.216],[80.313,23.208],[79.779,23.199],[79.245,23.188],[78.711,23.175],[78.177,23.161],[77.643,23.144],[77.109,23.126],[76.576,23.106],[76.042,23.085],[75.509,23.061],[74.976,23.036],[74.443,23.009],[73.91,22.98],[73.378,22.949],[72.846,22.916],[72.314,22.882],[71.783,22.846],[71.251,22.808],[70.72,22.769],[70.19,22.728],[69.659,22.685],[69.129,22.64],[68.6,22.593],[68.07,22.545],[67.541,22.495],[67.013,22.443],[66.485,22.39],[65.957,22.335],[65.43,22.278],[64.903,22.22],[64.376,22.159],[63.85,22.097],[63.325,22.034],[62.8,21.968],[62.275,21.902],[61.751,21.833],[61.228,21.763],[60.705,21.691],[60.182,21.617],[59.66,21.542],[59.139,21.465],[58.618,21.387],[58.098,21.307],[58.04,21.797],[57.982,22.287],[57.923,22.778],[57.864,23.268],[57.804,23.758],[57.744,24.249],[57.683,24.739],[57.622,25.229],[57.561,25.719],[57.499,26.209],[57.436,26.699],[57.373,27.189],[57.309,27.679],[57.245,28.169],[57.18,28.659],[57.115,29.149],[57.049,29.639],[56.982,30.129],[56.915,30.619],[56.847,31.109],[56.778,31.599],[56.709,32.088],[56.638,32.578],[56.057,32.504],[55.476,32.428],[54.896,32.349],[54.318,32.267],[53.74,32.183],[53.164,32.096],[52.588,32.006],[52.014,31.914],[51.441,31.819],[50.869,31.722],[50.298,31.622],[49.729,31.52],[49.161,31.415],[48.594,31.308],[48.028,31.198],[47.464,31.085],[46.901,30.971],[46.34,30.853],[45.779,30.734],[45.221,30.612],[44.663,30.487],[44.107,30.36],[43.553,30.231],[43.0,30.1],[42.448,29.966],[41.898,29.83],[41.35,29.691],[40.803,29.551],[40.258,29.408],[39.714,29.263],[39.171,29.116],[38.631,28.966],[38.091,28.815],[37.554,28.661],[37.018,28.505],[36.483,28.347],[35.95,28.187],[35.419,28.025],[34.889,27.861],[34.361,27.695]]}},{"type":"Feature","properties":{"boundary_type":"ridge","feature_type":"gpml:MidOceanRidge","polarity":null,"overriding_plate_id":null,"subducting_plate_id":null,"plate_ids":[90105,501001],"name":""},"geometry":{"type":"LineString","coordinates":[[81.382,23.221],[81.275,22.733],[81.168,22.244],[81.062,21.756],[80.957,21.267],[80.853,20.779],[80.749,20.29],[80.646,19.801],[80.543,19.313],[80.441,18.824],[80.34,18.335],[80.239,17.846],[80.139,17.357],[80.04,16.868],[79.941,16.379],[79.842,15.89],[79.744,15.4],[79.646,14.911],[79.549,14.422],[79.452,13.933],[79.356,13.443],[79.26,12.954],[79.164,12.464],[79.069,11.975],[78.974,11.485],[78.879,10.996],[78.785,10.506],[78.691,10.017],[78.597,9.527],[78.504,9.038],[78.411,8.548],[78.318,8.058],[78.225,7.568],[78.132,7.079],[78.04,6.589],[77.948,6.099],[77.856,5.61],[77.764,5.12],[77.673,4.63],[77.581,4.14],[77.49,3.65],[77.398,3.16],[77.87,3.024],[78.342,2.887],[78.813,2.749],[79.285,2.612],[79.756,2.474],[80.227,2.336],[80.698,2.198],[81.169,2.06],[81.64,1.922],[82.111,1.784],[82.582,1.645],[83.053,1.507],[83.523,1.368],[83.994,1.229],[84.465,1.09],[84.935,0.951],[85.406,0.812],[85.876,0.673],[86.346,0.534],[86.817,0.395],[87.287,0.256],[87.758,0.116],[88.228,-0.023],[88.698,-0.162],[89.169,-0.301],[89.639,-0.44],[90.11,-0.58],[90.58,-0.719],[91.051,-0.858],[91.521,-0.997],[91.992,-1.136],[92.462,-1.275],[92.348,-1.747],[92.234,-2.219],[92.119,-2.691],[92.005,-3.163],[91.89,-3.634],[91.776,-4.106],[91.661,-4.578],[91.546,-5.05],[91.431,-5.522],[91.316,-5.994],[91.2,-6.466],[91.085,-6.938],[90.969,-7.41],[90.852,-7.881],[90.736,-8.353],[90.619,-8.825],[90.502,-9.297],[90.385,-9.768],[90.267,-10.24],[90.149,-10.711],[90.031,-11.183],[89.912,-11.654],[89.793,-12.126],[89.673,-12.597],[89.553,-13.068],[89.96,-13.329],[90.368,-13.589],[90.777,-13.848],[91.187,-14.106],[91.598,-14.364],[92.01,-14.621],[92.422,-14.877],[92.836,-15.133],[93.25,-15.388],[93.666,-15.642],[94.083,-15.895],[94.5,-16.148],[94.919,-16.399],[95.339,-16.65],[95.76,-16.9],[96.182,-17.149],[96.605,-17.397],[97.03,-17.645],[97.455,-17.891]]}},{"type":"Feature","properties":{"boundary_type":"ridge","feature_type":"gpml:MidOceanRidge","polarity":null,"overriding_plate_id":null,"subducting_plate_id":null,"plate_ids":[90106,501001],"name":""},"geometry":{"type":"LineString","coordinates":[[-170.915,50.597],[-171.347,51.005],[-171.787,51.411],[-172.234,51.816],[-172.69,52.219],[-173.154,52.62],[-173.626,53.019],[-174.108,53.417],[-174.598,53.812],[-175.098,54.205],[-175.607,54.597],[-176.126,54.986],[-176.656,55.373],[-177.195,55.757],[-177.746,56.139],[-178.307,56.519],[-178.88,56.896],[-179.465,57.27],[179.939,57.642],[179.33,58.011],[178.709,58.376],[178.075,58.739],[177.427,59.099],[176.766,59.455],[176.091,59.808],[175.401,60.157],[174.697,60.503],[173.978,60.844],[173.243,61.182],[172.492,61.516],[171.634,61.291],[170.788,61.061],[169.954,60.826],[169.132,60.585],[168.323,60.34],[167.526,60.09],[166.742,59.835],[165.969,59.575],[165.208,59.311],[164.459,59.043],[163.722,58.77],[162.952,58.476],[162.195,58.176],[161.451,57.873],[160.719,57.565],[159.999,57.253],[159.292,56.937],[158.597,56.617],[157.914,56.293],[157.242,55.965],[156.581,55.634],[155.932,55.299],[155.293,54.961],[154.665,54.62],[154.048,54.275],[153.361,54.566],[152.664,54.852],[151.957,55.134],[151.24,55.413],[150.512,55.686],[149.775,55.956],[149.028,56.221],[148.27,56.482],[147.501,56.737],[146.723,56.988],[145.934,57.235],[145.134,57.476],[144.324,57.712],[143.503,57.942],[142.672,58.168],[141.83,58.388],[140.978,58.602],[140.116,58.811],[139.243,59.014],[138.36,59.211],[137.467,59.401],[136.564,59.586],[135.652,59.764],[134.729,59.936],[133.797,60.102],[132.856,60.261],[131.906,60.413],[130.948,60.558],[129.98,60.697],[129.687,60.23],[129.401,59.763],[129.123,59.295],[128.853,58.827],[128.59,58.358],[128.334,57.889],[128.084,57.419],[127.841,56.948],[127.604,56.477],[127.373,56.006],[127.147,55.534],[126.927,55.062],[126.711,54.59],[126.501,54.117],[126.296,53.644],[126.095,53.17],[125.898,52.696],[125.706,52.222],[125.517,51.747],[125.333,51.272],[125.152,50.797],[124.975,50.322],[124.802,49.846],[124.632,49.37],[124.465,48.894],[124.301,48.418],[124.141,47.941],[123.414,47.875],[122.689,47.805],[121.967,47.729],[121.246,47.65],[120.528,47.566],[119.812,47.477],[119.099,47.384],[118.388,47.287],[117.68,47.185],[116.975,47.079],[116.272,46.968],[115.573,46.853],[114.876,46.734],[114.183,46.611],[113.493,46.484],[112.806,46.352],[112.122,46.217],[111.442,46.077],[110.765,45.933],[110.092,45.786],[109.423,45.634],[108.757,45.479],[108.095,45.319],[107.436,45.156],[106.782,44.99],[106.131,44.819],[105.484,44.645],[104.841,44.467],[104.202,44.285],[103.567,44.1],[102.936,43.912],[102.309,43.72],[102.491,43.248],[102.67,42.776],[102.846,42.303],[103.02,41.831],[103.191,41.358],[103.359,40.885],[103.526,40.411],[103.689,39.938],[103.851,39.464],[104.01,38.99],[104.168,38.515],[104.323,38.041],[104.476,37.566],[104.627,37.091],[104.777,36.616],[104.924,36.141],[105.07,35.665],[105.214,35.189],[105.357,34.714],[105.497,34.238],[105.637,33.762],[105.774,33.285],[105.91,32.809],[106.045,32.332],[106.178,31.855],[106.31,31.379],[106.441,30.902],[106.57,30.424],[106.698,29.947],[106.825,29.47],[106.281,29.315],[105.738,29.158],[105.197,28.998],[104.657,28.837],[104.12,28.673],[103.583,28.508],[103.049,28.34],[102.516,28.17],[101.985,27.998],[101.456,27.824],[100.929,27.648],[100.403,27.47],[99.879,27.29],[99.356,27.108],[98.835,26.924],[98.316,26.738],[97.799,26.551],[97.283,26.361],[96.769,26.17],[96.257,25.977],[95.747,25.782],[95.238,25.585],[94.731,25.387],[94.225,25.186],[93.721,24.984],[93.219,24.781],[92.718,24.575],[92.219,24.369],[91.722,24.16],[91.227,23.95],[90.732,23.738],[90.24,23.525],[89.749,23.31],[89.26,23.093]]}},{"type":"Feature","properties":{"boundary_type":"ridge","feature_type":"gpml:MidOceanRidge","polarity":null,"overriding_plate_id":null,"subducting_plate_id":null,"plate_ids":[701,90107],"name":""},"geometry":{"type":"LineString","coordinates":[[-6.578,-46.129],[-7.293,-46.103],[-8.008,-46.073],[-8.722,-46.038],[-9.436,-45.999],[-10.148,-45.955],[-10.859,-45.907],[-11.568,-45.854],[-12.276,-45.797],[-12.983,-45.736],[-13.688,-45.67],[-14.246,-45.369],[-14.799,-45.065],[-15.345,-44.759],[-15.885,-44.45],[-16.42,-44.139],[-16.949,-43.825],[-17.473,-43.509],[-17.991,-43.19],[-18.504,-42.869],[-19.011,-42.546],[-19.513,-42.221],[-20.01,-41.893],[-20.502,-41.564],[-20.989,-41.232],[-21.471,-40.898],[-21.948,-40.562],[-22.421,-40.225],[-22.888,-39.885],[-23.351,-39.543],[-23.81,-39.2],[-24.264,-38.855],[-24.713,-38.508],[-25.159,-38.16],[-25.6,-37.81],[-26.037,-37.458],[-26.469,-37.104],[-26.898,-36.749],[-27.323,-36.393],[-27.383,-35.911],[-27.443,-35.429],[-27.502,-34.947],[-27.56,-34.465],[-27.618,-33.983],[-27.675,-33.501],[-27.731,-33.019],[-27.787,-32.537],[-27.842,-32.055],[-27.896,-31.573],[-27.95,-31.091],[-28.004,-30.609],[-28.057,-30.127],[-28.109,-29.644],[-28.161,-29.162],[-28.212,-28.68],[-28.263,-28.198],[-28.314,-27.715],[-28.197,-27.23],[-28.082,-26.744],[-27.968,-26.258],[-27.854,-25.772],[-27.742,-25.286],[-27.63,-24.8],[-27.519,-24.313],[-27.409,-23.827],[-27.3,-23.341],[-27.192,-22.854],[-27.085,-22.368],[-26.978,-21.881],[-27.443,-21.669],[-27.906,-21.456],[-28.368,-21.242],[-28.829,-21.026],[-29.289,-20.809],[-29.747,-20.591],[-30.204,-20.372],[-30.659,-20.151],[-31.113,-19.93],[-31.566,-19.707],[-32.018,-19.483],[-32.469,-19.258],[-32.918,-19.032],[-33.366,-18.805],[-33.813,-18.576],[-34.258,-18.347],[-34.703,-18.117],[-35.146,-17.885],[-35.588,-17.653],[-36.029,-17.42],[-36.469,-17.185],[-36.907,-16.95],[-37.345,-16.714],[-37.782,-16.477],[-38.217,-16.239],[-38.651,-16.0],[-38.481,-15.544],[-38.312,-15.088],[-38.143,-14.631],[-37.975,-14.175],[-37.807,-13.719],[-37.64,-13.262],[-37.474,-12.805],[-37.308,-12.348],[-37.143,-11.892],[-36.979,-11.435],[-36.815,-10.977],[-36.652,-10.52],[-36.489,-10.063],[-36.326,-9.606],[-36.164,-9.148],[-36.002,-8.691],[-35.841,-8.233],[-35.68,-7.776],[-35.52,-7.318],[-35.36,-6.86],[-35.2,-6.402],[-35.04,-5.945],[-34.881,-5.487],[-34.722,-5.029],[-34.563,-4.571],[-34.998,-4.346],[-35.433,-4.121],[-35.868,-3.895],[-36.303,-3.67],[-36.738,-3.444],[-37.172,-3.218],[-37.606,-2.992],[-37.386,-2.561],[-37.167,-2.131],[-36.947,-1.7],[-36.728,-1.269],[-36.509,-0.839],[-36.289,-0.408],[-36.07,0.023],[-35.851,0.454],[-35.632,0.884],[-35.413,1.315],[-35.193,1.746],[-34.974,2.176],[-34.754,2.607],[-34.535,3.038],[-34.315,3.468],[-34.095,3.899],[-33.874,4.329],[-34.27,4.614],[-34.666,4.898],[-35.062,5.183],[-35.458,5.467],[-35.855,5.751],[-36.252,6.034],[-36.65,6.317],[-37.048,6.6],[-37.447,6.883]]}},{"type":"Feature","properties":{"boundary_type":"transform","feature_type":"gpml:Transform","polarity":null,"overriding_plate_id":null,"subducting_plate_id":null,"plate_ids":[10101,90106],"name":""},"geometry":{"type":"LineString","coordinates":[[-124.735,64.787],[-124.889,64.454],[-125.04,64.121]]}},{"type":"Feature","properties":{"boundary_type":"transform","feature_type":"gpml:Transform","polarity":null,"overriding_plate_id":null,"subducting_plate_id":null,"plate_ids":[101,10101],"name":""},"geometry":{"type":"LineString","coordinates":[[-125.04,64.121],[-125.25,63.644],[-125.453,63.166],[-125.649,62.687],[-125.84,62.209],[-126.024,61.73],[-126.202,61.251],[-126.376,60.772],[-126.544,60.292],[-126.707,59.813],[-126.866,59.333],[-127.02,58.853],[-127.17,58.372],[-127.316,57.892],[-127.458,57.412],[-127.596,56.931],[-127.731,56.45],[-127.863,55.969],[-127.991,55.488],[-128.116,55.007],[-128.238,54.525]]}},{"type":"Feature","properties":{"boundary_type":"transform","feature_type":"gpml:Transform","polarity":null,"overriding_plate_id":null,"subducting_plate_id":null,"plate_ids":[101,10101],"name":""},"geometry":{"type":"LineString","coordinates":[[-94.26,63.001],[-94.98,62.635],[-95.682,62.266],[-96.367,61.893],[-97.036,61.517],[-97.688,61.138],[-98.325,60.755],[-98.947,60.37],[-99.554,59.982],[-100.147,59.591],[-100.727,59.198],[-101.293,58.802],[-101.846,58.404],[-102.387,58.003],[-102.916,57.6],[-103.434,57.195],[-103.94,56.788],[-104.435,56.379],[-104.92,55.968],[-105.394,55.555],[-105.859,55.14],[-106.314,54.723],[-106.759,54.305]]}},{"type":"Feature","properties":{"boundary_type":"subduction","feature_type":"gpml:SubductionZone","polarity":"Left","overriding_plate_id":101,"subducting_plate_id":501001,"plate_ids":[101,501001],"name":"Baltica_SZ"},"geometry":{"type":"LineString","coordinates":[[-177.783,40.251],[-177.765,39.785],[-177.747,39.32],[-177.729,38.854],[-177.711,38.389],[-177.693,37.923],[-177.676,37.458],[-177.659,36.992],[-177.631,36.525],[-177.603,36.059],[-177.576,35.592],[-177.549,35.125],[-177.523,34.658],[-177.496,34.191],[-177.47,33.724],[-177.444,33.257],[-177.419,32.791],[-177.394,32.324],[-177.441,31.859],[-177.487,31.395],[-177.533,30.931],[-177.579,30.467],[-177.624,30.002],[-177.668,29.538],[-177.713,29.074],[-177.756,28.609],[-177.8,28.145],[-177.843,27.681],[-177.886,27.216],[-177.928,26.752],[-177.944,26.27],[-177.96,25.788],[-177.976,25.306],[-177.991,24.825],[-178.007,24.343],[-178.022,23.861]]}},{"type":"Feature","properties":{"boundary_type":"subduction","feature_type":"gpml:SubductionZone","polarity":"Left","overriding_plate_id":101,"subducting_plate_id":501,"plate_ids":[101,501],"name":"Baltica_SZ"},"geometry":{"type":"LineString","coordinates":[[-178.022,23.861],[-178.038,23.368],[-178.053,22.874],[-178.069,22.38],[-178.084,21.887],[-178.156,21.409],[-178.227,20.931],[-178.298,20.453],[-178.368,19.975],[-178.438,19.497],[-178.508,19.02],[-178.577,18.542],[-178.646,18.064],[-178.714,17.586],[-178.782,17.108],[-178.85,16.63],[-178.918,16.151],[-178.985,15.673],[-179.051,15.195],[-179.169,14.716],[-179.287,14.237],[-179.403,13.758],[-179.52,13.279],[-179.636,12.8],[-179.751,12.321],[-179.866,11.841],[-179.981,11.362],[179.905,10.883],[179.791,10.403],[179.678,9.924],[179.565,9.444],[179.527,8.96],[179.489,8.476],[179.452,7.992],[179.414,7.508],[179.377,7.024],[179.34,6.54],[179.303,6.056]]}},{"type":"Feature","properties":{"boundary_type":"ridge","feature_type":"gpml:MidOceanRidge","polarity":null,"overriding_plate_id":null,"subducting_plate_id":null,"plate_ids":[701,80101],"name":""},"geometry":{"type":"LineString","coordinates":[[-62.377,3.704],[-62.273,3.263],[-62.17,2.823],[-62.066,2.382],[-61.963,1.941],[-61.859,1.501],[-61.756,1.06],[-61.653,0.62],[-61.549,0.179],[-61.07,0.317],[-60.59,0.456],[-60.11,0.594],[-59.631,0.733],[-59.151,0.871],[-58.671,1.009],[-58.192,1.147],[-57.712,1.285],[-57.232,1.423],[-56.752,1.561],[-56.272,1.699],[-55.792,1.836],[-55.312,1.974],[-54.831,2.111],[-54.351,2.248],[-53.871,2.386],[-53.39,2.522],[-52.91,2.659],[-52.429,2.796],[-51.948,2.932],[-51.467,3.068],[-50.986,3.204],[-50.505,3.34],[-50.024,3.475],[-49.542,3.61],[-49.061,3.745],[-48.579,3.88],[-48.097,4.014],[-47.615,4.149],[-47.133,4.282],[-46.65,4.416],[-46.168,4.549],[-45.685,4.682],[-45.202,4.815],[-44.719,4.947],[-44.236,5.079],[-43.752,5.21],[-43.269,5.341],[-42.785,5.472],[-42.301,5.603],[-41.816,5.732],[-41.332,5.862],[-40.847,5.991],[-40.362,6.12],[-39.877,6.248],[-39.391,6.376],[-38.906,6.504],[-38.42,6.63],[-37.933,6.757],[-37.447,6.883]]}},{"type":"Feature","properties":{"boundary_type":"ridge","feature_type":"gpml:MidOceanRidge","polarity":null,"overriding_plate_id":null,"subducting_plate_id":null,"plate_ids":[80101,90107],"name":""},"geometry":{"type":"LineString","coordinates":[[-37.447,6.883],[-36.969,7.006],[-36.492,7.129],[-36.014,7.251],[-35.536,7.372],[-35.057,7.493],[-34.579,7.614],[-34.1,7.734],[-33.62,7.854],[-33.141,7.973],[-32.661,8.091],[-32.181,8.209],[-31.701,8.326],[-31.22,8.443],[-30.739,8.559],[-30.258,8.675],[-29.776,8.79],[-29.294,8.904],[-28.812,9.018],[-28.33,9.131],[-27.847,9.243],[-27.364,9.355],[-26.881,9.466],[-26.397,9.577],[-25.913,9.687],[-25.429,9.796],[-24.944,9.904],[-24.459,10.012],[-23.984,10.116],[-23.508,10.219],[-23.032,10.321],[-22.556,10.423],[-22.079,10.524],[-21.602,10.624],[-21.125,10.724],[-20.647,10.823],[-20.185,10.918],[-19.722,11.012],[-19.259,11.105],[-18.796,11.198],[-18.332,11.29],[-17.868,11.381],[-17.404,11.471],[-16.939,11.561],[-16.475,11.65],[-16.01,11.738],[-15.544,11.826],[-15.079,11.912],[-14.613,11.998]]}},{"type":"Feature","properties":{"boundary_type":"ridge","feature_type":"gpml:MidOceanRidge","polarity":null,"overriding_plate_id":null,"subducting_plate_id":null,"plate_ids":[801,80101],"name":""},"geometry":{"type":"LineString","coordinates":[[-27.352,44.032],[-27.858,43.709],[-28.358,43.384],[-28.852,43.057],[-29.341,42.727],[-29.825,42.396],[-30.304,42.063],[-30.778,41.727],[-31.247,41.39],[-31.711,41.051],[-32.171,40.709],[-32.625,40.367],[-33.076,40.022],[-33.521,39.676],[-33.962,39.328],[-34.399,38.978],[-34.831,38.627],[-35.259,38.274],[-35.683,37.919],[-36.103,37.563],[-36.519,37.206],[-36.931,36.847],[-37.34,36.487],[-37.744,36.125],[-38.145,35.762],[-38.542,35.398],[-38.935,35.032],[-39.325,34.665],[-39.711,34.297],[-40.094,33.928],[-40.474,33.558],[-40.851,33.186],[-40.46,32.913],[-40.072,32.638],[-39.687,32.362],[-39.304,32.085],[-39.701,31.737],[-40.095,31.388],[-40.486,31.038],[-40.875,30.686],[-41.261,30.333],[-41.644,29.979],[-42.024,29.624],[-42.401,29.268],[-42.776,28.911],[-43.148,28.553],[-43.518,28.194],[-43.886,27.834],[-44.25,27.473],[-44.613,27.11],[-44.973,26.748],[-45.331,26.384],[-45.687,26.019],[-46.04,25.653],[-46.391,25.287],[-46.74,24.919],[-47.087,24.551],[-47.432,24.182],[-47.775,23.813],[-48.116,23.442],[-48.456,23.071],[-48.793,22.699],[-48.456,22.372],[-48.12,22.044],[-47.786,21.715],[-47.454,21.385],[-47.123,21.055],[-47.483,20.694],[-47.841,20.331],[-48.198,19.968],[-48.554,19.605],[-48.907,19.241],[-49.259,18.876],[-49.61,18.51],[-49.959,18.144],[-50.306,17.777],[-50.653,17.409],[-50.997,17.041],[-51.341,16.672],[-51.683,16.303],[-52.024,15.933],[-52.363,15.563],[-52.701,15.192],[-53.039,14.821],[-53.374,14.449],[-53.709,14.077],[-54.043,13.704],[-54.376,13.331],[-54.707,12.957],[-55.038,12.583],[-55.368,12.209],[-55.697,11.834],[-56.024,11.458],[-56.35,11.088],[-56.675,10.716],[-56.999,10.345],[-57.323,9.973],[-57.645,9.601],[-57.967,9.228],[-58.289,8.856],[-58.609,8.483],[-58.929,8.109],[-59.249,7.736],[-59.568,7.362],[-59.886,6.988],[-60.204,6.614],[-60.521,6.239],[-60.838,5.865],[-61.154,5.49],[-61.47,5.115],[-61.786,4.74],[-62.101,4.365],[-62.416,3.989],[-62.731,3.614]]}},{"type":"Feature","properties":{"boundary_type":"ridge","feature_type":"gpml:MidOceanRidge","polarity":null,"overriding_plate_id":null,"subducting_plate_id":null,"plate_ids":[801,80103],"name":""},"geometry":{"type":"LineString","coordinates":[[-69.581,12.593],[-69.86,12.202],[-70.138,11.811],[-70.415,11.419],[-70.692,11.027],[-70.967,10.635],[-71.242,10.243]]}},{"type":"Feature","properties":{"boundary_type":"ridge","feature_type":"gpml:MidOceanRidge","polarity":null,"overriding_plate_id":null,"subducting_plate_id":null,"plate_ids":[701,80103],"name":""},"geometry":{"type":"LineString","coordinates":[[-71.242,10.243],[-71.526,9.838],[-71.809,9.432],[-72.091,9.026],[-72.372,8.62],[-72.653,8.213],[-72.934,7.806],[-73.213,7.4],[-73.493,6.993],[-73.771,6.585],[-74.05,6.178],[-74.328,5.771],[-74.605,5.363],[-74.882,4.955],[-75.159,4.548],[-75.435,4.14],[-75.712,3.732],[-75.988,3.323],[-76.263,2.915],[-76.539,2.507],[-76.814,2.099],[-77.089,1.69],[-77.364,1.282],[-77.639,0.873],[-77.914,0.465],[-78.189,0.057],[-78.464,-0.352],[-78.739,-0.76],[-79.014,-1.169],[-79.289,-1.577],[-79.564,-1.986],[-79.839,-2.394],[-80.115,-2.802],[-80.39,-3.21],[-80.666,-3.619],[-80.942,-4.027],[-81.219,-4.435],[-81.495,-4.842],[-81.772,-5.25],[-82.05,-5.658],[-82.328,-6.065],[-82.606,-6.473],[-82.884,-6.88],[-83.164,-7.287],[-83.443,-7.694],[-83.723,-8.1],[-84.004,-8.507],[-84.285,-8.913],[-84.567,-9.319],[-84.85,-9.725],[-85.133,-10.131],[-85.417,-10.536],[-85.702,-10.941],[-85.988,-11.346],[-86.274,-11.751],[-86.561,-12.155],[-86.849,-12.559],[-87.138,-12.963],[-87.428,-13.366],[-87.719,-13.769],[-88.011,-14.172],[-88.304,-14.574],[-88.598,-14.976],[-88.893,-15.378],[-89.35,-15.214],[-89.806,-15.049],[-90.261,-14.883],[-90.715,-14.716],[-91.169,-14.548],[-91.622,-14.38],[-92.075,-14.21],[-92.526,-14.04],[-92.977,-13.869]]}},{"type":"Feature","properties":{"boundary_type":"ridge","feature_type":"gpml:MidOceanRidge","polarity":null,"overriding_plate_id":null,"subducting_plate_id":null,"plate_ids":[701,801],"name":""},"geometry":{"type":"LineString","coordinates":[[-71.242,10.243],[-71.111,9.787],[-70.979,9.331],[-70.848,8.874],[-70.717,8.418],[-70.587,7.962],[-70.456,7.505],[-70.326,7.049],[-70.197,6.592],[-70.067,6.136],[-69.938,5.679],[-69.809,5.223],[-69.68,4.766],[-69.552,4.309],[-69.423,3.853],[-69.295,3.396],[-69.166,2.939],[-69.038,2.482],[-68.91,2.026],[-68.435,2.149],[-67.961,2.272],[-67.486,2.395],[-67.011,2.518],[-66.535,2.64],[-66.06,2.763],[-65.585,2.885],[-65.11,3.007],[-64.634,3.129],[-64.158,3.251],[-63.683,3.372],[-63.207,3.493],[-62.731,3.614]]}},{"type":"Feature","properties":{"boundary_type":"ridge","feature_type":"gpml:MidOceanRidge","polarity":null,"overriding_plate_id":null,"subducting_plate_id":null,"plate_ids":[701,80101],"name":""},"geometry":{"type":"LineString","coordinates":[[-62.731,3.614],[-62.377,3.704]]}},{"type":"Feature","properties":{"boundary_type":"subduction","feature_type":"gpml:SubductionZone","polarity":"Left","overriding_plate_id":501,"subducting_plate_id":501001,"plate_ids":[501,501001],"name":""},"geometry":{"type":"LineString","coordinates":[[-178.022,23.861],[-178.441,23.585],[-178.858,23.308],[-179.273,23.029],[-179.686,22.749],[179.902,22.469],[179.492,22.187],[179.084,21.905],[178.625,21.649],[178.168,21.392],[177.713,21.134],[177.26,20.875],[176.808,20.614],[176.357,20.353],[175.908,20.09],[175.461,19.826],[175.015,19.561],[174.57,19.295],[174.127,19.028],[173.686,18.76],[173.246,18.49],[172.807,18.22],[172.369,17.949],[171.933,17.677],[171.476,17.451],[171.02,17.224],[170.565,16.996],[170.111,16.767],[169.659,16.537],[169.207,16.306],[168.756,16.075],[168.307,15.842],[167.858,15.608],[167.411,15.374],[166.964,15.138],[166.519,14.902],[166.074,14.665],[165.631,14.427],[165.188,14.188],[164.747,13.948],[164.306,13.707],[163.866,13.466],[163.427,13.224],[162.989,12.981],[162.552,12.738],[162.115,12.494],[161.68,12.249],[161.245,12.003],[160.811,11.757],[160.378,11.51],[159.946,11.262],[159.514,11.014],[159.083,10.765],[158.653,10.516],[158.22,10.29],[157.789,10.064],[157.357,9.838],[156.927,9.611],[156.497,9.383],[156.067,9.155],[155.638,8.926],[155.21,8.697],[154.782,8.467],[154.354,8.237],[153.927,8.006],[153.501,7.775],[153.075,7.544],[152.65,7.312],[152.224,7.08],[151.8,6.847],[151.376,6.614],[150.952,6.381],[150.528,6.147],[150.105,5.913],[149.683,5.678],[149.26,5.444],[148.838,5.209],[148.417,4.973],[147.995,4.738],[147.58,4.536],[147.165,4.334],[146.751,4.132],[146.336,3.93],[145.922,3.727],[145.508,3.524],[145.094,3.321],[144.68,3.118],[144.267,2.915],[143.854,2.712],[143.44,2.508]]}}]}