{"type":"FeatureCollection","meta":{"model":"Cao2024","reconstruction_time_ma":405.0,"anchor_plate_id":0,"pygplates_version":"1.0.0","tessellate_degrees":0.5,"polarity_convention":"gpml:subductionPolarity. 'Left'/'Right' names the side of the line, in vertex order, on which the OVERRIDING plate lies. Triangles are drawn on that side.","antimeridian":"Lines are NOT split at +/-180 deg. The renderer works in 3D unit vectors where the dateline is not special; splitting would only add spurious breaks. Do not treat this as RFC 7946 GIS-ready 2D data."},"features":[{"type":"Feature","properties":{"boundary_type":"subduction","feature_type":"gpml:SubductionZone","polarity":"Left","overriding_plate_id":701,"subducting_plate_id":919,"plate_ids":[701,919],"name":"New Zealand SZ (SE eastern Gondwanaland)"},"geometry":{"type":"LineString","coordinates":[[163.036,-34.473],[162.824,-34.019],[162.615,-33.565],[162.408,-33.111],[162.203,-32.656],[162.0,-32.201],[161.799,-31.745],[161.6,-31.289],[161.403,-30.833],[161.159,-30.422],[160.918,-30.011],[160.679,-29.599],[160.441,-29.187],[160.206,-28.774],[159.973,-28.361],[159.741,-27.947],[159.511,-27.533],[159.283,-27.119],[159.019,-26.715],[158.758,-26.311],[158.498,-25.907],[158.24,-25.502],[157.984,-25.096],[157.729,-24.69],[157.476,-24.284],[157.175,-23.924],[156.875,-23.565],[156.577,-23.204],[156.281,-22.844],[155.986,-22.482],[155.754,-22.076],[155.524,-21.669],[155.295,-21.262],[155.067,-20.855],[154.84,-20.447],[154.615,-20.039],[154.391,-19.631],[154.168,-19.223],[153.946,-18.814],[153.725,-18.405],[153.505,-17.996],[153.239,-17.608],[152.974,-17.22],[152.71,-16.832],[152.447,-16.443],[152.185,-16.054],[151.924,-15.664],[151.664,-15.275]]}},{"type":"Feature","properties":{"boundary_type":"subduction","feature_type":"gpml:SubductionZone","polarity":"Right","overriding_plate_id":430,"subducting_plate_id":9013,"plate_ids":[430,9013],"name":"Nuhetdavaa-Enshoo (Uliastai) subduction zone"},"geometry":{"type":"LineString","coordinates":[[5.197,50.595],[5.89,50.558],[6.583,50.517],[7.274,50.471],[7.981,50.604],[8.693,50.733],[9.408,50.858],[10.127,50.978],[10.849,51.094],[11.576,51.205],[12.305,51.312],[13.038,51.414],[13.775,51.512],[14.514,51.605],[15.256,51.693],[16.001,51.777],[16.749,51.856],[17.499,51.93],[18.252,51.999],[19.007,52.064],[19.708,52.066],[20.41,52.065],[21.112,52.059],[21.813,52.049],[22.514,52.035],[23.214,52.017],[23.914,51.994],[24.696,51.995],[25.477,51.99],[26.258,51.979],[27.039,51.964],[27.819,51.944],[28.599,51.918],[29.377,51.887],[30.154,51.851],[30.93,51.81],[31.704,51.764],[32.477,51.713],[33.248,51.657],[34.017,51.596],[34.784,51.529],[35.548,51.458],[36.31,51.382],[37.069,51.301],[37.826,51.215],[38.58,51.124],[39.33,51.028],[40.078,50.928],[40.822,50.822],[41.563,50.712],[42.224,50.536],[42.88,50.355],[43.531,50.171],[44.177,49.984],[44.818,49.793],[45.454,49.598],[46.085,49.4],[46.711,49.198],[47.332,48.993],[47.947,48.785],[48.558,48.573],[48.69,48.528]]}},{"type":"Feature","properties":{"boundary_type":"transform","feature_type":"gpml:Transform","polarity":null,"overriding_plate_id":null,"subducting_plate_id":null,"plate_ids":[101,902],"name":"WNAM Transform"},"geometry":{"type":"LineString","coordinates":[[-106.623,-18.076],[-106.54,-17.605],[-106.457,-17.134],[-106.375,-16.663],[-106.293,-16.192],[-106.212,-15.721],[-106.131,-15.25],[-106.05,-14.778],[-105.969,-14.307],[-105.644,-13.965],[-105.32,-13.623],[-104.997,-13.28],[-104.674,-12.937],[-104.352,-12.593],[-104.032,-12.249],[-103.712,-11.904],[-103.393,-11.56],[-103.075,-11.214],[-102.757,-10.869],[-102.44,-10.523],[-102.124,-10.177],[-101.722,-9.9],[-101.321,-9.622],[-100.92,-9.344],[-100.52,-9.066],[-100.12,-8.787],[-99.721,-8.508],[-99.323,-8.228],[-98.925,-7.948],[-98.528,-7.667],[-98.131,-7.387],[-97.714,-7.159],[-97.296,-6.932],[-96.88,-6.703],[-96.463,-6.475],[-96.047,-6.246],[-95.631,-6.017],[-95.216,-5.788],[-94.801,-5.558],[-94.386,-5.328],[-93.972,-5.098],[-93.558,-4.867],[-93.144,-4.636],[-92.73,-4.405],[-92.317,-4.174],[-92.013,-3.796],[-91.709,-3.418],[-91.405,-3.04],[-91.102,-2.662],[-90.799,-2.283],[-90.496,-1.905],[-90.193,-1.527],[-89.89,-1.148],[-89.587,-0.77],[-89.285,-0.391],[-88.982,-0.013],[-88.68,0.366],[-88.377,0.745],[-88.074,1.123],[-87.772,1.502],[-87.469,1.88],[-87.166,2.258],[-86.863,2.637],[-86.559,3.015],[-86.256,3.393],[-85.952,3.771],[-85.648,4.149],[-85.343,4.527],[-85.039,4.905],[-84.734,5.282],[-84.428,5.66],[-84.123,6.037],[-83.816,6.414],[-83.51,6.791],[-83.162,7.114],[-82.813,7.436],[-82.464,7.758],[-82.115,8.08],[-81.765,8.402],[-81.414,8.723],[-81.063,9.044],[-80.711,9.364],[-80.359,9.685],[-80.006,10.004],[-79.652,10.324],[-79.297,10.643],[-78.942,10.962],[-78.586,11.28],[-78.229,11.598],[-77.871,11.915],[-77.513,12.232],[-77.153,12.549]]}},{"type":"Feature","properties":{"boundary_type":"transform","feature_type":"gpml:Transform","polarity":null,"overriding_plate_id":null,"subducting_plate_id":null,"plate_ids":[103,902],"name":"WNAM Transform"},"geometry":{"type":"LineString","coordinates":[[-77.153,12.549],[-76.909,12.763],[-76.515,13.073],[-76.12,13.381],[-75.723,13.689],[-75.326,13.996],[-74.928,14.303],[-74.528,14.609],[-74.128,14.915],[-73.726,15.219],[-73.444,15.286],[-73.161,15.352]]}},{"type":"Feature","properties":{"boundary_type":"subduction","feature_type":"gpml:SubductionZone","polarity":"Right","overriding_plate_id":701,"subducting_plate_id":919,"plate_ids":[701,919],"name":"southern WNAM SZ"},"geometry":{"type":"LineString","coordinates":[[-105.612,-43.251],[-105.762,-42.814],[-105.91,-42.376],[-106.055,-41.939],[-106.199,-41.501],[-106.341,-41.063],[-106.48,-40.625]]}},{"type":"Feature","properties":{"boundary_type":"subduction","feature_type":"gpml:SubductionZone","polarity":"Right","overriding_plate_id":101,"subducting_plate_id":919,"plate_ids":[101,919],"name":"southern WNAM SZ"},"geometry":{"type":"LineString","coordinates":[[-106.48,-40.625],[-106.587,-40.286],[-106.693,-39.946],[-106.798,-39.607],[-106.811,-39.14],[-106.823,-38.673],[-106.835,-38.207],[-106.847,-37.74],[-106.859,-37.274],[-106.871,-36.807],[-106.882,-36.34],[-106.894,-35.874],[-106.905,-35.407],[-106.916,-34.94],[-106.927,-34.474],[-106.938,-34.007],[-106.949,-33.541],[-107.026,-33.095],[-107.103,-32.649],[-107.179,-32.204],[-107.254,-31.758],[-107.329,-31.312],[-107.403,-30.866]]}},{"type":"Feature","properties":{"boundary_type":"subduction","feature_type":"gpml:SubductionZone","polarity":"Right","overriding_plate_id":101,"subducting_plate_id":902,"plate_ids":[101,902],"name":"southern WNAM SZ"},"geometry":{"type":"LineString","coordinates":[[-107.403,-30.866],[-107.475,-30.427],[-107.546,-29.989],[-107.617,-29.55],[-107.687,-29.111],[-107.756,-28.672],[-107.825,-28.233],[-107.894,-27.794],[-107.862,-27.3],[-107.83,-26.805],[-107.799,-26.311],[-107.768,-25.816],[-107.737,-25.321],[-107.707,-24.827],[-107.676,-24.332],[-107.646,-23.837],[-107.616,-23.343],[-107.587,-22.848],[-107.557,-22.353],[-107.528,-21.859],[-107.499,-21.364],[-107.471,-20.869],[-107.442,-20.375],[-107.414,-19.88],[-107.385,-19.385],[-107.13,-18.949],[-106.876,-18.513],[-106.623,-18.076]]}},{"type":"Feature","properties":{"boundary_type":"subduction","feature_type":"gpml:SubductionZone","polarity":"Left","overriding_plate_id":101,"subducting_plate_id":701,"plate_ids":[101,701],"name":"Scythian-Turan subduction zone"},"geometry":{"type":"LineString","coordinates":[[-13.662,-10.581],[-13.641,-10.29],[-13.62,-9.999],[-13.561,-9.552],[-13.502,-9.105],[-13.443,-8.658],[-13.385,-8.211],[-13.326,-7.765],[-13.268,-7.318],[-13.21,-6.871],[-13.151,-6.424],[-13.093,-5.977],[-13.013,-5.492],[-12.932,-5.008],[-12.852,-4.523],[-12.772,-4.038],[-12.691,-3.553],[-12.611,-3.068],[-12.531,-2.583],[-12.451,-2.098],[-12.371,-1.614],[-12.254,-1.191],[-12.137,-0.767],[-12.019,-0.344],[-11.902,0.079],[-11.785,0.502],[-11.668,0.925],[-11.55,1.348],[-11.433,1.771],[-11.3,2.203],[-11.168,2.635],[-11.035,3.067],[-10.902,3.499],[-10.77,3.931],[-10.637,4.363],[-10.503,4.794],[-10.292,5.184],[-10.08,5.573],[-9.868,5.962],[-9.656,6.351],[-9.443,6.74]]}},{"type":"Feature","properties":{"boundary_type":"subduction","feature_type":"gpml:SubductionZone","polarity":"Right","overriding_plate_id":9006,"subducting_plate_id":701,"plate_ids":[701,9006],"name":"Magnitogorsk subduction zone"},"geometry":{"type":"LineString","coordinates":[[14.026,-2.149],[13.647,-2.165],[13.268,-2.18]]}},{"type":"Feature","properties":{"boundary_type":"subduction","feature_type":"gpml:SubductionZone","polarity":"Right","overriding_plate_id":401,"subducting_plate_id":701,"plate_ids":[401,701],"name":"Magnitogorsk subduction zone"},"geometry":{"type":"LineString","coordinates":[[13.268,-2.18],[13.101,-2.187],[12.618,-2.135],[12.136,-2.082],[11.653,-2.03],[11.171,-1.977],[10.688,-1.924],[10.206,-1.871],[9.723,-1.818],[9.241,-1.765],[8.758,-1.711],[8.293,-1.683],[7.829,-1.655],[7.364,-1.626],[6.899,-1.598],[6.434,-1.569],[5.969,-1.541],[5.504,-1.512],[5.039,-1.483],[4.574,-1.454],[4.109,-1.425],[3.644,-1.396],[3.21,-1.226],[2.776,-1.055],[2.342,-0.885],[1.907,-0.715],[1.473,-0.545],[1.039,-0.374],[0.605,-0.204],[0.171,-0.033],[-0.263,0.137],[-0.697,0.308],[-1.131,0.478],[-1.566,0.648],[-1.935,0.967],[-2.305,1.286],[-2.675,1.604],[-3.045,1.923],[-3.415,2.241],[-3.785,2.56],[-4.156,2.878],[-4.526,3.196],[-4.897,3.514],[-5.268,3.832],[-5.646,4.098],[-6.025,4.363],[-6.403,4.628],[-6.782,4.893],[-7.161,5.157],[-7.541,5.422],[-7.92,5.686],[-8.3,5.95],[-8.681,6.214],[-9.062,6.477],[-9.443,6.74]]}},{"type":"Feature","properties":{"boundary_type":"subduction","feature_type":"gpml:SubductionZone","polarity":"Right","overriding_plate_id":401,"subducting_plate_id":101,"plate_ids":[101,401],"name":"Magnitogorsk subduction zone"},"geometry":{"type":"LineString","coordinates":[[-9.443,6.74],[-9.833,7.009],[-10.224,7.277],[-10.615,7.545],[-11.007,7.813],[-11.399,8.08],[-11.791,8.347],[-12.092,8.745],[-12.394,9.143],[-12.696,9.541],[-12.999,9.938],[-13.302,10.335],[-13.607,10.732],[-13.912,11.128],[-14.218,11.524],[-14.525,11.92],[-14.833,12.316],[-15.141,12.711]]}},{"type":"Feature","properties":{"boundary_type":"subduction","feature_type":"gpml:SubductionZone","polarity":"Right","overriding_plate_id":401,"subducting_plate_id":902,"plate_ids":[401,902],"name":"Magnitogorsk subduction zone"},"geometry":{"type":"LineString","coordinates":[[-15.141,12.711],[-15.407,13.049],[-15.674,13.388],[-15.941,13.726],[-16.172,14.165],[-16.403,14.603]]}},{"type":"Feature","properties":{"boundary_type":"subduction","feature_type":"gpml:SubductionZone","polarity":"Left","overriding_plate_id":401,"subducting_plate_id":9006,"plate_ids":[401,9006],"name":"Tagil arc / Altai Sayan subduction zone"},"geometry":{"type":"LineString","coordinates":[[13.268,-2.18],[13.718,-2.358],[14.168,-2.535],[14.619,-2.712],[15.069,-2.889],[15.52,-3.065],[15.971,-3.242],[16.422,-3.418],[16.873,-3.594],[17.324,-3.77],[17.776,-3.946],[18.228,-4.121],[18.68,-4.296],[19.132,-4.471],[19.632,-4.493],[20.132,-4.514],[20.632,-4.534],[21.132,-4.555],[21.633,-4.575],[22.133,-4.594],[22.633,-4.614],[23.133,-4.632],[23.634,-4.651],[24.134,-4.669],[24.635,-4.687],[25.135,-4.705],[25.601,-4.74],[26.068,-4.775],[26.535,-4.809],[27.001,-4.843],[27.468,-4.877],[27.934,-4.91],[28.401,-4.944],[28.868,-4.976],[29.335,-5.009],[29.802,-5.041],[30.269,-5.073],[30.736,-5.104],[31.203,-5.135],[31.651,-4.964],[32.099,-4.793],[32.547,-4.621],[32.994,-4.448],[33.441,-4.276],[33.889,-4.103],[34.335,-3.93],[34.782,-3.757],[35.229,-3.583],[35.675,-3.41],[36.121,-3.236],[36.513,-2.959],[36.904,-2.682],[37.295,-2.405],[37.685,-2.128],[38.076,-1.851],[38.466,-1.574],[38.857,-1.297],[39.247,-1.019],[39.637,-0.742],[40.027,-0.464],[40.418,-0.187],[40.808,0.091],[41.198,0.368],[41.588,0.646],[41.978,0.923],[42.368,1.2],[42.759,1.478],[43.149,1.755],[43.54,2.032],[43.93,2.309],[44.094,2.752],[44.258,3.195],[44.422,3.638],[44.586,4.081],[44.751,4.524],[44.915,4.967],[45.08,5.41],[45.245,5.853],[45.411,6.296],[45.576,6.738],[45.742,7.181],[45.908,7.624],[45.94,8.06],[45.972,8.497],[46.004,8.934],[46.036,9.37],[46.068,9.807],[46.101,10.244]]}},{"type":"Feature","properties":{"boundary_type":"subduction","feature_type":"gpml:SubductionZone","polarity":"Left","overriding_plate_id":1001,"subducting_plate_id":9006,"plate_ids":[1001,9006],"name":"Turgai arc subduction zone"},"geometry":{"type":"LineString","coordinates":[[49.082,6.742],[49.431,6.4],[49.78,6.059],[50.128,5.717],[50.476,5.375],[50.824,5.032],[51.171,4.69],[51.609,4.554],[52.047,4.418],[52.485,4.281],[52.922,4.144],[53.36,4.007],[53.797,3.87],[54.235,3.733],[54.672,3.595],[55.109,3.457],[55.546,3.319]]}},{"type":"Feature","properties":{"boundary_type":"transform","feature_type":"gpml:Transform","polarity":null,"overriding_plate_id":null,"subducting_plate_id":null,"plate_ids":[101,103],"name":""},"geometry":{"type":"LineString","coordinates":[[-49.954,16.162],[-50.321,15.962],[-50.687,15.76],[-51.113,15.484],[-51.539,15.207],[-51.963,14.929],[-52.386,14.651],[-52.808,14.372],[-53.229,14.092],[-53.649,13.811],[-54.068,13.529],[-54.486,13.247],[-54.903,12.964],[-55.319,12.681],[-55.734,12.397],[-56.148,12.112],[-56.561,11.826],[-56.974,11.541],[-57.385,11.254],[-57.796,10.967],[-58.206,10.679],[-58.596,10.391],[-58.985,10.103],[-59.373,9.814],[-59.76,9.525],[-60.147,9.235],[-60.533,8.945],[-60.919,8.654],[-61.304,8.363],[-61.688,8.072],[-62.072,7.781],[-62.456,7.489],[-62.838,7.196],[-63.221,6.904],[-63.603,6.611],[-63.984,6.318],[-64.365,6.024],[-64.746,5.73],[-65.126,5.436],[-65.506,5.142],[-65.866,4.842],[-66.225,4.542],[-66.585,4.242],[-66.944,3.942],[-67.303,3.642],[-67.662,3.341],[-68.02,3.04],[-68.378,2.739],[-68.736,2.439],[-69.094,2.137],[-69.452,1.836],[-69.81,1.535],[-70.167,1.234],[-70.525,0.933],[-70.882,0.631]]}},{"type":"Feature","properties":{"boundary_type":"subduction","feature_type":"gpml:SubductionZone","polarity":"Left","overriding_plate_id":103,"subducting_plate_id":101,"plate_ids":[101,103],"name":"Arctic Alaska subduction zone"},"geometry":{"type":"LineString","coordinates":[[-77.153,12.549],[-77.037,12.15],[-76.921,11.751],[-76.771,11.302],[-76.622,10.853],[-76.473,10.405],[-76.324,9.956],[-76.176,9.507],[-76.028,9.058],[-75.881,8.608],[-75.734,8.159],[-75.587,7.71],[-75.441,7.261],[-75.295,6.811],[-75.046,6.401],[-74.797,5.991],[-74.549,5.581],[-74.301,5.17],[-74.053,4.76],[-73.806,4.349],[-73.559,3.939],[-73.312,3.528],[-73.065,3.117],[-72.819,2.706],[-72.573,2.296],[-72.327,1.885],[-72.081,1.474],[-71.681,1.193],[-71.282,0.912],[-70.882,0.631]]}},{"type":"Feature","properties":{"boundary_type":"transform","feature_type":"gpml:Transform","polarity":null,"overriding_plate_id":null,"subducting_plate_id":null,"plate_ids":[401,1001],"name":""},"geometry":{"type":"LineString","coordinates":[[45.862,10.578],[46.034,10.32],[46.101,10.244]]}},{"type":"Feature","properties":{"boundary_type":"transform","feature_type":"gpml:Transform","polarity":null,"overriding_plate_id":null,"subducting_plate_id":null,"plate_ids":[1001,9006],"name":""},"geometry":{"type":"LineString","coordinates":[[46.101,10.244],[46.425,9.868],[46.748,9.493],[47.071,9.117],[47.392,8.741],[47.714,8.365],[48.034,7.989],[48.354,7.612],[48.674,7.235],[48.993,6.858],[49.082,6.742]]}},{"type":"Feature","properties":{"boundary_type":"transform","feature_type":"gpml:Transform","polarity":null,"overriding_plate_id":null,"subducting_plate_id":null,"plate_ids":[401,1001],"name":""},"geometry":{"type":"LineString","coordinates":[[45.862,10.578],[45.974,10.987],[46.086,11.396],[46.209,11.867],[46.333,12.338],[46.457,12.809],[46.581,13.279],[46.706,13.75],[46.831,14.22],[46.957,14.691],[47.084,15.161],[47.211,15.632],[47.343,15.963],[47.475,16.294],[47.608,16.624],[47.634,17.057],[47.661,17.49],[47.688,17.923],[47.715,18.355],[47.733,18.824],[47.751,19.292],[47.769,19.76],[47.788,20.228],[47.806,20.696],[47.825,21.164],[47.88,21.428],[47.936,21.692]]}},{"type":"Feature","properties":{"boundary_type":"transform","feature_type":"gpml:Transform","polarity":null,"overriding_plate_id":null,"subducting_plate_id":null,"plate_ids":[1001,9013],"name":"Trasnform bounding Paleo-Tianshan Ocean north"},"geometry":{"type":"LineString","coordinates":[[45.156,25.299],[45.584,25.493],[46.014,25.685],[46.446,25.876],[46.878,26.066],[47.313,26.255],[47.748,26.442],[48.185,26.628],[48.685,26.832],[49.187,27.034],[49.691,27.234],[50.197,27.433],[50.704,27.63],[51.213,27.824],[51.724,28.017],[52.237,28.209],[52.752,28.398],[53.269,28.585],[53.787,28.77],[54.307,28.954],[54.846,29.042],[55.385,29.127],[55.925,29.211],[56.466,29.293],[57.008,29.372],[57.551,29.449],[58.094,29.524],[58.639,29.597],[59.184,29.667],[59.73,29.736],[60.276,29.802],[60.824,29.865],[61.372,29.927],[61.92,29.986],[62.47,30.043],[63.02,30.098]]}},{"type":"Feature","properties":{"boundary_type":"transform","feature_type":"gpml:Transform","polarity":null,"overriding_plate_id":null,"subducting_plate_id":null,"plate_ids":[902,9013],"name":""},"geometry":{"type":"LineString","coordinates":[[52.417,61.715],[51.474,61.859],[50.522,61.997],[49.561,62.128],[48.593,62.252],[47.617,62.369],[46.633,62.48],[45.642,62.583],[44.645,62.68],[43.583,62.65],[42.523,62.611],[41.466,62.565],[40.413,62.511],[39.364,62.449],[38.32,62.379],[37.281,62.301],[36.247,62.216],[35.219,62.122],[34.198,62.022],[33.184,61.914],[32.178,61.798],[31.179,61.675],[30.188,61.545],[29.206,61.408],[28.233,61.264],[27.268,61.113],[26.314,60.955],[25.429,60.748],[24.556,60.535],[23.694,60.317],[22.844,60.093],[22.006,59.864],[21.179,59.629],[20.364,59.39],[19.56,59.145],[18.768,58.896],[17.987,58.642],[17.218,58.383],[16.46,58.119],[15.713,57.852],[14.977,57.579],[14.253,57.303],[13.539,57.023],[12.836,56.738],[12.143,56.45],[11.461,56.157],[10.79,55.862],[10.286,55.497],[9.792,55.131],[9.307,54.762],[8.83,54.392],[8.363,54.02],[7.903,53.646],[7.451,53.27],[7.008,52.893],[6.572,52.514],[6.143,52.133],[5.901,51.749],[5.662,51.365],[5.427,50.981],[5.197,50.595]]}},{"type":"Feature","properties":{"boundary_type":"transform","feature_type":"gpml:Transform","polarity":null,"overriding_plate_id":null,"subducting_plate_id":null,"plate_ids":[430,902],"name":""},"geometry":{"type":"LineString","coordinates":[[5.197,50.595],[4.957,50.188],[4.721,49.779],[4.489,49.371],[4.261,48.962],[4.036,48.552],[3.816,48.142],[3.757,47.646],[3.7,47.15],[3.644,46.654],[3.589,46.158],[3.534,45.661],[3.481,45.165],[3.429,44.669],[3.377,44.173],[3.327,43.676],[3.277,43.18],[3.228,42.684],[3.18,42.187],[3.133,41.691],[3.086,41.194],[3.04,40.698],[2.995,40.202],[2.95,39.705],[2.906,39.209],[2.863,38.712],[2.82,38.216],[2.778,37.719],[2.736,37.223],[2.695,36.726],[2.654,36.229],[2.614,35.733],[2.575,35.236],[2.536,34.74],[2.497,34.243],[2.459,33.746],[2.421,33.25],[2.384,32.753],[2.347,32.256],[2.31,31.76],[2.274,31.263],[2.239,30.766],[2.336,30.399],[2.433,30.031]]}},{"type":"Feature","properties":{"boundary_type":"transform","feature_type":"gpml:Transform","polarity":null,"overriding_plate_id":null,"subducting_plate_id":null,"plate_ids":[401,430],"name":""},"geometry":{"type":"LineString","coordinates":[[2.433,30.031],[2.548,29.593],[2.662,29.155],[2.775,28.716],[2.886,28.278],[2.997,27.839],[3.107,27.4],[3.216,26.961],[3.325,26.523],[3.432,26.084]]}},{"type":"Feature","properties":{"boundary_type":"transform","feature_type":"gpml:Transform","polarity":null,"overriding_plate_id":null,"subducting_plate_id":null,"plate_ids":[401,902],"name":"Magnitogorsk-Alexander transform"},"geometry":{"type":"LineString","coordinates":[[2.433,30.031],[1.918,29.863],[1.405,29.693],[0.894,29.521],[0.384,29.347],[-0.124,29.171],[-0.627,28.935],[-1.129,28.698],[-1.628,28.458],[-2.125,28.217],[-2.619,27.975],[-3.112,27.73],[-3.602,27.484],[-4.031,27.226],[-4.457,26.967],[-4.882,26.707],[-5.305,26.445],[-5.726,26.183],[-6.145,25.919],[-6.562,25.654],[-6.977,25.387],[-7.391,25.12],[-7.802,24.851],[-8.197,24.53],[-8.589,24.209],[-8.98,23.886],[-9.369,23.563],[-9.755,23.238],[-10.14,22.913],[-10.523,22.586],[-10.904,22.259],[-11.283,21.931],[-11.661,21.602],[-12.037,21.272],[-12.411,20.941],[-12.662,20.521],[-12.912,20.101],[-13.16,19.68],[-13.407,19.259],[-13.653,18.838],[-13.898,18.416],[-14.141,17.994],[-14.396,17.618],[-14.651,17.242],[-14.904,16.866],[-15.156,16.49],[-15.408,16.113],[-15.658,15.736],[-15.907,15.359],[-16.156,14.981],[-16.403,14.603]]}},{"type":"Feature","properties":{"boundary_type":"transform","feature_type":"gpml:Transform","polarity":null,"overriding_plate_id":null,"subducting_plate_id":null,"plate_ids":[101,314],"name":"Lizard/Giessen backarc transform east"},"geometry":{"type":"LineString","coordinates":[[-21.775,-18.497],[-21.295,-18.686]]}},{"type":"Feature","properties":{"boundary_type":"transform","feature_type":"gpml:Transform","polarity":null,"overriding_plate_id":null,"subducting_plate_id":null,"plate_ids":[101,701],"name":"Lizard/Giessen backarc transform east"},"geometry":{"type":"LineString","coordinates":[[-21.295,-18.686],[-20.955,-18.819],[-20.464,-18.982],[-19.972,-19.143],[-19.478,-19.302],[-18.984,-19.461],[-18.489,-19.617],[-17.993,-19.773],[-17.545,-19.93]]}},{"type":"Feature","properties":{"boundary_type":"subduction","feature_type":"gpml:SubductionZone","polarity":"Right","overriding_plate_id":314,"subducting_plate_id":701,"plate_ids":[314,701],"name":"Mid German Crystalline Rise SZ"},"geometry":{"type":"LineString","coordinates":[[-21.295,-18.686],[-21.363,-18.986],[-21.432,-19.286],[-21.643,-19.698],[-21.856,-20.109],[-22.069,-20.519],[-22.284,-20.93],[-22.5,-21.34],[-22.717,-21.75],[-22.935,-22.159],[-23.155,-22.569],[-23.359,-23.022],[-23.564,-23.475],[-23.77,-23.927],[-23.978,-24.38],[-24.188,-24.832],[-24.399,-25.283],[-24.612,-25.735],[-24.893,-26.159],[-25.177,-26.583],[-25.462,-27.006],[-25.75,-27.429],[-26.04,-27.851],[-26.332,-28.272],[-26.627,-28.693],[-26.924,-29.113],[-27.29,-29.44],[-27.659,-29.765],[-28.031,-30.09],[-28.404,-30.414],[-28.781,-30.736],[-29.159,-31.058],[-29.541,-31.378],[-29.925,-31.698],[-30.311,-32.016],[-30.701,-32.333],[-31.098,-32.66],[-31.499,-32.987],[-31.903,-33.312],[-32.31,-33.635],[-32.72,-33.958],[-33.065,-34.359],[-33.415,-34.76],[-33.767,-35.159],[-34.124,-35.558],[-34.483,-35.955],[-34.847,-36.351],[-35.214,-36.746],[-35.585,-37.141],[-35.959,-37.533],[-36.392,-37.756],[-36.828,-37.976],[-37.266,-38.195],[-37.707,-38.413],[-38.15,-38.629]]}},{"type":"Feature","properties":{"boundary_type":"transform","feature_type":"gpml:Transform","polarity":null,"overriding_plate_id":null,"subducting_plate_id":null,"plate_ids":[101,701],"name":"Lizard/Giessen backarc transform west"},"geometry":{"type":"LineString","coordinates":[[-42.278,-35.419],[-41.891,-35.747],[-41.501,-36.073],[-41.107,-36.398],[-40.711,-36.722],[-40.311,-37.044],[-39.907,-37.365],[-39.474,-37.683],[-39.036,-38.0],[-38.595,-38.315],[-38.15,-38.629]]}},{"type":"Feature","properties":{"boundary_type":"transform","feature_type":"gpml:Transform","polarity":null,"overriding_plate_id":null,"subducting_plate_id":null,"plate_ids":[101,314],"name":"Lizard/Giessen backarc transform west"},"geometry":{"type":"LineString","coordinates":[[-38.15,-38.629],[-38.051,-38.698]]}},{"type":"Feature","properties":{"boundary_type":"subduction","feature_type":"gpml:SubductionZone","polarity":"Left","overriding_plate_id":101,"subducting_plate_id":701,"plate_ids":[101,701],"name":"South Baltica (Rheic) subduction zone"},"geometry":{"type":"LineString","coordinates":[[-17.545,-19.93],[-17.351,-19.564],[-17.157,-19.198],[-16.965,-18.832],[-16.774,-18.375],[-16.585,-17.918],[-16.396,-17.46],[-16.208,-17.003],[-16.021,-16.545],[-15.835,-16.087],[-15.65,-15.629],[-15.466,-15.171],[-15.282,-14.713],[-15.099,-14.254],[-14.917,-13.795],[-14.736,-13.337],[-14.555,-12.878],[-14.375,-12.419],[-14.196,-11.96],[-14.017,-11.5],[-13.839,-11.041],[-13.662,-10.581]]}},{"type":"Feature","properties":{"boundary_type":"ridge","feature_type":"gpml:MidOceanRidge","polarity":null,"overriding_plate_id":null,"subducting_plate_id":null,"plate_ids":[101,314],"name":"Lizard/Giessen backarc MOR"},"geometry":{"type":"LineString","coordinates":[[-38.051,-38.698],[-37.72,-38.326],[-37.392,-37.953],[-37.067,-37.58],[-36.746,-37.206],[-36.428,-36.83],[-36.113,-36.454],[-35.801,-36.078],[-35.491,-35.7],[-35.185,-35.321],[-35.565,-34.958],[-35.941,-34.594],[-35.617,-34.262],[-35.295,-33.929],[-34.976,-33.596],[-34.659,-33.262],[-34.344,-32.927],[-34.032,-32.591],[-33.641,-32.844],[-33.248,-33.096],[-32.925,-32.758],[-32.604,-32.418],[-32.285,-32.078],[-31.968,-31.737],[-31.654,-31.395],[-31.342,-31.053],[-31.033,-30.709],[-30.521,-30.897],[-30.008,-31.083],[-29.678,-30.678],[-29.351,-30.273],[-29.027,-29.867],[-28.706,-29.46],[-28.387,-29.052],[-28.07,-28.644],[-27.66,-28.76],[-27.25,-28.874],[-26.986,-28.471],[-26.725,-28.068],[-26.465,-27.664],[-26.207,-27.26],[-25.951,-26.855],[-25.697,-26.45],[-25.445,-26.045],[-25.194,-25.638],[-24.945,-25.232],[-24.698,-24.825],[-24.452,-24.418],[-24.208,-24.01],[-23.966,-23.602],[-23.725,-23.194],[-23.995,-23.056],[-24.265,-22.917],[-24.009,-22.477],[-23.755,-22.036],[-23.503,-21.595],[-23.251,-21.153],[-23.002,-20.712],[-22.754,-20.269],[-22.507,-19.827],[-22.261,-19.384],[-22.017,-18.941],[-21.775,-18.497]]}},{"type":"Feature","properties":{"boundary_type":"subduction","feature_type":"gpml:SubductionZone","polarity":"Right","overriding_plate_id":701,"subducting_plate_id":926,"plate_ids":[701,926],"name":"Gamilaroi-Calliope intraoceanic SZ"},"geometry":{"type":"LineString","coordinates":[[129.232,5.664],[129.722,5.693],[130.211,5.722],[130.7,5.75],[131.189,5.778],[131.678,5.806],[132.168,5.833],[132.657,5.86],[133.147,5.886],[133.636,5.912],[134.126,5.938],[134.615,5.963],[135.105,5.987],[135.595,6.011],[136.033,5.826],[136.471,5.641],[136.909,5.455],[137.346,5.268],[137.784,5.082],[138.221,4.895],[138.657,4.708],[139.094,4.521],[139.53,4.333],[139.966,4.145],[140.402,3.957],[140.838,3.768],[141.273,3.58],[141.709,3.391],[141.947,3.206],[142.184,3.022]]}},{"type":"Feature","properties":{"boundary_type":"subduction","feature_type":"gpml:SubductionZone","polarity":"Right","overriding_plate_id":701,"subducting_plate_id":919,"plate_ids":[701,919],"name":"Gamilaroi-Calliope intraoceanic SZ"},"geometry":{"type":"LineString","coordinates":[[142.184,3.022],[142.57,2.721],[142.956,2.421],[143.341,2.12],[143.727,1.82],[144.112,1.519],[144.497,1.219],[144.882,0.918],[145.267,0.617],[145.652,0.316],[146.037,0.015],[146.422,-0.286],[146.807,-0.587],[147.192,-0.887],[147.577,-1.188],[147.826,-1.61],[148.075,-2.032],[148.325,-2.454],[148.574,-2.876],[148.824,-3.298],[149.073,-3.72],[149.324,-4.142],[149.574,-4.564],[149.824,-4.986],[150.075,-5.407],[150.327,-5.829],[150.406,-6.319],[150.486,-6.809],[150.566,-7.299],[150.645,-7.789],[150.726,-8.279],[150.806,-8.77],[150.887,-9.26],[150.967,-9.75],[151.048,-10.24],[151.13,-10.73],[151.211,-11.22],[151.293,-11.71],[151.375,-12.2],[151.457,-12.69],[151.54,-13.18],[151.565,-13.599],[151.589,-14.018],[151.614,-14.437],[151.639,-14.856],[151.664,-15.275]]}},{"type":"Feature","properties":{"boundary_type":"subduction","feature_type":"gpml:SubductionZone","polarity":"Left","overriding_plate_id":101,"subducting_plate_id":701,"plate_ids":[101,701],"name":"East Laurentia (Rheic)  subduction zone"},"geometry":{"type":"LineString","coordinates":[[-106.48,-40.625],[-105.846,-40.678],[-105.21,-40.728],[-104.573,-40.775],[-103.935,-40.817],[-103.297,-40.857],[-102.658,-40.893],[-102.018,-40.925],[-101.378,-40.954],[-100.737,-40.979],[-100.096,-41.001],[-99.454,-41.019],[-98.812,-41.033],[-98.17,-41.044],[-97.633,-41.288],[-97.092,-41.529],[-96.547,-41.767],[-95.998,-42.003],[-95.445,-42.236],[-94.888,-42.467],[-94.327,-42.694],[-93.761,-42.919],[-93.192,-43.142],[-92.618,-43.361],[-92.041,-43.577],[-91.459,-43.791],[-90.873,-44.002],[-90.283,-44.209],[-89.688,-44.414],[-89.09,-44.615],[-88.487,-44.813],[-87.808,-44.738],[-87.13,-44.658],[-86.454,-44.575],[-85.779,-44.487],[-85.107,-44.396],[-84.437,-44.301],[-83.77,-44.202],[-83.104,-44.098],[-82.441,-43.992],[-81.781,-43.881],[-81.123,-43.766],[-80.467,-43.648],[-79.814,-43.526],[-79.164,-43.4],[-78.516,-43.271],[-77.852,-43.23],[-77.189,-43.185],[-76.527,-43.137],[-75.867,-43.085],[-75.207,-43.029],[-74.549,-42.969],[-73.891,-42.905],[-73.236,-42.838],[-72.582,-42.767],[-71.929,-42.692],[-71.307,-42.677],[-70.685,-42.659],[-70.064,-42.638],[-69.444,-42.613],[-68.824,-42.584],[-68.204,-42.553],[-67.585,-42.518],[-66.967,-42.479],[-66.35,-42.438],[-65.733,-42.393],[-65.14,-42.289],[-64.55,-42.182],[-63.961,-42.072],[-63.375,-41.959],[-62.79,-41.843],[-62.208,-41.724],[-61.628,-41.602],[-61.034,-41.44],[-60.444,-41.275],[-59.856,-41.107],[-59.272,-40.936],[-58.691,-40.762],[-58.113,-40.586],[-57.537,-40.406],[-56.965,-40.223],[-56.396,-40.038],[-55.836,-39.949],[-55.278,-39.857],[-54.721,-39.763],[-54.166,-39.666],[-53.612,-39.566],[-53.06,-39.464],[-52.469,-39.307],[-51.881,-39.147],[-51.296,-38.984],[-50.714,-38.818],[-50.134,-38.65],[-49.557,-38.478],[-48.982,-38.304],[-48.411,-38.127],[-47.842,-37.947],[-47.276,-37.764],[-46.713,-37.579],[-46.153,-37.391],[-45.595,-37.2],[-45.04,-37.007],[-44.489,-36.811],[-43.939,-36.613],[-43.393,-36.412],[-42.85,-36.209],[-42.562,-35.815],[-42.278,-35.419]]}},{"type":"Feature","properties":{"boundary_type":"subduction","feature_type":"gpml:SubductionZone","polarity":"Right","overriding_plate_id":701,"subducting_plate_id":926,"plate_ids":[701,926],"name":"SZ along eastern Gondwanaland"},"geometry":{"type":"LineString","coordinates":[[111.795,9.152],[112.288,9.188],[112.781,9.222],[113.273,9.256],[113.766,9.289],[114.259,9.321],[114.752,9.353],[115.246,9.384],[115.741,9.32],[116.237,9.255],[116.732,9.19],[117.227,9.124],[117.722,9.057],[118.217,8.989],[118.712,8.921],[119.206,8.853],[119.701,8.783],[120.195,8.713],[120.689,8.642],[121.167,8.514],[121.646,8.385],[122.124,8.255],[122.602,8.125],[123.079,7.995],[123.556,7.863],[124.033,7.732],[124.51,7.599],[124.986,7.466],[125.462,7.333],[125.882,7.149],[126.302,6.964],[126.722,6.78],[127.141,6.594],[127.56,6.409],[127.978,6.223],[128.397,6.037],[128.815,5.85],[129.232,5.664]]}},{"type":"Feature","properties":{"boundary_type":"ridge","feature_type":"gpml:MidOceanRidge","polarity":null,"overriding_plate_id":null,"subducting_plate_id":null,"plate_ids":[902,919],"name":"Izanagi-Farallon MOR"},"geometry":{"type":"LineString","coordinates":[[-173.739,23.629],[-173.898,24.063],[-174.058,24.496],[-174.22,24.93],[-174.383,25.364],[-174.547,25.797],[-174.712,26.23],[-174.878,26.663],[-175.046,27.096],[-175.215,27.529]]}},{"type":"Feature","properties":{"boundary_type":"ridge","feature_type":"gpml:MidOceanRidge","polarity":null,"overriding_plate_id":null,"subducting_plate_id":null,"plate_ids":[902,926],"name":"Izanagi-Farallon MOR"},"geometry":{"type":"LineString","coordinates":[[-175.215,27.529],[-175.398,27.995],[-175.584,28.462],[-175.771,28.928],[-175.96,29.394],[-176.15,29.859],[-176.342,30.325],[-176.536,30.79],[-176.732,31.255],[-176.93,31.719],[-177.13,32.183],[-177.332,32.647],[-177.536,33.111],[-177.742,33.574],[-177.951,34.037],[-178.162,34.499],[-178.375,34.961],[-178.59,35.423],[-178.808,35.885],[-179.029,36.346],[-179.252,36.806],[-179.478,37.266],[-179.706,37.726],[-179.938,38.185],[179.828,38.644],[179.59,39.102],[179.35,39.56],[179.106,40.018],[178.859,40.474],[178.609,40.931],[178.355,41.386],[178.097,41.842],[177.836,42.296],[177.571,42.75],[177.302,43.204],[177.029,43.656],[176.752,44.108],[176.471,44.56],[176.185,45.01],[175.895,45.46],[175.6,45.91],[175.3,46.358],[174.996,46.806],[174.686,47.253],[174.371,47.699],[174.05,48.144],[173.724,48.588],[173.392,49.031],[173.055,49.473],[172.453,49.329],[171.855,49.182],[171.261,49.031],[170.67,48.878],[170.083,48.722],[169.5,48.562],[169.139,48.996],[168.771,49.429],[168.397,49.861],[168.015,50.291],[167.627,50.72],[167.232,51.148],[166.83,51.574],[166.419,51.999],[166.001,52.423],[165.575,52.845],[165.141,53.266],[164.698,53.684],[164.246,54.102],[163.784,54.517],[163.314,54.931],[162.833,55.343],[162.343,55.753],[161.842,56.161],[161.33,56.567],[160.808,56.97],[160.274,57.372],[159.728,57.771],[159.17,58.168],[158.599,58.562],[158.016,58.954],[157.419,59.343],[156.808,59.729],[156.183,60.113],[155.544,60.493],[154.889,60.87],[154.219,61.244],[153.532,61.615],[152.83,61.982],[152.11,62.345],[151.372,62.705],[150.617,63.06],[149.843,63.412],[149.049,63.759],[148.237,64.102],[147.404,64.44],[146.55,64.773],[145.675,65.101],[144.779,65.424],[143.86,65.742],[142.919,66.054],[141.955,66.36],[140.966,66.66],[139.954,66.954],[138.918,67.241],[137.857,67.521],[136.771,67.794],[135.659,68.059],[134.522,68.317],[133.8,67.954],[133.101,67.588],[132.423,67.219],[131.766,66.847],[131.128,66.473],[130.51,66.095],[129.417,66.315],[128.304,66.527],[127.173,66.731],[126.024,66.926],[124.857,67.114],[123.671,67.292],[122.469,67.462],[121.249,67.622],[120.013,67.774],[118.762,67.915],[117.496,68.048],[116.216,68.17],[114.923,68.282],[113.617,68.385],[112.3,68.477],[110.973,68.558],[109.637,68.629],[108.294,68.69],[106.943,68.74],[105.587,68.779]]}},{"type":"Feature","properties":{"boundary_type":"ridge","feature_type":"gpml:MidOceanRidge","polarity":null,"overriding_plate_id":null,"subducting_plate_id":null,"plate_ids":[919,926],"name":"Phoenix-Izanagi MOR"},"geometry":{"type":"LineString","coordinates":[[-175.215,27.529],[-175.711,27.315],[-176.205,27.1],[-176.698,26.884],[-177.188,26.665],[-177.677,26.445],[-178.164,26.223],[-178.649,26.0],[-179.132,25.775],[-179.613,25.548],[179.907,25.32],[179.429,25.091],[178.953,24.859],[178.479,24.627],[178.007,24.392],[177.536,24.157],[177.068,23.92],[176.6,23.681],[176.135,23.441],[175.671,23.2],[175.209,22.957],[174.749,22.713],[174.29,22.468],[173.833,22.221],[173.377,21.974],[172.924,21.724],[172.471,21.474],[172.02,21.223],[171.571,20.97],[171.123,20.716],[170.677,20.461],[170.232,20.205],[169.789,19.947],[169.347,19.689],[168.907,19.429],[168.468,19.169],[168.03,18.907],[167.594,18.645],[167.159,18.381],[166.726,18.116],[166.293,17.851],[165.862,17.584],[165.433,17.317],[165.004,17.048],[164.577,16.779],[164.344,17.211],[164.11,17.642],[163.875,18.072],[163.639,18.503],[163.402,18.933],[163.164,19.363],[162.924,19.793],[162.504,19.494],[162.085,19.194],[161.668,18.893],[161.252,18.591],[160.838,18.288],[160.426,17.984],[160.015,17.679],[159.605,17.374],[159.196,17.068],[158.789,16.761],[158.383,16.453],[157.979,16.144],[157.576,15.835],[157.174,15.524],[156.773,15.213],[156.373,14.902],[155.975,14.59],[155.577,14.277],[155.181,13.963],[154.786,13.649],[154.392,13.334],[153.999,13.018],[153.607,12.702],[153.216,12.385],[152.826,12.068],[152.436,11.75],[152.048,11.432],[151.661,11.113],[151.274,10.794],[150.888,10.474],[150.503,10.154],[150.119,9.833],[149.736,9.512],[149.353,9.191],[148.971,8.869],[148.589,8.546],[148.209,8.224],[147.828,7.901],[147.449,7.577],[147.07,7.253],[146.692,6.929],[146.314,6.605],[145.936,6.28],[145.559,5.955],[145.183,5.63],[144.807,5.305],[144.431,4.979],[144.056,4.653],[143.681,4.327],[143.306,4.001],[142.932,3.675],[142.558,3.348],[142.184,3.022]]}},{"type":"Feature","properties":{"boundary_type":"ridge","feature_type":"gpml:MidOceanRidge","polarity":null,"overriding_plate_id":null,"subducting_plate_id":null,"plate_ids":[902,919],"name":"Phoenix-Farallon MOR"},"geometry":{"type":"LineString","coordinates":[[-173.739,23.629],[-173.317,23.322],[-172.897,23.014],[-172.479,22.705],[-172.063,22.395],[-171.649,22.084],[-171.237,21.772],[-170.826,21.458],[-170.417,21.144],[-170.01,20.829],[-169.605,20.513],[-169.201,20.196],[-168.799,19.878],[-168.399,19.559],[-168.0,19.24],[-167.603,18.919],[-167.207,18.598],[-166.813,18.275],[-166.42,17.952],[-166.029,17.628],[-165.639,17.304],[-165.25,16.978],[-164.863,16.652],[-164.477,16.326],[-164.093,15.998],[-163.709,15.67],[-163.327,15.341],[-162.946,15.011],[-162.567,14.681],[-162.188,14.351],[-161.811,14.019],[-161.434,13.687],[-161.059,13.355],[-160.685,13.022],[-160.311,12.688],[-159.939,12.354],[-159.568,12.019],[-159.197,11.684],[-158.828,11.349],[-158.459,11.013],[-158.091,10.676],[-157.724,10.339],[-157.358,10.002],[-156.992,9.664],[-156.628,9.326],[-156.264,8.988],[-155.9,8.649],[-155.538,8.31],[-155.176,7.97],[-154.814,7.631],[-154.453,7.29],[-154.093,6.95],[-153.733,6.609],[-153.374,6.268],[-153.015,5.927],[-152.656,5.586],[-152.298,5.244],[-151.941,4.902],[-151.584,4.56],[-151.227,4.218],[-150.87,3.876],[-150.514,3.533],[-150.158,3.191],[-149.802,2.848],[-149.446,2.505],[-149.091,2.162],[-148.736,1.819],[-148.381,1.476],[-148.026,1.133],[-147.671,0.79],[-147.316,0.446],[-146.961,0.103],[-146.606,-0.24],[-146.931,-0.541],[-147.256,-0.841],[-147.582,-1.142],[-147.907,-1.442],[-148.232,-1.743],[-148.558,-2.043],[-148.883,-2.344],[-148.544,-2.701],[-148.204,-3.059],[-147.865,-3.416],[-147.525,-3.773],[-147.184,-4.13],[-146.844,-4.487],[-146.503,-4.844],[-146.162,-5.201],[-145.82,-5.557],[-145.478,-5.914],[-145.135,-6.27],[-144.792,-6.626],[-144.449,-6.981],[-144.105,-7.336],[-143.76,-7.692],[-143.415,-8.046],[-143.069,-8.401],[-142.723,-8.755],[-142.376,-9.109],[-142.028,-9.463],[-141.68,-9.816],[-141.331,-10.169],[-140.981,-10.521],[-140.63,-10.873],[-140.279,-11.225],[-139.926,-11.577],[-139.573,-11.927],[-139.219,-12.278],[-138.863,-12.628],[-138.507,-12.977],[-138.15,-13.326],[-137.792,-13.675],[-137.433,-14.023],[-137.072,-14.37],[-136.711,-14.717],[-136.348,-15.064],[-135.985,-15.41],[-135.62,-15.755],[-135.253,-16.099],[-134.886,-16.443],[-134.517,-16.787],[-134.147,-17.129],[-133.775,-17.471],[-133.514,-17.126],[-133.253,-16.78],[-132.994,-16.433],[-132.735,-16.086],[-132.477,-15.739],[-132.22,-15.392],[-131.861,-15.746],[-131.5,-16.1],[-131.137,-16.454],[-130.774,-16.806],[-130.409,-17.158],[-130.042,-17.51],[-129.674,-17.86],[-129.305,-18.21],[-128.934,-18.56],[-128.562,-18.908],[-128.188,-19.256],[-127.813,-19.603],[-127.436,-19.949],[-127.057,-20.295],[-126.677,-20.639],[-126.295,-20.983],[-125.911,-21.326],[-125.525,-21.668],[-125.138,-22.009],[-124.748,-22.349],[-124.357,-22.689],[-123.964,-23.027],[-123.569,-23.365],[-123.172,-23.701],[-122.772,-24.036],[-122.371,-24.371],[-121.968,-24.704],[-121.562,-25.036],[-121.154,-25.367],[-120.744,-25.697],[-120.332,-26.026],[-119.917,-26.354],[-119.5,-26.68],[-119.081,-27.005],[-118.659,-27.329],[-118.235,-27.652],[-117.808,-27.973],[-117.379,-28.293],[-116.947,-28.612],[-116.512,-28.929],[-116.075,-29.245],[-115.635,-29.56],[-115.193,-29.873],[-114.747,-30.184],[-114.299,-30.494],[-113.848,-30.803],[-113.394,-31.11],[-112.937,-31.415],[-112.477,-31.719],[-112.014,-32.021],[-111.548,-32.321],[-111.079,-32.62],[-110.607,-32.916],[-110.131,-33.212],[-109.653,-33.505],[-109.433,-33.065],[-109.214,-32.625],[-108.998,-32.184],[-108.785,-31.743],[-108.573,-31.302],[-108.363,-30.86],[-108.155,-30.418],[-107.78,-30.643],[-107.403,-30.866]]}},{"type":"Feature","properties":{"boundary_type":"subduction","feature_type":"gpml:SubductionZone","polarity":"Right","overriding_plate_id":103,"subducting_plate_id":902,"plate_ids":[103,902],"name":"ALX SZ"},"geometry":{"type":"LineString","coordinates":[[-73.161,15.352],[-72.792,15.601],[-72.423,15.85],[-72.052,16.097],[-71.68,16.344],[-71.308,16.59],[-70.897,16.731],[-70.487,16.871],[-70.075,17.011],[-69.663,17.149],[-69.177,17.209],[-68.691,17.267],[-68.205,17.325],[-67.718,17.381],[-67.231,17.436],[-66.743,17.489],[-66.256,17.542],[-65.768,17.593],[-65.28,17.644],[-64.791,17.693],[-64.302,17.74],[-63.813,17.787],[-63.292,17.734],[-62.772,17.68],[-62.251,17.624],[-61.731,17.567],[-61.212,17.509],[-60.692,17.449],[-60.173,17.388],[-59.655,17.325],[-59.136,17.261],[-58.618,17.196],[-58.101,17.13],[-57.584,17.062],[-57.067,16.993],[-56.55,16.923],[-56.034,16.851],[-55.526,16.8],[-55.018,16.748],[-54.51,16.695],[-54.003,16.641],[-53.496,16.585],[-52.989,16.529],[-52.482,16.471],[-51.976,16.411],[-51.47,16.351],[-50.965,16.289],[-50.459,16.226],[-49.954,16.162]]}},{"type":"Feature","properties":{"boundary_type":"subduction","feature_type":"gpml:SubductionZone","polarity":"Right","overriding_plate_id":101,"subducting_plate_id":902,"plate_ids":[101,902],"name":"ALX SZ"},"geometry":{"type":"LineString","coordinates":[[-49.954,16.162],[-49.869,16.151],[-49.393,16.032],[-48.918,15.912],[-48.443,15.791],[-47.969,15.669],[-47.496,15.546],[-47.023,15.421],[-46.551,15.296],[-46.079,15.17],[-45.608,15.043],[-45.137,14.915],[-44.638,14.797],[-44.14,14.678],[-43.641,14.558],[-43.144,14.437],[-42.647,14.314],[-42.15,14.191],[-41.654,14.067],[-41.159,13.942],[-40.664,13.816],[-40.17,13.688],[-39.676,13.56],[-39.183,13.431],[-38.69,13.301],[-38.198,13.17],[-37.73,13.031],[-37.262,12.891],[-36.795,12.751],[-36.328,12.609],[-35.862,12.467],[-35.397,12.324],[-34.932,12.18],[-34.467,12.036],[-34.003,11.89],[-33.539,11.744],[-33.096,11.596],[-32.654,11.447],[-32.212,11.297],[-31.77,11.147],[-31.329,10.996],[-30.845,11.024],[-30.361,11.052],[-29.877,11.08],[-29.392,11.106],[-28.908,11.132],[-28.424,11.157],[-27.939,11.181],[-27.455,11.205],[-26.97,11.227],[-26.486,11.249],[-26.001,11.27],[-25.516,11.291],[-25.128,11.314],[-24.74,11.336],[-24.352,11.358],[-23.894,11.477],[-23.435,11.595],[-22.977,11.712],[-22.518,11.829],[-22.058,11.945],[-21.598,12.06],[-21.138,12.174],[-20.677,12.287],[-20.216,12.4],[-19.755,12.512],[-19.293,12.623],[-18.832,12.636],[-18.37,12.648],[-17.909,12.66],[-17.448,12.67],[-16.987,12.68],[-16.525,12.689],[-16.064,12.697],[-15.603,12.704],[-15.141,12.711]]}},{"type":"Feature","properties":{"boundary_type":"subduction","feature_type":"gpml:SubductionZone","polarity":"Right","overriding_plate_id":401,"subducting_plate_id":430,"plate_ids":[401,430],"name":"Altai-Mongolian/Rudny-Altai/Chara subduction zone"},"geometry":{"type":"LineString","coordinates":[[37.288,33.62],[37.623,33.29],[37.954,32.959],[38.283,32.627],[38.61,32.294],[38.934,31.961],[39.256,31.626],[39.576,31.291],[39.987,31.004],[40.396,30.716],[40.802,30.426]]}},{"type":"Feature","properties":{"boundary_type":"subduction","feature_type":"gpml:SubductionZone","polarity":"Right","overriding_plate_id":401,"subducting_plate_id":9013,"plate_ids":[401,9013],"name":"Altai-Mongolian/Rudny-Altai/Chara subduction zone"},"geometry":{"type":"LineString","coordinates":[[40.802,30.426],[41.232,30.117],[41.659,29.806],[42.083,29.493],[42.505,29.18],[42.924,28.865],[43.18,28.471],[43.433,28.076],[43.684,27.68],[43.934,27.284],[44.181,26.888],[44.428,26.492],[44.672,26.094],[44.915,25.697],[45.156,25.299]]}},{"type":"Feature","properties":{"boundary_type":"subduction","feature_type":"gpml:SubductionZone","polarity":"Right","overriding_plate_id":401,"subducting_plate_id":1001,"plate_ids":[401,1001],"name":"Altai-Mongolian/Rudny-Altai/Chara subduction zone"},"geometry":{"type":"LineString","coordinates":[[45.156,25.299],[45.339,24.994],[45.522,24.69],[45.829,24.317],[46.136,23.944],[46.44,23.57],[46.743,23.195],[47.043,22.82],[47.343,22.445],[47.64,22.069],[47.936,21.692]]}},{"type":"Feature","properties":{"boundary_type":"transform","feature_type":"gpml:Transform","polarity":null,"overriding_plate_id":null,"subducting_plate_id":null,"plate_ids":[701,9006],"name":"Annamia Transform"},"geometry":{"type":"LineString","coordinates":[[76.808,-13.976],[76.444,-13.765],[76.08,-13.554],[75.717,-13.343],[75.372,-13.03],[75.028,-12.718],[74.685,-12.405],[74.342,-12.091],[74.0,-11.777],[73.659,-11.463],[73.319,-11.148],[73.117,-10.743],[72.916,-10.337],[72.715,-9.932],[72.515,-9.526],[72.315,-9.12],[72.116,-8.714],[71.917,-8.308],[71.795,-7.884],[71.674,-7.459],[71.552,-7.035],[71.431,-6.611],[71.311,-6.187],[71.19,-5.763],[71.158,-5.302],[71.127,-4.842],[71.095,-4.382],[71.064,-3.922]]}},{"type":"Feature","properties":{"boundary_type":"transform","feature_type":"gpml:Transform","polarity":null,"overriding_plate_id":null,"subducting_plate_id":null,"plate_ids":[580,9006],"name":"Annamia Transform"},"geometry":{"type":"LineString","coordinates":[[71.064,-3.922],[71.046,-3.668],[71.029,-3.414],[71.048,-2.931],[71.066,-2.447],[71.085,-1.964],[71.103,-1.481],[71.122,-0.997],[71.14,-0.514],[71.159,-0.031],[71.35,0.368],[71.541,0.767],[71.732,1.166],[71.923,1.565],[72.114,1.964],[72.305,2.363],[72.496,2.761],[72.525,2.804]]}},{"type":"Feature","properties":{"boundary_type":"subduction","feature_type":"gpml:SubductionZone","polarity":"Left","overriding_plate_id":601,"subducting_plate_id":9014,"plate_ids":[601,9014],"name":"North China-Beishan subduction zone (PAO)"},"geometry":{"type":"LineString","coordinates":[[119.1,38.832],[118.51,38.656],[117.924,38.476],[117.34,38.294],[116.759,38.108],[116.182,37.92],[115.607,37.729],[115.035,37.536],[114.466,37.339],[113.901,37.14],[113.322,37.204],[112.743,37.264],[112.163,37.322],[111.582,37.377],[111.0,37.429],[110.417,37.479],[109.834,37.525],[109.25,37.569],[108.665,37.61],[108.154,37.344],[107.648,37.076],[107.144,36.805],[106.645,36.533],[106.149,36.259],[105.656,35.982],[105.167,35.704],[104.681,35.423],[104.199,35.141],[103.72,34.857],[103.244,34.57],[102.772,34.282],[102.303,33.993],[101.837,33.701],[101.374,33.408],[100.873,33.19],[100.374,32.97],[99.878,32.748],[99.385,32.524],[98.894,32.298],[98.405,32.071],[97.919,31.841],[97.435,31.61],[96.954,31.376],[96.475,31.141],[95.998,30.905],[95.524,30.666],[95.052,30.426],[94.583,30.184],[94.218,30.0],[93.856,29.816],[93.494,29.63]]}},{"type":"Feature","properties":{"boundary_type":"subduction","feature_type":"gpml:SubductionZone","polarity":"Left","overriding_plate_id":701,"subducting_plate_id":919,"plate_ids":[701,919],"name":"West Gondwana (Panthalassa) subduction zone"},"geometry":{"type":"LineString","coordinates":[[-95.013,-46.468],[-95.143,-46.921],[-95.276,-47.374],[-95.411,-47.827],[-95.549,-48.279],[-95.689,-48.732],[-95.831,-49.184],[-95.977,-49.636],[-96.125,-50.088],[-96.275,-50.54],[-96.703,-50.938],[-97.137,-51.335],[-97.579,-51.73],[-98.03,-52.124],[-98.488,-52.515],[-98.954,-52.905],[-99.429,-53.293],[-99.912,-53.68],[-100.404,-54.064],[-100.906,-54.446],[-101.417,-54.826],[-101.937,-55.204],[-102.468,-55.58],[-103.009,-55.953],[-103.614,-56.271],[-104.229,-56.585],[-104.855,-56.897],[-105.491,-57.206],[-106.138,-57.511],[-106.795,-57.813],[-107.464,-58.111],[-108.144,-58.406],[-108.835,-58.697],[-109.538,-58.985],[-110.253,-59.268],[-111.115,-59.482],[-111.987,-59.69],[-112.87,-59.892],[-113.764,-60.088],[-114.668,-60.278],[-115.583,-60.462],[-116.508,-60.64],[-117.443,-60.811],[-118.388,-60.975],[-119.342,-61.133],[-120.306,-61.284],[-121.263,-61.293],[-122.221,-61.295],[-123.178,-61.29],[-124.135,-61.279],[-125.091,-61.26],[-126.046,-61.236],[-126.999,-61.204],[-127.95,-61.166],[-128.898,-61.121],[-129.844,-61.069],[-130.786,-61.011],[-131.725,-60.947],[-132.645,-60.791],[-133.556,-60.629],[-134.458,-60.46],[-135.35,-60.286],[-136.233,-60.106],[-137.105,-59.92],[-137.968,-59.728],[-138.821,-59.531],[-139.664,-59.328],[-140.497,-59.12],[-141.32,-58.906],[-142.132,-58.688],[-142.934,-58.464],[-143.726,-58.236],[-144.508,-58.002],[-145.279,-57.764],[-146.041,-57.521],[-146.825,-57.328],[-147.6,-57.13],[-148.367,-56.927],[-149.126,-56.72],[-149.877,-56.508],[-150.619,-56.292],[-151.353,-56.071],[-152.078,-55.846],[-152.794,-55.617],[-153.503,-55.384],[-154.203,-55.146],[-154.894,-54.905],[-155.578,-54.66],[-156.364,-54.465],[-157.142,-54.266],[-157.913,-54.062],[-158.677,-53.853],[-159.432,-53.639],[-160.18,-53.42],[-160.921,-53.197],[-161.653,-52.969],[-162.378,-52.737],[-163.095,-52.501],[-163.804,-52.26],[-164.506,-52.015],[-165.199,-51.765],[-165.885,-51.512],[-166.648,-51.416],[-167.406,-51.314],[-168.162,-51.208],[-168.913,-51.097],[-169.662,-50.981],[-170.406,-50.86],[-171.146,-50.735],[-171.883,-50.605],[-172.615,-50.47],[-173.343,-50.331],[-174.067,-50.187],[-174.786,-50.039],[-175.501,-49.886],[-176.205,-49.709],[-176.904,-49.527],[-177.598,-49.341],[-178.286,-49.151],[-178.969,-48.957],[-179.647,-48.759],[179.68,-48.557],[179.013,-48.351],[178.351,-48.141],[177.695,-47.927],[177.044,-47.71],[176.399,-47.489],[175.83,-47.187],[175.267,-46.883],[174.711,-46.576],[174.161,-46.266],[173.617,-45.953],[173.079,-45.638],[172.547,-45.32],[172.021,-45.0],[171.501,-44.678],[171.114,-44.273],[170.731,-43.868],[170.354,-43.46],[169.981,-43.052],[169.614,-42.642],[169.251,-42.232],[168.893,-41.82],[168.54,-41.407],[168.191,-40.993],[167.846,-40.578],[167.506,-40.162],[167.17,-39.744],[166.838,-39.326],[166.51,-38.907],[166.186,-38.488],[165.865,-38.067],[165.538,-37.671],[165.213,-37.274],[164.893,-36.876],[164.575,-36.478],[164.261,-36.079],[163.95,-35.678],[163.643,-35.277],[163.338,-34.876],[163.036,-34.473]]}},{"type":"Feature","properties":{"boundary_type":"subduction","feature_type":"gpml:SubductionZone","polarity":"Right","overriding_plate_id":580,"subducting_plate_id":602201,"plate_ids":[580,602201],"name":"SZ Kunlun"},"geometry":{"type":"LineString","coordinates":[[85.075,42.317],[85.155,42.17],[85.288,41.758],[85.419,41.345],[85.549,40.932],[85.677,40.52],[85.804,40.107],[85.929,39.693],[86.247,39.283],[86.561,38.872],[86.872,38.46],[87.179,38.047],[87.483,37.634],[87.784,37.22],[88.081,36.805],[88.128,36.373],[88.174,35.941],[88.22,35.509],[88.266,35.078],[88.31,34.646],[88.355,34.214],[88.364,33.722],[88.373,33.231],[88.382,32.74],[88.391,32.248],[88.4,31.757],[88.409,31.265],[88.256,30.823],[88.105,30.381],[87.955,29.939],[87.806,29.496],[87.659,29.053],[87.513,28.61],[87.368,28.167],[87.193,27.699],[87.02,27.231],[86.848,26.763],[86.677,26.294],[86.664,25.866],[86.651,25.438],[86.638,25.01],[86.625,24.582],[86.612,24.154],[86.599,23.726],[86.614,23.261],[86.629,22.795],[86.643,22.329],[86.658,21.864],[86.672,21.398],[86.686,20.933],[86.701,20.467],[86.775,19.979],[86.848,19.492],[86.922,19.004],[86.994,18.516],[87.067,18.028],[86.92,17.634],[86.774,17.24],[86.629,16.846],[86.484,16.452],[86.253,16.069],[86.023,15.687],[85.794,15.304],[85.566,14.921],[85.272,14.68],[84.978,14.439],[84.686,14.198],[84.277,14.042],[83.869,13.885],[83.461,13.727],[83.054,13.569],[82.78,13.161],[82.508,12.752],[82.236,12.343],[81.965,11.934],[81.695,11.524],[81.426,11.114],[81.157,10.704]]}},{"type":"Feature","properties":{"boundary_type":"subduction","feature_type":"gpml:SubductionZone","polarity":"Right","overriding_plate_id":580,"subducting_plate_id":580,"plate_ids":[580,580],"name":"SZ Kunlun"},"geometry":{"type":"LineString","coordinates":[[81.157,10.704],[80.904,10.316],[80.651,9.928],[80.782,9.518],[80.913,9.107]]}},{"type":"Feature","properties":{"boundary_type":"transform","feature_type":"gpml:Transform","polarity":null,"overriding_plate_id":null,"subducting_plate_id":null,"plate_ids":[9014,602201],"name":"Trasnform east of Alxa block"},"geometry":{"type":"LineString","coordinates":[[90.066,42.322],[89.442,42.333],[88.818,42.341],[88.194,42.346],[87.57,42.347],[86.946,42.344],[86.322,42.339],[85.698,42.33],[85.075,42.317]]}},{"type":"Feature","properties":{"boundary_type":"transform","feature_type":"gpml:Transform","polarity":null,"overriding_plate_id":null,"subducting_plate_id":null,"plate_ids":[580,9014],"name":"Trasnform east of Alxa block"},"geometry":{"type":"LineString","coordinates":[[85.075,42.317],[84.488,42.302],[83.942,42.045],[83.4,41.785],[82.862,41.523],[82.329,41.258],[81.8,40.991],[81.216,40.775],[80.635,40.556],[80.059,40.335],[79.486,40.11],[78.917,39.883],[78.351,39.653],[77.79,39.42],[77.17,39.345],[76.552,39.266],[75.936,39.184],[75.321,39.099],[74.707,39.01],[74.095,38.918],[73.484,38.823],[72.876,38.725],[72.409,38.625],[71.944,38.523],[71.315,38.462]]}},{"type":"Feature","properties":{"boundary_type":"transform","feature_type":"gpml:Transform","polarity":null,"overriding_plate_id":null,"subducting_plate_id":null,"plate_ids":[1001,9006],"name":"Transform bounding STO south"},"geometry":{"type":"LineString","coordinates":[[55.546,3.319],[56.004,3.47],[56.462,3.621],[56.921,3.771],[57.379,3.922],[57.838,4.072],[58.297,4.222],[58.756,4.371],[59.215,4.52],[59.674,4.669],[60.134,4.818],[60.594,4.966],[61.054,5.114],[61.514,5.262],[61.975,5.409],[62.435,5.557],[62.896,5.703],[63.358,5.849],[63.819,5.995],[64.281,6.141],[64.743,6.286],[65.205,6.431],[65.667,6.575],[66.13,6.719],[66.593,6.862]]}},{"type":"Feature","properties":{"boundary_type":"transform","feature_type":"gpml:Transform","polarity":null,"overriding_plate_id":null,"subducting_plate_id":null,"plate_ids":[580,602201],"name":"TRM transform"},"geometry":{"type":"LineString","coordinates":[[81.157,10.704],[81.096,10.305],[81.035,9.906],[80.974,9.507],[80.913,9.107]]}},{"type":"Feature","properties":{"boundary_type":"transform","feature_type":"gpml:Transform","polarity":null,"overriding_plate_id":null,"subducting_plate_id":null,"plate_ids":[580,602201],"name":"TRM transform"},"geometry":{"type":"LineString","coordinates":[[80.913,9.107],[80.842,8.639],[80.961,8.212],[81.079,7.786],[81.198,7.359],[81.316,6.932],[81.434,6.506],[81.509,6.04],[81.583,5.574],[81.658,5.108],[81.733,4.642],[81.807,4.176],[81.882,3.71],[81.956,3.244],[82.136,2.78],[82.316,2.317],[82.496,1.854],[82.675,1.391]]}},{"type":"Feature","properties":{"boundary_type":"ridge","feature_type":"gpml:MidOceanRidge","polarity":null,"overriding_plate_id":null,"subducting_plate_id":null,"plate_ids":[580,701],"name":"Western Mianlue spreading"},"geometry":{"type":"LineString","coordinates":[[71.064,-3.922],[71.494,-3.683],[71.924,-3.443],[72.354,-3.204],[72.784,-2.964],[73.214,-2.724],[73.643,-2.484],[74.073,-2.244],[74.502,-2.004],[74.931,-1.763],[75.36,-1.523],[75.789,-1.282],[76.217,-1.042],[76.646,-0.801],[77.075,-0.56],[77.503,-0.32],[77.932,-0.079],[78.36,0.162],[78.789,0.403],[79.217,0.643],[79.531,0.263],[79.846,-0.117],[80.25,0.098],[80.654,0.314],[81.058,0.529],[81.462,0.745],[81.866,0.96],[82.271,1.175],[82.675,1.391]]}},{"type":"Feature","properties":{"boundary_type":"ridge","feature_type":"gpml:MidOceanRidge","polarity":null,"overriding_plate_id":null,"subducting_plate_id":null,"plate_ids":[701,602201],"name":"Western Mianlue spreading"},"geometry":{"type":"LineString","coordinates":[[82.675,1.391],[83.04,1.585],[83.404,1.778],[83.769,1.972],[84.134,2.166],[84.464,1.826],[84.793,1.485],[85.175,1.761],[85.556,2.036],[85.938,2.312],[86.319,2.588],[86.701,2.863],[87.083,3.138],[87.465,3.414],[87.848,3.689],[88.23,3.963],[88.613,4.238],[88.996,4.513],[89.38,4.787],[89.764,5.061],[90.148,5.335],[90.596,5.554],[91.045,5.773],[91.494,5.991],[91.944,6.209],[92.394,6.426],[92.844,6.643],[93.295,6.86],[93.746,7.076],[94.197,7.292],[94.649,7.508],[95.102,7.723],[94.916,8.156],[94.73,8.589],[94.543,9.022],[94.356,9.455],[94.169,9.887],[93.981,10.32],[93.792,10.752],[94.225,10.99],[94.658,11.228],[95.091,11.465],[95.526,11.701],[95.961,11.937],[96.397,12.172],[96.834,12.406]]}},{"type":"Feature","properties":{"boundary_type":"ridge","feature_type":"gpml:MidOceanRidge","polarity":null,"overriding_plate_id":null,"subducting_plate_id":null,"plate_ids":[601,701],"name":"Eastern Mianlue spreading"},"geometry":{"type":"LineString","coordinates":[[96.199,13.718],[96.645,13.935],[97.092,14.152],[97.54,14.368],[97.988,14.583],[98.438,14.797],[98.889,15.01],[99.34,15.223],[99.792,15.434],[100.246,15.645],[100.7,15.854],[101.155,16.063],[101.611,16.271],[102.068,16.478],[102.397,16.196],[102.725,15.913],[103.052,15.631],[103.379,15.347],[103.842,15.563],[104.307,15.777],[104.773,15.991],[105.24,16.203],[105.707,16.415],[106.176,16.625],[106.646,16.834],[107.117,17.043],[107.589,17.25],[108.062,17.456],[108.536,17.661],[109.011,17.865],[109.487,18.068],[109.964,18.269],[110.443,18.469],[110.922,18.669],[111.403,18.867],[111.884,19.063],[112.367,19.259],[112.851,19.453],[113.336,19.646],[113.823,19.837],[114.31,20.027],[114.799,20.216],[115.289,20.404],[115.78,20.59],[116.272,20.775],[116.766,20.958],[117.26,21.14],[117.756,21.321],[118.253,21.5]]}},{"type":"Feature","properties":{"boundary_type":"transform","feature_type":"gpml:Transform","polarity":null,"overriding_plate_id":null,"subducting_plate_id":null,"plate_ids":[701,602201],"name":"Mianlue transform"},"geometry":{"type":"LineString","coordinates":[[96.834,12.406],[96.623,12.844],[96.411,13.281],[96.199,13.718]]}},{"type":"Feature","properties":{"boundary_type":"transform","feature_type":"gpml:Transform","polarity":null,"overriding_plate_id":null,"subducting_plate_id":null,"plate_ids":[601,602201],"name":"Mianlue transform"},"geometry":{"type":"LineString","coordinates":[[96.199,13.718],[96.052,14.019],[95.904,14.32],[95.747,14.751],[95.59,15.181],[95.431,15.612],[95.272,16.042],[95.113,16.472],[95.212,16.954],[95.312,17.437],[95.413,17.919],[95.514,18.402],[95.616,18.884],[95.718,19.366],[95.821,19.849],[95.925,20.331],[96.029,20.813],[96.134,21.295],[96.071,21.773],[96.007,22.251],[95.943,22.729],[95.878,23.206],[95.813,23.684],[95.748,24.162],[95.682,24.64],[95.615,25.117],[95.548,25.595],[95.481,26.072],[95.413,26.55],[95.13,26.89],[94.845,27.23],[94.558,27.569],[94.27,27.908],[93.979,28.246],[93.687,28.583],[93.623,28.932],[93.559,29.281],[93.494,29.63]]}},{"type":"Feature","properties":{"boundary_type":"transform","feature_type":"gpml:Transform","polarity":null,"overriding_plate_id":null,"subducting_plate_id":null,"plate_ids":[9014,602201],"name":"Mianlue transform"},"geometry":{"type":"LineString","coordinates":[[93.494,29.63],[93.411,30.076],[93.326,30.523],[93.241,30.969],[93.155,31.415],[93.068,31.861],[92.981,32.308],[92.892,32.754],[92.803,33.2],[92.68,33.682],[92.556,34.165],[92.431,34.648],[92.304,35.13],[92.175,35.612],[92.045,36.094],[91.914,36.576],[91.781,37.058],[91.646,37.54],[91.509,38.022],[91.37,38.503],[91.23,38.984],[91.088,39.465],[90.943,39.946],[90.797,40.427],[90.618,40.901],[90.437,41.375],[90.253,41.849],[90.066,42.322]]}},{"type":"Feature","properties":{"boundary_type":"transform","feature_type":"gpml:Transform","polarity":null,"overriding_plate_id":null,"subducting_plate_id":null,"plate_ids":[430,9013],"name":"Amuria transform"},"geometry":{"type":"LineString","coordinates":[[48.69,48.528],[48.681,48.058],[48.673,47.588],[48.664,47.118],[48.656,46.648],[48.648,46.178],[48.64,45.708],[48.632,45.237],[48.624,44.767],[48.616,44.297],[48.609,43.827],[48.601,43.357],[48.478,42.88],[48.356,42.403],[48.236,41.925],[48.117,41.448],[48.001,40.97],[47.886,40.493],[47.773,40.015],[47.661,39.537],[47.551,39.059],[47.442,38.581],[47.335,38.103],[47.229,37.624],[46.877,37.245],[46.528,36.865],[46.182,36.484],[45.84,36.102],[45.501,35.719],[45.165,35.335],[44.833,34.95],[44.504,34.564],[44.177,34.177],[43.827,33.806],[43.48,33.435],[43.135,33.062],[42.794,32.688],[42.455,32.313],[42.119,31.937],[41.786,31.561],[41.455,31.184],[41.127,30.805],[40.802,30.426]]}},{"type":"Feature","properties":{"boundary_type":"ridge","feature_type":"gpml:MidOceanRidge","polarity":null,"overriding_plate_id":null,"subducting_plate_id":null,"plate_ids":[401,430],"name":"Siberia-Amuria (Mongol-Okhotsk) MOR"},"geometry":{"type":"LineString","coordinates":[[37.288,33.62],[36.708,33.52],[36.129,33.418],[35.552,33.313],[34.975,33.205],[34.401,33.094],[33.827,32.981],[33.256,32.865],[32.685,32.747],[32.117,32.626],[31.549,32.503],[30.984,32.377],[30.42,32.248],[29.857,32.117],[29.297,31.984],[29.157,32.426],[29.017,32.869],[28.875,33.311],[28.731,33.753],[28.586,34.195],[28.044,34.029],[27.504,33.861],[26.966,33.69],[26.43,33.517],[25.896,33.342],[25.364,33.165],[24.834,32.985],[24.307,32.803],[23.782,32.619],[23.259,32.433],[22.738,32.244],[22.219,32.054],[21.703,31.861],[21.188,31.666],[20.676,31.469],[20.166,31.27],[19.658,31.07],[19.152,30.867],[18.649,30.662],[18.147,30.455],[17.648,30.247],[17.488,30.625],[17.326,31.004],[17.163,31.382],[16.999,31.76],[16.833,32.138],[16.308,31.939],[15.785,31.738],[15.264,31.535],[14.746,31.329],[14.23,31.122],[13.716,30.912],[13.205,30.701],[12.696,30.487],[12.188,30.272],[11.684,30.054],[11.181,29.835],[10.681,29.613],[10.183,29.39],[9.687,29.165],[9.193,28.938],[8.701,28.71],[8.212,28.479],[7.724,28.247],[7.239,28.013],[6.756,27.778],[6.275,27.541],[5.796,27.302],[5.319,27.061],[4.844,26.819],[4.372,26.576],[3.901,26.33],[3.432,26.084]]}},{"type":"Feature","properties":{"boundary_type":"transform","feature_type":"gpml:Transform","polarity":null,"overriding_plate_id":null,"subducting_plate_id":null,"plate_ids":[902,9014],"name":"PAO intraocean transform (north)"},"geometry":{"type":"LineString","coordinates":[[106.278,67.781],[104.988,67.822],[103.694,67.853],[102.398,67.873],[101.1,67.883],[99.801,67.883],[98.502,67.873],[97.206,67.853],[95.912,67.822],[94.623,67.781],[93.338,67.73],[92.059,67.669],[90.788,67.598],[89.525,67.517],[88.271,67.427],[87.026,67.326],[85.793,67.216],[84.572,67.097],[83.363,66.969],[82.167,66.831],[80.984,66.685],[79.817,66.529],[78.664,66.365],[77.526,66.193],[76.404,66.013],[75.298,65.824],[74.209,65.628],[73.136,65.424],[72.068,65.226],[71.016,65.021],[69.98,64.809],[68.96,64.589],[67.957,64.363],[66.971,64.129],[66.001,63.89],[65.048,63.644],[64.111,63.391],[63.191,63.133],[62.288,62.869],[61.401,62.599],[60.53,62.324],[59.674,62.043],[58.835,61.757],[58.011,61.466],[57.203,61.17],[56.409,60.87],[55.631,60.565],[54.867,60.255],[54.118,59.941],[53.383,59.623],[52.662,59.301]]}},{"type":"Feature","properties":{"boundary_type":"ridge","feature_type":"gpml:MidOceanRidge","polarity":null,"overriding_plate_id":null,"subducting_plate_id":null,"plate_ids":[902,9013],"name":"PAO mor"},"geometry":{"type":"LineString","coordinates":[[52.417,61.715],[51.78,61.571],[51.149,61.425],[50.524,61.275],[50.973,60.883],[51.41,60.49],[51.837,60.095],[52.254,59.699],[52.662,59.301]]}},{"type":"Feature","properties":{"boundary_type":"ridge","feature_type":"gpml:MidOceanRidge","polarity":null,"overriding_plate_id":null,"subducting_plate_id":null,"plate_ids":[9013,9014],"name":"PAO mor"},"geometry":{"type":"LineString","coordinates":[[52.662,59.301],[53.098,58.863],[53.524,58.423],[53.939,57.982],[54.344,57.54],[54.74,57.096],[55.126,56.652],[55.855,56.844],[56.591,57.032],[57.335,57.216],[58.086,57.395],[58.404,56.933],[58.714,56.47],[59.017,56.006],[59.312,55.542],[59.601,55.077],[59.883,54.611],[60.158,54.145],[60.428,53.678],[60.691,53.21],[60.949,52.742],[61.201,52.273],[61.448,51.804],[61.69,51.334],[61.927,50.864],[62.159,50.393],[62.387,49.922],[62.61,49.451],[62.829,48.979],[63.044,48.506],[63.255,48.034],[63.462,47.56],[63.665,47.087],[63.865,46.613],[64.061,46.139],[64.254,45.664],[64.444,45.189],[65.034,45.305],[65.625,45.417],[66.219,45.527],[66.816,45.633],[67.414,45.736],[68.015,45.836],[68.618,45.933],[68.807,45.468],[68.992,45.003],[69.175,44.537],[69.355,44.071],[69.532,43.605],[69.706,43.139],[69.877,42.672],[70.046,42.205],[70.213,41.738],[70.377,41.271],[70.539,40.803],[70.699,40.335],[70.856,39.867],[71.011,39.399],[71.164,38.931],[71.315,38.462]]}},{"type":"Feature","properties":{"boundary_type":"ridge","feature_type":"gpml:MidOceanRidge","polarity":null,"overriding_plate_id":null,"subducting_plate_id":null,"plate_ids":[580,9013],"name":"PAO mor"},"geometry":{"type":"LineString","coordinates":[[71.315,38.462],[71.459,38.011],[71.601,37.56]]}},{"type":"Feature","properties":{"boundary_type":"transform","feature_type":"gpml:Transform","polarity":null,"overriding_plate_id":null,"subducting_plate_id":null,"plate_ids":[580,9013],"name":"Transform bounding STO north"},"geometry":{"type":"LineString","coordinates":[[60.741,32.144],[61.027,32.356],[61.314,32.567],[61.77,32.87],[62.229,33.172],[62.69,33.472],[63.155,33.77],[63.624,34.067],[64.095,34.361],[64.559,34.593],[65.025,34.823],[65.494,35.051],[65.965,35.277],[66.439,35.502],[66.916,35.725],[67.395,35.945],[67.877,36.164],[68.362,36.381],[68.895,36.584],[69.43,36.784],[69.969,36.982],[70.51,37.177],[71.054,37.37],[71.601,37.56]]}},{"type":"Feature","properties":{"boundary_type":"transform","feature_type":"gpml:Transform","polarity":null,"overriding_plate_id":null,"subducting_plate_id":null,"plate_ids":[701,926],"name":"Panthalassa TRANSFORM estern China"},"geometry":{"type":"LineString","coordinates":[[111.795,9.152],[111.805,9.578],[111.816,10.003],[111.949,10.411],[112.083,10.819],[112.217,11.227],[112.351,11.635],[112.486,12.043],[112.622,12.451],[112.757,12.859],[112.966,13.305],[113.176,13.752],[113.386,14.198],[113.597,14.644],[113.81,15.089],[114.091,15.505],[114.374,15.921],[114.657,16.336],[114.942,16.751],[115.229,17.165],[115.516,17.579],[115.805,17.993],[116.095,18.406],[116.387,18.819],[116.68,19.231],[116.974,19.643],[117.27,20.054],[117.568,20.465],[117.867,20.875],[118.168,21.285],[118.253,21.5]]}},{"type":"Feature","properties":{"boundary_type":"transform","feature_type":"gpml:Transform","polarity":null,"overriding_plate_id":null,"subducting_plate_id":null,"plate_ids":[601,926],"name":"Panthalassa TRANSFORM estern China"},"geometry":{"type":"LineString","coordinates":[[118.253,21.5],[118.44,21.965],[118.629,22.429],[118.818,22.893],[119.009,23.357],[119.201,23.821],[119.394,24.285],[119.589,24.748],[119.786,25.211],[119.983,25.674],[120.183,26.136],[120.384,26.599],[120.586,27.061],[120.791,27.522],[120.997,27.984],[121.205,28.445],[121.148,28.922],[121.091,29.399],[121.033,29.876],[120.975,30.353],[120.917,30.83],[120.857,31.307],[120.797,31.784],[120.737,32.261],[120.676,32.738],[120.614,33.215],[120.551,33.692],[120.488,34.169],[120.424,34.646],[120.36,35.122],[120.209,35.587],[120.056,36.051],[119.901,36.515],[119.745,36.979],[119.587,37.443],[119.427,37.906],[119.264,38.369],[119.1,38.832]]}},{"type":"Feature","properties":{"boundary_type":"transform","feature_type":"gpml:Transform","polarity":null,"overriding_plate_id":null,"subducting_plate_id":null,"plate_ids":[926,9014],"name":"Panthalassa TRANSFORM estern China"},"geometry":{"type":"LineString","coordinates":[[119.1,38.832],[118.947,39.258],[118.792,39.683],[118.635,40.109],[118.476,40.534],[118.315,40.959],[118.152,41.384],[117.987,41.808],[117.819,42.232],[117.71,42.707],[117.599,43.181],[117.487,43.656],[117.372,44.13],[117.256,44.604],[117.138,45.078],[117.018,45.552],[116.896,46.026],[116.771,46.5],[116.645,46.973],[116.516,47.447],[116.385,47.92],[116.252,48.393],[116.116,48.866],[115.977,49.339],[115.836,49.811],[115.692,50.284],[115.545,50.756],[115.395,51.228],[115.208,51.701],[115.017,52.173],[114.823,52.645],[114.624,53.117],[114.42,53.589],[114.212,54.06],[114.0,54.531],[113.782,55.001],[113.559,55.471],[113.331,55.941],[113.097,56.41],[112.857,56.878],[112.612,57.347],[112.359,57.814],[112.101,58.282],[111.835,58.748],[111.562,59.214],[111.282,59.68],[110.994,60.145],[110.697,60.609],[110.392,61.073],[110.078,61.535],[109.754,61.998],[109.42,62.459],[109.076,62.919],[108.721,63.379],[108.511,63.821],[108.295,64.262],[108.072,64.704],[107.841,65.144],[107.603,65.585],[107.356,66.025],[107.101,66.465],[106.836,66.904],[106.562,67.343],[106.278,67.781]]}},{"type":"Feature","properties":{"boundary_type":"transform","feature_type":"gpml:Transform","polarity":null,"overriding_plate_id":null,"subducting_plate_id":null,"plate_ids":[902,926],"name":"Panthalassa TRANSFORM estern China"},"geometry":{"type":"LineString","coordinates":[[106.278,67.781],[106.054,68.114],[105.824,68.446],[105.587,68.779]]}},{"type":"Feature","properties":{"boundary_type":"transform","feature_type":"gpml:Transform","polarity":null,"overriding_plate_id":null,"subducting_plate_id":null,"plate_ids":[701,919],"name":"Tranform connecting subduction"},"geometry":{"type":"LineString","coordinates":[[-105.612,-43.251],[-105.022,-43.466],[-104.427,-43.679],[-103.829,-43.888],[-103.226,-44.094],[-102.619,-44.297],[-102.007,-44.497],[-101.392,-44.693],[-100.772,-44.887],[-100.148,-45.076],[-99.521,-45.263],[-98.889,-45.446],[-98.253,-45.625],[-97.613,-45.801],[-96.968,-45.973],[-96.32,-46.142],[-95.668,-46.307],[-95.013,-46.468]]}},{"type":"Feature","properties":{"boundary_type":"subduction","feature_type":"gpml:SubductionZone","polarity":"Left","overriding_plate_id":580,"subducting_plate_id":9013,"plate_ids":[580,9013],"name":"Paleo-Tianshan Ocean SZ on northern margin of CTB"},"geometry":{"type":"LineString","coordinates":[[60.741,32.144],[61.114,31.83],[61.483,31.516],[61.851,31.201],[62.215,30.884],[62.578,30.567],[62.938,30.248],[63.02,30.098]]}},{"type":"Feature","properties":{"boundary_type":"subduction","feature_type":"gpml:SubductionZone","polarity":"Left","overriding_plate_id":580,"subducting_plate_id":1001,"plate_ids":[580,1001],"name":"Paleo-Tianshan Ocean SZ on northern margin of CTB"},"geometry":{"type":"LineString","coordinates":[[63.02,30.098],[63.237,29.697],[63.453,29.296],[63.667,28.895],[63.88,28.493],[64.091,28.091],[64.3,27.688],[64.438,27.255],[64.574,26.822],[64.71,26.389],[64.845,25.956],[64.978,25.523],[65.111,25.089],[65.243,24.656],[65.323,24.175],[65.403,23.694],[65.482,23.213],[65.56,22.731],[65.638,22.25],[65.716,21.769],[65.692,21.327],[65.669,20.886],[65.645,20.444],[65.622,20.003],[65.599,19.561],[65.576,19.119],[65.553,18.678],[65.479,18.218],[65.405,17.757],[65.332,17.297],[65.434,16.809],[65.537,16.32],[65.638,15.831],[65.739,15.342],[65.84,14.853],[65.805,14.432],[65.77,14.01],[65.736,13.589],[65.701,13.167],[65.667,12.746],[65.856,12.298],[66.043,11.85],[66.231,11.401],[66.418,10.953],[66.416,10.546],[66.414,10.138],[66.413,9.731],[66.411,9.323],[66.41,8.916],[66.447,8.505],[66.483,8.095],[66.52,7.684],[66.556,7.273],[66.593,6.862]]}},{"type":"Feature","properties":{"boundary_type":"subduction","feature_type":"gpml:SubductionZone","polarity":"Left","overriding_plate_id":580,"subducting_plate_id":9006,"plate_ids":[580,9006],"name":"Paleo-Tianshan Ocean SZ on northern margin of CTB"},"geometry":{"type":"LineString","coordinates":[[66.593,6.862],[66.615,6.613],[66.95,6.327],[67.286,6.04],[67.62,5.753],[67.971,5.552],[68.32,5.351],[68.67,5.15],[69.019,4.949],[69.369,4.747],[69.72,4.583],[70.071,4.418],[70.421,4.254],[70.788,4.047],[71.153,3.84],[71.519,3.634],[71.885,3.427],[72.205,3.115],[72.525,2.804]]}},{"type":"Feature","properties":{"boundary_type":"ridge","feature_type":"gpml:MidOceanRidge","polarity":null,"overriding_plate_id":null,"subducting_plate_id":null,"plate_ids":[701,9006],"name":"Paleotethys MOR"},"geometry":{"type":"LineString","coordinates":[[14.026,-2.149],[14.371,-2.413],[14.716,-2.677],[15.062,-2.94],[15.407,-3.204],[15.753,-3.467],[15.51,-3.876],[15.267,-4.285],[15.023,-4.693],[14.78,-5.102],[14.536,-5.51],[14.292,-5.918],[14.047,-6.327],[13.802,-6.735],[13.557,-7.143],[13.311,-7.551],[13.064,-7.958],[12.818,-8.366],[12.57,-8.773],[12.322,-9.18],[12.074,-9.587],[11.825,-9.994],[11.575,-10.401],[11.325,-10.808],[11.724,-11.06],[12.124,-11.312],[12.524,-11.564],[12.925,-11.814],[13.327,-12.065],[13.73,-12.315],[14.133,-12.564],[14.537,-12.812],[14.381,-13.232],[14.225,-13.652],[14.068,-14.072],[13.91,-14.492],[13.752,-14.911],[13.593,-15.331],[13.433,-15.75],[13.872,-16.005],[14.312,-16.26],[14.752,-16.513],[15.194,-16.765],[15.638,-17.017],[16.082,-17.267],[16.527,-17.517],[16.974,-17.765],[17.422,-18.012],[17.872,-18.259],[18.322,-18.504],[18.774,-18.749],[19.227,-18.992],[19.682,-19.234],[20.137,-19.475],[20.595,-19.715],[21.053,-19.953],[21.513,-20.191],[21.974,-20.427],[22.437,-20.662],[22.901,-20.896],[23.367,-21.129],[23.834,-21.36],[24.303,-21.59],[24.773,-21.819],[25.244,-22.046],[25.717,-22.272],[26.192,-22.497],[26.668,-22.72],[27.146,-22.942],[27.625,-23.162],[27.82,-22.75],[28.014,-22.337],[28.207,-21.924],[28.399,-21.511],[28.59,-21.097],[28.78,-20.684],[29.085,-20.705],[29.39,-20.725],[29.589,-20.338],[29.786,-19.951],[29.983,-19.563],[30.179,-19.176],[30.373,-18.788],[30.567,-18.4],[31.051,-18.563],[31.535,-18.726],[32.021,-18.887],[32.507,-19.047],[32.994,-19.206],[33.483,-19.363],[33.972,-19.519],[34.462,-19.674],[34.953,-19.827],[35.445,-19.979],[35.938,-20.13],[36.432,-20.279],[36.926,-20.427],[37.422,-20.574],[37.919,-20.719],[38.417,-20.863],[38.583,-20.419],[38.748,-19.975],[38.912,-19.531],[39.075,-19.087],[39.238,-18.642],[39.759,-18.688],[40.28,-18.732],[40.458,-18.319],[40.634,-17.905],[40.81,-17.492],[40.985,-17.078],[41.159,-16.664],[41.332,-16.25],[41.505,-15.835],[41.677,-15.421],[41.848,-15.006],[42.315,-15.07],[42.783,-15.133],[43.251,-15.195],[43.719,-15.256],[44.187,-15.316],[44.656,-15.375],[45.125,-15.433],[45.594,-15.49],[46.064,-15.546],[46.533,-15.601],[47.003,-15.655],[47.02,-15.231],[47.037,-14.806],[47.053,-14.382],[47.07,-13.958],[47.556,-13.952],[48.043,-13.944],[48.53,-13.936],[49.016,-13.926],[49.503,-13.916],[49.989,-13.905],[50.475,-13.893],[50.962,-13.879],[51.448,-13.865],[51.934,-13.85],[52.42,-13.834],[52.906,-13.817],[53.392,-13.799],[53.878,-13.78],[54.364,-13.76],[54.85,-13.739],[55.336,-13.717],[55.446,-14.09],[55.557,-14.463],[55.668,-14.835],[55.78,-15.208],[56.279,-15.164],[56.779,-15.119],[57.278,-15.073],[57.777,-15.026],[58.275,-14.978],[58.774,-14.929],[59.272,-14.878],[59.77,-14.827],[60.268,-14.774],[60.765,-14.721],[61.262,-14.666],[61.759,-14.61],[62.256,-14.554],[62.753,-14.496],[63.249,-14.437],[63.745,-14.377],[64.25,-14.34],[64.755,-14.303],[65.259,-14.264],[65.764,-14.224],[66.268,-14.183],[66.773,-14.141],[67.277,-14.098],[67.78,-14.054],[68.284,-14.009],[68.787,-13.963],[69.291,-13.916],[69.794,-13.868],[70.296,-13.819],[70.799,-13.768],[71.301,-13.717],[71.431,-14.081],[71.562,-14.444],[71.693,-14.808],[72.159,-14.737],[72.626,-14.665],[73.092,-14.592],[73.557,-14.518],[74.023,-14.443],[74.488,-14.368],[74.952,-14.291],[75.417,-14.213],[75.881,-14.135],[76.345,-14.056],[76.808,-13.976]]}}]}