{"type":"FeatureCollection","meta":{"model":"Cao2024","reconstruction_time_ma":1330.0,"anchor_plate_id":0,"pygplates_version":"1.0.0","tessellate_degrees":0.5,"polarity_convention":"gpml:subductionPolarity. 'Left'/'Right' names the side of the line, in vertex order, on which the OVERRIDING plate lies. Triangles are drawn on that side.","antimeridian":"Lines are NOT split at +/-180 deg. The renderer works in 3D unit vectors where the dateline is not special; splitting would only add spurious breaks. Do not treat this as RFC 7946 GIS-ready 2D data."},"features":[{"type":"Feature","properties":{"boundary_type":"subduction","feature_type":"gpml:SubductionZone","polarity":"Left","overriding_plate_id":101,"subducting_plate_id":911001,"plate_ids":[101,911001],"name":"Indo-Antarctica_SZ"},"geometry":{"type":"LineString","coordinates":[[-143.565,-29.753],[-143.327,-30.162],[-143.088,-30.571],[-142.847,-30.979],[-142.603,-31.387],[-142.358,-31.794],[-142.11,-32.201],[-141.86,-32.608],[-141.805,-33.103],[-141.75,-33.598],[-141.695,-34.093],[-141.638,-34.588],[-141.581,-35.083],[-141.523,-35.578],[-141.465,-36.073],[-141.406,-36.567],[-141.346,-37.062],[-141.285,-37.557],[-141.223,-38.052]]}},{"type":"Feature","properties":{"boundary_type":"subduction","feature_type":"gpml:SubductionZone","polarity":"Left","overriding_plate_id":101,"subducting_plate_id":90105,"plate_ids":[101,90105],"name":"Indo-Antarctica_SZ"},"geometry":{"type":"LineString","coordinates":[[-141.223,-38.052],[-141.171,-38.468],[-141.118,-38.884],[-141.064,-39.301],[-141.022,-39.79],[-140.979,-40.28],[-140.936,-40.77],[-140.892,-41.259],[-140.847,-41.749],[-140.801,-42.238],[-140.755,-42.728],[-140.708,-43.217],[-140.661,-43.707],[-140.612,-44.196],[-140.563,-44.686],[-140.513,-45.175],[-140.32,-45.652],[-140.125,-46.129],[-139.925,-46.606],[-139.722,-47.082],[-139.516,-47.557],[-139.306,-48.033],[-139.092,-48.508],[-138.873,-48.982],[-138.651,-49.456],[-138.424,-49.93],[-138.193,-50.403],[-137.957,-50.876],[-137.716,-51.348],[-137.47,-51.82],[-137.009,-52.229],[-136.538,-52.635],[-136.059,-53.04],[-135.571,-53.443],[-135.074,-53.844],[-134.567,-54.243],[-134.05,-54.639],[-133.523,-55.034],[-132.985,-55.426],[-132.437,-55.815],[-131.877,-56.202],[-131.307,-56.587],[-130.724,-56.969],[-130.541,-57.043]]}},{"type":"Feature","properties":{"boundary_type":"subduction","feature_type":"gpml:SubductionZone","polarity":"Right","overriding_plate_id":801,"subducting_plate_id":90107,"plate_ids":[801,90107],"name":"NorthChina_SZ"},"geometry":{"type":"LineString","coordinates":[[-70.379,33.255],[-70.033,32.879],[-69.689,32.501],[-69.349,32.123],[-69.011,31.744],[-68.677,31.364],[-68.344,30.983],[-68.015,30.601],[-67.688,30.219],[-67.364,29.835],[-67.371,29.371],[-67.379,28.906],[-67.387,28.442],[-67.394,27.978],[-67.401,27.513],[-67.409,27.049],[-67.416,26.584],[-67.423,26.12],[-67.431,25.656],[-67.438,25.191],[-67.445,24.727],[-67.452,24.262],[-67.459,23.798],[-67.602,23.344],[-67.745,22.89],[-67.886,22.436],[-68.026,21.982],[-68.166,21.528],[-68.305,21.073],[-68.443,20.619],[-68.58,20.164],[-68.716,19.71],[-68.851,19.255],[-68.986,18.8],[-69.12,18.345],[-69.253,17.89]]}},{"type":"Feature","properties":{"boundary_type":"subduction","feature_type":"gpml:SubductionZone","polarity":"Left","overriding_plate_id":101,"subducting_plate_id":90106,"plate_ids":[101,90106],"name":"Eastern_Laurentia_SZ"},"geometry":{"type":"LineString","coordinates":[[173.562,45.971],[173.491,45.507],[173.421,45.042],[173.352,44.578],[173.285,44.114],[173.218,43.649],[173.153,43.185],[173.088,42.72],[173.024,42.256],[173.044,41.765],[173.064,41.275],[173.083,40.785],[173.102,40.294],[173.12,39.804],[173.139,39.314],[173.157,38.823],[173.174,38.333],[173.192,37.843],[173.209,37.352],[173.227,36.862],[173.244,36.372],[173.26,35.881],[173.277,35.391],[173.333,34.905],[173.389,34.419],[173.444,33.934],[173.498,33.448],[173.552,32.962],[173.605,32.477],[173.658,31.991]]}},{"type":"Feature","properties":{"boundary_type":"subduction","feature_type":"gpml:SubductionZone","polarity":"Left","overriding_plate_id":101,"subducting_plate_id":911001,"plate_ids":[101,911001],"name":"Eastern_Laurentia_SZ"},"geometry":{"type":"LineString","coordinates":[[173.658,31.991],[173.71,31.504],[173.762,31.017],[173.813,30.529],[173.864,30.042],[173.914,29.555],[173.964,29.068],[174.013,28.581],[174.062,28.094],[174.11,27.606],[174.158,27.119],[174.311,26.67],[174.462,26.221],[174.612,25.772],[174.76,25.323],[174.908,24.873],[175.055,24.424],[175.2,23.974],[175.345,23.524],[175.488,23.074],[175.631,22.624],[175.773,22.174],[175.914,21.723],[176.053,21.273],[176.192,20.822],[176.331,20.372],[176.674,20.039],[177.016,19.706],[177.356,19.372],[177.695,19.038],[178.033,18.703],[178.369,18.367],[178.704,18.031],[179.038,17.694],[179.37,17.357],[179.702,17.019],[-179.897,16.74],[-179.497,16.46],[-179.098,16.18],[-178.701,15.899],[-178.304,15.617],[-177.909,15.335],[-177.514,15.052],[-177.121,14.768],[-176.729,14.484],[-176.337,14.198],[-175.947,13.913],[-175.558,13.626],[-175.168,13.461],[-174.78,13.295],[-174.391,13.129],[-174.004,12.962]]}},{"type":"Feature","properties":{"boundary_type":"subduction","feature_type":"gpml:SubductionZone","polarity":"Left","overriding_plate_id":801,"subducting_plate_id":90106,"plate_ids":[801,90106],"name":"NorthwesternMawson_SZ"},"geometry":{"type":"LineString","coordinates":[[-87.106,67.259],[-87.237,67.702],[-87.374,68.145],[-87.516,68.588],[-87.664,69.031],[-87.818,69.473],[-88.673,69.835],[-89.558,70.192],[-90.473,70.544],[-91.421,70.892],[-92.403,71.234],[-93.419,71.572],[-94.472,71.904],[-95.562,72.229],[-96.692,72.549],[-98.073,72.765],[-99.488,72.972],[-100.936,73.168],[-102.416,73.354],[-103.928,73.53],[-105.47,73.694],[-107.042,73.847],[-108.642,73.988],[-110.268,74.117],[-111.919,74.234],[-113.593,74.338],[-115.222,74.526],[-116.89,74.701],[-118.594,74.864],[-120.333,75.014],[-122.104,75.151],[-123.906,75.274],[-125.736,75.382],[-127.591,75.476],[-129.467,75.556],[-131.362,75.62],[-133.272,75.669],[-135.192,75.703],[-137.034,75.792],[-138.896,75.867],[-140.777,75.928],[-142.671,75.974],[-144.575,76.005],[-146.486,76.022],[-148.399,76.023],[-150.311,76.009],[-152.217,75.981],[-154.113,75.937],[-155.996,75.879],[-157.862,75.807],[-159.707,75.72],[-161.524,75.517],[-163.291,75.3],[-165.005,75.07],[-166.667,74.827],[-168.277,74.573],[-169.835,74.308],[-171.341,74.032]]}},{"type":"Feature","properties":{"boundary_type":"subduction","feature_type":"gpml:SubductionZone","polarity":"Right","overriding_plate_id":801,"subducting_plate_id":90106,"plate_ids":[801,90106],"name":"westernWestAustralia_SZ"},"geometry":{"type":"LineString","coordinates":[[-87.106,67.259],[-86.132,66.99],[-85.181,66.715],[-84.25,66.435],[-83.341,66.149],[-82.452,65.858],[-81.583,65.562],[-80.733,65.261],[-79.903,64.955],[-79.092,64.645],[-78.299,64.331],[-77.525,64.012],[-76.768,63.69],[-76.028,63.363],[-75.56,62.996],[-75.103,62.627],[-74.658,62.257],[-74.224,61.886]]}},{"type":"Feature","properties":{"boundary_type":"subduction","feature_type":"gpml:SubductionZone","polarity":"Right","overriding_plate_id":801,"subducting_plate_id":90107,"plate_ids":[801,90107],"name":"westernWestAustralia_SZ"},"geometry":{"type":"LineString","coordinates":[[-74.224,61.886],[-73.753,61.471],[-73.295,61.055],[-72.849,60.637],[-72.414,60.218],[-71.99,59.798],[-71.576,59.376],[-71.173,58.953],[-70.78,58.529],[-70.396,58.103],[-70.021,57.676],[-69.654,57.249],[-69.297,56.82],[-68.947,56.39],[-68.605,55.96],[-68.271,55.528],[-68.139,55.048],[-68.011,54.567],[-67.885,54.087],[-67.763,53.606],[-67.643,53.125],[-67.526,52.644],[-67.412,52.163],[-67.299,51.682],[-67.19,51.201],[-67.082,50.719],[-66.977,50.238],[-66.874,49.756],[-66.773,49.274],[-66.673,48.793],[-66.576,48.311],[-66.48,47.829],[-66.387,47.347],[-66.569,46.868],[-66.749,46.389],[-66.925,45.91],[-67.099,45.43],[-67.269,44.95],[-67.437,44.47],[-67.601,43.989],[-67.764,43.509],[-67.923,43.028],[-68.08,42.547],[-68.235,42.065],[-68.388,41.584],[-68.538,41.102],[-68.665,40.613],[-68.79,40.123],[-68.914,39.633],[-69.035,39.143],[-69.156,38.653],[-69.274,38.163],[-69.391,37.673],[-69.506,37.182],[-69.62,36.692],[-69.732,36.201],[-69.843,35.71],[-69.953,35.22],[-70.061,34.729],[-70.168,34.238],[-70.274,33.746],[-70.379,33.255]]}},{"type":"Feature","properties":{"boundary_type":"ridge","feature_type":"gpml:MidOceanRidge","polarity":null,"overriding_plate_id":null,"subducting_plate_id":null,"plate_ids":[101,6024],"name":"Laurentia-SouthAustralia ridge"},"geometry":{"type":"LineString","coordinates":[[-112.732,29.392],[-112.855,29.74],[-112.978,30.088]]}},{"type":"Feature","properties":{"boundary_type":"ridge","feature_type":"gpml:MidOceanRidge","polarity":null,"overriding_plate_id":null,"subducting_plate_id":null,"plate_ids":[101,801],"name":"Laurentia-SouthAustralia ridge"},"geometry":{"type":"LineString","coordinates":[[-112.978,30.088],[-113.126,30.502],[-113.275,30.916],[-113.425,31.33],[-113.577,31.744],[-113.731,32.158],[-113.885,32.572],[-114.431,32.473],[-114.976,32.371],[-115.52,32.268],[-116.062,32.162],[-116.603,32.053],[-117.143,31.943],[-117.682,31.83],[-118.219,31.714],[-118.755,31.597],[-119.289,31.477],[-119.822,31.356],[-120.354,31.232],[-120.884,31.105],[-121.413,30.977],[-121.526,31.453],[-121.639,31.928],[-121.754,32.404],[-121.87,32.88],[-121.988,33.355],[-122.107,33.83],[-122.227,34.306],[-122.348,34.781],[-122.471,35.256],[-122.595,35.731],[-122.721,36.205],[-122.848,36.68],[-122.977,37.154],[-123.572,37.093],[-124.166,37.028],[-124.759,36.961],[-125.351,36.89],[-125.942,36.817],[-126.532,36.741],[-127.121,36.662],[-127.708,36.58],[-128.295,36.495],[-128.879,36.407],[-129.463,36.316],[-130.045,36.223],[-130.626,36.127],[-131.205,36.028],[-131.389,36.492],[-131.575,36.957],[-131.763,37.421],[-131.954,37.884],[-132.147,38.348],[-132.343,38.811],[-132.541,39.274],[-132.742,39.736],[-132.945,40.198],[-133.151,40.66],[-133.36,41.121],[-133.572,41.582],[-133.788,42.043],[-134.006,42.503],[-134.227,42.963],[-134.452,43.422],[-134.681,43.881],[-134.912,44.34],[-135.148,44.798],[-135.387,45.255],[-135.63,45.712],[-135.877,46.168],[-136.129,46.624],[-136.384,47.08],[-136.644,47.534],[-137.343,47.39],[-138.037,47.24],[-138.728,47.087],[-139.415,46.93],[-140.098,46.768],[-140.776,46.603],[-141.45,46.433],[-142.121,46.26],[-142.786,46.083],[-143.448,45.901],[-144.105,45.716],[-144.758,45.528],[-145.144,45.932],[-145.535,46.335],[-145.932,46.737],[-146.335,47.137],[-146.744,47.535],[-147.16,47.933],[-147.582,48.329],[-148.01,48.723],[-148.445,49.115],[-148.888,49.506],[-149.337,49.895],[-149.793,50.283],[-150.257,50.668],[-150.729,51.052],[-151.209,51.434],[-151.696,51.814],[-152.436,51.667],[-153.171,51.515],[-153.9,51.359],[-154.625,51.198],[-155.345,51.033],[-156.059,50.863],[-156.768,50.689],[-157.472,50.511],[-158.171,50.329],[-158.864,50.142],[-159.552,49.951],[-159.833,50.404],[-160.12,50.856],[-160.413,51.308],[-160.711,51.758],[-161.015,52.208],[-161.326,52.657],[-161.643,53.105],[-161.967,53.553],[-162.297,53.999],[-162.635,54.445],[-162.98,54.889],[-163.829,54.863],[-164.676,54.831],[-165.523,54.792],[-166.367,54.748],[-167.209,54.698],[-168.05,54.643],[-168.887,54.581],[-169.723,54.514],[-170.555,54.441],[-171.384,54.362],[-172.21,54.278],[-173.033,54.187],[-173.851,54.092],[-174.666,53.991],[-175.477,53.884],[-176.284,53.772],[-177.086,53.654],[-177.884,53.532],[-178.677,53.404],[-179.465,53.27],[179.752,53.132],[178.974,52.988],[178.202,52.84],[177.434,52.686],[176.672,52.528],[175.916,52.364],[175.165,52.196],[174.42,52.023],[173.681,51.846],[172.948,51.664]]}},{"type":"Feature","properties":{"boundary_type":"ridge","feature_type":"gpml:MidOceanRidge","polarity":null,"overriding_plate_id":null,"subducting_plate_id":null,"plate_ids":[101,801],"name":"Cathasyia-Congo ridge"},"geometry":{"type":"LineString","coordinates":[[-95.612,19.745],[-95.322,19.347],[-95.032,18.948],[-94.744,18.549],[-94.457,18.15],[-94.172,17.75],[-93.888,17.349],[-93.605,16.949],[-93.323,16.548],[-93.042,16.146],[-92.763,15.744],[-92.485,15.342],[-92.208,14.94],[-91.931,14.537],[-91.656,14.133],[-91.382,13.73],[-91.109,13.326],[-90.836,12.922],[-90.565,12.518],[-90.294,12.113],[-90.024,11.708],[-89.755,11.303],[-89.487,10.898],[-89.219,10.492],[-88.953,10.086],[-88.686,9.68],[-88.421,9.274],[-88.018,9.424],[-87.614,9.574],[-87.21,9.723],[-86.806,9.872],[-86.521,9.491],[-86.236,9.11],[-85.952,8.728],[-85.669,8.347],[-85.386,7.965],[-85.104,7.583],[-84.822,7.201],[-84.541,6.818],[-84.26,6.436],[-83.98,6.053],[-83.567,6.259],[-83.154,6.466],[-82.74,6.672],[-82.327,6.878],[-81.912,7.083],[-81.498,7.288],[-81.083,7.492],[-80.668,7.697],[-80.252,7.9],[-79.977,7.484],[-79.703,7.068],[-79.43,6.652],[-79.157,6.236],[-78.884,5.819],[-78.612,5.403],[-78.34,4.986],[-78.068,4.569],[-77.797,4.152],[-77.526,3.735],[-77.255,3.318],[-76.985,2.9],[-76.715,2.483],[-76.444,2.066],[-76.174,1.648],[-75.905,1.231],[-75.635,0.813],[-75.217,1.022],[-74.8,1.23],[-74.382,1.439],[-73.965,1.647],[-73.547,1.855],[-73.129,2.063],[-72.711,2.271],[-72.293,2.479],[-71.875,2.687],[-71.457,2.895],[-71.039,3.102],[-70.62,3.31],[-70.352,2.927],[-70.084,2.545],[-69.816,2.162],[-69.549,1.779],[-69.281,1.397],[-69.014,1.014],[-68.747,0.631],[-68.48,0.249],[-68.212,-0.134],[-67.945,-0.517],[-67.678,-0.9],[-67.411,-1.282],[-67.143,-1.665],[-66.683,-1.503],[-66.224,-1.341],[-65.764,-1.179],[-65.304,-1.017],[-64.844,-0.855],[-64.385,-0.692],[-63.925,-0.53],[-63.465,-0.368],[-63.006,-0.205],[-62.546,-0.043],[-62.087,0.12],[-61.627,0.282],[-61.167,0.444],[-60.708,0.607],[-60.248,0.769],[-59.788,0.931],[-59.329,1.094],[-58.869,1.256],[-58.409,1.418],[-57.949,1.58],[-57.489,1.742],[-57.029,1.903],[-56.569,2.065],[-56.109,2.226],[-55.649,2.388],[-55.188,2.549],[-54.728,2.71],[-54.267,2.871],[-53.806,3.032],[-53.345,3.192],[-52.884,3.352],[-52.423,3.512]]}},{"type":"Feature","properties":{"boundary_type":"subduction","feature_type":"gpml:SubductionZone","polarity":"Right","overriding_plate_id":801,"subducting_plate_id":90107,"plate_ids":[801,90107],"name":"Cathaysia_SZ"},"geometry":{"type":"LineString","coordinates":[[-69.253,17.89],[-68.831,17.594],[-68.41,17.298],[-67.99,17.001],[-67.572,16.703],[-67.155,16.404],[-66.739,16.104],[-66.324,15.803],[-65.911,15.502],[-65.499,15.2],[-65.088,14.897],[-64.679,14.593],[-64.27,14.289],[-63.862,13.984],[-63.414,13.74],[-62.966,13.495],[-62.519,13.249],[-62.073,13.003],[-61.627,12.756],[-61.183,12.508],[-60.74,12.259],[-60.297,12.01],[-59.855,11.76],[-59.414,11.509],[-58.974,11.257],[-58.534,11.005],[-58.096,10.753],[-57.658,10.499],[-57.22,10.245],[-56.9,9.875],[-56.58,9.504],[-56.261,9.133],[-55.942,8.761],[-55.625,8.389],[-55.307,8.017],[-54.991,7.645],[-54.675,7.273],[-54.359,6.9],[-54.044,6.527],[-53.73,6.154],[-53.415,5.781],[-53.102,5.407],[-52.966,5.028],[-52.83,4.649],[-52.694,4.27],[-52.558,3.891],[-52.423,3.512]]}},{"type":"Feature","properties":{"boundary_type":"subduction","feature_type":"gpml:SubductionZone","polarity":"Right","overriding_plate_id":101,"subducting_plate_id":90107,"plate_ids":[101,90107],"name":"Cathaysia_SZ"},"geometry":{"type":"LineString","coordinates":[[-52.423,3.512],[-52.256,3.045],[-52.089,2.577],[-51.922,2.109],[-51.755,1.641],[-51.589,1.174],[-51.422,0.706],[-51.256,0.238],[-51.089,-0.23],[-50.923,-0.698],[-50.756,-1.165],[-50.59,-1.633],[-50.423,-2.101],[-50.256,-2.569],[-50.089,-3.036],[-49.922,-3.504],[-49.755,-3.972],[-49.588,-4.439],[-49.42,-4.907],[-49.252,-5.375],[-49.084,-5.842],[-48.916,-6.31],[-48.747,-6.777],[-48.578,-7.244],[-48.409,-7.712],[-48.442,-8.2],[-48.475,-8.688],[-48.508,-9.176],[-48.541,-9.664],[-48.575,-10.153],[-48.608,-10.641],[-48.642,-11.129],[-48.676,-11.617],[-48.71,-12.105],[-48.744,-12.594],[-48.867,-13.078],[-48.991,-13.562],[-49.115,-14.046],[-49.24,-14.53],[-49.365,-15.014],[-49.491,-15.498],[-49.618,-15.981],[-49.745,-16.465],[-49.872,-16.949],[-50.001,-17.432],[-50.13,-17.916]]}},{"type":"Feature","properties":{"boundary_type":"subduction","feature_type":"gpml:SubductionZone","polarity":"Left","overriding_plate_id":101,"subducting_plate_id":90105,"plate_ids":[101,90105],"name":"SZ"},"geometry":{"type":"LineString","coordinates":[[-38.89,-51.514],[-38.859,-51.038],[-38.829,-50.561],[-38.8,-50.085],[-38.771,-49.609],[-38.743,-49.133],[-38.715,-48.656],[-38.688,-48.18],[-38.661,-47.704],[-38.634,-47.228]]}},{"type":"Feature","properties":{"boundary_type":"subduction","feature_type":"gpml:SubductionZone","polarity":"Left","overriding_plate_id":101,"subducting_plate_id":90107,"plate_ids":[101,90107],"name":"SZ"},"geometry":{"type":"LineString","coordinates":[[-38.634,-47.228],[-38.608,-46.74],[-38.582,-46.252],[-38.557,-45.765],[-38.532,-45.277],[-38.507,-44.79],[-38.483,-44.302],[-38.459,-43.814],[-38.436,-43.327],[-38.413,-42.839],[-38.39,-42.351],[-38.368,-41.864],[-38.346,-41.376],[-38.324,-40.888],[-38.303,-40.401],[-38.282,-39.913],[-38.261,-39.425],[-38.24,-38.938],[-38.22,-38.45],[-38.2,-37.962],[-38.181,-37.474],[-38.161,-36.987],[-38.142,-36.499],[-38.123,-36.011],[-38.354,-35.556],[-38.581,-35.1],[-38.807,-34.643],[-39.029,-34.187],[-39.25,-33.729],[-39.468,-33.272],[-39.683,-32.814],[-39.897,-32.355],[-40.108,-31.897],[-40.318,-31.438],[-40.525,-30.978],[-40.73,-30.518],[-40.934,-30.058],[-41.135,-29.598],[-41.335,-29.137],[-41.532,-28.676],[-41.729,-28.215],[-41.923,-27.754],[-42.116,-27.292],[-42.307,-26.83],[-42.497,-26.368],[-42.685,-25.905],[-43.043,-25.55],[-43.398,-25.194],[-43.752,-24.837],[-44.104,-24.479],[-44.454,-24.12],[-44.801,-23.761],[-45.147,-23.4],[-45.491,-23.039],[-45.833,-22.678],[-46.173,-22.315],[-46.512,-21.952],[-46.849,-21.588],[-47.184,-21.224],[-47.517,-20.859],[-47.849,-20.493],[-48.18,-20.127],[-48.508,-19.76],[-48.835,-19.392],[-49.161,-19.024],[-49.486,-18.655],[-49.808,-18.286],[-50.13,-17.916]]}},{"type":"Feature","properties":{"boundary_type":"subduction","feature_type":"gpml:SubductionZone","polarity":"Left","overriding_plate_id":911001,"subducting_plate_id":90106,"plate_ids":[90106,911001],"name":""},"geometry":{"type":"LineString","coordinates":[[173.658,31.991],[173.087,31.973],[172.516,31.953],[171.945,31.93],[171.374,31.905],[170.804,31.878],[170.234,31.847],[169.665,31.814],[169.096,31.779],[168.527,31.741],[167.959,31.701],[167.392,31.658],[166.824,31.612],[166.258,31.564],[165.692,31.514],[165.142,31.369],[164.594,31.222],[164.048,31.073],[163.503,30.922],[162.96,30.768],[162.418,30.612],[161.879,30.454],[161.341,30.293],[160.805,30.131],[160.271,29.966],[159.739,29.799]]}},{"type":"Feature","properties":{"boundary_type":"subduction","feature_type":"gpml:SubductionZone","polarity":"Left","overriding_plate_id":201,"subducting_plate_id":90106,"plate_ids":[201,90106],"name":""},"geometry":{"type":"LineString","coordinates":[[159.739,29.799],[159.201,29.628],[158.665,29.454],[158.131,29.278],[157.599,29.101],[157.069,28.921],[156.54,28.739],[156.014,28.555],[155.489,28.369],[154.966,28.181],[154.445,27.991],[153.926,27.799],[153.408,27.605],[152.893,27.409],[152.379,27.212],[151.867,27.012],[151.357,26.811],[150.849,26.608],[150.342,26.403],[149.838,26.196],[149.335,25.987],[148.834,25.777],[148.334,25.565],[147.837,25.351],[147.341,25.136],[146.847,24.919],[146.355,24.7],[145.864,24.48],[145.376,24.258],[144.889,24.035],[144.403,23.81],[143.919,23.584],[143.437,23.356],[142.957,23.127],[142.478,22.896],[142.001,22.664],[141.526,22.43],[141.052,22.195],[140.58,21.959],[140.109,21.721],[139.64,21.482],[139.172,21.242],[138.706,21.0],[138.241,20.757],[137.778,20.513],[137.317,20.267],[136.857,20.021],[136.398,19.773],[135.941,19.524]]}},{"type":"Feature","properties":{"boundary_type":"subduction","feature_type":"gpml:SubductionZone","polarity":"Left","overriding_plate_id":201,"subducting_plate_id":90105,"plate_ids":[201,90105],"name":""},"geometry":{"type":"LineString","coordinates":[[135.941,19.524],[135.484,19.274],[135.028,19.022],[134.575,18.769],[134.122,18.515],[133.671,18.26],[133.221,18.004],[132.772,17.747],[132.325,17.489],[131.879,17.23],[131.434,16.97],[130.99,16.709],[130.548,16.447],[130.107,16.184],[129.667,15.921],[129.228,15.656],[128.79,15.39],[128.354,15.124],[127.918,14.857],[127.484,14.589],[127.051,14.32],[126.618,14.05],[126.187,13.78],[125.757,13.509],[125.327,13.237],[124.899,12.964],[124.472,12.691],[124.045,12.417],[123.62,12.142],[123.195,11.867],[122.771,11.591],[122.348,11.315],[121.926,11.037],[121.504,10.76],[121.084,10.481],[120.664,10.203],[120.245,9.923],[119.826,9.643],[119.409,9.363],[119.139,8.942],[118.87,8.52],[118.602,8.099],[118.335,7.677],[118.067,7.255],[117.801,6.833],[117.535,6.411],[117.269,5.989],[117.004,5.567],[116.739,5.144],[116.474,4.721],[116.21,4.299],[115.946,3.876],[115.683,3.453],[115.419,3.03],[115.156,2.607],[114.893,2.184],[114.63,1.761],[114.367,1.337],[114.105,0.914],[113.842,0.491],[113.579,0.068],[113.317,-0.356],[113.054,-0.779],[112.792,-1.202],[112.529,-1.625],[112.266,-2.048],[112.003,-2.472],[112.05,-2.957],[112.096,-3.443],[112.142,-3.929],[112.189,-4.415],[112.236,-4.901],[112.282,-5.386],[112.329,-5.872],[112.376,-6.358],[112.423,-6.844],[112.47,-7.33],[112.517,-7.815],[112.564,-8.301],[112.612,-8.787],[112.659,-9.273],[112.707,-9.758],[112.755,-10.244],[112.803,-10.73],[112.851,-11.216],[112.899,-11.701],[112.947,-12.187],[112.996,-12.673],[113.045,-13.159],[113.093,-13.644],[113.143,-14.13],[113.192,-14.616],[113.242,-15.101],[113.291,-15.587],[113.341,-16.073],[113.392,-16.558],[113.442,-17.044],[113.634,-17.499],[113.827,-17.955],[114.02,-18.41],[114.215,-18.865],[114.411,-19.32],[114.607,-19.774],[114.805,-20.228],[115.005,-20.682],[115.205,-21.136],[115.406,-21.59],[115.609,-22.043],[115.813,-22.496],[116.019,-22.949],[116.226,-23.402],[116.434,-23.854],[116.644,-24.306],[116.855,-24.758],[117.068,-25.209],[117.282,-25.661],[117.498,-26.111],[117.715,-26.562],[117.935,-27.012],[118.156,-27.462],[118.379,-27.911],[118.604,-28.361],[118.83,-28.809],[119.059,-29.258],[119.29,-29.706],[119.522,-30.153],[119.757,-30.6],[119.994,-31.047],[120.233,-31.493],[120.475,-31.939],[120.719,-32.385],[120.965,-32.829],[121.214,-33.274],[121.465,-33.718],[121.793,-34.133],[122.123,-34.548],[122.457,-34.962],[122.794,-35.375],[123.135,-35.787],[123.479,-36.198],[123.827,-36.608],[124.178,-37.017],[124.533,-37.425],[124.893,-37.832],[125.256,-38.237],[125.623,-38.642],[125.995,-39.045],[126.37,-39.448],[126.75,-39.849],[127.135,-40.249],[127.524,-40.647],[127.917,-41.044],[128.316,-41.44],[128.719,-41.835],[129.128,-42.228],[129.541,-42.619],[129.96,-43.009],[130.384,-43.398],[130.813,-43.785],[131.248,-44.17],[131.689,-44.553],[132.136,-44.935],[132.589,-45.315],[133.047,-45.694],[133.512,-46.07],[133.983,-46.445],[134.461,-46.817],[134.946,-47.188],[135.437,-47.556],[135.935,-47.923],[136.44,-48.287],[136.953,-48.649],[137.473,-49.008],[138.0,-49.366],[138.535,-49.721],[139.078,-50.073],[139.629,-50.423],[140.188,-50.77],[140.756,-51.114],[141.332,-51.456],[141.916,-51.794],[142.691,-51.934],[143.471,-52.068],[144.255,-52.197],[145.044,-52.321],[145.837,-52.44],[146.634,-52.553],[147.435,-52.661],[148.24,-52.764],[149.049,-52.861],[149.861,-52.952],[150.677,-53.038],[151.495,-53.119],[152.317,-53.194],[153.141,-53.263],[153.969,-53.326],[154.798,-53.384],[155.629,-53.435],[156.463,-53.482],[157.298,-53.522],[158.135,-53.556],[158.972,-53.585],[159.811,-53.608],[160.651,-53.624],[161.491,-53.635],[162.332,-53.64],[163.172,-53.64],[164.013,-53.633],[164.853,-53.62],[165.692,-53.602],[166.531,-53.578],[167.369,-53.547],[168.205,-53.511],[169.039,-53.47],[169.872,-53.422],[170.703,-53.369],[171.532,-53.309],[172.359,-53.244],[173.182,-53.174],[174.003,-53.098],[174.821,-53.016],[175.636,-52.928],[176.447,-52.835],[177.255,-52.737],[178.059,-52.633],[178.859,-52.523],[179.649,-52.427],[-179.565,-52.325],[-178.782,-52.219],[-178.003,-52.107],[-177.228,-51.99],[-176.457,-51.868],[-175.691,-51.741],[-174.928,-51.609],[-174.171,-51.472],[-173.418,-51.33],[-172.669,-51.183],[-171.926,-51.032],[-171.187,-50.876],[-170.454,-50.716],[-169.725,-50.55],[-169.002,-50.381],[-168.284,-50.207],[-167.571,-50.028],[-166.864,-49.845],[-166.161,-49.658],[-165.465,-49.467],[-164.774,-49.271],[-164.088,-49.071],[-163.408,-48.868],[-162.733,-48.66],[-162.064,-48.449],[-161.401,-48.233],[-160.743,-48.014],[-160.091,-47.791],[-159.445,-47.565],[-158.804,-47.335],[-158.168,-47.101],[-157.539,-46.864],[-156.914,-46.623],[-156.296,-46.379],[-155.683,-46.132],[-155.075,-45.882],[-154.473,-45.628],[-153.877,-45.371],[-153.286,-45.111],[-152.7,-44.848],[-152.119,-44.582],[-151.544,-44.314],[-150.974,-44.042],[-150.41,-43.767],[-149.85,-43.49],[-149.296,-43.21],[-148.747,-42.928],[-148.203,-42.643],[-147.664,-42.355],[-147.129,-42.065],[-146.6,-41.772],[-146.076,-41.477]]}},{"type":"Feature","properties":{"boundary_type":"subduction","feature_type":"gpml:SubductionZone","polarity":"Right","overriding_plate_id":101,"subducting_plate_id":90106,"plate_ids":[101,90106],"name":""},"geometry":{"type":"LineString","coordinates":[[173.562,45.971],[173.519,46.443],[173.476,46.915],[173.432,47.387],[173.387,47.859],[173.341,48.332],[173.295,48.804],[173.247,49.276],[173.199,49.748],[173.149,50.22],[173.099,50.692],[173.024,51.178],[172.948,51.664]]}},{"type":"Feature","properties":{"boundary_type":"subduction","feature_type":"gpml:SubductionZone","polarity":"Right","overriding_plate_id":801,"subducting_plate_id":90106,"plate_ids":[801,90106],"name":""},"geometry":{"type":"LineString","coordinates":[[172.948,51.664],[172.873,52.13],[172.797,52.597],[172.719,53.064],[172.639,53.531],[172.557,53.997],[172.474,54.464],[172.389,54.931],[172.301,55.397],[172.212,55.864],[172.121,56.33],[172.027,56.796],[171.931,57.263],[171.832,57.729]]}},{"type":"Feature","properties":{"boundary_type":"subduction","feature_type":"gpml:SubductionZone","polarity":"Right","overriding_plate_id":801,"subducting_plate_id":90106,"plate_ids":[801,90106],"name":""},"geometry":{"type":"LineString","coordinates":[[171.832,57.729],[172.021,57.969],[172.307,58.442],[172.6,58.914],[172.902,59.386],[173.212,59.856],[173.531,60.327],[173.859,60.796],[174.197,61.264],[174.545,61.732],[174.904,62.199],[175.274,62.665],[175.656,63.129],[176.051,63.593],[176.458,64.056],[176.879,64.517],[177.315,64.977],[177.766,65.436],[178.233,65.894],[178.716,66.35],[179.218,66.804],[179.739,67.257],[-179.721,67.708],[-179.159,68.157],[-178.706,68.619],[-178.233,69.08],[-177.741,69.539],[-177.226,69.997],[-176.689,70.453],[-176.127,70.908],[-175.539,71.361],[-174.923,71.812],[-174.276,72.26],[-173.597,72.707],[-172.884,73.151],[-172.132,73.593],[-171.341,74.032]]}},{"type":"Feature","properties":{"boundary_type":"ridge","feature_type":"gpml:MidOceanRidge","polarity":null,"overriding_plate_id":null,"subducting_plate_id":null,"plate_ids":[201,911001],"name":""},"geometry":{"type":"LineString","coordinates":[[159.739,29.799],[160.059,29.39],[160.377,28.98],[160.692,28.569],[161.005,28.158],[161.316,27.746],[161.624,27.333],[161.93,26.92],[162.234,26.506],[162.535,26.091],[162.835,25.676],[163.132,25.26],[163.427,24.843],[163.72,24.426],[164.012,24.008],[164.301,23.59],[164.589,23.171],[164.875,22.752],[165.159,22.332],[165.441,21.912],[165.722,21.491],[166.001,21.07],[166.278,20.649],[166.554,20.226],[166.829,19.804],[167.102,19.381],[167.373,18.958],[167.644,18.534],[167.912,18.11],[168.18,17.685],[168.446,17.26],[168.711,16.835],[168.975,16.41],[169.238,15.984],[169.5,15.558],[169.76,15.131],[170.02,14.704],[170.278,14.277],[170.536,13.85],[170.793,13.422],[171.048,12.994],[171.303,12.566],[171.557,12.138],[171.81,11.709],[172.062,11.28],[172.314,10.851],[172.565,10.422],[172.815,9.993],[173.065,9.563],[173.313,9.133],[173.562,8.703],[173.809,8.273],[174.057,7.843],[174.303,7.412],[174.549,6.982],[174.795,6.551],[175.04,6.12],[175.285,5.689],[175.53,5.258],[175.774,4.827],[176.018,4.396],[176.262,3.965],[176.505,3.533],[176.748,3.102],[176.991,2.671],[177.234,2.239],[177.476,1.807],[177.719,1.376],[177.961,0.944],[178.204,0.513],[178.446,0.081],[178.688,-0.351],[178.931,-0.782],[179.173,-1.214],[179.416,-1.646],[179.658,-2.077],[179.901,-2.509],[-179.856,-2.94],[-179.613,-3.372],[-179.37,-3.803],[-179.126,-4.234],[-178.883,-4.666],[-178.639,-5.097],[-178.394,-5.528],[-178.149,-5.959],[-177.904,-6.39],[-177.659,-6.82],[-177.413,-7.251],[-177.166,-7.681],[-176.919,-8.112],[-176.672,-8.542],[-176.424,-8.972],[-176.175,-9.402],[-175.926,-9.832],[-175.676,-10.261],[-176.063,-10.56],[-176.452,-10.859],[-176.841,-11.158],[-177.231,-11.456],[-177.622,-11.753],[-178.014,-12.05],[-178.406,-12.347],[-178.8,-12.642],[-178.572,-13.083],[-178.343,-13.523],[-178.113,-13.964],[-177.882,-14.404],[-177.651,-14.844],[-177.418,-15.283],[-177.185,-15.723],[-176.95,-16.162],[-176.715,-16.601],[-176.478,-17.039],[-176.24,-17.478],[-176.002,-17.916],[-175.762,-18.353],[-175.52,-18.791],[-175.278,-19.228],[-175.034,-19.665],[-174.789,-20.101],[-174.542,-20.537],[-174.294,-20.973],[-174.045,-21.409],[-173.794,-21.844],[-173.542,-22.278],[-173.288,-22.713],[-173.032,-23.146],[-172.775,-23.58],[-172.516,-24.013],[-172.255,-24.446],[-171.993,-24.878],[-171.728,-25.309],[-171.462,-25.741],[-171.194,-26.171],[-170.671,-26.006],[-170.15,-25.838],[-169.63,-25.669],[-169.111,-25.498],[-168.595,-25.325],[-168.079,-25.15],[-167.565,-24.973],[-167.199,-25.331],[-166.83,-25.688],[-166.459,-26.045],[-166.085,-26.4],[-165.71,-26.754],[-165.332,-27.108],[-164.951,-27.46],[-164.569,-27.811],[-164.183,-28.161],[-163.795,-28.51],[-163.405,-28.859],[-163.012,-29.205],[-162.616,-29.551],[-162.218,-29.896],[-161.817,-30.239],[-161.413,-30.581],[-161.006,-30.922],[-160.596,-31.262],[-160.184,-31.6],[-159.768,-31.937],[-159.349,-32.272],[-158.928,-32.606],[-158.503,-32.939],[-158.075,-33.271],[-157.643,-33.6],[-157.208,-33.929],[-156.77,-34.255],[-156.329,-34.581],[-155.884,-34.904],[-155.435,-35.226],[-154.983,-35.546],[-154.528,-35.865],[-154.068,-36.182],[-153.605,-36.497],[-153.139,-36.81],[-152.631,-36.574],[-152.126,-36.336],[-151.625,-36.096],[-151.126,-35.853],[-150.631,-35.609],[-150.139,-35.362],[-149.649,-35.114],[-149.163,-34.864],[-148.679,-34.611],[-148.394,-35.026],[-148.105,-35.44],[-147.814,-35.853],[-147.519,-36.265],[-147.221,-36.677],[-146.92,-37.088],[-146.616,-37.498],[-146.308,-37.908],[-145.997,-38.316],[-145.683,-38.724],[-145.365,-39.131],[-145.043,-39.537],[-144.717,-39.942],[-144.388,-40.347]]}},{"type":"Feature","properties":{"boundary_type":"subduction","feature_type":"gpml:SubductionZone","polarity":"Left","overriding_plate_id":101,"subducting_plate_id":911001,"plate_ids":[101,911001],"name":"Baltica_SZ"},"geometry":{"type":"LineString","coordinates":[[-165.162,-2.729],[-164.802,-3.044],[-164.441,-3.358],[-164.081,-3.672],[-163.72,-3.986],[-163.359,-4.299],[-162.998,-4.613],[-162.636,-4.926],[-162.274,-5.239],[-161.912,-5.552],[-161.55,-5.865],[-161.186,-6.178],[-160.823,-6.49],[-160.459,-6.802],[-160.095,-7.114],[-159.73,-7.425],[-159.364,-7.736],[-159.0,-8.034],[-158.636,-8.331],[-158.271,-8.628],[-157.905,-8.924],[-157.539,-9.22],[-157.172,-9.516],[-156.805,-9.811],[-156.437,-10.106],[-156.068,-10.401],[-155.699,-10.695],[-155.419,-11.071],[-155.139,-11.446],[-154.858,-11.821],[-154.576,-12.195],[-154.293,-12.57],[-154.01,-12.944],[-153.726,-13.318],[-153.44,-13.691],[-153.154,-14.064],[-153.018,-14.504],[-152.881,-14.943],[-152.743,-15.382],[-152.604,-15.821],[-152.465,-16.26],[-152.326,-16.699],[-152.186,-17.138],[-152.045,-17.576],[-151.903,-18.015],[-151.761,-18.453],[-151.618,-18.892],[-151.474,-19.33],[-151.266,-19.749],[-151.057,-20.168],[-150.847,-20.587],[-150.635,-21.005],[-150.423,-21.424],[-150.209,-21.842],[-149.994,-22.259],[-149.777,-22.677],[-149.56,-23.094],[-149.341,-23.51],[-149.12,-23.927],[-148.898,-24.343],[-148.608,-24.715],[-148.316,-25.086],[-148.023,-25.457],[-147.728,-25.827],[-147.43,-26.197],[-147.131,-26.566],[-146.83,-26.934],[-146.527,-27.302],[-146.222,-27.669],[-145.915,-28.035],[-145.529,-28.324],[-145.14,-28.612],[-144.75,-28.899],[-144.357,-29.185],[-143.962,-29.469],[-143.565,-29.753]]}},{"type":"Feature","properties":{"boundary_type":"ridge","feature_type":"gpml:MidOceanRidge","polarity":null,"overriding_plate_id":null,"subducting_plate_id":null,"plate_ids":[801,6024],"name":""},"geometry":{"type":"LineString","coordinates":[[-112.978,30.088],[-112.488,29.901],[-112.001,29.713],[-111.515,29.523],[-111.031,29.332],[-110.549,29.138],[-110.075,28.901],[-109.603,28.662],[-109.133,28.421],[-108.665,28.179],[-108.2,27.935],[-107.736,27.689],[-107.275,27.442],[-106.869,27.158],[-106.464,26.873],[-106.062,26.587],[-105.661,26.3],[-105.263,26.011],[-104.867,25.722],[-104.472,25.431],[-104.08,25.14],[-103.689,24.847],[-103.3,24.553],[-103.093,24.776],[-102.886,24.998],[-102.526,24.676],[-102.168,24.353],[-101.812,24.028],[-101.458,23.703],[-101.106,23.377],[-100.755,23.051],[-100.406,22.723],[-100.059,22.395],[-99.713,22.066],[-99.369,21.737],[-99.128,21.921],[-98.888,22.105],[-98.547,21.731],[-98.208,21.356],[-97.871,20.98],[-97.535,20.604],[-97.201,20.227],[-96.869,19.849],[-96.538,19.471]]}},{"type":"Feature","properties":{"boundary_type":"transform","feature_type":"gpml:Transform","polarity":null,"overriding_plate_id":null,"subducting_plate_id":null,"plate_ids":[101,6024],"name":"transform"},"geometry":{"type":"LineString","coordinates":[[-123.484,24.19],[-123.02,24.439],[-122.553,24.686],[-122.085,24.932],[-121.615,25.176],[-121.143,25.419],[-120.67,25.66],[-120.194,25.899],[-119.716,26.138],[-119.237,26.374],[-118.755,26.609],[-118.272,26.842],[-117.786,27.074],[-117.299,27.304],[-116.809,27.532],[-116.318,27.759],[-115.824,27.984],[-115.388,28.189],[-114.949,28.393],[-114.509,28.596],[-114.068,28.797],[-113.624,28.997],[-113.179,29.195],[-112.732,29.392]]}},{"type":"Feature","properties":{"boundary_type":"transform","feature_type":"gpml:Transform","polarity":null,"overriding_plate_id":null,"subducting_plate_id":null,"plate_ids":[101,6024],"name":"transform"},"geometry":{"type":"LineString","coordinates":[[-124.085,6.907],[-123.663,7.179],[-123.24,7.451],[-122.817,7.723],[-122.393,7.994],[-121.969,8.265],[-121.544,8.535],[-121.118,8.805],[-120.692,9.075],[-120.265,9.344],[-119.838,9.612],[-119.41,9.88],[-118.981,10.147],[-118.552,10.414],[-118.121,10.68],[-117.69,10.946],[-117.259,11.211],[-116.826,11.475],[-116.393,11.739],[-115.958,12.002],[-115.523,12.265],[-115.087,12.526],[-114.651,12.787],[-114.213,13.048],[-113.774,13.307],[-113.335,13.566],[-112.869,13.752],[-112.402,13.938],[-111.934,14.122],[-111.466,14.306],[-110.997,14.488],[-110.527,14.67],[-110.056,14.851],[-109.585,15.03],[-109.113,15.209],[-108.64,15.387],[-108.166,15.564],[-107.691,15.74],[-107.216,15.914],[-106.739,16.088],[-106.262,16.261],[-105.784,16.432],[-105.305,16.603],[-104.826,16.772],[-104.345,16.941],[-103.864,17.108],[-103.382,17.274],[-102.899,17.439],[-102.415,17.602],[-101.93,17.765],[-101.444,17.926],[-100.958,18.086],[-100.47,18.245],[-99.982,18.403],[-99.493,18.559],[-99.002,18.715],[-98.511,18.868],[-98.019,19.021],[-97.527,19.172],[-97.033,19.322],[-96.538,19.471]]}},{"type":"Feature","properties":{"boundary_type":"transform","feature_type":"gpml:Transform","polarity":null,"overriding_plate_id":null,"subducting_plate_id":null,"plate_ids":[101,801],"name":"transform"},"geometry":{"type":"LineString","coordinates":[[-96.538,19.471],[-96.076,19.608],[-95.612,19.745]]}},{"type":"Feature","properties":{"boundary_type":"ridge","feature_type":"gpml:MidOceanRidge","polarity":null,"overriding_plate_id":null,"subducting_plate_id":null,"plate_ids":[101,6024],"name":"MOR"},"geometry":{"type":"LineString","coordinates":[[-123.484,24.19],[-123.337,23.765],[-123.19,23.339],[-123.045,22.914],[-122.9,22.488],[-122.756,22.062],[-122.613,21.636],[-122.471,21.21],[-122.33,20.783],[-122.19,20.357],[-122.573,20.066],[-122.955,19.775],[-123.336,19.482],[-123.715,19.189],[-124.093,18.895],[-124.47,18.601],[-124.845,18.306],[-125.219,18.009],[-124.974,17.617],[-124.73,17.224],[-124.487,16.831],[-124.244,16.437],[-124.003,16.044],[-124.426,15.809],[-124.847,15.573],[-125.268,15.337],[-125.687,15.1],[-126.106,14.862],[-126.523,14.623],[-126.94,14.384],[-127.356,14.144],[-127.147,13.692],[-126.938,13.241],[-126.73,12.789],[-126.523,12.338],[-126.317,11.886],[-126.111,11.434],[-125.906,10.982],[-125.701,10.529],[-125.497,10.077],[-125.294,9.624],[-125.091,9.172],[-124.889,8.719],[-124.687,8.266],[-124.486,7.813],[-124.285,7.36],[-124.085,6.907]]}},{"type":"Feature","properties":{"boundary_type":"subduction","feature_type":"gpml:SubductionZone","polarity":"Left","overriding_plate_id":101,"subducting_plate_id":911001,"plate_ids":[101,911001],"name":"Eastern_Laurentia_SZ"},"geometry":{"type":"LineString","coordinates":[[-174.004,12.962],[-173.622,12.652],[-173.241,12.341],[-172.861,12.03],[-172.482,11.718],[-172.104,11.406],[-171.726,11.094],[-171.35,10.78],[-170.974,10.467],[-170.599,10.153],[-170.225,9.839],[-169.987,9.428],[-169.75,9.018],[-169.513,8.607],[-169.276,8.196],[-169.041,7.785],[-168.805,7.374],[-168.57,6.963],[-168.336,6.552],[-168.102,6.14],[-167.868,5.729],[-167.635,5.317],[-167.402,4.906],[-167.169,4.494],[-167.055,4.041],[-166.942,3.587],[-166.828,3.133],[-166.715,2.68],[-166.602,2.226],[-166.489,1.773],[-166.376,1.319],[-166.263,0.866],[-166.15,0.412],[-166.037,-0.041],[-165.924,-0.495],[-165.811,-0.948],[-165.649,-1.394],[-165.486,-1.839],[-165.324,-2.284],[-165.162,-2.729]]}},{"type":"Feature","properties":{"boundary_type":"subduction","feature_type":"gpml:SubductionZone","polarity":"Left","overriding_plate_id":201,"subducting_plate_id":90105,"plate_ids":[201,90105],"name":""},"geometry":{"type":"LineString","coordinates":[[-146.076,-41.477],[-145.648,-41.197],[-145.224,-40.915],[-144.804,-40.632],[-144.388,-40.347]]}},{"type":"Feature","properties":{"boundary_type":"subduction","feature_type":"gpml:SubductionZone","polarity":"Left","overriding_plate_id":911001,"subducting_plate_id":90105,"plate_ids":[90105,911001],"name":""},"geometry":{"type":"LineString","coordinates":[[-144.388,-40.347],[-143.923,-40.024],[-143.462,-39.7],[-143.006,-39.374],[-142.554,-39.046],[-142.106,-38.716],[-141.663,-38.385],[-141.223,-38.052]]}},{"type":"Feature","properties":{"boundary_type":"ridge","feature_type":"gpml:MidOceanRidge","polarity":null,"overriding_plate_id":null,"subducting_plate_id":null,"plate_ids":[90105,90107],"name":""},"geometry":{"type":"LineString","coordinates":[[21.093,12.481],[20.913,12.824],[20.732,13.167],[20.551,13.509],[20.37,13.852]]}},{"type":"Feature","properties":{"boundary_type":"ridge","feature_type":"gpml:MidOceanRidge","polarity":null,"overriding_plate_id":null,"subducting_plate_id":null,"plate_ids":[90106,90107],"name":""},"geometry":{"type":"LineString","coordinates":[[20.37,13.852],[20.136,14.293],[19.9,14.734],[19.664,15.174],[19.427,15.614],[19.189,16.054],[18.949,16.494],[18.709,16.933],[18.468,17.372],[18.225,17.811],[17.981,18.249],[17.736,18.687],[17.49,19.125],[17.242,19.563],[16.993,20.0],[16.743,20.437],[16.491,20.873],[16.237,21.309],[15.983,21.745],[15.726,22.18],[15.468,22.615],[15.209,23.05],[14.948,23.484],[14.685,23.917],[14.42,24.351],[14.153,24.783],[13.885,25.216],[13.614,25.647],[13.342,26.079],[13.068,26.509],[12.791,26.94],[12.513,27.369],[12.232,27.798],[11.949,28.227],[11.664,28.655],[11.377,29.082],[11.087,29.509],[10.794,29.935],[10.5,30.361],[10.202,30.785],[9.902,31.209],[9.599,31.633],[9.294,32.056],[8.985,32.477],[8.674,32.899],[8.36,33.319],[8.042,33.739],[7.722,34.157],[7.398,34.575],[7.072,34.992],[6.741,35.409],[6.408,35.824],[6.071,36.238],[5.73,36.652],[5.385,37.064],[5.037,37.475],[4.685,37.886],[4.329,38.295],[3.969,38.703],[3.605,39.111],[3.237,39.516],[2.864,39.921],[2.487,40.325],[2.105,40.727],[1.719,41.128],[1.328,41.528],[0.932,41.926],[0.531,42.324],[0.126,42.719],[-0.286,43.113],[-0.702,43.506],[-1.124,43.897],[-1.551,44.287],[-1.984,44.675],[-2.423,45.061],[-2.868,45.446],[-3.319,45.829],[-3.777,46.21],[-4.24,46.589],[-4.71,46.966],[-5.187,47.341],[-5.671,47.715],[-6.161,48.086],[-6.659,48.455],[-7.164,48.822],[-7.676,49.187],[-8.196,49.55],[-8.746,49.215],[-9.289,48.877],[-9.824,48.538],[-10.353,48.195],[-10.874,47.851],[-11.388,47.504],[-11.895,47.154],[-12.396,46.803],[-12.89,46.449],[-13.378,46.094],[-13.86,45.736],[-14.335,45.376],[-14.805,45.014],[-15.273,45.381],[-15.747,45.746],[-16.228,46.11],[-16.715,46.471],[-17.208,46.829],[-17.708,47.186],[-18.215,47.541],[-18.728,47.893],[-19.249,48.243],[-19.776,48.591],[-20.311,48.936],[-20.854,49.279],[-21.404,49.619],[-21.962,49.956],[-22.527,50.291],[-23.101,50.623],[-23.682,50.952],[-24.272,51.278],[-24.87,51.601],[-25.477,51.921],[-26.093,52.238],[-26.717,52.552],[-27.35,52.862],[-27.993,53.169],[-28.644,53.473],[-29.305,53.773],[-29.975,54.069],[-30.655,54.361],[-31.345,54.65],[-32.044,54.934],[-32.753,55.214],[-33.472,55.491],[-34.202,55.763],[-34.941,56.03],[-35.691,56.294],[-36.451,56.552],[-37.221,56.806],[-38.002,57.055],[-38.793,57.299],[-39.595,57.538],[-40.407,57.772],[-41.23,58.001],[-42.063,58.224],[-42.906,58.442],[-43.76,58.654],[-44.624,58.861],[-45.499,59.061],[-46.383,59.256],[-47.278,59.445],[-48.182,59.627],[-49.096,59.803],[-50.02,59.973],[-50.953,60.136],[-51.895,60.293],[-52.846,60.443],[-53.805,60.586],[-54.773,60.722],[-55.749,60.851],[-56.732,60.973],[-57.723,61.087],[-58.721,61.195],[-59.726,61.295],[-60.736,61.387],[-61.753,61.472],[-62.775,61.55],[-63.801,61.62],[-64.832,61.682],[-65.867,61.736],[-66.905,61.782],[-67.947,61.821],[-68.99,61.852],[-70.035,61.874],[-71.082,61.889],[-72.129,61.896],[-73.177,61.895],[-74.224,61.886]]}},{"type":"Feature","properties":{"boundary_type":"ridge","feature_type":"gpml:MidOceanRidge","polarity":null,"overriding_plate_id":null,"subducting_plate_id":null,"plate_ids":[90105,90106],"name":""},"geometry":{"type":"LineString","coordinates":[[20.37,13.852],[20.88,13.859],[21.391,13.865],[21.901,13.87],[22.411,13.874],[22.922,13.877],[23.432,13.879],[23.942,13.879],[24.453,13.879],[24.963,13.877],[25.474,13.875],[25.984,13.871],[26.494,13.867],[27.005,13.861],[27.515,13.855],[28.025,13.847],[28.536,13.838],[29.046,13.828],[29.556,13.817],[30.066,13.805],[30.576,13.792],[31.086,13.778],[31.596,13.763],[32.106,13.747],[32.616,13.73],[33.125,13.711],[33.635,13.692],[34.144,13.672],[34.654,13.65],[35.163,13.628],[35.672,13.604],[36.182,13.58],[36.691,13.554],[37.2,13.528],[37.708,13.5],[38.217,13.471],[38.726,13.442],[39.234,13.411],[39.742,13.379],[40.251,13.347],[40.759,13.313],[41.267,13.278],[41.774,13.243],[42.282,13.206],[42.789,13.168],[43.297,13.129],[43.804,13.09],[44.311,13.049],[44.817,13.007],[45.324,12.965],[45.831,12.921],[46.337,12.876],[46.843,12.831],[47.349,12.784],[47.854,12.737],[48.36,12.688],[48.865,12.639],[49.37,12.588],[49.875,12.537],[50.38,12.485],[50.885,12.431],[51.389,12.377],[51.893,12.322],[52.397,12.266],[52.9,12.209],[53.404,12.151],[53.907,12.093],[54.41,12.033],[54.913,11.972],[55.415,11.911],[55.918,11.849],[56.42,11.785],[56.922,11.721],[57.423,11.656],[57.925,11.59],[58.426,11.524],[58.486,12.012],[58.546,12.5],[58.607,12.989],[58.668,13.477],[58.729,13.965],[58.79,14.453],[58.852,14.942],[58.914,15.43],[58.976,15.918],[59.038,16.406],[59.101,16.895],[59.164,17.383],[59.228,17.871],[59.291,18.359],[59.355,18.847],[59.42,19.335],[59.485,19.823],[59.55,20.311],[59.616,20.799],[59.682,21.287],[59.749,21.775],[59.816,22.263],[59.883,22.751],[59.951,23.239],[60.02,23.727],[60.566,23.744],[61.112,23.76],[61.658,23.773],[62.204,23.785],[62.75,23.795],[63.297,23.802],[63.843,23.808],[64.39,23.812],[64.936,23.814],[65.483,23.814],[66.029,23.813],[66.576,23.809],[67.122,23.803],[67.669,23.796],[68.215,23.786],[68.761,23.775],[69.307,23.761],[69.853,23.746],[70.399,23.729],[70.945,23.71],[71.49,23.689],[72.036,23.666],[72.581,23.641],[73.126,23.614],[73.671,23.586],[74.215,23.555],[74.759,23.523],[75.303,23.489],[75.847,23.452],[76.39,23.414],[76.933,23.374],[77.476,23.332],[78.018,23.289],[78.56,23.243],[79.102,23.196],[79.643,23.147],[80.184,23.095],[80.724,23.042],[81.264,22.988],[81.804,22.931],[82.343,22.873],[82.882,22.812],[83.42,22.75],[83.957,22.686],[84.494,22.621],[85.031,22.553],[85.567,22.484],[86.103,22.413],[86.637,22.34],[87.172,22.266],[87.706,22.189],[88.239,22.111],[88.772,22.032],[89.304,21.95],[89.835,21.867],[90.366,21.782],[90.896,21.696],[91.425,21.608],[91.954,21.518],[92.482,21.426],[93.01,21.333],[93.537,21.238],[93.655,21.697],[93.774,22.156],[93.894,22.614],[94.014,23.073],[94.136,23.531],[94.258,23.99],[94.381,24.448],[94.505,24.906],[94.63,25.364],[94.756,25.822],[94.883,26.28],[95.011,26.738],[95.14,27.195],[95.27,27.653],[95.401,28.11],[95.533,28.567],[95.667,29.025],[96.232,28.977],[96.796,28.928],[97.36,28.876],[97.923,28.822],[98.486,28.765],[99.048,28.706],[99.61,28.645],[100.171,28.582],[100.731,28.516],[101.29,28.448],[101.849,28.378],[102.407,28.305],[102.964,28.23],[103.52,28.153],[104.076,28.073],[104.631,27.992],[105.184,27.908],[105.737,27.822],[106.29,27.733],[106.841,27.643],[107.391,27.55],[107.94,27.455],[108.489,27.358],[109.036,27.259],[109.583,27.158],[110.128,27.055],[110.673,26.949],[111.216,26.842],[111.758,26.732],[112.3,26.621],[112.84,26.507],[113.379,26.391],[113.917,26.273],[114.454,26.154],[114.99,26.032],[115.525,25.908],[116.058,25.782],[116.591,25.655],[117.122,25.525],[117.652,25.394],[118.181,25.26],[118.709,25.125],[119.236,24.988],[119.761,24.849],[120.286,24.708],[120.809,24.566],[121.331,24.421],[121.851,24.275],[122.371,24.127],[122.889,23.978],[123.406,23.826],[123.922,23.673],[124.437,23.518],[124.95,23.362],[125.462,23.203],[125.973,23.043],[126.483,22.882],[126.992,22.719],[127.499,22.554],[128.005,22.388],[128.51,22.22],[129.014,22.05],[129.517,21.879],[130.018,21.707],[130.518,21.533],[131.017,21.357],[131.514,21.18],[132.011,21.002],[132.506,20.822],[133.0,20.641],[133.493,20.458],[133.985,20.274],[134.476,20.089],[134.965,19.902],[135.453,19.714],[135.941,19.524]]}},{"type":"Feature","properties":{"boundary_type":"transform","feature_type":"gpml:Transform","polarity":null,"overriding_plate_id":null,"subducting_plate_id":null,"plate_ids":[101,90105],"name":""},"geometry":{"type":"LineString","coordinates":[[-38.89,-51.514],[-39.185,-51.954],[-39.486,-52.393],[-39.793,-52.831],[-40.106,-53.269],[-40.426,-53.706],[-40.752,-54.141],[-41.085,-54.576],[-41.426,-55.01],[-41.774,-55.443],[-42.129,-55.875],[-42.493,-56.306],[-42.865,-56.736],[-43.246,-57.165],[-43.635,-57.593],[-44.034,-58.019],[-44.442,-58.444],[-44.86,-58.868],[-45.289,-59.29],[-45.728,-59.711],[-46.179,-60.13],[-46.858,-60.498],[-47.552,-60.863],[-48.263,-61.223],[-48.989,-61.58],[-49.733,-61.933],[-50.494,-62.282],[-51.272,-62.627],[-52.069,-62.967],[-52.884,-63.302],[-53.719,-63.633],[-54.573,-63.959],[-55.447,-64.28],[-56.341,-64.595],[-57.256,-64.905],[-58.193,-65.209],[-59.151,-65.507],[-60.13,-65.799],[-61.132,-66.085],[-62.157,-66.364],[-63.204,-66.636],[-64.274,-66.901],[-65.368,-67.158],[-66.484,-67.408],[-67.624,-67.65],[-68.787,-67.884],[-69.973,-68.11],[-71.183,-68.327],[-72.415,-68.535],[-73.669,-68.733],[-74.946,-68.923],[-76.244,-69.102],[-77.563,-69.272],[-78.902,-69.431],[-80.26,-69.58],[-81.637,-69.718],[-83.031,-69.846],[-84.442,-69.962],[-85.867,-70.067],[-87.307,-70.161],[-88.758,-70.242],[-90.22,-70.313],[-91.692,-70.371],[-93.17,-70.417],[-94.6,-70.287],[-96.012,-70.145],[-97.403,-69.993],[-98.773,-69.829],[-100.122,-69.656],[-101.448,-69.472],[-102.751,-69.278],[-104.03,-69.075],[-105.286,-68.862],[-106.517,-68.641],[-107.723,-68.41],[-108.905,-68.171],[-110.061,-67.924],[-111.193,-67.668],[-112.301,-67.405],[-113.384,-67.135],[-114.442,-66.858],[-115.477,-66.573],[-116.488,-66.282],[-117.476,-65.985],[-118.44,-65.681],[-119.382,-65.371],[-120.099,-64.979],[-120.795,-64.584],[-121.471,-64.186],[-122.127,-63.785],[-122.766,-63.38],[-123.386,-62.973],[-123.989,-62.564],[-124.576,-62.151],[-125.147,-61.737],[-125.703,-61.32],[-126.244,-60.901],[-126.771,-60.479],[-127.285,-60.056],[-127.786,-59.631],[-128.274,-59.204],[-128.75,-58.775],[-129.214,-58.344],[-129.667,-57.912],[-130.109,-57.478],[-130.541,-57.043]]}},{"type":"Feature","properties":{"boundary_type":"ridge","feature_type":"gpml:MidOceanRidge","polarity":null,"overriding_plate_id":null,"subducting_plate_id":null,"plate_ids":[90105,90107],"name":""},"geometry":{"type":"LineString","coordinates":[[21.093,12.481],[20.816,12.062],[20.54,11.642],[20.265,11.223],[19.99,10.803],[19.717,10.383],[19.444,9.962],[19.172,9.541],[18.901,9.121],[18.63,8.7],[18.36,8.278],[18.09,7.857],[17.821,7.435],[17.552,7.014],[17.284,6.592],[17.017,6.17],[16.75,5.747],[16.483,5.325],[16.216,4.903],[15.95,4.48],[15.685,4.057],[15.419,3.635],[15.154,3.212],[14.889,2.789],[14.624,2.366],[14.359,1.943],[14.095,1.52],[13.83,1.097],[13.566,0.674],[13.302,0.251],[13.037,-0.172],[12.773,-0.595],[12.509,-1.018],[12.244,-1.441],[11.98,-1.864],[11.715,-2.287],[11.45,-2.71],[11.185,-3.133],[10.92,-3.556],[10.655,-3.979],[10.389,-4.401],[10.123,-4.824],[9.857,-5.246],[9.59,-5.669],[9.323,-6.091],[9.055,-6.513],[8.787,-6.935],[8.519,-7.357],[8.25,-7.778],[7.981,-8.2],[7.711,-8.621],[7.44,-9.042],[7.169,-9.463],[6.897,-9.884],[6.624,-10.304],[6.351,-10.724],[6.076,-11.144],[5.801,-11.564],[5.526,-11.984],[5.249,-12.403],[4.971,-12.822],[4.693,-13.24],[4.414,-13.659],[4.759,-13.915],[5.105,-14.17],[5.452,-14.425],[5.799,-14.679],[6.148,-14.933],[5.818,-15.319],[5.488,-15.704],[5.156,-16.089],[4.823,-16.473],[4.489,-16.857],[4.153,-17.24],[3.816,-17.622],[3.478,-18.004],[3.138,-18.386],[2.797,-18.767],[2.454,-19.147],[2.109,-19.526],[1.763,-19.905],[1.415,-20.284],[1.066,-20.661],[0.714,-21.038],[0.361,-21.414],[0.006,-21.789],[-0.35,-22.164],[-0.709,-22.538],[-1.07,-22.911],[-1.432,-23.283],[-1.797,-23.654],[-2.163,-24.025],[-2.532,-24.394],[-2.903,-24.763],[-3.276,-25.131],[-3.652,-25.498],[-4.029,-25.864],[-4.41,-26.229],[-4.792,-26.593],[-5.177,-26.955],[-5.564,-27.317],[-5.954,-27.678],[-6.347,-28.038],[-6.742,-28.396],[-7.139,-28.754],[-7.54,-29.11],[-7.943,-29.465],[-8.349,-29.819],[-8.758,-30.171],[-9.17,-30.523],[-9.585,-30.872],[-10.003,-31.221],[-10.424,-31.568],[-10.848,-31.914],[-11.276,-32.259],[-11.706,-32.602],[-12.14,-32.943],[-12.578,-33.283],[-13.018,-33.622],[-13.462,-33.959],[-13.91,-34.294],[-14.361,-34.628],[-14.816,-34.96],[-15.275,-35.29],[-15.737,-35.618],[-16.203,-35.945],[-16.673,-36.27],[-17.147,-36.593],[-17.625,-36.914],[-18.107,-37.234],[-18.593,-37.551],[-19.083,-37.866],[-19.577,-38.179],[-20.076,-38.49],[-20.579,-38.799],[-21.086,-39.106],[-21.598,-39.411],[-22.114,-39.713],[-22.635,-40.013],[-23.16,-40.311],[-23.69,-40.606],[-24.225,-40.899],[-24.764,-41.189],[-25.308,-41.477],[-25.857,-41.762],[-25.592,-42.089],[-25.324,-42.414],[-25.053,-42.739],[-25.624,-42.977],[-26.2,-43.211],[-26.779,-43.443],[-27.363,-43.671],[-27.952,-43.897],[-28.545,-44.119],[-29.142,-44.339],[-29.744,-44.555],[-30.351,-44.768],[-30.961,-44.978],[-31.577,-45.185],[-32.196,-45.388],[-32.821,-45.588],[-33.449,-45.785],[-34.082,-45.978],[-34.72,-46.167],[-35.361,-46.353],[-36.007,-46.535],[-36.658,-46.714],[-37.312,-46.889],[-37.971,-47.06],[-38.634,-47.228]]}}]}