{"type":"FeatureCollection","meta":{"model":"Cao2024","reconstruction_time_ma":655.0,"anchor_plate_id":0,"pygplates_version":"1.0.0","tessellate_degrees":0.5,"polarity_convention":"gpml:subductionPolarity. 'Left'/'Right' names the side of the line, in vertex order, on which the OVERRIDING plate lies. Triangles are drawn on that side.","antimeridian":"Lines are NOT split at +/-180 deg. The renderer works in 3D unit vectors where the dateline is not special; splitting would only add spurious breaks. Do not treat this as RFC 7946 GIS-ready 2D data."},"features":[{"type":"Feature","properties":{"boundary_type":"subduction","feature_type":"gpml:SubductionZone","polarity":"Right","overriding_plate_id":701,"subducting_plate_id":5032,"plate_ids":[701,5032],"name":"Mozambique Belt"},"geometry":{"type":"LineString","coordinates":[[36.537,-25.393],[36.653,-25.045],[36.769,-24.697],[36.884,-24.35],[36.905,-23.876],[36.927,-23.402],[36.948,-22.928],[37.017,-22.504],[37.086,-22.081],[37.154,-21.657],[37.161,-21.235],[37.168,-20.814],[37.175,-20.392],[37.182,-19.97],[37.188,-19.548],[37.309,-19.227],[37.429,-18.905],[37.548,-18.584],[37.98,-18.526],[38.411,-18.467],[38.842,-18.407],[39.339,-18.548],[39.838,-18.687],[40.337,-18.825],[40.665,-19.085],[40.993,-19.344],[41.323,-19.603],[41.654,-19.861],[42.068,-19.981],[42.483,-20.101],[42.899,-20.219],[43.315,-20.336],[43.732,-20.453],[44.245,-20.542],[44.759,-20.63],[45.274,-20.716],[45.789,-20.8],[46.305,-20.884],[46.701,-20.881],[47.097,-20.878],[47.613,-20.863],[48.129,-20.847],[48.492,-20.833],[48.855,-20.819],[49.219,-20.804],[49.621,-20.785],[50.024,-20.764],[50.426,-20.743],[50.926,-20.606],[51.424,-20.468],[51.887,-20.418],[52.35,-20.366],[52.812,-20.313],[53.274,-20.259],[53.707,-20.32],[54.139,-20.381],[54.572,-20.44],[55.005,-20.499],[55.494,-20.52],[55.984,-20.54],[56.473,-20.559],[56.963,-20.576],[57.47,-20.698],[57.978,-20.818],[58.463,-21.014],[58.948,-21.208],[59.468,-21.176],[59.988,-21.143],[60.415,-21.138],[60.842,-21.131],[61.269,-21.123],[61.696,-21.114],[62.104,-21.107],[62.512,-21.098],[62.92,-21.089],[63.33,-20.952],[63.74,-20.815],[64.148,-20.677],[64.556,-20.537],[65.069,-20.481],[65.581,-20.424],[66.094,-20.364],[66.606,-20.304],[67.066,-20.288],[67.526,-20.271],[67.986,-20.253],[68.446,-20.233]]}},{"type":"Feature","properties":{"boundary_type":"subduction","feature_type":"gpml:SubductionZone","polarity":"Right","overriding_plate_id":98043,"subducting_plate_id":5901,"plate_ids":[5901,98043],"name":"ANS SZ"},"geometry":{"type":"LineString","coordinates":[[4.853,-20.071],[5.207,-20.171],[5.561,-20.27],[6.038,-20.4],[6.516,-20.528],[6.995,-20.655],[7.475,-20.78],[7.78,-20.878]]}},{"type":"Feature","properties":{"boundary_type":"subduction","feature_type":"gpml:SubductionZone","polarity":"Right","overriding_plate_id":715,"subducting_plate_id":5901,"plate_ids":[715,5901],"name":"ANS SZ"},"geometry":{"type":"LineString","coordinates":[[7.78,-20.878],[8.121,-20.987],[8.463,-21.095],[8.805,-21.202],[9.192,-21.411],[9.581,-21.619],[9.931,-21.735],[10.282,-21.851],[10.634,-21.965],[10.958,-22.157],[11.282,-22.348],[11.607,-22.538],[12.012,-22.737],[12.419,-22.934],[12.827,-23.131],[13.213,-23.225],[13.6,-23.319],[13.988,-23.411],[14.471,-23.578],[14.956,-23.744],[15.277,-23.92],[15.599,-24.096],[15.921,-24.271],[16.443,-24.423],[16.965,-24.574],[17.44,-24.616],[17.915,-24.657],[18.39,-24.696],[18.803,-24.615],[19.215,-24.533],[19.627,-24.45],[20.039,-24.366],[20.44,-24.433],[20.842,-24.5],[21.244,-24.565],[21.764,-24.686],[22.285,-24.805],[22.807,-24.922],[23.236,-25.028],[23.667,-25.133],[24.098,-25.236],[24.51,-25.198],[24.922,-25.16],[25.333,-25.12],[25.738,-25.108],[26.143,-25.095],[26.547,-25.082],[26.976,-25.002],[27.405,-24.922],[27.833,-24.84],[28.26,-24.757],[28.769,-24.911],[29.28,-25.063],[29.791,-25.214],[30.201,-25.381],[30.611,-25.546],[30.956,-25.7],[31.302,-25.854],[31.649,-26.006],[31.824,-26.106]]}},{"type":"Feature","properties":{"boundary_type":"subduction","feature_type":"gpml:SubductionZone","polarity":"Right","overriding_plate_id":715,"subducting_plate_id":5032,"plate_ids":[715,5032],"name":"ANS SZ"},"geometry":{"type":"LineString","coordinates":[[31.824,-26.106],[32.233,-26.337],[32.643,-26.567],[33.035,-26.509],[33.427,-26.451],[33.818,-26.391],[34.222,-26.461]]}},{"type":"Feature","properties":{"boundary_type":"subduction","feature_type":"gpml:SubductionZone","polarity":"Right","overriding_plate_id":701,"subducting_plate_id":5032,"plate_ids":[701,5032],"name":"ANS SZ"},"geometry":{"type":"LineString","coordinates":[[34.222,-26.461],[34.709,-26.545],[35.067,-26.333],[35.425,-26.121],[35.781,-25.907],[36.16,-25.651],[36.537,-25.393]]}},{"type":"Feature","properties":{"boundary_type":"subduction","feature_type":"gpml:SubductionZone","polarity":"Right","overriding_plate_id":401,"subducting_plate_id":98044,"plate_ids":[401,98044],"name":"SZ"},"geometry":{"type":"LineString","coordinates":[[-155.001,30.297],[-154.482,30.31],[-153.963,30.321],[-153.444,30.33],[-152.925,30.337],[-152.365,30.271],[-151.806,30.203],[-151.248,30.133],[-150.69,30.06],[-150.133,29.985],[-149.577,29.908],[-149.022,29.828],[-148.468,29.746],[-147.915,29.661],[-147.363,29.575],[-146.811,29.486],[-146.261,29.395],[-145.712,29.301],[-145.163,29.205],[-144.616,29.107],[-144.07,29.007],[-143.603,28.744],[-143.139,28.478],[-142.678,28.212],[-142.218,27.943],[-141.761,27.673],[-141.306,27.402],[-140.854,27.129],[-140.403,26.855],[-139.955,26.579],[-139.509,26.302],[-139.065,26.024],[-138.623,25.744],[-138.183,25.463],[-137.746,25.18],[-137.31,24.897],[-136.876,24.612],[-136.445,24.326],[-136.015,24.038],[-135.647,23.707],[-135.282,23.375],[-134.918,23.043],[-134.556,22.709],[-134.196,22.375],[-133.838,22.04],[-133.481,21.704],[-133.278,21.243],[-133.076,20.782],[-132.875,20.321],[-132.676,19.859],[-132.478,19.397],[-132.281,18.935],[-132.084,18.473],[-131.889,18.011],[-131.695,17.548],[-131.502,17.085],[-131.31,16.622],[-131.119,16.159],[-130.929,15.696],[-130.74,15.232],[-130.551,14.769],[-130.363,14.305],[-130.329,13.906],[-130.294,13.507],[-130.26,13.109],[-130.225,12.71],[-130.191,12.311]]}},{"type":"Feature","properties":{"boundary_type":"subduction","feature_type":"gpml:SubductionZone","polarity":"Right","overriding_plate_id":401,"subducting_plate_id":3003,"plate_ids":[401,3003],"name":"SZ"},"geometry":{"type":"LineString","coordinates":[[-130.191,12.311],[-130.169,12.056],[-130.148,11.801],[-130.163,11.357],[-130.177,10.913],[-130.192,10.469],[-130.207,10.025],[-130.222,9.581],[-130.236,9.137]]}},{"type":"Feature","properties":{"boundary_type":"subduction","feature_type":"gpml:SubductionZone","polarity":"Left","overriding_plate_id":109,"subducting_plate_id":714,"plate_ids":[109,714],"name":"Bassiride belt"},"geometry":{"type":"LineString","coordinates":[[-103.264,-74.218],[-102.514,-73.804],[-101.801,-73.388],[-101.122,-72.969],[-100.474,-72.548],[-99.856,-72.125],[-99.266,-71.701],[-98.504,-71.327],[-97.772,-70.95],[-97.067,-70.571],[-96.387,-70.188],[-95.733,-69.804],[-95.102,-69.417],[-94.494,-69.028],[-94.188,-68.551],[-93.894,-68.074],[-93.613,-67.596],[-93.343,-67.118],[-93.083,-66.64],[-92.833,-66.161],[-92.73,-65.707],[-92.63,-65.254],[-92.533,-64.8],[-92.439,-64.347],[-92.349,-63.893],[-92.261,-63.439],[-92.176,-62.985],[-92.094,-62.531],[-92.014,-62.077],[-91.964,-61.594],[-91.916,-61.11],[-91.869,-60.627],[-91.824,-60.143],[-91.78,-59.659],[-91.737,-59.175],[-91.695,-58.692],[-91.654,-58.208],[-91.664,-58.06]]}},{"type":"Feature","properties":{"boundary_type":"subduction","feature_type":"gpml:SubductionZone","polarity":"Right","overriding_plate_id":5901,"subducting_plate_id":5031,"plate_ids":[5031,5901],"name":"ANS accretion"},"geometry":{"type":"LineString","coordinates":[[8.007,-12.466],[8.402,-12.468],[8.797,-12.469],[9.258,-12.508],[9.72,-12.547],[10.182,-12.585],[10.645,-12.622],[11.107,-12.659],[11.569,-12.694],[12.032,-12.729],[12.444,-12.498],[12.855,-12.267],[13.266,-12.035],[13.676,-11.803],[14.085,-11.57],[14.493,-11.337],[14.88,-11.19],[15.266,-11.043],[15.652,-10.896],[16.041,-11.048],[16.429,-11.199],[16.818,-11.35],[17.208,-11.501],[17.683,-11.498],[18.159,-11.493],[18.635,-11.489],[19.11,-11.483],[19.586,-11.476],[20.011,-11.393],[20.436,-11.31],[20.861,-11.226],[21.253,-11.048],[21.645,-10.871],[22.037,-10.692],[22.448,-10.987],[22.859,-11.281],[23.2,-11.333],[23.541,-11.385],[23.965,-11.436],[24.389,-11.487],[24.814,-11.538],[25.255,-11.681],[25.697,-11.823],[26.139,-11.965],[26.359,-12.32],[26.581,-12.675],[26.802,-13.03],[27.146,-13.349],[27.49,-13.668],[27.835,-13.987],[28.299,-14.165],[28.764,-14.342],[29.23,-14.518],[29.661,-14.559],[30.092,-14.599],[30.524,-14.639],[30.98,-14.694]]}},{"type":"Feature","properties":{"boundary_type":"subduction","feature_type":"gpml:SubductionZone","polarity":"Right","overriding_plate_id":5901,"subducting_plate_id":5032,"plate_ids":[5032,5901],"name":"ANS accretion"},"geometry":{"type":"LineString","coordinates":[[30.98,-14.694],[31.105,-14.709]]}},{"type":"Feature","properties":{"boundary_type":"subduction","feature_type":"gpml:SubductionZone","polarity":"Right","overriding_plate_id":5901,"subducting_plate_id":98043,"plate_ids":[5901,98043],"name":"ANS formation"},"geometry":{"type":"LineString","coordinates":[[4.98,-17.854],[5.186,-17.44],[5.39,-17.025],[5.594,-16.611],[5.797,-16.196],[5.999,-15.781],[6.201,-15.366],[6.401,-14.95],[6.601,-14.535],[6.8,-14.119],[6.998,-13.703],[7.196,-13.287],[7.467,-13.014],[7.737,-12.74],[8.007,-12.466]]}},{"type":"Feature","properties":{"boundary_type":"subduction","feature_type":"gpml:SubductionZone","polarity":"Right","overriding_plate_id":5031,"subducting_plate_id":98043,"plate_ids":[5031,98043],"name":"ANS formation"},"geometry":{"type":"LineString","coordinates":[[8.007,-12.466],[8.337,-12.13],[8.665,-11.793],[8.993,-11.457],[9.32,-11.119],[9.647,-10.782],[9.972,-10.444],[10.297,-10.106],[10.621,-9.767],[10.945,-9.429],[11.309,-9.215],[11.672,-9.001],[12.035,-8.787],[12.397,-8.572],[12.628,-8.461],[12.858,-8.351]]}},{"type":"Feature","properties":{"boundary_type":"subduction","feature_type":"gpml:SubductionZone","polarity":"Right","overriding_plate_id":5031,"subducting_plate_id":801,"plate_ids":[801,5031],"name":"ANS formation"},"geometry":{"type":"LineString","coordinates":[[12.858,-8.351],[13.125,-8.222],[13.604,-8.064],[14.083,-7.905],[14.562,-7.746],[14.929,-7.671],[15.296,-7.596],[15.663,-7.52],[16.091,-7.452],[16.52,-7.382],[16.938,-7.387],[17.356,-7.392],[17.649,-7.474],[17.942,-7.555],[18.381,-7.696],[18.821,-7.836],[19.208,-7.892],[19.595,-7.949],[19.936,-7.857],[20.277,-7.765],[20.618,-7.673],[20.995,-7.587],[21.371,-7.501],[21.747,-7.414],[22.121,-7.352],[22.494,-7.29],[22.892,-7.354],[23.291,-7.418],[23.651,-7.508],[24.011,-7.597],[24.372,-7.686],[24.764,-7.83],[25.156,-7.974],[25.548,-8.118],[25.904,-8.241],[26.261,-8.365],[26.618,-8.487],[27.094,-8.428],[27.57,-8.369],[28.045,-8.44],[28.52,-8.511],[28.995,-8.582],[29.471,-8.651],[29.924,-8.828],[30.377,-9.004],[30.831,-9.179],[31.285,-9.354]]}},{"type":"Feature","properties":{"boundary_type":"subduction","feature_type":"gpml:SubductionZone","polarity":"Right","overriding_plate_id":77148,"subducting_plate_id":98043,"plate_ids":[77148,98043],"name":"northern SM SZ?"},"geometry":{"type":"LineString","coordinates":[[-15.334,-37.102],[-14.954,-37.27],[-14.572,-37.436],[-14.188,-37.601],[-13.634,-37.572],[-13.08,-37.54],[-12.526,-37.506],[-12.026,-37.328],[-11.528,-37.148],[-11.032,-36.966],[-10.538,-36.781],[-10.514,-36.759]]}},{"type":"Feature","properties":{"boundary_type":"subduction","feature_type":"gpml:SubductionZone","polarity":"Right","overriding_plate_id":715,"subducting_plate_id":98043,"plate_ids":[715,98043],"name":"northern SM SZ?"},"geometry":{"type":"LineString","coordinates":[[-10.514,-36.759],[-10.127,-36.396],[-9.744,-36.033],[-9.364,-35.668],[-8.987,-35.301],[-8.834,-34.91],[-8.681,-34.519],[-8.53,-34.127],[-8.156,-33.872],[-7.783,-33.616],[-7.413,-33.358],[-7.045,-33.1],[-6.57,-32.885],[-6.097,-32.668],[-5.626,-32.449],[-5.157,-32.228],[-4.691,-32.006],[-4.227,-31.782],[-3.729,-31.565],[-3.232,-31.346],[-2.738,-31.124],[-2.247,-30.901],[-1.757,-30.676],[-1.27,-30.45],[-0.785,-30.221],[-0.414,-29.912],[-0.046,-29.602],[0.32,-29.291],[0.684,-28.978],[1.045,-28.665],[1.405,-28.351],[1.762,-28.036],[2.117,-27.72],[2.414,-27.298],[2.709,-26.876],[3.002,-26.453],[3.292,-26.03],[3.58,-25.605],[4.005,-25.287],[4.428,-24.968],[4.849,-24.647],[5.188,-24.33],[5.525,-24.013],[5.86,-23.695],[6.194,-23.376],[6.526,-23.056],[6.819,-22.748],[7.111,-22.44],[7.402,-22.132],[7.691,-21.823],[7.785,-21.548],[7.878,-21.273],[7.78,-20.878]]}},{"type":"Feature","properties":{"boundary_type":"subduction","feature_type":"gpml:SubductionZone","polarity":"Left","overriding_plate_id":801,"subducting_plate_id":98044,"plate_ids":[801,98044],"name":"Alxa SZ"},"geometry":{"type":"LineString","coordinates":[[17.465,65.171],[17.29,64.705],[17.121,64.239],[16.957,63.773],[16.799,63.306],[16.646,62.84],[16.498,62.373],[16.692,61.93],[16.881,61.488],[17.064,61.044],[17.243,60.601],[17.416,60.157],[17.585,59.713],[17.75,59.269],[17.91,58.825],[18.066,58.381],[17.854,57.904],[17.648,57.428],[17.448,56.951],[17.252,56.474],[17.061,55.997],[16.92,55.564],[16.782,55.132],[16.647,54.699],[16.515,54.265],[16.386,53.832],[16.259,53.399],[16.157,52.955],[16.057,52.511],[15.959,52.067],[15.862,51.623],[15.768,51.179],[15.676,50.735],[15.585,50.291],[15.496,49.846],[15.408,49.402],[15.63,48.956],[15.848,48.51],[16.062,48.064],[16.273,47.617],[16.48,47.17],[16.683,46.723],[16.883,46.275],[17.08,45.826],[17.274,45.378]]}},{"type":"Feature","properties":{"boundary_type":"subduction","feature_type":"gpml:SubductionZone","polarity":"Left","overriding_plate_id":801,"subducting_plate_id":580,"plate_ids":[580,801],"name":"Alxa SZ"},"geometry":{"type":"LineString","coordinates":[[17.274,45.378],[17.343,45.215],[17.578,44.829],[17.809,44.443],[18.038,44.056],[18.263,43.668],[18.486,43.28],[18.705,42.892],[18.817,42.422]]}},{"type":"Feature","properties":{"boundary_type":"subduction","feature_type":"gpml:SubductionZone","polarity":"Right","overriding_plate_id":77148,"subducting_plate_id":715,"plate_ids":[715,77148],"name":"East Saharan Craton - Aouzeguer Terrane SZ"},"geometry":{"type":"LineString","coordinates":[[-10.514,-36.759],[-10.303,-37.196],[-10.089,-37.632],[-9.873,-38.068],[-9.508,-38.461],[-9.139,-38.852],[-8.766,-39.241],[-8.39,-39.63],[-8.008,-40.018],[-7.588,-40.339],[-7.163,-40.66],[-6.735,-40.979],[-6.302,-41.296],[-5.938,-41.563],[-5.571,-41.828],[-5.201,-42.093],[-4.746,-42.254],[-4.289,-42.412],[-3.829,-42.569],[-3.354,-42.805],[-2.874,-43.04],[-2.391,-43.272],[-1.904,-43.503],[-1.4,-43.757],[-0.891,-44.008],[-0.377,-44.258],[0.14,-44.505],[0.609,-44.737],[1.081,-44.968],[1.557,-45.196],[2.037,-45.423],[2.382,-45.63],[2.729,-45.835],[3.164,-46.048],[3.601,-46.259],[4.042,-46.468],[4.458,-46.74],[4.878,-47.01],[5.303,-47.279],[5.732,-47.546],[6.324,-47.781],[6.922,-48.014],[7.525,-48.243]]}},{"type":"Feature","properties":{"boundary_type":"subduction","feature_type":"gpml:SubductionZone","polarity":"Left","overriding_plate_id":3003,"subducting_plate_id":401,"plate_ids":[401,3003],"name":"Taimyr SZ"},"geometry":{"type":"LineString","coordinates":[[-130.236,9.137],[-130.276,9.086],[-130.408,8.622],[-130.539,8.159],[-130.671,7.695],[-130.802,7.231],[-130.933,6.768],[-131.063,6.304],[-131.194,5.84],[-131.324,5.377],[-131.442,4.976],[-131.559,4.576],[-131.677,4.176],[-131.794,3.776],[-131.912,3.375],[-132.029,2.975],[-132.161,2.53],[-132.294,2.086],[-132.426,1.641],[-132.558,1.196],[-132.691,0.752],[-132.823,0.307],[-132.934,-0.138],[-133.046,-0.583],[-133.157,-1.028],[-133.269,-1.474],[-133.38,-1.919],[-133.492,-2.364],[-133.604,-2.809],[-133.716,-3.254],[-133.903,-3.645],[-134.09,-4.036],[-134.277,-4.426],[-134.464,-4.816],[-134.652,-5.207],[-134.84,-5.597],[-135.028,-5.988],[-135.174,-6.42],[-135.321,-6.853],[-135.467,-7.286],[-135.614,-7.719],[-135.761,-8.152],[-135.908,-8.584],[-136.056,-9.017],[-136.367,-9.348],[-136.678,-9.679],[-136.99,-10.01],[-137.302,-10.34],[-137.616,-10.67],[-137.929,-11.0],[-138.244,-11.33],[-138.52,-11.639],[-138.796,-11.949]]}},{"type":"Feature","properties":{"boundary_type":"subduction","feature_type":"gpml:SubductionZone","polarity":"Left","overriding_plate_id":22053,"subducting_plate_id":701,"plate_ids":[701,22053],"name":"Goias Arc and Brasilia Belt"},"geometry":{"type":"LineString","coordinates":[[60.148,-57.855],[59.749,-58.236],[59.342,-58.616],[58.926,-58.995],[58.501,-59.372],[57.861,-59.73],[57.207,-60.084],[56.539,-60.435],[55.856,-60.783],[54.987,-60.755],[54.12,-60.722],[53.254,-60.684],[52.391,-60.64],[51.838,-60.719],[51.283,-60.797],[50.543,-60.988],[49.795,-61.175],[49.037,-61.358]]}},{"type":"Feature","properties":{"boundary_type":"subduction","feature_type":"gpml:SubductionZone","polarity":"Left","overriding_plate_id":714,"subducting_plate_id":701,"plate_ids":[701,714],"name":"Goias Arc and Brasilia Belt"},"geometry":{"type":"LineString","coordinates":[[49.037,-61.358],[48.564,-61.469],[47.636,-61.613],[46.7,-61.751],[45.755,-61.882],[44.802,-62.007],[43.842,-62.125],[42.874,-62.236],[41.899,-62.341],[40.918,-62.438],[39.93,-62.529],[38.937,-62.613],[37.946,-62.59],[36.958,-62.561],[35.971,-62.525],[34.987,-62.482],[34.006,-62.432],[33.028,-62.375],[32.054,-62.311],[31.085,-62.24],[30.121,-62.163],[29.161,-62.079],[28.312,-62.174],[27.458,-62.263],[26.599,-62.347],[25.736,-62.426],[24.868,-62.499]]}},{"type":"Feature","properties":{"boundary_type":"subduction","feature_type":"gpml:SubductionZone","polarity":"Right","overriding_plate_id":401,"subducting_plate_id":3003,"plate_ids":[401,3003],"name":"Offshore Timan ocean arc?"},"geometry":{"type":"LineString","coordinates":[[-128.99,-16.055],[-128.986,-16.507],[-128.982,-16.96],[-128.977,-17.413],[-128.973,-17.865]]}},{"type":"Feature","properties":{"boundary_type":"subduction","feature_type":"gpml:SubductionZone","polarity":"Right","overriding_plate_id":101,"subducting_plate_id":3003,"plate_ids":[101,3003],"name":"Offshore Timan ocean arc?"},"geometry":{"type":"LineString","coordinates":[[-128.973,-17.865],[-128.969,-18.299],[-128.964,-18.733],[-128.96,-19.166],[-128.956,-19.6],[-128.952,-20.034],[-128.947,-20.467],[-128.953,-20.96],[-128.96,-21.452],[-128.966,-21.944],[-128.972,-22.437],[-128.979,-22.929],[-128.985,-23.422],[-128.992,-23.914],[-128.998,-24.407],[-129.005,-24.899],[-129.012,-25.392],[-129.018,-25.884],[-129.025,-26.376],[-129.032,-26.869],[-129.039,-27.361],[-128.872,-27.792],[-128.703,-28.222],[-128.533,-28.653],[-128.362,-29.083],[-128.189,-29.513],[-128.014,-29.942],[-127.839,-30.372],[-127.661,-30.801],[-127.482,-31.23],[-127.302,-31.659],[-127.119,-32.087],[-126.683,-32.386],[-126.244,-32.684],[-125.801,-32.98],[-125.356,-33.275],[-124.908,-33.568],[-124.457,-33.859],[-124.002,-34.149],[-123.545,-34.437],[-123.084,-34.724],[-122.62,-35.008],[-122.153,-35.291],[-121.683,-35.572],[-121.209,-35.851],[-120.682,-36.075],[-120.152,-36.296],[-119.618,-36.515],[-119.082,-36.732],[-118.543,-36.946],[-118.0,-37.158],[-117.455,-37.367],[-116.906,-37.574],[-116.355,-37.778],[-115.801,-37.98],[-115.243,-38.179],[-114.682,-38.375],[-114.191,-38.623],[-113.695,-38.869],[-113.197,-39.113],[-112.695,-39.354],[-112.189,-39.594],[-111.68,-39.831],[-111.167,-40.066]]}},{"type":"Feature","properties":{"boundary_type":"subduction","feature_type":"gpml:SubductionZone","polarity":"Right","overriding_plate_id":580,"subducting_plate_id":98044,"plate_ids":[580,98044],"name":"Tarim Oceanic arc"},"geometry":{"type":"LineString","coordinates":[[-7.935,47.17],[-7.233,47.27],[-6.529,47.366],[-5.822,47.458],[-5.112,47.545],[-4.401,47.628],[-3.687,47.706],[-2.971,47.78],[-2.253,47.812],[-1.534,47.841],[-0.814,47.864],[-0.094,47.883],[0.626,47.898],[1.347,47.908],[2.068,47.914],[2.789,47.915],[3.511,47.912],[4.232,47.904],[4.952,47.891],[5.635,47.819],[6.315,47.742],[6.994,47.661],[7.67,47.576],[8.344,47.487],[9.015,47.395],[9.685,47.298],[10.351,47.198],[11.016,47.093],[11.677,46.985],[12.336,46.873],[12.992,46.758],[13.617,46.57],[14.237,46.38],[14.853,46.186],[15.465,45.989],[16.072,45.788],[16.675,45.585],[17.274,45.378]]}},{"type":"Feature","properties":{"boundary_type":"subduction","feature_type":"gpml:SubductionZone","polarity":"Left","overriding_plate_id":77148,"subducting_plate_id":714,"plate_ids":[714,77148],"name":"Dahomenides"},"geometry":{"type":"LineString","coordinates":[[-6.855,-53.63],[-6.541,-53.826],[-5.977,-54.158],[-5.404,-54.487],[-4.822,-54.814],[-4.23,-55.138],[-3.629,-55.459],[-3.018,-55.777],[-2.396,-56.092],[-1.765,-56.404],[-1.123,-56.712],[-0.471,-57.018],[0.192,-57.319],[0.866,-57.617],[1.428,-57.934]]}},{"type":"Feature","properties":{"boundary_type":"subduction","feature_type":"gpml:SubductionZone","polarity":"Left","overriding_plate_id":715,"subducting_plate_id":714,"plate_ids":[714,715],"name":"Dahomenides"},"geometry":{"type":"LineString","coordinates":[[1.428,-57.934],[2.048,-58.274],[2.68,-58.611],[3.431,-58.884],[4.194,-59.152],[4.968,-59.416],[5.755,-59.675],[6.554,-59.93],[7.366,-60.179],[8.189,-60.423],[9.025,-60.663],[9.874,-60.897],[10.734,-61.125],[11.607,-61.348],[12.493,-61.565],[13.335,-61.817],[14.191,-62.064],[15.061,-62.305],[15.944,-62.541],[16.842,-62.771],[17.753,-62.995],[18.679,-63.214],[19.618,-63.426],[20.571,-63.632],[21.538,-63.831],[22.519,-64.024],[23.044,-64.236],[23.577,-64.445]]}},{"type":"Feature","properties":{"boundary_type":"subduction","feature_type":"gpml:SubductionZone","polarity":"Left","overriding_plate_id":22053,"subducting_plate_id":701,"plate_ids":[701,22053],"name":"Brasilia Belt"},"geometry":{"type":"LineString","coordinates":[[87.525,-58.337],[86.658,-58.472],[85.785,-58.602],[84.905,-58.726],[84.019,-58.844],[83.128,-58.956],[82.301,-58.994],[81.473,-59.027],[80.643,-59.055],[79.812,-59.078],[78.98,-59.095],[78.078,-59.029],[77.181,-58.957],[76.287,-58.879],[75.397,-58.795],[74.512,-58.705],[73.632,-58.608],[72.756,-58.506],[71.886,-58.398],[71.021,-58.283],[70.247,-58.112],[69.479,-57.937],[68.72,-57.756],[67.968,-57.572],[67.224,-57.383],[66.487,-57.189],[65.773,-57.253],[65.056,-57.313],[64.337,-57.369],[63.509,-57.478],[62.675,-57.58],[61.837,-57.677],[60.994,-57.769],[60.148,-57.855]]}},{"type":"Feature","properties":{"boundary_type":"subduction","feature_type":"gpml:SubductionZone","polarity":"Left","overriding_plate_id":98046,"subducting_plate_id":98044,"plate_ids":[98044,98046],"name":"Missing-Link subduction"},"geometry":{"type":"LineString","coordinates":[[-157.341,25.803],[-157.851,25.992],[-158.362,26.179],[-158.875,26.364],[-159.389,26.548],[-159.905,26.729],[-160.423,26.909],[-160.942,27.087],[-161.463,27.262],[-161.986,27.436],[-162.51,27.608],[-163.036,27.778],[-163.563,27.946],[-164.093,28.112],[-164.623,28.276],[-165.156,28.438],[-165.69,28.598],[-166.226,28.755],[-166.763,28.911],[-167.302,29.064],[-167.842,29.216],[-168.384,29.365],[-168.928,29.512],[-169.473,29.656],[-170.02,29.799],[-170.568,29.939],[-171.118,30.077],[-171.67,30.213],[-172.222,30.346],[-172.777,30.477],[-173.333,30.605],[-173.89,30.732],[-174.449,30.856],[-175.009,30.977],[-175.571,31.096],[-176.045,31.34],[-176.521,31.581],[-177.001,31.821],[-177.482,32.059],[-177.966,32.296],[-178.453,32.53],[-178.942,32.763],[-179.434,32.993],[-179.928,33.222],[179.575,33.449],[179.076,33.673],[178.574,33.896],[178.069,34.117],[177.562,34.335],[177.052,34.552],[176.539,34.766],[176.024,34.979],[175.506,35.189],[174.987,35.434],[174.465,35.677],[173.939,35.918],[173.41,36.156],[172.878,36.392],[172.343,36.626],[171.805,36.857],[171.263,37.086],[170.718,37.312],[170.17,37.536],[169.619,37.757],[169.064,37.976],[168.506,38.192],[167.944,38.406],[167.38,38.617],[166.812,38.825],[166.241,39.03],[165.666,39.232],[165.088,39.432],[164.507,39.629],[163.922,39.823],[163.335,40.013],[162.744,40.201],[162.149,40.386],[161.552,40.568],[161.062,40.893],[160.567,41.215],[160.067,41.535],[159.562,41.853],[159.052,42.169],[158.536,42.483],[158.016,42.794],[157.491,43.103],[156.96,43.409],[156.424,43.713],[155.882,44.014],[155.335,44.313],[154.782,44.609],[154.224,44.903],[153.66,45.193],[153.09,45.481],[152.514,45.766],[151.933,46.048],[151.346,46.328],[150.752,46.604],[150.153,46.877],[149.547,47.147],[148.935,47.413],[148.317,47.677],[147.693,47.937],[147.063,48.193],[146.426,48.446],[145.783,48.696],[145.134,48.942],[144.478,49.184],[143.816,49.422],[143.147,49.657],[142.472,49.888],[141.791,50.115],[141.103,50.338],[140.408,50.556],[139.806,50.828],[139.196,51.098],[138.58,51.363],[137.956,51.626],[137.325,51.885],[136.687,52.141],[136.041,52.393],[135.388,52.642],[134.728,52.887],[134.06,53.129],[133.384,53.366],[132.726,53.625],[132.06,53.879],[131.386,54.13],[130.704,54.377],[130.013,54.62],[129.314,54.859],[128.607,55.094],[127.892,55.325],[127.168,55.552],[126.436,55.774],[125.696,55.992],[124.948,56.205]]}},{"type":"Feature","properties":{"boundary_type":"subduction","feature_type":"gpml:SubductionZone","polarity":"Left","overriding_plate_id":3003,"subducting_plate_id":109,"plate_ids":[109,3003],"name":"Avalonia-Ganderia subduction zone"},"geometry":{"type":"LineString","coordinates":[[-120.677,-61.563],[-120.156,-61.345],[-119.217,-61.233],[-118.284,-61.114],[-117.359,-60.988],[-116.442,-60.856],[-115.532,-60.718],[-114.63,-60.574],[-113.736,-60.424],[-112.83,-60.284],[-111.931,-60.137],[-111.041,-59.985],[-110.159,-59.826],[-109.286,-59.662],[-108.421,-59.492],[-107.565,-59.316],[-106.718,-59.135],[-105.88,-58.949],[-105.051,-58.757],[-104.231,-58.559],[-103.421,-58.357],[-102.615,-58.124],[-101.82,-57.886],[-101.035,-57.643],[-100.26,-57.396],[-99.496,-57.144],[-98.743,-56.887],[-98.0,-56.626],[-97.267,-56.36],[-96.545,-56.09],[-95.832,-55.816],[-95.13,-55.538],[-94.437,-55.256],[-93.755,-54.97],[-93.082,-54.68],[-92.418,-54.387],[-91.765,-54.09],[-91.12,-53.789],[-90.485,-53.486]]}},{"type":"Feature","properties":{"boundary_type":"subduction","feature_type":"gpml:SubductionZone","polarity":"Left","overriding_plate_id":3003,"subducting_plate_id":714,"plate_ids":[714,3003],"name":"Avalonia-Ganderia subduction zone"},"geometry":{"type":"LineString","coordinates":[[-90.485,-53.486],[-89.889,-53.194],[-89.302,-52.899],[-88.723,-52.601],[-88.151,-52.301],[-87.587,-51.997],[-87.031,-51.692],[-86.483,-51.383],[-85.941,-51.072],[-85.407,-50.759],[-84.88,-50.443],[-84.29,-50.115],[-83.707,-49.785],[-83.133,-49.451],[-82.566,-49.115],[-82.007,-48.776],[-81.456,-48.435],[-80.912,-48.09],[-80.375,-47.744],[-79.845,-47.394],[-79.323,-47.043],[-78.75,-46.744],[-78.183,-46.442],[-77.623,-46.138],[-77.069,-45.831],[-76.521,-45.521],[-75.979,-45.209],[-75.443,-44.894],[-74.913,-44.577],[-74.388,-44.257],[-73.87,-43.935],[-73.356,-43.611],[-73.032,-43.429],[-72.709,-43.247]]}},{"type":"Feature","properties":{"boundary_type":"subduction","feature_type":"gpml:SubductionZone","polarity":"Left","overriding_plate_id":98043,"subducting_plate_id":714,"plate_ids":[714,98043],"name":"Avalonia-Ganderia subduction zone"},"geometry":{"type":"LineString","coordinates":[[-72.709,-43.247],[-72.173,-42.94],[-71.642,-42.63],[-71.116,-42.317],[-70.595,-42.003],[-70.08,-41.686],[-69.57,-41.366],[-69.064,-41.045],[-68.564,-40.721],[-68.068,-40.395],[-67.578,-40.067],[-67.092,-39.737],[-66.629,-39.484],[-66.17,-39.229],[-65.714,-38.972],[-65.262,-38.713],[-64.812,-38.453],[-64.366,-38.191],[-63.924,-37.927],[-63.403,-37.676],[-62.887,-37.423],[-62.374,-37.168],[-61.864,-36.91],[-61.357,-36.651],[-60.855,-36.389],[-60.355,-36.125],[-59.859,-35.859],[-59.366,-35.591],[-58.877,-35.321],[-58.39,-35.049],[-57.894,-34.851],[-57.4,-34.65],[-56.909,-34.448],[-56.42,-34.244],[-55.933,-34.038],[-55.448,-33.83],[-54.966,-33.62]]}},{"type":"Feature","properties":{"boundary_type":"subduction","feature_type":"gpml:SubductionZone","polarity":"Left","overriding_plate_id":77148,"subducting_plate_id":77144,"plate_ids":[77144,77148],"name":"Serouenent Terrane accretion"},"geometry":{"type":"LineString","coordinates":[[-20.255,-38.382],[-19.945,-38.743],[-19.633,-39.103],[-19.317,-39.462],[-18.998,-39.82],[-18.504,-40.135],[-18.005,-40.447],[-17.502,-40.757],[-16.974,-41.05],[-16.442,-41.34],[-15.905,-41.628],[-15.363,-41.914],[-14.816,-42.196],[-14.377,-42.416],[-13.935,-42.634],[-13.49,-42.85],[-13.042,-43.065],[-12.72,-43.216],[-12.324,-43.521],[-11.923,-43.824],[-11.518,-44.125],[-11.13,-44.444],[-10.739,-44.761],[-10.446,-45.114],[-10.15,-45.467],[-9.85,-45.818],[-9.547,-46.169]]}},{"type":"Feature","properties":{"boundary_type":"subduction","feature_type":"gpml:SubductionZone","polarity":"Left","overriding_plate_id":77147,"subducting_plate_id":714,"plate_ids":[714,77147],"name":"Iforas Granulite Unit SZ"},"geometry":{"type":"LineString","coordinates":[[-21.781,-46.257],[-21.485,-46.688],[-21.045,-47.061],[-20.599,-47.431],[-20.147,-47.8],[-19.688,-48.167],[-19.223,-48.532],[-18.75,-48.895],[-18.272,-49.256],[-17.786,-49.615],[-17.292,-49.972],[-16.792,-50.327],[-16.284,-50.68],[-15.768,-51.03],[-15.244,-51.379],[-14.713,-51.724]]}},{"type":"Feature","properties":{"boundary_type":"subduction","feature_type":"gpml:SubductionZone","polarity":"Left","overriding_plate_id":77144,"subducting_plate_id":77147,"plate_ids":[77144,77147],"name":"Hoggar assembly"},"geometry":{"type":"LineString","coordinates":[[-20.992,-44.214],[-20.732,-44.579],[-20.47,-44.944],[-20.204,-45.308],[-19.934,-45.671],[-19.617,-46.009],[-19.295,-46.345],[-18.97,-46.681],[-18.641,-47.016],[-18.216,-47.325],[-17.787,-47.632],[-17.353,-47.937],[-16.914,-48.24],[-16.47,-48.542],[-16.036,-48.894],[-15.596,-49.244],[-15.15,-49.593],[-14.698,-49.94],[-14.378,-50.134]]}},{"type":"Feature","properties":{"boundary_type":"subduction","feature_type":"gpml:SubductionZone","polarity":"Left","overriding_plate_id":77148,"subducting_plate_id":77147,"plate_ids":[77147,77148],"name":"Hoggar assembly"},"geometry":{"type":"LineString","coordinates":[[-14.378,-50.134],[-13.915,-50.411],[-13.447,-50.686],[-12.974,-50.959],[-12.731,-51.087]]}},{"type":"Feature","properties":{"boundary_type":"subduction","feature_type":"gpml:SubductionZone","polarity":"Left","overriding_plate_id":77148,"subducting_plate_id":714,"plate_ids":[714,77148],"name":"Hoggar assembly"},"geometry":{"type":"LineString","coordinates":[[-12.731,-51.087],[-12.135,-51.396],[-11.532,-51.702],[-10.92,-52.005],[-10.3,-52.305],[-9.628,-52.578],[-8.947,-52.847],[-8.258,-53.112],[-7.561,-53.373],[-6.855,-53.63]]}},{"type":"Feature","properties":{"boundary_type":"ridge","feature_type":"gpml:MidOceanRidge","polarity":null,"overriding_plate_id":null,"subducting_plate_id":null,"plate_ids":[101,714],"name":"Amazonia-WAC ridge"},"geometry":{"type":"LineString","coordinates":[[121.188,-76.443],[122.455,-76.8],[123.791,-77.15],[125.2,-77.493],[126.686,-77.829],[128.254,-78.156],[129.908,-78.473],[131.653,-78.781],[133.494,-79.079],[135.434,-79.364],[137.478,-79.638],[139.629,-79.897],[141.888,-80.142],[143.408,-79.741],[144.813,-79.334],[146.115,-78.921],[147.325,-78.503],[148.45,-78.08],[149.498,-77.653],[150.478,-77.222],[151.394,-76.788],[152.253,-76.351],[153.059,-75.911],[153.817,-75.468],[155.445,-75.727],[157.13,-75.975],[158.873,-76.211],[160.674,-76.434],[162.532,-76.643],[164.446,-76.839],[166.415,-77.02],[168.436,-77.186],[170.507,-77.336],[172.624,-77.47],[174.783,-77.586],[176.979,-77.686],[179.207,-77.767],[-178.538,-77.831],[-176.264,-77.876],[-173.976,-77.902],[-171.683,-77.91],[-169.39,-77.898],[-167.104,-77.868],[-164.833,-77.82],[-162.583,-77.753],[-160.361,-77.667],[-158.172,-77.565],[-156.021,-77.444],[-155.716,-76.954],[-155.434,-76.463],[-155.17,-75.972],[-154.924,-75.48],[-154.694,-74.989],[-154.479,-74.497],[-154.276,-74.005],[-154.085,-73.512],[-153.905,-73.02],[-153.734,-72.527],[-153.573,-72.035],[-153.42,-71.542],[-153.275,-71.049],[-153.136,-70.556],[-153.005,-70.063],[-152.879,-69.569],[-152.759,-69.076],[-152.645,-68.583],[-152.535,-68.089],[-152.43,-67.595],[-152.33,-67.102],[-152.233,-66.608],[-152.14,-66.114],[-152.051,-65.621],[-151.964,-65.127],[-151.882,-64.633],[-151.802,-64.139],[-150.789,-64.14],[-149.777,-64.135],[-148.765,-64.122],[-147.755,-64.102],[-146.746,-64.076],[-145.74,-64.042]]}},{"type":"Feature","properties":{"boundary_type":"ridge","feature_type":"gpml:MidOceanRidge","polarity":null,"overriding_plate_id":null,"subducting_plate_id":null,"plate_ids":[101,109],"name":"Amazonia-WAC ridge"},"geometry":{"type":"LineString","coordinates":[[-145.74,-64.042],[-144.619,-63.997],[-143.502,-63.942],[-142.389,-63.879],[-141.282,-63.808],[-140.181,-63.728],[-139.086,-63.64],[-137.998,-63.544],[-136.919,-63.439],[-135.847,-63.326],[-134.784,-63.206],[-133.73,-63.077],[-132.685,-62.941],[-131.651,-62.797],[-130.626,-62.646],[-129.613,-62.487],[-128.61,-62.321],[-127.619,-62.147],[-126.639,-61.967],[-125.671,-61.78],[-124.715,-61.586],[-125.123,-61.135],[-125.52,-60.684],[-125.906,-60.231],[-126.281,-59.776],[-126.646,-59.321],[-127.002,-58.865],[-127.348,-58.408],[-127.685,-57.95],[-128.014,-57.491],[-128.335,-57.031],[-128.648,-56.571],[-128.953,-56.11],[-129.251,-55.648],[-129.542,-55.185],[-129.827,-54.721],[-130.105,-54.257],[-130.376,-53.793],[-130.642,-53.327],[-130.902,-52.862],[-131.157,-52.395],[-131.406,-51.928],[-131.65,-51.461],[-131.889,-50.993],[-132.124,-50.524],[-132.353,-50.056],[-132.579,-49.586],[-132.8,-49.116],[-133.017,-48.646],[-133.23,-48.176],[-133.438,-47.705],[-133.644,-47.233],[-133.845,-46.762],[-134.043,-46.29],[-134.238,-45.817],[-134.43,-45.344],[-133.724,-45.301],[-133.02,-45.253],[-132.317,-45.201],[-131.616,-45.144],[-130.916,-45.084],[-130.217,-45.019],[-129.52,-44.949],[-128.825,-44.876],[-128.132,-44.798],[-127.441,-44.716],[-126.751,-44.63],[-126.064,-44.54],[-125.379,-44.446],[-124.696,-44.347],[-124.015,-44.245],[-123.337,-44.139],[-122.661,-44.028],[-121.988,-43.914],[-121.318,-43.795],[-120.65,-43.673],[-119.985,-43.547],[-119.323,-43.417],[-118.663,-43.283],[-118.007,-43.146],[-117.354,-43.004],[-116.703,-42.859],[-116.056,-42.711],[-115.412,-42.559],[-114.771,-42.403],[-114.133,-42.243],[-113.498,-42.08],[-112.867,-41.914],[-112.239,-41.744],[-111.615,-41.571]]}},{"type":"Feature","properties":{"boundary_type":"subduction","feature_type":"gpml:SubductionZone","polarity":"Right","overriding_plate_id":98043,"subducting_plate_id":714,"plate_ids":[714,98043],"name":""},"geometry":{"type":"LineString","coordinates":[[-25.813,-39.91],[-26.397,-39.746],[-26.978,-39.58],[-27.557,-39.411],[-28.132,-39.239],[-28.705,-39.064],[-29.275,-38.887],[-29.842,-38.706],[-30.407,-38.523],[-30.968,-38.338],[-31.527,-38.149],[-32.082,-37.958],[-32.635,-37.764],[-33.185,-37.568],[-33.732,-37.37],[-34.276,-37.168],[-34.817,-36.965],[-35.355,-36.758],[-35.89,-36.55],[-36.504,-36.505],[-37.118,-36.457],[-37.73,-36.406],[-38.342,-36.351],[-38.953,-36.294],[-39.563,-36.234],[-40.172,-36.17],[-40.779,-36.103],[-41.386,-36.034],[-41.992,-35.961],[-42.597,-35.885],[-43.2,-35.806],[-43.802,-35.724],[-44.403,-35.639],[-45.003,-35.552],[-45.601,-35.461],[-46.198,-35.367],[-46.794,-35.27],[-47.388,-35.171],[-47.981,-35.068],[-48.572,-34.963],[-49.161,-34.855],[-49.749,-34.744],[-50.336,-34.63],[-50.921,-34.513],[-51.504,-34.394],[-52.085,-34.272],[-52.665,-34.147],[-53.243,-34.019],[-53.819,-33.889],[-54.394,-33.756],[-54.966,-33.62]]}},{"type":"Feature","properties":{"boundary_type":"ridge","feature_type":"gpml:MidOceanRidge","polarity":null,"overriding_plate_id":null,"subducting_plate_id":null,"plate_ids":[580,98044],"name":"Tarim-Lut MOR"},"geometry":{"type":"LineString","coordinates":[[-6.473,16.757],[-6.246,17.032],[-6.018,17.308]]}},{"type":"Feature","properties":{"boundary_type":"ridge","feature_type":"gpml:MidOceanRidge","polarity":null,"overriding_plate_id":null,"subducting_plate_id":null,"plate_ids":[580,801],"name":"Tarim-Lut MOR"},"geometry":{"type":"LineString","coordinates":[[-6.018,17.308],[-5.721,17.666],[-5.422,18.023],[-5.123,18.381],[-4.822,18.737],[-4.52,19.093],[-4.216,19.449],[-3.912,19.804],[-4.077,20.141],[-4.244,20.479],[-4.411,20.815],[-4.093,21.207],[-3.774,21.597],[-3.453,21.987],[-3.13,22.377],[-2.806,22.765],[-2.479,23.153],[-2.151,23.541],[-1.82,23.927],[-1.488,24.313],[-1.154,24.699],[-0.818,25.083],[-0.479,25.467],[-0.138,25.85],[0.204,26.232],[0.55,26.613],[0.897,26.994],[1.247,27.373],[0.876,27.572],[0.504,27.77],[0.13,27.967],[0.498,28.299],[0.868,28.629],[1.241,28.959],[1.616,29.287],[1.993,29.614],[2.373,29.941],[2.755,30.266],[3.14,30.59],[3.528,30.913],[3.918,31.234],[4.31,31.555],[4.706,31.874],[5.104,32.192],[5.38,31.945],[5.655,31.698],[6.07,32.025],[6.487,32.35],[6.908,32.674],[7.332,32.997],[7.759,33.318],[8.189,33.638],[8.622,33.956],[9.058,34.273]]}},{"type":"Feature","properties":{"boundary_type":"ridge","feature_type":"gpml:MidOceanRidge","polarity":null,"overriding_plate_id":null,"subducting_plate_id":null,"plate_ids":[3003,98044],"name":"Mirovoi MOR"},"geometry":{"type":"LineString","coordinates":[[-77.62,-12.283],[-77.586,-12.709],[-77.552,-13.135]]}},{"type":"Feature","properties":{"boundary_type":"ridge","feature_type":"gpml:MidOceanRidge","polarity":null,"overriding_plate_id":null,"subducting_plate_id":null,"plate_ids":[3003,98043],"name":"Mirovoi MOR"},"geometry":{"type":"LineString","coordinates":[[-77.552,-13.135],[-77.512,-13.633],[-77.471,-14.131],[-77.431,-14.629],[-77.39,-15.127],[-77.349,-15.626],[-77.308,-16.124],[-77.266,-16.622],[-77.225,-17.12],[-77.183,-17.618],[-77.141,-18.116],[-77.099,-18.615],[-77.056,-19.113],[-77.013,-19.611],[-76.97,-20.109],[-76.927,-20.607],[-76.883,-21.105],[-76.839,-21.603],[-76.795,-22.101],[-76.751,-22.599],[-76.706,-23.098],[-76.661,-23.596],[-76.615,-24.094],[-76.569,-24.592],[-76.523,-25.09],[-76.042,-25.036],[-75.562,-24.981],[-75.082,-24.925],[-74.603,-24.867],[-74.561,-25.364],[-74.519,-25.861],[-74.476,-26.358],[-74.433,-26.855],[-74.389,-27.352],[-74.346,-27.849],[-74.301,-28.346],[-74.257,-28.843],[-74.212,-29.34],[-74.166,-29.837],[-74.12,-30.334],[-74.074,-30.831],[-74.027,-31.328],[-73.979,-31.825],[-73.932,-32.322],[-73.883,-32.819],[-73.834,-33.315],[-73.784,-33.812],[-73.734,-34.309],[-73.684,-34.806],[-73.632,-35.303],[-73.58,-35.799],[-73.528,-36.296],[-73.474,-36.793],[-73.42,-37.289],[-73.366,-37.786],[-73.31,-38.283],[-73.254,-38.779],[-73.197,-39.276],[-73.139,-39.772],[-73.08,-40.269],[-73.021,-40.765],[-72.96,-41.262],[-72.899,-41.758],[-72.837,-42.254],[-72.773,-42.751],[-72.709,-43.247]]}},{"type":"Feature","properties":{"boundary_type":"ridge","feature_type":"gpml:MidOceanRidge","polarity":null,"overriding_plate_id":null,"subducting_plate_id":null,"plate_ids":[98043,98044],"name":"Mirovoi MOR"},"geometry":{"type":"LineString","coordinates":[[-77.552,-13.135],[-77.077,-12.958],[-76.603,-12.78],[-76.13,-12.601],[-75.657,-12.421],[-75.185,-12.241],[-74.714,-12.06],[-74.243,-11.878],[-73.773,-11.695],[-73.304,-11.511],[-72.835,-11.327],[-72.367,-11.142],[-71.899,-10.956],[-71.432,-10.77],[-70.966,-10.583],[-70.5,-10.395],[-70.035,-10.206],[-69.57,-10.017],[-69.106,-9.827],[-68.642,-9.637],[-68.179,-9.446],[-67.716,-9.254],[-67.254,-9.062],[-66.792,-8.869],[-66.331,-8.676],[-65.87,-8.482],[-65.41,-8.287],[-64.95,-8.092],[-64.491,-7.897],[-64.664,-7.436],[-64.837,-6.974],[-65.01,-6.513],[-65.182,-6.051],[-65.354,-5.59],[-65.526,-5.128],[-65.082,-4.894],[-64.639,-4.66],[-64.196,-4.426],[-63.753,-4.192],[-63.31,-3.957],[-62.868,-3.722],[-62.426,-3.486],[-61.984,-3.251],[-61.543,-3.015],[-61.101,-2.78],[-60.66,-2.544],[-60.219,-2.307],[-59.778,-2.071],[-59.337,-1.835],[-58.897,-1.598],[-58.456,-1.361],[-58.015,-1.125],[-57.575,-0.888],[-57.135,-0.651],[-56.694,-0.414],[-56.254,-0.177],[-55.814,0.059],[-55.373,0.296],[-54.933,0.533],[-54.493,0.77],[-54.052,1.007],[-53.612,1.244],[-53.171,1.48],[-52.731,1.717],[-52.29,1.953],[-51.849,2.19],[-51.408,2.426],[-50.967,2.662],[-50.526,2.898],[-50.084,3.134],[-49.643,3.369],[-49.201,3.605],[-48.759,3.84],[-48.316,4.075],[-47.874,4.309],[-47.431,4.544],[-46.987,4.778],[-46.544,5.012],[-46.1,5.245],[-45.656,5.479],[-45.211,5.712],[-44.767,5.944],[-44.321,6.176],[-43.876,6.408],[-43.43,6.64],[-42.983,6.871],[-42.536,7.101],[-42.224,6.777],[-41.912,6.451],[-41.601,6.126],[-41.289,5.801],[-40.979,5.475],[-40.498,5.617],[-40.017,5.758],[-39.536,5.899],[-39.055,6.039],[-38.573,6.179],[-38.092,6.318],[-37.609,6.457],[-37.127,6.596],[-36.645,6.734],[-36.162,6.872],[-35.679,7.009],[-35.195,7.145],[-34.711,7.282],[-34.227,7.417],[-33.743,7.552],[-33.259,7.687],[-32.774,7.821],[-32.288,7.954],[-31.803,8.087],[-31.317,8.22],[-30.831,8.351],[-30.344,8.483],[-29.857,8.613],[-29.37,8.743],[-28.883,8.872],[-28.395,9.001],[-27.907,9.129],[-27.418,9.257],[-26.929,9.383],[-26.44,9.509],[-25.95,9.635],[-25.46,9.76],[-24.97,9.884],[-24.479,10.007],[-23.988,10.129],[-23.497,10.251],[-23.005,10.372],[-22.513,10.493],[-22.02,10.612],[-21.527,10.731],[-21.034,10.849],[-20.54,10.966],[-20.299,10.599],[-20.058,10.231],[-19.818,9.863],[-19.578,9.494],[-19.339,9.126],[-19.101,8.757],[-18.621,8.898],[-18.141,9.037],[-17.66,9.176],[-17.179,9.314],[-16.698,9.452],[-16.216,9.589],[-15.734,9.726],[-15.251,9.861],[-14.768,9.996],[-14.285,10.131],[-13.801,10.264],[-13.317,10.397],[-12.833,10.529],[-12.348,10.661],[-11.863,10.791],[-11.377,10.921],[-10.891,11.05],[-10.404,11.179],[-9.917,11.306],[-9.429,11.433],[-8.941,11.559],[-8.453,11.684],[-7.964,11.809],[-7.475,11.932],[-6.985,12.055],[-6.495,12.176],[-6.005,12.297],[-5.514,12.417],[-5.022,12.537]]}},{"type":"Feature","properties":{"boundary_type":"ridge","feature_type":"gpml:MidOceanRidge","polarity":null,"overriding_plate_id":null,"subducting_plate_id":null,"plate_ids":[701,801],"name":"Aus-Azania MoR"},"geometry":{"type":"LineString","coordinates":[[89.391,-27.612],[89.149,-27.211],[88.908,-26.811],[88.668,-26.41],[88.431,-26.008],[88.195,-25.606],[87.96,-25.204],[88.321,-25.028],[88.681,-24.85],[88.433,-24.433],[88.187,-24.016],[87.942,-23.599],[87.699,-23.181],[87.457,-22.763],[87.217,-22.344],[86.979,-21.925],[86.741,-21.506],[86.505,-21.086],[86.271,-20.666],[86.038,-20.246],[85.806,-19.825],[86.134,-19.629],[86.461,-19.433],[86.217,-18.998],[85.975,-18.562],[85.733,-18.127],[85.493,-17.691],[85.254,-17.255],[85.016,-16.819],[84.779,-16.382],[84.544,-15.945],[84.309,-15.508],[84.075,-15.07],[83.843,-14.633],[83.611,-14.195],[83.38,-13.757],[83.15,-13.318]]}},{"type":"Feature","properties":{"boundary_type":"ridge","feature_type":"gpml:MidOceanRidge","polarity":null,"overriding_plate_id":null,"subducting_plate_id":null,"plate_ids":[801,5032],"name":"Aus-Azania MoR"},"geometry":{"type":"LineString","coordinates":[[83.15,-13.318],[82.962,-12.96],[82.776,-12.602],[82.589,-12.243]]}},{"type":"Feature","properties":{"boundary_type":"ridge","feature_type":"gpml:MidOceanRidge","polarity":null,"overriding_plate_id":null,"subducting_plate_id":null,"plate_ids":[801,5032],"name":"Mawson sea?"},"geometry":{"type":"LineString","coordinates":[[77.583,-14.379],[77.406,-13.938],[77.042,-14.076],[76.678,-14.214],[76.314,-14.351],[75.949,-14.488],[75.715,-14.054],[75.482,-13.619],[75.25,-13.185],[75.018,-12.75],[74.787,-12.315],[74.558,-11.88],[74.328,-11.444],[74.1,-11.009],[73.872,-10.573],[73.645,-10.137],[73.418,-9.701],[73.192,-9.265],[72.967,-8.828],[72.742,-8.392],[72.518,-7.955],[72.294,-7.519],[72.071,-7.082],[71.848,-6.645],[71.543,-6.797],[71.238,-6.949],[70.933,-7.101],[70.706,-6.677],[70.48,-6.253],[70.254,-5.83],[70.028,-5.406],[69.803,-4.982],[69.577,-4.558],[69.353,-4.134]]}},{"type":"Feature","properties":{"boundary_type":"ridge","feature_type":"gpml:MidOceanRidge","polarity":null,"overriding_plate_id":null,"subducting_plate_id":null,"plate_ids":[101,701],"name":"Laurentia-Kalahari"},"geometry":{"type":"LineString","coordinates":[[128.274,-35.718],[127.792,-35.723],[127.31,-35.726],[127.417,-35.241],[127.524,-34.756],[127.629,-34.271],[127.733,-33.786],[127.836,-33.3],[127.938,-32.815],[128.038,-32.329],[128.138,-31.844],[128.236,-31.358],[128.334,-30.872],[128.43,-30.387],[128.526,-29.901],[128.621,-29.415],[128.714,-28.929],[128.807,-28.442],[128.899,-27.956],[128.99,-27.47],[129.081,-26.984],[129.17,-26.497],[128.793,-26.542],[128.415,-26.586],[128.496,-26.119],[128.576,-25.653],[128.656,-25.186],[128.735,-24.72],[128.813,-24.253],[128.891,-23.786],[128.969,-23.32],[129.045,-22.853],[129.122,-22.386],[129.197,-21.92],[129.273,-21.453],[129.348,-20.986],[129.422,-20.519],[129.496,-20.052],[129.089,-19.969],[128.683,-19.884],[128.277,-19.799],[128.362,-19.325],[128.447,-18.851],[128.532,-18.377],[128.616,-17.903],[128.699,-17.429],[128.245,-17.346],[127.792,-17.263],[127.885,-16.792],[127.978,-16.321],[128.071,-15.85],[128.163,-15.379],[128.254,-14.908],[128.346,-14.437],[128.437,-13.965],[128.527,-13.494],[128.617,-13.023],[128.707,-12.552],[128.797,-12.08],[128.886,-11.609],[128.975,-11.138],[129.063,-10.666],[129.152,-10.195],[129.24,-9.723],[129.328,-9.252],[129.415,-8.781],[129.503,-8.309],[129.59,-7.838]]}},{"type":"Feature","properties":{"boundary_type":"ridge","feature_type":"gpml:MidOceanRidge","polarity":null,"overriding_plate_id":null,"subducting_plate_id":null,"plate_ids":[101,801],"name":"Laurentia-Kalahari"},"geometry":{"type":"LineString","coordinates":[[129.59,-7.838],[129.68,-7.346],[129.771,-6.854],[129.861,-6.363],[129.951,-5.871],[130.041,-5.379],[130.131,-4.888],[130.221,-4.396],[130.31,-3.904],[130.4,-3.413],[129.92,-3.34],[129.44,-3.267],[128.96,-3.194],[128.48,-3.121],[128.0,-3.048],[127.521,-2.974],[127.041,-2.9],[126.561,-2.826],[126.082,-2.752],[125.602,-2.678],[125.123,-2.603]]}},{"type":"Feature","properties":{"boundary_type":"ridge","feature_type":"gpml:MidOceanRidge","polarity":null,"overriding_plate_id":null,"subducting_plate_id":null,"plate_ids":[101,98046],"name":"Laur rift unknown?"},"geometry":{"type":"LineString","coordinates":[[130.979,6.805],[131.475,6.763],[131.97,6.719],[132.465,6.675],[132.96,6.631],[133.455,6.586],[133.949,6.541],[134.057,7.005],[134.165,7.469],[134.274,7.933],[134.382,8.397],[134.491,8.861],[134.6,9.325],[135.019,9.478],[135.439,9.63],[135.859,9.782],[136.279,9.933],[136.7,10.084],[137.121,10.234],[137.542,10.383],[137.964,10.532],[138.094,10.932],[138.224,11.331],[138.354,11.73],[138.485,12.129],[138.616,12.528],[138.747,12.926],[139.257,12.955],[139.766,12.983],[140.276,13.009],[140.786,13.035],[141.296,13.059],[141.806,13.083],[142.316,13.106],[142.826,13.127],[143.336,13.148],[143.847,13.168],[144.357,13.186],[144.867,13.204],[145.378,13.22],[145.889,13.236],[146.399,13.251],[146.91,13.264],[147.421,13.277],[147.932,13.288],[148.443,13.299],[148.954,13.308],[149.465,13.316],[149.976,13.324],[150.487,13.33],[150.998,13.336],[151.509,13.34],[152.02,13.343],[152.531,13.346],[153.042,13.347],[153.553,13.347],[154.064,13.347],[154.576,13.345],[155.087,13.342],[155.598,13.338],[156.109,13.333],[156.62,13.327],[157.131,13.32],[157.642,13.313],[158.153,13.304],[158.664,13.294],[159.175,13.283],[159.686,13.271],[159.693,13.698],[159.701,14.125],[159.709,14.552],[159.717,14.979],[159.725,15.406],[160.228,15.353],[160.731,15.299],[161.234,15.244],[161.736,15.188],[162.238,15.131],[162.74,15.072],[163.242,15.013],[163.743,14.952],[164.244,14.891],[164.745,14.828],[165.245,14.764],[165.745,14.699],[166.245,14.633],[166.744,14.566],[167.244,14.498],[167.743,14.429],[168.241,14.358],[168.739,14.287],[169.237,14.215],[169.735,14.141],[170.232,14.067],[170.729,13.992],[171.226,13.915],[171.722,13.838],[172.218,13.76],[172.714,13.68],[173.209,13.6],[173.704,13.518],[174.199,13.436],[174.693,13.353],[175.187,13.269],[175.68,13.183],[176.174,13.097],[176.343,13.55],[176.512,14.002],[176.683,14.455],[176.854,14.907],[177.368,14.909],[177.882,14.91],[178.396,14.91],[178.91,14.909],[179.424,14.906],[179.938,14.903],[-179.548,14.898],[-179.034,14.893],[-178.52,14.886],[-178.006,14.877],[-177.492,14.868],[-176.978,14.858],[-176.464,14.846],[-175.95,14.834],[-175.437,14.82],[-174.923,14.805],[-174.41,14.789],[-173.896,14.772],[-173.383,14.753],[-172.87,14.734],[-172.356,14.713],[-171.843,14.692],[-171.33,14.669],[-170.817,14.645],[-170.305,14.62],[-169.792,14.593],[-169.279,14.566],[-169.217,15.046],[-169.155,15.525],[-169.092,16.005],[-169.029,16.484],[-168.966,16.964],[-168.902,17.443],[-168.838,17.923],[-168.774,18.402],[-168.709,18.882],[-168.644,19.361],[-168.579,19.841],[-168.074,19.783],[-167.569,19.723],[-167.065,19.663],[-166.561,19.6],[-166.058,19.537],[-165.555,19.472],[-165.052,19.405],[-164.55,19.338],[-164.048,19.268],[-163.546,19.198],[-163.045,19.126],[-162.545,19.053],[-162.045,18.978],[-161.545,18.902],[-161.046,18.825],[-160.547,18.746],[-160.049,18.666]]}},{"type":"Feature","properties":{"boundary_type":"ridge","feature_type":"gpml:MidOceanRidge","polarity":null,"overriding_plate_id":null,"subducting_plate_id":null,"plate_ids":[98044,98046],"name":"Aus rift unknown?"},"geometry":{"type":"LineString","coordinates":[[116.246,52.413],[116.364,51.923],[116.479,51.433],[116.593,50.943]]}},{"type":"Feature","properties":{"boundary_type":"ridge","feature_type":"gpml:MidOceanRidge","polarity":null,"overriding_plate_id":null,"subducting_plate_id":null,"plate_ids":[801,98046],"name":"Aus rift unknown?"},"geometry":{"type":"LineString","coordinates":[[116.593,50.943],[116.702,50.46],[116.809,49.977],[116.914,49.494],[117.016,49.01],[117.117,48.527],[117.216,48.044],[117.313,47.56],[117.409,47.077],[117.502,46.593],[116.94,46.306],[116.384,46.017],[115.833,45.724],[115.288,45.43],[114.749,45.132],[114.216,44.832],[113.688,44.53],[113.165,44.225],[113.342,43.763],[113.516,43.301],[113.687,42.839],[113.856,42.376],[114.022,41.913],[114.186,41.45],[114.347,40.986],[114.506,40.523],[114.663,40.059],[114.818,39.595],[114.971,39.131],[115.122,38.666],[115.271,38.201],[115.418,37.737],[115.563,37.272],[115.706,36.806],[115.848,36.341],[115.988,35.876],[116.496,35.746],[117.003,35.614],[117.07,35.126],[117.135,34.638],[117.2,34.15],[117.265,33.662],[117.328,33.174],[117.391,32.686],[117.453,32.198],[117.515,31.71],[117.576,31.222],[117.636,30.734],[117.695,30.246],[117.754,29.758],[117.813,29.269],[117.871,28.781],[117.928,28.293],[117.985,27.805],[118.041,27.316],[118.097,26.828],[118.152,26.34],[118.207,25.851],[118.262,25.363],[118.316,24.875],[118.369,24.386],[118.422,23.898],[118.475,23.409],[118.528,22.921],[118.58,22.432],[118.631,21.944],[118.682,21.455],[118.733,20.967],[118.784,20.478],[118.834,19.99],[118.884,19.501],[118.934,19.013],[118.983,18.524],[119.032,18.035],[119.081,17.547],[119.13,17.058],[119.178,16.57],[119.226,16.081],[119.274,15.592],[119.322,15.104],[119.816,15.107],[120.31,15.11],[120.804,15.112],[121.298,15.112],[121.792,15.112],[122.286,15.11],[122.78,15.108],[123.274,15.104],[123.768,15.099],[124.261,15.094],[124.755,15.087],[125.249,15.079],[125.743,15.07],[125.725,14.578],[125.707,14.087],[125.689,13.596],[125.671,13.105],[125.653,12.613],[125.635,12.122],[125.617,11.631],[125.599,11.139],[125.582,10.648],[125.564,10.157],[125.546,9.666],[125.529,9.174],[125.511,8.683],[125.494,8.192],[125.477,7.7],[125.459,7.209],[125.442,6.718],[125.425,6.226],[125.408,5.735],[125.39,5.244],[125.373,4.753],[125.356,4.261],[125.339,3.77],[125.322,3.279],[125.305,2.787],[125.288,2.296],[125.271,1.805],[125.254,1.313],[125.237,0.822],[125.219,0.331],[125.202,-0.16],[125.185,-0.652],[125.168,-1.143],[125.151,-1.634],[125.134,-2.126],[125.117,-2.617]]}},{"type":"Feature","properties":{"boundary_type":"ridge","feature_type":"gpml:MidOceanRidge","polarity":null,"overriding_plate_id":null,"subducting_plate_id":null,"plate_ids":[3003,98044],"name":"MOR of unnamed large oceanic plate"},"geometry":{"type":"LineString","coordinates":[[-130.191,12.311],[-130.06,12.659],[-129.583,12.494],[-129.106,12.328],[-128.63,12.161],[-128.154,11.993],[-127.679,11.825],[-127.205,11.655],[-126.731,11.485],[-126.258,11.314],[-125.786,11.143],[-125.314,10.97],[-124.842,10.797],[-124.371,10.624],[-123.901,10.449],[-123.431,10.274],[-122.962,10.098],[-122.493,9.921],[-122.025,9.744],[-121.557,9.566],[-121.089,9.388],[-120.623,9.209],[-120.156,9.029],[-119.69,8.849],[-119.225,8.668],[-118.76,8.487],[-118.295,8.305],[-117.831,8.122],[-117.367,7.939],[-116.904,7.756],[-116.441,7.572],[-115.979,7.387],[-115.517,7.202],[-115.055,7.017],[-114.593,6.831],[-114.132,6.645],[-113.672,6.458],[-113.211,6.271],[-112.752,6.083],[-112.292,5.895],[-111.832,5.707],[-111.373,5.518],[-110.915,5.329],[-110.456,5.14],[-109.998,4.95],[-109.54,4.76],[-109.082,4.57],[-108.625,4.379],[-108.168,4.188],[-107.711,3.997],[-107.254,3.806],[-106.797,3.614],[-106.341,3.422],[-105.885,3.23],[-105.429,3.038],[-104.973,2.845],[-104.517,2.653],[-104.062,2.46],[-104.277,2.03],[-104.492,1.6],[-104.707,1.169],[-104.922,0.739],[-105.137,0.309],[-105.352,-0.121],[-105.567,-0.551],[-105.782,-0.981],[-105.328,-1.176],[-104.874,-1.371],[-104.42,-1.565],[-103.966,-1.76],[-103.512,-1.954],[-103.057,-2.148],[-102.603,-2.343],[-102.148,-2.537],[-101.694,-2.73],[-101.239,-2.924],[-100.784,-3.117],[-100.329,-3.311],[-99.874,-3.504],[-99.418,-3.697],[-98.962,-3.889],[-98.506,-4.082],[-98.05,-4.274],[-97.594,-4.466],[-97.137,-4.657],[-96.681,-4.848],[-96.223,-5.039],[-95.766,-5.23],[-95.308,-5.42],[-94.851,-5.61],[-94.392,-5.8],[-93.934,-5.989],[-93.475,-6.178],[-93.016,-6.366],[-92.556,-6.554],[-92.096,-6.742],[-91.636,-6.929],[-91.176,-7.116],[-90.715,-7.302],[-90.253,-7.488],[-89.792,-7.673],[-89.329,-7.858],[-88.867,-8.043],[-88.404,-8.226],[-87.94,-8.41],[-87.477,-8.593],[-87.012,-8.775],[-86.548,-8.956],[-86.082,-9.137],[-85.617,-9.318],[-85.151,-9.498],[-84.684,-9.677],[-84.217,-9.856],[-83.749,-10.034],[-83.281,-10.211],[-82.812,-10.388],[-82.343,-10.564],[-81.873,-10.739],[-81.403,-10.913],[-80.932,-11.087],[-80.461,-11.26],[-79.989,-11.433],[-79.516,-11.604],[-79.043,-11.775],[-78.569,-11.945],[-78.095,-12.115],[-77.62,-12.283]]}},{"type":"Feature","properties":{"boundary_type":"ridge","feature_type":"gpml:MidOceanRidge","polarity":null,"overriding_plate_id":null,"subducting_plate_id":null,"plate_ids":[101,401],"name":"siberia-Timan small ridge"},"geometry":{"type":"LineString","coordinates":[[-128.973,-17.865],[-129.364,-18.074],[-129.756,-18.281],[-130.15,-18.488],[-130.544,-18.694],[-130.939,-18.899],[-131.335,-19.104],[-131.569,-18.817],[-131.803,-18.529],[-132.035,-18.242],[-132.487,-18.436],[-132.939,-18.629],[-133.393,-18.821],[-133.847,-19.011],[-134.303,-19.201],[-134.76,-19.389],[-135.217,-19.577],[-135.676,-19.763],[-136.136,-19.948],[-136.597,-20.132],[-137.059,-20.315],[-137.522,-20.496],[-137.986,-20.676],[-138.452,-20.855],[-138.918,-21.033],[-139.385,-21.209],[-139.57,-20.775],[-139.753,-20.341],[-139.935,-19.907],[-140.116,-19.472],[-140.296,-19.037],[-140.475,-18.602],[-140.653,-18.167],[-140.831,-17.732],[-141.007,-17.296],[-141.447,-17.467],[-141.887,-17.636],[-142.328,-17.805],[-142.77,-17.972],[-143.213,-18.139],[-143.657,-18.304],[-144.101,-18.469],[-144.547,-18.632],[-144.993,-18.794],[-145.44,-18.956],[-145.606,-18.522],[-145.771,-18.087],[-145.935,-17.653],[-146.098,-17.218],[-146.26,-16.784],[-146.763,-16.897],[-147.266,-17.009],[-147.77,-17.119],[-148.274,-17.229],[-148.78,-17.337],[-149.285,-17.444],[-149.791,-17.549],[-150.298,-17.654],[-150.806,-17.757],[-151.313,-17.858],[-151.822,-17.959],[-152.331,-18.058],[-152.841,-18.155],[-153.351,-18.252],[-153.862,-18.347],[-154.373,-18.44],[-154.885,-18.533],[-155.398,-18.624],[-155.911,-18.713],[-156.424,-18.801],[-156.938,-18.888],[-157.453,-18.973]]}},{"type":"Feature","properties":{"boundary_type":"ridge","feature_type":"gpml:MidOceanRidge","polarity":null,"overriding_plate_id":null,"subducting_plate_id":null,"plate_ids":[101,22053],"name":"Parana-Rodinia ridge"},"geometry":{"type":"LineString","coordinates":[[81.744,-75.056],[82.599,-74.821],[83.428,-74.583],[84.695,-74.22],[85.905,-73.851],[87.063,-73.475],[88.17,-73.093],[89.229,-72.705],[90.243,-72.312],[91.213,-71.914],[92.143,-71.511],[93.035,-71.104],[93.89,-70.693],[94.711,-70.278],[95.499,-69.86],[96.256,-69.438],[96.984,-69.013],[97.684,-68.585],[98.358,-68.154],[99.007,-67.721],[99.633,-67.285],[100.236,-66.846],[100.818,-66.406],[101.379,-65.963],[101.922,-65.519],[102.446,-65.072],[102.953,-64.624],[103.443,-64.174],[103.918,-63.723]]}},{"type":"Feature","properties":{"boundary_type":"ridge","feature_type":"gpml:MidOceanRidge","polarity":null,"overriding_plate_id":null,"subducting_plate_id":null,"plate_ids":[101,701],"name":"Parana-Rodinia ridge"},"geometry":{"type":"LineString","coordinates":[[103.918,-63.723],[104.356,-63.292],[104.781,-62.859],[105.194,-62.425],[105.595,-61.99],[105.985,-61.554],[106.364,-61.117],[106.732,-60.679],[107.091,-60.24],[107.44,-59.8],[107.78,-59.359],[108.111,-58.917],[108.434,-58.474],[108.749,-58.031],[109.056,-57.586],[109.356,-57.141],[110.219,-57.266],[111.088,-57.385],[111.963,-57.497],[112.272,-57.054],[112.575,-56.609],[112.87,-56.164],[113.158,-55.718],[113.44,-55.272],[113.716,-54.824],[113.986,-54.377],[114.249,-53.928],[114.508,-53.479],[114.76,-53.03],[115.008,-52.58],[115.251,-52.129],[115.488,-51.678]]}},{"type":"Feature","properties":{"boundary_type":"transform","feature_type":"gpml:Transform","polarity":null,"overriding_plate_id":null,"subducting_plate_id":null,"plate_ids":[401,98044],"name":"transform"},"geometry":{"type":"LineString","coordinates":[[-155.001,30.297],[-155.244,29.849],[-155.485,29.401],[-155.724,28.953],[-155.96,28.504],[-156.195,28.055],[-156.428,27.605],[-156.659,27.155],[-156.888,26.705],[-157.116,26.254],[-157.341,25.803]]}},{"type":"Feature","properties":{"boundary_type":"transform","feature_type":"gpml:Transform","polarity":null,"overriding_plate_id":null,"subducting_plate_id":null,"plate_ids":[401,98046],"name":"transform"},"geometry":{"type":"LineString","coordinates":[[-157.341,25.803],[-157.554,25.374],[-157.766,24.944],[-157.976,24.514],[-158.184,24.083],[-158.392,23.652],[-158.547,23.2],[-158.702,22.747],[-158.855,22.294],[-159.007,21.841],[-159.159,21.388],[-159.309,20.935],[-159.459,20.481],[-159.608,20.028],[-159.756,19.574],[-159.903,19.12],[-160.049,18.666]]}},{"type":"Feature","properties":{"boundary_type":"transform","feature_type":"gpml:Transform","polarity":null,"overriding_plate_id":null,"subducting_plate_id":null,"plate_ids":[101,401],"name":"transform"},"geometry":{"type":"LineString","coordinates":[[-160.049,18.666],[-160.182,18.252],[-160.314,17.838],[-160.445,17.424],[-160.576,17.01],[-160.707,16.595],[-160.801,16.115],[-160.895,15.634],[-160.988,15.153],[-161.081,14.672],[-161.174,14.191],[-161.266,13.71],[-161.358,13.229],[-161.45,12.748],[-161.541,12.267],[-161.632,11.786],[-161.722,11.305],[-161.813,10.824],[-161.902,10.343],[-161.992,9.862],[-161.99,9.386],[-161.988,8.91],[-161.985,8.434],[-161.983,7.959],[-161.981,7.483],[-161.979,7.007],[-161.976,6.531],[-161.974,6.056],[-161.972,5.58],[-161.97,5.104],[-161.968,4.628],[-161.965,4.153],[-161.963,3.677],[-161.961,3.201],[-161.959,2.725],[-161.956,2.25],[-161.954,1.774],[-161.952,1.298],[-161.95,0.822],[-161.948,0.347],[-161.896,-0.127],[-161.843,-0.601],[-161.791,-1.074],[-161.739,-1.548],[-161.687,-2.021],[-161.635,-2.495],[-161.583,-2.968],[-161.531,-3.442],[-161.478,-3.916],[-161.426,-4.389],[-161.373,-4.863],[-161.321,-5.336],[-161.268,-5.81],[-161.216,-6.283],[-161.163,-6.757],[-161.11,-7.23],[-161.057,-7.704],[-160.925,-8.178],[-160.793,-8.653],[-160.66,-9.127],[-160.527,-9.601],[-160.394,-10.076],[-160.26,-10.55],[-160.126,-11.024],[-159.992,-11.498],[-159.857,-11.972],[-159.721,-12.446],[-159.585,-12.92],[-159.449,-13.393],[-159.312,-13.867],[-159.174,-14.341],[-159.036,-14.814],[-158.898,-15.288],[-158.72,-15.749],[-158.542,-16.21],[-158.362,-16.671],[-158.182,-17.132],[-158.001,-17.592],[-157.82,-18.053],[-157.637,-18.513],[-157.453,-18.973]]}},{"type":"Feature","properties":{"boundary_type":"transform","feature_type":"gpml:Transform","polarity":null,"overriding_plate_id":null,"subducting_plate_id":null,"plate_ids":[109,714],"name":"Transform"},"geometry":{"type":"LineString","coordinates":[[-145.74,-64.042],[-145.012,-64.422],[-144.263,-64.799],[-143.494,-65.172],[-142.702,-65.54],[-141.888,-65.905],[-141.051,-66.265],[-140.19,-66.62],[-139.303,-66.97],[-138.391,-67.316],[-137.453,-67.656],[-136.487,-67.99],[-135.458,-68.287],[-134.402,-68.578],[-133.318,-68.861],[-132.207,-69.138],[-131.068,-69.407],[-129.9,-69.669],[-128.703,-69.922],[-127.478,-70.168],[-126.431,-70.471],[-125.352,-70.769],[-124.242,-71.06],[-123.098,-71.345],[-121.92,-71.622],[-120.708,-71.892],[-119.462,-72.154],[-118.179,-72.408],[-116.862,-72.653],[-115.508,-72.89],[-114.118,-73.117],[-112.692,-73.335],[-111.23,-73.542],[-109.691,-73.701],[-108.122,-73.848],[-106.527,-73.983],[-104.907,-74.107],[-103.264,-74.218]]}},{"type":"Feature","properties":{"boundary_type":"transform","feature_type":"gpml:Transform","polarity":null,"overriding_plate_id":null,"subducting_plate_id":null,"plate_ids":[5032,5901],"name":"transform"},"geometry":{"type":"LineString","coordinates":[[31.105,-14.709],[31.151,-15.097],[31.197,-15.484],[31.234,-15.966],[31.272,-16.449],[31.309,-16.931],[31.347,-17.413],[31.385,-17.895],[31.423,-18.377],[31.461,-18.859],[31.5,-19.341],[31.539,-19.823],[31.578,-20.305],[31.617,-20.787],[31.657,-21.269],[31.697,-21.751],[31.737,-22.233],[31.777,-22.715],[31.818,-23.197],[31.859,-23.679],[31.9,-24.161],[31.942,-24.642],[31.903,-25.13],[31.864,-25.618],[31.824,-26.106]]}},{"type":"Feature","properties":{"boundary_type":"transform","feature_type":"gpml:Transform","polarity":null,"overriding_plate_id":null,"subducting_plate_id":null,"plate_ids":[801,5032],"name":"transform"},"geometry":{"type":"LineString","coordinates":[[31.43,-7.599],[31.394,-8.037],[31.357,-8.476],[31.321,-8.915],[31.285,-9.354]]}},{"type":"Feature","properties":{"boundary_type":"transform","feature_type":"gpml:Transform","polarity":null,"overriding_plate_id":null,"subducting_plate_id":null,"plate_ids":[5031,5032],"name":"transform"},"geometry":{"type":"LineString","coordinates":[[31.285,-9.354],[31.246,-9.822],[31.207,-10.289],[31.168,-10.757],[31.129,-11.224],[31.089,-11.692],[31.05,-12.159],[31.01,-12.627],[30.971,-13.094],[30.931,-13.562],[30.947,-13.939],[30.964,-14.316],[30.98,-14.694]]}},{"type":"Feature","properties":{"boundary_type":"transform","feature_type":"gpml:Transform","polarity":null,"overriding_plate_id":null,"subducting_plate_id":null,"plate_ids":[5901,98043],"name":"ANS transform"},"geometry":{"type":"LineString","coordinates":[[4.853,-20.071],[4.879,-19.627],[4.904,-19.184],[4.93,-18.741],[4.955,-18.297],[4.98,-17.854]]}},{"type":"Feature","properties":{"boundary_type":"transform","feature_type":"gpml:Transform","polarity":null,"overriding_plate_id":null,"subducting_plate_id":null,"plate_ids":[77144,77148],"name":"Hoggar transform"},"geometry":{"type":"LineString","coordinates":[[-9.547,-46.169],[-9.797,-46.527],[-10.05,-46.884],[-10.307,-47.241],[-10.728,-47.557],[-11.155,-47.872],[-11.586,-48.186],[-12.022,-48.498],[-12.464,-48.808],[-12.921,-49.135],[-13.383,-49.46],[-13.852,-49.784],[-14.327,-50.106],[-14.378,-50.134]]}},{"type":"Feature","properties":{"boundary_type":"transform","feature_type":"gpml:Transform","polarity":null,"overriding_plate_id":null,"subducting_plate_id":null,"plate_ids":[714,77147],"name":"Iforas granulitic unit transform"},"geometry":{"type":"LineString","coordinates":[[-14.713,-51.724],[-14.13,-51.55],[-13.647,-51.374],[-13.166,-51.196],[-12.731,-51.087]]}},{"type":"Feature","properties":{"boundary_type":"transform","feature_type":"gpml:Transform","polarity":null,"overriding_plate_id":null,"subducting_plate_id":null,"plate_ids":[401,3003],"name":"Siberia transform"},"geometry":{"type":"LineString","coordinates":[[-138.796,-11.949],[-138.371,-12.163],[-137.946,-12.377],[-137.519,-12.59],[-137.092,-12.803],[-136.664,-13.015],[-136.236,-13.226],[-135.806,-13.436],[-135.376,-13.646],[-134.946,-13.855],[-134.478,-14.038],[-134.01,-14.22],[-133.54,-14.402],[-133.07,-14.582],[-132.6,-14.762],[-132.128,-14.94],[-131.656,-15.118],[-131.183,-15.294],[-130.709,-15.47],[-130.235,-15.644],[-129.82,-15.782],[-129.406,-15.919],[-128.99,-16.055]]}},{"type":"Feature","properties":{"boundary_type":"transform","feature_type":"gpml:Transform","polarity":null,"overriding_plate_id":null,"subducting_plate_id":null,"plate_ids":[580,801],"name":"Tarim transform"},"geometry":{"type":"LineString","coordinates":[[9.058,34.273],[9.059,34.683],[9.06,35.094],[9.096,35.565],[9.132,36.036],[9.169,36.507],[9.206,36.978],[9.602,37.339],[10.002,37.699],[10.405,38.057],[10.812,38.414],[11.224,38.769],[11.639,39.123],[12.059,39.476],[12.483,39.827],[12.923,40.139],[13.367,40.45],[13.815,40.758],[14.267,41.065],[14.723,41.371],[15.184,41.674],[15.649,41.976],[16.279,42.072],[16.911,42.165],[17.544,42.254],[18.18,42.34],[18.817,42.422]]}},{"type":"Feature","properties":{"boundary_type":"transform","feature_type":"gpml:Transform","polarity":null,"overriding_plate_id":null,"subducting_plate_id":null,"plate_ids":[701,801],"name":"Transform"},"geometry":{"type":"LineString","coordinates":[[89.391,-27.612],[89.852,-27.406],[90.311,-27.198],[90.768,-26.99],[91.223,-26.779],[91.631,-26.485],[92.037,-26.189],[92.441,-25.892],[92.843,-25.594],[93.244,-25.295],[93.642,-24.995],[94.038,-24.694],[94.432,-24.391],[94.824,-24.088],[95.215,-23.784],[95.604,-23.478],[95.99,-23.172],[96.376,-22.865],[96.759,-22.557],[97.141,-22.248],[97.521,-21.938],[98.007,-21.734],[98.491,-21.529],[98.975,-21.322],[99.457,-21.114],[99.938,-20.905],[100.417,-20.694],[100.895,-20.482],[101.372,-20.268],[101.847,-20.054],[102.321,-19.838],[102.794,-19.62],[103.265,-19.402],[103.736,-19.182],[104.204,-18.961],[104.626,-18.688],[105.046,-18.413],[105.464,-18.137],[105.882,-17.861],[106.298,-17.583],[106.712,-17.305],[107.126,-17.026],[107.538,-16.746],[107.949,-16.465],[108.359,-16.183],[108.767,-15.901],[109.175,-15.618],[109.581,-15.334],[109.987,-15.049],[110.431,-14.804],[110.874,-14.557],[111.316,-14.31],[111.757,-14.062],[112.197,-13.813],[112.636,-13.563],[113.074,-13.313],[113.512,-13.061],[113.948,-12.809],[114.384,-12.557],[114.819,-12.303],[115.253,-12.049],[115.686,-11.795],[116.068,-11.625],[116.45,-11.456],[116.831,-11.286],[117.212,-11.115],[117.593,-10.944],[118.05,-10.834],[118.507,-10.723],[118.964,-10.611],[119.42,-10.499],[119.877,-10.386],[120.332,-10.273],[120.791,-10.148],[121.25,-10.023],[121.709,-9.897],[122.167,-9.771],[122.624,-9.644],[123.082,-9.516],[123.539,-9.388],[123.995,-9.259],[124.452,-9.129],[124.908,-8.999],[125.363,-8.869],[125.819,-8.737],[126.274,-8.606],[126.728,-8.474],[127.183,-8.341],[127.665,-8.241],[128.146,-8.141],[128.628,-8.041],[129.109,-7.939],[129.59,-7.838]]}},{"type":"Feature","properties":{"boundary_type":"transform","feature_type":"gpml:Transform","polarity":null,"overriding_plate_id":null,"subducting_plate_id":null,"plate_ids":[801,5032],"name":"TOAST-DML compressive(?) transform"},"geometry":{"type":"LineString","coordinates":[[77.583,-14.379],[77.881,-14.235],[78.178,-14.091],[78.622,-13.91],[79.066,-13.728],[79.509,-13.545],[79.951,-13.361],[80.392,-13.177],[80.833,-12.991],[81.273,-12.805],[81.712,-12.619],[82.151,-12.431],[82.589,-12.243]]}},{"type":"Feature","properties":{"boundary_type":"transform","feature_type":"gpml:Transform","polarity":null,"overriding_plate_id":null,"subducting_plate_id":null,"plate_ids":[801,5032],"name":"Mawson sea transform"},"geometry":{"type":"LineString","coordinates":[[31.43,-7.599],[31.871,-7.419],[32.311,-7.239],[32.751,-7.059],[33.191,-6.878],[33.631,-6.697],[34.07,-6.515],[34.509,-6.333],[34.947,-6.151],[35.386,-5.969],[35.824,-5.786],[36.261,-5.602],[36.699,-5.419],[37.136,-5.235],[37.573,-5.05],[38.01,-4.866],[38.446,-4.681],[38.882,-4.496],[39.318,-4.31],[39.806,-4.303],[40.294,-4.295],[40.782,-4.287],[41.27,-4.279],[41.758,-4.27],[42.246,-4.261],[42.734,-4.252],[43.222,-4.243],[43.71,-4.233],[44.198,-4.223],[44.686,-4.212],[45.174,-4.201],[45.662,-4.19],[46.15,-4.179],[46.638,-4.167],[47.126,-4.155],[47.614,-4.143],[48.095,-4.159],[48.576,-4.174],[49.057,-4.189],[49.538,-4.204],[50.019,-4.218],[50.5,-4.233],[50.982,-4.247],[51.463,-4.26],[51.944,-4.273],[52.425,-4.286],[52.906,-4.299],[53.388,-4.312],[53.869,-4.324],[54.35,-4.335],[54.832,-4.347],[55.313,-4.358],[55.794,-4.369],[56.276,-4.38],[56.757,-4.39],[57.238,-4.4],[57.722,-4.393],[58.205,-4.387],[58.689,-4.38],[59.172,-4.372],[59.655,-4.364],[60.139,-4.356],[60.622,-4.348],[61.106,-4.34],[61.589,-4.331],[62.072,-4.321],[62.556,-4.312],[63.039,-4.302],[63.522,-4.292],[64.005,-4.281],[64.489,-4.271],[64.972,-4.26],[65.455,-4.248],[65.938,-4.236],[66.422,-4.225],[66.905,-4.212],[67.388,-4.2],[67.871,-4.187],[68.354,-4.174],[68.837,-4.16],[69.32,-4.146],[69.353,-4.134]]}},{"type":"Feature","properties":{"boundary_type":"transform","feature_type":"gpml:Transform","polarity":null,"overriding_plate_id":null,"subducting_plate_id":null,"plate_ids":[701,5032],"name":"Azania-Kalahari transform"},"geometry":{"type":"LineString","coordinates":[[68.446,-20.233],[68.898,-20.057],[69.349,-19.88],[69.799,-19.702],[70.248,-19.523],[70.696,-19.343],[71.143,-19.162],[71.589,-18.979],[72.034,-18.796],[72.513,-18.634],[72.991,-18.471],[73.468,-18.307],[73.944,-18.142],[74.419,-17.976],[74.894,-17.808],[75.367,-17.64],[75.84,-17.47],[76.312,-17.299],[76.783,-17.127],[77.253,-16.954],[77.722,-16.78],[78.19,-16.605],[78.657,-16.429],[79.036,-16.162],[79.413,-15.896],[79.79,-15.628],[80.165,-15.36],[80.54,-15.092],[80.913,-14.822],[81.286,-14.552],[81.657,-14.282],[82.028,-14.011],[82.398,-13.739],[82.774,-13.529],[83.15,-13.318]]}},{"type":"Feature","properties":{"boundary_type":"transform","feature_type":"gpml:Transform","polarity":null,"overriding_plate_id":null,"subducting_plate_id":null,"plate_ids":[109,714],"name":"Bassaride-Avalon transform"},"geometry":{"type":"LineString","coordinates":[[-91.664,-58.06],[-91.418,-57.627],[-91.179,-57.195],[-90.944,-56.761],[-90.715,-56.328],[-90.491,-55.894],[-90.272,-55.459],[-90.058,-55.025],[-90.168,-54.64],[-90.276,-54.255],[-90.381,-53.871],[-90.485,-53.486]]}},{"type":"Feature","properties":{"boundary_type":"transform","feature_type":"gpml:Transform","polarity":null,"overriding_plate_id":null,"subducting_plate_id":null,"plate_ids":[801,98044],"name":"India closure transform"},"geometry":{"type":"LineString","coordinates":[[-6.018,17.308],[-5.882,16.887],[-5.746,16.465],[-5.61,16.044],[-5.476,15.623],[-5.41,15.182],[-5.345,14.741],[-5.28,14.3],[-5.215,13.859],[-5.15,13.418],[-5.086,12.978],[-5.022,12.537]]}},{"type":"Feature","properties":{"boundary_type":"transform","feature_type":"gpml:Transform","polarity":null,"overriding_plate_id":null,"subducting_plate_id":null,"plate_ids":[801,98043],"name":"India closure transform"},"geometry":{"type":"LineString","coordinates":[[-5.022,12.537],[-4.959,12.099],[-4.896,11.662],[-4.833,11.225],[-4.77,10.788],[-4.708,10.351],[-4.645,9.913],[-4.468,9.474],[-4.292,9.034],[-4.116,8.593],[-3.941,8.153],[-3.765,7.713],[-3.591,7.273],[-3.416,6.832],[-3.242,6.392],[-3.068,5.951],[-2.745,5.624],[-2.421,5.296],[-2.099,4.967],[-1.776,4.639],[-1.454,4.311],[-1.132,3.982],[-0.81,3.653],[-0.489,3.325],[-0.167,2.996],[0.154,2.667],[0.475,2.338],[0.795,2.008],[1.159,1.692],[1.522,1.376],[1.885,1.06],[2.248,0.743],[2.611,0.427],[2.974,0.111],[3.337,-0.206],[3.7,-0.522],[4.063,-0.838],[4.426,-1.155],[4.789,-1.471],[5.153,-1.787],[5.516,-2.103],[5.88,-2.419],[6.243,-2.735],[6.607,-3.051],[6.972,-3.365],[7.337,-3.678],[7.703,-3.991],[8.068,-4.304],[8.434,-4.616],[8.801,-4.929],[9.167,-5.241],[9.534,-5.553],[9.902,-5.865],[10.27,-6.177],[10.638,-6.488],[11.007,-6.799],[11.376,-7.11],[11.745,-7.421],[12.116,-7.731],[12.486,-8.041],[12.858,-8.351]]}},{"type":"Feature","properties":{"boundary_type":"transform","feature_type":"gpml:Transform","polarity":null,"overriding_plate_id":null,"subducting_plate_id":null,"plate_ids":[801,98044],"name":"Transform"},"geometry":{"type":"LineString","coordinates":[[17.465,65.171],[18.626,65.257],[19.794,65.334],[20.968,65.402],[22.148,65.461],[23.334,65.511],[24.523,65.551],[25.715,65.582],[26.91,65.604],[28.107,65.616],[29.304,65.619],[30.501,65.613],[31.697,65.597],[32.891,65.572],[34.082,65.537],[35.27,65.493],[36.454,65.44],[37.642,65.471],[38.832,65.493],[40.024,65.505],[41.217,65.508],[42.409,65.502],[43.601,65.486],[44.79,65.461],[45.977,65.427],[47.161,65.383],[48.34,65.33],[49.514,65.268],[50.682,65.197],[51.843,65.117],[52.997,65.028],[54.143,64.93],[55.28,64.823],[56.408,64.708],[57.526,64.584],[58.634,64.452],[59.73,64.312],[60.815,64.163],[61.889,64.007],[62.95,63.842],[64.062,63.82],[65.173,63.788],[66.281,63.749],[67.385,63.7],[68.485,63.644],[69.581,63.579],[70.671,63.505],[71.755,63.424],[72.833,63.334],[73.904,63.236],[74.967,63.131],[76.022,63.017],[77.069,62.895],[78.107,62.766],[79.136,62.629],[80.155,62.485],[81.164,62.334],[82.154,62.169],[83.134,61.997],[84.103,61.819],[85.061,61.634],[86.006,61.442],[86.94,61.243],[87.862,61.039],[88.772,60.828],[89.67,60.611],[90.556,60.388],[91.43,60.159],[92.291,59.925],[93.141,59.685],[93.978,59.44],[94.802,59.189],[95.615,58.934],[96.416,58.673],[97.148,58.379],[97.868,58.08],[98.576,57.778],[99.272,57.472],[99.957,57.162],[100.63,56.849],[101.292,56.531],[101.942,56.211],[102.582,55.887],[103.212,55.56],[103.831,55.229],[104.439,54.896],[105.038,54.559],[105.627,54.22],[106.206,53.878],[106.775,53.533],[107.514,53.376],[108.247,53.214],[108.975,53.048],[109.697,52.877],[110.413,52.702],[111.123,52.523],[111.828,52.34],[112.526,52.152],[113.219,51.96],[113.906,51.765],[114.587,51.565],[115.261,51.361],[115.93,51.154],[116.593,50.943]]}},{"type":"Feature","properties":{"boundary_type":"transform","feature_type":"gpml:Transform","polarity":null,"overriding_plate_id":null,"subducting_plate_id":null,"plate_ids":[580,98044],"name":"Transform closing Tarim plate"},"geometry":{"type":"LineString","coordinates":[[-6.473,16.757],[-6.815,17.129],[-7.159,17.501],[-7.504,17.872],[-7.851,18.242],[-8.199,18.612],[-8.548,18.981],[-8.9,19.35],[-9.252,19.718],[-9.607,20.085],[-9.963,20.452],[-10.188,20.899],[-10.414,21.347],[-10.642,21.794],[-10.871,22.241],[-11.101,22.688],[-11.333,23.134],[-11.567,23.58],[-11.802,24.026],[-12.039,24.471],[-12.278,24.916],[-12.518,25.361],[-12.76,25.805],[-13.004,26.248],[-13.249,26.692],[-13.497,27.135],[-13.747,27.577],[-13.998,28.019],[-14.252,28.461],[-14.508,28.902],[-14.766,29.342],[-15.026,29.782],[-15.288,30.222],[-15.178,30.681],[-15.067,31.14],[-14.954,31.599],[-14.841,32.058],[-14.726,32.517],[-14.61,32.976],[-14.493,33.435],[-14.374,33.893],[-14.255,34.352],[-14.134,34.81],[-14.011,35.268],[-13.888,35.727],[-13.762,36.185],[-13.668,36.666],[-13.572,37.147],[-13.476,37.627],[-13.377,38.108],[-13.278,38.589],[-13.177,39.07],[-13.075,39.55],[-12.972,40.031],[-12.867,40.511],[-12.76,40.991],[-12.652,41.471],[-12.542,41.951],[-12.431,42.431],[-12.084,42.833],[-11.731,43.233],[-11.375,43.632],[-11.013,44.03],[-10.647,44.427],[-10.275,44.823],[-9.899,45.217],[-9.517,45.61],[-9.13,46.002],[-8.737,46.393],[-8.339,46.782],[-7.935,47.17]]}},{"type":"Feature","properties":{"boundary_type":"transform","feature_type":"gpml:Transform","polarity":null,"overriding_plate_id":null,"subducting_plate_id":null,"plate_ids":[715,77148],"name":"Hoggar transform"},"geometry":{"type":"LineString","coordinates":[[7.525,-48.243],[7.432,-48.592],[7.339,-48.942],[7.244,-49.291],[6.887,-49.707],[6.525,-50.123],[6.156,-50.537],[5.781,-50.95],[5.399,-51.361],[5.01,-51.772],[4.77,-52.217],[4.525,-52.661],[4.275,-53.105],[4.02,-53.548],[3.76,-53.991],[3.494,-54.433],[3.222,-54.875],[2.983,-55.314],[2.738,-55.752],[2.488,-56.189],[2.232,-56.626],[1.97,-57.063],[1.702,-57.499],[1.428,-57.934]]}},{"type":"Feature","properties":{"boundary_type":"transform","feature_type":"gpml:Transform","polarity":null,"overriding_plate_id":null,"subducting_plate_id":null,"plate_ids":[701,715],"name":"Congo-SM transform"},"geometry":{"type":"LineString","coordinates":[[34.222,-26.461],[34.133,-26.955],[34.043,-27.448],[33.952,-27.942],[33.861,-28.435],[33.764,-28.927],[33.666,-29.418],[33.568,-29.909],[33.468,-30.4],[33.368,-30.89],[33.266,-31.381],[33.163,-31.872],[33.06,-32.363],[32.955,-32.853],[32.849,-33.343],[32.742,-33.834],[32.633,-34.324],[32.523,-34.814],[32.412,-35.304],[32.3,-35.794],[32.186,-36.284],[32.071,-36.774],[31.954,-37.263],[31.836,-37.753],[31.716,-38.242],[31.594,-38.732],[31.471,-39.221],[31.346,-39.71],[31.22,-40.199],[31.091,-40.687],[30.961,-41.176],[30.828,-41.664],[30.694,-42.153],[30.558,-42.641],[30.419,-43.129],[30.278,-43.617],[30.135,-44.104],[29.989,-44.592],[29.842,-45.079],[29.691,-45.566],[29.538,-46.053],[29.457,-46.526],[29.375,-46.998],[29.292,-47.471],[29.207,-47.943],[29.121,-48.416],[29.032,-48.888],[28.943,-49.361],[28.851,-49.833],[28.758,-50.305],[28.663,-50.778],[28.566,-51.25],[28.466,-51.722],[28.372,-52.185],[28.276,-52.648],[28.178,-53.112],[28.078,-53.575],[27.975,-54.038],[27.87,-54.501],[27.763,-54.964],[27.653,-55.426],[27.541,-55.889],[27.426,-56.352],[27.308,-56.814],[27.187,-57.277],[27.063,-57.739],[26.936,-58.201],[26.806,-58.663],[26.588,-59.144],[26.363,-59.625],[26.132,-60.105],[25.894,-60.585],[25.649,-61.064],[25.397,-61.543],[25.137,-62.021],[24.868,-62.499]]}},{"type":"Feature","properties":{"boundary_type":"transform","feature_type":"gpml:Transform","polarity":null,"overriding_plate_id":null,"subducting_plate_id":null,"plate_ids":[714,715],"name":"Congo-SM transform"},"geometry":{"type":"LineString","coordinates":[[24.868,-62.499],[24.642,-62.889],[24.41,-63.279],[24.171,-63.668],[23.878,-64.057],[23.577,-64.445]]}},{"type":"Feature","properties":{"boundary_type":"transform","feature_type":"gpml:Transform","polarity":null,"overriding_plate_id":null,"subducting_plate_id":null,"plate_ids":[801,98046],"name":"Antarctica-Laurentia Transform"},"geometry":{"type":"LineString","coordinates":[[125.117,-2.617],[125.123,-2.603]]}},{"type":"Feature","properties":{"boundary_type":"transform","feature_type":"gpml:Transform","polarity":null,"overriding_plate_id":null,"subducting_plate_id":null,"plate_ids":[101,98046],"name":"Antarctica-Laurentia Transform"},"geometry":{"type":"LineString","coordinates":[[125.123,-2.603],[125.304,-2.176],[125.485,-1.75],[125.666,-1.323],[125.847,-0.896],[126.028,-0.469],[126.209,-0.042],[126.39,0.384],[126.571,0.811],[126.818,1.219],[127.065,1.627],[127.312,2.035],[127.559,2.442],[127.807,2.85],[128.054,3.258],[128.302,3.665],[128.55,4.073],[128.798,4.48],[129.047,4.888],[129.296,5.295],[129.632,5.598],[129.968,5.9],[130.305,6.202],[130.642,6.504],[130.979,6.805]]}},{"type":"Feature","properties":{"boundary_type":"transform","feature_type":"gpml:Transform","polarity":null,"overriding_plate_id":null,"subducting_plate_id":null,"plate_ids":[701,22053],"name":"Parana transform"},"geometry":{"type":"LineString","coordinates":[[103.918,-63.723],[102.926,-63.597],[102.044,-63.433],[101.171,-63.263],[100.308,-63.089],[99.456,-62.909],[98.615,-62.724],[97.784,-62.534],[96.854,-62.281],[95.941,-62.021],[95.042,-61.755],[94.16,-61.484],[93.292,-61.207],[92.44,-60.924],[91.603,-60.637],[90.986,-60.316],[90.381,-59.993],[89.787,-59.667],[89.205,-59.338],[88.634,-59.007],[88.074,-58.673],[87.525,-58.337]]}},{"type":"Feature","properties":{"boundary_type":"transform","feature_type":"gpml:Transform","polarity":null,"overriding_plate_id":null,"subducting_plate_id":null,"plate_ids":[101,701],"name":"Kalahari-Amazonia transform"},"geometry":{"type":"LineString","coordinates":[[115.488,-51.678],[116.051,-51.365],[116.607,-51.049],[117.155,-50.73],[117.696,-50.409],[118.229,-50.086],[118.755,-49.76],[119.274,-49.431],[119.786,-49.101],[120.292,-48.768],[120.79,-48.433],[121.282,-48.095],[121.586,-47.664],[121.885,-47.232],[122.179,-46.799],[122.468,-46.366],[122.752,-45.932],[123.033,-45.497],[123.309,-45.061],[123.58,-44.625],[123.883,-44.186],[124.182,-43.746],[124.476,-43.305],[124.765,-42.863],[125.051,-42.421],[125.333,-41.978],[125.611,-41.535],[125.885,-41.09],[126.155,-40.645],[126.422,-40.2],[126.685,-39.754],[126.871,-39.306],[127.054,-38.859],[127.234,-38.411],[127.413,-37.963],[127.589,-37.514],[127.764,-37.066],[127.936,-36.617],[128.106,-36.168],[128.274,-35.718]]}},{"type":"Feature","properties":{"boundary_type":"transform","feature_type":"gpml:Transform","polarity":null,"overriding_plate_id":null,"subducting_plate_id":null,"plate_ids":[98044,98046],"name":"Ocean transform"},"geometry":{"type":"LineString","coordinates":[[124.948,56.205],[124.26,55.895],[123.583,55.58],[122.917,55.262],[122.261,54.94],[121.616,54.615],[120.981,54.287],[120.279,54.031],[119.586,53.771],[118.901,53.507],[118.224,53.239],[117.556,52.968],[116.897,52.692],[116.246,52.413]]}},{"type":"Feature","properties":{"boundary_type":"subduction","feature_type":"gpml:SubductionZone","polarity":"Right","overriding_plate_id":101,"subducting_plate_id":3003,"plate_ids":[101,3003],"name":"Avalonia transform"},"geometry":{"type":"LineString","coordinates":[[-111.167,-40.066],[-111.277,-40.442],[-111.388,-40.819],[-111.501,-41.195],[-111.615,-41.571]]}},{"type":"Feature","properties":{"boundary_type":"subduction","feature_type":"gpml:SubductionZone","polarity":"Right","overriding_plate_id":109,"subducting_plate_id":3003,"plate_ids":[109,3003],"name":"Avalonia transform"},"geometry":{"type":"LineString","coordinates":[[-111.615,-41.571],[-111.758,-42.038],[-111.903,-42.505],[-112.051,-42.972],[-112.201,-43.439],[-112.353,-43.906],[-112.508,-44.372],[-112.665,-44.839],[-112.824,-45.305],[-112.987,-45.77],[-113.152,-46.236],[-113.32,-46.701],[-113.53,-47.167],[-113.744,-47.633],[-113.961,-48.098],[-114.183,-48.563],[-114.409,-49.027],[-114.639,-49.491],[-114.874,-49.955],[-115.113,-50.418],[-115.356,-50.88],[-115.605,-51.342],[-115.859,-51.804],[-116.118,-52.265],[-116.382,-52.725],[-116.652,-53.185],[-116.928,-53.644],[-117.108,-54.112],[-117.291,-54.581],[-117.479,-55.049],[-117.672,-55.516],[-117.869,-55.984],[-118.071,-56.451],[-118.278,-56.918],[-118.49,-57.384],[-118.707,-57.85],[-118.931,-58.316],[-119.16,-58.781],[-119.395,-59.246],[-119.637,-59.71],[-119.886,-60.174],[-120.142,-60.638],[-120.406,-61.101],[-120.677,-61.563]]}},{"type":"Feature","properties":{"boundary_type":"transform","feature_type":"gpml:Transform","polarity":null,"overriding_plate_id":null,"subducting_plate_id":null,"plate_ids":[714,77147],"name":"Iforas granulitic unit transform"},"geometry":{"type":"LineString","coordinates":[[-21.781,-46.257],[-21.698,-45.886],[-21.616,-45.514],[-21.535,-45.142],[-21.352,-44.833],[-21.171,-44.524],[-20.992,-44.214]]}},{"type":"Feature","properties":{"boundary_type":"transform","feature_type":"gpml:Transform","polarity":null,"overriding_plate_id":null,"subducting_plate_id":null,"plate_ids":[714,77144],"name":"Iforas granulitic unit transform"},"geometry":{"type":"LineString","coordinates":[[-20.992,-44.214],[-20.9,-44.054],[-20.972,-43.585],[-21.043,-43.116],[-21.113,-42.646],[-21.491,-42.242],[-21.865,-41.836],[-22.233,-41.43],[-22.598,-41.022],[-22.957,-40.613],[-23.313,-40.203],[-23.664,-39.791],[-24.011,-39.379]]}},{"type":"Feature","properties":{"boundary_type":"transform","feature_type":"gpml:Transform","polarity":null,"overriding_plate_id":null,"subducting_plate_id":null,"plate_ids":[714,22053],"name":"Goias Massif-WAC transform"},"geometry":{"type":"LineString","coordinates":[[49.037,-61.358],[49.475,-61.785],[49.925,-62.21],[50.388,-62.633],[50.865,-63.056],[51.355,-63.476],[51.86,-63.895],[52.381,-64.311],[52.917,-64.726],[53.47,-65.139],[54.04,-65.55],[54.629,-65.959],[55.237,-66.365],[55.864,-66.769],[56.513,-67.17],[57.183,-67.569],[57.877,-67.965],[58.594,-68.358],[59.336,-68.747],[60.17,-69.132],[61.034,-69.513],[61.928,-69.889],[62.855,-70.261],[63.816,-70.627],[64.813,-70.989],[65.846,-71.345],[66.918,-71.695],[68.029,-72.039],[69.183,-72.376],[70.379,-72.706],[71.62,-73.029],[72.907,-73.345],[74.241,-73.652],[75.625,-73.95],[77.059,-74.239],[78.544,-74.518],[80.081,-74.788],[81.671,-75.046],[81.744,-75.056]]}},{"type":"Feature","properties":{"boundary_type":"transform","feature_type":"gpml:Transform","polarity":null,"overriding_plate_id":null,"subducting_plate_id":null,"plate_ids":[101,714],"name":"Goias Massif-WAC transform"},"geometry":{"type":"LineString","coordinates":[[81.744,-75.056],[83.401,-75.286],[85.107,-75.504],[86.863,-75.709],[88.667,-75.901],[90.518,-76.079],[92.414,-76.243],[94.353,-76.392],[96.332,-76.526],[98.348,-76.644],[100.396,-76.746],[102.473,-76.831],[104.581,-76.856],[106.695,-76.864],[108.808,-76.855],[110.915,-76.828],[113.012,-76.784],[115.092,-76.724],[117.151,-76.647],[119.184,-76.553],[121.188,-76.443]]}},{"type":"Feature","properties":{"boundary_type":"transform","feature_type":"gpml:Transform","polarity":null,"overriding_plate_id":null,"subducting_plate_id":null,"plate_ids":[77148,98043],"name":""},"geometry":{"type":"LineString","coordinates":[[-15.334,-37.102],[-15.792,-37.17],[-16.251,-37.237],[-16.711,-37.301],[-17.211,-37.462],[-17.713,-37.621],[-18.217,-37.777],[-18.723,-37.932],[-19.232,-38.084],[-19.742,-38.234],[-20.255,-38.382]]}},{"type":"Feature","properties":{"boundary_type":"transform","feature_type":"gpml:Transform","polarity":null,"overriding_plate_id":null,"subducting_plate_id":null,"plate_ids":[77144,98043],"name":""},"geometry":{"type":"LineString","coordinates":[[-20.255,-38.382],[-20.785,-38.531],[-21.317,-38.679],[-21.852,-38.824],[-22.388,-38.966],[-22.927,-39.106],[-23.468,-39.244],[-24.011,-39.379]]}},{"type":"Feature","properties":{"boundary_type":"transform","feature_type":"gpml:Transform","polarity":null,"overriding_plate_id":null,"subducting_plate_id":null,"plate_ids":[714,98043],"name":""},"geometry":{"type":"LineString","coordinates":[[-24.011,-39.379],[-24.554,-39.511],[-24.972,-39.646],[-25.392,-39.778],[-25.813,-39.91]]}}]}