{"type":"FeatureCollection","meta":{"model":"Cao2024","reconstruction_time_ma":835.0,"anchor_plate_id":0,"pygplates_version":"1.0.0","tessellate_degrees":0.5,"polarity_convention":"gpml:subductionPolarity. 'Left'/'Right' names the side of the line, in vertex order, on which the OVERRIDING plate lies. Triangles are drawn on that side.","antimeridian":"Lines are NOT split at +/-180 deg. The renderer works in 3D unit vectors where the dateline is not special; splitting would only add spurious breaks. Do not treat this as RFC 7946 GIS-ready 2D data."},"features":[{"type":"Feature","properties":{"boundary_type":"subduction","feature_type":"gpml:SubductionZone","polarity":"Left","overriding_plate_id":580,"subducting_plate_id":701,"plate_ids":[580,701],"name":"Tarim subduction"},"geometry":{"type":"LineString","coordinates":[[-80.163,0.608],[-79.986,1.056],[-79.809,1.504],[-79.631,1.952],[-79.454,2.4],[-79.276,2.848],[-79.099,3.296],[-78.921,3.745],[-78.743,4.193],[-78.564,4.64],[-78.386,5.088],[-78.207,5.536],[-78.028,5.984],[-77.849,6.432],[-77.669,6.879],[-77.489,7.327],[-77.309,7.775],[-77.128,8.222],[-76.947,8.669],[-76.765,9.117],[-76.583,9.564],[-76.401,10.011],[-76.454,10.481],[-76.507,10.951],[-76.561,11.42],[-76.614,11.89],[-76.668,12.36],[-76.722,12.83],[-76.776,13.3],[-76.83,13.769],[-76.885,14.239],[-76.94,14.709],[-76.995,15.178],[-77.05,15.648]]}},{"type":"Feature","properties":{"boundary_type":"subduction","feature_type":"gpml:SubductionZone","polarity":"Left","overriding_plate_id":580,"subducting_plate_id":505,"plate_ids":[505,580],"name":"Tarim subduction"},"geometry":{"type":"LineString","coordinates":[[-77.05,15.648],[-77.093,16.015],[-77.137,16.382],[-77.181,16.749],[-77.474,17.156],[-77.768,17.563],[-78.064,17.97],[-78.361,18.376],[-78.659,18.781],[-78.959,19.186],[-79.26,19.591],[-79.563,19.995],[-79.868,20.398],[-80.174,20.801],[-80.481,21.204],[-80.739,21.603],[-80.997,22.002],[-81.257,22.401],[-81.519,22.799],[-81.782,23.197],[-82.047,23.594],[-82.313,23.991],[-82.581,24.387],[-82.851,24.783],[-83.122,25.179],[-83.395,25.574],[-83.67,25.968],[-83.947,26.362],[-84.216,26.758],[-84.488,27.154],[-84.761,27.55],[-85.036,27.945],[-85.313,28.339],[-85.592,28.733],[-85.873,29.126],[-86.157,29.519],[-86.427,29.933],[-86.7,30.346],[-86.975,30.759],[-87.252,31.171],[-87.532,31.583],[-87.814,31.993],[-88.099,32.404],[-88.387,32.814],[-88.677,33.223],[-88.969,33.631],[-89.265,34.039],[-89.563,34.446],[-89.922,34.823],[-90.284,35.2],[-90.649,35.576],[-91.018,35.95],[-91.39,36.324],[-91.766,36.696],[-92.146,37.067],[-92.529,37.437]]}},{"type":"Feature","properties":{"boundary_type":"subduction","feature_type":"gpml:SubductionZone","polarity":"Right","overriding_plate_id":501,"subducting_plate_id":505,"plate_ids":[501,505],"name":"India SZ"},"geometry":{"type":"LineString","coordinates":[[71.82,49.985],[71.114,50.091],[70.404,50.192],[69.692,50.289],[68.977,50.381],[68.259,50.469],[67.539,50.553],[66.816,50.632],[66.091,50.707],[65.364,50.777],[64.634,50.842],[63.987,51.112],[63.333,51.378],[62.671,51.64],[62.001,51.898],[61.323,52.153],[60.638,52.404],[59.945,52.65],[59.245,52.893],[58.536,53.131],[57.82,53.366],[57.562,53.838],[57.297,54.31],[57.027,54.781],[56.75,55.251],[56.467,55.721],[56.177,56.191],[55.879,56.659],[55.575,57.127],[55.262,57.594],[54.941,58.06],[54.612,58.526],[54.274,58.99],[53.926,59.454],[53.569,59.917],[53.202,60.378],[52.825,60.839],[52.436,61.299],[52.036,61.757],[51.623,62.214],[51.198,62.67],[50.76,63.125],[49.831,63.359],[48.886,63.586],[47.927,63.808],[46.952,64.022],[45.963,64.231],[44.959,64.432],[43.94,64.627],[42.907,64.814],[41.859,64.994],[40.798,65.167],[39.723,65.332],[38.635,65.489],[37.534,65.639],[36.601,65.908],[35.648,66.172],[34.675,66.429],[33.682,66.681],[32.669,66.926],[31.636,67.164],[30.583,67.396],[29.509,67.621],[28.414,67.838],[27.3,68.048],[26.165,68.251],[25.011,68.445],[23.837,68.632],[22.643,68.81],[21.431,68.98],[20.103,69.127],[18.757,69.265],[17.394,69.391],[16.016,69.507],[14.623,69.612],[13.218,69.706],[11.801,69.788],[10.373,69.859],[8.937,69.919],[7.493,69.967],[6.044,70.003],[4.59,70.027],[3.134,70.039],[1.676,70.04],[0.22,70.028],[-1.234,70.005],[-2.684,69.97],[-3.965,70.092],[-5.26,70.204],[-6.569,70.307],[-7.89,70.401],[-9.223,70.485],[-10.567,70.559],[-11.92,70.623],[-13.28,70.677],[-14.726,70.615],[-16.161,70.542],[-17.586,70.458],[-18.998,70.363],[-20.396,70.257],[-21.639,70.362],[-22.895,70.458],[-24.161,70.546],[-25.49,70.602],[-26.825,70.648],[-28.165,70.684],[-29.453,70.513],[-30.718,70.333],[-31.961,70.144],[-33.181,69.946],[-34.378,69.741],[-35.551,69.527],[-36.701,69.306],[-37.827,69.077],[-38.572,68.823],[-39.301,68.566],[-40.013,68.306],[-41.158,68.197],[-42.291,68.081],[-43.413,67.956],[-44.474,67.721],[-45.514,67.479],[-46.533,67.231],[-47.255,66.867],[-47.955,66.5],[-48.635,66.13],[-49.789,66.015],[-50.932,65.891],[-52.064,65.759],[-53.068,65.678],[-54.066,65.591],[-55.057,65.496],[-55.853,65.188],[-56.631,64.876],[-57.391,64.56],[-58.133,64.24],[-58.858,63.916],[-59.622,63.556],[-60.367,63.192],[-61.093,62.824],[-61.801,62.453],[-62.491,62.078],[-63.165,61.699],[-63.822,61.317],[-64.323,60.913],[-64.811,60.506],[-65.287,60.098],[-65.752,59.688],[-66.205,59.276],[-66.647,58.863],[-67.079,58.449],[-67.501,58.033],[-67.913,57.615],[-68.316,57.197],[-68.709,56.777],[-69.094,56.355],[-69.471,55.933],[-69.839,55.51],[-70.2,55.085]]}},{"type":"Feature","properties":{"boundary_type":"subduction","feature_type":"gpml:SubductionZone","polarity":"Right","overriding_plate_id":101,"subducting_plate_id":701,"plate_ids":[101,701],"name":"Proto Avalonia SZ"},"geometry":{"type":"LineString","coordinates":[[176.321,-31.351],[176.903,-31.348],[177.485,-31.343],[178.067,-31.336],[178.648,-31.325],[179.23,-31.312],[179.811,-31.297],[-179.608,-31.279],[-179.105,-31.299],[-178.601,-31.318],[-178.098,-31.334],[-177.594,-31.349],[-177.09,-31.361],[-176.586,-31.372],[-176.041,-31.502],[-175.494,-31.63],[-174.946,-31.756],[-174.397,-31.88],[-173.846,-32.001],[-173.293,-32.119],[-172.739,-32.236],[-172.184,-32.35],[-171.628,-32.461],[-171.069,-32.57],[-170.51,-32.677],[-169.949,-32.781],[-169.387,-32.882],[-168.877,-33.078],[-168.364,-33.272],[-167.849,-33.463],[-167.332,-33.653],[-166.813,-33.84],[-166.291,-34.025],[-165.767,-34.208],[-165.24,-34.389],[-164.712,-34.567],[-164.181,-34.743],[-163.648,-34.917],[-163.112,-35.089],[-162.575,-35.258],[-162.035,-35.425],[-161.493,-35.589],[-160.949,-35.751],[-160.402,-35.91],[-159.898,-36.197],[-159.391,-36.482],[-158.88,-36.764],[-158.365,-37.044],[-157.846,-37.322],[-157.323,-37.598],[-156.797,-37.872],[-156.267,-38.143],[-155.732,-38.411],[-155.194,-38.678],[-154.652,-38.941],[-154.105,-39.203],[-153.555,-39.461],[-153.001,-39.717],[-152.442,-39.971],[-152.029,-40.324],[-151.611,-40.676],[-151.189,-41.027],[-150.762,-41.376],[-150.331,-41.724],[-149.895,-42.069],[-149.454,-42.414],[-149.009,-42.756],[-148.558,-43.097],[-148.103,-43.436],[-147.642,-43.773],[-147.177,-44.108],[-146.705,-44.442],[-146.229,-44.773],[-145.747,-45.102],[-145.259,-45.43],[-144.718,-45.755],[-144.17,-46.077],[-143.615,-46.397],[-143.054,-46.714],[-142.487,-47.028],[-141.912,-47.339],[-141.331,-47.648],[-140.744,-47.953],[-140.149,-48.256],[-139.547,-48.555],[-138.938,-48.852],[-138.322,-49.145],[-137.698,-49.434],[-137.067,-49.721],[-136.429,-50.003],[-135.783,-50.283],[-135.165,-50.544],[-134.54,-50.803],[-133.908,-51.058],[-133.269,-51.31],[-132.623,-51.558],[-131.97,-51.802],[-131.31,-52.043],[-130.642,-52.28],[-129.968,-52.514],[-129.287,-52.743],[-128.598,-52.969],[-127.902,-53.19],[-127.199,-53.408],[-126.489,-53.621],[-125.772,-53.83],[-125.399,-54.258],[-125.018,-54.686],[-124.63,-55.112],[-124.232,-55.537],[-123.826,-55.96],[-123.412,-56.382],[-122.987,-56.803],[-122.554,-57.223],[-122.323,-57.678],[-122.087,-58.134],[-121.844,-58.588],[-121.596,-59.043],[-121.34,-59.497],[-121.078,-59.95],[-120.808,-60.403],[-120.531,-60.855],[-120.245,-61.307],[-119.952,-61.758],[-119.649,-62.208],[-119.338,-62.658],[-119.017,-63.107],[-118.686,-63.556],[-118.344,-64.003],[-117.991,-64.45],[-117.627,-64.896],[-117.25,-65.34],[-116.941,-65.811],[-116.621,-66.281],[-116.289,-66.751],[-115.943,-67.219],[-115.584,-67.687],[-115.211,-68.154],[-114.822,-68.62],[-114.416,-69.086],[-113.993,-69.55],[-113.551,-70.013],[-113.089,-70.475],[-112.606,-70.936],[-112.099,-71.395],[-111.568,-71.854],[-111.011,-72.31],[-110.425,-72.765],[-109.808,-73.218],[-109.158,-73.669],[-108.472,-74.118],[-107.747,-74.565],[-106.981,-75.009],[-106.168,-75.451],[-105.307,-75.89],[-104.391,-76.325],[-103.417,-76.757],[-102.378,-77.185],[-101.269,-77.608],[-100.084,-78.027],[-98.814,-78.44],[-97.453,-78.848]]}},{"type":"Feature","properties":{"boundary_type":"subduction","feature_type":"gpml:SubductionZone","polarity":"Right","overriding_plate_id":701,"subducting_plate_id":5031,"plate_ids":[701,5031],"name":"Imorona-Itsindro-TOAST SZ"},"geometry":{"type":"LineString","coordinates":[[21.806,-5.87],[22.094,-6.215],[22.382,-6.56],[22.671,-6.905],[22.96,-7.25],[23.249,-7.595],[23.591,-7.816],[23.934,-8.037],[24.277,-8.258],[24.635,-8.529],[24.993,-8.8],[25.352,-9.071],[25.808,-9.216],[26.264,-9.36],[26.72,-9.503]]}},{"type":"Feature","properties":{"boundary_type":"subduction","feature_type":"gpml:SubductionZone","polarity":"Right","overriding_plate_id":701,"subducting_plate_id":98045,"plate_ids":[701,98045],"name":"Imorona-Itsindro-TOAST SZ"},"geometry":{"type":"LineString","coordinates":[[26.72,-9.503],[27.153,-9.638],[27.586,-9.773],[28.019,-9.907],[28.225,-10.27],[28.432,-10.633],[28.639,-10.996],[28.846,-11.359],[29.054,-11.721],[29.357,-12.047],[29.66,-12.372],[29.964,-12.696],[30.269,-13.021],[30.574,-13.345],[30.958,-13.536],[31.342,-13.727],[31.727,-13.918],[32.112,-14.108],[32.277,-14.495],[32.442,-14.883],[32.608,-15.27],[32.774,-15.658],[33.129,-15.825],[33.484,-15.992],[33.84,-16.159],[34.218,-16.469],[34.598,-16.778],[34.979,-17.086],[35.361,-17.394],[35.674,-17.717],[35.989,-18.039],[36.304,-18.361],[36.506,-18.781],[36.708,-19.2],[36.912,-19.62],[37.24,-19.769],[37.569,-19.917],[37.899,-20.064],[38.279,-20.016],[38.66,-19.966],[39.04,-19.916],[39.501,-19.831],[39.962,-19.745],[40.422,-19.658],[40.918,-19.534],[41.412,-19.409],[41.842,-19.32],[42.272,-19.23],[42.717,-19.425],[42.931,-19.777],[43.145,-20.129],[43.361,-20.481],[43.577,-20.832],[43.795,-21.183],[43.997,-21.633],[44.2,-22.082],[44.645,-22.351],[45.092,-22.618],[45.541,-22.884],[45.991,-23.149],[46.444,-23.413],[46.898,-23.675],[47.354,-23.936],[47.811,-24.196],[48.271,-24.454],[48.732,-24.711],[49.196,-24.967],[49.661,-25.221],[50.112,-25.411],[50.564,-25.601],[51.018,-25.789],[51.473,-25.976],[51.93,-26.161],[52.388,-26.345],[52.847,-26.528],[53.308,-26.708],[53.77,-26.888],[54.234,-27.066],[54.72,-27.21],[55.207,-27.352],[55.695,-27.492],[56.184,-27.631],[56.675,-27.768],[57.167,-27.903],[57.66,-28.036],[58.154,-28.168],[58.72,-28.16],[59.287,-28.149],[59.853,-28.136],[60.419,-28.121],[60.985,-28.104],[61.55,-28.084],[62.116,-28.062],[62.587,-28.063],[63.057,-28.062],[63.528,-28.06]]}},{"type":"Feature","properties":{"boundary_type":"subduction","feature_type":"gpml:SubductionZone","polarity":"Right","overriding_plate_id":101,"subducting_plate_id":98045,"plate_ids":[101,98045],"name":"Imorona-Itsindro-TOAST SZ"},"geometry":{"type":"LineString","coordinates":[[63.528,-28.06],[63.856,-28.057],[64.184,-28.054]]}},{"type":"Feature","properties":{"boundary_type":"subduction","feature_type":"gpml:SubductionZone","polarity":"Right","overriding_plate_id":701,"subducting_plate_id":5031,"plate_ids":[701,5031],"name":"ES SZ"},"geometry":{"type":"LineString","coordinates":[[-11.823,-10.068],[-11.663,-10.483],[-11.502,-10.898],[-11.341,-11.312],[-11.179,-11.726],[-10.982,-12.178],[-10.783,-12.63],[-10.584,-13.082],[-10.384,-13.533],[-10.183,-13.985],[-9.982,-14.436],[-9.629,-14.722],[-9.275,-15.008],[-8.92,-15.293],[-8.565,-15.577],[-8.208,-15.861],[-7.851,-16.144],[-7.477,-16.425],[-7.102,-16.704],[-6.727,-16.983],[-6.35,-17.262],[-5.972,-17.539],[-5.592,-17.816],[-5.257,-18.003]]}},{"type":"Feature","properties":{"boundary_type":"subduction","feature_type":"gpml:SubductionZone","polarity":"Right","overriding_plate_id":701,"subducting_plate_id":77521,"plate_ids":[701,77521],"name":"ES SZ"},"geometry":{"type":"LineString","coordinates":[[-5.257,-18.003],[-4.802,-18.253],[-4.345,-18.503],[-4.093,-18.863],[-3.84,-19.223],[-3.586,-19.582],[-3.331,-19.941],[-3.271,-20.384],[-3.211,-20.828],[-3.23,-21.279],[-3.249,-21.729],[-3.068,-22.072],[-2.886,-22.415],[-2.703,-22.758],[-2.516,-23.225],[-2.327,-23.692],[-2.137,-24.159],[-1.945,-24.626],[-1.752,-25.092],[-1.588,-25.445],[-1.424,-25.797],[-1.258,-26.15],[-1.091,-26.502]]}},{"type":"Feature","properties":{"boundary_type":"subduction","feature_type":"gpml:SubductionZone","polarity":"Left","overriding_plate_id":5031,"subducting_plate_id":5907,"plate_ids":[5031,5907],"name":"Haya-Jiddah SZ"},"geometry":{"type":"LineString","coordinates":[[10.426,2.458],[10.446,2.348],[10.377,1.924],[10.308,1.499],[10.239,1.075],[10.147,0.726],[10.055,0.378],[9.963,0.029],[9.98,-0.286],[9.996,-0.601],[10.196,-0.879],[10.396,-1.156],[10.499,-1.496],[10.602,-1.835],[10.435,-2.214],[10.269,-2.592],[10.223,-2.817],[10.347,-3.039],[10.472,-3.261],[10.518,-3.726],[10.363,-4.109],[10.207,-4.491],[10.154,-4.772],[10.101,-5.053],[10.211,-5.533],[10.467,-5.846],[10.724,-6.159],[10.793,-6.594],[10.863,-7.029],[10.933,-7.464],[11.002,-7.899]]}},{"type":"Feature","properties":{"boundary_type":"subduction","feature_type":"gpml:SubductionZone","polarity":"Right","overriding_plate_id":5031,"subducting_plate_id":701,"plate_ids":[701,5031],"name":"Hijaz SZ"},"geometry":{"type":"LineString","coordinates":[[1.532,-7.885],[1.639,-7.515]]}},{"type":"Feature","properties":{"boundary_type":"subduction","feature_type":"gpml:SubductionZone","polarity":"Right","overriding_plate_id":5907,"subducting_plate_id":701,"plate_ids":[701,5907],"name":"Hijaz SZ"},"geometry":{"type":"LineString","coordinates":[[1.639,-7.515],[1.765,-7.082],[1.89,-6.65],[2.014,-6.217],[2.139,-5.784],[2.263,-5.351],[2.387,-4.918],[2.512,-4.485],[2.635,-4.052],[2.674,-3.586],[2.713,-3.121],[2.752,-2.655],[2.79,-2.19],[2.829,-1.724],[2.868,-1.259],[2.906,-0.793],[2.945,-0.327],[2.984,0.138],[3.022,0.604],[3.086,1.069],[3.151,1.535],[3.215,2.0],[3.279,2.466],[3.344,2.932],[3.408,3.397],[3.473,3.863],[3.537,4.328],[3.602,4.794],[3.666,5.259],[3.731,5.725],[3.796,6.19],[3.861,6.656],[3.926,7.121],[3.992,7.587]]}},{"type":"Feature","properties":{"boundary_type":"subduction","feature_type":"gpml:SubductionZone","polarity":"Right","overriding_plate_id":5031,"subducting_plate_id":701,"plate_ids":[701,5031],"name":"Hijaz SZ"},"geometry":{"type":"LineString","coordinates":[[3.992,7.587],[4.054,8.028],[4.116,8.468],[4.178,8.909],[4.24,9.349],[4.475,9.768],[4.71,10.186],[4.945,10.604],[5.181,11.022],[5.418,11.44],[5.656,11.857],[5.894,12.275],[6.133,12.692],[6.373,13.109],[6.613,13.525],[6.855,13.942],[7.097,14.358],[7.34,14.774],[7.585,15.19],[7.83,15.605],[8.076,16.02],[8.323,16.435]]}},{"type":"Feature","properties":{"boundary_type":"subduction","feature_type":"gpml:SubductionZone","polarity":"Right","overriding_plate_id":505,"subducting_plate_id":701,"plate_ids":[505,701],"name":"Hijaz SZ"},"geometry":{"type":"LineString","coordinates":[[8.323,16.435],[8.559,16.829],[8.796,17.223],[9.033,17.616],[9.293,18.046],[9.553,18.475],[9.815,18.903],[10.078,19.332],[10.343,19.76],[10.608,20.188],[10.876,20.615],[11.145,21.042],[11.415,21.468],[11.687,21.894],[11.961,22.319],[12.236,22.745],[12.513,23.169],[12.792,23.593],[13.073,24.017],[13.355,24.44],[13.64,24.862],[13.926,25.284],[14.214,25.706],[14.505,26.127],[14.797,26.547],[15.092,26.967],[15.389,27.386]]}},{"type":"Feature","properties":{"boundary_type":"subduction","feature_type":"gpml:SubductionZone","polarity":"Left","overriding_plate_id":775311,"subducting_plate_id":701,"plate_ids":[701,775311],"name":"SES SZ"},"geometry":{"type":"LineString","coordinates":[[3.089,-23.914],[3.013,-23.642],[2.937,-23.37],[2.785,-23.159],[2.633,-22.947],[2.611,-22.682],[2.589,-22.417],[2.471,-21.997],[2.354,-21.577],[2.621,-21.239],[2.886,-20.901],[3.138,-20.542]]}},{"type":"Feature","properties":{"boundary_type":"subduction","feature_type":"gpml:SubductionZone","polarity":"Left","overriding_plate_id":5031,"subducting_plate_id":701,"plate_ids":[701,5031],"name":"SES SZ"},"geometry":{"type":"LineString","coordinates":[[3.138,-20.542],[3.322,-20.279]]}},{"type":"Feature","properties":{"boundary_type":"subduction","feature_type":"gpml:SubductionZone","polarity":"Left","overriding_plate_id":77521,"subducting_plate_id":701,"plate_ids":[701,77521],"name":"WES suture"},"geometry":{"type":"LineString","coordinates":[[0.865,-25.428],[0.765,-25.192],[0.75,-24.837]]}},{"type":"Feature","properties":{"boundary_type":"subduction","feature_type":"gpml:SubductionZone","polarity":"Left","overriding_plate_id":77521,"subducting_plate_id":775211,"plate_ids":[77521,775211],"name":"WES suture"},"geometry":{"type":"LineString","coordinates":[[0.75,-24.837],[0.734,-24.452],[0.719,-24.068],[0.703,-23.683],[0.784,-23.193],[0.863,-22.703],[0.942,-22.213],[1.02,-21.723],[1.052,-21.289],[1.084,-20.855],[1.1,-20.612]]}},{"type":"Feature","properties":{"boundary_type":"subduction","feature_type":"gpml:SubductionZone","polarity":"Left","overriding_plate_id":77521,"subducting_plate_id":5031,"plate_ids":[5031,77521],"name":"WES suture"},"geometry":{"type":"LineString","coordinates":[[1.1,-20.612],[1.122,-20.245],[1.145,-19.878],[1.03,-19.565],[0.9,-19.243],[0.684,-18.967],[0.469,-18.69],[0.254,-18.413],[-0.027,-18.009],[-0.307,-17.605],[-0.586,-17.2],[-0.864,-16.795]]}},{"type":"Feature","properties":{"boundary_type":"subduction","feature_type":"gpml:SubductionZone","polarity":"Right","overriding_plate_id":505,"subducting_plate_id":501,"plate_ids":[501,505],"name":"Kabul subduction zone"},"geometry":{"type":"LineString","coordinates":[[-95.335,56.251],[-94.52,56.238],[-93.705,56.22],[-92.892,56.196],[-92.079,56.167],[-91.305,56.179],[-90.53,56.185],[-89.755,56.188],[-88.98,56.185],[-88.205,56.177],[-87.431,56.165],[-86.563,56.14],[-85.697,56.11],[-84.832,56.074],[-83.969,56.031],[-83.108,55.983],[-82.25,55.928],[-81.394,55.868],[-80.751,55.649],[-80.115,55.427],[-79.486,55.202],[-78.865,54.973],[-78.251,54.742],[-77.713,54.439],[-77.184,54.134],[-76.662,53.826],[-76.149,53.517],[-75.642,53.205],[-75.143,52.891],[-74.651,52.575],[-74.635,52.57]]}},{"type":"Feature","properties":{"boundary_type":"subduction","feature_type":"gpml:SubductionZone","polarity":"Left","overriding_plate_id":501,"subducting_plate_id":98041,"plate_ids":[501,98041],"name":"Jiangang SZ"},"geometry":{"type":"LineString","coordinates":[[-167.468,28.036],[-166.992,27.904],[-166.517,27.77],[-166.043,27.635],[-165.57,27.498],[-165.098,27.36],[-164.628,27.219],[-164.159,27.078],[-163.687,27.3],[-163.213,27.52],[-162.737,27.739],[-162.259,27.956],[-161.779,28.172],[-161.298,28.386],[-160.814,28.598],[-160.328,28.809],[-159.841,29.018],[-159.351,29.225],[-158.86,29.43],[-158.366,29.633],[-157.871,29.835],[-157.374,30.034],[-156.874,30.232],[-156.373,30.428],[-155.972,30.78],[-155.569,31.131],[-155.163,31.48],[-154.754,31.828],[-154.341,32.175],[-153.926,32.52],[-153.507,32.864],[-153.085,33.206],[-152.66,33.548],[-152.232,33.887],[-151.8,34.225],[-151.364,34.562],[-150.925,34.897],[-150.482,35.231],[-150.189,35.651],[-149.892,36.071],[-149.592,36.491],[-149.289,36.909],[-148.982,37.327],[-148.673,37.744],[-148.359,38.16],[-148.042,38.575],[-147.721,38.99],[-147.397,39.403],[-147.069,39.816],[-146.736,40.227],[-146.4,40.638],[-146.059,41.048],[-145.715,41.457],[-145.365,41.864],[-145.012,42.271],[-144.653,42.676],[-144.291,43.081],[-143.923,43.484],[-143.55,43.886],[-143.172,44.287],[-142.79,44.686],[-142.401,45.084],[-142.008,45.481],[-141.608,45.877]]}},{"type":"Feature","properties":{"boundary_type":"subduction","feature_type":"gpml:SubductionZone","polarity":"Left","overriding_plate_id":501,"subducting_plate_id":580,"plate_ids":[501,580],"name":"Jiangang SZ"},"geometry":{"type":"LineString","coordinates":[[-141.608,45.877],[-141.207,46.268],[-140.8,46.657],[-140.387,47.045],[-139.967,47.431],[-139.542,47.816],[-139.11,48.199],[-138.672,48.581],[-138.316,48.985],[-137.954,49.387],[-137.586,49.789],[-137.212,50.189],[-136.832,50.588],[-136.445,50.986],[-136.052,51.383],[-135.651,51.778],[-135.244,52.172],[-134.764,52.548],[-134.276,52.923],[-133.779,53.296],[-133.274,53.666],[-132.798,54.075],[-132.312,54.482],[-131.817,54.887],[-131.311,55.29],[-130.796,55.691],[-130.269,56.09],[-129.732,56.486],[-129.183,56.88],[-128.623,57.272],[-127.923,57.529],[-127.212,57.782],[-126.492,58.031],[-125.762,58.276],[-125.022,58.517],[-124.271,58.753],[-123.511,58.985],[-122.74,59.213],[-121.959,59.436],[-121.168,59.654],[-120.366,59.867],[-119.41,59.985],[-118.447,60.095],[-117.477,60.199],[-116.502,60.296],[-115.521,60.385],[-114.535,60.467],[-113.544,60.542],[-112.549,60.609],[-111.55,60.669],[-110.547,60.722],[-109.541,60.767],[-108.802,60.871],[-108.058,60.972],[-107.309,61.068],[-106.556,61.16]]}},{"type":"Feature","properties":{"boundary_type":"subduction","feature_type":"gpml:SubductionZone","polarity":"Left","overriding_plate_id":501,"subducting_plate_id":505,"plate_ids":[501,505],"name":"Jiangang SZ"},"geometry":{"type":"LineString","coordinates":[[-106.556,61.16],[-105.573,61.273],[-104.583,61.379],[-103.586,61.477],[-102.584,61.568],[-101.576,61.652],[-100.619,61.716],[-99.658,61.773],[-98.695,61.823],[-97.917,61.848],[-97.139,61.869],[-96.36,61.886]]}},{"type":"Feature","properties":{"boundary_type":"subduction","feature_type":"gpml:SubductionZone","polarity":"Right","overriding_plate_id":101,"subducting_plate_id":501,"plate_ids":[101,501],"name":"Taimyr SZ"},"geometry":{"type":"LineString","coordinates":[[-175.019,27.854],[-174.619,27.573],[-174.265,27.212],[-173.914,26.851],[-173.565,26.488],[-173.218,26.124],[-172.873,25.76],[-172.53,25.395],[-172.19,25.029],[-171.851,24.662],[-171.514,24.295],[-171.18,23.927],[-170.942,23.761],[-170.706,23.596]]}},{"type":"Feature","properties":{"boundary_type":"subduction","feature_type":"gpml:SubductionZone","polarity":"Right","overriding_plate_id":101,"subducting_plate_id":98041,"plate_ids":[101,98041],"name":"Taimyr SZ"},"geometry":{"type":"LineString","coordinates":[[-170.706,23.596],[-170.567,23.499]]}},{"type":"Feature","properties":{"boundary_type":"subduction","feature_type":"gpml:SubductionZone","polarity":"Right","overriding_plate_id":4012,"subducting_plate_id":98041,"plate_ids":[4012,98041],"name":"Taimyr SZ"},"geometry":{"type":"LineString","coordinates":[[-170.567,23.499],[-170.207,23.245],[-169.849,22.99],[-169.622,22.545],[-169.398,22.1],[-169.174,21.655],[-168.952,21.21],[-168.628,20.887],[-168.305,20.564],[-167.984,20.24],[-167.664,19.915],[-167.345,19.591],[-167.028,19.265],[-166.706,18.87],[-166.386,18.475],[-166.068,18.08],[-165.751,17.683],[-165.435,17.287],[-165.121,16.89],[-164.819,16.526],[-164.518,16.162],[-164.218,15.798],[-163.92,15.433],[-163.622,15.068],[-163.325,14.703],[-163.03,14.337],[-162.735,13.971],[-162.442,13.604],[-162.149,13.237]]}},{"type":"Feature","properties":{"boundary_type":"subduction","feature_type":"gpml:SubductionZone","polarity":"Right","overriding_plate_id":101,"subducting_plate_id":98041,"plate_ids":[101,98041],"name":"Taimyr SZ"},"geometry":{"type":"LineString","coordinates":[[-162.149,13.237],[-161.855,12.868],[-161.562,12.498],[-161.27,12.128],[-160.979,11.757],[-160.709,11.367],[-160.44,10.976],[-160.171,10.585],[-159.904,10.194],[-159.637,9.802],[-159.37,9.411]]}},{"type":"Feature","properties":{"boundary_type":"subduction","feature_type":"gpml:SubductionZone","polarity":"Right","overriding_plate_id":101,"subducting_plate_id":701,"plate_ids":[101,701],"name":"Taimyr SZ"},"geometry":{"type":"LineString","coordinates":[[-159.37,9.411],[-159.111,9.028],[-158.851,8.645],[-158.751,8.166],[-158.651,7.686],[-158.551,7.206],[-158.452,6.727],[-158.352,6.247],[-158.253,5.767],[-158.154,5.287],[-158.055,4.808],[-157.956,4.328],[-157.858,3.848],[-157.759,3.368],[-157.661,2.888],[-157.563,2.409],[-157.464,1.929],[-157.366,1.449],[-157.268,0.969],[-157.17,0.489],[-157.072,0.009],[-156.974,-0.47],[-156.876,-0.95],[-157.113,-1.316],[-157.351,-1.682],[-157.589,-2.048],[-157.827,-2.414],[-158.065,-2.779],[-158.304,-3.145],[-158.542,-3.511],[-158.93,-3.821],[-159.318,-4.131],[-159.706,-4.441],[-160.095,-4.75],[-160.484,-5.06],[-160.873,-5.369],[-161.263,-5.678],[-161.653,-5.987],[-161.943,-6.326],[-162.233,-6.666],[-162.523,-7.005],[-162.814,-7.344],[-163.105,-7.683],[-163.397,-8.022],[-163.689,-8.36],[-163.982,-8.699],[-164.275,-9.037],[-164.596,-9.36],[-164.917,-9.682],[-165.238,-10.004],[-165.561,-10.326],[-165.884,-10.648],[-166.207,-10.969],[-166.532,-11.29],[-166.857,-11.61],[-167.183,-11.93],[-167.486,-12.177],[-167.789,-12.423],[-168.093,-12.668],[-168.398,-12.913]]}},{"type":"Feature","properties":{"boundary_type":"subduction","feature_type":"gpml:SubductionZone","polarity":"Left","overriding_plate_id":101,"subducting_plate_id":501,"plate_ids":[101,501],"name":"Aus-Ant SZ"},"geometry":{"type":"LineString","coordinates":[[140.675,23.375],[140.302,23.463],[139.928,23.551],[139.458,23.766],[138.987,23.979],[138.514,24.192],[138.039,24.402],[137.563,24.612],[137.086,24.819],[136.664,25.088],[136.241,25.355],[135.815,25.621],[135.388,25.885],[134.959,26.149],[134.528,26.411],[134.055,26.534],[133.58,26.655],[133.104,26.775],[132.628,26.894],[132.15,27.011],[131.671,27.126],[131.192,27.239],[130.839,27.502],[130.484,27.764],[130.128,28.025],[129.646,28.203],[129.163,28.38],[128.678,28.554],[128.191,28.727],[127.703,28.898],[127.213,29.068],[126.721,29.235],[126.228,29.401],[125.734,29.565],[125.236,29.651],[124.736,29.735],[124.237,29.817],[123.736,29.898],[123.234,29.976],[122.732,30.053],[122.229,30.128],[121.725,30.2],[121.149,30.227],[120.572,30.251],[119.995,30.273],[119.417,30.292],[118.84,30.309],[118.262,30.323],[117.684,30.335],[117.106,30.344],[116.528,30.35],[115.95,30.354],[115.372,30.355],[114.794,30.354],[114.215,30.351],[113.637,30.344],[113.059,30.336],[112.509,30.247],[111.959,30.155],[111.41,30.062],[110.863,29.966],[110.316,29.868],[109.771,29.768],[109.227,29.665],[108.683,29.56],[108.141,29.453],[107.601,29.344],[107.061,29.233],[106.522,29.119],[105.985,29.003],[105.449,28.886],[104.914,28.766],[104.38,28.644],[103.848,28.52],[103.317,28.393],[102.787,28.265],[102.258,28.135],[101.731,28.003],[101.205,27.868],[100.68,27.732],[100.157,27.594],[99.685,27.41],[99.214,27.224],[98.745,27.037],[98.278,26.848],[97.812,26.658],[97.348,26.466],[96.885,26.273],[96.424,26.078],[95.964,25.882],[95.506,25.684],[95.049,25.485],[94.726,25.229],[94.404,24.973],[94.084,24.716],[93.765,24.458]]}},{"type":"Feature","properties":{"boundary_type":"subduction","feature_type":"gpml:SubductionZone","polarity":"Left","overriding_plate_id":101,"subducting_plate_id":98045,"plate_ids":[101,98045],"name":"Aus-Ant SZ"},"geometry":{"type":"LineString","coordinates":[[93.765,24.458],[93.357,24.127],[92.951,23.794],[92.548,23.46],[92.146,23.125],[91.747,22.789],[91.349,22.452],[90.953,22.114],[90.56,21.776],[90.168,21.436],[89.778,21.095],[89.389,20.754],[89.003,20.411],[88.618,20.068],[88.235,19.724],[87.853,19.379],[87.473,19.034],[87.095,18.687],[86.718,18.34],[86.343,17.992],[85.969,17.643],[85.597,17.294],[85.226,16.944],[84.941,16.526],[84.657,16.109],[84.374,15.69],[84.092,15.272],[83.812,14.853],[83.532,14.433],[83.254,14.014],[82.977,13.594],[82.7,13.174],[82.425,12.753],[82.15,12.332],[81.877,11.911],[81.604,11.49],[81.509,11.046],[81.414,10.602],[81.319,10.158],[81.225,9.714],[81.131,9.27],[81.037,8.826]]}},{"type":"Feature","properties":{"boundary_type":"subduction","feature_type":"gpml:SubductionZone","polarity":"Right","overriding_plate_id":101,"subducting_plate_id":98045,"plate_ids":[101,98045],"name":"Oceanic SZ (part of TOAST?)"},"geometry":{"type":"LineString","coordinates":[[64.184,-28.054],[64.215,-27.569],[64.247,-27.085],[64.278,-26.6],[64.309,-26.115],[64.339,-25.63],[64.369,-25.146],[64.399,-24.661],[64.415,-24.17],[64.43,-23.678],[64.446,-23.187],[64.461,-22.696],[64.476,-22.204],[64.491,-21.713],[64.506,-21.222],[64.521,-20.73],[64.698,-20.269],[64.873,-19.808],[65.048,-19.347],[65.222,-18.885],[65.395,-18.424],[65.567,-17.962],[65.738,-17.5],[65.908,-17.038],[66.078,-16.576],[66.246,-16.113],[66.414,-15.651],[66.581,-15.188],[66.747,-14.725],[66.913,-14.262],[67.078,-13.799],[67.242,-13.336],[67.405,-12.873],[67.568,-12.41],[67.731,-11.946],[67.893,-11.483],[68.054,-11.019],[68.215,-10.556],[68.375,-10.092],[68.535,-9.628],[68.695,-9.164],[68.854,-8.7],[69.029,-8.266],[69.205,-7.831],[69.38,-7.396],[69.554,-6.961],[69.729,-6.527],[69.903,-6.092],[70.076,-5.657],[70.25,-5.222],[70.423,-4.787],[70.596,-4.352],[70.769,-3.917],[70.995,-3.473],[71.221,-3.03],[71.447,-2.587],[71.673,-2.144],[71.899,-1.7],[72.124,-1.257],[72.35,-0.814],[72.575,-0.37],[72.801,0.073],[73.026,0.516],[73.252,0.96],[73.478,1.403],[73.703,1.847],[73.929,2.29],[74.155,2.733],[74.381,3.176],[74.607,3.619],[74.834,4.063],[75.06,4.506],[75.287,4.949],[75.515,5.392],[75.937,5.658],[76.359,5.924],[76.782,6.19],[77.205,6.455],[77.629,6.72],[78.053,6.985],[78.478,7.249],[78.903,7.513],[79.329,7.777],[79.755,8.04],[80.182,8.303],[80.609,8.565],[81.037,8.826]]}},{"type":"Feature","properties":{"boundary_type":"subduction","feature_type":"gpml:SubductionZone","polarity":"Left","overriding_plate_id":101,"subducting_plate_id":701,"plate_ids":[101,701],"name":"Valhalla Orogeny"},"geometry":{"type":"LineString","coordinates":[[165.132,-32.556],[165.298,-32.097],[165.463,-31.638],[165.626,-31.179],[165.788,-30.72],[165.948,-30.26],[166.106,-29.8],[166.137,-29.477],[166.168,-29.153],[166.1,-28.758],[166.033,-28.363],[165.966,-27.967],[165.9,-27.572],[165.93,-27.137],[165.959,-26.701],[165.989,-26.265],[166.018,-25.83],[166.08,-25.392],[166.142,-24.955],[166.203,-24.518],[166.264,-24.08],[166.126,-23.668],[165.988,-23.255],[165.85,-22.842],[165.714,-22.429],[165.68,-21.96],[165.646,-21.49],[165.501,-21.04],[165.357,-20.59],[165.214,-20.14],[165.364,-19.665],[165.513,-19.19],[165.661,-18.715],[165.808,-18.239],[165.954,-17.764],[166.1,-17.288],[166.016,-16.947],[165.933,-16.606],[165.85,-16.265]]}},{"type":"Feature","properties":{"boundary_type":"subduction","feature_type":"gpml:SubductionZone","polarity":"Right","overriding_plate_id":101,"subducting_plate_id":701,"plate_ids":[101,701],"name":"Oceanic SZ (part of TOAST?)"},"geometry":{"type":"LineString","coordinates":[[66.794,-46.199],[66.532,-45.763],[66.275,-45.326],[66.021,-44.889],[65.771,-44.452],[65.525,-44.013],[65.282,-43.575],[65.043,-43.135],[64.808,-42.695],[64.575,-42.255],[64.346,-41.814],[64.3,-41.345],[64.254,-40.876],[64.21,-40.407],[64.165,-39.938],[64.122,-39.469],[64.079,-38.999],[64.036,-38.53],[63.994,-38.061],[63.953,-37.592],[63.912,-37.122],[63.872,-36.653],[63.832,-36.184],[63.792,-35.714],[63.753,-35.245],[63.715,-34.776],[63.694,-34.296],[63.673,-33.815],[63.653,-33.335],[63.633,-32.855],[63.613,-32.374],[63.593,-31.894],[63.573,-31.414],[63.554,-30.934],[63.535,-30.453],[63.516,-29.973],[63.497,-29.493],[63.478,-29.012],[63.46,-28.532],[63.528,-28.06]]}},{"type":"Feature","properties":{"boundary_type":"subduction","feature_type":"gpml:SubductionZone","polarity":"Left","overriding_plate_id":101,"subducting_plate_id":501,"plate_ids":[101,501],"name":"North Qinling SZ"},"geometry":{"type":"LineString","coordinates":[[161.878,20.635],[161.355,20.691],[160.831,20.746],[160.307,20.799],[159.783,20.85],[159.259,20.9],[158.734,20.948],[158.208,20.995],[157.683,21.04],[157.157,21.083],[156.631,21.125],[156.104,21.165],[155.577,21.204],[155.05,21.24],[154.523,21.276],[153.996,21.309],[153.468,21.341],[152.94,21.371],[152.43,21.322],[151.921,21.27],[151.413,21.217],[150.904,21.163],[150.396,21.107],[149.889,21.049],[149.382,20.99],[148.875,20.93],[148.368,20.868],[147.862,20.805],[147.357,20.74],[146.852,20.673],[146.347,20.605],[145.843,20.536],[145.339,20.465],[144.836,20.393],[144.333,20.319],[143.837,20.253],[143.342,20.184],[142.847,20.115],[142.352,20.044],[141.858,19.972],[141.364,19.898],[140.871,19.824]]}},{"type":"Feature","properties":{"boundary_type":"subduction","feature_type":"gpml:SubductionZone","polarity":"Left","overriding_plate_id":101,"subducting_plate_id":501,"plate_ids":[101,501],"name":"Ribnaya-Panimba SZ"},"geometry":{"type":"LineString","coordinates":[[-177.68,25.911],[-177.705,25.92],[-178.173,26.087],[-178.642,26.252],[-179.113,26.416],[-179.584,26.579],[179.897,26.717],[179.377,26.854],[178.856,26.988],[178.333,27.121],[177.809,27.251],[177.284,27.38],[176.758,27.507],[176.231,27.632],[175.702,27.754],[175.238,27.772],[174.774,27.788],[174.31,27.803],[173.845,27.816],[173.381,27.828],[172.99,27.87],[172.599,27.91],[172.208,27.95],[171.797,27.943],[171.386,27.935],[170.975,27.925],[170.447,27.924],[169.92,27.92],[169.392,27.915],[168.864,27.907],[168.336,27.898],[167.808,27.886],[167.323,27.66],[166.839,27.432],[166.358,27.203],[165.878,26.972],[165.401,26.739],[164.925,26.504],[164.667,26.087],[164.411,25.67],[164.156,25.252],[163.904,24.833],[163.653,24.415],[163.403,23.995],[163.191,23.567],[162.981,23.139],[162.772,22.71],[162.564,22.281],[162.357,21.852],[162.152,21.423],[162.014,21.029],[161.878,20.635]]}},{"type":"Feature","properties":{"boundary_type":"subduction","feature_type":"gpml:SubductionZone","polarity":"Right","overriding_plate_id":101,"subducting_plate_id":701,"plate_ids":[101,701],"name":"Proto Avalonia-Cadomia"},"geometry":{"type":"LineString","coordinates":[[-97.453,-78.848],[-94.938,-78.893],[-92.407,-78.917],[-89.871,-78.921],[-87.337,-78.903],[-84.817,-78.864],[-82.318,-78.804],[-79.85,-78.724],[-77.421,-78.623],[-75.038,-78.503],[-72.707,-78.364],[-70.434,-78.207],[-68.223,-78.032],[-66.077,-77.841],[-64.0,-77.633],[-61.993,-77.41],[-60.057,-77.173],[-58.192,-76.922],[-56.398,-76.658],[-54.673,-76.382],[-53.018,-76.095],[-51.429,-75.797],[-49.905,-75.489],[-48.243,-75.234],[-46.638,-74.968],[-45.089,-74.69],[-43.595,-74.403],[-42.154,-74.105],[-40.765,-73.799],[-39.428,-73.483],[-38.14,-73.16],[-36.899,-72.829],[-35.705,-72.49],[-34.555,-72.145],[-33.447,-71.793],[-32.381,-71.435],[-31.353,-71.071],[-29.994,-70.94],[-28.653,-70.799],[-27.332,-70.649],[-26.031,-70.489],[-24.751,-70.319],[-23.492,-70.141],[-22.255,-69.955]]}},{"type":"Feature","properties":{"boundary_type":"ridge","feature_type":"gpml:MidOceanRidge","polarity":null,"overriding_plate_id":null,"subducting_plate_id":null,"plate_ids":[701,5031],"name":"Azania-ANS MOR"},"geometry":{"type":"LineString","coordinates":[[8.263,-20.53],[8.224,-20.158],[8.186,-19.786],[8.149,-19.414],[8.663,-19.404],[9.177,-19.393],[9.691,-19.38],[9.651,-18.885],[9.612,-18.391],[9.572,-17.897],[9.533,-17.402],[9.494,-16.908],[9.455,-16.413],[9.416,-15.919],[9.378,-15.425],[9.852,-15.362],[10.325,-15.298],[10.799,-15.234],[11.272,-15.168],[11.745,-15.102],[12.217,-15.034],[12.69,-14.966],[13.162,-14.896],[13.123,-14.441],[13.084,-13.986],[13.046,-13.531],[13.007,-13.076],[12.969,-12.621],[12.931,-12.166],[12.893,-11.711],[13.388,-11.666],[13.883,-11.619],[14.377,-11.572],[14.872,-11.524],[15.366,-11.475],[15.283,-11.066],[15.2,-10.656],[15.118,-10.247],[15.035,-9.838],[14.953,-9.428],[14.871,-9.019],[15.325,-8.968],[15.778,-8.917],[16.231,-8.865],[16.684,-8.813],[17.137,-8.76],[17.081,-8.356],[17.026,-7.952],[16.97,-7.549],[16.914,-7.145],[16.859,-6.741]]}},{"type":"Feature","properties":{"boundary_type":"ridge","feature_type":"gpml:MidOceanRidge","polarity":null,"overriding_plate_id":null,"subducting_plate_id":null,"plate_ids":[505,701],"name":"Remnant Mirovoi Ridge separating India-SM"},"geometry":{"type":"LineString","coordinates":[[-77.05,15.648],[-76.556,15.777],[-76.062,15.905],[-75.567,16.032],[-75.071,16.158],[-74.575,16.282],[-74.078,16.406],[-73.581,16.528],[-73.083,16.649],[-72.584,16.769],[-72.084,16.888],[-71.584,17.005],[-71.084,17.121],[-70.582,17.236],[-70.081,17.35],[-69.578,17.463],[-69.075,17.574],[-68.571,17.684],[-68.067,17.793],[-67.562,17.9],[-67.056,18.006],[-66.55,18.111],[-66.043,18.214],[-65.536,18.317],[-65.028,18.417],[-64.519,18.517],[-64.01,18.615],[-63.501,18.712],[-62.99,18.807],[-62.985,19.277],[-62.98,19.747],[-62.974,20.217],[-62.969,20.688],[-62.964,21.158],[-62.958,21.628],[-62.953,22.098],[-62.947,22.568],[-62.942,23.038],[-62.936,23.508],[-62.93,23.979],[-62.925,24.449],[-62.919,24.919],[-62.913,25.389],[-62.907,25.859],[-62.901,26.329],[-62.365,26.466],[-61.827,26.602],[-61.288,26.735],[-60.748,26.866],[-60.206,26.995],[-59.664,27.122],[-59.12,27.246],[-58.575,27.369],[-58.028,27.49],[-57.481,27.608],[-56.932,27.725],[-56.382,27.839],[-55.831,27.951],[-55.279,28.061],[-54.725,28.168],[-54.171,28.273],[-53.615,28.377],[-53.059,28.477],[-52.501,28.576],[-51.943,28.672],[-51.383,28.766],[-50.822,28.858],[-50.261,28.947],[-49.698,29.034],[-49.135,29.119],[-48.57,29.201],[-48.005,29.281],[-47.439,29.359],[-46.871,29.434],[-46.304,29.507],[-45.735,29.577],[-45.165,29.645],[-44.595,29.71],[-44.024,29.773],[-43.453,29.834],[-42.88,29.892],[-42.307,29.948],[-41.734,30.001],[-41.159,30.051],[-40.585,30.1],[-40.009,30.145],[-39.433,30.188],[-38.857,30.229],[-38.28,30.267],[-37.703,30.303],[-37.125,30.336],[-36.547,30.366],[-35.969,30.394],[-35.39,30.42],[-35.452,30.879],[-35.515,31.338],[-35.578,31.797],[-35.642,32.256],[-35.707,32.715],[-35.772,33.174],[-35.838,33.633],[-35.905,34.092],[-35.972,34.551],[-36.04,35.01],[-36.109,35.469],[-35.505,35.513],[-34.901,35.555],[-34.296,35.594],[-33.69,35.63],[-33.084,35.663],[-32.477,35.692],[-31.87,35.719],[-31.262,35.743],[-30.654,35.763],[-30.046,35.781],[-29.438,35.795],[-28.829,35.807],[-28.22,35.815],[-27.611,35.82],[-27.002,35.822],[-26.393,35.822],[-25.785,35.818],[-25.176,35.811],[-24.567,35.8],[-23.959,35.787],[-23.35,35.771],[-22.742,35.752],[-22.135,35.729],[-21.527,35.704],[-20.92,35.676],[-20.314,35.644],[-19.708,35.609],[-19.102,35.572],[-18.498,35.531],[-17.893,35.488],[-17.29,35.441],[-16.687,35.391],[-16.085,35.339],[-15.484,35.283],[-14.883,35.225],[-14.284,35.163],[-13.685,35.099],[-13.631,35.499],[-13.577,35.9],[-13.522,36.3],[-13.467,36.701],[-12.859,36.625],[-12.252,36.547],[-11.646,36.466],[-11.042,36.381],[-10.439,36.294],[-9.837,36.204],[-9.237,36.11],[-8.638,36.014],[-8.041,35.914],[-7.445,35.812],[-6.851,35.707],[-6.258,35.599],[-5.667,35.487],[-5.078,35.373],[-4.49,35.257],[-3.904,35.137],[-3.32,35.015],[-2.737,34.889],[-2.157,34.761],[-1.578,34.63],[-1.001,34.497],[-0.426,34.361],[0.148,34.222],[0.719,34.08],[1.288,33.936],[1.856,33.789],[2.422,33.64],[2.985,33.488],[3.547,33.334],[4.106,33.177],[4.664,33.017],[4.523,32.596],[4.383,32.175],[4.245,31.754],[4.108,31.333],[4.64,31.175],[5.17,31.014],[5.698,30.852],[6.224,30.688],[6.749,30.521],[7.272,30.352],[7.792,30.181],[8.312,30.009],[8.829,29.834],[9.344,29.657],[9.858,29.478],[10.37,29.297],[10.88,29.115],[11.388,28.93],[11.894,28.743],[12.399,28.555],[12.902,28.364],[13.403,28.172],[13.902,27.978],[14.399,27.783],[14.895,27.585],[15.389,27.386]]}},{"type":"Feature","properties":{"boundary_type":"ridge","feature_type":"gpml:MidOceanRidge","polarity":null,"overriding_plate_id":null,"subducting_plate_id":null,"plate_ids":[580,98041],"name":"Tarim MoR"},"geometry":{"type":"LineString","coordinates":[[-141.608,45.877],[-140.979,45.652],[-140.354,45.423],[-139.735,45.192],[-139.12,44.956],[-138.511,44.718],[-137.906,44.476],[-137.307,44.232],[-136.713,43.984],[-136.123,43.733],[-135.539,43.479],[-134.959,43.222],[-134.384,42.962],[-133.815,42.699],[-133.25,42.434],[-132.69,42.166],[-132.134,41.895],[-131.571,41.635],[-131.013,41.373],[-130.46,41.108],[-129.91,40.84],[-129.366,40.57],[-128.825,40.297],[-128.289,40.022],[-127.757,39.744],[-127.23,39.464],[-126.707,39.181],[-126.188,38.896],[-125.673,38.609],[-125.163,38.32],[-124.64,38.037],[-124.122,37.752],[-123.608,37.465],[-123.098,37.175],[-122.592,36.884],[-122.089,36.59],[-121.591,36.294],[-121.096,35.996],[-120.605,35.696],[-120.118,35.394],[-120.453,34.984],[-120.784,34.572],[-121.113,34.16],[-121.438,33.747],[-121.76,33.333],[-122.079,32.919],[-122.395,32.503],[-122.708,32.087],[-123.019,31.67],[-123.326,31.252],[-123.631,30.834],[-123.933,30.415],[-124.233,29.995],[-124.53,29.574],[-124.824,29.153],[-125.117,28.731],[-125.406,28.308],[-125.694,27.885],[-125.979,27.462],[-126.262,27.037],[-126.543,26.613],[-126.822,26.187],[-127.099,25.761],[-127.374,25.335],[-127.647,24.908],[-127.918,24.481],[-128.187,24.053],[-128.455,23.624],[-128.721,23.195],[-128.985,22.766],[-129.247,22.337],[-129.508,21.906],[-129.767,21.476],[-130.024,21.045],[-130.281,20.614],[-130.535,20.182],[-130.789,19.75],[-131.041,19.317],[-131.291,18.885],[-131.54,18.452],[-131.101,18.194],[-130.664,17.935],[-130.227,17.676],[-129.792,17.415],[-129.358,17.153],[-128.925,16.891],[-128.494,16.627],[-128.063,16.363],[-127.634,16.098],[-127.206,15.832],[-126.775,15.563],[-126.344,15.293],[-125.915,15.022],[-125.487,14.75],[-125.06,14.478],[-124.634,14.204],[-124.209,13.93],[-123.785,13.656],[-123.362,13.38],[-122.94,13.104],[-122.519,12.827],[-122.099,12.55],[-121.68,12.272]]}},{"type":"Feature","properties":{"boundary_type":"ridge","feature_type":"gpml:MidOceanRidge","polarity":null,"overriding_plate_id":null,"subducting_plate_id":null,"plate_ids":[701,98041],"name":"Tarim MoR"},"geometry":{"type":"LineString","coordinates":[[-121.68,12.272],[-121.307,12.024],[-120.935,11.775],[-120.564,11.525],[-120.193,11.276],[-120.462,10.865],[-120.73,10.453],[-120.998,10.042],[-121.264,9.63],[-121.531,9.218],[-121.796,8.806],[-122.061,8.394],[-122.325,7.981],[-122.589,7.568],[-122.852,7.155],[-123.115,6.742]]}},{"type":"Feature","properties":{"boundary_type":"ridge","feature_type":"gpml:MidOceanRidge","polarity":null,"overriding_plate_id":null,"subducting_plate_id":null,"plate_ids":[101,4012],"name":"Central Taimyr Back arc"},"geometry":{"type":"LineString","coordinates":[[-174.774,21.164],[-174.502,20.743],[-174.232,20.321],[-173.963,19.899],[-173.695,19.477],[-173.429,19.054],[-173.783,18.84],[-173.53,18.418],[-173.278,17.995],[-173.027,17.572],[-172.777,17.148],[-172.528,16.725],[-172.28,16.301],[-172.034,15.876],[-171.788,15.452],[-171.544,15.027],[-171.3,14.602],[-171.058,14.177],[-170.816,13.751],[-170.575,13.325],[-170.335,12.899],[-170.096,12.473],[-169.858,12.046],[-169.62,11.62],[-169.383,11.193],[-169.147,10.766],[-168.88,10.888],[-168.613,11.01],[-168.427,10.638],[-168.241,10.265],[-168.055,9.892]]}},{"type":"Feature","properties":{"boundary_type":"transform","feature_type":"gpml:Transform","polarity":null,"overriding_plate_id":null,"subducting_plate_id":null,"plate_ids":[701,775311],"name":"SES-WES transform"},"geometry":{"type":"LineString","coordinates":[[2.219,-24.301],[2.655,-24.108],[3.089,-23.914]]}},{"type":"Feature","properties":{"boundary_type":"transform","feature_type":"gpml:Transform","polarity":null,"overriding_plate_id":null,"subducting_plate_id":null,"plate_ids":[5031,775311],"name":"SES-WES transform"},"geometry":{"type":"LineString","coordinates":[[1.898,-20.756],[2.312,-20.686],[2.725,-20.614],[3.138,-20.542]]}},{"type":"Feature","properties":{"boundary_type":"ridge","feature_type":"gpml:MidOceanRidge","polarity":null,"overriding_plate_id":null,"subducting_plate_id":null,"plate_ids":[701,775211],"name":"SES-WES spreading"},"geometry":{"type":"LineString","coordinates":[[2.257,-24.485],[2.219,-24.301]]}},{"type":"Feature","properties":{"boundary_type":"ridge","feature_type":"gpml:MidOceanRidge","polarity":null,"overriding_plate_id":null,"subducting_plate_id":null,"plate_ids":[775211,775311],"name":"SES-WES spreading"},"geometry":{"type":"LineString","coordinates":[[2.219,-24.301],[2.125,-23.851],[2.032,-23.402],[1.939,-22.952],[1.847,-22.503],[1.756,-22.053],[1.665,-21.603],[2.06,-21.474],[1.979,-21.115],[1.898,-20.756]]}},{"type":"Feature","properties":{"boundary_type":"ridge","feature_type":"gpml:MidOceanRidge","polarity":null,"overriding_plate_id":null,"subducting_plate_id":null,"plate_ids":[5031,775211],"name":"SES-WES spreading"},"geometry":{"type":"LineString","coordinates":[[1.898,-20.756],[1.826,-20.433]]}},{"type":"Feature","properties":{"boundary_type":"ridge","feature_type":"gpml:MidOceanRidge","polarity":null,"overriding_plate_id":null,"subducting_plate_id":null,"plate_ids":[505,98045],"name":"MoR"},"geometry":{"type":"LineString","coordinates":[[23.885,10.524],[24.247,10.868],[24.61,11.212],[24.975,11.555],[25.34,11.897],[25.706,12.239],[26.073,12.581],[26.441,12.922],[26.81,13.263],[27.18,13.603],[27.551,13.943],[27.923,14.281],[28.297,14.62],[28.671,14.958],[29.047,15.295],[29.424,15.631],[29.802,15.967],[30.181,16.303],[30.562,16.637],[30.944,16.971],[31.327,17.304],[31.712,17.637],[32.098,17.968],[32.486,18.299],[32.875,18.629],[33.265,18.959],[33.658,19.287],[34.051,19.615],[34.447,19.942],[34.844,20.268],[35.242,20.593],[35.643,20.917],[36.045,21.24],[36.449,21.562],[36.854,21.884],[37.262,22.204],[37.671,22.523],[38.082,22.841],[38.495,23.158],[38.91,23.474],[39.328,23.789],[39.747,24.103],[40.168,24.416],[40.591,24.727],[41.016,25.038],[41.444,25.347],[41.874,25.655],[42.306,25.961],[42.74,26.267],[43.176,26.571],[43.615,26.873],[44.056,27.174],[44.406,26.84],[44.753,26.504],[45.098,26.168],[45.441,25.831],[45.783,25.493],[46.24,25.757],[46.698,26.021],[47.159,26.282],[47.622,26.542],[48.088,26.801],[48.555,27.058],[49.024,27.314],[49.496,27.568],[49.969,27.82],[50.445,28.071],[50.923,28.32],[51.404,28.568],[51.886,28.814],[52.371,29.058],[52.859,29.3],[53.348,29.541],[53.84,29.779],[54.334,30.016],[54.831,30.251],[55.33,30.485],[55.831,30.716],[56.335,30.945],[56.841,31.173],[57.349,31.398],[57.86,31.621],[58.374,31.843],[58.889,32.062],[59.408,32.279],[59.929,32.494],[60.452,32.707],[60.978,32.918],[61.506,33.126],[62.037,33.332],[62.57,33.536],[63.106,33.738],[63.644,33.937],[64.185,34.134],[64.728,34.329],[65.274,34.521],[65.823,34.711],[66.373,34.898],[66.927,35.083],[66.609,35.456],[66.288,35.828],[65.965,36.199],[65.638,36.57],[65.308,36.939],[65.83,37.169],[66.356,37.397],[66.884,37.622],[67.416,37.845],[67.951,38.066],[68.489,38.284],[69.031,38.499],[69.576,38.712],[70.124,38.923],[70.675,39.131],[71.229,39.336],[71.787,39.539],[72.348,39.739],[72.912,39.936],[73.479,40.131],[74.05,40.322],[74.624,40.511]]}},{"type":"Feature","properties":{"boundary_type":"ridge","feature_type":"gpml:MidOceanRidge","polarity":null,"overriding_plate_id":null,"subducting_plate_id":null,"plate_ids":[501,98045],"name":"MoR"},"geometry":{"type":"LineString","coordinates":[[74.624,40.511],[75.173,40.688],[75.724,40.863],[76.279,41.035],[76.836,41.204],[77.396,41.37]]}},{"type":"Feature","properties":{"boundary_type":"ridge","feature_type":"gpml:MidOceanRidge","polarity":null,"overriding_plate_id":null,"subducting_plate_id":null,"plate_ids":[5031,98045],"name":"ANS-Mozambique Ocean ridge"},"geometry":{"type":"LineString","coordinates":[[26.72,-9.503],[26.753,-9.104],[26.785,-8.705],[26.818,-8.306],[26.85,-7.907],[26.448,-7.781],[26.046,-7.655],[25.645,-7.528],[25.733,-7.057],[25.82,-6.586],[25.908,-6.115],[25.995,-5.644],[26.082,-5.172],[26.169,-4.701],[26.256,-4.23],[26.343,-3.759],[26.43,-3.287],[26.516,-2.816],[26.603,-2.345],[26.69,-1.874],[26.776,-1.402],[26.862,-0.931],[26.949,-0.46],[27.035,0.012],[27.122,0.483],[27.208,0.954],[27.295,1.426],[27.381,1.897],[27.468,2.368],[27.905,2.295],[28.343,2.222],[28.781,2.149],[29.218,2.076],[29.656,2.002],[29.781,2.48],[29.906,2.958],[30.031,3.437],[30.156,3.915],[30.282,4.393],[30.407,4.871],[30.533,5.349],[30.659,5.827],[30.785,6.305],[30.912,6.783],[31.038,7.261]]}},{"type":"Feature","properties":{"boundary_type":"ridge","feature_type":"gpml:MidOceanRidge","polarity":null,"overriding_plate_id":null,"subducting_plate_id":null,"plate_ids":[701,98041],"name":"MOR separating Tarim and SM-Congo"},"geometry":{"type":"LineString","coordinates":[[-123.115,6.742],[-123.598,6.782],[-124.08,6.82],[-124.563,6.859],[-125.045,6.896],[-125.528,6.934],[-126.011,6.97],[-126.494,7.007],[-126.977,7.042],[-127.46,7.078],[-127.943,7.113],[-128.426,7.147],[-128.91,7.181],[-129.393,7.214],[-129.876,7.247],[-130.36,7.279],[-130.843,7.311],[-131.327,7.342],[-131.811,7.373],[-131.761,7.832],[-131.711,8.292],[-131.661,8.751],[-131.612,9.211],[-131.561,9.67],[-131.511,10.13],[-131.461,10.589],[-131.41,11.049],[-131.36,11.508],[-131.309,11.968],[-131.798,12.006],[-132.288,12.044],[-132.778,12.081],[-133.268,12.117],[-133.758,12.152],[-134.248,12.186],[-134.739,12.22],[-135.229,12.252],[-135.72,12.284],[-136.211,12.315],[-136.701,12.345],[-137.192,12.374],[-137.683,12.402],[-138.175,12.429],[-138.666,12.456],[-139.157,12.481],[-139.649,12.506],[-140.14,12.53],[-140.632,12.552],[-141.124,12.574],[-141.615,12.595],[-142.107,12.616],[-142.599,12.635],[-142.667,12.257],[-142.735,11.879],[-142.803,11.502],[-142.87,11.124],[-143.375,11.141],[-143.88,11.158],[-144.386,11.174],[-144.891,11.189],[-145.396,11.203],[-145.902,11.216],[-146.407,11.229],[-146.912,11.24],[-147.418,11.251],[-147.924,11.261],[-148.429,11.27],[-148.935,11.278],[-149.44,11.286],[-149.946,11.292],[-150.452,11.298],[-150.958,11.303],[-151.463,11.307],[-151.969,11.31],[-152.475,11.312],[-152.981,11.313],[-153.064,10.876],[-153.147,10.438],[-153.23,10.0],[-153.312,9.563],[-153.817,9.554],[-154.322,9.545],[-154.827,9.535],[-155.332,9.524],[-155.837,9.512],[-156.342,9.5],[-156.847,9.487],[-157.351,9.473],[-157.856,9.459],[-158.361,9.443],[-158.866,9.428],[-159.37,9.411]]}},{"type":"Feature","properties":{"boundary_type":"ridge","feature_type":"gpml:MidOceanRidge","polarity":null,"overriding_plate_id":null,"subducting_plate_id":null,"plate_ids":[580,701],"name":"MOR separating Tarim and SM-Congo"},"geometry":{"type":"LineString","coordinates":[[-121.68,12.272],[-121.215,12.172],[-120.75,12.072],[-120.286,11.971],[-119.822,11.869],[-119.359,11.766],[-118.896,11.663],[-118.433,11.559],[-117.97,11.454],[-117.508,11.348],[-117.046,11.242],[-116.585,11.135],[-116.124,11.027],[-115.663,10.919],[-115.852,10.56],[-116.042,10.202],[-116.23,9.843],[-116.419,9.485],[-115.934,9.385],[-115.45,9.284],[-114.966,9.182],[-114.482,9.08],[-113.998,8.978],[-113.515,8.874],[-113.032,8.77],[-112.549,8.666],[-112.067,8.561],[-111.585,8.455],[-111.103,8.348],[-110.621,8.241],[-110.14,8.134],[-109.659,8.026],[-109.178,7.917],[-108.697,7.808],[-108.217,7.698],[-107.737,7.588],[-107.257,7.477],[-106.777,7.366],[-106.298,7.254],[-105.819,7.142],[-105.34,7.029],[-104.861,6.916],[-104.382,6.802],[-103.904,6.688],[-103.426,6.573],[-102.948,6.458],[-102.471,6.342],[-101.994,6.226],[-101.516,6.11],[-101.039,5.993],[-100.563,5.875],[-100.689,5.47],[-100.815,5.064],[-100.942,4.659],[-101.067,4.253],[-100.58,4.173],[-100.092,4.092],[-99.605,4.012],[-99.117,3.931],[-98.63,3.849],[-98.143,3.768],[-97.656,3.686],[-97.168,3.604],[-96.682,3.521],[-96.195,3.438],[-95.708,3.356],[-95.221,3.272],[-94.734,3.189],[-94.248,3.105],[-93.761,3.022],[-93.275,2.937],[-92.789,2.853],[-92.303,2.769],[-91.816,2.684],[-91.33,2.599],[-90.844,2.514],[-90.358,2.429],[-89.872,2.343],[-89.386,2.258],[-88.901,2.172],[-88.415,2.086],[-87.929,2.0],[-87.443,1.914],[-86.958,1.828],[-86.472,1.741],[-85.987,1.654],[-85.501,1.568],[-85.016,1.481],[-84.531,1.394],[-84.045,1.307],[-83.56,1.22],[-83.075,1.133],[-82.589,1.045],[-82.104,0.958],[-81.619,0.871],[-81.134,0.783],[-80.649,0.695],[-80.163,0.608]]}},{"type":"Feature","properties":{"boundary_type":"ridge","feature_type":"gpml:MidOceanRidge","polarity":null,"overriding_plate_id":null,"subducting_plate_id":null,"plate_ids":[101,701],"name":""},"geometry":{"type":"LineString","coordinates":[[65.151,-59.606],[64.178,-59.599],[63.206,-59.584],[62.234,-59.562],[61.264,-59.533],[60.296,-59.496],[59.33,-59.453],[58.367,-59.402],[57.407,-59.345],[56.45,-59.28],[55.498,-59.208],[54.549,-59.13],[53.605,-59.044],[52.666,-58.952],[51.732,-58.853],[50.803,-58.747],[49.881,-58.635],[48.964,-58.516],[48.054,-58.391],[47.15,-58.259],[46.253,-58.12],[45.364,-57.976],[44.481,-57.825],[43.606,-57.669],[42.739,-57.506],[41.88,-57.338],[41.547,-57.785],[41.206,-58.231],[40.856,-58.676],[40.498,-59.12],[40.129,-59.563],[39.751,-60.005],[39.363,-60.446],[38.964,-60.886],[38.047,-60.725],[37.139,-60.558],[36.241,-60.384],[35.352,-60.205],[34.877,-60.636],[34.389,-61.066],[33.887,-61.494],[33.372,-61.92],[32.842,-62.344],[32.296,-62.766],[31.735,-63.186],[31.158,-63.604],[30.563,-64.019],[29.951,-64.432],[29.32,-64.842],[28.669,-65.25],[27.683,-64.985],[26.716,-64.715],[25.768,-64.438],[24.84,-64.155],[23.931,-63.867],[23.04,-63.573],[22.329,-63.938],[21.6,-64.3],[20.852,-64.658],[20.084,-65.012],[19.295,-65.362],[18.485,-65.708],[17.901,-65.471],[17.328,-65.232],[16.766,-64.99],[15.9,-65.308],[15.014,-65.621],[14.106,-65.929],[13.176,-66.232],[12.224,-66.528],[11.249,-66.819],[10.251,-67.104],[9.229,-67.382],[8.184,-67.654],[7.114,-67.918],[6.021,-68.176],[4.903,-68.426],[3.76,-68.669],[2.592,-68.904],[1.4,-69.131],[0.184,-69.349],[-1.057,-69.558],[-2.334,-69.729],[-3.63,-69.89],[-4.946,-70.041],[-6.28,-70.182],[-7.632,-70.314],[-9.001,-70.435],[-10.385,-70.546],[-11.785,-70.646],[-13.197,-70.735],[-14.621,-70.814],[-16.056,-70.881],[-17.499,-70.937],[-18.95,-70.982],[-20.407,-71.016],[-21.868,-71.038],[-22.002,-70.677],[-22.131,-70.316],[-22.255,-69.955]]}},{"type":"Feature","properties":{"boundary_type":"transform","feature_type":"gpml:Transform","polarity":null,"overriding_plate_id":null,"subducting_plate_id":null,"plate_ids":[101,701],"name":"Transform connecting Valhalla with proto-Avalonia"},"geometry":{"type":"LineString","coordinates":[[165.132,-32.556],[165.705,-32.534],[166.277,-32.509],[166.849,-32.481],[167.421,-32.451],[167.992,-32.419],[168.563,-32.384],[169.134,-32.346],[169.692,-32.284],[170.249,-32.219],[170.806,-32.152],[171.361,-32.083],[171.916,-32.011],[172.47,-31.937],[173.023,-31.86],[173.575,-31.781],[174.127,-31.7],[174.677,-31.616],[175.226,-31.53],[175.774,-31.441],[176.321,-31.351]]}},{"type":"Feature","properties":{"boundary_type":"transform","feature_type":"gpml:Transform","polarity":null,"overriding_plate_id":null,"subducting_plate_id":null,"plate_ids":[701,5031],"name":"transform"},"geometry":{"type":"LineString","coordinates":[[-11.823,-10.068],[-11.321,-9.993],[-10.819,-9.917],[-10.318,-9.84],[-9.817,-9.763],[-9.316,-9.684],[-8.815,-9.605],[-8.314,-9.525],[-7.814,-9.445],[-7.314,-9.364],[-6.814,-9.282],[-6.314,-9.199],[-5.815,-9.116],[-5.316,-9.032],[-4.817,-8.947],[-4.318,-8.862],[-3.82,-8.776],[-3.322,-8.69],[-2.824,-8.602],[-2.326,-8.514],[-1.828,-8.426],[-1.331,-8.337],[-0.834,-8.247],[-0.337,-8.157],[0.13,-8.089],[0.598,-8.022],[1.065,-7.953],[1.532,-7.885]]}},{"type":"Feature","properties":{"boundary_type":"transform","feature_type":"gpml:Transform","polarity":null,"overriding_plate_id":null,"subducting_plate_id":null,"plate_ids":[5031,5907],"name":"ANS transform"},"geometry":{"type":"LineString","coordinates":[[1.639,-7.515],[2.132,-7.54],[2.624,-7.565],[3.117,-7.589],[3.609,-7.613],[4.102,-7.636],[4.594,-7.658],[5.087,-7.68],[5.58,-7.702],[6.072,-7.722],[6.565,-7.743],[7.058,-7.762],[7.551,-7.781],[8.044,-7.8],[8.537,-7.818],[9.03,-7.835],[9.523,-7.852],[10.016,-7.868],[10.509,-7.884],[11.002,-7.899]]}},{"type":"Feature","properties":{"boundary_type":"transform","feature_type":"gpml:Transform","polarity":null,"overriding_plate_id":null,"subducting_plate_id":null,"plate_ids":[5031,5907],"name":"ANS transform"},"geometry":{"type":"LineString","coordinates":[[3.992,7.587],[4.298,7.213],[4.604,6.839],[4.91,6.464],[5.214,6.09],[5.586,5.758],[5.956,5.425],[6.326,5.093],[6.696,4.76],[7.066,4.427],[7.435,4.093],[7.803,3.76],[8.241,3.543],[8.678,3.327],[9.116,3.11],[9.553,2.892],[9.989,2.675],[10.426,2.458]]}},{"type":"Feature","properties":{"boundary_type":"transform","feature_type":"gpml:Transform","polarity":null,"overriding_plate_id":null,"subducting_plate_id":null,"plate_ids":[701,5031],"name":"ANS transform"},"geometry":{"type":"LineString","coordinates":[[21.806,-5.87],[21.464,-5.869],[21.008,-5.982],[20.552,-6.093],[20.091,-6.176],[19.629,-6.258],[19.168,-6.339],[18.706,-6.421],[18.245,-6.501],[17.783,-6.582],[17.321,-6.662],[16.859,-6.741]]}},{"type":"Feature","properties":{"boundary_type":"transform","feature_type":"gpml:Transform","polarity":null,"overriding_plate_id":null,"subducting_plate_id":null,"plate_ids":[701,5031],"name":"ES-ANS transform"},"geometry":{"type":"LineString","coordinates":[[3.322,-20.279],[3.768,-20.248],[4.213,-20.217],[4.659,-20.184],[5.152,-20.234],[5.646,-20.283],[6.14,-20.33],[6.635,-20.376],[7.129,-20.42],[7.624,-20.464],[8.119,-20.505],[8.263,-20.53]]}},{"type":"Feature","properties":{"boundary_type":"transform","feature_type":"gpml:Transform","polarity":null,"overriding_plate_id":null,"subducting_plate_id":null,"plate_ids":[5031,77521],"name":"WES transform"},"geometry":{"type":"LineString","coordinates":[[-5.257,-18.003],[-4.937,-17.775],[-4.541,-17.63],[-4.146,-17.484],[-3.752,-17.337],[-3.307,-17.173],[-2.863,-17.009],[-2.419,-16.843],[-1.914,-16.831],[-1.409,-16.817],[-0.904,-16.802],[-0.864,-16.795]]}},{"type":"Feature","properties":{"boundary_type":"transform","feature_type":"gpml:Transform","polarity":null,"overriding_plate_id":null,"subducting_plate_id":null,"plate_ids":[501,505],"name":"Transform connecting SC subduction with Oman"},"geometry":{"type":"LineString","coordinates":[[-96.36,61.886],[-96.26,61.416],[-96.164,60.947],[-96.07,60.478],[-95.979,60.008],[-95.891,59.539],[-95.805,59.069],[-95.721,58.6],[-95.64,58.13],[-95.561,57.66],[-95.483,57.191],[-95.408,56.721],[-95.335,56.251]]}},{"type":"Feature","properties":{"boundary_type":"transform","feature_type":"gpml:Transform","polarity":null,"overriding_plate_id":null,"subducting_plate_id":null,"plate_ids":[501,505],"name":"Transform connecting India subduction with Oman"},"geometry":{"type":"LineString","coordinates":[[-70.2,55.085],[-70.784,54.78],[-71.359,54.472],[-71.926,54.161],[-72.484,53.848],[-73.034,53.532],[-73.576,53.214],[-74.109,52.893],[-74.635,52.57]]}},{"type":"Feature","properties":{"boundary_type":"transform","feature_type":"gpml:Transform","polarity":null,"overriding_plate_id":null,"subducting_plate_id":null,"plate_ids":[505,580],"name":"SC-Tarim transform"},"geometry":{"type":"LineString","coordinates":[[-106.556,61.16],[-106.328,60.676],[-106.107,60.193],[-105.892,59.708],[-105.683,59.224],[-105.48,58.739],[-105.283,58.254],[-105.091,57.769],[-104.904,57.283],[-104.722,56.797],[-104.545,56.311],[-104.372,55.824],[-104.204,55.338],[-104.039,54.851],[-103.879,54.363],[-103.722,53.876],[-103.569,53.389],[-103.419,52.901],[-103.273,52.413],[-103.13,51.925],[-103.002,51.442],[-102.877,50.958],[-102.755,50.475],[-102.635,49.992],[-102.518,49.508],[-102.403,49.024],[-102.29,48.54],[-102.179,48.057],[-102.071,47.573],[-101.964,47.088],[-101.859,46.604],[-101.757,46.12],[-101.655,45.635],[-101.556,45.151],[-101.458,44.666],[-101.362,44.182],[-101.268,43.697],[-101.175,43.212],[-101.083,42.727],[-100.993,42.242],[-100.905,41.757],[-100.817,41.272],[-100.731,40.787],[-100.646,40.302],[-100.563,39.816],[-100.48,39.331],[-100.399,38.846],[-100.319,38.36],[-100.24,37.875],[-100.162,37.389]]}},{"type":"Feature","properties":{"boundary_type":"transform","feature_type":"gpml:Transform","polarity":null,"overriding_plate_id":null,"subducting_plate_id":null,"plate_ids":[101,4012],"name":"Taimyr opening"},"geometry":{"type":"LineString","coordinates":[[-174.774,21.164],[-174.443,21.375],[-174.11,21.586],[-173.776,21.797],[-173.323,22.044],[-172.867,22.289],[-172.411,22.534],[-171.952,22.777],[-171.492,23.019],[-171.031,23.259],[-170.567,23.499]]}},{"type":"Feature","properties":{"boundary_type":"transform","feature_type":"gpml:Transform","polarity":null,"overriding_plate_id":null,"subducting_plate_id":null,"plate_ids":[101,4012],"name":"Taimyr opening"},"geometry":{"type":"LineString","coordinates":[[-168.055,9.892],[-167.651,10.107],[-167.247,10.323],[-166.826,10.569],[-166.405,10.815],[-165.982,11.06],[-165.559,11.304],[-165.136,11.548],[-164.711,11.791],[-164.286,12.034],[-163.86,12.276],[-163.434,12.517],[-163.006,12.758],[-162.578,12.998],[-162.149,13.237]]}},{"type":"Feature","properties":{"boundary_type":"transform","feature_type":"gpml:Transform","polarity":null,"overriding_plate_id":null,"subducting_plate_id":null,"plate_ids":[701,77521],"name":"ES transform"},"geometry":{"type":"LineString","coordinates":[[0.865,-25.428],[0.415,-25.679],[-0.038,-25.929],[-0.492,-26.178],[-0.948,-26.425],[-1.091,-26.502]]}},{"type":"Feature","properties":{"boundary_type":"transform","feature_type":"gpml:Transform","polarity":null,"overriding_plate_id":null,"subducting_plate_id":null,"plate_ids":[5031,775211],"name":"ES transform"},"geometry":{"type":"LineString","coordinates":[[1.826,-20.433],[1.463,-20.523],[1.1,-20.612]]}},{"type":"Feature","properties":{"boundary_type":"transform","feature_type":"gpml:Transform","polarity":null,"overriding_plate_id":null,"subducting_plate_id":null,"plate_ids":[505,580],"name":"Transform seprating Kunlun and Tarim"},"geometry":{"type":"LineString","coordinates":[[-100.162,37.389],[-99.575,37.41],[-98.989,37.428],[-98.402,37.444],[-97.815,37.456],[-97.228,37.466],[-96.64,37.472],[-96.053,37.476],[-95.465,37.477],[-94.878,37.475],[-94.29,37.469],[-93.703,37.462],[-93.116,37.451],[-92.529,37.437]]}},{"type":"Feature","properties":{"boundary_type":"transform","feature_type":"gpml:Transform","polarity":null,"overriding_plate_id":null,"subducting_plate_id":null,"plate_ids":[701,775211],"name":"transform"},"geometry":{"type":"LineString","coordinates":[[0.75,-24.837],[1.282,-24.834],[1.77,-24.66],[2.257,-24.485]]}},{"type":"Feature","properties":{"boundary_type":"transform","feature_type":"gpml:Transform","polarity":null,"overriding_plate_id":null,"subducting_plate_id":null,"plate_ids":[101,501],"name":"Lhasa transform"},"geometry":{"type":"LineString","coordinates":[[140.675,23.375],[140.7,22.931],[140.725,22.487],[140.749,22.043],[140.774,21.599],[140.798,21.155],[140.823,20.711],[140.847,20.267],[140.871,19.824]]}},{"type":"Feature","properties":{"boundary_type":"transform","feature_type":"gpml:Transform","polarity":null,"overriding_plate_id":null,"subducting_plate_id":null,"plate_ids":[101,501],"name":"Taimyr-Sib transform"},"geometry":{"type":"LineString","coordinates":[[-177.68,25.911],[-177.306,26.192],[-176.929,26.471],[-176.551,26.75],[-176.171,27.027],[-175.789,27.304],[-175.405,27.579],[-175.019,27.854]]}},{"type":"Feature","properties":{"boundary_type":"transform","feature_type":"gpml:Transform","polarity":null,"overriding_plate_id":null,"subducting_plate_id":null,"plate_ids":[501,505],"name":"long transform between ANS-Azania and Mawson Sea"},"geometry":{"type":"LineString","coordinates":[[71.82,49.985],[72.051,49.658],[72.28,49.331],[72.431,48.842],[72.579,48.353],[72.724,47.864],[72.867,47.375],[73.007,46.886],[73.144,46.396],[73.279,45.907],[73.412,45.417],[73.542,44.927],[73.67,44.437],[73.796,43.947],[73.92,43.456],[74.042,42.966],[74.162,42.475],[74.28,41.984],[74.397,41.493],[74.511,41.002],[74.624,40.511]]}},{"type":"Feature","properties":{"boundary_type":"transform","feature_type":"gpml:Transform","polarity":null,"overriding_plate_id":null,"subducting_plate_id":null,"plate_ids":[101,701],"name":"Siberia transform"},"geometry":{"type":"LineString","coordinates":[[-168.398,-12.913],[-168.901,-13.006],[-169.405,-13.099],[-169.909,-13.19],[-170.414,-13.28],[-170.919,-13.369],[-171.424,-13.458],[-171.929,-13.545],[-172.435,-13.631],[-172.942,-13.716],[-173.449,-13.8],[-173.956,-13.884],[-174.463,-13.966],[-174.971,-14.047],[-175.479,-14.127],[-175.987,-14.206],[-176.496,-14.283],[-177.005,-14.36],[-177.515,-14.436],[-178.025,-14.511],[-178.535,-14.584],[-179.046,-14.656],[-179.557,-14.728],[179.932,-14.798],[179.421,-14.867],[178.909,-14.935],[178.396,-15.001],[177.884,-15.067],[177.371,-15.131],[176.858,-15.195],[176.344,-15.257],[175.831,-15.318],[175.317,-15.377],[174.802,-15.436],[174.288,-15.493],[173.773,-15.55],[173.258,-15.605],[172.742,-15.659],[172.226,-15.711],[171.71,-15.763],[171.223,-15.81],[170.736,-15.857],[170.248,-15.903],[169.76,-15.948],[169.272,-15.991],[168.784,-16.034],[168.295,-16.075],[167.807,-16.115],[167.318,-16.155],[166.829,-16.193],[166.34,-16.229],[165.85,-16.265]]}},{"type":"Feature","properties":{"boundary_type":"transform","feature_type":"gpml:Transform","polarity":null,"overriding_plate_id":null,"subducting_plate_id":null,"plate_ids":[501,98041],"name":"transform closing India-SC plate"},"geometry":{"type":"LineString","coordinates":[[-167.468,28.036],[-167.767,27.639],[-168.063,27.24],[-168.358,26.841],[-168.65,26.442],[-168.941,26.042],[-169.229,25.641],[-169.516,25.24],[-169.801,24.838],[-170.104,24.424],[-170.406,24.01],[-170.706,23.596]]}},{"type":"Feature","properties":{"boundary_type":"transform","feature_type":"gpml:Transform","polarity":null,"overriding_plate_id":null,"subducting_plate_id":null,"plate_ids":[505,5031],"name":"Azania transform"},"geometry":{"type":"LineString","coordinates":[[8.323,16.435],[8.792,16.285],[9.26,16.135],[9.728,15.983],[10.195,15.83],[10.661,15.676],[11.126,15.522],[11.591,15.366],[12.055,15.209],[12.518,15.052],[12.981,14.893],[13.443,14.734],[13.904,14.574],[14.365,14.412],[14.824,14.25],[15.284,14.087],[15.742,13.923],[16.2,13.758],[16.658,13.593],[17.114,13.407],[17.57,13.22],[18.026,13.032],[18.48,12.844],[18.934,12.654],[19.387,12.464],[19.84,12.273],[20.292,12.082],[20.743,11.89],[21.194,11.697],[21.644,11.503],[22.093,11.308],[22.542,11.113],[22.99,10.918],[23.438,10.721],[23.885,10.524]]}},{"type":"Feature","properties":{"boundary_type":"transform","feature_type":"gpml:Transform","polarity":null,"overriding_plate_id":null,"subducting_plate_id":null,"plate_ids":[5031,98045],"name":"Azania transform"},"geometry":{"type":"LineString","coordinates":[[23.885,10.524],[24.336,10.325],[24.786,10.124],[25.236,9.923],[25.685,9.722],[26.134,9.52],[26.582,9.317],[27.03,9.114],[27.477,8.91],[27.924,8.706],[28.37,8.501],[28.816,8.295],[29.261,8.089],[29.706,7.883],[30.151,7.676],[30.595,7.469],[31.038,7.261]]}},{"type":"Feature","properties":{"boundary_type":"transform","feature_type":"gpml:Transform","polarity":null,"overriding_plate_id":null,"subducting_plate_id":null,"plate_ids":[501,98045],"name":"long transform between ANS-Azania and Mawson Sea"},"geometry":{"type":"LineString","coordinates":[[77.396,41.37],[77.844,41.015],[78.288,40.659],[78.727,40.301],[79.161,39.941],[79.59,39.58],[80.015,39.217],[80.436,38.852],[80.852,38.486],[81.264,38.119],[81.672,37.75],[82.076,37.38],[82.476,37.008],[82.872,36.635],[83.265,36.261],[83.653,35.885],[84.038,35.509],[84.419,35.131],[84.797,34.752],[85.171,34.371],[85.542,33.99],[85.909,33.607],[86.274,33.224],[86.635,32.839],[86.993,32.453],[87.348,32.067],[87.7,31.679],[88.049,31.29],[88.395,30.901],[88.738,30.51],[89.079,30.119],[89.417,29.727],[89.752,29.334],[90.085,28.94],[90.415,28.545],[90.742,28.15],[91.068,27.753],[91.391,27.356],[91.694,26.996],[91.995,26.635],[92.295,26.274],[92.592,25.912],[92.888,25.55],[93.182,25.186],[93.474,24.823],[93.765,24.458]]}},{"type":"Feature","properties":{"boundary_type":"transform","feature_type":"gpml:Transform","polarity":null,"overriding_plate_id":null,"subducting_plate_id":null,"plate_ids":[101,701],"name":"Rodinia-Congo transform"},"geometry":{"type":"LineString","coordinates":[[65.151,-59.606],[65.208,-59.111],[65.263,-58.615],[65.317,-58.12],[65.369,-57.625],[65.42,-57.129],[65.469,-56.634],[65.517,-56.138],[65.564,-55.643],[65.61,-55.147],[65.654,-54.652],[65.698,-54.156],[65.741,-53.66],[65.782,-53.165],[65.865,-52.668],[65.946,-52.17],[66.025,-51.673],[66.102,-51.176],[66.178,-50.678],[66.252,-50.181],[66.324,-49.683],[66.395,-49.185],[66.465,-48.688],[66.533,-48.19],[66.6,-47.692],[66.666,-47.195],[66.731,-46.697],[66.794,-46.199]]}}]}