{"type":"FeatureCollection","meta":{"model":"Cao2024","reconstruction_time_ma":1765.0,"anchor_plate_id":0,"pygplates_version":"1.0.0","tessellate_degrees":0.5,"polarity_convention":"gpml:subductionPolarity. 'Left'/'Right' names the side of the line, in vertex order, on which the OVERRIDING plate lies. Triangles are drawn on that side.","antimeridian":"Lines are NOT split at +/-180 deg. The renderer works in 3D unit vectors where the dateline is not special; splitting would only add spurious breaks. Do not treat this as RFC 7946 GIS-ready 2D data."},"features":[{"type":"Feature","properties":{"boundary_type":"subduction","feature_type":"gpml:SubductionZone","polarity":"Left","overriding_plate_id":101,"subducting_plate_id":90106,"plate_ids":[101,90106],"name":"eastern Laurentia-greenland-western baltica"},"geometry":{"type":"LineString","coordinates":[[-124.802,63.549],[-125.871,63.599],[-126.943,63.641],[-128.018,63.675],[-129.095,63.7],[-130.174,63.718],[-131.255,63.727],[-132.335,63.729],[-133.415,63.722],[-134.495,63.708],[-135.573,63.685],[-136.668,63.591],[-137.755,63.489],[-138.835,63.378],[-139.906,63.259],[-140.967,63.133],[-142.02,62.998],[-143.062,62.856],[-144.094,62.706],[-145.115,62.549],[-146.126,62.384],[-147.125,62.212],[-148.112,62.033],[-149.088,61.847],[-150.052,61.655],[-151.003,61.455],[-151.943,61.249],[-152.87,61.036],[-153.784,60.818],[-154.686,60.593],[-155.575,60.362],[-156.451,60.125],[-157.315,59.883],[-158.067,59.599],[-158.807,59.31],[-159.533,59.018],[-160.248,58.721],[-160.95,58.421],[-161.64,58.116],[-162.319,57.808],[-162.986,57.497],[-163.642,57.182],[-164.286,56.864],[-164.92,56.542],[-165.543,56.218],[-166.003,55.792],[-166.454,55.364],[-166.895,54.935],[-167.326,54.504],[-167.749,54.072],[-168.163,53.639],[-168.568,53.203],[-168.965,52.767],[-169.355,52.329],[-169.736,51.89],[-170.11,51.45],[-170.478,51.009]]}},{"type":"Feature","properties":{"boundary_type":"subduction","feature_type":"gpml:SubductionZone","polarity":"Left","overriding_plate_id":101,"subducting_plate_id":501001,"plate_ids":[101,501001],"name":"eastern Laurentia-greenland-western baltica"},"geometry":{"type":"LineString","coordinates":[[-170.478,51.009],[-170.792,50.623],[-171.102,50.236],[-171.406,49.849],[-171.706,49.461],[-172.0,49.072],[-172.291,48.682],[-172.635,48.25],[-172.973,47.818],[-173.305,47.385],[-173.632,46.95],[-173.954,46.515],[-174.271,46.079],[-174.583,45.642],[-174.89,45.204],[-175.192,44.765],[-175.49,44.326],[-175.783,43.885],[-176.072,43.444],[-176.357,43.003],[-176.637,42.56],[-176.914,42.117],[-177.187,41.674],[-177.456,41.229],[-177.722,40.784],[-177.984,40.339]]}},{"type":"Feature","properties":{"boundary_type":"subduction","feature_type":"gpml:SubductionZone","polarity":"Right","overriding_plate_id":801,"subducting_plate_id":80103,"plate_ids":[801,80103],"name":"NorthChina_SZ"},"geometry":{"type":"LineString","coordinates":[[-88.153,0.023],[-88.097,-0.439],[-88.041,-0.901],[-87.985,-1.363],[-87.93,-1.824],[-87.874,-2.286],[-87.818,-2.748],[-87.762,-3.21],[-87.848,-3.677],[-87.934,-4.144],[-88.021,-4.611],[-88.107,-5.078],[-88.194,-5.545],[-88.28,-6.012],[-88.367,-6.479],[-88.454,-6.946],[-88.722,-7.324],[-88.99,-7.702],[-89.259,-8.08],[-89.528,-8.458],[-89.797,-8.835],[-90.067,-9.213],[-90.338,-9.59],[-90.609,-9.967],[-90.881,-10.343],[-91.154,-10.72]]}},{"type":"Feature","properties":{"boundary_type":"subduction","feature_type":"gpml:SubductionZone","polarity":"Right","overriding_plate_id":801,"subducting_plate_id":701,"plate_ids":[701,801],"name":"NorthChina_SZ"},"geometry":{"type":"LineString","coordinates":[[-91.154,-10.72],[-91.216,-10.805],[-91.667,-10.945],[-92.119,-11.084],[-92.571,-11.222],[-93.023,-11.36],[-93.476,-11.497],[-93.929,-11.633],[-94.383,-11.769],[-94.837,-11.904],[-95.291,-12.038],[-95.746,-12.171],[-96.202,-12.304],[-96.658,-12.436],[-97.114,-12.567],[-97.598,-12.574],[-98.082,-12.581],[-98.566,-12.587],[-99.05,-12.592],[-99.534,-12.596],[-100.018,-12.599],[-100.502,-12.601],[-100.986,-12.602],[-101.47,-12.603],[-101.954,-12.603],[-102.438,-12.601],[-102.922,-12.599],[-103.406,-12.596]]}},{"type":"Feature","properties":{"boundary_type":"subduction","feature_type":"gpml:SubductionZone","polarity":"Left","overriding_plate_id":201,"subducting_plate_id":701,"plate_ids":[201,701],"name":"Amazonia_SZ"},"geometry":{"type":"LineString","coordinates":[[142.985,-50.704],[143.744,-50.744],[144.505,-50.779],[145.266,-50.809],[146.028,-50.834],[146.791,-50.854],[147.555,-50.869],[148.319,-50.879],[149.083,-50.884],[149.847,-50.884],[150.611,-50.879],[151.375,-50.87],[152.139,-50.855],[152.902,-50.835],[153.664,-50.81],[154.425,-50.78],[155.185,-50.746],[155.945,-50.706],[156.702,-50.661],[157.457,-50.527],[158.208,-50.388],[158.954,-50.244],[159.695,-50.096],[160.432,-49.943],[161.164,-49.785],[161.891,-49.622],[162.614,-49.455],[163.331,-49.284],[164.043,-49.108],[164.751,-48.928],[165.453,-48.743],[166.15,-48.555],[166.841,-48.362],[167.528,-48.165],[168.209,-47.963],[168.884,-47.758],[169.555,-47.549],[170.22,-47.337],[170.879,-47.12],[171.534,-46.899],[172.183,-46.675],[172.826,-46.447],[173.464,-46.216],[174.097,-45.981],[174.724,-45.743],[175.346,-45.501],[175.962,-45.256],[176.573,-45.008],[177.179,-44.756],[177.78,-44.501],[178.375,-44.243],[178.965,-43.982],[179.55,-43.718],[-179.87,-43.451],[-179.295,-43.182],[-178.726,-42.909],[-178.161,-42.633],[-177.602,-42.355],[-177.047,-42.074],[-176.498,-41.791],[-175.953,-41.504],[-175.413,-41.216],[-174.878,-40.924],[-174.347,-40.631],[-173.821,-40.335],[-173.3,-40.036],[-172.784,-39.735],[-172.272,-39.432],[-171.764,-39.127],[-171.261,-38.82],[-170.762,-38.51],[-170.267,-38.198],[-169.777,-37.885],[-169.29,-37.569],[-168.808,-37.251],[-168.33,-36.932],[-167.856,-36.61],[-167.386,-36.287],[-166.92,-35.961],[-166.457,-35.634],[-165.999,-35.306],[-165.544,-34.975],[-165.093,-34.643],[-164.645,-34.309],[-164.201,-33.973],[-163.76,-33.636],[-163.323,-33.298],[-162.908,-32.993],[-162.495,-32.686],[-162.085,-32.378],[-161.678,-32.069],[-161.274,-31.758]]}},{"type":"Feature","properties":{"boundary_type":"subduction","feature_type":"gpml:SubductionZone","polarity":"Left","overriding_plate_id":101,"subducting_plate_id":701,"plate_ids":[101,701],"name":"Amazonia_SZ"},"geometry":{"type":"LineString","coordinates":[[-161.274,-31.758],[-161.187,-31.691]]}},{"type":"Feature","properties":{"boundary_type":"subduction","feature_type":"gpml:SubductionZone","polarity":"Left","overriding_plate_id":101,"subducting_plate_id":10101,"plate_ids":[101,10101],"name":"Hearne_SZ"},"geometry":{"type":"LineString","coordinates":[[-107.158,53.594],[-107.942,53.717],[-108.731,53.835],[-109.524,53.948],[-110.322,54.055],[-111.123,54.157],[-111.929,54.254],[-112.738,54.345],[-113.55,54.431],[-114.373,54.454],[-115.197,54.471],[-116.021,54.482],[-116.846,54.488],[-117.671,54.489],[-118.496,54.483],[-119.32,54.473],[-120.144,54.456],[-120.967,54.434],[-121.79,54.406],[-122.611,54.373],[-123.43,54.334],[-124.248,54.29],[-125.064,54.24],[-125.878,54.185],[-126.689,54.124],[-127.498,54.058],[-128.305,53.986]]}},{"type":"Feature","properties":{"boundary_type":"subduction","feature_type":"gpml:SubductionZone","polarity":"Left","overriding_plate_id":101,"subducting_plate_id":90106,"plate_ids":[101,90106],"name":"Wyoming_SZ"},"geometry":{"type":"LineString","coordinates":[[-78.708,59.893],[-79.531,59.996],[-80.358,60.093],[-81.214,60.296],[-82.081,60.494],[-82.958,60.685],[-83.846,60.871],[-84.743,61.051],[-85.651,61.226],[-86.569,61.393],[-87.496,61.555],[-88.433,61.71],[-89.379,61.859],[-90.335,62.002],[-91.299,62.137],[-92.271,62.266],[-93.252,62.388],[-94.24,62.503]]}},{"type":"Feature","properties":{"boundary_type":"subduction","feature_type":"gpml:SubductionZone","polarity":"Left","overriding_plate_id":10101,"subducting_plate_id":90106,"plate_ids":[10101,90106],"name":"Wyoming_SZ"},"geometry":{"type":"LineString","coordinates":[[-94.24,62.503],[-95.238,62.612],[-96.243,62.713],[-97.255,62.807],[-98.273,62.893],[-99.297,62.972],[-100.326,63.044],[-101.359,63.108],[-102.397,63.165],[-103.439,63.214],[-104.484,63.256],[-105.532,63.289],[-106.582,63.315],[-107.592,63.479],[-108.612,63.636],[-109.644,63.785],[-110.687,63.927],[-111.739,64.061],[-112.802,64.188],[-113.874,64.307],[-114.955,64.418],[-116.045,64.521],[-117.142,64.615],[-118.247,64.702],[-119.359,64.78],[-120.477,64.85],[-121.6,64.912],[-122.51,64.79],[-123.412,64.663],[-124.305,64.53]]}},{"type":"Feature","properties":{"boundary_type":"subduction","feature_type":"gpml:SubductionZone","polarity":"Left","overriding_plate_id":801,"subducting_plate_id":80103,"plate_ids":[801,80103],"name":"South_NorthAustralia_SZ"},"geometry":{"type":"LineString","coordinates":[[-88.153,0.023],[-87.909,0.438],[-87.666,0.853],[-87.422,1.268],[-87.178,1.682],[-86.934,2.097],[-86.691,2.512],[-86.446,2.927],[-86.202,3.342],[-85.958,3.756],[-85.713,4.171],[-85.468,4.585],[-85.223,5.0],[-84.977,5.414],[-84.731,5.828],[-84.549,6.291],[-84.366,6.754],[-84.183,7.216],[-83.999,7.678],[-83.815,8.141],[-83.631,8.603],[-83.446,9.065],[-83.261,9.527],[-83.075,9.989],[-82.889,10.451],[-82.702,10.913],[-82.515,11.374],[-82.327,11.836],[-82.138,12.297],[-81.977,12.752],[-81.816,13.207],[-81.654,13.662],[-81.492,14.116],[-81.328,14.571],[-81.165,15.025],[-81.0,15.479],[-80.835,15.933],[-80.669,16.387],[-80.451,16.834],[-80.232,17.28],[-80.012,17.726],[-79.791,18.172],[-79.569,18.617],[-79.345,19.062],[-79.121,19.507]]}},{"type":"Feature","properties":{"boundary_type":"subduction","feature_type":"gpml:SubductionZone","polarity":"Left","overriding_plate_id":80101,"subducting_plate_id":90107,"plate_ids":[80101,90107],"name":""},"geometry":{"type":"LineString","coordinates":[[-14.335,11.86],[-14.241,12.231],[-14.148,12.602],[-14.053,12.974],[-14.015,13.452],[-13.976,13.931],[-13.937,14.409],[-13.898,14.888],[-13.859,15.366],[-13.82,15.844],[-13.78,16.323],[-13.74,16.801],[-13.701,17.28],[-13.66,17.758],[-13.62,18.237],[-13.579,18.715],[-13.539,19.193],[-13.497,19.672],[-13.456,20.15],[-13.415,20.628],[-13.428,21.095],[-13.441,21.562],[-13.455,22.029],[-13.469,22.496],[-13.482,22.963],[-13.496,23.43],[-13.51,23.897],[-13.524,24.364],[-13.538,24.831],[-13.553,25.298],[-13.567,25.765],[-13.581,26.232],[-13.596,26.699],[-13.611,27.166],[-13.625,27.633],[-13.836,28.069],[-14.047,28.504],[-14.261,28.94],[-14.476,29.375],[-14.694,29.809],[-14.913,30.244],[-15.134,30.678],[-15.357,31.111],[-15.582,31.544],[-15.809,31.977],[-16.039,32.409],[-16.27,32.841],[-16.504,33.273],[-16.826,33.649],[-17.152,34.025],[-17.48,34.399],[-17.811,34.773],[-18.145,35.146],[-18.482,35.518],[-18.822,35.889],[-19.165,36.259],[-19.512,36.628],[-19.862,36.996],[-20.216,37.363],[-20.572,37.729],[-20.933,38.094],[-21.317,38.478],[-21.705,38.86],[-22.098,39.241],[-22.494,39.621],[-22.895,39.999],[-23.301,40.376],[-23.711,40.752],[-24.126,41.126],[-24.545,41.498],[-24.969,41.87],[-25.399,42.239],[-25.833,42.607],[-26.272,42.973],[-26.717,43.338]]}},{"type":"Feature","properties":{"boundary_type":"subduction","feature_type":"gpml:SubductionZone","polarity":"Left","overriding_plate_id":201,"subducting_plate_id":501001,"plate_ids":[201,501001],"name":"Amazonia_SZ"},"geometry":{"type":"LineString","coordinates":[[112.333,24.872],[112.03,24.458],[111.73,24.043],[111.431,23.628],[111.134,23.212],[110.839,22.795],[110.546,22.378],[110.254,21.96],[109.965,21.542],[109.677,21.124],[109.39,20.705],[109.105,20.285],[108.822,19.865],[108.54,19.445],[108.26,19.024],[107.981,18.602],[107.703,18.181],[107.427,17.759],[107.152,17.336],[106.879,16.913],[106.606,16.49],[106.335,16.066],[106.065,15.642],[105.796,15.218],[105.528,14.794],[105.261,14.369],[104.995,13.944],[104.731,13.518],[104.467,13.092],[104.204,12.666],[103.942,12.24],[103.68,11.813],[103.42,11.387],[103.16,10.96],[102.901,10.533],[102.643,10.105],[102.386,9.677],[102.129,9.25],[101.872,8.822],[101.617,8.394],[101.362,7.965],[101.107,7.537],[100.853,7.108],[100.6,6.679],[100.346,6.25],[100.094,5.821],[99.841,5.392],[99.589,4.963],[99.338,4.534],[99.178,4.076],[99.019,3.617],[98.86,3.159],[98.701,2.701],[98.542,2.243],[98.383,1.785],[98.224,1.327],[98.066,0.868],[97.907,0.41],[97.748,-0.048],[97.59,-0.506],[97.431,-0.965],[97.273,-1.423],[97.114,-1.881],[96.955,-2.339],[96.796,-2.797],[96.637,-3.256],[96.478,-3.714],[96.319,-4.172],[96.159,-4.63],[95.999,-5.088],[95.982,-5.587],[95.965,-6.086],[95.947,-6.585],[95.93,-7.084],[95.912,-7.583],[95.895,-8.081],[95.877,-8.58],[95.86,-9.079],[95.842,-9.578],[95.824,-10.077],[95.807,-10.576],[95.789,-11.075],[95.771,-11.574],[95.753,-12.073],[95.735,-12.571],[95.717,-13.07],[95.699,-13.569],[95.681,-14.068],[95.797,-14.462],[95.913,-14.856],[96.03,-15.25],[96.147,-15.644]]}},{"type":"Feature","properties":{"boundary_type":"subduction","feature_type":"gpml:SubductionZone","polarity":"Left","overriding_plate_id":201,"subducting_plate_id":90105,"plate_ids":[201,90105],"name":"Amazonia_SZ"},"geometry":{"type":"LineString","coordinates":[[96.147,-15.644],[96.285,-16.102],[96.422,-16.56],[96.561,-17.019],[96.7,-17.477],[96.84,-17.935],[96.981,-18.393],[97.122,-18.851],[97.264,-19.309],[97.407,-19.766],[97.551,-20.224],[97.695,-20.681],[97.841,-21.139],[97.987,-21.596],[98.134,-22.053],[98.283,-22.51],[98.432,-22.967],[98.582,-23.423],[98.911,-23.816],[99.242,-24.207],[99.574,-24.598],[99.909,-24.988],[100.246,-25.378],[100.586,-25.766],[100.927,-26.154],[101.271,-26.541],[101.617,-26.927],[101.965,-27.313],[102.316,-27.697],[102.669,-28.081],[103.025,-28.464],[103.383,-28.845],[103.744,-29.226],[104.108,-29.606],[104.475,-29.985],[104.844,-30.363],[105.216,-30.739],[105.591,-31.115],[105.969,-31.49],[106.35,-31.863],[106.735,-32.236],[107.122,-32.607],[107.512,-32.977],[107.906,-33.345],[108.303,-33.713],[108.704,-34.079],[109.108,-34.444],[109.516,-34.808],[109.927,-35.17],[110.342,-35.53],[110.76,-35.89],[111.183,-36.248],[111.609,-36.604],[112.039,-36.959],[112.474,-37.312],[112.912,-37.664],[113.355,-38.014],[113.801,-38.362],[114.252,-38.709],[114.708,-39.054],[115.168,-39.397],[115.632,-39.738],[116.101,-40.078],[116.575,-40.415],[117.054,-40.751],[117.537,-41.084],[118.025,-41.416],[118.518,-41.745],[119.017,-42.072],[119.52,-42.398],[120.029,-42.72],[120.543,-43.041],[121.062,-43.359],[121.587,-43.675],[122.118,-43.989],[122.654,-44.3],[123.195,-44.608],[123.743,-44.914],[124.296,-45.217],[124.855,-45.518],[125.42,-45.816],[126.025,-46.048],[126.636,-46.277],[127.251,-46.503],[127.871,-46.725],[128.497,-46.944],[129.127,-47.16],[129.763,-47.372],[130.404,-47.58],[131.05,-47.785],[131.7,-47.986],[132.356,-48.184],[133.017,-48.378],[133.683,-48.568],[134.354,-48.754],[135.03,-48.936]]}},{"type":"Feature","properties":{"boundary_type":"subduction","feature_type":"gpml:SubductionZone","polarity":"Left","overriding_plate_id":201,"subducting_plate_id":701,"plate_ids":[201,701],"name":"Amazonia_SZ"},"geometry":{"type":"LineString","coordinates":[[135.03,-48.936],[135.729,-49.119],[136.433,-49.297],[137.141,-49.472],[137.855,-49.642],[138.574,-49.807],[139.297,-49.968],[140.026,-50.125],[140.759,-50.276],[141.497,-50.424],[142.239,-50.566],[142.985,-50.704]]}},{"type":"Feature","properties":{"boundary_type":"ridge","feature_type":"gpml:MidOceanRidge","polarity":null,"overriding_plate_id":null,"subducting_plate_id":null,"plate_ids":[101,90106],"name":""},"geometry":{"type":"LineString","coordinates":[[-78.708,59.893],[-79.095,59.574],[-79.474,59.255]]}},{"type":"Feature","properties":{"boundary_type":"ridge","feature_type":"gpml:MidOceanRidge","polarity":null,"overriding_plate_id":null,"subducting_plate_id":null,"plate_ids":[101,801],"name":""},"geometry":{"type":"LineString","coordinates":[[-79.474,59.255],[-79.965,58.83],[-80.443,58.405],[-80.91,57.977],[-81.366,57.548],[-81.811,57.117],[-82.246,56.684],[-82.671,56.25],[-83.087,55.815],[-83.493,55.378],[-83.891,54.94],[-84.279,54.501],[-84.66,54.06],[-85.033,53.619],[-85.398,53.176],[-85.755,52.732],[-86.105,52.287],[-86.448,51.841],[-86.785,51.394],[-87.115,50.946],[-87.438,50.497],[-87.756,50.047],[-88.068,49.597],[-88.374,49.145],[-88.674,48.693],[-88.969,48.24],[-89.259,47.786],[-89.544,47.332],[-89.824,46.877],[-90.099,46.421],[-90.37,45.965],[-90.636,45.508],[-90.898,45.05],[-91.156,44.592],[-91.41,44.133],[-91.66,43.673],[-91.906,43.213],[-92.148,42.753],[-92.387,42.292],[-92.622,41.831],[-92.854,41.369],[-93.083,40.906],[-93.308,40.444],[-93.531,39.98],[-94.063,40.128],[-94.597,40.274],[-95.133,40.416],[-95.671,40.557],[-96.212,40.695],[-96.393,40.215],[-96.572,39.734],[-96.748,39.254],[-96.922,38.773],[-97.094,38.292],[-97.263,37.81],[-97.43,37.329],[-97.596,36.847],[-97.758,36.365],[-97.919,35.883],[-98.078,35.4],[-98.235,34.918],[-98.391,34.435],[-98.544,33.952],[-98.696,33.468],[-98.846,32.985],[-98.994,32.501],[-99.141,32.017],[-99.287,31.533],[-99.43,31.049],[-99.573,30.565],[-99.714,30.081],[-99.853,29.596],[-99.991,29.111],[-100.128,28.626],[-100.264,28.141],[-100.398,27.656],[-100.532,27.171],[-100.664,26.686],[-100.795,26.2],[-101.322,26.329],[-101.851,26.456],[-102.38,26.581],[-102.911,26.704],[-103.443,26.826],[-103.976,26.945],[-104.511,27.062],[-105.046,27.177],[-105.582,27.29],[-105.702,26.805],[-105.821,26.319],[-105.939,25.834],[-106.056,25.348],[-106.172,24.862],[-106.287,24.376],[-106.401,23.89],[-106.514,23.404],[-106.626,22.918],[-106.738,22.431],[-106.849,21.945],[-106.959,21.459],[-107.068,20.972],[-107.177,20.486],[-107.285,19.999],[-107.392,19.512],[-107.499,19.026],[-107.605,18.539],[-107.711,18.052],[-107.815,17.565],[-107.92,17.078],[-108.023,16.591],[-108.127,16.104],[-108.229,15.617],[-108.332,15.129],[-108.433,14.642],[-108.535,14.155],[-108.636,13.668],[-108.736,13.18],[-108.836,12.693],[-108.936,12.205],[-109.035,11.718],[-109.134,11.23],[-109.233,10.743],[-109.331,10.255],[-109.429,9.768],[-109.92,9.817],[-110.411,9.865],[-110.902,9.912],[-111.394,9.959],[-111.885,10.005],[-112.377,10.05],[-112.869,10.095],[-113.361,10.138],[-113.853,10.181],[-114.345,10.224],[-114.411,9.752],[-114.477,9.28],[-114.543,8.808],[-114.608,8.337],[-114.674,7.865],[-114.739,7.393],[-114.804,6.921],[-114.869,6.45],[-114.934,5.978],[-114.998,5.506],[-115.063,5.034],[-115.127,4.562],[-115.192,4.09],[-115.687,4.031],[-116.183,3.972],[-116.678,3.913],[-117.174,3.853],[-117.669,3.793],[-118.164,3.733],[-118.659,3.672],[-119.154,3.611],[-119.65,3.55],[-120.144,3.489],[-120.639,3.427],[-121.134,3.365],[-121.629,3.303],[-122.124,3.24],[-122.618,3.178],[-123.113,3.115],[-123.607,3.052],[-124.102,2.988],[-124.596,2.925],[-125.091,2.861],[-125.585,2.797],[-126.079,2.733],[-126.573,2.668],[-127.068,2.604],[-127.562,2.539],[-128.056,2.474],[-128.55,2.409],[-129.044,2.343],[-129.538,2.278],[-130.031,2.212],[-130.525,2.146],[-131.019,2.08],[-131.513,2.014],[-132.006,1.948],[-132.5,1.881],[-132.994,1.815],[-133.487,1.748],[-133.981,1.681],[-134.474,1.614],[-134.968,1.547],[-135.461,1.479],[-135.955,1.412],[-136.448,1.345],[-136.941,1.277],[-137.435,1.209],[-137.928,1.142],[-138.421,1.074],[-138.914,1.006],[-139.408,0.938],[-139.901,0.87],[-140.394,0.802],[-140.518,0.348],[-140.641,-0.105],[-140.765,-0.558],[-140.888,-1.012],[-141.012,-1.465],[-141.136,-1.919],[-141.609,-1.984],[-142.083,-2.049],[-142.557,-2.114],[-143.03,-2.179],[-143.504,-2.243],[-143.978,-2.308],[-144.452,-2.372],[-144.925,-2.437],[-145.399,-2.501],[-145.873,-2.565],[-146.347,-2.628],[-146.821,-2.692],[-147.295,-2.755],[-147.77,-2.818],[-148.244,-2.881],[-148.718,-2.944],[-149.192,-3.007]]}},{"type":"Feature","properties":{"boundary_type":"transform","feature_type":"gpml:Transform","polarity":null,"overriding_plate_id":null,"subducting_plate_id":null,"plate_ids":[201,501001],"name":""},"geometry":{"type":"LineString","coordinates":[[112.333,24.872],[112.797,24.605],[113.26,24.336],[113.721,24.066],[114.179,23.795],[114.636,23.522],[115.091,23.248],[115.544,22.972],[115.995,22.696],[116.445,22.418],[116.892,22.138],[117.338,21.858],[117.782,21.576],[118.225,21.294],[118.665,21.01],[119.104,20.725],[119.541,20.438],[119.977,20.151],[120.411,19.863],[120.844,19.573],[121.275,19.283],[121.704,18.992],[122.132,18.699],[122.558,18.406],[122.983,18.112],[123.407,17.816],[123.829,17.52],[124.25,17.223],[124.669,16.925],[125.087,16.627],[125.504,16.327],[125.92,16.026],[126.334,15.725],[126.747,15.423],[127.159,15.121],[127.569,14.817],[127.979,14.513],[128.387,14.208],[128.794,13.902],[129.201,13.596],[129.606,13.289],[130.01,12.981],[130.413,12.673],[130.815,12.364],[131.216,12.055],[131.617,11.745],[132.016,11.435],[132.415,11.123],[132.812,10.812],[133.209,10.5],[133.605,10.187],[134.0,9.874],[134.395,9.561],[134.789,9.247],[135.182,8.932],[135.574,8.617],[135.966,8.302],[136.357,7.987],[136.747,7.671],[137.137,7.354],[137.527,7.038],[137.89,6.757],[138.252,6.477],[138.614,6.196],[138.976,5.914],[139.337,5.633],[139.698,5.351],[140.059,5.069]]}},{"type":"Feature","properties":{"boundary_type":"transform","feature_type":"gpml:Transform","polarity":null,"overriding_plate_id":null,"subducting_plate_id":null,"plate_ids":[201,501],"name":""},"geometry":{"type":"LineString","coordinates":[[140.059,5.069],[140.449,4.764],[140.839,4.458],[141.229,4.152],[141.619,3.845],[142.008,3.539],[142.397,3.232],[142.786,2.926],[143.174,2.619],[143.562,2.312],[143.95,2.005],[144.338,1.698],[144.726,1.39],[145.114,1.083],[145.502,0.775],[145.889,0.468],[146.277,0.161],[146.665,-0.147],[147.052,-0.454],[147.44,-0.762],[147.827,-1.069],[148.215,-1.376],[148.603,-1.684],[148.991,-1.991],[149.379,-2.298],[149.767,-2.605],[150.156,-2.912],[150.545,-3.219],[150.933,-3.525],[151.323,-3.832],[151.712,-4.138],[152.102,-4.444],[152.492,-4.75],[152.882,-5.056],[153.273,-5.361],[153.664,-5.666],[154.056,-5.971],[154.448,-6.276],[154.84,-6.58],[155.233,-6.884],[155.627,-7.188],[156.021,-7.491],[156.415,-7.794],[156.811,-8.097],[157.206,-8.399],[157.603,-8.701],[158.0,-9.003],[158.397,-9.304],[158.796,-9.604],[159.195,-9.904],[159.594,-10.204],[159.995,-10.503],[160.396,-10.802],[160.798,-11.1],[161.201,-11.398],[161.605,-11.695],[162.01,-11.991],[162.415,-12.287],[162.821,-12.583],[163.229,-12.877],[163.637,-13.171],[164.046,-13.465],[164.457,-13.758],[164.868,-14.05],[165.28,-14.341],[165.694,-14.632],[166.108,-14.922],[166.524,-15.211],[166.941,-15.499],[167.359,-15.787],[167.778,-16.074],[168.198,-16.36],[168.62,-16.645],[169.043,-16.93],[169.467,-17.213],[169.892,-17.496],[170.319,-17.777],[170.747,-18.058],[171.177,-18.338],[171.608,-18.617],[172.04,-18.895],[172.473,-19.172],[172.909,-19.447],[173.345,-19.722]]}},{"type":"Feature","properties":{"boundary_type":"transform","feature_type":"gpml:Transform","polarity":null,"overriding_plate_id":null,"subducting_plate_id":null,"plate_ids":[101,201],"name":""},"geometry":{"type":"LineString","coordinates":[[173.345,-19.722],[173.784,-19.996],[174.224,-20.269],[174.666,-20.541],[175.11,-20.812],[175.555,-21.082],[176.001,-21.35],[176.449,-21.618],[176.899,-21.884],[177.351,-22.149],[177.804,-22.412],[178.259,-22.675],[178.716,-22.936],[179.175,-23.196],[179.635,-23.454],[-179.903,-23.711],[-179.439,-23.967],[-178.973,-24.221],[-178.506,-24.474],[-178.036,-24.725],[-177.565,-24.975],[-177.092,-25.224],[-176.616,-25.471],[-176.139,-25.716],[-175.66,-25.96],[-175.179,-26.203],[-174.696,-26.443],[-174.211,-26.682],[-173.723,-26.92],[-173.234,-27.155],[-172.743,-27.389],[-172.25,-27.622],[-171.754,-27.852],[-171.249,-28.066],[-170.743,-28.279],[-170.234,-28.489],[-169.723,-28.698],[-169.211,-28.905],[-168.696,-29.11],[-168.179,-29.312],[-167.66,-29.513],[-167.14,-29.712],[-166.617,-29.909],[-166.092,-30.103],[-165.565,-30.296],[-165.035,-30.486],[-164.504,-30.675],[-163.971,-30.861],[-163.436,-31.045],[-162.898,-31.226],[-162.359,-31.406],[-161.817,-31.583],[-161.274,-31.758]]}},{"type":"Feature","properties":{"boundary_type":"transform","feature_type":"gpml:Transform","polarity":null,"overriding_plate_id":null,"subducting_plate_id":null,"plate_ids":[801,80103],"name":""},"geometry":{"type":"LineString","coordinates":[[-79.121,19.507],[-78.651,19.313],[-78.182,19.117],[-77.714,18.92],[-77.248,18.721],[-76.782,18.522],[-76.318,18.321],[-75.855,18.119],[-75.392,17.916],[-74.931,17.713],[-74.471,17.508],[-74.012,17.301],[-73.554,17.094],[-73.097,16.886],[-72.641,16.677],[-72.186,16.467],[-71.732,16.256],[-71.279,16.044],[-70.827,15.831],[-70.376,15.617],[-69.926,15.402],[-69.476,15.186],[-69.028,14.969],[-68.581,14.752],[-68.134,14.533],[-67.688,14.314]]}},{"type":"Feature","properties":{"boundary_type":"transform","feature_type":"gpml:Transform","polarity":null,"overriding_plate_id":null,"subducting_plate_id":null,"plate_ids":[101,801],"name":""},"geometry":{"type":"LineString","coordinates":[[-149.192,-3.007],[-149.308,-3.485],[-149.424,-3.963],[-149.54,-4.442],[-149.657,-4.92],[-149.773,-5.399],[-149.89,-5.877],[-150.007,-6.355],[-150.124,-6.833],[-150.241,-7.312],[-150.359,-7.79],[-150.476,-8.268],[-150.595,-8.746],[-150.713,-9.224],[-150.832,-9.702],[-150.951,-10.18],[-151.07,-10.658],[-151.19,-11.136],[-151.31,-11.614],[-151.431,-12.092],[-151.552,-12.57],[-151.673,-13.048],[-151.795,-13.525],[-151.918,-14.003],[-152.041,-14.48],[-152.164,-14.958],[-152.288,-15.435],[-152.413,-15.913],[-152.538,-16.39],[-152.664,-16.867],[-152.79,-17.344],[-152.917,-17.821],[-153.045,-18.298],[-153.174,-18.775],[-153.303,-19.252],[-153.433,-19.729],[-153.564,-20.205],[-153.695,-20.682],[-153.828,-21.158],[-153.961,-21.635],[-154.095,-22.111],[-154.23,-22.587],[-154.366,-23.063],[-154.503,-23.539],[-154.735,-23.986],[-154.968,-24.433],[-155.202,-24.88],[-155.439,-25.327],[-155.677,-25.773],[-155.917,-26.218],[-156.159,-26.663],[-156.403,-27.108],[-156.649,-27.553],[-156.896,-27.996],[-157.146,-28.44],[-157.398,-28.883]]}},{"type":"Feature","properties":{"boundary_type":"transform","feature_type":"gpml:Transform","polarity":null,"overriding_plate_id":null,"subducting_plate_id":null,"plate_ids":[101,701],"name":""},"geometry":{"type":"LineString","coordinates":[[-157.398,-28.883],[-157.465,-29.001],[-157.628,-29.307],[-157.791,-29.612]]}},{"type":"Feature","properties":{"boundary_type":"subduction","feature_type":"gpml:SubductionZone","polarity":"Right","overriding_plate_id":801,"subducting_plate_id":701,"plate_ids":[701,801],"name":"Cathaysia_SZ"},"geometry":{"type":"LineString","coordinates":[[-103.406,-12.596],[-103.591,-13.062],[-103.776,-13.528],[-103.962,-13.993],[-104.149,-14.458],[-104.336,-14.923],[-104.525,-15.388],[-104.714,-15.853],[-104.904,-16.317],[-105.095,-16.782],[-105.287,-17.246],[-105.479,-17.71],[-105.673,-18.174],[-105.868,-18.638],[-105.989,-19.124],[-106.111,-19.61],[-106.234,-20.096],[-106.357,-20.582],[-106.482,-21.067],[-106.607,-21.553],[-106.733,-22.039],[-106.859,-22.524],[-106.987,-23.01],[-107.116,-23.495],[-107.245,-23.98],[-107.376,-24.465],[-107.507,-24.95],[-107.64,-25.435],[-107.773,-25.92],[-107.765,-26.359],[-107.757,-26.798],[-107.749,-27.237],[-107.74,-27.675],[-107.732,-28.114],[-107.723,-28.553]]}},{"type":"Feature","properties":{"boundary_type":"transform","feature_type":"gpml:Transform","polarity":null,"overriding_plate_id":null,"subducting_plate_id":null,"plate_ids":[701,801],"name":""},"geometry":{"type":"LineString","coordinates":[[-157.398,-28.883],[-156.898,-29.058],[-156.397,-29.231],[-155.894,-29.403],[-155.389,-29.572],[-154.883,-29.74],[-154.375,-29.905],[-153.865,-30.069],[-153.316,-30.188],[-152.765,-30.304],[-152.214,-30.418],[-151.661,-30.53],[-151.106,-30.639],[-150.551,-30.746],[-149.994,-30.851],[-149.436,-30.953],[-148.877,-31.053],[-148.317,-31.15],[-147.755,-31.245],[-147.193,-31.338],[-146.629,-31.428],[-146.064,-31.516],[-145.498,-31.601],[-144.932,-31.683],[-144.364,-31.763],[-143.795,-31.841],[-143.225,-31.916],[-142.655,-31.989],[-142.083,-32.059],[-141.511,-32.126],[-140.938,-32.191],[-140.364,-32.253],[-139.789,-32.313],[-139.213,-32.37],[-138.637,-32.424],[-138.06,-32.476],[-137.483,-32.525],[-136.905,-32.572],[-136.326,-32.615],[-135.747,-32.657],[-135.167,-32.695],[-134.586,-32.731],[-134.006,-32.764],[-133.425,-32.732],[-132.845,-32.697],[-132.265,-32.659],[-131.685,-32.619],[-131.107,-32.576],[-130.528,-32.53],[-129.951,-32.482],[-129.374,-32.431],[-128.797,-32.377],[-128.222,-32.321],[-127.647,-32.262],[-127.073,-32.201],[-126.499,-32.137],[-125.927,-32.07],[-125.355,-32.001],[-124.784,-31.929],[-124.214,-31.855],[-123.645,-31.778],[-123.077,-31.699],[-122.51,-31.617],[-121.944,-31.533],[-121.379,-31.446],[-120.815,-31.357],[-120.253,-31.265],[-119.691,-31.171],[-119.13,-31.074],[-118.571,-30.975],[-118.013,-30.874],[-117.456,-30.77],[-116.9,-30.663],[-116.345,-30.555],[-115.792,-30.444],[-115.24,-30.331],[-114.689,-30.215],[-114.139,-30.097],[-113.597,-29.98],[-113.057,-29.861],[-112.517,-29.74],[-111.979,-29.617],[-111.442,-29.491],[-110.907,-29.364],[-110.373,-29.234],[-109.84,-29.102],[-109.309,-28.968],[-108.779,-28.832],[-108.25,-28.693],[-107.723,-28.553]]}},{"type":"Feature","properties":{"boundary_type":"subduction","feature_type":"gpml:SubductionZone","polarity":"Left","overriding_plate_id":101,"subducting_plate_id":501,"plate_ids":[101,501],"name":"Baltica_SZ"},"geometry":{"type":"LineString","coordinates":[[178.522,6.187],[178.597,5.784],[178.672,5.38],[178.634,4.899],[178.597,4.418],[178.56,3.937],[178.523,3.457],[178.486,2.976],[178.449,2.495],[178.412,2.014],[178.376,1.533],[178.339,1.052],[178.302,0.571],[178.265,0.09],[178.228,-0.391],[178.191,-0.872],[178.154,-1.353],[178.118,-1.834],[178.081,-2.315],[178.044,-2.796],[178.007,-3.277],[177.97,-3.758],[177.933,-4.239],[177.896,-4.72],[177.859,-5.201],[177.821,-5.682],[177.682,-6.16],[177.542,-6.637],[177.403,-7.114],[177.263,-7.592],[177.122,-8.069],[176.981,-8.546],[176.84,-9.023],[176.699,-9.501],[176.557,-9.978],[176.415,-10.455],[176.272,-10.932],[176.129,-11.408],[175.985,-11.885],[175.841,-12.362],[175.696,-12.839],[175.551,-13.315],[175.405,-13.792],[175.259,-14.268],[175.112,-14.745],[174.964,-15.221],[174.816,-15.697],[174.667,-16.173],[174.504,-16.617],[174.341,-17.061],[174.177,-17.505],[174.013,-17.949],[173.847,-18.392],[173.681,-18.836],[173.513,-19.279],[173.345,-19.722]]}},{"type":"Feature","properties":{"boundary_type":"subduction","feature_type":"gpml:SubductionZone","polarity":"Left","overriding_plate_id":701,"subducting_plate_id":90105,"plate_ids":[701,90105],"name":""},"geometry":{"type":"LineString","coordinates":[[135.03,-48.936],[134.691,-49.382],[134.347,-49.828],[133.995,-50.272],[133.637,-50.715],[133.272,-51.157],[132.901,-51.598],[132.522,-52.038],[132.135,-52.477],[131.741,-52.914],[131.338,-53.35],[130.927,-53.784],[130.508,-54.217],[130.08,-54.649],[129.642,-55.079],[129.196,-55.507],[128.739,-55.934],[128.272,-56.359],[127.795,-56.783],[127.307,-57.204],[126.807,-57.623],[126.296,-58.041],[125.773,-58.456],[125.237,-58.869],[124.689,-59.28],[124.127,-59.689],[123.551,-60.095],[122.961,-60.498],[122.356,-60.899],[121.736,-61.297],[121.1,-61.693],[120.448,-62.085],[119.778,-62.474],[119.091,-62.859],[118.386,-63.242],[117.662,-63.62],[116.918,-63.995],[116.154,-64.366],[115.37,-64.733],[114.564,-65.096],[113.736,-65.454],[112.885,-65.808],[112.01,-66.157],[111.112,-66.5],[110.188,-66.839],[109.239,-67.171],[108.263,-67.498],[107.26,-67.819],[106.23,-68.134],[105.171,-68.442],[104.084,-68.744],[102.967,-69.038],[101.82,-69.324],[100.643,-69.603],[99.435,-69.874],[98.196,-70.136],[96.925,-70.39],[95.624,-70.634],[94.29,-70.869],[92.926,-71.094],[91.531,-71.309],[90.105,-71.513],[88.65,-71.707],[87.165,-71.889],[85.652,-72.06],[84.112,-72.218],[82.546,-72.365],[80.956,-72.499],[79.343,-72.62],[77.709,-72.728],[76.057,-72.822],[74.388,-72.903],[72.706,-72.971],[71.011,-73.024],[69.308,-73.063],[67.598,-73.088],[65.885,-73.099],[64.171,-73.096],[62.459,-73.078],[60.753,-73.046],[59.053,-73.0],[57.364,-72.94],[55.688,-72.866],[54.027,-72.779],[52.383,-72.678],[50.759,-72.563],[49.157,-72.436],[47.579,-72.296],[46.025,-72.144],[44.498,-71.979],[42.998,-71.803],[41.527,-71.615],[40.086,-71.417],[38.675,-71.207],[37.294,-70.987],[35.945,-70.757],[34.627,-70.518],[33.34,-70.269],[32.085,-70.011],[30.861,-69.745],[29.668,-69.47],[28.505,-69.188],[27.373,-68.897],[26.27,-68.6],[25.196,-68.295],[24.151,-67.984],[23.134,-67.666],[22.145,-67.342],[21.182,-67.012],[20.245,-66.677],[19.333,-66.336],[18.446,-65.99],[17.583,-65.639],[16.743,-65.283],[15.926,-64.922],[15.13,-64.557],[14.356,-64.189],[13.602,-63.816],[12.868,-63.439],[12.153,-63.058],[11.456,-62.674],[10.778,-62.287],[10.116,-61.897],[9.472,-61.503],[8.821,-61.119],[8.186,-60.731],[7.566,-60.341],[6.961,-59.948],[6.37,-59.552],[5.793,-59.153],[5.229,-58.752],[4.678,-58.349],[4.14,-57.943],[3.614,-57.535],[3.099,-57.125],[2.596,-56.713],[2.103,-56.299],[1.621,-55.883],[1.15,-55.465],[0.688,-55.045],[0.236,-54.624],[-0.207,-54.201],[-0.641,-53.776],[-1.066,-53.35],[-1.483,-52.922],[-1.891,-52.493],[-2.292,-52.063],[-2.685,-51.631],[-3.07,-51.198],[-3.449,-50.764],[-3.82,-50.328],[-4.185,-49.891],[-4.543,-49.454],[-4.894,-49.015],[-5.24,-48.575],[-5.58,-48.134],[-5.913,-47.692],[-6.242,-47.249],[-6.564,-46.805],[-6.882,-46.36],[-7.194,-45.915]]}},{"type":"Feature","properties":{"boundary_type":"ridge","feature_type":"gpml:MidOceanRidge","polarity":null,"overriding_plate_id":null,"subducting_plate_id":null,"plate_ids":[90105,90106],"name":""},"geometry":{"type":"LineString","coordinates":[[33.72,27.704],[33.349,27.332],[32.981,26.96],[32.615,26.586],[32.252,26.212],[31.891,25.837]]}},{"type":"Feature","properties":{"boundary_type":"ridge","feature_type":"gpml:MidOceanRidge","polarity":null,"overriding_plate_id":null,"subducting_plate_id":null,"plate_ids":[90105,90107],"name":""},"geometry":{"type":"LineString","coordinates":[[31.891,25.837],[31.54,25.468],[31.19,25.099],[30.843,24.728],[30.498,24.357],[30.155,23.986],[29.814,23.613],[29.475,23.24],[29.138,22.866],[28.802,22.491],[28.469,22.116],[28.137,21.739],[27.807,21.363],[27.478,20.985],[27.151,20.607],[26.826,20.229],[26.503,19.849],[26.181,19.47],[25.86,19.089],[25.541,18.708],[25.224,18.327],[24.908,17.945],[24.593,17.562],[24.279,17.179],[23.967,16.796],[23.656,16.412],[23.346,16.028],[23.038,15.643],[22.731,15.258],[22.424,14.872],[22.119,14.486],[21.815,14.099],[21.512,13.712],[21.21,13.325],[21.604,13.022],[21.997,12.718],[22.389,12.414],[22.78,12.109],[23.17,11.804],[23.56,11.498],[23.948,11.191],[24.336,10.884],[24.723,10.577],[25.109,10.269],[25.494,9.96],[25.879,9.652],[26.263,9.342],[26.646,9.033],[27.028,8.722],[27.41,8.412],[27.792,8.101],[28.173,7.79],[28.553,7.479],[28.932,7.167],[29.311,6.855],[29.69,6.542],[30.068,6.229],[30.446,5.916],[30.823,5.603],[31.2,5.29],[31.577,4.976],[31.953,4.662],[32.328,4.348],[32.704,4.033],[33.079,3.719],[33.454,3.404],[33.829,3.089],[33.55,2.677],[33.272,2.265],[32.995,1.853],[32.717,1.441],[32.439,1.028],[32.162,0.616],[31.884,0.203],[31.607,-0.209],[31.329,-0.621],[31.052,-1.034],[30.774,-1.446],[30.496,-1.858],[30.218,-2.271],[29.94,-2.683],[29.662,-3.095],[29.384,-3.507],[29.105,-3.919],[28.826,-4.331],[28.547,-4.743],[28.267,-5.154],[27.988,-5.566],[27.707,-5.977],[27.426,-6.389],[27.145,-6.8],[26.864,-7.211],[26.581,-7.622],[26.299,-8.032],[26.015,-8.443],[25.731,-8.853],[25.447,-9.263],[25.162,-9.673],[24.876,-10.082],[24.589,-10.492],[24.302,-10.901],[24.014,-11.309],[23.725,-11.718],[23.435,-12.126],[23.144,-12.534],[22.852,-12.942],[22.56,-13.349],[22.266,-13.756],[21.971,-14.162],[21.676,-14.569],[21.379,-14.974],[21.081,-15.38],[20.782,-15.785],[20.482,-16.19],[20.18,-16.594],[19.877,-16.998],[19.573,-17.401],[19.268,-17.804],[18.961,-18.206],[18.653,-18.608],[18.343,-19.01],[18.032,-19.411],[17.719,-19.811],[17.405,-20.211],[17.089,-20.61],[16.771,-21.009],[16.452,-21.407],[16.131,-21.804],[15.808,-22.201],[15.484,-22.597],[15.157,-22.993],[14.829,-23.388],[14.498,-23.782],[14.816,-24.188],[15.136,-24.593],[15.459,-24.997],[15.783,-25.401],[16.109,-25.804],[16.438,-26.206],[16.769,-26.607],[17.102,-27.008],[17.438,-27.408],[17.776,-27.807],[18.116,-28.205],[18.459,-28.603],[18.805,-28.999],[19.153,-29.395],[19.504,-29.789],[19.858,-30.183],[20.215,-30.576],[20.574,-30.968],[20.937,-31.359],[21.303,-31.749],[21.671,-32.137],[22.043,-32.525],[22.418,-32.912],[22.796,-33.297],[22.323,-33.602],[21.847,-33.904],[21.367,-34.205],[20.884,-34.504],[20.398,-34.801],[19.907,-35.096],[19.414,-35.389],[18.917,-35.68],[18.416,-35.969],[17.911,-36.256],[17.403,-36.541],[16.891,-36.824],[16.375,-37.104],[15.856,-37.382],[15.332,-37.658],[14.805,-37.932],[14.274,-38.203],[13.739,-38.471],[13.199,-38.738],[12.656,-39.002],[12.109,-39.263],[11.558,-39.522],[11.002,-39.778],[10.443,-40.031],[9.879,-40.282],[9.311,-40.53],[8.739,-40.775],[8.163,-41.017],[7.582,-41.256],[6.998,-41.493],[6.409,-41.726],[5.815,-41.957],[5.218,-42.184],[4.616,-42.408],[4.01,-42.629],[3.399,-42.847],[2.785,-43.062],[2.166,-43.273],[1.542,-43.481],[0.915,-43.685],[0.283,-43.887],[-0.353,-44.084],[-0.993,-44.278],[-1.638,-44.468],[-2.286,-44.655],[-2.939,-44.838],[-3.596,-45.018],[-4.257,-45.193],[-4.922,-45.365],[-5.591,-45.533],[-6.264,-45.696],[-6.941,-45.856]]}},{"type":"Feature","properties":{"boundary_type":"ridge","feature_type":"gpml:MidOceanRidge","polarity":null,"overriding_plate_id":null,"subducting_plate_id":null,"plate_ids":[701,90105],"name":""},"geometry":{"type":"LineString","coordinates":[[-6.941,-45.856],[-7.194,-45.915]]}},{"type":"Feature","properties":{"boundary_type":"ridge","feature_type":"gpml:MidOceanRidge","polarity":null,"overriding_plate_id":null,"subducting_plate_id":null,"plate_ids":[90106,90107],"name":""},"geometry":{"type":"LineString","coordinates":[[31.891,25.837],[31.559,26.234],[31.225,26.631],[30.889,27.028],[30.551,27.423],[30.21,27.818],[29.866,28.212],[29.52,28.605],[29.171,28.997],[28.82,29.388],[28.466,29.778],[28.109,30.168],[27.75,30.556],[27.387,30.943],[27.022,31.329],[26.653,31.715],[26.282,32.099],[25.907,32.482],[25.529,32.864],[25.148,33.245],[24.764,33.625],[24.376,34.003],[23.984,34.38],[23.59,34.756],[23.191,35.131],[22.789,35.504],[22.383,35.876],[21.973,36.247],[21.56,36.616],[21.142,36.984],[20.721,37.35],[20.295,37.715],[19.865,38.078],[19.431,38.44],[19.803,38.794],[20.179,39.146],[20.559,39.497],[20.942,39.847],[21.33,40.196],[21.722,40.543],[21.183,40.808],[20.64,41.07],[20.093,41.329],[19.541,41.586],[18.986,41.84],[18.425,42.092],[17.86,42.34],[17.291,42.586],[16.718,42.829],[16.139,43.069],[15.557,43.306],[14.969,43.541],[14.377,43.772],[13.781,44.0],[13.18,44.225],[12.575,44.447],[11.964,44.665],[11.35,44.881],[10.731,45.093],[10.107,45.301],[9.478,45.507],[9.625,45.968],[9.775,46.43],[9.927,46.891],[10.082,47.352],[10.24,47.813],[10.4,48.273],[10.564,48.734],[10.73,49.194],[10.899,49.654],[11.072,50.113],[11.248,50.573],[11.428,51.032],[11.611,51.49],[11.798,51.949],[11.988,52.407],[11.21,52.499],[10.428,52.586],[9.644,52.668],[8.856,52.744],[8.066,52.815],[7.274,52.881],[6.479,52.942],[5.682,52.997],[4.883,53.047],[4.082,53.092],[3.279,53.131],[2.476,53.165],[1.671,53.193],[0.865,53.216],[0.058,53.234],[-0.749,53.246],[-1.556,53.253],[-2.364,53.254],[-3.172,53.249],[-3.979,53.24],[-4.048,53.725],[-4.118,54.211],[-4.19,54.697],[-4.264,55.182],[-4.339,55.668],[-4.417,56.153],[-4.496,56.639],[-4.578,57.124],[-4.661,57.609],[-4.747,58.095],[-4.836,58.58],[-4.926,59.065],[-5.02,59.55],[-5.116,60.035],[-5.215,60.52],[-5.317,61.005],[-5.422,61.49],[-5.531,61.974],[-5.643,62.459],[-5.758,62.943],[-5.878,63.428],[-6.001,63.912],[-6.13,64.396],[-7.246,64.303],[-8.354,64.201],[-9.453,64.091],[-10.544,63.973],[-11.625,63.846],[-12.697,63.712],[-13.758,63.569],[-14.808,63.419],[-15.846,63.262],[-16.874,63.096],[-17.889,62.924],[-18.892,62.744],[-19.883,62.557],[-20.861,62.364],[-21.827,62.163],[-22.779,61.956],[-23.719,61.742],[-24.645,61.522],[-25.558,61.296],[-26.458,61.064],[-27.345,60.826],[-28.218,60.582],[-29.078,60.333],[-29.925,60.078],[-30.759,59.817],[-31.58,59.552],[-32.388,59.281],[-33.183,59.006],[-33.965,58.726],[-34.735,58.441],[-35.492,58.151],[-36.237,57.858],[-36.97,57.559],[-37.691,57.257]]}},{"type":"Feature","properties":{"boundary_type":"ridge","feature_type":"gpml:MidOceanRidge","polarity":null,"overriding_plate_id":null,"subducting_plate_id":null,"plate_ids":[801,90106],"name":""},"geometry":{"type":"LineString","coordinates":[[-37.691,57.257],[-38.248,57.017],[-38.799,56.774],[-39.342,56.529]]}},{"type":"Feature","properties":{"boundary_type":"ridge","feature_type":"gpml:MidOceanRidge","polarity":null,"overriding_plate_id":null,"subducting_plate_id":null,"plate_ids":[90106,501001],"name":""},"geometry":{"type":"LineString","coordinates":[[85.352,22.87],[84.821,22.883],[84.29,22.894],[83.759,22.903],[83.228,22.91],[82.697,22.916],[82.166,22.92],[81.635,22.923],[81.103,22.923],[80.572,22.922],[80.041,22.919],[79.51,22.914],[78.979,22.907]]}},{"type":"Feature","properties":{"boundary_type":"ridge","feature_type":"gpml:MidOceanRidge","polarity":null,"overriding_plate_id":null,"subducting_plate_id":null,"plate_ids":[90105,90106],"name":""},"geometry":{"type":"LineString","coordinates":[[78.979,22.907],[78.448,22.899],[77.918,22.889],[77.387,22.877],[76.857,22.864],[76.327,22.848],[75.796,22.831],[75.266,22.812],[74.737,22.792],[74.207,22.769],[73.677,22.745],[73.148,22.719],[72.619,22.692],[72.09,22.662],[71.561,22.631],[71.033,22.598],[70.505,22.564],[69.977,22.528],[69.449,22.49],[68.922,22.45],[68.395,22.408],[67.868,22.365],[67.342,22.32],[66.816,22.274],[66.29,22.226],[65.765,22.176],[65.24,22.124],[64.716,22.071],[64.192,22.016],[63.668,21.959],[63.145,21.901],[62.622,21.841],[62.1,21.78],[61.578,21.717],[61.056,21.652],[60.535,21.585],[60.015,21.517],[59.495,21.448],[58.975,21.376],[58.456,21.303],[57.938,21.229],[57.42,21.153],[57.366,21.644],[57.311,22.134],[57.257,22.625],[57.202,23.116],[57.146,23.606],[57.09,24.097],[57.034,24.588],[56.977,25.078],[56.92,25.569],[56.862,26.059],[56.804,26.55],[56.745,27.04],[56.686,27.531],[56.626,28.021],[56.566,28.512],[56.505,29.002],[56.444,29.492],[56.382,29.983],[56.319,30.473],[56.256,30.963],[56.192,31.454],[56.127,31.944],[56.062,32.434],[55.479,32.364],[54.898,32.292],[54.317,32.217],[53.738,32.139],[53.159,32.059],[52.582,31.976],[52.006,31.89],[51.43,31.802],[50.856,31.711],[50.283,31.618],[49.711,31.522],[49.14,31.423],[48.571,31.322],[48.003,31.219],[47.436,31.113],[46.87,31.004],[46.305,30.894],[45.742,30.78],[45.18,30.664],[44.62,30.546],[44.061,30.426],[43.503,30.303],[42.947,30.177],[42.392,30.05],[41.839,29.92],[41.287,29.787],[40.737,29.653],[40.188,29.516],[39.64,29.377],[39.094,29.236],[38.55,29.092],[38.007,28.946],[37.466,28.798],[36.926,28.648],[36.387,28.496],[35.851,28.342],[35.316,28.186],[34.782,28.027],[34.25,27.867],[33.72,27.704]]}},{"type":"Feature","properties":{"boundary_type":"ridge","feature_type":"gpml:MidOceanRidge","polarity":null,"overriding_plate_id":null,"subducting_plate_id":null,"plate_ids":[90105,501001],"name":""},"geometry":{"type":"LineString","coordinates":[[78.979,22.907],[78.875,22.422],[78.772,21.937],[78.67,21.452],[78.568,20.967],[78.467,20.482],[78.366,19.997],[78.266,19.512],[78.167,19.026],[78.068,18.541],[77.97,18.055],[77.873,17.57],[77.776,17.084],[77.679,16.599],[77.583,16.113],[77.488,15.627],[77.392,15.142],[77.298,14.656],[77.203,14.17],[77.11,13.684],[77.016,13.198],[76.923,12.713],[76.83,12.227],[76.738,11.741],[76.646,11.255],[76.554,10.769],[76.462,10.283],[76.371,9.796],[76.28,9.31],[76.189,8.824],[76.099,8.338],[76.009,7.852],[75.919,7.366],[75.829,6.879],[75.739,6.393],[75.65,5.907],[76.124,5.772],[76.597,5.636],[77.071,5.499],[77.544,5.363],[78.017,5.226],[78.49,5.088],[78.963,4.951],[79.435,4.813],[79.907,4.674],[80.379,4.535],[80.851,4.396],[81.323,4.257],[81.795,4.118],[82.266,3.978],[82.737,3.838],[83.208,3.697],[83.679,3.557],[84.15,3.416],[84.62,3.275],[85.091,3.133],[85.561,2.992],[86.031,2.85],[86.502,2.708],[86.972,2.566],[87.441,2.424],[87.911,2.281],[88.381,2.139],[88.851,1.996],[89.32,1.853],[89.79,1.71],[90.259,1.567],[90.728,1.424],[90.61,0.953],[90.491,0.482],[90.373,0.011],[90.254,-0.46],[90.135,-0.931],[90.017,-1.402],[89.898,-1.873],[89.779,-2.344],[89.661,-2.815],[89.542,-3.285],[89.423,-3.756],[89.303,-4.227],[89.184,-4.698],[89.065,-5.169],[88.945,-5.64],[88.825,-6.11],[88.705,-6.581],[88.585,-7.052],[88.464,-7.523],[88.344,-7.993],[88.223,-8.464],[88.101,-8.934],[87.98,-9.405],[87.858,-9.875],[87.735,-10.346],[88.148,-10.617],[88.561,-10.887],[88.975,-11.157],[89.39,-11.426],[89.806,-11.695],[90.222,-11.963],[90.639,-12.23],[91.057,-12.497],[91.476,-12.763],[91.896,-13.029],[92.317,-13.293],[92.739,-13.557],[93.161,-13.821],[93.585,-14.084],[94.009,-14.346],[94.435,-14.607],[94.862,-14.867],[95.289,-15.127],[95.718,-15.386],[96.147,-15.644]]}},{"type":"Feature","properties":{"boundary_type":"ridge","feature_type":"gpml:MidOceanRidge","polarity":null,"overriding_plate_id":null,"subducting_plate_id":null,"plate_ids":[90106,501001],"name":""},"geometry":{"type":"LineString","coordinates":[[-170.478,51.009],[-170.889,51.428],[-171.307,51.846],[-171.734,52.262],[-172.168,52.676],[-172.611,53.089],[-173.063,53.5],[-173.523,53.91],[-173.992,54.317],[-174.471,54.723],[-174.959,55.127],[-175.458,55.529],[-175.966,55.929],[-176.485,56.326],[-177.016,56.722],[-177.557,57.115],[-178.11,57.506],[-178.675,57.894],[-179.252,58.28],[-179.841,58.663],[179.556,59.043],[178.939,59.421],[178.309,59.795],[177.665,60.167],[177.006,60.535],[176.332,60.9],[175.642,61.262],[174.937,61.619],[174.214,61.974],[173.476,62.324],[172.719,62.67],[171.945,63.012],[171.153,63.35],[170.236,63.129],[169.334,62.902],[168.445,62.669],[167.571,62.43],[166.71,62.187],[165.864,61.938],[165.031,61.684],[164.212,61.424],[163.406,61.161],[162.614,60.892],[161.836,60.619],[161.024,60.323],[160.227,60.023],[159.444,59.717],[158.675,59.408],[157.921,59.093],[157.18,58.775],[156.453,58.452],[155.739,58.126],[155.039,57.795],[154.351,57.46],[153.675,57.122],[153.012,56.781],[152.361,56.436],[151.722,56.087],[150.996,56.373],[150.26,56.654],[149.512,56.931],[148.754,57.203],[147.984,57.471],[147.203,57.734],[146.411,57.992],[145.607,58.245],[144.792,58.493],[143.966,58.736],[143.128,58.973],[142.278,59.205],[141.417,59.431],[140.545,59.652],[139.661,59.866],[138.766,60.075],[137.86,60.278],[136.942,60.474],[136.014,60.664],[135.074,60.847],[134.125,61.024],[133.164,61.194],[132.194,61.357],[131.213,61.513],[130.223,61.662],[129.223,61.804],[128.215,61.939],[127.197,62.066],[126.172,62.186],[125.904,61.714],[125.643,61.241],[125.391,60.768],[125.146,60.295],[124.908,59.821],[124.676,59.347],[124.451,58.872],[124.232,58.397],[124.019,57.922],[123.811,57.446],[123.609,56.97],[123.412,56.493],[123.22,56.017],[123.032,55.54],[122.849,55.063],[122.67,54.585],[122.496,54.107],[122.325,53.629],[122.158,53.151],[121.995,52.672],[121.835,52.194],[121.679,51.715],[121.526,51.236],[121.377,50.756],[121.23,50.277],[121.086,49.797],[120.945,49.317],[120.202,49.235],[119.462,49.149],[118.724,49.057],[117.99,48.961],[117.258,48.86],[116.529,48.755],[115.803,48.645],[115.08,48.531],[114.361,48.412],[113.645,48.288],[112.933,48.16],[112.224,48.028],[111.519,47.892],[110.818,47.751],[110.121,47.606],[109.427,47.456],[108.738,47.303],[108.052,47.145],[107.371,46.984],[106.694,46.818],[106.021,46.648],[105.352,46.475],[104.688,46.298],[104.027,46.116],[103.372,45.931],[102.72,45.743],[102.074,45.55],[101.431,45.354],[100.793,45.154],[100.16,44.951],[99.531,44.745],[98.906,44.535],[99.117,44.069],[99.324,43.602],[99.528,43.135],[99.729,42.668],[99.927,42.2],[100.122,41.732],[100.314,41.264],[100.504,40.795],[100.691,40.326],[100.875,39.857],[101.057,39.388],[101.236,38.918],[101.413,38.448],[101.588,37.978],[101.76,37.507],[101.931,37.036],[102.099,36.565],[102.265,36.094],[102.429,35.622],[102.591,35.151],[102.752,34.679],[102.91,34.206],[103.067,33.734],[103.222,33.262],[103.376,32.789],[103.527,32.316],[103.678,31.843],[103.826,31.37],[103.973,30.896],[104.119,30.422],[103.579,30.253],[103.04,30.082],[102.503,29.909],[101.968,29.733],[101.435,29.555],[100.904,29.375],[100.374,29.193],[99.847,29.009],[99.321,28.823],[98.797,28.635],[98.276,28.444],[97.756,28.252],[97.238,28.058],[96.722,27.862],[96.207,27.664],[95.695,27.464],[95.184,27.262],[94.676,27.059],[94.169,26.853],[93.664,26.646],[93.16,26.437],[92.659,26.226],[92.16,26.014],[91.662,25.8],[91.166,25.584],[90.672,25.366],[90.18,25.147],[89.689,24.926],[89.2,24.704],[88.713,24.48],[88.228,24.254],[87.744,24.027],[87.262,23.799],[86.782,23.569],[86.304,23.337],[85.827,23.104],[85.352,22.87]]}},{"type":"Feature","properties":{"boundary_type":"ridge","feature_type":"gpml:MidOceanRidge","polarity":null,"overriding_plate_id":null,"subducting_plate_id":null,"plate_ids":[701,90107],"name":""},"geometry":{"type":"LineString","coordinates":[[-6.941,-45.856],[-7.601,-45.804],[-8.261,-45.749],[-8.919,-45.689],[-9.576,-45.626],[-10.231,-45.559],[-10.885,-45.488],[-11.536,-45.414],[-12.187,-45.336],[-12.835,-45.254],[-13.481,-45.168],[-14.011,-44.848],[-14.536,-44.524],[-15.054,-44.198],[-15.567,-43.87],[-16.074,-43.54],[-16.575,-43.208],[-17.071,-42.873],[-17.562,-42.536],[-18.047,-42.197],[-18.528,-41.856],[-19.003,-41.513],[-19.473,-41.168],[-19.938,-40.822],[-20.398,-40.473],[-20.854,-40.123],[-21.305,-39.771],[-21.751,-39.417],[-22.192,-39.061],[-22.63,-38.704],[-23.063,-38.345],[-23.491,-37.985],[-23.916,-37.623],[-24.336,-37.259],[-24.752,-36.895],[-25.165,-36.528],[-25.573,-36.16],[-25.978,-35.791],[-26.379,-35.421],[-26.414,-34.937],[-26.448,-34.454],[-26.483,-33.97],[-26.516,-33.487],[-26.55,-33.003],[-26.583,-32.52],[-26.616,-32.036],[-26.648,-31.553],[-26.68,-31.069],[-26.712,-30.586],[-26.744,-30.102],[-26.775,-29.619],[-26.806,-29.135],[-26.836,-28.651],[-26.866,-28.168],[-26.896,-27.684],[-26.926,-27.201],[-26.956,-26.717],[-26.82,-26.235],[-26.685,-25.754],[-26.552,-25.272],[-26.419,-24.79],[-26.288,-24.308],[-26.157,-23.826],[-26.028,-23.344],[-25.899,-22.862],[-25.772,-22.379],[-25.645,-21.897],[-25.519,-21.414],[-25.394,-20.932],[-25.847,-20.704],[-26.299,-20.476],[-26.75,-20.246],[-27.199,-20.015],[-27.647,-19.783],[-28.094,-19.55],[-28.539,-19.316],[-28.983,-19.08],[-29.426,-18.844],[-29.868,-18.607],[-30.308,-18.368],[-30.747,-18.129],[-31.185,-17.888],[-31.622,-17.647],[-32.057,-17.404],[-32.492,-17.161],[-32.925,-16.917],[-33.357,-16.672],[-33.788,-16.426],[-34.218,-16.179],[-34.647,-15.931],[-35.075,-15.682],[-35.501,-15.433],[-35.927,-15.183],[-36.352,-14.932],[-36.775,-14.68],[-36.592,-14.229],[-36.408,-13.778],[-36.226,-13.327],[-36.044,-12.876],[-35.863,-12.425],[-35.683,-11.974],[-35.503,-11.522],[-35.324,-11.071],[-35.145,-10.619],[-34.967,-10.167],[-34.789,-9.716],[-34.612,-9.264],[-34.435,-8.812],[-34.259,-8.36],[-34.083,-7.907],[-33.907,-7.455],[-33.732,-7.003],[-33.557,-6.55],[-33.383,-6.098],[-33.208,-5.646],[-33.035,-5.193],[-32.861,-4.74],[-32.687,-4.288],[-32.514,-3.835],[-32.341,-3.382],[-32.768,-3.144],[-33.196,-2.905],[-33.623,-2.666],[-34.05,-2.427],[-34.476,-2.188],[-34.903,-1.949],[-35.33,-1.71],[-35.097,-1.286],[-34.865,-0.862],[-34.632,-0.438],[-34.4,-0.015],[-34.167,0.409],[-33.935,0.833],[-33.702,1.256],[-33.47,1.68],[-33.237,2.104],[-33.004,2.527],[-32.771,2.951],[-32.538,3.374],[-32.305,3.798],[-32.071,4.221],[-31.838,4.645],[-31.603,5.068],[-31.369,5.491],[-31.735,5.772],[-32.101,6.053],[-32.467,6.333],[-32.834,6.613],[-33.201,6.893],[-33.569,7.173],[-33.937,7.452],[-34.305,7.732],[-34.674,8.01]]}},{"type":"Feature","properties":{"boundary_type":"transform","feature_type":"gpml:Transform","polarity":null,"overriding_plate_id":null,"subducting_plate_id":null,"plate_ids":[10101,90106],"name":""},"geometry":{"type":"LineString","coordinates":[[-124.305,64.53],[-124.475,64.203],[-124.64,63.876],[-124.802,63.549]]}},{"type":"Feature","properties":{"boundary_type":"transform","feature_type":"gpml:Transform","polarity":null,"overriding_plate_id":null,"subducting_plate_id":null,"plate_ids":[101,10101],"name":""},"geometry":{"type":"LineString","coordinates":[[-124.802,63.549],[-125.03,63.074],[-125.251,62.598],[-125.465,62.121],[-125.673,61.645],[-125.874,61.168],[-126.069,60.691],[-126.258,60.213],[-126.442,59.735],[-126.621,59.257],[-126.795,58.779],[-126.964,58.301],[-127.129,57.822],[-127.289,57.343],[-127.445,56.864],[-127.598,56.385],[-127.746,55.905],[-127.891,55.426],[-128.032,54.946],[-128.17,54.466],[-128.305,53.986]]}},{"type":"Feature","properties":{"boundary_type":"transform","feature_type":"gpml:Transform","polarity":null,"overriding_plate_id":null,"subducting_plate_id":null,"plate_ids":[101,10101],"name":""},"geometry":{"type":"LineString","coordinates":[[-94.24,62.503],[-94.952,62.147],[-95.648,61.786],[-96.327,61.423],[-96.99,61.056],[-97.638,60.686],[-98.271,60.312],[-98.89,59.936],[-99.495,59.557],[-100.087,59.175],[-100.665,58.791],[-101.231,58.404],[-101.784,58.015],[-102.326,57.623],[-102.856,57.229],[-103.374,56.833],[-103.882,56.435],[-104.379,56.035],[-104.866,55.632],[-105.343,55.228],[-105.81,54.822],[-106.268,54.415],[-106.718,54.005],[-107.158,53.594]]}},{"type":"Feature","properties":{"boundary_type":"subduction","feature_type":"gpml:SubductionZone","polarity":"Left","overriding_plate_id":101,"subducting_plate_id":501001,"plate_ids":[101,501001],"name":"Baltica_SZ"},"geometry":{"type":"LineString","coordinates":[[-177.984,40.339],[-177.976,39.873],[-177.968,39.407],[-177.961,38.942],[-177.954,38.476],[-177.946,38.01],[-177.939,37.544],[-177.932,37.079],[-177.914,36.612],[-177.896,36.144],[-177.879,35.677],[-177.861,35.21],[-177.844,34.743],[-177.827,34.276],[-177.81,33.809],[-177.794,33.342],[-177.777,32.874],[-177.761,32.407],[-177.817,31.944],[-177.872,31.48],[-177.927,31.017],[-177.981,30.553],[-178.035,30.089],[-178.088,29.626],[-178.141,29.162],[-178.193,28.698],[-178.244,28.235],[-178.296,27.771],[-178.347,27.307],[-178.397,26.843],[-178.421,26.367],[-178.445,25.891],[-178.468,25.415],[-178.492,24.939],[-178.515,24.463]]}},{"type":"Feature","properties":{"boundary_type":"subduction","feature_type":"gpml:SubductionZone","polarity":"Left","overriding_plate_id":101,"subducting_plate_id":501,"plate_ids":[101,501],"name":"Baltica_SZ"},"geometry":{"type":"LineString","coordinates":[[-178.515,24.463],[-178.539,23.966],[-178.563,23.47],[-178.586,22.974],[-178.61,22.477],[-178.633,21.981],[-178.712,21.504],[-178.791,21.027],[-178.87,20.55],[-178.947,20.074],[-179.025,19.597],[-179.102,19.12],[-179.178,18.643],[-179.254,18.166],[-179.33,17.689],[-179.405,17.212],[-179.48,16.735],[-179.555,16.258],[-179.629,15.78],[-179.702,15.303],[-179.827,14.826],[-179.952,14.349],[179.925,13.871],[179.801,13.394],[179.678,12.916],[179.556,12.439],[179.434,11.961],[179.313,11.483],[179.192,11.005],[179.071,10.528],[178.951,10.05],[178.831,9.572],[178.786,9.088],[178.742,8.605],[178.698,8.121],[178.654,7.638],[178.61,7.154],[178.566,6.671],[178.522,6.187]]}},{"type":"Feature","properties":{"boundary_type":"subduction","feature_type":"gpml:SubductionZone","polarity":"Left","overriding_plate_id":101,"subducting_plate_id":701,"plate_ids":[101,701],"name":"Amazonia_SZ"},"geometry":{"type":"LineString","coordinates":[[-161.187,-31.691],[-160.755,-31.436],[-160.325,-31.18],[-159.897,-30.922],[-159.471,-30.663],[-159.048,-30.402],[-158.627,-30.14],[-158.208,-29.877],[-157.791,-29.612]]}},{"type":"Feature","properties":{"boundary_type":"ridge","feature_type":"gpml:MidOceanRidge","polarity":null,"overriding_plate_id":null,"subducting_plate_id":null,"plate_ids":[701,80101],"name":""},"geometry":{"type":"LineString","coordinates":[[-60.941,6.312],[-60.844,5.857],[-60.747,5.402],[-60.651,4.947],[-60.555,4.493],[-60.458,4.038],[-60.362,3.583],[-60.266,3.128],[-60.17,2.673],[-60.075,2.218],[-59.979,1.763],[-59.496,1.891],[-59.013,2.018],[-58.53,2.145],[-58.046,2.272],[-57.563,2.399],[-57.08,2.525],[-56.596,2.652],[-56.113,2.778],[-55.629,2.904],[-55.145,3.03],[-54.661,3.156],[-54.177,3.281],[-53.693,3.406],[-53.209,3.531],[-52.725,3.656],[-52.24,3.78],[-51.755,3.904],[-51.271,4.028],[-50.786,4.152],[-50.301,4.275],[-49.815,4.398],[-49.33,4.521],[-48.844,4.643],[-48.359,4.765],[-47.873,4.887],[-47.387,5.008],[-46.9,5.129],[-46.414,5.249],[-45.927,5.37],[-45.44,5.489],[-44.953,5.609],[-44.466,5.728],[-43.979,5.846],[-43.491,5.965],[-43.003,6.082],[-42.515,6.2],[-42.027,6.317],[-41.538,6.433],[-41.05,6.549],[-40.561,6.664],[-40.071,6.779],[-39.582,6.894],[-39.092,7.008],[-38.603,7.122],[-38.112,7.235],[-37.622,7.347],[-37.131,7.459],[-36.64,7.57],[-36.149,7.681],[-35.658,7.791],[-35.166,7.901],[-34.674,8.01]]}},{"type":"Feature","properties":{"boundary_type":"ridge","feature_type":"gpml:MidOceanRidge","polarity":null,"overriding_plate_id":null,"subducting_plate_id":null,"plate_ids":[80101,90107],"name":""},"geometry":{"type":"LineString","coordinates":[[-34.674,8.01],[-34.193,8.117],[-33.711,8.222],[-33.228,8.327],[-32.746,8.432],[-32.263,8.536],[-31.78,8.639],[-31.296,8.742],[-30.813,8.844],[-30.329,8.946],[-29.845,9.047],[-29.36,9.147],[-28.875,9.247],[-28.39,9.346],[-27.905,9.444],[-27.42,9.542],[-26.934,9.639],[-26.448,9.735],[-25.961,9.831],[-25.475,9.925],[-24.988,10.02],[-24.501,10.113],[-24.013,10.206],[-23.525,10.298],[-23.037,10.389],[-22.549,10.48],[-22.069,10.567],[-21.589,10.653],[-21.109,10.739],[-20.629,10.824],[-20.148,10.908],[-19.667,10.992],[-19.186,11.074],[-18.705,11.156],[-18.22,11.238],[-17.736,11.318],[-17.251,11.398],[-16.765,11.477],[-16.28,11.555],[-15.794,11.632],[-15.308,11.709],[-14.822,11.785],[-14.335,11.86]]}},{"type":"Feature","properties":{"boundary_type":"ridge","feature_type":"gpml:MidOceanRidge","polarity":null,"overriding_plate_id":null,"subducting_plate_id":null,"plate_ids":[80101,90107],"name":""},"geometry":{"type":"LineString","coordinates":[[-26.717,43.338],[-27.165,43.062],[-27.609,42.785]]}},{"type":"Feature","properties":{"boundary_type":"ridge","feature_type":"gpml:MidOceanRidge","polarity":null,"overriding_plate_id":null,"subducting_plate_id":null,"plate_ids":[801,80101],"name":""},"geometry":{"type":"LineString","coordinates":[[-27.609,42.785],[-28.111,42.467],[-28.607,42.146],[-29.099,41.824],[-29.585,41.5],[-30.067,41.173],[-30.544,40.845],[-31.016,40.514],[-31.484,40.182],[-31.947,39.848],[-32.405,39.512],[-32.859,39.174],[-33.309,38.834],[-33.754,38.493],[-34.195,38.15],[-34.632,37.806],[-35.065,37.459],[-35.494,37.112],[-35.919,36.762],[-36.34,36.412],[-36.758,36.06],[-37.171,35.706],[-37.581,35.351],[-37.988,34.994],[-38.391,34.637],[-38.79,34.278],[-39.186,33.917],[-39.579,33.556],[-39.197,33.272],[-38.819,32.987],[-38.442,32.701],[-38.068,32.414],[-38.48,32.077],[-38.888,31.738],[-39.294,31.398],[-39.697,31.057],[-40.096,30.715],[-40.493,30.372],[-40.888,30.027],[-41.279,29.681],[-41.668,29.334],[-42.054,28.986],[-42.437,28.637],[-42.818,28.287],[-43.197,27.935],[-43.573,27.583],[-43.946,27.23],[-44.318,26.875],[-44.687,26.52],[-45.053,26.164],[-45.418,25.807],[-45.78,25.449],[-46.14,25.09],[-46.498,24.73],[-46.854,24.369],[-47.207,24.008],[-47.559,23.646],[-47.909,23.282],[-47.581,22.946],[-47.254,22.61],[-46.928,22.272],[-46.605,21.934],[-46.283,21.596],[-46.655,21.244],[-47.025,20.891],[-47.394,20.537],[-47.761,20.183],[-48.126,19.828],[-48.49,19.472],[-48.852,19.116],[-49.213,18.758],[-49.572,18.4],[-49.929,18.042],[-50.285,17.682],[-50.64,17.323],[-50.993,16.962],[-51.345,16.601],[-51.696,16.239],[-52.045,15.877],[-52.393,15.514],[-52.74,15.151],[-53.085,14.787],[-53.43,14.422],[-53.773,14.057],[-54.115,13.692],[-54.457,13.326],[-54.797,12.96],[-55.136,12.593],[-55.474,12.226],[-55.812,11.861],[-56.149,11.495],[-56.485,11.13],[-56.82,10.763],[-57.154,10.397],[-57.488,10.03],[-57.821,9.663],[-58.153,9.295],[-58.484,8.928],[-58.815,8.56],[-59.145,8.191],[-59.475,7.823],[-59.804,7.454],[-60.132,7.085],[-60.46,6.715],[-60.787,6.346]]}},{"type":"Feature","properties":{"boundary_type":"ridge","feature_type":"gpml:MidOceanRidge","polarity":null,"overriding_plate_id":null,"subducting_plate_id":null,"plate_ids":[801,80103],"name":""},"geometry":{"type":"LineString","coordinates":[[-67.688,14.314],[-67.957,13.958],[-68.224,13.602],[-68.49,13.245],[-68.756,12.888],[-69.021,12.531]]}},{"type":"Feature","properties":{"boundary_type":"ridge","feature_type":"gpml:MidOceanRidge","polarity":null,"overriding_plate_id":null,"subducting_plate_id":null,"plate_ids":[701,80103],"name":""},"geometry":{"type":"LineString","coordinates":[[-69.021,12.531],[-69.316,12.132],[-69.61,11.733],[-69.903,11.333],[-70.196,10.933],[-70.487,10.533],[-70.778,10.132],[-71.068,9.732],[-71.357,9.331],[-71.646,8.93],[-71.934,8.528],[-72.222,8.127],[-72.509,7.725],[-72.795,7.323],[-73.081,6.921],[-73.366,6.519],[-73.651,6.116],[-73.935,5.713],[-74.22,5.311],[-74.503,4.908],[-74.787,4.505],[-75.07,4.102],[-75.352,3.698],[-75.635,3.295],[-75.917,2.892],[-76.199,2.488],[-76.481,2.085],[-76.763,1.681],[-77.044,1.277],[-77.326,0.874],[-77.607,0.47],[-77.889,0.066],[-78.17,-0.337],[-78.452,-0.741],[-78.733,-1.145],[-79.015,-1.548],[-79.297,-1.952],[-79.578,-2.356],[-79.86,-2.759],[-80.143,-3.162],[-80.425,-3.566],[-80.708,-3.969],[-80.991,-4.372],[-81.274,-4.775],[-81.557,-5.178],[-81.841,-5.581],[-82.126,-5.984],[-82.41,-6.386],[-82.696,-6.789],[-82.981,-7.191],[-83.268,-7.593],[-83.554,-7.995],[-83.842,-8.397],[-84.129,-8.798],[-84.418,-9.199],[-84.707,-9.6],[-84.997,-10.001],[-85.287,-10.401],[-85.579,-10.802],[-85.871,-11.202],[-86.164,-11.601],[-86.457,-12.001],[-86.752,-12.4],[-87.195,-12.235],[-87.637,-12.069],[-88.078,-11.903],[-88.519,-11.736],[-88.96,-11.568],[-89.399,-11.4],[-89.839,-11.231],[-90.278,-11.061],[-90.716,-10.891],[-91.154,-10.72]]}},{"type":"Feature","properties":{"boundary_type":"ridge","feature_type":"gpml:MidOceanRidge","polarity":null,"overriding_plate_id":null,"subducting_plate_id":null,"plate_ids":[701,801],"name":""},"geometry":{"type":"LineString","coordinates":[[-69.021,12.531],[-68.895,12.056],[-68.77,11.581],[-68.645,11.106],[-68.521,10.63],[-68.397,10.155],[-68.273,9.68],[-68.15,9.205],[-68.027,8.729],[-67.904,8.254],[-67.782,7.778],[-67.66,7.303],[-67.538,6.827],[-67.416,6.352],[-67.295,5.876],[-67.174,5.401],[-67.053,4.925],[-66.584,5.034],[-66.114,5.142],[-65.645,5.251],[-65.175,5.358],[-64.705,5.466],[-64.236,5.573],[-63.765,5.68],[-63.295,5.786],[-62.825,5.892],[-62.354,5.998],[-61.883,6.103],[-61.412,6.207],[-60.941,6.312]]}},{"type":"Feature","properties":{"boundary_type":"ridge","feature_type":"gpml:MidOceanRidge","polarity":null,"overriding_plate_id":null,"subducting_plate_id":null,"plate_ids":[801,80101],"name":""},"geometry":{"type":"LineString","coordinates":[[-60.941,6.312],[-60.787,6.346]]}},{"type":"Feature","properties":{"boundary_type":"subduction","feature_type":"gpml:SubductionZone","polarity":"Left","overriding_plate_id":501,"subducting_plate_id":501001,"plate_ids":[501,501001],"name":""},"geometry":{"type":"LineString","coordinates":[[-178.515,24.463],[-178.938,24.228],[-179.359,23.993],[-179.779,23.756],[179.802,23.518],[179.385,23.279],[178.97,23.039],[178.556,22.798],[178.074,22.576],[177.595,22.353],[177.116,22.128],[176.639,21.902],[176.164,21.674],[175.69,21.445],[175.218,21.215],[174.747,20.984],[174.278,20.751],[173.81,20.517],[173.344,20.281],[172.879,20.045],[172.415,19.807],[171.953,19.568],[171.492,19.328],[171.033,19.087],[170.555,18.893],[170.08,18.698],[169.605,18.502],[169.131,18.305],[168.658,18.107],[168.187,17.907],[167.716,17.707],[167.247,17.505],[166.778,17.302],[166.311,17.098],[165.844,16.893],[165.379,16.687],[164.915,16.48],[164.451,16.272],[163.989,16.062],[163.527,15.852],[163.067,15.641],[162.607,15.429],[162.149,15.216],[161.691,15.002],[161.234,14.787],[160.779,14.571],[160.324,14.355],[159.87,14.137],[159.416,13.919],[158.964,13.7],[158.513,13.48],[158.062,13.259],[157.612,13.037],[157.163,12.815],[156.714,12.616],[156.265,12.417],[155.816,12.217],[155.369,12.017],[154.922,11.815],[154.476,11.613],[154.03,11.41],[153.585,11.207],[153.141,11.003],[152.697,10.798],[152.254,10.592],[151.811,10.386],[151.369,10.18],[150.928,9.972],[150.487,9.765],[150.047,9.556],[149.607,9.347],[149.168,9.138],[148.729,8.928],[148.291,8.717],[147.854,8.506],[147.416,8.295],[146.98,8.083],[146.543,7.87],[146.108,7.657],[145.673,7.475],[145.24,7.292],[144.806,7.109],[144.373,6.925],[143.94,6.741],[143.508,6.557],[143.076,6.372],[142.644,6.187],[142.212,6.002],[141.781,5.816],[141.35,5.63],[140.919,5.443],[140.489,5.256],[140.059,5.069]]}},{"type":"Feature","properties":{"boundary_type":"ridge","feature_type":"gpml:MidOceanRidge","polarity":null,"overriding_plate_id":null,"subducting_plate_id":null,"plate_ids":[801,90107],"name":""},"geometry":{"type":"LineString","coordinates":[[-27.609,42.785],[-27.82,43.23],[-28.033,43.675],[-28.25,44.12],[-28.47,44.564],[-28.694,45.007],[-28.921,45.45],[-29.151,45.893],[-29.385,46.335],[-29.623,46.777],[-29.865,47.219],[-30.111,47.659],[-30.362,48.1],[-30.616,48.539],[-30.875,48.978],[-31.139,49.417],[-31.825,49.339],[-32.508,49.257],[-33.19,49.171],[-33.869,49.081],[-34.545,48.987],[-34.7,49.475],[-34.857,49.964],[-35.018,50.452],[-35.182,50.94],[-35.35,51.427],[-35.521,51.915],[-35.696,52.402],[-35.875,52.889],[-36.058,53.376],[-36.246,53.862],[-36.437,54.348],[-36.633,54.834],[-36.834,55.319],[-37.04,55.804],[-37.252,56.289],[-37.468,56.773],[-37.691,57.257]]}},{"type":"Feature","properties":{"boundary_type":"ridge","feature_type":"gpml:MidOceanRidge","polarity":null,"overriding_plate_id":null,"subducting_plate_id":null,"plate_ids":[801,90106],"name":""},"geometry":{"type":"LineString","coordinates":[[-79.474,59.255],[-78.5,59.272],[-77.525,59.282],[-76.55,59.284],[-75.575,59.28],[-74.6,59.268],[-73.626,59.249],[-72.654,59.222],[-71.683,59.189],[-70.714,59.148],[-69.748,59.1],[-68.784,59.044],[-67.824,58.982],[-66.868,58.912],[-65.916,58.836],[-64.968,58.752],[-64.025,58.662],[-63.839,59.14],[-63.648,59.617],[-63.452,60.094],[-63.25,60.571],[-63.042,61.048],[-62.828,61.524],[-61.807,61.416],[-60.793,61.3],[-59.787,61.177],[-58.789,61.046],[-57.799,60.909],[-56.818,60.763],[-55.846,60.611],[-54.884,60.452],[-53.931,60.286],[-52.988,60.113],[-52.055,59.934],[-51.132,59.748],[-50.219,59.556],[-49.318,59.357],[-48.426,59.152],[-47.546,58.942],[-46.676,58.725],[-45.817,58.503],[-44.97,58.274],[-44.133,58.041],[-43.307,57.802],[-42.492,57.557],[-41.688,57.308],[-40.895,57.053],[-40.113,56.794],[-39.342,56.529]]}}]}