{"type":"FeatureCollection","meta":{"model":"Cao2024","reconstruction_time_ma":1790.0,"anchor_plate_id":0,"pygplates_version":"1.0.0","tessellate_degrees":0.5,"polarity_convention":"gpml:subductionPolarity. 'Left'/'Right' names the side of the line, in vertex order, on which the OVERRIDING plate lies. Triangles are drawn on that side.","antimeridian":"Lines are NOT split at +/-180 deg. The renderer works in 3D unit vectors where the dateline is not special; splitting would only add spurious breaks. Do not treat this as RFC 7946 GIS-ready 2D data."},"features":[{"type":"Feature","properties":{"boundary_type":"subduction","feature_type":"gpml:SubductionZone","polarity":"Left","overriding_plate_id":101,"subducting_plate_id":90106,"plate_ids":[101,90106],"name":"eastern Laurentia-greenland-western baltica"},"geometry":{"type":"LineString","coordinates":[[-124.053,60.664],[-125.01,60.761],[-125.973,60.852],[-126.941,60.936],[-127.913,61.013],[-128.891,61.082],[-129.872,61.145],[-130.858,61.2],[-131.846,61.249],[-132.837,61.29],[-133.831,61.324],[-134.86,61.288],[-135.886,61.245],[-136.909,61.195],[-137.929,61.136],[-138.945,61.07],[-139.956,60.997],[-140.962,60.915],[-141.963,60.827],[-142.958,60.731],[-143.947,60.627],[-144.93,60.517],[-145.905,60.399],[-146.874,60.274],[-147.835,60.142],[-148.787,60.003],[-149.732,59.858],[-150.668,59.705],[-151.596,59.547],[-152.515,59.381],[-153.425,59.209],[-154.325,59.031],[-155.216,58.847],[-156.011,58.614],[-156.795,58.377],[-157.569,58.135],[-158.332,57.888],[-159.084,57.636],[-159.826,57.38],[-160.558,57.12],[-161.28,56.856],[-161.991,56.587],[-162.692,56.315],[-163.383,56.039],[-164.065,55.758],[-164.592,55.378],[-165.11,54.996],[-165.618,54.611],[-166.116,54.224],[-166.605,53.836],[-167.085,53.445],[-167.557,53.052],[-168.02,52.658],[-168.474,52.262]]}},{"type":"Feature","properties":{"boundary_type":"subduction","feature_type":"gpml:SubductionZone","polarity":"Left","overriding_plate_id":101,"subducting_plate_id":501001,"plate_ids":[101,501001],"name":"eastern Laurentia-greenland-western baltica"},"geometry":{"type":"LineString","coordinates":[[-168.474,52.262],[-168.908,51.875],[-169.334,51.487],[-169.753,51.098],[-170.165,50.707],[-170.57,50.315],[-170.969,49.921],[-171.361,49.526],[-171.747,49.129],[-172.127,48.731],[-172.537,48.326],[-172.94,47.919],[-173.337,47.511],[-173.728,47.101],[-174.113,46.69],[-174.492,46.278],[-174.866,45.864],[-175.234,45.449],[-175.597,45.033],[-175.954,44.616],[-176.306,44.198],[-176.654,43.779],[-176.996,43.359],[-177.334,42.938],[-177.667,42.515],[-177.996,42.092],[-178.32,41.668],[-178.64,41.243],[-178.956,40.817]]}},{"type":"Feature","properties":{"boundary_type":"subduction","feature_type":"gpml:SubductionZone","polarity":"Right","overriding_plate_id":801,"subducting_plate_id":80103,"plate_ids":[801,80103],"name":"NorthChina_SZ"},"geometry":{"type":"LineString","coordinates":[[-85.031,12.709],[-85.008,12.244],[-84.986,11.779],[-84.963,11.315],[-84.941,10.85],[-84.919,10.385],[-84.896,9.921],[-84.874,9.456],[-84.996,8.996],[-85.117,8.537],[-85.238,8.077],[-85.359,7.618],[-85.479,7.158],[-85.6,6.698],[-85.72,6.239],[-85.839,5.779],[-86.117,5.439],[-86.394,5.098],[-86.671,4.758],[-86.948,4.417],[-87.224,4.076],[-87.501,3.735],[-87.777,3.394],[-88.052,3.053]]}},{"type":"Feature","properties":{"boundary_type":"subduction","feature_type":"gpml:SubductionZone","polarity":"Right","overriding_plate_id":801,"subducting_plate_id":701,"plate_ids":[701,801],"name":"NorthChina_SZ"},"geometry":{"type":"LineString","coordinates":[[-88.052,3.053],[-88.308,2.737],[-88.564,2.421],[-88.819,2.104],[-89.269,1.991],[-89.72,1.877],[-90.171,1.763],[-90.621,1.649],[-91.071,1.535],[-91.522,1.421],[-91.972,1.307],[-92.422,1.192],[-92.873,1.078],[-93.323,0.963],[-93.773,0.849],[-94.223,0.734],[-94.673,0.62],[-95.146,0.629],[-95.618,0.638],[-96.09,0.647],[-96.563,0.655],[-97.035,0.664],[-97.507,0.673],[-97.98,0.682],[-98.452,0.691],[-98.924,0.699],[-99.397,0.708],[-99.869,0.716],[-100.341,0.725],[-100.814,0.733]]}},{"type":"Feature","properties":{"boundary_type":"subduction","feature_type":"gpml:SubductionZone","polarity":"Left","overriding_plate_id":201,"subducting_plate_id":90105,"plate_ids":[201,90105],"name":"Amazonia_SZ"},"geometry":{"type":"LineString","coordinates":[[133.995,-47.476],[134.706,-47.56],[135.42,-47.64],[136.135,-47.715],[136.853,-47.786],[137.572,-47.852],[138.293,-47.914],[139.016,-47.971],[139.741,-48.023],[140.466,-48.071],[141.194,-48.115],[141.922,-48.154],[142.651,-48.188],[143.381,-48.218],[144.112,-48.243],[144.844,-48.263],[145.576,-48.279],[146.309,-48.29],[147.041,-48.296],[147.774,-48.298],[148.507,-48.295],[149.242,-48.203],[149.974,-48.107],[150.703,-48.006],[151.43,-47.9],[152.153,-47.79],[152.873,-47.675],[153.59,-47.555],[154.303,-47.432],[155.014,-47.303],[155.72,-47.171],[156.423,-47.034],[157.123,-46.893],[157.818,-46.747],[158.51,-46.598],[159.198,-46.444],[159.883,-46.286],[160.563,-46.124],[161.239,-45.958],[161.911,-45.789],[162.579,-45.615],[163.243,-45.437],[163.902,-45.256],[164.557,-45.07],[165.208,-44.881],[165.855,-44.689],[166.497,-44.493],[167.135,-44.293],[167.769,-44.089],[168.398,-43.882],[169.023,-43.672],[169.644,-43.459],[170.26,-43.242],[170.872,-43.021],[171.479,-42.798],[172.082,-42.571],[172.68,-42.341],[173.274,-42.108]]}},{"type":"Feature","properties":{"boundary_type":"subduction","feature_type":"gpml:SubductionZone","polarity":"Left","overriding_plate_id":201,"subducting_plate_id":701,"plate_ids":[201,701],"name":"Amazonia_SZ"},"geometry":{"type":"LineString","coordinates":[[173.274,-42.108],[173.864,-41.873],[174.448,-41.634],[175.029,-41.392],[175.605,-41.147],[176.177,-40.9],[176.745,-40.65],[177.308,-40.397],[177.867,-40.141],[178.422,-39.883],[178.973,-39.622],[179.519,-39.358],[-179.938,-39.092],[-179.4,-38.823],[-178.866,-38.552],[-178.335,-38.279],[-177.809,-38.003],[-177.287,-37.725],[-176.769,-37.444],[-176.254,-37.161],[-175.744,-36.876],[-175.237,-36.589],[-174.734,-36.3],[-174.234,-36.009],[-173.739,-35.715],[-173.247,-35.42],[-172.758,-35.123],[-172.274,-34.823],[-171.792,-34.522],[-171.315,-34.219],[-170.84,-33.914],[-170.369,-33.607],[-169.902,-33.319],[-169.439,-33.03],[-168.978,-32.738],[-168.52,-32.445]]}},{"type":"Feature","properties":{"boundary_type":"subduction","feature_type":"gpml:SubductionZone","polarity":"Left","overriding_plate_id":201,"subducting_plate_id":101,"plate_ids":[101,201],"name":"Amazonia_SZ"},"geometry":{"type":"LineString","coordinates":[[-168.52,-32.445],[-168.166,-32.216]]}},{"type":"Feature","properties":{"boundary_type":"subduction","feature_type":"gpml:SubductionZone","polarity":"Left","overriding_plate_id":101,"subducting_plate_id":10101,"plate_ids":[101,10101],"name":"Hearne_SZ"},"geometry":{"type":"LineString","coordinates":[[-109.227,50.077],[-109.941,50.223],[-110.661,50.365],[-111.384,50.502],[-112.111,50.635],[-112.843,50.764],[-113.579,50.887],[-114.318,51.007],[-115.061,51.121],[-115.82,51.173],[-116.581,51.221],[-117.344,51.264],[-118.107,51.301],[-118.872,51.334],[-119.638,51.362],[-120.405,51.385],[-121.172,51.402],[-121.94,51.415],[-122.708,51.423],[-123.477,51.425],[-124.245,51.423],[-125.013,51.416],[-125.781,51.403],[-126.549,51.386],[-127.315,51.363],[-128.081,51.336],[-128.846,51.303]]}},{"type":"Feature","properties":{"boundary_type":"subduction","feature_type":"gpml:SubductionZone","polarity":"Left","overriding_plate_id":101,"subducting_plate_id":801,"plate_ids":[101,801],"name":"Wyoming_SZ"},"geometry":{"type":"LineString","coordinates":[[-82.743,57.416],[-83.27,57.564]]}},{"type":"Feature","properties":{"boundary_type":"subduction","feature_type":"gpml:SubductionZone","polarity":"Left","overriding_plate_id":101,"subducting_plate_id":90106,"plate_ids":[101,90106],"name":"Wyoming_SZ"},"geometry":{"type":"LineString","coordinates":[[-83.27,57.564],[-84.06,57.781],[-84.859,57.992],[-85.668,58.198],[-86.486,58.399],[-87.314,58.595],[-88.151,58.786],[-88.996,58.97],[-89.851,59.15],[-90.715,59.324],[-91.587,59.491],[-92.468,59.654],[-93.357,59.81],[-94.255,59.96]]}},{"type":"Feature","properties":{"boundary_type":"subduction","feature_type":"gpml:SubductionZone","polarity":"Left","overriding_plate_id":10101,"subducting_plate_id":90106,"plate_ids":[10101,90106],"name":"Wyoming_SZ"},"geometry":{"type":"LineString","coordinates":[[-94.255,59.96],[-95.137,60.1],[-96.027,60.234],[-96.924,60.363],[-97.828,60.485],[-98.738,60.601],[-99.655,60.711],[-100.578,60.815],[-101.507,60.912],[-102.441,61.003],[-103.381,61.087],[-104.267,61.308],[-105.165,61.523],[-106.076,61.733],[-106.999,61.936],[-107.935,62.133],[-108.882,62.323],[-109.841,62.507],[-110.812,62.685],[-111.794,62.855],[-112.788,63.019],[-113.792,63.175],[-114.808,63.325],[-115.833,63.467],[-116.869,63.602],[-117.958,63.528],[-119.042,63.447],[-120.12,63.357],[-121.19,63.259],[-122.253,63.153]]}},{"type":"Feature","properties":{"boundary_type":"subduction","feature_type":"gpml:SubductionZone","polarity":"Left","overriding_plate_id":801,"subducting_plate_id":80103,"plate_ids":[801,80103],"name":"South_NorthAustralia_SZ"},"geometry":{"type":"LineString","coordinates":[[-85.031,12.709],[-84.75,13.105],[-84.469,13.5],[-84.187,13.896],[-83.904,14.291],[-83.619,14.685],[-83.334,15.08],[-83.048,15.474],[-82.761,15.867],[-82.472,16.26],[-82.182,16.653],[-81.892,17.046],[-81.599,17.438],[-81.306,17.829],[-81.011,18.22],[-80.778,18.665],[-80.543,19.109],[-80.306,19.554],[-80.069,19.997],[-79.83,20.441],[-79.589,20.884],[-79.348,21.327],[-79.104,21.769],[-78.86,22.211],[-78.613,22.653],[-78.365,23.094],[-78.116,23.535],[-77.865,23.976],[-77.612,24.416],[-77.388,24.852],[-77.163,25.288],[-76.937,25.723],[-76.709,26.159],[-76.479,26.593],[-76.247,27.028],[-76.013,27.462],[-75.778,27.896],[-75.541,28.329],[-75.247,28.749],[-74.951,29.168],[-74.653,29.587],[-74.352,30.005],[-74.048,30.422],[-73.742,30.839],[-73.433,31.255]]}},{"type":"Feature","properties":{"boundary_type":"subduction","feature_type":"gpml:SubductionZone","polarity":"Left","overriding_plate_id":80101,"subducting_plate_id":90107,"plate_ids":[80101,90107],"name":""},"geometry":{"type":"LineString","coordinates":[[-13.297,10.656],[-13.242,11.129],[-13.186,11.601],[-13.131,12.074],[-13.075,12.547],[-13.019,13.019],[-12.962,13.492],[-12.906,13.965],[-12.849,14.438],[-12.792,14.91],[-12.735,15.383],[-12.678,15.855],[-12.62,16.328],[-12.562,16.801],[-12.557,17.268],[-12.553,17.735],[-12.548,18.202],[-12.544,18.669],[-12.539,19.136],[-12.535,19.603],[-12.53,20.07],[-12.525,20.538],[-12.521,21.005],[-12.516,21.472],[-12.511,21.939],[-12.506,22.406],[-12.502,22.873],[-12.497,23.34],[-12.492,23.807],[-12.677,24.25],[-12.864,24.693],[-13.051,25.135],[-13.24,25.577],[-13.431,26.019],[-13.623,26.46],[-13.816,26.902],[-14.011,27.343],[-14.208,27.783],[-14.406,28.224],[-14.606,28.664],[-14.807,29.104],[-15.01,29.543],[-15.301,29.931],[-15.593,30.318],[-15.888,30.705],[-16.186,31.091],[-16.485,31.476],[-16.788,31.86],[-17.092,32.244],[-17.4,32.627],[-17.71,33.009],[-18.023,33.391],[-18.338,33.771],[-18.656,34.151],[-18.977,34.53],[-19.324,34.935],[-19.675,35.339],[-20.029,35.742],[-20.386,36.143],[-20.748,36.544],[-21.113,36.943],[-21.482,37.342],[-21.854,37.739],[-22.231,38.135],[-22.612,38.53],[-22.997,38.924],[-23.387,39.316],[-23.78,39.707]]}},{"type":"Feature","properties":{"boundary_type":"subduction","feature_type":"gpml:SubductionZone","polarity":"Left","overriding_plate_id":80101,"subducting_plate_id":801,"plate_ids":[801,80101],"name":""},"geometry":{"type":"LineString","coordinates":[[-23.78,39.707],[-23.864,39.79]]}},{"type":"Feature","properties":{"boundary_type":"ridge","feature_type":"gpml:MidOceanRidge","polarity":null,"overriding_plate_id":null,"subducting_plate_id":null,"plate_ids":[101,801],"name":""},"geometry":{"type":"LineString","coordinates":[[-82.743,57.416],[-83.198,56.99],[-83.643,56.563],[-84.078,56.134],[-84.503,55.704],[-84.919,55.273],[-85.327,54.84],[-85.725,54.405],[-86.115,53.969],[-86.497,53.533],[-86.871,53.094],[-87.238,52.655],[-87.598,52.215],[-87.95,51.773],[-88.295,51.331],[-88.634,50.888],[-88.967,50.443],[-89.293,49.998],[-89.613,49.552],[-89.928,49.104],[-90.237,48.657],[-90.54,48.208],[-90.838,47.758],[-91.131,47.308],[-91.419,46.857],[-91.702,46.405],[-91.981,45.953],[-92.255,45.5],[-92.525,45.046],[-92.79,44.592],[-93.354,44.756],[-93.92,44.917],[-94.49,45.076],[-95.063,45.231],[-95.639,45.384],[-95.859,44.91],[-96.075,44.434],[-96.288,43.959],[-96.497,43.483],[-96.703,43.006],[-96.906,42.53],[-97.106,42.053],[-97.303,41.575],[-97.497,41.097],[-97.689,40.619],[-97.877,40.141],[-98.063,39.662],[-98.246,39.183],[-98.427,38.704],[-98.606,38.224],[-98.782,37.745],[-98.956,37.264],[-99.127,36.784],[-99.297,36.304],[-99.464,35.823],[-99.63,35.342],[-99.793,34.861],[-99.955,34.379],[-100.114,33.897],[-100.272,33.415],[-100.428,32.933],[-100.583,32.451],[-100.736,31.969],[-100.887,31.486],[-101.036,31.003],[-101.585,31.142],[-102.136,31.279],[-102.688,31.414],[-103.241,31.546],[-103.796,31.675],[-104.353,31.803],[-104.911,31.928],[-105.471,32.05],[-106.032,32.17],[-106.166,31.686],[-106.298,31.202],[-106.429,30.718],[-106.558,30.233],[-106.686,29.749],[-106.813,29.264],[-106.939,28.779],[-107.064,28.295],[-107.187,27.81],[-107.31,27.325],[-107.431,26.839],[-107.551,26.354],[-107.671,25.869],[-107.789,25.383],[-107.907,24.898],[-108.023,24.412],[-108.139,23.926],[-108.253,23.44],[-108.367,22.954],[-108.48,22.468],[-108.592,21.982],[-108.704,21.496],[-108.815,21.01],[-108.925,20.524],[-109.034,20.037],[-109.143,19.551],[-109.251,19.064],[-109.358,18.578],[-109.465,18.091],[-109.571,17.605],[-109.677,17.118],[-109.782,16.631],[-109.886,16.144],[-109.99,15.657],[-110.094,15.17],[-110.197,14.683],[-110.697,14.735],[-111.197,14.786],[-111.697,14.835],[-112.198,14.883],[-112.699,14.931],[-113.2,14.977],[-113.701,15.022],[-114.203,15.066],[-114.705,15.109],[-115.207,15.151],[-115.273,14.679],[-115.339,14.207],[-115.405,13.735],[-115.471,13.263],[-115.537,12.792],[-115.602,12.32],[-115.667,11.848],[-115.732,11.376],[-115.796,10.904],[-115.86,10.432],[-115.925,9.96],[-115.989,9.488],[-116.052,9.016],[-116.553,8.955],[-117.053,8.894],[-117.553,8.833],[-118.053,8.77],[-118.552,8.707],[-119.052,8.643],[-119.551,8.579],[-120.05,8.514],[-120.549,8.448],[-121.048,8.382],[-121.546,8.315],[-122.045,8.248],[-122.543,8.18],[-123.041,8.111],[-123.539,8.042],[-124.037,7.972],[-124.534,7.901],[-125.032,7.83],[-125.529,7.758],[-126.026,7.686],[-126.523,7.613],[-127.02,7.54],[-127.516,7.466],[-128.013,7.391],[-128.509,7.316],[-129.005,7.241],[-129.501,7.165],[-129.997,7.088],[-130.492,7.011],[-130.987,6.933],[-131.483,6.855],[-131.978,6.776],[-132.473,6.697],[-132.967,6.617],[-133.462,6.537],[-133.956,6.456],[-134.451,6.375],[-134.945,6.293],[-135.439,6.211],[-135.933,6.128],[-136.426,6.045],[-136.92,5.962],[-137.413,5.878],[-137.906,5.794],[-138.399,5.709],[-138.892,5.624],[-139.385,5.538],[-139.877,5.452],[-140.37,5.366],[-140.862,5.279],[-141.354,5.192],[-141.461,4.734],[-141.566,4.276],[-141.672,3.818],[-141.778,3.36],[-141.884,2.902],[-141.989,2.444],[-142.467,2.359],[-142.945,2.273],[-143.422,2.187],[-143.9,2.101],[-144.377,2.015],[-144.855,1.928],[-145.332,1.842],[-145.81,1.755],[-146.287,1.669],[-146.764,1.582],[-147.242,1.495]]}},{"type":"Feature","properties":{"boundary_type":"transform","feature_type":"gpml:Transform","polarity":null,"overriding_plate_id":null,"subducting_plate_id":null,"plate_ids":[201,501001],"name":""},"geometry":{"type":"LineString","coordinates":[[106.038,30.081],[106.526,29.815],[107.012,29.547],[107.495,29.278],[107.976,29.007],[108.454,28.734],[108.93,28.459],[109.403,28.183],[109.873,27.905],[110.342,27.626],[110.808,27.345],[111.271,27.062],[111.732,26.778],[112.191,26.493],[112.648,26.206],[113.102,25.917],[113.554,25.628],[114.004,25.336],[114.452,25.044],[114.897,24.75],[115.341,24.455],[115.782,24.158],[116.222,23.861],[116.659,23.562],[117.094,23.261],[117.528,22.96],[117.959,22.658],[118.389,22.354],[118.817,22.049],[119.242,21.743],[119.666,21.436],[120.089,21.128],[120.509,20.819],[120.928,20.509],[121.345,20.197],[121.761,19.885],[122.174,19.572],[122.586,19.258],[122.997,18.943],[123.406,18.627],[123.814,18.311],[124.22,17.993],[124.624,17.675],[125.027,17.355],[125.429,17.035],[125.83,16.714],[126.229,16.393],[126.626,16.07],[127.023,15.747],[127.418,15.423],[127.812,15.099],[128.205,14.774],[128.596,14.448],[128.986,14.121],[129.376,13.794],[129.764,13.466]]}},{"type":"Feature","properties":{"boundary_type":"transform","feature_type":"gpml:Transform","polarity":null,"overriding_plate_id":null,"subducting_plate_id":null,"plate_ids":[201,501],"name":""},"geometry":{"type":"LineString","coordinates":[[129.764,13.466],[130.14,13.147],[130.516,12.827],[130.891,12.507],[131.264,12.186],[131.637,11.864],[132.009,11.542],[132.38,11.22],[132.75,10.897],[133.12,10.574],[133.489,10.25],[133.874,9.927],[134.26,9.604],[134.644,9.281],[135.028,8.957],[135.411,8.633],[135.793,8.308],[136.175,7.983],[136.556,7.657],[136.937,7.332],[137.317,7.005],[137.697,6.679],[138.076,6.352],[138.454,6.025],[138.832,5.698],[139.21,5.371],[139.587,5.043],[139.964,4.715],[140.34,4.387],[140.716,4.059],[141.092,3.73],[141.468,3.402],[141.843,3.073],[142.218,2.744],[142.593,2.415],[142.968,2.086],[143.342,1.757],[143.717,1.427],[144.091,1.098],[144.465,0.769],[144.84,0.439],[145.214,0.11],[145.588,-0.22],[145.962,-0.549],[146.336,-0.879],[146.71,-1.208],[147.085,-1.537],[147.459,-1.867],[147.834,-2.196],[148.208,-2.525],[148.583,-2.854],[148.959,-3.183],[149.334,-3.511],[149.71,-3.84],[150.086,-4.168],[150.462,-4.497],[150.838,-4.825],[151.215,-5.152],[151.593,-5.48],[151.971,-5.807],[152.349,-6.135],[152.727,-6.461],[153.107,-6.788],[153.486,-7.114],[153.867,-7.44],[154.247,-7.766],[154.629,-8.091],[155.011,-8.416],[155.393,-8.741],[155.777,-9.065],[156.161,-9.389],[156.545,-9.712],[156.931,-10.035],[157.317,-10.358],[157.704,-10.68],[158.092,-11.001],[158.481,-11.322],[158.87,-11.643],[159.261,-11.963],[159.652,-12.282],[160.044,-12.601],[160.438,-12.92],[160.832,-13.238],[161.227,-13.555],[161.624,-13.871],[162.021,-14.187],[162.42,-14.502],[162.819,-14.817],[163.22,-15.131],[163.622,-15.444],[164.026,-15.757],[164.43,-16.068],[164.836,-16.379],[165.243,-16.689],[165.651,-16.999],[166.061,-17.307],[166.472,-17.615],[166.885,-17.922],[167.299,-18.228],[167.714,-18.533]]}},{"type":"Feature","properties":{"boundary_type":"transform","feature_type":"gpml:Transform","polarity":null,"overriding_plate_id":null,"subducting_plate_id":null,"plate_ids":[101,201],"name":""},"geometry":{"type":"LineString","coordinates":[[167.714,-18.533],[168.126,-18.833],[168.539,-19.133],[168.953,-19.431],[169.369,-19.728],[169.787,-20.025],[170.206,-20.32],[170.626,-20.615],[171.049,-20.908],[171.473,-21.201],[171.898,-21.492],[172.326,-21.783],[172.755,-22.072],[173.186,-22.36],[173.618,-22.647],[174.053,-22.933],[174.489,-23.217],[174.927,-23.5],[175.367,-23.783],[175.809,-24.063],[176.253,-24.343],[176.699,-24.621],[177.147,-24.898],[177.596,-25.174],[178.048,-25.448],[178.502,-25.721],[178.958,-25.993],[179.416,-26.263],[179.876,-26.531],[-179.661,-26.799],[-179.197,-27.064],[-178.73,-27.328],[-178.261,-27.591],[-177.778,-27.839],[-177.293,-28.087],[-176.806,-28.332],[-176.316,-28.576],[-175.825,-28.817],[-175.331,-29.058],[-174.834,-29.296],[-174.336,-29.532],[-173.835,-29.767],[-173.331,-30.0],[-172.825,-30.23],[-172.317,-30.459],[-171.807,-30.686],[-171.294,-30.911],[-170.779,-31.133],[-170.261,-31.354],[-169.741,-31.573],[-169.219,-31.789],[-168.694,-32.004],[-168.166,-32.216]]}},{"type":"Feature","properties":{"boundary_type":"transform","feature_type":"gpml:Transform","polarity":null,"overriding_plate_id":null,"subducting_plate_id":null,"plate_ids":[801,80103],"name":""},"geometry":{"type":"LineString","coordinates":[[-73.433,31.255],[-72.934,31.0],[-72.438,30.743],[-71.944,30.485],[-71.452,30.224],[-70.964,29.962],[-70.477,29.698],[-69.994,29.432],[-69.513,29.164],[-69.034,28.895],[-68.558,28.624],[-68.085,28.352],[-67.614,28.077],[-67.145,27.802],[-66.678,27.524],[-66.214,27.245],[-65.753,26.965],[-65.293,26.683],[-64.836,26.399],[-64.381,26.114],[-63.929,25.828],[-63.478,25.54],[-63.03,25.251],[-62.584,24.961],[-62.14,24.669],[-61.698,24.376],[-61.258,24.082],[-60.82,23.786],[-60.384,23.489],[-59.95,23.191],[-59.518,22.892],[-59.088,22.592],[-58.66,22.29],[-58.233,21.988],[-57.809,21.684],[-57.386,21.379],[-56.965,21.073]]}},{"type":"Feature","properties":{"boundary_type":"transform","feature_type":"gpml:Transform","polarity":null,"overriding_plate_id":null,"subducting_plate_id":null,"plate_ids":[101,801],"name":""},"geometry":{"type":"LineString","coordinates":[[-147.242,1.495],[-147.28,0.999],[-147.318,0.503],[-147.357,0.007],[-147.395,-0.489],[-147.433,-0.984],[-147.472,-1.48],[-147.51,-1.976],[-147.548,-2.472],[-147.587,-2.968],[-147.625,-3.464],[-147.664,-3.96],[-147.702,-4.455],[-147.741,-4.951],[-147.78,-5.447],[-147.818,-5.943],[-147.857,-6.439],[-147.896,-6.935],[-147.935,-7.431],[-147.974,-7.926],[-148.013,-8.422],[-148.052,-8.918],[-148.092,-9.414],[-148.131,-9.91],[-148.171,-10.406],[-148.21,-10.901],[-148.25,-11.397],[-148.29,-11.893],[-148.33,-12.389],[-148.371,-12.885],[-148.411,-13.38],[-148.452,-13.876],[-148.492,-14.372],[-148.625,-14.85],[-148.758,-15.328],[-148.892,-15.806],[-149.027,-16.284],[-149.162,-16.762],[-149.298,-17.24],[-149.435,-17.717],[-149.572,-18.195],[-149.71,-18.672],[-149.849,-19.15],[-149.989,-19.627],[-150.129,-20.104]]}},{"type":"Feature","properties":{"boundary_type":"transform","feature_type":"gpml:Transform","polarity":null,"overriding_plate_id":null,"subducting_plate_id":null,"plate_ids":[101,701],"name":""},"geometry":{"type":"LineString","coordinates":[[-150.129,-20.104],[-150.167,-20.231],[-150.285,-20.682],[-150.404,-21.133],[-150.524,-21.584],[-150.541,-21.627]]}},{"type":"Feature","properties":{"boundary_type":"subduction","feature_type":"gpml:SubductionZone","polarity":"Right","overriding_plate_id":801,"subducting_plate_id":701,"plate_ids":[701,801],"name":"Cathaysia_SZ"},"geometry":{"type":"LineString","coordinates":[[-100.814,0.733],[-100.999,0.27],[-101.183,-0.194],[-101.368,-0.658],[-101.553,-1.122],[-101.738,-1.585],[-101.923,-2.049],[-102.108,-2.513],[-102.293,-2.976],[-102.478,-3.44],[-102.663,-3.904],[-102.849,-4.367],[-103.035,-4.831],[-103.221,-5.294],[-103.337,-5.78],[-103.452,-6.266],[-103.568,-6.752],[-103.685,-7.238],[-103.801,-7.724],[-103.918,-8.21],[-104.035,-8.696],[-104.152,-9.182],[-104.269,-9.668],[-104.387,-10.153],[-104.506,-10.639],[-104.624,-11.125],[-104.743,-11.61],[-104.863,-12.096],[-104.983,-12.582],[-104.972,-13.02],[-104.961,-13.459],[-104.951,-13.898],[-104.94,-14.337],[-104.929,-14.776],[-104.918,-15.215]]}},{"type":"Feature","properties":{"boundary_type":"transform","feature_type":"gpml:Transform","polarity":null,"overriding_plate_id":null,"subducting_plate_id":null,"plate_ids":[701,801],"name":""},"geometry":{"type":"LineString","coordinates":[[-150.129,-20.104],[-149.637,-20.192],[-149.144,-20.279],[-148.65,-20.365],[-148.155,-20.449],[-147.661,-20.531],[-147.165,-20.613],[-146.669,-20.693],[-146.147,-20.723],[-145.624,-20.751],[-145.102,-20.778],[-144.579,-20.804],[-144.056,-20.828],[-143.532,-20.85],[-143.009,-20.871],[-142.485,-20.89],[-141.962,-20.908],[-141.438,-20.923],[-140.914,-20.938],[-140.39,-20.951],[-139.866,-20.962],[-139.341,-20.971],[-138.817,-20.979],[-138.293,-20.985],[-137.769,-20.99],[-137.244,-20.993],[-136.72,-20.995],[-136.196,-20.995],[-135.671,-20.993],[-135.147,-20.99],[-134.623,-20.985],[-134.098,-20.978],[-133.574,-20.97],[-133.05,-20.96],[-132.526,-20.949],[-132.002,-20.936],[-131.478,-20.922],[-130.954,-20.906],[-130.43,-20.888],[-129.907,-20.869],[-129.383,-20.848],[-128.86,-20.825],[-128.337,-20.801],[-127.822,-20.713],[-127.308,-20.623],[-126.794,-20.532],[-126.281,-20.44],[-125.768,-20.345],[-125.256,-20.25],[-124.745,-20.153],[-124.234,-20.054],[-123.724,-19.954],[-123.215,-19.852],[-122.707,-19.749],[-122.199,-19.645],[-121.691,-19.539],[-121.185,-19.432],[-120.679,-19.323],[-120.173,-19.213],[-119.669,-19.102],[-119.165,-18.989],[-118.661,-18.875],[-118.159,-18.759],[-117.657,-18.642],[-117.156,-18.524],[-116.655,-18.405],[-116.155,-18.284],[-115.656,-18.162],[-115.158,-18.038],[-114.66,-17.914],[-114.163,-17.788],[-113.667,-17.661],[-113.171,-17.532],[-112.677,-17.403],[-112.182,-17.272],[-111.689,-17.14],[-111.196,-17.006],[-110.704,-16.872],[-110.218,-16.74],[-109.733,-16.607],[-109.248,-16.472],[-108.765,-16.337],[-108.282,-16.2],[-107.799,-16.063],[-107.317,-15.924],[-106.836,-15.784],[-106.356,-15.643],[-105.876,-15.502],[-105.397,-15.359],[-104.918,-15.215]]}},{"type":"Feature","properties":{"boundary_type":"subduction","feature_type":"gpml:SubductionZone","polarity":"Left","overriding_plate_id":201,"subducting_plate_id":20101,"plate_ids":[201,20101],"name":"Amazonia_SZ"},"geometry":{"type":"LineString","coordinates":[[97.11,-12.849],[97.37,-13.279],[97.632,-13.709],[97.894,-14.139],[98.158,-14.569],[98.422,-14.999],[98.688,-15.428],[98.954,-15.857],[99.222,-16.285],[99.491,-16.713],[99.761,-17.141],[100.032,-17.568],[100.305,-17.996],[100.579,-18.422],[100.854,-18.849],[101.131,-19.274],[101.409,-19.7],[101.689,-20.125],[101.97,-20.55],[102.253,-20.974],[102.537,-21.397],[102.819,-21.75],[103.102,-22.102],[103.386,-22.453],[103.672,-22.804],[103.959,-23.155],[104.248,-23.505],[104.538,-23.854],[104.83,-24.203]]}},{"type":"Feature","properties":{"boundary_type":"subduction","feature_type":"gpml:SubductionZone","polarity":"Left","overriding_plate_id":201,"subducting_plate_id":90105,"plate_ids":[201,90105],"name":"Amazonia_SZ"},"geometry":{"type":"LineString","coordinates":[[104.83,-24.203],[105.162,-24.597],[105.497,-24.991],[105.833,-25.384],[106.172,-25.776],[106.513,-26.167],[106.856,-26.558],[107.202,-26.948],[107.55,-27.336],[107.901,-27.724],[108.254,-28.111],[108.609,-28.498],[108.967,-28.883],[109.328,-29.267],[109.692,-29.65],[110.058,-30.033],[110.427,-30.414],[110.799,-30.794],[111.174,-31.173],[111.552,-31.552],[111.933,-31.928],[112.318,-32.304],[112.705,-32.679],[113.096,-33.052],[113.49,-33.425],[113.887,-33.795],[114.288,-34.165],[114.692,-34.533],[115.1,-34.9],[115.512,-35.266],[115.927,-35.63],[116.346,-35.993],[116.769,-36.354],[117.196,-36.714],[117.627,-37.072],[118.062,-37.429],[118.502,-37.784],[118.945,-38.138],[119.393,-38.489],[119.845,-38.839],[120.301,-39.188],[120.762,-39.534],[121.228,-39.879],[121.698,-40.222],[122.174,-40.562],[122.654,-40.901],[123.139,-41.238],[123.629,-41.573],[124.124,-41.906],[124.624,-42.236],[125.129,-42.564],[125.64,-42.891],[126.156,-43.214],[126.678,-43.536],[127.205,-43.855],[127.738,-44.171],[128.277,-44.486],[128.821,-44.797],[129.371,-45.106],[129.928,-45.412],[130.49,-45.716],[131.059,-46.017],[131.633,-46.314],[132.214,-46.609],[132.801,-46.901],[133.395,-47.19],[133.995,-47.476]]}},{"type":"Feature","properties":{"boundary_type":"subduction","feature_type":"gpml:SubductionZone","polarity":"Left","overriding_plate_id":101,"subducting_plate_id":501,"plate_ids":[101,501],"name":"Baltica_SZ"},"geometry":{"type":"LineString","coordinates":[[174.647,7.001],[174.694,6.594],[174.741,6.186],[174.672,5.709],[174.602,5.231],[174.532,4.754],[174.463,4.276],[174.394,3.799],[174.324,3.322],[174.255,2.844],[174.186,2.367],[174.117,1.889],[174.048,1.412],[173.979,0.934],[173.91,0.457],[173.841,-0.02],[173.772,-0.498],[173.703,-0.975],[173.634,-1.453],[173.565,-1.93],[173.495,-2.408],[173.426,-2.885],[173.357,-3.362],[173.288,-3.84],[173.218,-4.317],[173.149,-4.795],[172.978,-5.262],[172.807,-5.729],[172.635,-6.196],[172.463,-6.663],[172.291,-7.129],[172.119,-7.596],[171.946,-8.063],[171.773,-8.53],[171.599,-8.996],[171.425,-9.463],[171.25,-9.929],[171.075,-10.395],[170.899,-10.862],[170.723,-11.328],[170.547,-11.794],[170.369,-12.26],[170.191,-12.725],[170.013,-13.191],[169.833,-13.657],[169.653,-14.122],[169.472,-14.587],[169.291,-15.052],[169.097,-15.488],[168.902,-15.924],[168.706,-16.359],[168.51,-16.794],[168.312,-17.229],[168.114,-17.664],[167.915,-18.099],[167.714,-18.533]]}},{"type":"Feature","properties":{"boundary_type":"subduction","feature_type":"gpml:SubductionZone","polarity":"Left","overriding_plate_id":701,"subducting_plate_id":90105,"plate_ids":[701,90105],"name":""},"geometry":{"type":"LineString","coordinates":[[173.274,-42.108],[173.293,-42.607],[173.313,-43.105],[173.333,-43.604],[173.353,-44.102],[173.373,-44.6],[173.394,-45.099],[173.415,-45.597],[173.437,-46.096],[173.459,-46.594],[173.481,-47.092],[173.504,-47.591],[173.527,-48.089],[173.551,-48.587],[173.575,-49.086],[173.6,-49.584],[173.625,-50.083],[173.651,-50.581],[173.677,-51.079],[173.704,-51.578],[173.731,-52.076],[173.759,-52.574],[173.788,-53.073],[173.817,-53.571],[173.847,-54.069],[173.878,-54.567],[173.909,-55.066],[173.942,-55.564],[173.975,-56.062],[174.009,-56.561],[174.044,-57.059],[174.08,-57.557],[174.116,-58.055],[174.154,-58.554],[174.193,-59.052],[174.234,-59.55],[174.275,-60.048],[174.317,-60.546],[174.361,-61.044],[174.407,-61.543],[174.454,-62.041],[174.502,-62.539],[174.552,-63.037],[174.604,-63.535],[174.658,-64.033],[174.713,-64.531],[174.771,-65.029],[174.831,-65.527],[174.893,-66.025],[174.957,-66.523],[175.025,-67.021],[175.095,-67.519],[175.168,-68.017],[175.244,-68.514],[175.324,-69.012],[175.407,-69.51],[175.495,-70.008],[175.587,-70.505],[175.683,-71.003],[175.784,-71.501],[175.891,-71.998],[176.004,-72.495],[176.123,-72.993],[176.248,-73.49],[176.382,-73.987],[176.524,-74.484],[176.675,-74.982],[176.836,-75.478],[177.008,-75.975],[177.193,-76.472],[177.391,-76.968],[177.605,-77.465],[177.836,-77.961],[178.087,-78.457],[178.36,-78.953],[178.658,-79.448],[178.985,-79.943],[179.346,-80.438],[179.746,-80.933],[-179.809,-81.427],[-179.31,-81.92],[-178.746,-82.413],[-178.104,-82.904],[-177.367,-83.395],[-176.513,-83.885],[-175.512,-84.373],[-174.32,-84.859],[-172.882,-85.342],[-171.113,-85.822],[-168.889,-86.296],[-166.018,-86.764],[-162.192,-87.221],[-156.898,-87.66],[-149.262,-88.071],[-137.844,-88.43],[-120.852,-88.693],[-98.421,-88.797],[-75.812,-88.703],[-58.503,-88.446],[-46.842,-88.091],[-39.052,-87.682],[-33.664,-87.244],[-29.777,-86.788],[-26.866,-86.321],[-24.614,-85.846],[-22.825,-85.367],[-21.372,-84.884],[-20.17,-84.398],[-19.16,-83.91],[-18.299,-83.42],[-17.557,-82.93],[-16.911,-82.438],[-16.343,-81.945],[-15.841,-81.452],[-15.393,-80.958],[-14.991,-80.464],[-14.629,-79.969],[-14.3,-79.474],[-14.0,-78.978],[-13.726,-78.482],[-13.474,-77.986],[-13.242,-77.49],[-13.027,-76.994],[-12.828,-76.497],[-12.643,-76.001],[-12.47,-75.504],[-12.308,-75.007],[-12.157,-74.51],[-12.015,-74.013],[-11.881,-73.516],[-11.755,-73.018],[-11.635,-72.521],[-11.522,-72.024],[-11.415,-71.526],[-11.314,-71.028],[-11.217,-70.531],[-11.125,-70.033],[-11.038,-69.535],[-10.954,-69.038],[-10.874,-68.54],[-10.798,-68.042],[-10.724,-67.544],[-10.654,-67.046],[-10.587,-66.549],[-10.522,-66.051],[-10.46,-65.553],[-10.4,-65.055],[-10.342,-64.557],[-10.286,-64.059],[-10.232,-63.561],[-10.181,-63.062],[-10.166,-62.575],[-10.151,-62.087],[-10.137,-61.599],[-10.123,-61.111],[-10.11,-60.623],[-10.098,-60.135],[-10.085,-59.647],[-10.073,-59.159],[-10.061,-58.671],[-10.05,-58.184],[-10.039,-57.696],[-10.028,-57.208],[-10.018,-56.72],[-10.007,-56.232],[-9.997,-55.744],[-9.988,-55.256],[-9.978,-54.768],[-9.969,-54.28],[-9.96,-53.792],[-9.951,-53.305],[-9.942,-52.817],[-9.934,-52.329],[-9.926,-51.841],[-9.918,-51.353],[-9.91,-50.865],[-9.902,-50.377],[-9.894,-49.889],[-9.887,-49.401],[-9.88,-48.913],[-9.872,-48.425],[-9.865,-47.938],[-9.858,-47.45],[-9.852,-46.962],[-9.845,-46.474],[-9.839,-45.986],[-9.832,-45.498],[-9.826,-45.01],[-9.82,-44.522]]}},{"type":"Feature","properties":{"boundary_type":"ridge","feature_type":"gpml:MidOceanRidge","polarity":null,"overriding_plate_id":null,"subducting_plate_id":null,"plate_ids":[90105,90106],"name":""},"geometry":{"type":"LineString","coordinates":[[30.676,27.904],[30.375,27.587]]}},{"type":"Feature","properties":{"boundary_type":"ridge","feature_type":"gpml:MidOceanRidge","polarity":null,"overriding_plate_id":null,"subducting_plate_id":null,"plate_ids":[90105,90107],"name":""},"geometry":{"type":"LineString","coordinates":[[30.375,27.587],[30.017,27.207],[29.662,26.826],[29.309,26.444],[28.958,26.061],[28.61,25.677],[28.264,25.293],[27.92,24.907],[27.578,24.521],[27.239,24.134],[26.901,23.747],[26.566,23.358],[26.232,22.969],[25.9,22.58],[25.57,22.189],[25.243,21.798],[24.916,21.406],[24.592,21.014],[24.269,20.621],[23.948,20.227],[23.629,19.833],[23.311,19.439],[22.994,19.043],[22.68,18.648],[22.366,18.251],[22.054,17.854],[22.459,17.554],[22.863,17.253],[23.265,16.95],[23.666,16.648],[24.065,16.344],[24.464,16.04],[24.861,15.734],[25.257,15.429],[25.652,15.122],[26.045,14.815],[26.438,14.507],[26.829,14.198],[27.22,13.889],[27.609,13.579],[27.997,13.269],[28.385,12.958],[28.771,12.646],[29.157,12.334],[29.541,12.022],[29.925,11.708],[30.308,11.395],[30.689,11.081],[31.071,10.766],[31.451,10.451],[31.83,10.135],[32.209,9.819],[32.587,9.503],[32.965,9.186],[33.341,8.869],[33.717,8.551],[34.093,8.233],[34.467,7.915],[34.842,7.596],[34.557,7.187],[34.273,6.778],[33.99,6.368],[33.707,5.958],[33.424,5.548],[33.142,5.138],[32.86,4.728],[32.579,4.318],[32.297,3.908],[32.016,3.497],[31.736,3.087],[31.455,2.676],[31.175,2.265],[30.895,1.855],[30.615,1.444],[30.335,1.033],[30.055,0.622],[29.775,0.211],[29.496,-0.2],[29.216,-0.61],[28.936,-1.021],[28.656,-1.432],[28.376,-1.843],[28.096,-2.254],[27.816,-2.664],[27.535,-3.075],[27.255,-3.485],[26.974,-3.896],[26.693,-4.306],[26.411,-4.716],[26.129,-5.127],[25.847,-5.537],[25.564,-5.947],[25.281,-6.356],[24.998,-6.766],[24.714,-7.175],[24.43,-7.585],[24.145,-7.994],[23.859,-8.402],[23.573,-8.811],[23.286,-9.22],[22.998,-9.628],[22.71,-10.036],[22.421,-10.444],[22.132,-10.851],[21.841,-11.258],[21.55,-11.665],[21.258,-12.072],[20.965,-12.478],[20.671,-12.884],[20.376,-13.29],[20.08,-13.695],[19.783,-14.1],[19.485,-14.505],[19.186,-14.909],[18.886,-15.313],[18.585,-15.716],[18.282,-16.119],[17.979,-16.522],[17.674,-16.924],[17.367,-17.326],[17.06,-17.727],[16.751,-18.128],[16.44,-18.528],[16.128,-18.928],[15.815,-19.327],[16.13,-19.728],[16.447,-20.128],[16.766,-20.527],[17.086,-20.927],[17.409,-21.325],[17.732,-21.723],[18.058,-22.12],[18.386,-22.516],[18.715,-22.912],[19.046,-23.307],[19.379,-23.702],[19.715,-24.096],[20.052,-24.489],[20.391,-24.881],[20.733,-25.272],[21.077,-25.663],[21.423,-26.053],[21.771,-26.442],[22.122,-26.83],[22.475,-27.218],[22.831,-27.604],[23.189,-27.99],[23.55,-28.374],[23.913,-28.758],[23.464,-29.065],[23.011,-29.371],[22.556,-29.675],[22.099,-29.978],[21.638,-30.279],[21.175,-30.578],[20.709,-30.876],[20.24,-31.172],[19.768,-31.466],[19.293,-31.759],[18.815,-32.05],[18.335,-32.339],[17.851,-32.626],[17.363,-32.911],[16.873,-33.195],[16.38,-33.476],[15.883,-33.756],[15.383,-34.034],[14.88,-34.309],[14.374,-34.582],[13.864,-34.854],[13.351,-35.123],[12.834,-35.39],[12.314,-35.655],[11.791,-35.917],[11.264,-36.178],[10.734,-36.436],[10.2,-36.691],[9.662,-36.944],[9.121,-37.195],[8.577,-37.443],[8.029,-37.689],[7.477,-37.932],[6.921,-38.173],[6.362,-38.411],[5.8,-38.646],[5.233,-38.879],[4.663,-39.109],[4.089,-39.336],[3.512,-39.56],[2.93,-39.781],[2.345,-39.999],[1.756,-40.215],[1.164,-40.427],[0.568,-40.637],[-0.032,-40.843],[-0.636,-41.046],[-1.243,-41.246],[-1.854,-41.443],[-2.469,-41.637],[-3.087,-41.827],[-3.71,-42.014],[-4.335,-42.197],[-4.965,-42.377],[-5.597,-42.554],[-6.234,-42.727],[-6.874,-42.897],[-7.517,-43.063],[-8.164,-43.225],[-8.815,-43.384],[-9.468,-43.539],[-10.126,-43.69],[-10.786,-43.838],[-11.449,-43.982]]}},{"type":"Feature","properties":{"boundary_type":"ridge","feature_type":"gpml:MidOceanRidge","polarity":null,"overriding_plate_id":null,"subducting_plate_id":null,"plate_ids":[90106,90107],"name":""},"geometry":{"type":"LineString","coordinates":[[30.375,27.587],[30.059,27.978],[29.741,28.368],[29.42,28.757],[29.097,29.145],[28.772,29.533],[28.444,29.919],[28.114,30.305],[27.781,30.69],[27.445,31.075],[27.107,31.458],[26.766,31.84],[26.422,32.222],[26.075,32.603],[25.725,32.982],[26.112,33.306],[26.501,33.628],[26.894,33.95],[27.29,34.27],[27.688,34.588],[28.09,34.906],[27.624,35.208],[27.155,35.509],[26.682,35.808],[26.206,36.104],[25.726,36.399],[25.242,36.692],[24.755,36.983],[24.264,37.272],[23.769,37.56],[23.271,37.844],[22.768,38.127],[22.262,38.408],[21.752,38.686],[21.238,38.963],[20.719,39.237],[20.197,39.508],[19.671,39.777],[19.14,40.044],[18.606,40.309],[18.067,40.571],[17.524,40.83],[17.737,41.275],[17.953,41.719],[18.173,42.163],[18.395,42.607],[18.621,43.05],[18.85,43.492],[19.082,43.934],[19.318,44.376],[19.557,44.817],[19.8,45.258],[20.047,45.698],[20.297,46.137],[20.552,46.576],[20.811,47.015],[21.074,47.453],[20.397,47.61],[19.716,47.762],[19.031,47.911],[18.342,48.056],[17.65,48.196],[16.953,48.332],[16.253,48.464],[15.549,48.592],[14.842,48.716],[14.132,48.835],[13.418,48.95],[12.701,49.06],[11.98,49.166],[11.257,49.267],[10.531,49.364],[9.802,49.456],[9.07,49.544],[8.336,49.627],[7.599,49.705],[6.86,49.779],[6.929,50.264],[6.999,50.75],[7.071,51.235],[7.144,51.72],[7.219,52.206],[7.296,52.691],[7.374,53.176],[7.454,53.661],[7.536,54.146],[7.62,54.631],[7.706,55.116],[7.794,55.601],[7.884,56.085],[7.976,56.57],[8.071,57.055],[8.168,57.539],[8.269,58.024],[8.371,58.508],[8.477,58.993],[8.586,59.477],[8.697,59.961],[8.812,60.445],[8.931,60.929],[7.933,60.951],[6.934,60.967],[5.934,60.974],[4.935,60.975],[3.935,60.967],[2.936,60.953],[1.938,60.931],[0.941,60.902],[-0.053,60.865],[-1.045,60.821],[-2.033,60.77],[-3.019,60.712],[-4.001,60.646],[-4.978,60.573],[-5.951,60.493],[-6.919,60.406],[-7.881,60.312],[-8.838,60.211],[-9.789,60.104],[-10.733,59.989],[-11.671,59.868],[-12.601,59.74],[-13.525,59.606],[-14.44,59.465],[-15.348,59.318],[-16.248,59.165],[-17.14,59.005],[-18.024,58.84],[-18.899,58.668],[-19.765,58.49]]}},{"type":"Feature","properties":{"boundary_type":"ridge","feature_type":"gpml:MidOceanRidge","polarity":null,"overriding_plate_id":null,"subducting_plate_id":null,"plate_ids":[801,90106],"name":""},"geometry":{"type":"LineString","coordinates":[[-19.765,58.49],[-20.178,58.403]]}},{"type":"Feature","properties":{"boundary_type":"ridge","feature_type":"gpml:MidOceanRidge","polarity":null,"overriding_plate_id":null,"subducting_plate_id":null,"plate_ids":[90105,501001],"name":""},"geometry":{"type":"LineString","coordinates":[[69.775,21.546],[69.538,21.541]]}},{"type":"Feature","properties":{"boundary_type":"ridge","feature_type":"gpml:MidOceanRidge","polarity":null,"overriding_plate_id":null,"subducting_plate_id":null,"plate_ids":[90105,90106],"name":""},"geometry":{"type":"LineString","coordinates":[[69.538,21.541],[69.017,21.529],[68.496,21.516],[67.975,21.501],[67.454,21.484],[66.934,21.466],[66.413,21.446],[65.893,21.424],[65.373,21.401],[64.853,21.376],[64.333,21.35],[63.813,21.322],[63.294,21.293],[62.774,21.261],[62.255,21.229],[61.736,21.194],[61.218,21.158],[60.7,21.121],[60.182,21.082],[59.664,21.041],[59.146,20.999],[58.629,20.955],[58.112,20.91],[57.596,20.863],[57.08,20.815],[56.564,20.765],[56.048,20.713],[55.533,20.66],[55.018,20.606],[54.504,20.55],[53.99,20.492],[53.956,20.984],[53.921,21.476],[53.887,21.969],[53.852,22.461],[53.817,22.953],[53.781,23.445],[53.746,23.938],[53.71,24.43],[53.674,24.922],[53.637,25.414],[53.6,25.906],[53.563,26.399],[53.526,26.891],[53.488,27.383],[53.45,27.875],[53.412,28.367],[53.373,28.859],[53.334,29.351],[53.295,29.843],[53.255,30.336],[53.214,30.828],[53.174,31.32],[53.133,31.812],[52.552,31.762],[51.973,31.711],[51.394,31.656],[50.816,31.599],[50.238,31.539],[49.661,31.477],[49.085,31.412],[48.51,31.344],[47.936,31.274],[47.362,31.202],[46.79,31.127],[46.218,31.049],[45.648,30.969],[45.078,30.886],[44.509,30.801],[43.941,30.713],[43.375,30.623],[42.809,30.531],[42.245,30.436],[41.681,30.338],[41.119,30.238],[40.558,30.136],[39.998,30.032],[39.439,29.925],[38.882,29.815],[38.326,29.704],[37.771,29.59],[37.217,29.473],[36.664,29.355],[36.113,29.234],[35.563,29.111],[35.015,28.985],[34.468,28.858],[33.922,28.728],[33.377,28.596],[32.834,28.462],[32.292,28.326],[31.752,28.187],[31.213,28.047],[30.676,27.904]]}},{"type":"Feature","properties":{"boundary_type":"ridge","feature_type":"gpml:MidOceanRidge","polarity":null,"overriding_plate_id":null,"subducting_plate_id":null,"plate_ids":[90105,501001],"name":""},"geometry":{"type":"LineString","coordinates":[[69.775,21.546],[69.688,21.075],[69.602,20.604],[69.516,20.133],[69.431,19.662],[69.346,19.191],[69.261,18.72],[69.177,18.249],[69.094,17.778],[69.011,17.307],[68.928,16.835],[68.846,16.364],[68.764,15.893],[68.683,15.421],[68.602,14.95],[68.521,14.479],[68.441,14.007],[68.361,13.536],[68.281,13.064],[68.201,12.593],[68.687,12.466],[69.172,12.338],[69.656,12.209],[70.14,12.079],[70.623,11.949],[71.106,11.817],[71.589,11.685],[72.071,11.552],[72.553,11.418],[73.034,11.284],[73.514,11.148],[73.995,11.012],[74.475,10.875],[74.954,10.738],[75.433,10.6],[75.911,10.461],[76.389,10.321],[76.867,10.18],[77.344,10.039],[77.821,9.897],[78.297,9.755],[78.773,9.612],[79.249,9.468],[79.724,9.323],[80.199,9.178],[80.673,9.033],[81.147,8.886],[81.621,8.739],[82.094,8.592],[82.567,8.444],[83.04,8.295],[83.512,8.146],[83.386,7.677],[83.26,7.207],[83.135,6.738],[83.009,6.269],[82.884,5.799],[82.76,5.33],[82.635,4.86],[82.511,4.391],[82.387,3.921],[82.262,3.451],[82.139,2.982],[82.015,2.512],[81.891,2.043],[81.767,1.573],[81.644,1.103],[81.52,0.634],[81.396,0.164],[81.273,-0.306],[81.149,-0.775],[81.026,-1.245],[80.902,-1.714],[80.778,-2.184],[80.654,-2.654],[80.53,-3.123],[80.406,-3.593],[80.808,-3.865],[81.21,-4.137],[81.612,-4.408],[82.015,-4.679],[82.418,-4.951],[82.821,-5.221],[83.224,-5.492],[83.628,-5.762],[84.033,-6.032],[84.437,-6.302],[84.842,-6.572],[85.248,-6.841],[85.654,-7.11],[86.06,-7.378],[86.467,-7.646],[86.875,-7.914],[87.283,-8.181],[87.691,-8.448],[88.101,-8.714],[88.51,-8.98]]}},{"type":"Feature","properties":{"boundary_type":"ridge","feature_type":"gpml:MidOceanRidge","polarity":null,"overriding_plate_id":null,"subducting_plate_id":null,"plate_ids":[90106,501001],"name":""},"geometry":{"type":"LineString","coordinates":[[-168.474,52.262],[-168.76,52.73],[-169.052,53.197],[-169.351,53.664],[-169.657,54.13],[-169.969,54.595],[-170.288,55.059],[-170.615,55.523],[-170.95,55.985],[-171.293,56.447],[-171.645,56.907],[-172.005,57.367],[-172.374,57.825],[-172.753,58.283],[-173.141,58.739],[-173.54,59.194],[-173.95,59.648],[-174.371,60.101],[-174.804,60.552],[-175.249,61.002],[-175.706,61.45],[-176.177,61.896],[-176.662,62.341],[-177.162,62.785],[-177.676,63.226],[-178.207,63.665],[-178.754,64.103],[-179.319,64.538],[-179.902,64.971],[179.496,65.402],[178.874,65.831],[178.231,66.256],[177.565,66.679],[176.877,67.099],[176.165,67.516],[175.427,67.93],[174.662,68.34],[173.869,68.747],[173.048,69.15],[172.195,69.548],[171.31,69.943],[170.391,70.333],[169.437,70.718],[168.446,71.098],[167.416,71.472],[166.345,71.841],[165.232,72.203],[164.075,72.559],[162.685,72.35],[161.328,72.13],[160.004,71.902],[158.712,71.665],[157.452,71.419],[156.225,71.166],[155.03,70.904],[153.866,70.635],[152.733,70.359],[151.631,70.076],[150.559,69.786],[149.453,69.471],[148.38,69.149],[147.338,68.82],[146.327,68.485],[145.346,68.145],[144.393,67.798],[143.469,67.447],[142.572,67.09],[141.7,66.728],[140.855,66.362],[140.034,65.991],[139.236,65.616],[138.461,65.237],[137.709,64.854],[136.689,65.095],[135.651,65.329],[134.594,65.555],[133.519,65.775],[132.427,65.986],[131.316,66.19],[130.187,66.385],[129.041,66.573],[127.879,66.752],[126.699,66.922],[125.503,67.083],[124.292,67.235],[123.066,67.378],[121.826,67.512],[120.572,67.636],[119.305,67.75],[118.026,67.854],[116.737,67.948],[115.438,68.032],[114.129,68.106],[112.813,68.17],[111.49,68.222],[110.162,68.265],[108.829,68.296],[107.494,68.317],[106.156,68.328],[104.818,68.327],[103.48,68.316],[102.145,68.294],[102.182,67.806],[102.217,67.317],[102.25,66.829],[102.283,66.341],[102.314,65.852],[102.344,65.364],[102.372,64.876],[102.4,64.387],[102.427,63.899],[102.453,63.411],[102.478,62.922],[102.502,62.434],[102.526,61.945],[102.548,61.457],[102.57,60.969],[102.592,60.48],[102.613,59.992],[102.633,59.503],[102.652,59.015],[102.671,58.527],[102.69,58.038],[102.708,57.55],[102.725,57.061],[102.742,56.573],[102.759,56.085],[102.775,55.596],[102.791,55.108],[101.993,54.928],[101.202,54.743],[100.418,54.554],[99.642,54.359],[98.874,54.159],[98.112,53.954],[97.359,53.745],[96.612,53.531],[95.874,53.312],[95.143,53.089],[94.419,52.862],[93.704,52.63],[92.995,52.393],[92.295,52.153],[91.602,51.909],[90.917,51.66],[90.239,51.408],[89.568,51.151],[88.905,50.891],[88.25,50.627],[87.602,50.36],[86.961,50.089],[86.328,49.814],[85.701,49.536],[85.082,49.255],[84.47,48.97],[83.865,48.683],[83.266,48.392],[82.675,48.098],[82.09,47.801],[81.512,47.501],[80.941,47.198],[81.306,46.776],[81.666,46.353],[82.02,45.929],[82.368,45.504],[82.712,45.078],[83.05,44.651],[83.384,44.223],[83.712,43.793],[84.036,43.363],[84.355,42.932],[84.67,42.5],[84.981,42.068],[85.287,41.634],[85.589,41.2],[85.888,40.765],[86.182,40.329],[86.473,39.892],[86.759,39.455],[87.043,39.017],[87.323,38.578],[87.599,38.139],[87.872,37.699],[88.142,37.258],[88.409,36.817],[88.673,36.375],[88.933,35.933],[89.191,35.49],[89.446,35.046],[89.698,34.602],[89.948,34.158],[89.426,33.909],[88.908,33.658],[88.392,33.405],[87.88,33.149],[87.37,32.892],[86.863,32.632],[86.36,32.371],[85.859,32.108],[85.361,31.842],[84.866,31.575],[84.374,31.305],[83.885,31.034],[83.398,30.761],[82.915,30.487],[82.434,30.21],[81.955,29.932],[81.48,29.652],[81.007,29.37],[80.536,29.087],[80.069,28.802],[79.603,28.515],[79.141,28.227],[78.68,27.938],[78.223,27.646],[77.767,27.354],[77.314,27.059],[76.864,26.764],[76.416,26.467],[75.97,26.168],[75.526,25.868],[75.085,25.567],[74.646,25.265],[74.209,24.961],[73.774,24.656],[73.342,24.35],[72.911,24.042],[72.483,23.734],[72.056,23.424],[71.632,23.113],[71.209,22.801],[70.789,22.487],[70.37,22.173],[69.953,21.858],[69.538,21.541]]}},{"type":"Feature","properties":{"boundary_type":"ridge","feature_type":"gpml:MidOceanRidge","polarity":null,"overriding_plate_id":null,"subducting_plate_id":null,"plate_ids":[701,90105],"name":""},"geometry":{"type":"LineString","coordinates":[[-9.82,-44.522],[-10.366,-44.345],[-10.91,-44.164],[-11.449,-43.982]]}},{"type":"Feature","properties":{"boundary_type":"ridge","feature_type":"gpml:MidOceanRidge","polarity":null,"overriding_plate_id":null,"subducting_plate_id":null,"plate_ids":[701,90107],"name":""},"geometry":{"type":"LineString","coordinates":[[-11.449,-43.982],[-11.681,-43.902],[-12.07,-43.497],[-12.454,-43.09],[-12.833,-42.682],[-13.207,-42.273],[-13.576,-41.863],[-13.94,-41.451],[-14.3,-41.039],[-14.655,-40.625],[-15.006,-40.21],[-15.353,-39.794],[-15.695,-39.377],[-16.033,-38.959],[-16.368,-38.54],[-16.698,-38.121],[-17.025,-37.7],[-17.348,-37.278],[-17.668,-36.856],[-17.984,-36.432],[-18.296,-36.008],[-18.605,-35.583],[-18.911,-35.158],[-19.214,-34.731],[-19.514,-34.304],[-19.81,-33.876],[-20.104,-33.447],[-20.395,-33.018],[-20.682,-32.588],[-20.968,-32.157],[-20.882,-31.679],[-20.797,-31.2],[-20.713,-30.721],[-20.629,-30.242],[-20.547,-29.763],[-20.465,-29.284],[-20.384,-28.805],[-20.304,-28.325],[-20.224,-27.846],[-20.145,-27.367],[-20.067,-26.888],[-19.99,-26.408],[-19.913,-25.929],[-19.837,-25.449],[-19.761,-24.97],[-19.686,-24.49],[-19.612,-24.011],[-19.538,-23.531],[-19.307,-23.082],[-19.078,-22.633],[-18.85,-22.183],[-18.624,-21.733],[-18.399,-21.283],[-18.176,-20.832],[-17.954,-20.381],[-17.733,-19.93],[-17.513,-19.478],[-17.295,-19.027],[-17.078,-18.574],[-16.862,-18.122],[-17.254,-17.82],[-17.646,-17.516],[-18.036,-17.212],[-18.425,-16.907],[-18.813,-16.602],[-19.199,-16.295],[-19.585,-15.988],[-19.969,-15.681],[-20.352,-15.372],[-20.734,-15.063],[-21.114,-14.753],[-21.494,-14.443],[-21.872,-14.132],[-22.25,-13.821],[-22.627,-13.509],[-23.002,-13.196],[-23.377,-12.883],[-23.75,-12.569],[-24.123,-12.255],[-24.495,-11.94],[-24.866,-11.625],[-25.236,-11.309],[-25.605,-10.993],[-25.974,-10.677],[-26.342,-10.36],[-26.709,-10.042],[-26.453,-9.628],[-26.199,-9.214],[-25.945,-8.799],[-25.691,-8.384],[-25.438,-7.969],[-25.186,-7.554],[-24.934,-7.139],[-24.683,-6.724],[-24.432,-6.308],[-24.181,-5.893],[-23.931,-5.477],[-23.681,-5.061],[-23.431,-4.645],[-23.182,-4.229],[-22.933,-3.813],[-22.684,-3.397],[-22.436,-2.981],[-22.187,-2.565],[-21.939,-2.149],[-21.691,-1.732],[-21.443,-1.316],[-21.195,-0.9],[-20.948,-0.483],[-20.7,-0.067],[-20.452,0.35],[-20.832,0.658],[-21.211,0.966],[-21.591,1.274],[-21.971,1.582],[-22.351,1.89],[-22.731,2.197],[-23.111,2.505],[-22.81,2.884],[-22.509,3.262],[-22.208,3.64],[-21.907,4.019],[-21.605,4.397],[-21.303,4.775],[-21.001,5.153],[-20.698,5.53],[-20.395,5.908],[-20.091,6.286],[-19.787,6.663],[-19.483,7.04],[-19.178,7.417],[-18.872,7.793],[-18.566,8.17],[-18.26,8.546],[-17.952,8.922],[-18.253,9.248],[-18.553,9.574],[-18.854,9.899],[-19.156,10.224],[-19.459,10.549]]}},{"type":"Feature","properties":{"boundary_type":"subduction","feature_type":"gpml:SubductionZone","polarity":"Left","overriding_plate_id":20101,"subducting_plate_id":501001,"plate_ids":[20101,501001],"name":""},"geometry":{"type":"LineString","coordinates":[[98.34,8.275],[97.973,8.188],[97.606,8.101],[97.239,8.014],[96.801,7.838],[96.364,7.661],[95.927,7.485],[95.491,7.307],[95.055,7.13],[94.619,6.952],[94.184,6.773],[93.749,6.594],[93.314,6.415],[92.879,6.236],[92.445,6.056],[92.011,5.876],[91.578,5.695],[91.144,5.514],[90.989,5.063],[90.834,4.611],[90.678,4.16],[90.523,3.708],[90.369,3.257],[90.214,2.805],[90.06,2.354],[89.905,1.902],[89.751,1.451],[89.597,0.999],[89.442,0.548],[89.288,0.096],[89.134,-0.356],[88.98,-0.807],[88.825,-1.259],[88.806,-1.741],[88.786,-2.224],[88.767,-2.707],[88.747,-3.189],[88.728,-3.672],[88.708,-4.154],[88.688,-4.637],[88.669,-5.12],[88.649,-5.602],[88.629,-6.085],[88.61,-6.567],[88.59,-7.05],[88.57,-7.533],[88.55,-8.015],[88.53,-8.498],[88.51,-8.98]]}},{"type":"Feature","properties":{"boundary_type":"subduction","feature_type":"gpml:SubductionZone","polarity":"Left","overriding_plate_id":20101,"subducting_plate_id":90105,"plate_ids":[20101,90105],"name":""},"geometry":{"type":"LineString","coordinates":[[88.51,-8.98],[88.491,-9.439],[88.472,-9.898],[88.453,-10.356],[88.434,-10.815],[88.415,-11.273],[88.527,-11.752],[88.639,-12.23],[88.752,-12.708],[88.865,-13.186],[88.978,-13.664],[89.092,-14.142],[89.207,-14.619],[89.322,-15.097],[89.437,-15.575],[89.553,-16.053],[89.67,-16.53],[89.787,-17.008],[89.905,-17.485],[90.024,-17.963],[90.394,-18.289],[90.766,-18.614],[91.14,-18.939],[91.515,-19.262],[91.891,-19.586],[92.269,-19.908],[92.649,-20.229],[93.03,-20.55],[93.412,-20.87],[93.797,-21.189],[94.183,-21.507],[94.57,-21.824],[94.96,-22.141],[95.351,-22.456],[95.744,-22.771],[96.258,-22.867],[96.774,-22.962],[97.29,-23.055],[97.807,-23.147],[98.325,-23.237],[98.843,-23.325],[99.362,-23.411],[99.882,-23.496],[100.402,-23.579],[100.923,-23.66],[101.445,-23.74],[101.967,-23.818],[102.49,-23.894],[103.014,-23.968],[103.538,-24.041],[104.062,-24.111],[104.588,-24.18],[104.83,-24.203]]}},{"type":"Feature","properties":{"boundary_type":"subduction","feature_type":"gpml:SubductionZone","polarity":"Left","overriding_plate_id":201,"subducting_plate_id":501001,"plate_ids":[201,501001],"name":"Amazonia_SZ"},"geometry":{"type":"LineString","coordinates":[[106.038,30.081],[105.804,29.636],[105.571,29.191],[105.341,28.746],[105.113,28.3],[104.886,27.854],[104.662,27.407],[104.439,26.96],[104.218,26.513],[103.998,26.065],[103.781,25.617],[103.565,25.169],[103.35,24.721],[103.137,24.272],[102.926,23.822],[102.716,23.373],[102.507,22.923],[102.3,22.473],[102.094,22.023],[101.955,21.55],[101.817,21.077],[101.68,20.604],[101.543,20.131],[101.408,19.658],[101.273,19.184],[101.139,18.711],[101.006,18.237],[100.873,17.764],[100.741,17.29],[100.61,16.816],[100.48,16.342],[100.35,15.868],[100.22,15.394],[100.092,14.92],[99.964,14.446],[99.836,13.971],[99.709,13.497],[99.582,13.023],[99.456,12.548],[99.331,12.073],[99.206,11.599],[99.081,11.124],[98.957,10.65],[98.833,10.175],[98.709,9.7],[98.586,9.225],[98.463,8.75],[98.34,8.275]]}},{"type":"Feature","properties":{"boundary_type":"subduction","feature_type":"gpml:SubductionZone","polarity":"Left","overriding_plate_id":201,"subducting_plate_id":20101,"plate_ids":[201,20101],"name":"Amazonia_SZ"},"geometry":{"type":"LineString","coordinates":[[98.34,8.275],[98.238,7.877],[98.135,7.478],[98.077,6.983],[98.018,6.487],[97.96,5.991],[97.902,5.495],[97.844,4.999],[97.786,4.504],[97.728,4.008],[97.67,3.512],[97.612,3.016],[97.554,2.52],[97.497,2.025],[97.439,1.529],[97.381,1.033],[97.324,0.537],[97.266,0.041],[97.208,-0.455],[97.151,-0.95],[97.093,-1.446],[97.035,-1.942],[96.978,-2.438],[96.937,-2.9],[96.897,-3.361],[96.856,-3.823],[96.816,-4.285],[96.775,-4.746],[96.734,-5.208],[96.693,-5.67],[96.653,-6.131],[96.612,-6.593],[96.571,-7.055],[96.53,-7.516],[96.489,-7.978],[96.447,-8.439],[96.52,-8.929],[96.593,-9.419],[96.666,-9.909],[96.739,-10.399],[96.813,-10.889],[96.887,-11.379],[96.961,-11.869],[97.035,-12.359],[97.11,-12.849]]}},{"type":"Feature","properties":{"boundary_type":"transform","feature_type":"gpml:Transform","polarity":null,"overriding_plate_id":null,"subducting_plate_id":null,"plate_ids":[10101,90106],"name":""},"geometry":{"type":"LineString","coordinates":[[-122.253,63.153],[-122.574,62.74],[-122.886,62.326],[-123.189,61.912],[-123.485,61.496],[-123.772,61.08],[-124.053,60.664]]}},{"type":"Feature","properties":{"boundary_type":"transform","feature_type":"gpml:Transform","polarity":null,"overriding_plate_id":null,"subducting_plate_id":null,"plate_ids":[101,10101],"name":""},"geometry":{"type":"LineString","coordinates":[[-124.053,60.664],[-124.355,60.201],[-124.649,59.737],[-124.936,59.273],[-125.214,58.808],[-125.485,58.342],[-125.749,57.876],[-126.006,57.409],[-126.257,56.942],[-126.502,56.475],[-126.74,56.007],[-126.973,55.538],[-127.201,55.069],[-127.423,54.6],[-127.64,54.13],[-127.852,53.66],[-128.06,53.189],[-128.263,52.718],[-128.461,52.247],[-128.656,51.775],[-128.846,51.303]]}},{"type":"Feature","properties":{"boundary_type":"transform","feature_type":"gpml:Transform","polarity":null,"overriding_plate_id":null,"subducting_plate_id":null,"plate_ids":[101,10101],"name":""},"geometry":{"type":"LineString","coordinates":[[-94.255,59.96],[-94.957,59.631],[-95.645,59.298],[-96.32,58.962],[-96.982,58.622],[-97.631,58.28],[-98.267,57.933],[-98.891,57.584],[-99.504,57.232],[-100.104,56.877],[-100.694,56.519],[-101.272,56.158],[-101.839,55.794],[-102.396,55.429],[-102.943,55.06],[-103.48,54.689],[-104.007,54.316],[-104.524,53.941],[-105.032,53.563],[-105.531,53.183],[-106.022,52.801],[-106.503,52.418],[-106.977,52.032],[-107.442,51.644],[-107.9,51.255],[-108.349,50.864],[-108.792,50.471],[-109.227,50.077]]}},{"type":"Feature","properties":{"boundary_type":"subduction","feature_type":"gpml:SubductionZone","polarity":"Left","overriding_plate_id":101,"subducting_plate_id":501001,"plate_ids":[101,501001],"name":"Baltica_SZ"},"geometry":{"type":"LineString","coordinates":[[-178.956,40.817],[-179.003,40.353],[-179.049,39.889],[-179.095,39.424],[-179.141,38.96],[-179.185,38.495],[-179.229,38.031],[-179.273,37.567],[-179.305,37.1],[-179.337,36.633],[-179.368,36.166],[-179.399,35.7],[-179.43,35.233],[-179.46,34.766],[-179.49,34.3],[-179.519,33.833],[-179.549,33.366],[-179.578,32.9],[-179.643,32.6],[-179.709,32.3]]}},{"type":"Feature","properties":{"boundary_type":"subduction","feature_type":"gpml:SubductionZone","polarity":"Left","overriding_plate_id":101,"subducting_plate_id":501,"plate_ids":[101,501],"name":"Baltica_SZ"},"geometry":{"type":"LineString","coordinates":[[-179.709,32.3],[-179.815,31.81],[-179.919,31.32],[179.977,30.829],[179.875,30.339],[179.773,29.849],[179.672,29.358],[179.573,28.868],[179.474,28.377],[179.376,27.887],[179.28,27.396],[179.213,26.913],[179.148,26.43],[179.083,25.947],[179.018,25.463],[178.954,24.98],[178.891,24.497],[178.828,24.013],[178.765,23.53],[178.703,23.047],[178.642,22.563],[178.524,22.093],[178.408,21.623],[178.292,21.153],[178.177,20.683],[178.063,20.212],[177.949,19.742],[177.837,19.271],[177.724,18.801],[177.613,18.33],[177.502,17.859],[177.391,17.388],[177.281,16.918],[177.172,16.447],[177.063,15.976],[176.903,15.508],[176.744,15.04],[176.586,14.572],[176.428,14.104],[176.271,13.636],[176.115,13.168],[175.959,12.7],[175.804,12.231],[175.649,11.763],[175.495,11.294],[175.341,10.826],[175.188,10.357],[175.11,9.878],[175.033,9.398],[174.955,8.919],[174.878,8.439],[174.801,7.96],[174.724,7.48],[174.647,7.001]]}},{"type":"Feature","properties":{"boundary_type":"subduction","feature_type":"gpml:SubductionZone","polarity":"Left","overriding_plate_id":101,"subducting_plate_id":701,"plate_ids":[101,701],"name":"Amazonia_SZ"},"geometry":{"type":"LineString","coordinates":[[-168.52,-32.445],[-168.012,-32.199],[-167.507,-31.952],[-167.005,-31.702],[-166.506,-31.451],[-166.009,-31.197],[-165.515,-30.942],[-165.023,-30.685],[-164.534,-30.425],[-164.048,-30.165],[-163.564,-29.902],[-163.083,-29.638],[-162.604,-29.371],[-162.128,-29.103],[-161.654,-28.834],[-161.183,-28.563],[-160.714,-28.29],[-160.248,-28.016],[-159.784,-27.74],[-159.322,-27.462],[-158.863,-27.183],[-158.406,-26.903],[-157.951,-26.621],[-157.499,-26.337],[-157.048,-26.052],[-156.6,-25.766],[-156.154,-25.479],[-155.711,-25.19],[-155.269,-24.9],[-154.829,-24.608],[-154.392,-24.315],[-153.956,-24.021],[-153.522,-23.726],[-153.091,-23.429],[-152.661,-23.132],[-152.233,-22.833],[-151.807,-22.533],[-151.383,-22.232],[-150.961,-21.93],[-150.541,-21.627]]}},{"type":"Feature","properties":{"boundary_type":"ridge","feature_type":"gpml:MidOceanRidge","polarity":null,"overriding_plate_id":null,"subducting_plate_id":null,"plate_ids":[701,80101],"name":""},"geometry":{"type":"LineString","coordinates":[[-51.681,15.758],[-51.646,15.285],[-51.612,14.811],[-51.577,14.338],[-51.543,13.864],[-51.508,13.391],[-51.474,12.917],[-51.44,12.444],[-51.406,11.97],[-51.372,11.497],[-51.338,11.023],[-51.305,10.55],[-51.271,10.076],[-51.238,9.603],[-51.204,9.129],[-51.171,8.656],[-51.138,8.182],[-50.639,8.241],[-50.14,8.3],[-49.641,8.358],[-49.141,8.415],[-48.642,8.471],[-48.142,8.527],[-47.642,8.583],[-47.142,8.638],[-46.642,8.692],[-46.142,8.745],[-45.642,8.798],[-45.141,8.85],[-44.64,8.901],[-44.14,8.952],[-43.639,9.002],[-43.138,9.052],[-42.636,9.1],[-42.135,9.148],[-41.633,9.196],[-41.132,9.242],[-40.63,9.288],[-40.128,9.334],[-39.626,9.378],[-39.124,9.422],[-38.622,9.465],[-38.119,9.508],[-37.617,9.549],[-37.114,9.59],[-36.611,9.631],[-36.108,9.67],[-35.605,9.709],[-35.102,9.747],[-34.599,9.785],[-34.096,9.821],[-33.592,9.857],[-33.089,9.892],[-32.585,9.926],[-32.081,9.96],[-31.577,9.993],[-31.073,10.025],[-30.569,10.056],[-30.065,10.087],[-29.561,10.117],[-29.056,10.146],[-28.552,10.174],[-28.047,10.202],[-27.543,10.228],[-27.038,10.254],[-26.533,10.279],[-26.028,10.304],[-25.523,10.327],[-25.018,10.35],[-24.513,10.372],[-24.008,10.394],[-23.503,10.414],[-22.997,10.434],[-22.492,10.453],[-21.987,10.471],[-21.481,10.488],[-20.976,10.504],[-20.47,10.52],[-19.964,10.535],[-19.459,10.549]]}},{"type":"Feature","properties":{"boundary_type":"ridge","feature_type":"gpml:MidOceanRidge","polarity":null,"overriding_plate_id":null,"subducting_plate_id":null,"plate_ids":[80101,90107],"name":""},"geometry":{"type":"LineString","coordinates":[[-19.459,10.549],[-18.985,10.562],[-18.511,10.573],[-18.037,10.584],[-17.563,10.595],[-17.089,10.604],[-16.615,10.613],[-16.141,10.621],[-15.667,10.629],[-15.193,10.636],[-14.719,10.642],[-14.245,10.647],[-13.771,10.652],[-13.297,10.656]]}},{"type":"Feature","properties":{"boundary_type":"ridge","feature_type":"gpml:MidOceanRidge","polarity":null,"overriding_plate_id":null,"subducting_plate_id":null,"plate_ids":[801,80101],"name":""},"geometry":{"type":"LineString","coordinates":[[-23.864,39.79],[-24.396,39.521],[-24.923,39.251],[-25.446,38.978],[-25.965,38.702],[-26.48,38.424],[-26.991,38.144],[-27.499,37.862],[-28.002,37.578],[-28.501,37.291],[-28.997,37.003],[-29.489,36.712],[-29.977,36.42],[-30.462,36.125],[-30.942,35.829],[-31.42,35.53],[-31.893,35.23],[-32.364,34.928],[-32.83,34.624],[-32.506,34.292],[-32.185,33.959],[-31.866,33.625],[-31.549,33.29],[-32.025,33.014],[-32.498,32.736],[-32.968,32.457],[-33.435,32.175],[-33.899,31.893],[-34.36,31.608],[-34.819,31.322],[-35.274,31.034],[-35.727,30.744],[-36.177,30.453],[-36.625,30.161],[-37.069,29.866],[-37.512,29.571],[-37.951,29.274],[-38.388,28.975],[-38.823,28.675],[-39.255,28.374],[-39.685,28.072],[-40.112,27.768],[-40.536,27.462],[-40.959,27.156],[-41.379,26.848],[-41.797,26.539],[-42.212,26.229],[-42.626,25.917],[-43.037,25.605],[-42.76,25.229],[-42.484,24.852],[-42.211,24.474],[-41.939,24.097],[-41.668,23.718],[-42.092,23.423],[-42.515,23.127],[-42.935,22.83],[-43.354,22.532],[-43.771,22.233],[-44.186,21.932],[-44.599,21.631],[-45.011,21.328],[-45.421,21.025],[-45.829,20.72],[-46.235,20.415],[-46.64,20.108],[-47.044,19.801],[-47.446,19.493],[-47.846,19.184],[-48.245,18.874],[-48.642,18.563],[-49.038,18.252],[-49.432,17.939],[-49.826,17.626],[-50.217,17.312],[-50.608,16.997],[-50.997,16.682],[-51.384,16.365],[-51.771,16.049],[-52.156,15.731]]}},{"type":"Feature","properties":{"boundary_type":"ridge","feature_type":"gpml:MidOceanRidge","polarity":null,"overriding_plate_id":null,"subducting_plate_id":null,"plate_ids":[701,801],"name":""},"geometry":{"type":"LineString","coordinates":[[-57.596,20.481],[-57.586,20.015],[-57.577,19.549],[-57.567,19.082],[-57.558,18.616],[-57.548,18.15],[-57.539,17.683],[-57.53,17.217],[-57.52,16.751],[-57.511,16.285],[-57.502,15.818],[-57.493,15.352],[-57.009,15.392],[-56.524,15.43],[-56.039,15.468],[-55.555,15.505],[-55.07,15.54],[-54.584,15.575],[-54.099,15.608],[-53.614,15.64],[-53.128,15.672],[-52.642,15.702],[-52.156,15.731]]}},{"type":"Feature","properties":{"boundary_type":"ridge","feature_type":"gpml:MidOceanRidge","polarity":null,"overriding_plate_id":null,"subducting_plate_id":null,"plate_ids":[701,80101],"name":""},"geometry":{"type":"LineString","coordinates":[[-52.156,15.731],[-51.681,15.758]]}},{"type":"Feature","properties":{"boundary_type":"ridge","feature_type":"gpml:MidOceanRidge","polarity":null,"overriding_plate_id":null,"subducting_plate_id":null,"plate_ids":[801,80103],"name":""},"geometry":{"type":"LineString","coordinates":[[-56.965,21.073],[-57.281,20.778],[-57.596,20.481]]}},{"type":"Feature","properties":{"boundary_type":"ridge","feature_type":"gpml:MidOceanRidge","polarity":null,"overriding_plate_id":null,"subducting_plate_id":null,"plate_ids":[701,80103],"name":""},"geometry":{"type":"LineString","coordinates":[[-57.596,20.481],[-57.971,20.127],[-58.344,19.771],[-58.715,19.415],[-59.084,19.058],[-59.452,18.701],[-59.819,18.342],[-60.184,17.983],[-60.547,17.624],[-60.909,17.263],[-61.27,16.902],[-61.629,16.541],[-61.987,16.178],[-62.343,15.815],[-62.699,15.452],[-63.053,15.088],[-63.405,14.723],[-63.757,14.358],[-64.108,13.993],[-64.457,13.627],[-64.805,13.26],[-65.153,12.893],[-65.499,12.525],[-65.844,12.157],[-66.188,11.789],[-66.532,11.42],[-66.874,11.051],[-67.216,10.681],[-67.557,10.312],[-67.896,9.941],[-68.236,9.571],[-68.574,9.2],[-68.912,8.828],[-69.249,8.457],[-69.585,8.085],[-69.921,7.713],[-70.256,7.34],[-70.591,6.968],[-70.925,6.595],[-71.259,6.222],[-71.592,5.848],[-71.925,5.475],[-72.257,5.101],[-72.589,4.727],[-72.92,4.353],[-73.252,3.979],[-73.583,3.605],[-73.913,3.23],[-74.244,2.856],[-74.574,2.481],[-74.904,2.106],[-75.234,1.731],[-75.563,1.357],[-75.978,1.562],[-76.393,1.767],[-76.809,1.972],[-77.224,2.176],[-77.639,2.381],[-78.055,2.586],[-78.47,2.79],[-78.886,2.994],[-79.302,3.199],[-79.718,3.402],[-80.134,3.606],[-80.551,3.81],[-80.968,4.013],[-81.252,3.655],[-81.536,3.296],[-81.819,2.937],[-82.103,2.578],[-82.386,2.219],[-82.67,1.86],[-82.953,1.501],[-83.236,1.142],[-83.519,0.783],[-83.93,0.99],[-84.342,1.197],[-84.754,1.403],[-85.166,1.61],[-85.578,1.817],[-85.99,2.023],[-86.402,2.229],[-86.815,2.435],[-87.227,2.642],[-87.64,2.847],[-88.052,3.053]]}},{"type":"Feature","properties":{"boundary_type":"subduction","feature_type":"gpml:SubductionZone","polarity":"Left","overriding_plate_id":501,"subducting_plate_id":501001,"plate_ids":[501,501001],"name":""},"geometry":{"type":"LineString","coordinates":[[-179.709,32.3],[179.746,32.113],[179.202,31.924],[178.661,31.732],[178.122,31.538],[177.585,31.342],[177.05,31.144],[176.518,30.944],[175.988,30.741],[175.46,30.536],[174.935,30.329],[174.411,30.12],[173.89,29.909],[173.371,29.696],[172.834,29.529],[172.298,29.36],[171.763,29.189],[171.231,29.016],[170.7,28.84],[170.171,28.663],[169.644,28.483],[169.119,28.302],[168.595,28.118],[168.074,27.932],[167.554,27.745],[167.036,27.555],[166.519,27.364],[166.005,27.171],[165.492,26.975],[164.981,26.778],[164.458,26.63],[163.935,26.479],[163.414,26.327],[162.895,26.173],[162.376,26.017],[161.859,25.859],[161.344,25.699],[160.83,25.538],[160.317,25.374],[159.806,25.209],[159.296,25.042],[158.787,24.874],[158.28,24.703],[157.775,24.531],[157.27,24.358],[156.767,24.182],[156.266,24.005],[155.766,23.827],[155.267,23.646],[154.769,23.465],[154.273,23.281],[153.779,23.096],[153.285,22.91],[152.793,22.722],[152.303,22.532],[151.813,22.341],[151.326,22.149],[150.839,21.955],[150.354,21.759],[149.87,21.563],[149.387,21.389],[148.906,21.214],[148.425,21.038],[147.946,20.86],[147.468,20.682],[146.991,20.501],[146.516,20.32],[146.041,20.137],[145.567,19.953],[145.095,19.768],[144.624,19.581],[144.153,19.393],[143.684,19.204],[143.216,19.014],[142.749,18.823],[142.283,18.63],[141.818,18.437],[141.354,18.242],[140.892,18.046],[140.43,17.849],[139.969,17.651],[139.509,17.452],[139.051,17.252],[138.593,17.05],[138.136,16.848],[137.664,16.669],[137.192,16.488],[136.722,16.307],[136.252,16.124],[135.783,15.94],[135.315,15.756],[134.848,15.57],[134.382,15.384],[133.917,15.196],[133.452,15.007],[132.988,14.818],[132.525,14.628],[132.063,14.436],[131.602,14.244],[131.141,14.051],[130.681,13.857],[130.222,13.662],[129.764,13.466]]}},{"type":"Feature","properties":{"boundary_type":"ridge","feature_type":"gpml:MidOceanRidge","polarity":null,"overriding_plate_id":null,"subducting_plate_id":null,"plate_ids":[801,90107],"name":""},"geometry":{"type":"LineString","coordinates":[[-14.319,41.62],[-14.408,42.101],[-14.499,42.582],[-14.591,43.064],[-14.685,43.545],[-14.78,44.026],[-14.876,44.507],[-14.974,44.988],[-15.074,45.468],[-15.176,45.949],[-15.279,46.43],[-15.384,46.91],[-15.491,47.39],[-15.6,47.871],[-15.712,48.351],[-15.825,48.831],[-15.94,49.311],[-16.058,49.791],[-16.178,50.27],[-16.3,50.75],[-17.016,50.769],[-17.733,50.783],[-18.45,50.793],[-19.167,50.798],[-19.884,50.799],[-19.878,51.28],[-19.872,51.761],[-19.865,52.241],[-19.859,52.722],[-19.852,53.203],[-19.845,53.683],[-19.838,54.164],[-19.83,54.645],[-19.823,55.126],[-19.815,55.606],[-19.807,56.087],[-19.799,56.568],[-19.791,57.048],[-19.783,57.529],[-19.774,58.01],[-19.765,58.49]]}},{"type":"Feature","properties":{"boundary_type":"ridge","feature_type":"gpml:MidOceanRidge","polarity":null,"overriding_plate_id":null,"subducting_plate_id":null,"plate_ids":[801,90106],"name":""},"geometry":{"type":"LineString","coordinates":[[-76.968,69.522],[-75.564,69.494],[-74.165,69.455],[-72.772,69.404],[-71.386,69.343],[-70.009,69.27],[-68.641,69.186],[-67.285,69.092],[-65.941,68.987],[-64.61,68.871],[-63.294,68.746],[-61.993,68.61],[-60.708,68.464],[-59.441,68.309],[-58.19,68.144],[-56.959,67.97],[-55.746,67.787],[-54.552,67.594],[-53.378,67.394],[-52.225,67.185],[-51.091,66.967],[-49.978,66.742],[-48.885,66.509],[-47.813,66.269],[-46.761,66.021],[-45.73,65.766],[-44.719,65.505],[-43.729,65.237],[-43.071,65.64],[-42.392,66.04],[-41.692,66.437],[-40.969,66.831],[-40.222,67.222],[-39.451,67.609],[-38.455,67.311],[-37.484,67.006],[-36.537,66.696],[-35.614,66.381],[-34.713,66.06],[-33.836,65.734],[-32.98,65.403],[-32.146,65.068],[-31.333,64.728],[-30.54,64.383],[-29.767,64.035],[-29.013,63.682],[-28.278,63.326],[-27.56,62.965],[-26.861,62.602],[-26.178,62.235],[-25.512,61.864],[-24.862,61.491],[-24.227,61.114],[-23.607,60.735],[-23.002,60.353],[-22.411,59.968],[-21.833,59.58],[-21.269,59.19],[-20.717,58.798],[-20.178,58.403]]}},{"type":"Feature","properties":{"boundary_type":"transform","feature_type":"gpml:Transform","polarity":null,"overriding_plate_id":null,"subducting_plate_id":null,"plate_ids":[801,90106],"name":""},"geometry":{"type":"LineString","coordinates":[[-76.968,69.522],[-77.324,69.039],[-77.664,68.555],[-77.99,68.07],[-78.303,67.585],[-78.603,67.099],[-78.891,66.612],[-79.168,66.125],[-79.435,65.638],[-79.692,65.15],[-79.939,64.662],[-80.178,64.173],[-80.409,63.684],[-80.631,63.194],[-80.889,62.727],[-81.139,62.26],[-81.381,61.792],[-81.616,61.324],[-81.843,60.855],[-82.065,60.386],[-82.28,59.916],[-82.489,59.447],[-82.692,58.976],[-82.89,58.506],[-83.082,58.035],[-83.27,57.564]]}},{"type":"Feature","properties":{"boundary_type":"transform","feature_type":"gpml:Transform","polarity":null,"overriding_plate_id":null,"subducting_plate_id":null,"plate_ids":[801,90107],"name":""},"geometry":{"type":"LineString","coordinates":[[-14.319,41.62],[-14.966,41.517],[-15.611,41.41],[-16.253,41.3],[-16.894,41.186],[-17.532,41.069],[-18.168,40.948],[-18.802,40.824],[-19.433,40.696],[-20.062,40.565],[-20.688,40.43],[-21.312,40.292],[-21.933,40.151],[-22.551,40.006],[-23.167,39.858],[-23.78,39.707]]}}]}