{"type":"FeatureCollection","meta":{"model":"Cao2024","reconstruction_time_ma":1090.0,"anchor_plate_id":0,"pygplates_version":"1.0.0","tessellate_degrees":0.5,"polarity_convention":"gpml:subductionPolarity. 'Left'/'Right' names the side of the line, in vertex order, on which the OVERRIDING plate lies. Triangles are drawn on that side.","antimeridian":"Lines are NOT split at +/-180 deg. The renderer works in 3D unit vectors where the dateline is not special; splitting would only add spurious breaks. Do not treat this as RFC 7946 GIS-ready 2D data."},"features":[{"type":"Feature","properties":{"boundary_type":"subduction","feature_type":"gpml:SubductionZone","polarity":"Right","overriding_plate_id":501,"subducting_plate_id":701,"plate_ids":[501,701],"name":"Eastern Ghats-Rayner-Ruker SZ"},"geometry":{"type":"LineString","coordinates":[[-38.081,-17.967],[-37.578,-17.872],[-37.075,-17.775],[-36.573,-17.677],[-36.072,-17.578],[-35.571,-17.478],[-35.071,-17.376],[-34.571,-17.273],[-34.072,-17.169],[-33.573,-17.063],[-33.075,-16.957],[-32.578,-16.849],[-32.081,-16.74],[-31.585,-16.629],[-31.089,-16.518],[-30.594,-16.405],[-30.099,-16.292],[-29.605,-16.177],[-29.112,-16.061],[-28.619,-15.943],[-28.127,-15.825],[-27.635,-15.706],[-27.144,-15.585],[-26.653,-15.464],[-26.163,-15.341],[-25.659,-15.362],[-25.156,-15.382],[-24.652,-15.4],[-24.148,-15.418],[-23.644,-15.435],[-23.139,-15.45],[-22.635,-15.464],[-22.131,-15.477],[-21.626,-15.489],[-21.122,-15.5],[-20.617,-15.509],[-20.113,-15.518],[-19.608,-15.525],[-19.104,-15.531],[-18.599,-15.536],[-18.094,-15.54],[-17.59,-15.543],[-17.085,-15.545],[-16.58,-15.545],[-16.076,-15.544],[-15.571,-15.542],[-15.066,-15.539],[-14.562,-15.535],[-14.057,-15.53],[-13.552,-15.524],[-13.048,-15.516],[-12.543,-15.507],[-12.039,-15.497],[-11.534,-15.486]]}},{"type":"Feature","properties":{"boundary_type":"subduction","feature_type":"gpml:SubductionZone","polarity":"Left","overriding_plate_id":701,"subducting_plate_id":501,"plate_ids":[501,701],"name":"Sao Francisco subduction zone"},"geometry":{"type":"LineString","coordinates":[[9.098,-14.451],[9.458,-14.675],[9.819,-14.899],[10.13,-15.175],[10.441,-15.451],[10.753,-15.726],[11.066,-16.001],[11.38,-16.275],[11.674,-16.595],[11.968,-16.914],[12.264,-17.232],[12.56,-17.55],[12.853,-17.877],[13.147,-18.204],[13.442,-18.53],[13.739,-18.856],[14.13,-19.102],[14.523,-19.347],[14.917,-19.592],[15.312,-19.835],[15.708,-20.078],[16.106,-20.32],[16.505,-20.561],[16.905,-20.801],[17.306,-21.04],[17.71,-21.282],[18.114,-21.523],[18.521,-21.763],[18.928,-22.002],[19.337,-22.24],[19.863,-22.184],[20.388,-22.126],[20.912,-22.066],[21.436,-22.004],[21.96,-21.941],[22.483,-21.877],[23.005,-21.81],[23.527,-21.742],[24.049,-21.673],[24.57,-21.601],[25.091,-21.529],[25.611,-21.454],[26.13,-21.378],[26.649,-21.3],[27.168,-21.221],[27.685,-21.14],[28.203,-21.058],[28.719,-20.974],[29.236,-20.888]]}},{"type":"Feature","properties":{"boundary_type":"transform","feature_type":"gpml:Transform","polarity":null,"overriding_plate_id":null,"subducting_plate_id":null,"plate_ids":[501,701],"name":"India-Sahara transform"},"geometry":{"type":"LineString","coordinates":[[-11.534,-15.486],[-11.671,-15.043],[-11.807,-14.6],[-11.942,-14.157],[-12.077,-13.714],[-12.239,-13.242],[-12.399,-12.77],[-12.559,-12.298],[-12.718,-11.826]]}},{"type":"Feature","properties":{"boundary_type":"transform","feature_type":"gpml:Transform","polarity":null,"overriding_plate_id":null,"subducting_plate_id":null,"plate_ids":[101,801],"name":"inferred transform"},"geometry":{"type":"LineString","coordinates":[[-122.865,56.85],[-123.532,57.166],[-124.209,57.479],[-124.899,57.787],[-125.6,58.092],[-126.313,58.393],[-127.038,58.69],[-127.776,58.983],[-128.526,59.271],[-129.289,59.555],[-130.065,59.835],[-130.854,60.11],[-131.656,60.38],[-132.471,60.645],[-133.3,60.906],[-134.142,61.161],[-134.998,61.411],[-135.867,61.655],[-136.75,61.894],[-137.647,62.127],[-138.558,62.354],[-139.482,62.575],[-140.42,62.789],[-141.372,62.998],[-142.337,63.2],[-143.315,63.395],[-144.355,63.574],[-145.409,63.744],[-146.474,63.907],[-147.552,64.062],[-148.642,64.209],[-149.743,64.348],[-150.855,64.478],[-151.977,64.6],[-153.109,64.713],[-154.25,64.818],[-155.399,64.914],[-156.557,65.0],[-157.721,65.078],[-158.892,65.147],[-160.069,65.207],[-161.25,65.257],[-162.436,65.298],[-163.624,65.33],[-164.816,65.352],[-166.009,65.365],[-167.202,65.368],[-168.396,65.362],[-169.588,65.347],[-170.779,65.322],[-171.967,65.288],[-173.152,65.245],[-174.332,65.192],[-175.507,65.13],[-176.677,65.059],[-177.84,64.979],[-178.995,64.89],[179.858,64.792],[178.719,64.685],[177.59,64.569],[176.47,64.445],[175.361,64.313],[174.263,64.172],[173.176,64.023],[172.101,63.866],[171.039,63.701],[169.989,63.529],[168.952,63.348],[167.928,63.161],[166.917,62.966],[165.92,62.764],[164.946,62.573],[163.984,62.376],[163.035,62.173],[162.099,61.963],[161.175,61.746],[160.265,61.524],[159.368,61.296],[158.484,61.061],[157.613,60.822],[156.755,60.576],[155.911,60.325],[155.079,60.069],[154.261,59.808],[153.455,59.542],[152.662,59.27],[151.881,58.994],[151.113,58.714],[150.358,58.429],[149.614,58.14],[148.883,57.846],[148.164,57.548],[147.456,57.246],[146.76,56.941],[146.075,56.631],[145.402,56.318],[144.74,56.001],[144.088,55.681],[143.447,55.357],[142.816,55.03],[142.196,54.7],[141.586,54.367],[140.986,54.03],[140.395,53.691],[139.814,53.349],[139.242,53.004],[138.679,52.656],[138.14,52.285],[137.609,51.912],[137.087,51.536],[136.574,51.158],[136.069,50.778],[135.573,50.396],[135.084,50.011],[134.603,49.625],[134.13,49.236],[133.664,48.846],[133.205,48.454],[132.754,48.06],[132.309,47.664],[131.871,47.266],[131.439,46.867],[131.014,46.467],[130.595,46.064],[130.182,45.661],[129.776,45.256],[129.374,44.849],[128.979,44.441],[128.589,44.032],[128.204,43.621],[127.825,43.209],[127.45,42.796],[127.081,42.381],[126.717,41.966],[126.357,41.549],[126.002,41.131],[125.651,40.713],[125.305,40.293],[124.963,39.872],[124.625,39.45],[124.291,39.027],[123.961,38.603],[123.636,38.178],[123.313,37.753],[122.995,37.326],[122.68,36.899],[122.369,36.471],[122.061,36.042],[121.756,35.612],[121.455,35.181],[121.157,34.75],[120.862,34.318],[120.57,33.886],[120.281,33.452],[119.995,33.018],[119.712,32.584],[119.431,32.148],[119.153,31.712],[118.878,31.276],[118.605,30.839],[118.334,30.401],[118.067,29.963],[117.801,29.524],[117.538,29.085],[117.277,28.645],[117.018,28.205],[116.761,27.764],[116.506,27.323],[116.254,26.881],[116.003,26.439],[115.754,25.997],[115.507,25.554],[115.283,25.112],[115.06,24.67],[114.839,24.228],[114.619,23.785],[114.401,23.342],[114.184,22.899],[113.969,22.455],[113.755,22.011],[113.542,21.567],[113.331,21.123],[113.12,20.678],[112.912,20.233],[112.704,19.788],[112.497,19.343],[112.292,18.897],[112.088,18.451],[111.884,18.005],[111.682,17.559],[111.481,17.113],[111.281,16.666],[111.081,16.219]]}},{"type":"Feature","properties":{"boundary_type":"subduction","feature_type":"gpml:SubductionZone","polarity":"Left","overriding_plate_id":101,"subducting_plate_id":90110,"plate_ids":[101,90110],"name":"E-Lau SZ"},"geometry":{"type":"LineString","coordinates":[[136.443,9.406],[136.795,9.211],[137.146,9.016],[137.496,8.82],[137.846,8.624],[137.983,8.591]]}},{"type":"Feature","properties":{"boundary_type":"subduction","feature_type":"gpml:SubductionZone","polarity":"Left","overriding_plate_id":101,"subducting_plate_id":90109,"plate_ids":[101,90109],"name":"E-Lau SZ"},"geometry":{"type":"LineString","coordinates":[[137.983,8.591],[138.463,8.477],[138.943,8.363],[139.423,8.247],[139.902,8.132],[140.381,8.015],[140.86,7.898],[141.338,7.781],[141.816,7.663],[142.294,7.544],[142.772,7.425],[143.25,7.306],[143.727,7.186],[144.143,6.937],[144.559,6.688],[144.975,6.438],[145.39,6.188],[145.804,5.938],[146.219,5.687],[146.633,5.437],[147.046,5.186],[147.46,4.934],[147.872,4.683],[148.285,4.431],[148.698,4.179],[149.161,4.056],[149.624,3.933],[150.087,3.81],[150.55,3.686],[151.013,3.562],[151.476,3.438],[151.939,3.314],[152.401,3.19],[152.863,3.065],[153.326,2.94],[153.788,2.815],[154.25,2.69],[154.712,2.565],[155.04,2.217],[155.368,1.869],[155.695,1.522],[156.023,1.174],[156.35,0.826],[156.678,0.478],[157.005,0.13],[157.332,-0.217],[157.66,-0.565],[157.987,-0.913],[158.435,-1.125],[158.883,-1.337],[159.331,-1.548],[159.779,-1.76],[160.227,-1.971],[160.675,-2.183],[161.124,-2.394],[161.572,-2.605],[162.021,-2.816],[162.47,-3.026],[162.919,-3.237],[163.368,-3.447],[163.762,-3.751],[164.156,-4.055],[164.551,-4.359],[164.946,-4.663],[165.341,-4.966],[165.737,-5.269],[166.133,-5.572],[166.529,-5.874],[166.926,-6.177]]}},{"type":"Feature","properties":{"boundary_type":"subduction","feature_type":"gpml:SubductionZone","polarity":"Left","overriding_plate_id":701,"subducting_plate_id":501,"plate_ids":[501,701],"name":"inferred SZ"},"geometry":{"type":"LineString","coordinates":[[29.236,-20.888],[29.502,-21.305],[29.77,-21.722],[30.04,-22.138],[30.311,-22.554],[30.584,-22.969],[30.858,-23.384],[31.135,-23.798],[31.413,-24.212],[31.693,-24.625],[31.974,-25.038],[32.258,-25.45],[32.544,-25.862]]}},{"type":"Feature","properties":{"boundary_type":"subduction","feature_type":"gpml:SubductionZone","polarity":"Left","overriding_plate_id":77030,"subducting_plate_id":501,"plate_ids":[501,77030],"name":"inferred SZ"},"geometry":{"type":"LineString","coordinates":[[32.544,-25.862],[32.786,-26.209],[33.182,-26.547],[33.58,-26.885],[33.98,-27.221],[34.383,-27.556],[34.788,-27.889],[35.196,-28.222],[35.606,-28.553],[36.019,-28.883],[36.434,-29.212],[36.852,-29.54],[37.273,-29.866],[37.696,-30.191],[38.123,-30.514],[38.552,-30.836],[38.984,-31.157],[39.535,-31.264],[40.086,-31.369],[40.639,-31.471],[41.194,-31.571],[41.749,-31.669],[42.306,-31.764],[42.863,-31.857],[43.422,-31.948],[43.982,-32.035],[44.543,-32.121],[45.105,-32.204],[45.668,-32.284],[46.232,-32.362],[46.797,-32.438],[47.328,-32.272],[47.858,-32.104],[48.385,-31.933],[48.91,-31.761],[49.434,-31.586],[49.955,-31.409],[50.475,-31.23],[50.992,-31.049],[51.508,-30.866],[52.021,-30.681],[52.533,-30.494],[53.043,-30.305],[53.55,-30.114],[54.056,-29.921],[54.56,-29.726],[55.061,-29.529],[55.561,-29.33],[56.059,-29.129],[56.555,-28.927],[57.049,-28.723],[57.541,-28.517],[57.714,-28.077],[57.886,-27.637],[58.057,-27.197],[58.226,-26.757],[58.394,-26.316]]}},{"type":"Feature","properties":{"boundary_type":"subduction","feature_type":"gpml:SubductionZone","polarity":"Left","overriding_plate_id":77030,"subducting_plate_id":801,"plate_ids":[801,77030],"name":"inferred SZ"},"geometry":{"type":"LineString","coordinates":[[58.394,-26.316],[58.572,-25.847],[58.748,-25.377],[58.923,-24.907],[59.096,-24.437],[59.269,-23.967],[59.439,-23.497],[59.609,-23.026],[59.778,-22.555],[59.945,-22.084],[60.111,-21.613],[60.277,-21.142],[60.441,-20.67],[60.604,-20.199],[60.766,-19.727],[60.927,-19.255],[60.737,-18.79],[60.549,-18.325],[60.361,-17.859],[60.174,-17.393],[59.988,-16.928],[59.803,-16.461],[59.619,-15.995],[59.436,-15.529],[59.254,-15.062],[59.072,-14.596],[58.892,-14.129],[58.711,-13.662],[58.532,-13.195],[58.354,-12.728],[58.176,-12.26],[57.998,-11.793],[57.821,-11.325],[57.645,-10.858],[57.47,-10.39],[57.295,-9.922],[57.12,-9.454],[56.946,-8.986],[56.772,-8.518],[56.599,-8.05],[56.426,-7.582],[56.182,-7.145],[55.938,-6.707],[55.695,-6.27],[55.452,-5.832],[55.21,-5.394],[54.968,-4.956],[54.726,-4.518],[54.484,-4.08],[54.243,-3.642],[54.002,-3.204],[53.761,-2.766],[53.521,-2.328],[53.28,-1.89],[53.04,-1.451],[52.8,-1.013],[52.559,-0.574],[52.319,-0.136],[52.079,0.302],[51.839,0.741]]}},{"type":"Feature","properties":{"boundary_type":"subduction","feature_type":"gpml:SubductionZone","polarity":"Left","overriding_plate_id":602,"subducting_plate_id":501,"plate_ids":[501,602],"name":"NorthIndia SZ"},"geometry":{"type":"LineString","coordinates":[[-58.316,-24.407],[-57.844,-24.175],[-57.375,-23.943],[-56.907,-23.708],[-56.441,-23.472],[-55.976,-23.235],[-55.513,-22.997],[-55.052,-22.757],[-54.593,-22.516],[-54.135,-22.273],[-53.678,-22.029],[-53.223,-21.784],[-52.792,-21.489],[-52.362,-21.193],[-51.934,-20.896],[-51.508,-20.597],[-51.084,-20.298],[-50.661,-19.998],[-50.239,-19.696],[-49.82,-19.394],[-49.401,-19.091],[-48.985,-18.786],[-48.57,-18.481],[-48.156,-18.175],[-47.744,-17.868],[-47.333,-17.56],[-46.924,-17.251],[-46.516,-16.942],[-46.109,-16.631],[-45.704,-16.32],[-45.3,-16.008],[-44.897,-15.696],[-44.495,-15.382],[-44.095,-15.068],[-43.696,-14.753],[-43.298,-14.438],[-42.901,-14.122],[-42.505,-13.805],[-42.11,-13.488],[-41.717,-13.17],[-41.324,-12.851],[-41.044,-12.449],[-40.765,-12.047],[-40.487,-11.645],[-40.209,-11.243],[-39.933,-10.84],[-39.657,-10.437]]}},{"type":"Feature","properties":{"boundary_type":"subduction","feature_type":"gpml:SubductionZone","polarity":"Left","overriding_plate_id":701,"subducting_plate_id":501,"plate_ids":[501,701],"name":"NorthIndia SZ"},"geometry":{"type":"LineString","coordinates":[[-39.657,-10.437],[-39.472,-10.166]]}},{"type":"Feature","properties":{"boundary_type":"subduction","feature_type":"gpml:SubductionZone","polarity":"Left","overriding_plate_id":602,"subducting_plate_id":501,"plate_ids":[501,602],"name":""},"geometry":{"type":"LineString","coordinates":[[-107.603,-0.083],[-107.184,-0.344],[-106.765,-0.605],[-106.345,-0.866],[-105.926,-1.126],[-105.506,-1.387],[-105.087,-1.648],[-104.667,-1.908],[-104.247,-2.169],[-103.827,-2.429],[-103.407,-2.69],[-102.987,-2.95],[-102.566,-3.21],[-102.145,-3.469],[-101.725,-3.729],[-101.303,-3.988],[-100.882,-4.247],[-100.46,-4.506],[-100.038,-4.765],[-99.616,-5.024],[-99.193,-5.282],[-98.77,-5.54],[-98.346,-5.797],[-97.922,-6.054],[-97.498,-6.311],[-97.074,-6.568],[-96.648,-6.824],[-96.223,-7.08],[-95.797,-7.336],[-95.37,-7.591],[-94.943,-7.845],[-94.516,-8.099],[-94.088,-8.353],[-93.659,-8.607],[-93.23,-8.859],[-92.8,-9.112],[-92.37,-9.364],[-91.939,-9.615],[-91.507,-9.866],[-91.075,-10.116],[-90.642,-10.366],[-90.208,-10.615],[-89.774,-10.863],[-89.339,-11.111],[-88.903,-11.358],[-88.466,-11.605],[-88.029,-11.851],[-87.59,-12.096],[-87.151,-12.341],[-86.712,-12.585],[-86.271,-12.828],[-85.83,-13.07],[-85.387,-13.312],[-84.944,-13.553],[-84.5,-13.793],[-84.055,-14.033],[-83.609,-14.271],[-83.162,-14.509],[-82.714,-14.746],[-82.265,-14.982],[-81.815,-15.217],[-81.365,-15.451],[-80.913,-15.684],[-80.46,-15.917],[-80.006,-16.148],[-79.551,-16.379],[-79.095,-16.608],[-78.638,-16.837],[-78.179,-17.064],[-77.72,-17.29],[-77.259,-17.516],[-76.798,-17.74],[-76.335,-17.963],[-75.871,-18.186],[-75.406,-18.407],[-74.94,-18.627],[-74.472,-18.845],[-74.003,-19.063],[-73.533,-19.279],[-73.062,-19.494],[-72.589,-19.708],[-72.116,-19.921],[-71.64,-20.133],[-71.163,-20.343],[-70.685,-20.552],[-70.206,-20.76],[-69.725,-20.966],[-69.243,-21.172],[-68.76,-21.375],[-68.275,-21.578],[-67.789,-21.779],[-67.302,-21.978],[-66.813,-22.176],[-66.323,-22.373],[-65.832,-22.568],[-65.339,-22.761],[-64.844,-22.954],[-64.349,-23.144],[-63.85,-23.258],[-63.351,-23.371],[-62.852,-23.482],[-62.351,-23.591],[-61.849,-23.699],[-61.347,-23.805],[-60.844,-23.909],[-60.34,-24.012],[-59.835,-24.113],[-59.329,-24.213],[-58.823,-24.311],[-58.316,-24.407]]}},{"type":"Feature","properties":{"boundary_type":"ridge","feature_type":"gpml:MidOceanRidge","polarity":null,"overriding_plate_id":null,"subducting_plate_id":null,"plate_ids":[101,6024],"name":"MOR"},"geometry":{"type":"LineString","coordinates":[[-146.895,6.085],[-146.492,6.345],[-146.088,6.604],[-145.683,6.863],[-145.279,7.122],[-144.873,7.38],[-144.467,7.638],[-144.061,7.895],[-143.654,8.152],[-143.247,8.409],[-142.839,8.665],[-142.431,8.921],[-142.022,9.176],[-141.612,9.431],[-141.202,9.686],[-140.791,9.94],[-140.38,10.193],[-139.968,10.446],[-139.493,10.614],[-139.017,10.781],[-138.541,10.947],[-138.065,11.113],[-137.588,11.278],[-137.11,11.442],[-136.632,11.605],[-136.153,11.768],[-135.673,11.929],[-135.194,12.09],[-134.713,12.25],[-134.232,12.41],[-133.75,12.568],[-133.268,12.726],[-132.785,12.882],[-132.302,13.038],[-131.818,13.193],[-131.333,13.347],[-130.848,13.5],[-130.362,13.652],[-129.875,13.803],[-129.388,13.953],[-128.9,14.103],[-128.412,14.251],[-127.923,14.398],[-127.433,14.544],[-126.942,14.689],[-126.451,14.834],[-125.96,14.977],[-125.467,15.119],[-124.974,15.26],[-124.481,15.4],[-123.986,15.539],[-123.491,15.677],[-122.996,15.813],[-122.499,15.949],[-122.002,16.083],[-121.505,16.216],[-121.006,16.348],[-120.507,16.479],[-120.008,16.609],[-119.507,16.738],[-119.006,16.865],[-118.505,16.991],[-118.415,17.48],[-118.325,17.969],[-118.234,18.458],[-118.143,18.947],[-118.052,19.436],[-117.96,19.925],[-117.867,20.414],[-117.774,20.903],[-117.68,21.391],[-117.585,21.88],[-117.49,22.369],[-117.394,22.857],[-117.297,23.346],[-117.2,23.834],[-117.102,24.323],[-117.003,24.811],[-116.904,25.299],[-116.803,25.787],[-116.702,26.275],[-116.6,26.764],[-116.497,27.252],[-116.393,27.739],[-116.288,28.227],[-116.182,28.715],[-116.076,29.203],[-115.968,29.69],[-115.859,30.178],[-115.749,30.665],[-115.638,31.152],[-115.526,31.64],[-115.413,32.127],[-115.298,32.614],[-115.182,33.101],[-115.065,33.587],[-114.947,34.074],[-114.827,34.561],[-114.706,35.047],[-115.255,35.163],[-115.806,35.276],[-116.359,35.386],[-116.913,35.494],[-117.469,35.6],[-118.026,35.703],[-118.584,35.803],[-119.144,35.901],[-119.705,35.996],[-120.268,36.089],[-120.235,36.581],[-120.201,37.073],[-120.167,37.565],[-120.133,38.057],[-120.098,38.549],[-120.063,39.041],[-120.027,39.533],[-119.99,40.025],[-119.953,40.517],[-119.916,41.009],[-119.878,41.501],[-119.839,41.993],[-119.8,42.485],[-119.76,42.977],[-119.72,43.469],[-119.679,43.961],[-119.637,44.453],[-119.594,44.945],[-119.551,45.437],[-119.507,45.929],[-119.462,46.42],[-119.416,46.912],[-119.37,47.404],[-119.323,47.896],[-119.274,48.388],[-119.225,48.879],[-118.477,48.822],[-117.731,48.759],[-116.986,48.692],[-116.244,48.62],[-115.504,48.543],[-114.766,48.462],[-114.03,48.375],[-113.297,48.284],[-112.567,48.189],[-111.84,48.089],[-111.115,47.984],[-110.394,47.875],[-109.675,47.761],[-109.501,48.228],[-109.324,48.695],[-109.144,49.162],[-108.96,49.628],[-108.773,50.094],[-108.582,50.56],[-108.387,51.026],[-108.188,51.491],[-107.985,51.956],[-107.778,52.42],[-107.566,52.884],[-107.35,53.348],[-107.129,53.811]]}},{"type":"Feature","properties":{"boundary_type":"ridge","feature_type":"gpml:MidOceanRidge","polarity":null,"overriding_plate_id":null,"subducting_plate_id":null,"plate_ids":[602,6024],"name":""},"geometry":{"type":"LineString","coordinates":[[-74.244,44.007],[-73.852,43.884]]}},{"type":"Feature","properties":{"boundary_type":"ridge","feature_type":"gpml:MidOceanRidge","polarity":null,"overriding_plate_id":null,"subducting_plate_id":null,"plate_ids":[602,701],"name":""},"geometry":{"type":"LineString","coordinates":[[-73.852,43.884],[-73.226,43.682],[-72.604,43.477],[-71.987,43.269],[-71.374,43.058],[-70.765,42.843],[-70.16,42.626],[-69.56,42.405],[-68.963,42.18],[-68.371,41.953],[-67.784,41.723],[-67.2,41.49],[-66.621,41.254],[-66.046,41.015],[-65.475,40.773],[-64.908,40.528],[-64.345,40.281],[-63.787,40.031],[-63.232,39.778],[-62.682,39.523],[-62.136,39.265],[-61.594,39.005],[-61.055,38.742],[-60.521,38.476],[-59.991,38.208],[-59.464,37.938],[-58.942,37.666],[-58.423,37.391],[-57.908,37.114],[-57.397,36.835],[-56.889,36.553],[-56.386,36.27],[-55.886,35.984],[-55.389,35.696],[-54.896,35.407],[-54.407,35.115],[-53.921,34.821],[-53.439,34.526],[-53.695,34.098],[-53.949,33.67],[-54.201,33.241],[-54.45,32.812],[-54.696,32.382],[-54.94,31.952],[-55.182,31.521],[-55.422,31.09],[-55.66,30.658],[-55.895,30.226],[-55.464,29.894],[-55.036,29.56],[-54.611,29.225],[-54.189,28.889],[-53.769,28.551],[-53.352,28.212],[-52.938,27.872],[-52.526,27.531],[-52.117,27.188],[-51.71,26.845],[-51.306,26.5],[-50.904,26.154],[-50.505,25.806],[-50.108,25.458],[-49.713,25.109],[-49.321,24.758],[-48.931,24.407],[-48.542,24.055],[-48.156,23.701],[-47.773,23.347],[-47.391,22.992],[-47.011,22.636],[-46.633,22.279],[-46.257,21.921],[-45.883,21.562],[-45.511,21.202],[-45.14,20.842],[-44.772,20.481],[-44.405,20.119],[-44.04,19.756],[-43.676,19.393],[-43.314,19.029],[-42.954,18.664],[-43.284,18.328],[-43.613,17.991],[-43.94,17.654],[-44.266,17.316],[-44.591,16.978],[-44.915,16.64],[-45.238,16.301],[-45.559,15.961],[-45.88,15.621],[-46.199,15.28],[-46.517,14.939],[-46.176,14.58],[-45.836,14.219],[-45.497,13.859],[-45.159,13.498],[-44.822,13.136],[-44.486,12.774],[-44.152,12.412],[-43.818,12.049],[-43.484,11.686],[-43.152,11.323],[-42.821,10.959],[-42.49,10.594],[-42.16,10.23],[-41.831,9.865],[-41.503,9.5],[-41.175,9.134],[-40.849,8.768],[-40.522,8.402],[-40.197,8.036],[-39.872,7.669],[-39.547,7.302],[-39.85,6.961],[-40.153,6.619],[-40.455,6.277],[-40.757,5.935],[-41.059,5.593],[-41.36,5.251],[-41.087,4.86],[-40.814,4.47],[-40.541,4.079],[-40.269,3.688],[-39.997,3.298],[-39.725,2.907],[-39.453,2.516],[-39.181,2.125],[-38.91,1.734],[-38.639,1.343],[-38.367,0.951],[-38.096,0.56],[-37.825,0.169],[-38.195,-0.133],[-38.565,-0.435],[-38.935,-0.737],[-39.305,-1.039],[-39.675,-1.341],[-40.045,-1.643],[-40.415,-1.945],[-40.786,-2.247],[-41.156,-2.548],[-41.527,-2.85],[-41.898,-3.151],[-42.269,-3.453],[-42.64,-3.754],[-42.444,-4.2],[-42.247,-4.646],[-42.05,-5.092],[-41.853,-5.538],[-41.655,-5.983],[-41.457,-6.429],[-41.259,-6.875],[-41.06,-7.32],[-40.861,-7.766],[-40.661,-8.211],[-40.462,-8.657],[-40.261,-9.102],[-40.06,-9.547],[-39.859,-9.992],[-39.657,-10.437]]}},{"type":"Feature","properties":{"boundary_type":"transform","feature_type":"gpml:Transform","polarity":null,"overriding_plate_id":null,"subducting_plate_id":null,"plate_ids":[501,701],"name":""},"geometry":{"type":"LineString","coordinates":[[-39.472,-10.166],[-39.352,-10.587],[-39.232,-11.008],[-39.111,-11.429],[-38.99,-11.851],[-38.922,-12.321],[-38.853,-12.792],[-38.785,-13.262],[-38.716,-13.733],[-38.646,-14.204],[-38.577,-14.674],[-38.507,-15.145],[-38.437,-15.615],[-38.366,-16.086],[-38.295,-16.556],[-38.224,-17.027],[-38.153,-17.497],[-38.081,-17.967]]}},{"type":"Feature","properties":{"boundary_type":"ridge","feature_type":"gpml:MidOceanRidge","polarity":null,"overriding_plate_id":null,"subducting_plate_id":null,"plate_ids":[101,302],"name":"MOR-Greenland-Baltica"},"geometry":{"type":"LineString","coordinates":[[171.97,-4.869],[172.45,-4.74],[172.93,-4.611],[173.41,-4.482],[173.89,-4.353],[174.369,-4.223],[174.849,-4.093],[175.328,-3.962],[175.807,-3.832],[176.286,-3.701],[176.765,-3.569],[177.243,-3.438],[177.722,-3.306],[178.2,-3.174],[178.678,-3.042],[179.156,-2.91],[179.634,-2.777],[-179.888,-2.645],[-179.41,-2.512],[-178.932,-2.379],[-178.455,-2.245],[-177.977,-2.112],[-177.5,-1.978],[-177.022,-1.845],[-176.545,-1.711],[-176.068,-1.577],[-175.591,-1.443],[-175.114,-1.309],[-174.637,-1.174],[-174.16,-1.04],[-173.683,-0.906],[-173.206,-0.771],[-172.729,-0.637],[-172.252,-0.502],[-171.775,-0.368],[-171.298,-0.233],[-170.821,-0.098],[-170.345,0.036],[-169.868,0.171],[-169.391,0.306],[-168.914,0.44],[-168.942,0.888],[-168.969,1.336],[-168.997,1.785],[-169.025,2.233],[-169.052,2.681],[-169.08,3.129],[-169.108,3.577],[-169.136,4.025],[-168.644,4.04],[-168.152,4.054],[-167.66,4.068],[-167.168,4.082],[-166.676,4.095],[-166.184,4.108],[-165.692,4.121],[-165.2,4.134],[-164.708,4.146],[-164.216,4.158],[-163.724,4.169],[-163.232,4.18],[-162.739,4.191],[-162.247,4.202],[-161.755,4.212],[-161.263,4.222],[-160.771,4.232],[-160.279,4.241],[-159.787,4.25],[-159.294,4.259],[-158.802,4.268],[-158.31,4.276],[-157.818,4.284],[-157.326,4.291],[-156.833,4.298],[-156.341,4.305],[-155.849,4.312],[-155.357,4.318],[-154.864,4.324],[-154.372,4.33],[-153.88,4.335],[-153.387,4.34],[-152.895,4.344],[-152.403,4.349],[-151.91,4.353],[-151.418,4.356],[-150.926,4.36],[-150.433,4.363],[-149.941,4.366],[-149.449,4.368],[-148.956,4.37],[-148.464,4.372]]}},{"type":"Feature","properties":{"boundary_type":"ridge","feature_type":"gpml:MidOceanRidge","polarity":null,"overriding_plate_id":null,"subducting_plate_id":null,"plate_ids":[101,6024],"name":""},"geometry":{"type":"LineString","coordinates":[[-146.895,6.085],[-147.21,5.743],[-147.524,5.4],[-147.838,5.058],[-148.151,4.715],[-148.464,4.372]]}},{"type":"Feature","properties":{"boundary_type":"ridge","feature_type":"gpml:MidOceanRidge","polarity":null,"overriding_plate_id":null,"subducting_plate_id":null,"plate_ids":[302,6024],"name":""},"geometry":{"type":"LineString","coordinates":[[-148.464,4.372],[-148.792,4.012],[-149.12,3.652],[-149.448,3.292],[-149.775,2.931],[-150.102,2.571],[-150.429,2.21],[-150.756,1.85],[-151.082,1.489],[-151.409,1.129],[-151.735,0.768],[-152.062,0.407],[-152.388,0.046],[-152.715,-0.314],[-153.041,-0.675],[-153.367,-1.036],[-153.694,-1.396],[-154.021,-1.757],[-153.73,-2.15],[-153.44,-2.542],[-153.15,-2.935],[-152.859,-3.328],[-152.568,-3.72],[-152.277,-4.112],[-151.986,-4.504],[-151.694,-4.897],[-151.402,-5.289],[-151.109,-5.68],[-150.816,-6.072],[-150.523,-6.464],[-150.229,-6.855],[-149.935,-7.246],[-149.64,-7.637],[-149.345,-8.028],[-149.049,-8.419],[-148.753,-8.809],[-148.456,-9.199],[-148.158,-9.589],[-147.859,-9.979],[-147.56,-10.368],[-147.26,-10.757],[-146.96,-11.146],[-146.658,-11.534],[-146.356,-11.922],[-146.053,-12.31],[-145.749,-12.698],[-145.444,-13.085],[-145.138,-13.472],[-144.831,-13.858],[-144.523,-14.244],[-144.214,-14.63],[-143.904,-15.015],[-144.322,-15.307],[-144.741,-15.598],[-145.161,-15.889],[-145.583,-16.178],[-146.006,-16.467],[-146.43,-16.755],[-146.855,-17.042],[-147.282,-17.328],[-147.71,-17.613],[-148.139,-17.897],[-148.57,-18.181],[-149.002,-18.463],[-149.436,-18.744],[-149.871,-19.025],[-150.307,-19.304],[-150.745,-19.582],[-151.184,-19.859],[-151.625,-20.136],[-152.068,-20.411],[-152.512,-20.685],[-152.958,-20.957],[-153.405,-21.229],[-153.854,-21.499],[-154.305,-21.769],[-154.757,-22.037],[-155.211,-22.303],[-155.667,-22.569],[-156.125,-22.833],[-156.584,-23.096],[-157.045,-23.358],[-157.508,-23.618],[-157.973,-23.877],[-158.439,-24.134],[-158.908,-24.39],[-158.661,-24.812],[-158.413,-25.233],[-158.163,-25.654],[-157.912,-26.074],[-157.658,-26.494],[-157.403,-26.914],[-157.146,-27.333],[-156.887,-27.751],[-156.625,-28.169],[-156.362,-28.587]]}},{"type":"Feature","properties":{"boundary_type":"ridge","feature_type":"gpml:MidOceanRidge","polarity":null,"overriding_plate_id":null,"subducting_plate_id":null,"plate_ids":[201,501],"name":""},"geometry":{"type":"LineString","coordinates":[[127.967,-59.105],[127.012,-59.078],[126.059,-59.044],[125.107,-59.003],[124.159,-58.955],[123.213,-58.9],[122.27,-58.838],[121.33,-58.77],[120.395,-58.694],[119.464,-58.612],[118.537,-58.523],[117.615,-58.428],[116.698,-58.326],[115.787,-58.217],[114.882,-58.102],[113.982,-57.981],[113.089,-57.853],[112.202,-57.719],[111.322,-57.579],[110.449,-57.433],[109.583,-57.281],[108.724,-57.123],[107.872,-56.959],[107.028,-56.79],[106.192,-56.614],[105.364,-56.434],[104.543,-56.247],[103.731,-56.056],[102.927,-55.859],[102.131,-55.657],[101.343,-55.45],[100.564,-55.237],[99.793,-55.02],[99.031,-54.798],[98.276,-54.572],[97.531,-54.34],[96.793,-54.105],[97.404,-53.762],[98.006,-53.416],[98.597,-53.068],[99.179,-52.716],[99.751,-52.362],[100.315,-52.005],[100.869,-51.645],[101.415,-51.283],[100.841,-50.95],[100.275,-50.614],[99.717,-50.276],[99.167,-49.935],[98.625,-49.591],[98.09,-49.245],[97.563,-48.897],[97.043,-48.546],[96.531,-48.193],[96.025,-47.837],[95.526,-47.48],[95.035,-47.12],[94.549,-46.758],[94.07,-46.394],[93.598,-46.028],[93.132,-45.66],[92.672,-45.291],[92.218,-44.919],[91.769,-44.546],[91.327,-44.171],[90.89,-43.794],[91.317,-43.414],[91.739,-43.032],[92.155,-42.649],[92.567,-42.264],[92.973,-41.878],[93.375,-41.49],[93.771,-41.101],[94.163,-40.711],[94.551,-40.319],[94.934,-39.926],[95.312,-39.532],[95.687,-39.136],[96.057,-38.74],[96.423,-38.342],[96.785,-37.943],[97.143,-37.543],[97.498,-37.142],[97.848,-36.74],[97.387,-36.502],[96.928,-36.263],[96.473,-36.022],[96.02,-35.779],[95.57,-35.535],[95.123,-35.289],[94.678,-35.041]]}},{"type":"Feature","properties":{"boundary_type":"ridge","feature_type":"gpml:MidOceanRidge","polarity":null,"overriding_plate_id":null,"subducting_plate_id":null,"plate_ids":[302,501],"name":""},"geometry":{"type":"LineString","coordinates":[[-156.105,-28.051],[-156.61,-28.244],[-157.117,-28.435],[-157.626,-28.624],[-158.136,-28.811],[-158.649,-28.996],[-159.163,-29.18],[-159.679,-29.361],[-160.197,-29.54],[-160.716,-29.718],[-161.238,-29.893],[-161.761,-30.066],[-162.286,-30.238],[-162.813,-30.407],[-163.342,-30.573],[-163.873,-30.738],[-164.405,-30.901],[-164.939,-31.061],[-164.792,-31.523],[-164.644,-31.984],[-164.493,-32.445],[-164.342,-32.906],[-164.188,-33.366]]}},{"type":"Feature","properties":{"boundary_type":"ridge","feature_type":"gpml:MidOceanRidge","polarity":null,"overriding_plate_id":null,"subducting_plate_id":null,"plate_ids":[501,90109],"name":""},"geometry":{"type":"LineString","coordinates":[[-164.188,-33.366],[-164.071,-33.716],[-163.953,-34.065],[-163.833,-34.414]]}},{"type":"Feature","properties":{"boundary_type":"ridge","feature_type":"gpml:MidOceanRidge","polarity":null,"overriding_plate_id":null,"subducting_plate_id":null,"plate_ids":[302,6024],"name":""},"geometry":{"type":"LineString","coordinates":[[-156.362,-28.587],[-156.233,-28.319],[-156.105,-28.051]]}},{"type":"Feature","properties":{"boundary_type":"ridge","feature_type":"gpml:MidOceanRidge","polarity":null,"overriding_plate_id":null,"subducting_plate_id":null,"plate_ids":[501,6024],"name":""},"geometry":{"type":"LineString","coordinates":[[-156.105,-28.051],[-155.908,-27.637],[-155.712,-27.222],[-155.518,-26.807],[-155.326,-26.392],[-155.134,-25.976],[-154.705,-26.201],[-154.273,-26.425],[-153.84,-26.647],[-153.405,-26.869],[-152.969,-27.088],[-152.531,-27.307],[-152.091,-27.524],[-151.649,-27.74],[-151.206,-27.954],[-150.859,-27.639],[-150.513,-27.323],[-150.17,-27.006],[-149.828,-26.688],[-149.489,-26.37],[-149.151,-26.05],[-148.673,-26.201],[-148.194,-26.351],[-147.713,-26.499],[-147.231,-26.645],[-146.748,-26.79],[-146.264,-26.933],[-145.779,-27.074],[-145.292,-27.213],[-144.804,-27.351],[-144.315,-27.488],[-143.825,-27.622],[-143.35,-27.365],[-142.878,-27.106],[-142.408,-26.846],[-141.939,-26.584],[-141.473,-26.32],[-141.01,-26.055],[-140.548,-25.788],[-140.088,-25.52],[-139.63,-25.251],[-139.175,-24.98],[-138.721,-24.708],[-138.269,-24.435],[-137.82,-24.16],[-137.372,-23.884],[-136.926,-23.606],[-136.482,-23.327],[-136.297,-22.865],[-136.114,-22.403],[-135.931,-21.94],[-135.75,-21.477],[-135.57,-21.014],[-135.391,-20.551],[-135.213,-20.088],[-135.036,-19.624],[-134.86,-19.16],[-134.685,-18.696],[-134.511,-18.232]]}},{"type":"Feature","properties":{"boundary_type":"subduction","feature_type":"gpml:SubductionZone","polarity":"Left","overriding_plate_id":101,"subducting_plate_id":90109,"plate_ids":[101,90109],"name":"inferred SZ"},"geometry":{"type":"LineString","coordinates":[[166.926,-6.177],[167.223,-6.484],[167.521,-6.792],[167.819,-7.099],[168.118,-7.407]]}},{"type":"Feature","properties":{"boundary_type":"subduction","feature_type":"gpml:SubductionZone","polarity":"Left","overriding_plate_id":302,"subducting_plate_id":90109,"plate_ids":[302,90109],"name":"inferred SZ"},"geometry":{"type":"LineString","coordinates":[[168.118,-7.407],[168.365,-7.661],[168.612,-7.914],[168.86,-8.168],[169.183,-8.533],[169.506,-8.897],[169.83,-9.261],[170.154,-9.625],[170.479,-9.988],[170.805,-10.351],[171.132,-10.714],[171.499,-11.009],[171.867,-11.303],[172.235,-11.598],[172.605,-11.891],[172.975,-12.184],[173.346,-12.477],[173.695,-12.781],[174.045,-13.084],[174.396,-13.386],[174.747,-13.689],[174.958,-14.098],[175.169,-14.508],[175.381,-14.917],[175.594,-15.326],[175.807,-15.735],[175.889,-16.174],[175.972,-16.613],[176.055,-17.052],[176.138,-17.49],[176.222,-17.929],[176.306,-18.368],[176.522,-18.823],[176.739,-19.279],[176.958,-19.734],[177.178,-20.189],[177.399,-20.644],[177.621,-21.099],[177.941,-21.491],[178.263,-21.883],[178.587,-22.274],[178.913,-22.664],[179.24,-23.054],[179.569,-23.443],[179.901,-23.832],[-179.693,-24.14],[-179.284,-24.448],[-178.873,-24.754],[-178.46,-25.06],[-178.045,-25.364],[-177.627,-25.667],[-177.208,-25.969],[-176.787,-26.27],[-176.363,-26.569],[-175.937,-26.867],[-175.509,-27.164],[-175.079,-27.46],[-174.646,-27.754],[-174.246,-28.055],[-173.844,-28.354],[-173.439,-28.652],[-173.032,-28.948],[-172.623,-29.244],[-172.211,-29.538],[-171.797,-29.831],[-171.381,-30.123],[-170.962,-30.413],[-170.54,-30.702],[-170.116,-30.99],[-169.651,-31.217],[-169.183,-31.443],[-168.712,-31.667],[-168.24,-31.889],[-167.765,-32.109],[-167.288,-32.328],[-166.809,-32.545],[-166.327,-32.76],[-165.843,-32.973],[-165.357,-33.185],[-164.868,-33.394],[-164.528,-33.381],[-164.188,-33.366]]}},{"type":"Feature","properties":{"boundary_type":"subduction","feature_type":"gpml:SubductionZone","polarity":"Left","overriding_plate_id":6024,"subducting_plate_id":501,"plate_ids":[501,6024],"name":""},"geometry":{"type":"LineString","coordinates":[[-134.511,-18.232],[-134.061,-17.999],[-133.612,-17.764],[-133.164,-17.528],[-132.718,-17.292],[-132.273,-17.054],[-131.828,-16.815],[-131.385,-16.576],[-130.943,-16.335],[-130.503,-16.094],[-130.063,-15.852],[-129.624,-15.608],[-129.186,-15.364],[-128.75,-15.119],[-128.314,-14.874],[-127.879,-14.627],[-127.445,-14.38],[-127.013,-14.131],[-126.581,-13.882],[-126.15,-13.633],[-125.72,-13.382],[-125.291,-13.131],[-124.875,-12.844],[-124.46,-12.556],[-124.046,-12.267],[-123.633,-11.978],[-123.221,-11.688],[-122.81,-11.398],[-122.4,-11.107],[-121.99,-10.816],[-121.581,-10.524],[-121.173,-10.231],[-120.766,-9.938],[-120.359,-9.645],[-119.954,-9.351],[-119.548,-9.056],[-119.144,-8.761],[-118.74,-8.466],[-118.337,-8.17],[-117.934,-7.874],[-117.532,-7.578],[-117.131,-7.281],[-116.73,-6.983],[-116.329,-6.686],[-115.929,-6.388],[-115.53,-6.09],[-115.131,-5.791],[-114.732,-5.492],[-114.334,-5.193],[-113.936,-4.894],[-113.538,-4.594],[-113.141,-4.295],[-112.744,-3.995],[-112.348,-3.695],[-111.951,-3.394],[-111.555,-3.094],[-111.159,-2.793],[-110.764,-2.492],[-110.368,-2.191],[-109.973,-1.89],[-109.578,-1.589],[-109.183,-1.288],[-108.788,-0.987],[-108.393,-0.686],[-107.998,-0.384],[-107.603,-0.083]]}},{"type":"Feature","properties":{"boundary_type":"subduction","feature_type":"gpml:SubductionZone","polarity":"Left","overriding_plate_id":6024,"subducting_plate_id":602,"plate_ids":[602,6024],"name":""},"geometry":{"type":"LineString","coordinates":[[-107.603,-0.083],[-107.255,0.183],[-106.908,0.448],[-106.56,0.714],[-106.212,0.979],[-105.863,1.245],[-105.515,1.51],[-105.167,1.776],[-104.882,2.186],[-104.597,2.596],[-104.312,3.007],[-104.027,3.417],[-103.741,3.827],[-103.456,4.237],[-103.169,4.647],[-102.883,5.057],[-102.596,5.467],[-102.309,5.877],[-102.021,6.286],[-101.733,6.696],[-101.445,7.105],[-101.155,7.514],[-100.866,7.923],[-100.576,8.331],[-100.285,8.74],[-99.993,9.148],[-99.701,9.556],[-99.408,9.963],[-99.115,10.371],[-98.82,10.778],[-98.525,11.185],[-98.229,11.591],[-97.932,11.998],[-97.635,12.404],[-97.336,12.809],[-97.036,13.215],[-96.736,13.62],[-96.434,14.024],[-96.131,14.428],[-95.828,14.832],[-95.523,15.236],[-95.217,15.639],[-94.909,16.041],[-94.601,16.443],[-94.291,16.845],[-93.98,17.246],[-93.667,17.647],[-93.353,18.047],[-93.038,18.447],[-92.721,18.846],[-92.403,19.245],[-92.083,19.643],[-91.761,20.041],[-91.438,20.438],[-91.114,20.834],[-90.787,21.23],[-90.459,21.625],[-90.129,22.02],[-89.797,22.413],[-89.554,22.852],[-89.31,23.29],[-89.064,23.728],[-88.816,24.165],[-88.567,24.602],[-88.316,25.038],[-88.063,25.475],[-87.808,25.91],[-87.551,26.345],[-87.293,26.78],[-87.032,27.214],[-86.77,27.648],[-86.505,28.081],[-86.238,28.514],[-85.969,28.946],[-85.698,29.378],[-85.424,29.809],[-85.148,30.24],[-84.87,30.67],[-84.589,31.099],[-84.306,31.528],[-84.02,31.956],[-83.731,32.384],[-83.44,32.811],[-83.145,33.237],[-82.848,33.662],[-82.548,34.087],[-82.245,34.511],[-81.939,34.934],[-81.629,35.357],[-81.317,35.778],[-81.001,36.199],[-80.681,36.619],[-80.359,37.038],[-80.032,37.457],[-79.702,37.874],[-79.368,38.29],[-79.03,38.706],[-78.689,39.12],[-78.343,39.534],[-77.993,39.946],[-77.639,40.358],[-77.281,40.768],[-76.918,41.177],[-76.55,41.585],[-76.178,41.992],[-75.801,42.398],[-75.42,42.802],[-75.033,43.205],[-74.641,43.607],[-74.244,44.007]]}},{"type":"Feature","properties":{"boundary_type":"ridge","feature_type":"gpml:MidOceanRidge","polarity":null,"overriding_plate_id":null,"subducting_plate_id":null,"plate_ids":[101,801],"name":""},"geometry":{"type":"LineString","coordinates":[[111.081,16.219],[111.532,16.038],[111.982,15.857],[112.431,15.674],[112.879,15.491],[113.326,15.306],[113.773,15.121],[113.609,14.665],[113.447,14.209],[113.284,13.753],[113.123,13.297],[112.962,12.84],[112.802,12.384],[112.642,11.927],[112.483,11.471],[112.324,11.014],[112.166,10.557],[112.008,10.1],[111.851,9.643],[111.694,9.186],[111.538,8.729],[111.382,8.272],[111.226,7.814],[111.07,7.357],[110.915,6.9],[110.761,6.442],[110.606,5.985],[110.452,5.528],[110.298,5.07],[110.144,4.612],[109.991,4.155],[110.451,3.972],[110.91,3.789],[111.37,3.605],[111.829,3.422],[112.289,3.238],[112.748,3.054],[113.207,2.869],[113.665,2.685],[114.124,2.5],[114.582,2.316],[115.041,2.131],[115.499,1.946],[115.957,1.76],[116.415,1.575],[116.873,1.39],[117.331,1.204],[117.789,1.019],[118.246,0.833],[118.704,0.647],[119.162,0.462]]}},{"type":"Feature","properties":{"boundary_type":"ridge","feature_type":"gpml:MidOceanRidge","polarity":null,"overriding_plate_id":null,"subducting_plate_id":null,"plate_ids":[101,201],"name":""},"geometry":{"type":"LineString","coordinates":[[119.162,0.462],[119.612,0.279],[120.063,0.096],[120.513,-0.087],[120.964,-0.27],[121.415,-0.453],[121.865,-0.636],[122.316,-0.819],[122.766,-1.001],[123.217,-1.184],[123.668,-1.367],[124.119,-1.549],[124.57,-1.732],[125.021,-1.914],[125.472,-2.096],[125.923,-2.278],[126.374,-2.46],[126.826,-2.642],[127.277,-2.824],[127.729,-3.005],[128.181,-3.186],[128.633,-3.367]]}},{"type":"Feature","properties":{"boundary_type":"transform","feature_type":"gpml:Transform","polarity":null,"overriding_plate_id":null,"subducting_plate_id":null,"plate_ids":[101,90110],"name":""},"geometry":{"type":"LineString","coordinates":[[136.443,9.406],[136.101,9.044],[135.76,8.68],[135.42,8.317],[135.08,7.953],[134.741,7.589],[134.402,7.225],[134.064,6.861],[133.727,6.496],[133.456,6.112],[133.187,5.727],[132.917,5.342],[132.648,4.958],[132.38,4.573],[132.111,4.188],[131.843,3.802],[131.575,3.417],[131.307,3.032],[131.04,2.647],[130.772,2.261],[130.505,1.876],[130.347,1.433],[130.189,0.989],[130.031,0.546],[129.872,0.103],[129.714,-0.34],[129.556,-0.784]]}},{"type":"Feature","properties":{"boundary_type":"transform","feature_type":"gpml:Transform","polarity":null,"overriding_plate_id":null,"subducting_plate_id":null,"plate_ids":[101,201],"name":""},"geometry":{"type":"LineString","coordinates":[[129.556,-0.784],[129.402,-1.214],[129.249,-1.645],[129.095,-2.076],[128.941,-2.506],[128.787,-2.937],[128.633,-3.367]]}},{"type":"Feature","properties":{"boundary_type":"subduction","feature_type":"gpml:SubductionZone","polarity":"Right","overriding_plate_id":501,"subducting_plate_id":801,"plate_ids":[501,801],"name":""},"geometry":{"type":"LineString","coordinates":[[58.394,-26.316],[58.876,-26.55],[59.359,-26.782],[59.844,-27.013],[60.331,-27.242],[60.82,-27.469],[61.311,-27.695],[61.804,-27.918],[62.299,-28.141],[62.797,-28.361],[63.296,-28.579],[63.797,-28.796],[64.301,-29.011],[64.806,-29.223],[65.314,-29.434],[65.823,-29.643],[66.335,-29.85],[66.849,-30.055],[67.365,-30.259],[67.883,-30.46],[68.404,-30.659],[68.926,-30.855],[69.451,-31.05],[69.977,-31.243],[70.506,-31.433],[71.037,-31.622],[71.57,-31.808],[72.106,-31.992],[72.643,-32.173],[73.183,-32.353],[73.724,-32.53],[74.268,-32.704],[74.814,-32.877],[75.362,-33.047],[75.912,-33.214],[76.465,-33.38],[77.019,-33.542],[77.575,-33.702],[78.134,-33.86],[78.694,-34.015],[79.257,-34.168],[79.821,-34.318],[80.388,-34.465],[80.957,-34.61],[81.532,-34.698],[82.108,-34.784],[82.685,-34.866],[83.264,-34.946],[83.844,-35.023],[84.424,-35.098],[85.006,-35.169],[85.589,-35.238],[86.173,-35.304],[86.757,-35.367],[87.343,-35.427],[87.929,-35.485],[88.517,-35.54],[89.105,-35.592],[89.693,-35.64],[90.283,-35.687],[90.873,-35.73],[91.464,-35.77],[92.055,-35.808],[92.647,-35.842],[93.239,-35.874],[93.832,-35.903]]}},{"type":"Feature","properties":{"boundary_type":"ridge","feature_type":"gpml:MidOceanRidge","polarity":null,"overriding_plate_id":null,"subducting_plate_id":null,"plate_ids":[701,77030],"name":""},"geometry":{"type":"LineString","coordinates":[[41.592,-8.198],[41.412,-8.65],[41.231,-9.102],[41.05,-9.554],[40.868,-10.006],[40.686,-10.458],[40.503,-10.909],[40.319,-11.361],[40.135,-11.812],[39.951,-12.264],[39.766,-12.715],[39.58,-13.166],[39.393,-13.617],[39.206,-14.068],[39.018,-14.518],[38.829,-14.969],[38.639,-15.419],[38.449,-15.869],[38.258,-16.319],[38.066,-16.769],[37.872,-17.219],[37.678,-17.668],[37.484,-18.118],[37.288,-18.567],[37.091,-19.016],[36.892,-19.464],[36.693,-19.913],[36.493,-20.361],[36.291,-20.809],[36.089,-21.257],[35.885,-21.705],[35.68,-22.152],[35.285,-22.035],[34.891,-21.918],[34.497,-21.8],[34.104,-21.681],[33.936,-22.146],[33.766,-22.611],[33.595,-23.076],[33.423,-23.541],[33.25,-24.005],[33.075,-24.47],[32.899,-24.934],[32.722,-25.398],[32.544,-25.862]]}},{"type":"Feature","properties":{"boundary_type":"subduction","feature_type":"gpml:SubductionZone","polarity":"Right","overriding_plate_id":701,"subducting_plate_id":801,"plate_ids":[701,801],"name":""},"geometry":{"type":"LineString","coordinates":[[62.887,10.292],[62.511,9.978],[62.136,9.663],[61.762,9.348],[61.389,9.033],[61.016,8.717],[60.644,8.401],[60.272,8.085],[59.901,7.768],[59.531,7.451],[59.161,7.133],[58.791,6.815],[58.422,6.497],[58.054,6.179],[57.686,5.861],[57.318,5.542],[56.951,5.223],[56.584,4.904],[56.218,4.584],[55.852,4.265],[55.486,3.945],[55.12,3.625],[54.755,3.305],[54.39,2.985],[54.025,2.664],[53.66,2.344],[53.296,2.023],[52.931,1.703],[52.567,1.382],[52.203,1.061],[51.839,0.741]]}},{"type":"Feature","properties":{"boundary_type":"subduction","feature_type":"gpml:SubductionZone","polarity":"Right","overriding_plate_id":701,"subducting_plate_id":77030,"plate_ids":[701,77030],"name":""},"geometry":{"type":"LineString","coordinates":[[51.839,0.741],[51.475,0.42],[51.112,0.1],[50.748,-0.221],[50.384,-0.541],[50.021,-0.862],[49.657,-1.182],[49.293,-1.503],[48.929,-1.823],[48.565,-2.144],[48.201,-2.464],[47.836,-2.784],[47.472,-3.104],[47.107,-3.424],[46.742,-3.743],[46.377,-4.063],[46.011,-4.382],[45.645,-4.702],[45.279,-5.021],[44.912,-5.34],[44.545,-5.658],[44.178,-5.977],[43.81,-6.295],[43.441,-6.613],[43.073,-6.93],[42.703,-7.248],[42.334,-7.565],[41.963,-7.881],[41.592,-8.198]]}},{"type":"Feature","properties":{"boundary_type":"transform","feature_type":"gpml:Transform","polarity":null,"overriding_plate_id":null,"subducting_plate_id":null,"plate_ids":[101,302],"name":""},"geometry":{"type":"LineString","coordinates":[[168.118,-7.407],[168.465,-7.134],[168.812,-6.861],[169.208,-6.613],[169.604,-6.365],[169.999,-6.116],[170.394,-5.867],[170.789,-5.618],[171.183,-5.368],[171.577,-5.119],[171.97,-4.869]]}},{"type":"Feature","properties":{"boundary_type":"subduction","feature_type":"gpml:SubductionZone","polarity":"Right","overriding_plate_id":201,"subducting_plate_id":90110,"plate_ids":[201,90110],"name":""},"geometry":{"type":"LineString","coordinates":[[129.556,-0.784],[130.001,-0.995],[130.446,-1.207],[130.891,-1.418],[131.336,-1.629],[131.781,-1.841],[132.227,-2.052],[132.672,-2.263],[133.117,-2.474],[133.563,-2.684],[134.009,-2.895],[134.455,-3.105],[134.901,-3.316],[135.348,-3.526],[135.794,-3.735],[136.241,-3.945],[136.688,-4.154],[137.135,-4.363],[137.583,-4.572],[138.03,-4.781],[138.478,-4.989],[138.927,-5.197],[139.375,-5.404],[139.824,-5.612],[140.274,-5.819],[140.723,-6.025],[141.173,-6.231],[141.623,-6.437],[142.074,-6.643],[142.525,-6.848],[142.976,-7.052],[143.336,-7.39],[143.696,-7.727],[144.057,-8.064],[144.419,-8.401],[144.781,-8.737],[145.144,-9.073],[145.507,-9.409],[145.872,-9.744],[146.237,-10.079],[146.602,-10.414],[146.969,-10.748],[147.336,-11.081],[147.704,-11.415],[148.073,-11.747],[148.443,-12.08],[148.814,-12.411],[149.186,-12.743],[149.558,-13.074],[149.932,-13.404],[150.307,-13.733],[150.683,-14.063],[151.059,-14.391],[151.437,-14.719],[151.817,-15.046],[152.197,-15.373],[152.578,-15.699],[152.961,-16.024],[153.345,-16.349],[153.73,-16.673],[154.117,-16.996],[154.32,-17.439],[154.525,-17.882],[154.73,-18.325],[154.937,-18.767],[155.144,-19.21],[155.353,-19.651],[155.563,-20.093],[155.774,-20.535],[155.986,-20.976],[156.2,-21.417],[156.415,-21.857],[156.631,-22.298],[156.848,-22.738],[157.067,-23.178],[157.287,-23.617],[157.509,-24.056],[157.733,-24.495],[157.958,-24.934],[158.184,-25.372],[158.412,-25.81],[158.642,-26.247],[158.874,-26.684],[159.107,-27.121],[159.343,-27.558],[159.297,-28.038],[159.252,-28.519],[159.206,-28.999],[159.16,-29.48],[159.113,-29.96],[159.066,-30.441],[159.018,-30.921],[158.97,-31.402],[158.921,-31.882],[158.872,-32.362],[158.822,-32.843],[158.772,-33.323],[158.721,-33.803],[158.669,-34.284],[158.617,-34.764],[158.565,-35.244],[158.423,-35.717],[158.28,-36.19],[158.135,-36.662],[157.988,-37.134],[157.839,-37.606],[157.688,-38.078],[157.536,-38.55],[157.381,-39.021],[157.224,-39.492],[157.065,-39.963],[156.904,-40.434],[156.741,-40.904],[156.544,-41.355],[156.344,-41.805],[156.141,-42.255],[155.935,-42.705],[155.726,-43.154],[155.515,-43.603],[155.3,-44.051],[155.081,-44.499],[154.86,-44.947],[154.635,-45.394],[154.406,-45.841],[154.174,-46.287],[153.906,-46.726],[153.635,-47.164],[153.359,-47.601],[153.078,-48.037],[152.793,-48.473],[152.503,-48.908],[152.207,-49.343],[151.906,-49.776],[151.6,-50.209],[151.288,-50.641],[150.971,-51.073],[150.647,-51.503],[150.318,-51.932],[149.942,-52.368],[149.559,-52.803],[149.168,-53.236],[148.769,-53.668],[148.362,-54.098],[147.946,-54.528],[147.522,-54.955],[147.088,-55.382],[146.645,-55.806],[146.192,-56.229],[145.729,-56.651],[145.256,-57.07],[144.772,-57.488],[144.313,-57.895],[143.844,-58.301],[143.365,-58.705],[142.874,-59.108],[142.371,-59.508],[141.856,-59.907],[141.329,-60.303],[140.789,-60.697],[140.236,-61.089],[139.669,-61.479],[139.087,-61.866],[138.491,-62.251],[137.879,-62.633],[137.251,-63.012],[136.607,-63.389],[135.946,-63.762],[135.158,-64.098],[134.35,-64.43],[133.523,-64.757],[132.676,-65.079],[131.808,-65.397],[130.919,-65.709],[130.009,-66.016],[129.077,-66.318]]}},{"type":"Feature","properties":{"boundary_type":"ridge","feature_type":"gpml:MidOceanRidge","polarity":null,"overriding_plate_id":null,"subducting_plate_id":null,"plate_ids":[90109,90110],"name":""},"geometry":{"type":"LineString","coordinates":[[137.983,8.591],[138.218,8.174],[138.453,7.757],[138.688,7.339],[138.922,6.921],[139.156,6.504],[139.389,6.086],[139.622,5.668],[139.855,5.25],[140.087,4.831],[140.319,4.413],[140.551,3.995],[140.782,3.576],[141.014,3.158],[141.245,2.739],[141.476,2.321],[141.706,1.902],[141.937,1.484],[142.168,1.065],[142.398,0.646],[142.629,0.228],[142.859,-0.191],[143.09,-0.61],[143.496,-0.395],[143.901,-0.18],[144.307,0.035],[144.713,0.25],[145.119,0.464],[145.524,0.679],[145.93,0.894],[146.336,1.108],[146.742,1.323],[147.148,1.538],[147.325,1.082],[147.503,0.626],[147.68,0.17],[147.857,-0.287],[148.034,-0.743],[148.211,-1.199],[148.388,-1.655],[148.566,-2.111],[148.743,-2.567],[148.921,-3.023],[149.098,-3.479],[149.276,-3.935],[149.454,-4.391],[149.633,-4.846],[149.811,-5.302],[149.99,-5.758],[150.431,-5.589],[150.871,-5.419],[151.311,-5.25],[151.751,-5.08],[152.191,-4.909],[152.631,-4.739],[153.07,-4.568],[153.509,-4.396],[153.948,-4.225],[154.387,-4.053],[154.825,-3.881],[155.264,-3.709],[155.702,-3.537],[156.14,-3.364],[156.578,-3.191],[156.721,-3.665],[156.865,-4.138],[157.009,-4.612],[157.153,-5.085],[157.298,-5.559],[157.443,-6.032],[157.588,-6.505],[157.733,-6.979],[157.878,-7.452],[158.024,-7.925],[158.17,-8.398],[158.317,-8.871],[158.464,-9.344],[158.611,-9.817],[158.759,-10.29],[158.907,-10.763],[159.056,-11.236],[159.205,-11.708],[159.354,-12.181],[159.504,-12.654],[159.655,-13.126],[159.806,-13.598],[159.958,-14.071],[160.111,-14.543],[160.575,-14.361],[161.039,-14.178],[161.501,-13.994],[161.963,-13.81],[162.425,-13.625],[162.885,-13.438],[163.345,-13.251],[163.804,-13.063],[163.911,-13.552],[164.019,-14.04],[164.126,-14.529],[164.235,-15.017],[164.344,-15.506],[164.453,-15.994],[164.563,-16.482],[164.673,-16.97],[164.784,-17.458],[164.896,-17.946],[165.008,-18.434],[165.121,-18.922],[165.234,-19.41],[165.348,-19.898],[165.463,-20.386],[165.579,-20.873],[165.695,-21.361],[165.812,-21.848],[165.93,-22.336],[166.049,-22.823],[166.168,-23.31],[166.289,-23.798],[166.41,-24.285],[166.533,-24.771],[166.656,-25.258],[166.78,-25.745],[166.906,-26.232],[167.032,-26.718],[167.159,-27.205],[167.288,-27.691],[167.418,-28.177],[167.549,-28.663],[167.681,-29.149],[167.814,-29.635],[167.949,-30.121],[168.085,-30.606],[168.222,-31.091],[168.361,-31.577],[168.501,-32.062],[168.643,-32.547],[168.786,-33.031],[168.931,-33.516],[169.077,-34.0],[169.226,-34.485],[169.375,-34.969],[169.527,-35.453],[169.681,-35.936],[169.836,-36.42],[169.993,-36.903],[170.153,-37.386],[170.314,-37.869],[170.478,-38.352],[170.643,-38.834],[170.811,-39.316],[170.982,-39.798],[171.154,-40.28],[171.33,-40.761],[171.507,-41.242],[171.688,-41.723],[171.871,-42.204],[172.057,-42.684],[172.246,-43.164],[172.438,-43.644],[172.632,-44.123],[172.831,-44.602],[173.032,-45.081],[173.237,-45.559],[173.445,-46.037],[173.657,-46.515],[173.873,-46.992],[174.092,-47.468],[174.316,-47.945],[174.544,-48.421],[174.776,-48.896],[175.012,-49.371],[175.253,-49.845],[175.499,-50.319],[175.75,-50.793],[176.006,-51.265],[176.267,-51.738],[176.534,-52.209],[176.807,-52.68],[177.085,-53.151],[177.37,-53.621],[177.661,-54.09]]}},{"type":"Feature","properties":{"boundary_type":"ridge","feature_type":"gpml:MidOceanRidge","polarity":null,"overriding_plate_id":null,"subducting_plate_id":null,"plate_ids":[501,90110],"name":""},"geometry":{"type":"LineString","coordinates":[[177.661,-54.09],[177.933,-54.519]]}},{"type":"Feature","properties":{"boundary_type":"transform","feature_type":"gpml:Transform","polarity":null,"overriding_plate_id":null,"subducting_plate_id":null,"plate_ids":[501,90110],"name":""},"geometry":{"type":"LineString","coordinates":[[129.486,-68.232],[129.377,-67.753],[129.273,-67.275],[129.173,-66.796],[129.077,-66.318]]}},{"type":"Feature","properties":{"boundary_type":"transform","feature_type":"gpml:Transform","polarity":null,"overriding_plate_id":null,"subducting_plate_id":null,"plate_ids":[201,501],"name":""},"geometry":{"type":"LineString","coordinates":[[129.077,-66.318],[128.984,-65.837],[128.894,-65.356],[128.808,-64.876],[128.724,-64.395],[128.644,-63.914],[128.566,-63.434],[128.491,-62.953],[128.418,-62.472],[128.348,-61.991],[128.279,-61.51],[128.213,-61.029],[128.149,-60.548],[128.087,-60.067],[128.026,-59.586],[127.967,-59.105]]}},{"type":"Feature","properties":{"boundary_type":"ridge","feature_type":"gpml:MidOceanRidge","polarity":null,"overriding_plate_id":null,"subducting_plate_id":null,"plate_ids":[501,90109],"name":""},"geometry":{"type":"LineString","coordinates":[[177.661,-54.09],[178.405,-53.878],[179.142,-53.662],[179.871,-53.441],[-179.408,-53.216],[-178.694,-52.987],[-177.987,-52.753],[-177.289,-52.516],[-176.597,-52.274],[-175.914,-52.028],[-175.238,-51.778],[-174.569,-51.525],[-173.908,-51.267],[-173.255,-51.006],[-172.608,-50.742],[-171.969,-50.474],[-171.338,-50.202],[-170.713,-49.927],[-171.149,-49.523],[-171.577,-49.116],[-171.999,-48.708],[-172.414,-48.299],[-172.822,-47.888],[-173.224,-47.476],[-173.619,-47.062],[-174.009,-46.647],[-174.392,-46.231],[-174.77,-45.813],[-175.142,-45.394],[-175.508,-44.975],[-175.87,-44.553],[-176.226,-44.131],[-176.577,-43.708],[-176.923,-43.283],[-177.264,-42.858],[-177.6,-42.432],[-177.033,-42.166],[-176.471,-41.897],[-175.913,-41.626],[-175.36,-41.352],[-174.812,-41.075],[-174.268,-40.796],[-173.729,-40.514],[-173.194,-40.23],[-172.664,-39.943],[-172.138,-39.654],[-171.617,-39.362],[-171.1,-39.069],[-170.587,-38.773],[-170.079,-38.475],[-169.574,-38.174],[-169.074,-37.872],[-168.578,-37.567],[-168.087,-37.26],[-167.599,-36.952],[-167.115,-36.641],[-166.635,-36.328],[-166.158,-36.014],[-165.686,-35.697],[-165.217,-35.379],[-164.752,-35.059],[-164.291,-34.737],[-163.833,-34.414]]}},{"type":"Feature","properties":{"boundary_type":"ridge","feature_type":"gpml:MidOceanRidge","polarity":null,"overriding_plate_id":null,"subducting_plate_id":null,"plate_ids":[501,90110],"name":""},"geometry":{"type":"LineString","coordinates":[[129.486,-68.232],[130.792,-68.297],[132.105,-68.352],[133.424,-68.397],[134.747,-68.431],[136.074,-68.455],[137.403,-68.468],[138.733,-68.471],[140.063,-68.463],[141.391,-68.445],[142.716,-68.416],[144.037,-68.376],[145.354,-68.327],[146.663,-68.267],[147.966,-68.196],[149.26,-68.116],[150.544,-68.026],[151.818,-67.925],[153.08,-67.815],[154.33,-67.695],[155.567,-67.566],[156.79,-67.428],[157.998,-67.28],[159.191,-67.123],[160.368,-66.958],[161.529,-66.784],[162.673,-66.601],[163.8,-66.411],[164.91,-66.212],[166.002,-66.006],[167.076,-65.792],[168.133,-65.57],[169.171,-65.342],[168.873,-64.874],[168.585,-64.405],[168.307,-63.936],[168.038,-63.467],[167.777,-62.997],[167.525,-62.527],[167.281,-62.056],[167.044,-61.585],[166.815,-61.113],[166.592,-60.641],[166.375,-60.169],[166.165,-59.696],[165.961,-59.223],[165.762,-58.749],[165.568,-58.276],[165.38,-57.802],[165.196,-57.328],[166.044,-57.192],[166.886,-57.05],[167.722,-56.903],[168.551,-56.751],[169.373,-56.593],[170.188,-56.43],[170.996,-56.261],[171.796,-56.087],[172.59,-55.908],[173.376,-55.724],[174.154,-55.535],[174.925,-55.341],[175.689,-55.143],[176.445,-54.939],[177.193,-54.731],[177.933,-54.519]]}},{"type":"Feature","properties":{"boundary_type":"ridge","feature_type":"gpml:MidOceanRidge","polarity":null,"overriding_plate_id":null,"subducting_plate_id":null,"plate_ids":[201,801],"name":""},"geometry":{"type":"LineString","coordinates":[[119.162,0.462],[118.847,0.077],[118.533,-0.308],[118.218,-0.693],[117.904,-1.077],[117.589,-1.462],[117.274,-1.847],[116.959,-2.231],[116.644,-2.616],[116.329,-3.0],[116.013,-3.385],[115.698,-3.769],[115.381,-4.153],[115.065,-4.537],[114.748,-4.921],[114.431,-5.304],[114.114,-5.688],[113.796,-6.071],[113.478,-6.455],[113.159,-6.838],[112.84,-7.22],[112.52,-7.603],[112.199,-7.985],[111.878,-8.367],[111.557,-8.749],[111.234,-9.131],[110.911,-9.512],[110.588,-9.893],[110.263,-10.274],[109.938,-10.654],[109.612,-11.034],[109.285,-11.414],[108.957,-11.793],[108.628,-12.172],[108.299,-12.55],[107.968,-12.928],[107.636,-13.306],[107.304,-13.683],[106.97,-14.06],[106.635,-14.437],[106.299,-14.812],[105.962,-15.188],[105.624,-15.563],[105.284,-15.937],[104.943,-16.311],[104.601,-16.684],[104.258,-17.057],[103.913,-17.429],[103.567,-17.801],[103.219,-18.172],[102.87,-18.542],[103.238,-18.85],[103.608,-19.157],[103.979,-19.463],[104.352,-19.769],[104.726,-20.074],[105.101,-20.378],[105.478,-20.681],[105.857,-20.983],[105.517,-21.353],[105.175,-21.722],[104.831,-22.091],[104.485,-22.459],[104.138,-22.825],[103.789,-23.192],[103.438,-23.557],[103.084,-23.922],[102.729,-24.286],[102.372,-24.649],[102.013,-25.011],[101.652,-25.372],[101.288,-25.733],[100.922,-26.092],[100.554,-26.451],[100.184,-26.808],[99.812,-27.165],[99.437,-27.52],[99.059,-27.875],[98.679,-28.229],[98.297,-28.581],[97.912,-28.933],[97.524,-29.283],[97.134,-29.632],[97.519,-29.881],[97.906,-30.129],[98.295,-30.376],[98.685,-30.622],[98.366,-30.995],[98.045,-31.367],[97.72,-31.738],[97.393,-32.109],[97.064,-32.479],[96.732,-32.847],[96.397,-33.215],[96.059,-33.582],[95.718,-33.949],[95.374,-34.314],[95.028,-34.678],[94.678,-35.041]]}},{"type":"Feature","properties":{"boundary_type":"ridge","feature_type":"gpml:MidOceanRidge","polarity":null,"overriding_plate_id":null,"subducting_plate_id":null,"plate_ids":[501,801],"name":""},"geometry":{"type":"LineString","coordinates":[[94.678,-35.041],[94.398,-35.329],[94.116,-35.616],[93.832,-35.903]]}},{"type":"Feature","properties":{"boundary_type":"subduction","feature_type":"gpml:SubductionZone","polarity":"Left","overriding_plate_id":701,"subducting_plate_id":501,"plate_ids":[501,701],"name":"Sahara_SZ"},"geometry":{"type":"LineString","coordinates":[[-12.718,-11.826],[-12.228,-11.852],[-11.737,-11.878],[-11.246,-11.904],[-10.755,-11.928],[-10.264,-11.951],[-9.773,-11.974],[-9.282,-11.996],[-8.791,-12.017],[-8.299,-12.037],[-7.808,-12.056],[-7.316,-12.074],[-6.825,-12.092],[-6.333,-12.108],[-5.842,-12.124],[-5.35,-12.139],[-4.858,-12.153],[-4.366,-12.166],[-3.874,-12.178],[-3.383,-12.19],[-2.879,-12.254],[-2.375,-12.317],[-1.871,-12.38],[-1.366,-12.441],[-0.861,-12.502],[-0.357,-12.561],[0.149,-12.62],[0.654,-12.678],[1.16,-12.735],[1.665,-12.79],[2.172,-12.845],[2.678,-12.899],[3.184,-12.952],[3.691,-13.004],[4.16,-13.13],[4.629,-13.255],[5.099,-13.38],[5.569,-13.503],[6.04,-13.626],[6.511,-13.748],[6.982,-13.869],[7.454,-13.989],[7.927,-14.108],[8.4,-14.226],[8.874,-14.343],[9.098,-14.451]]}},{"type":"Feature","properties":{"boundary_type":"ridge","feature_type":"gpml:MidOceanRidge","polarity":null,"overriding_plate_id":null,"subducting_plate_id":null,"plate_ids":[6024],"name":""},"geometry":{"type":"LineString","coordinates":[[-33.815,68.074],[-34.189,68.109]]}},{"type":"Feature","properties":{"boundary_type":"ridge","feature_type":"gpml:MidOceanRidge","polarity":null,"overriding_plate_id":null,"subducting_plate_id":null,"plate_ids":[801,6024],"name":""},"geometry":{"type":"LineString","coordinates":[[-34.189,68.109],[-35.477,68.224],[-36.777,68.329],[-38.089,68.423],[-39.411,68.507],[-40.743,68.581],[-42.083,68.644],[-43.429,68.696],[-44.781,68.738],[-46.138,68.769],[-47.498,68.789],[-48.859,68.798],[-50.221,68.796],[-51.582,68.783],[-52.941,68.759],[-54.296,68.725],[-55.647,68.679],[-56.991,68.623],[-58.328,68.557],[-59.657,68.479],[-60.975,68.392],[-62.283,68.294],[-63.58,68.185],[-64.863,68.067],[-66.133,67.939],[-67.389,67.801],[-68.629,67.654],[-69.853,67.498],[-71.061,67.332],[-72.252,67.157],[-73.425,66.974],[-74.58,66.782],[-75.718,66.582],[-76.836,66.374],[-77.936,66.157],[-79.016,65.933],[-80.078,65.702],[-81.121,65.464],[-82.144,65.218],[-83.149,64.966],[-84.134,64.707],[-85.1,64.441],[-86.048,64.169],[-86.977,63.892],[-87.888,63.608],[-88.78,63.319],[-89.655,63.024],[-90.512,62.724],[-91.352,62.419],[-92.174,62.109],[-92.98,61.795],[-93.769,61.475],[-94.542,61.151],[-95.3,60.823],[-96.042,60.491],[-96.768,60.154],[-97.412,60.52],[-98.069,60.882],[-98.742,61.242],[-99.431,61.597],[-100.135,61.95],[-100.856,62.298],[-101.593,62.643],[-102.348,62.984],[-103.12,63.321],[-103.911,63.653],[-104.72,63.981],[-105.548,64.304],[-106.396,64.623],[-107.264,64.936],[-108.152,65.245],[-109.061,65.548],[-109.991,65.845],[-110.942,66.137],[-111.663,65.741],[-112.361,65.341],[-113.039,64.939],[-113.696,64.533],[-114.335,64.125],[-114.954,63.713],[-115.556,63.3],[-116.14,62.883],[-116.709,62.465],[-117.261,62.044],[-117.799,61.621],[-118.322,61.196],[-118.83,60.769],[-119.326,60.34],[-119.809,59.909],[-120.279,59.477],[-120.737,59.043],[-121.184,58.607],[-121.62,58.17],[-122.045,57.732],[-122.46,57.292],[-122.865,56.85]]}},{"type":"Feature","properties":{"boundary_type":"ridge","feature_type":"gpml:MidOceanRidge","polarity":null,"overriding_plate_id":null,"subducting_plate_id":null,"plate_ids":[101,6024],"name":""},"geometry":{"type":"LineString","coordinates":[[-122.865,56.85],[-123.232,56.44],[-123.591,56.03],[-123.943,55.618],[-124.287,55.205]]}},{"type":"Feature","properties":{"boundary_type":"ridge","feature_type":"gpml:MidOceanRidge","polarity":null,"overriding_plate_id":null,"subducting_plate_id":null,"plate_ids":[801],"name":"inferred MOR"},"geometry":{"type":"LineString","coordinates":[[-34.189,68.109],[-33.555,68.308]]}},{"type":"Feature","properties":{"boundary_type":"ridge","feature_type":"gpml:MidOceanRidge","polarity":null,"overriding_plate_id":null,"subducting_plate_id":null,"plate_ids":[701,801],"name":"inferred MOR"},"geometry":{"type":"LineString","coordinates":[[-33.555,68.308],[-32.523,68.62],[-31.464,68.926],[-30.374,69.224],[-29.255,69.516],[-28.105,69.8],[-26.924,70.077],[-25.712,70.345],[-24.468,70.606],[-23.192,70.857],[-21.884,71.1],[-20.544,71.333],[-19.171,71.556],[-17.767,71.769],[-16.332,71.972],[-14.866,72.164],[-13.371,72.345],[-11.846,72.515],[-10.293,72.672],[-8.714,72.817],[-7.11,72.95],[-5.482,73.07],[-3.833,73.178],[-2.165,73.271],[-0.48,73.351],[1.219,73.418],[2.931,73.471],[4.651,73.509],[6.378,73.534],[8.109,73.544],[9.84,73.54],[9.794,73.049],[9.751,72.558],[9.71,72.067],[9.671,71.576],[9.634,71.085],[9.599,70.594],[9.566,70.103],[9.534,69.612],[9.503,69.121],[9.474,68.63],[9.446,68.139],[9.42,67.648],[9.394,67.157],[9.369,66.666],[9.346,66.175],[9.323,65.684],[9.301,65.193],[9.28,64.702],[9.26,64.211],[9.24,63.72],[9.221,63.229],[9.203,62.738],[9.185,62.247],[9.168,61.756],[9.151,61.265],[9.135,60.774],[10.132,60.715],[11.126,60.649],[12.115,60.576],[13.099,60.495],[14.078,60.407],[15.052,60.312],[16.02,60.21],[16.982,60.101],[17.937,59.985],[18.885,59.862],[19.826,59.732],[20.76,59.596],[21.686,59.453],[22.604,59.303],[23.513,59.147],[24.415,58.985],[25.307,58.817],[26.191,58.642],[27.066,58.462],[27.932,58.276],[28.789,58.083],[29.636,57.886],[30.474,57.682],[31.303,57.473],[32.122,57.259],[31.936,56.786],[31.755,56.312],[31.578,55.838],[31.405,55.364],[31.237,54.89],[31.072,54.415],[31.855,54.215],[32.629,54.01],[33.396,53.8],[34.155,53.584],[34.907,53.365],[35.65,53.14],[36.386,52.911],[37.114,52.677],[37.834,52.439],[38.547,52.197],[39.251,51.95],[39.948,51.7],[40.637,51.445],[41.318,51.186],[41.992,50.923],[42.658,50.657],[43.316,50.386],[43.967,50.113],[44.611,49.835],[45.247,49.554],[45.876,49.269],[46.497,48.981],[47.112,48.69],[47.719,48.396],[48.319,48.098],[48.913,47.797],[49.499,47.494],[50.079,47.187],[50.264,46.706],[50.445,46.225],[50.624,45.743],[50.8,45.262],[50.972,44.78],[51.142,44.298],[51.309,43.815],[51.473,43.332],[51.635,42.849],[51.794,42.366],[51.951,41.883],[52.105,41.399],[52.257,40.915],[52.407,40.431],[52.555,39.947],[52.701,39.463],[52.844,38.978],[52.986,38.493],[53.126,38.008],[53.264,37.523],[53.4,37.038],[53.535,36.553],[53.667,36.067],[53.798,35.582],[53.928,35.096],[54.056,34.61],[54.183,34.124],[54.308,33.637],[54.431,33.151],[54.554,32.665],[54.675,32.178],[54.795,31.691],[54.913,31.205],[55.03,30.718],[55.146,30.231],[55.261,29.743],[55.375,29.256],[55.488,28.769],[55.6,28.282],[55.71,27.794],[55.82,27.306],[56.034,26.851],[56.246,26.395],[56.456,25.939],[56.665,25.482],[56.872,25.025],[57.077,24.568],[57.282,24.11],[57.484,23.653],[57.685,23.195],[57.885,22.737],[58.084,22.278],[58.281,21.819],[58.477,21.36],[58.672,20.901],[58.865,20.442],[59.057,19.982],[59.249,19.522],[59.439,19.062],[59.628,18.602],[59.816,18.142],[60.003,17.681],[60.189,17.221],[60.375,16.76],[60.559,16.299],[60.742,15.837],[60.925,15.376],[61.107,14.914],[61.288,14.453],[61.468,13.991],[61.648,13.529],[61.827,13.067],[62.005,12.605],[62.183,12.142],[62.359,11.68],[62.536,11.217],[62.712,10.755],[62.887,10.292]]}},{"type":"Feature","properties":{"boundary_type":"ridge","feature_type":"gpml:MidOceanRidge","polarity":null,"overriding_plate_id":null,"subducting_plate_id":null,"plate_ids":[701],"name":""},"geometry":{"type":"LineString","coordinates":[[-33.555,68.308],[-33.815,68.074]]}},{"type":"Feature","properties":{"boundary_type":"ridge","feature_type":"gpml:MidOceanRidge","polarity":null,"overriding_plate_id":null,"subducting_plate_id":null,"plate_ids":[701,6024],"name":""},"geometry":{"type":"LineString","coordinates":[[-33.815,68.074],[-34.305,67.619],[-34.775,67.163],[-35.228,66.705],[-35.665,66.247],[-36.086,65.787],[-36.492,65.326],[-36.885,64.864],[-37.264,64.401],[-37.63,63.937],[-37.984,63.472],[-38.327,63.006],[-38.66,62.539],[-38.982,62.072],[-39.294,61.604],[-39.597,61.135],[-39.891,60.666],[-40.177,60.196],[-40.454,59.725],[-40.724,59.254],[-40.987,58.782],[-41.242,58.31],[-41.491,57.837],[-41.733,57.364],[-41.969,56.89],[-42.199,56.416],[-42.424,55.942],[-42.643,55.467],[-42.857,54.992],[-43.066,54.516],[-43.903,54.62],[-44.744,54.718],[-45.59,54.81],[-46.439,54.897],[-47.292,54.977],[-48.148,55.052],[-49.007,55.12],[-49.869,55.182],[-50.733,55.239],[-51.6,55.289],[-52.469,55.333],[-53.339,55.371],[-54.211,55.402],[-55.085,55.428],[-55.959,55.447],[-56.834,55.46],[-57.71,55.466],[-58.585,55.467],[-59.461,55.461],[-60.336,55.449],[-61.211,55.431],[-62.084,55.406],[-62.956,55.376],[-63.827,55.339],[-64.696,55.295],[-65.563,55.246],[-66.428,55.191],[-67.29,55.129],[-68.15,55.062],[-69.006,54.988],[-69.859,54.909],[-70.709,54.823],[-71.555,54.732],[-72.397,54.634],[-73.235,54.531],[-74.069,54.422],[-74.898,54.308],[-75.722,54.187],[-76.541,54.062],[-77.356,53.93],[-78.165,53.793],[-77.916,53.325],[-77.672,52.857],[-77.434,52.388],[-77.201,51.919],[-76.972,51.449],[-76.748,50.979],[-76.529,50.509],[-76.314,50.038],[-76.103,49.566],[-75.896,49.094],[-75.693,48.622],[-75.494,48.15],[-75.299,47.677],[-75.107,47.204],[-74.918,46.73],[-74.733,46.257],[-74.551,45.783],[-74.372,45.308],[-74.196,44.834],[-74.022,44.359],[-73.852,43.884]]}},{"type":"Feature","properties":{"boundary_type":"transform","feature_type":"gpml:Transform","polarity":null,"overriding_plate_id":null,"subducting_plate_id":null,"plate_ids":[101,6024],"name":""},"geometry":{"type":"LineString","coordinates":[[-124.287,55.205],[-123.45,55.195],[-122.613,55.178],[-121.778,55.157],[-120.943,55.129],[-120.11,55.096],[-119.279,55.057],[-118.449,55.012],[-117.621,54.962],[-116.795,54.906],[-115.971,54.845],[-115.15,54.778],[-114.332,54.705],[-113.517,54.627],[-112.706,54.544],[-111.897,54.455],[-111.093,54.361],[-110.292,54.262],[-109.495,54.157],[-108.702,54.047],[-107.913,53.931],[-107.129,53.811]]}}]}