{"type":"FeatureCollection","meta":{"model":"Cao2024","reconstruction_time_ma":265.0,"anchor_plate_id":0,"pygplates_version":"1.0.0","tessellate_degrees":0.5,"polarity_convention":"gpml:subductionPolarity. 'Left'/'Right' names the side of the line, in vertex order, on which the OVERRIDING plate lies. Triangles are drawn on that side.","antimeridian":"Lines are NOT split at +/-180 deg. The renderer works in 3D unit vectors where the dateline is not special; splitting would only add spurious breaks. Do not treat this as RFC 7946 GIS-ready 2D data."},"features":[{"type":"Feature","properties":{"boundary_type":"subduction","feature_type":"gpml:SubductionZone","polarity":"Right","overriding_plate_id":null,"subducting_plate_id":null,"plate_ids":[505],"name":"Paleotethys Sub."},"geometry":{"type":"LineString","coordinates":[[36.785,11.098],[37.159,10.818],[37.533,10.538],[37.905,10.256],[38.277,9.975],[38.649,9.693],[39.119,9.52],[39.588,9.347],[40.056,9.173],[40.525,8.998],[40.992,8.823],[41.46,8.647],[41.91,8.492],[42.359,8.336],[42.808,8.179],[43.257,8.022],[43.705,7.865],[44.154,7.707],[44.601,7.549],[45.049,7.39],[45.496,7.231],[45.927,7.097],[46.357,6.962],[46.787,6.828],[47.217,6.693],[47.647,6.557],[48.076,6.421],[48.505,6.285],[48.934,6.148],[49.426,6.117],[49.917,6.084],[50.408,6.052],[50.899,6.018],[51.39,5.985],[51.881,5.951],[52.372,5.916],[52.862,5.881],[53.353,5.846],[53.844,5.81]]}},{"type":"Feature","properties":{"boundary_type":"subduction","feature_type":"gpml:SubductionZone","polarity":"Left","overriding_plate_id":701,"subducting_plate_id":902,"plate_ids":[701,902],"name":"Mixteca-Oaxacan subduction zone"},"geometry":{"type":"LineString","coordinates":[[-41.187,12.367],[-41.12,11.878],[-41.052,11.39],[-40.985,10.902],[-40.918,10.414],[-40.851,9.925],[-40.785,9.437],[-40.718,8.949],[-40.73,8.463],[-40.742,7.977],[-40.754,7.491],[-40.766,7.005],[-40.777,6.52],[-40.789,6.034],[-40.801,5.548],[-40.812,5.062],[-40.824,4.576],[-40.836,4.09],[-40.847,3.605],[-40.859,3.119],[-40.871,2.633],[-40.882,2.147],[-41.113,1.745],[-41.343,1.342],[-41.574,0.939],[-41.804,0.537],[-42.035,0.134],[-42.265,-0.269],[-42.495,-0.671],[-42.726,-1.074],[-42.956,-1.476],[-43.187,-1.879],[-43.418,-2.282],[-43.648,-2.684],[-43.879,-3.087],[-44.102,-3.456],[-44.325,-3.825],[-44.549,-4.194],[-44.772,-4.563],[-44.996,-4.932],[-45.22,-5.301],[-45.445,-5.67],[-45.705,-6.018],[-45.965,-6.366],[-46.226,-6.713],[-46.488,-7.061],[-46.749,-7.408],[-47.012,-7.755],[-47.274,-8.102]]}},{"type":"Feature","properties":{"boundary_type":"subduction","feature_type":"gpml:SubductionZone","polarity":"Right","overriding_plate_id":16111,"subducting_plate_id":902,"plate_ids":[902,16111],"name":"Alexander/Wrangellia SZ"},"geometry":{"type":"LineString","coordinates":[[-81.902,28.42],[-82.398,28.581],[-82.896,28.74],[-83.395,28.897],[-83.896,29.052],[-84.398,29.205],[-84.902,29.357],[-85.407,29.506],[-85.913,29.654],[-86.426,29.808],[-86.939,29.96],[-87.454,30.109],[-87.971,30.257],[-88.49,30.403],[-89.009,30.547],[-89.531,30.688],[-90.054,30.828],[-90.578,30.965],[-91.104,31.101],[-91.632,31.234],[-92.161,31.365],[-92.673,31.546],[-93.187,31.725],[-93.703,31.902],[-94.22,32.077],[-94.74,32.25],[-95.262,32.421],[-95.786,32.589],[-96.312,32.756],[-96.84,32.92],[-97.369,33.082],[-97.82,33.38],[-98.273,33.678],[-98.729,33.973],[-99.189,34.267],[-99.652,34.559],[-100.118,34.85],[-100.53,35.103],[-100.945,35.356],[-101.363,35.607],[-101.783,35.856],[-102.187,36.167],[-102.594,36.477],[-103.004,36.785],[-103.417,37.092],[-103.834,37.398],[-103.979,37.865],[-104.126,38.332],[-104.275,38.799],[-104.426,39.266],[-104.579,39.733],[-104.734,40.199],[-104.891,40.665],[-105.05,41.131],[-105.212,41.597],[-105.376,42.062],[-105.36,42.547],[-105.344,43.032],[-105.328,43.517],[-105.311,44.002],[-105.295,44.488],[-105.278,44.973],[-105.26,45.458],[-105.138,45.934],[-105.014,46.411],[-104.887,46.887],[-104.759,47.363],[-104.627,47.839],[-104.494,48.315],[-104.358,48.79],[-104.219,49.266],[-104.078,49.741],[-103.934,50.216],[-103.787,50.691],[-103.637,51.166],[-103.484,51.641],[-103.327,52.115],[-103.168,52.589]]}},{"type":"Feature","properties":{"boundary_type":"subduction","feature_type":"gpml:SubductionZone","polarity":"Left","overriding_plate_id":701,"subducting_plate_id":902,"plate_ids":[701,902],"name":"West Gondwana (Panthalassa) subduction zone"},"geometry":{"type":"LineString","coordinates":[[-47.274,-8.102],[-47.291,-8.578],[-47.308,-9.054],[-47.325,-9.53],[-47.342,-10.006],[-47.359,-10.482],[-47.377,-10.958],[-47.394,-11.434],[-47.411,-11.91],[-47.429,-12.386],[-47.446,-12.862],[-47.464,-13.338],[-47.481,-13.814],[-47.499,-14.29],[-47.517,-14.766],[-47.5,-15.253],[-47.484,-15.741],[-47.467,-16.228],[-47.451,-16.715],[-47.434,-17.202],[-47.418,-17.689],[-47.401,-18.177],[-47.384,-18.664],[-47.367,-19.151],[-47.35,-19.638],[-47.333,-20.125],[-47.315,-20.612],[-47.298,-21.1],[-47.281,-21.587],[-47.163,-22.033],[-47.044,-22.478],[-46.925,-22.924],[-46.805,-23.369],[-46.684,-23.815],[-46.563,-24.26],[-46.44,-24.706],[-46.317,-25.151],[-46.192,-25.596],[-46.067,-26.041],[-45.941,-26.486],[-46.023,-26.946],[-46.105,-27.406],[-46.189,-27.867],[-46.273,-28.327],[-46.357,-28.787],[-46.443,-29.248],[-46.529,-29.708],[-46.616,-30.168],[-46.704,-30.628],[-46.792,-31.088],[-46.882,-31.548],[-46.972,-32.008],[-47.087,-32.435],[-47.202,-32.862],[-47.319,-33.289]]}},{"type":"Feature","properties":{"boundary_type":"subduction","feature_type":"gpml:SubductionZone","polarity":"Left","overriding_plate_id":701,"subducting_plate_id":919,"plate_ids":[701,919],"name":"West Gondwana (Panthalassa) subduction zone"},"geometry":{"type":"LineString","coordinates":[[-47.319,-33.289],[-47.449,-33.757],[-47.579,-34.225],[-47.712,-34.693],[-47.845,-35.161],[-47.981,-35.629],[-48.118,-36.096],[-48.256,-36.564],[-48.396,-37.031],[-48.538,-37.498],[-48.682,-37.965],[-49.002,-38.375],[-49.326,-38.784],[-49.653,-39.193],[-49.984,-39.6],[-50.319,-40.006],[-50.658,-40.412],[-51.001,-40.816],[-51.349,-41.22],[-51.7,-41.622],[-52.056,-42.023],[-52.417,-42.424],[-52.782,-42.823],[-53.152,-43.221],[-53.534,-43.617],[-53.92,-44.013],[-54.312,-44.407],[-54.709,-44.8],[-55.111,-45.191],[-55.519,-45.581],[-55.933,-45.97],[-56.353,-46.357],[-56.778,-46.742],[-57.21,-47.126],[-57.648,-47.509],[-58.092,-47.889],[-58.543,-48.268],[-58.915,-48.697],[-59.294,-49.125],[-59.68,-49.551],[-60.072,-49.976],[-60.472,-50.4],[-60.878,-50.822],[-61.292,-51.243],[-61.714,-51.663],[-62.144,-52.081],[-62.581,-52.497],[-63.027,-52.912],[-63.199,-53.379],[-63.375,-53.845],[-63.555,-54.312],[-63.739,-54.778],[-63.927,-55.244],[-64.119,-55.71],[-64.317,-56.175],[-64.519,-56.64],[-64.726,-57.105],[-64.938,-57.569],[-65.156,-58.033],[-65.38,-58.497],[-65.51,-58.949],[-65.644,-59.401],[-65.782,-59.853],[-65.923,-60.305],[-66.068,-60.757],[-66.218,-61.209],[-66.372,-61.66],[-66.53,-62.111],[-66.693,-62.562],[-66.861,-63.013],[-67.035,-63.464],[-67.317,-63.903],[-67.609,-64.341],[-67.91,-64.778],[-68.221,-65.215],[-68.543,-65.652],[-68.875,-66.087],[-69.219,-66.522],[-69.575,-66.956],[-69.944,-67.389],[-70.327,-67.822],[-71.026,-68.211],[-71.748,-68.597],[-72.496,-68.98],[-73.27,-69.36],[-74.072,-69.736],[-74.903,-70.108],[-75.764,-70.477],[-76.657,-70.841]]}},{"type":"Feature","properties":{"boundary_type":"subduction","feature_type":"gpml:SubductionZone","polarity":"Right","overriding_plate_id":701,"subducting_plate_id":919,"plate_ids":[701,919],"name":"SZ outboard of Zealandia"},"geometry":{"type":"LineString","coordinates":[[-143.599,-73.542],[-141.948,-73.419],[-140.321,-73.284],[-138.633,-73.256],[-136.953,-73.214],[-135.282,-73.159],[-133.623,-73.091],[-131.978,-73.009],[-130.349,-72.914],[-128.739,-72.807],[-127.186,-72.806],[-125.633,-72.793],[-124.084,-72.769],[-122.54,-72.733],[-121.004,-72.684],[-119.476,-72.625],[-117.937,-72.597],[-116.403,-72.557],[-114.877,-72.506],[-113.36,-72.443],[-111.855,-72.369],[-110.363,-72.283],[-108.886,-72.187],[-107.425,-72.079],[-105.982,-71.96],[-104.42,-72.016],[-102.849,-72.059],[-101.272,-72.09],[-99.691,-72.108],[-98.108,-72.113],[-96.525,-72.105],[-94.944,-72.084],[-93.369,-72.051],[-91.799,-72.005],[-90.239,-71.947],[-88.69,-71.876],[-87.153,-71.792],[-85.63,-71.697],[-84.124,-71.59],[-82.636,-71.471],[-81.166,-71.34],[-79.718,-71.198],[-78.291,-71.045],[-76.887,-70.882],[-76.657,-70.841]]}},{"type":"Feature","properties":{"boundary_type":"subduction","feature_type":"gpml:SubductionZone","polarity":"Right","overriding_plate_id":902,"subducting_plate_id":16111,"plate_ids":[902,16111],"name":"YTT SZ to close Slide Mountain Ocean"},"geometry":{"type":"LineString","coordinates":[[-68.27,43.948],[-67.782,43.695],[-67.289,43.403],[-66.801,43.109],[-66.318,42.813],[-65.84,42.515],[-65.366,42.215],[-64.897,41.913]]}},{"type":"Feature","properties":{"boundary_type":"subduction","feature_type":"gpml:SubductionZone","polarity":"Right","overriding_plate_id":902,"subducting_plate_id":701,"plate_ids":[701,902],"name":"YTT SZ to close Slide Mountain Ocean"},"geometry":{"type":"LineString","coordinates":[[-64.897,41.913],[-64.55,41.686],[-64.205,41.458],[-63.862,41.23],[-63.38,40.902],[-62.902,40.573],[-62.429,40.242],[-61.961,39.909],[-61.497,39.574],[-61.037,39.237],[-60.582,38.898],[-60.132,38.558],[-59.791,38.185],[-59.453,37.81],[-59.119,37.435],[-58.788,37.059],[-58.46,36.682],[-58.136,36.304],[-57.814,35.925],[-57.496,35.545],[-57.133,35.145],[-56.773,34.743],[-56.418,34.341],[-56.065,33.937],[-55.716,33.533],[-55.37,33.127],[-55.027,32.721],[-54.687,32.313],[-54.351,31.905],[-54.067,31.538],[-53.787,31.171],[-53.508,30.803],[-53.231,30.435],[-52.957,30.065],[-52.685,29.696],[-52.46,29.261],[-52.237,28.826],[-52.016,28.391],[-51.797,27.955],[-51.58,27.519]]}},{"type":"Feature","properties":{"boundary_type":"subduction","feature_type":"gpml:SubductionZone","polarity":"Right","overriding_plate_id":902,"subducting_plate_id":701,"plate_ids":[701,902],"name":"SZ south of Yukon-Tanana"},"geometry":{"type":"LineString","coordinates":[[-51.58,27.519],[-51.675,27.324],[-51.924,27.101]]}},{"type":"Feature","properties":{"boundary_type":"subduction","feature_type":"gpml:SubductionZone","polarity":"Right","overriding_plate_id":902,"subducting_plate_id":701,"plate_ids":[701,902],"name":"East Klamath SZ, closure of Slide Mountain Ocean"},"geometry":{"type":"LineString","coordinates":[[-51.924,27.101],[-51.5,26.908],[-51.078,26.712],[-50.658,26.516],[-50.238,26.319],[-49.911,25.994],[-49.586,25.668],[-49.263,25.342],[-48.941,25.015],[-48.651,24.671],[-48.362,24.326],[-48.074,23.98],[-47.788,23.635],[-47.504,23.288],[-47.221,22.941],[-46.894,22.586],[-46.569,22.23],[-46.245,21.874],[-45.923,21.517],[-45.602,21.159],[-45.283,20.801],[-45.079,20.415],[-44.876,20.028],[-44.674,19.642],[-44.472,19.255],[-44.272,18.867],[-44.073,18.48],[-43.874,18.092],[-43.709,17.76]]}},{"type":"Feature","properties":{"boundary_type":"transform","feature_type":"gpml:Transform","polarity":null,"overriding_plate_id":null,"subducting_plate_id":null,"plate_ids":[701,902],"name":"East Klamath transform"},"geometry":{"type":"LineString","coordinates":[[-41.51,16.887],[-41.949,17.064],[-42.387,17.239],[-42.827,17.414],[-43.268,17.588],[-43.709,17.76]]}},{"type":"Feature","properties":{"boundary_type":"subduction","feature_type":"gpml:SubductionZone","polarity":"Right","overriding_plate_id":701,"subducting_plate_id":919,"plate_ids":[701,919],"name":"SZ along eastern Gondwanaland"},"geometry":{"type":"LineString","coordinates":[[145.606,-40.166],[146.08,-40.43],[146.558,-40.691],[147.04,-40.951],[147.526,-41.208],[148.012,-41.504],[148.503,-41.798],[148.999,-42.09],[149.499,-42.379],[150.004,-42.666],[150.514,-42.951],[151.025,-43.256],[151.541,-43.559],[152.063,-43.859],[152.59,-44.157],[153.122,-44.452],[153.66,-44.745],[154.203,-45.036],[154.752,-45.323],[155.306,-45.608],[155.865,-45.891],[156.431,-46.171],[157.002,-46.447],[157.579,-46.721],[158.162,-46.992],[158.751,-47.26],[159.346,-47.525],[159.947,-47.787],[160.46,-48.133],[160.98,-48.477],[161.507,-48.818],[162.042,-49.157],[162.584,-49.494],[163.133,-49.828],[163.69,-50.159],[164.254,-50.487],[164.565,-50.93],[164.881,-51.371],[165.203,-51.812],[165.532,-52.252],[165.868,-52.69],[166.21,-53.128],[166.559,-53.565],[166.916,-54.001],[167.28,-54.436],[167.652,-54.869],[168.031,-55.302],[168.42,-55.733],[168.817,-56.163],[169.223,-56.592],[169.638,-57.019],[170.063,-57.445],[170.491,-57.875],[170.93,-58.303],[171.379,-58.73],[171.839,-59.155],[172.311,-59.579],[172.795,-60.001],[173.292,-60.421],[173.801,-60.839],[174.324,-61.255],[174.861,-61.669],[175.413,-62.081],[175.89,-62.497],[176.381,-62.91],[176.885,-63.322],[177.404,-63.732],[177.939,-64.14],[178.489,-64.546],[179.056,-64.95],[179.641,-65.352],[-179.757,-65.752],[-179.136,-66.149],[-178.495,-66.543],[-177.833,-66.935],[-177.15,-67.324],[-176.444,-67.71],[-175.465,-68.047],[-174.457,-68.378],[-173.42,-68.702],[-172.352,-69.021],[-171.253,-69.332],[-170.122,-69.636],[-168.959,-69.933],[-167.763,-70.222],[-166.534,-70.503],[-165.27,-70.775],[-163.972,-71.039],[-162.64,-71.293],[-161.272,-71.537],[-159.871,-71.771],[-158.434,-71.995],[-156.964,-72.208],[-155.46,-72.41],[-153.923,-72.6],[-152.355,-72.779],[-150.755,-72.944],[-149.127,-73.098],[-147.772,-73.222],[-146.399,-73.338],[-145.008,-73.444],[-143.599,-73.542]]}},{"type":"Feature","properties":{"boundary_type":"transform","feature_type":"gpml:Transform","polarity":null,"overriding_plate_id":null,"subducting_plate_id":null,"plate_ids":[701,926],"name":"transform northeast of Australia"},"geometry":{"type":"LineString","coordinates":[[127.438,-28.202],[127.837,-28.516],[128.237,-28.83],[128.641,-29.142],[129.046,-29.453],[129.455,-29.762],[129.866,-30.071],[130.279,-30.378],[130.695,-30.683],[131.113,-30.988],[131.535,-31.291],[131.959,-31.593],[132.391,-31.892],[132.826,-32.191],[133.264,-32.487],[133.705,-32.782],[134.149,-33.076],[134.596,-33.368],[135.045,-33.658],[135.498,-33.947],[135.954,-34.234],[136.413,-34.52],[136.875,-34.803],[137.341,-35.085],[137.809,-35.365],[138.281,-35.644],[138.756,-35.92],[139.235,-36.195]]}},{"type":"Feature","properties":{"boundary_type":"transform","feature_type":"gpml:Transform","polarity":null,"overriding_plate_id":null,"subducting_plate_id":null,"plate_ids":[701,919],"name":"transform northeast of Australia"},"geometry":{"type":"LineString","coordinates":[[139.235,-36.195],[139.472,-36.33],[139.921,-36.636],[140.374,-36.94],[140.831,-37.243],[141.291,-37.544],[141.755,-37.843],[142.223,-38.14],[142.694,-38.435],[143.169,-38.729],[143.649,-39.02],[144.132,-39.31],[144.619,-39.598],[145.11,-39.883],[145.606,-40.166]]}},{"type":"Feature","properties":{"boundary_type":"subduction","feature_type":"gpml:SubductionZone","polarity":"Left","overriding_plate_id":701,"subducting_plate_id":9009,"plate_ids":[701,9009],"name":"Mongol-Okhotsk subducting beneath Siberia"},"geometry":{"type":"LineString","coordinates":[[83.317,71.446],[83.267,71.922],[83.214,72.399],[83.158,72.875],[83.099,73.352],[83.037,73.828],[82.971,74.304],[82.901,74.78],[82.827,75.257],[82.748,75.733],[82.661,76.219],[82.569,76.704],[82.47,77.19],[82.363,77.675],[82.248,78.161],[82.122,78.646],[81.986,79.131],[81.837,79.617],[81.674,80.102],[81.494,80.587],[81.295,81.072],[81.073,81.557],[80.825,82.041],[80.544,82.526],[80.224,83.01],[79.862,83.487],[79.443,83.962],[78.952,84.438],[78.37,84.913],[77.668,85.387],[76.807,85.861],[75.723,86.333],[74.32,86.804],[72.434,87.272],[69.772,87.736],[65.754,88.193],[59.083,88.634],[46.443,89.041],[27.356,89.195]]}},{"type":"Feature","properties":{"boundary_type":"subduction","feature_type":"gpml:SubductionZone","polarity":"Left","overriding_plate_id":701,"subducting_plate_id":902,"plate_ids":[701,902],"name":"Mongol-Okhotsk subducting beneath Siberia"},"geometry":{"type":"LineString","coordinates":[[27.356,89.195],[-6.303,89.204],[-32.141,88.976],[-46.744,88.624],[-55.084,88.22],[-60.272,87.793],[-63.759,87.353],[-66.246,86.907],[-68.104,86.456],[-69.542,86.002],[-70.687,85.546],[-71.619,85.089],[-72.392,84.63],[-72.361,84.139],[-72.335,83.647],[-72.313,83.155],[-72.293,82.663],[-72.277,82.171],[-72.262,81.68],[-72.248,81.188],[-72.236,80.696],[-72.226,80.204],[-72.216,79.712],[-71.649,79.313],[-71.123,78.912],[-70.634,78.51],[-70.177,78.108],[-69.749,77.705],[-68.658,77.284],[-67.637,76.858],[-66.678,76.428],[-65.778,75.996],[-64.931,75.559],[-64.132,75.121],[-63.379,74.679],[-62.666,74.235],[-61.992,73.789],[-61.354,73.341]]}},{"type":"Feature","properties":{"boundary_type":"subduction","feature_type":"gpml:SubductionZone","polarity":"Left","overriding_plate_id":701,"subducting_plate_id":16111,"plate_ids":[701,16111],"name":"Mongol-Okhotsk subducting beneath Siberia"},"geometry":{"type":"LineString","coordinates":[[-61.354,73.341],[-60.76,72.9],[-60.195,72.458],[-59.658,72.015],[-58.822,71.665],[-58.017,71.312],[-57.241,70.956],[-56.493,70.596],[-55.77,70.234],[-55.073,69.869],[-54.4,69.501],[-53.765,69.142],[-53.15,68.781],[-52.555,68.418],[-51.979,68.053],[-51.421,67.685],[-50.88,67.316],[-50.165,66.965],[-49.47,66.611],[-48.795,66.254],[-48.138,65.894],[-47.5,65.531],[-46.88,65.165],[-46.277,64.797],[-45.689,64.427],[-45.087,64.01],[-44.502,63.591],[-43.934,63.17],[-43.382,62.746],[-42.846,62.32],[-42.325,61.893],[-41.818,61.463],[-41.326,61.031],[-40.846,60.598],[-40.379,60.163],[-39.925,59.727],[-39.482,59.289],[-39.115,58.859],[-38.757,58.429],[-38.408,57.998],[-38.068,57.566],[-37.735,57.133],[-37.523,56.907],[-37.313,56.68]]}},{"type":"Feature","properties":{"boundary_type":"transform","feature_type":"gpml:Transform","polarity":null,"overriding_plate_id":null,"subducting_plate_id":null,"plate_ids":[505,701],"name":"Central Asian transform"},"geometry":{"type":"LineString","coordinates":[[51.239,20.293],[51.609,20.625],[51.982,20.957],[52.356,21.287],[52.732,21.617],[53.109,21.946],[53.488,22.274],[53.869,22.601],[54.341,22.839],[54.815,23.075],[55.291,23.31],[55.768,23.544],[56.247,23.776],[56.727,24.007],[57.21,24.236],[57.694,24.464],[58.179,24.69],[58.667,24.914],[59.087,25.152],[59.509,25.389],[59.932,25.624],[60.357,25.858],[60.783,26.091],[61.212,26.322],[61.642,26.552],[62.074,26.781],[62.507,27.009],[62.916,27.276],[63.328,27.541],[63.741,27.806],[64.156,28.069],[64.574,28.331],[64.993,28.592],[65.415,28.851],[65.838,29.109],[66.264,29.366],[66.692,29.621],[67.067,29.967],[67.446,30.313],[67.827,30.657],[68.21,31.0],[68.597,31.342],[68.986,31.683],[69.378,32.023],[69.773,32.361],[70.171,32.698],[70.572,33.034],[70.976,33.369],[71.305,33.743],[71.637,34.116],[71.971,34.488],[72.309,34.859],[72.65,35.229],[72.994,35.598],[73.341,35.966],[73.691,36.333],[74.045,36.7],[74.402,37.065],[74.539,37.405],[74.677,37.745]]}},{"type":"Feature","properties":{"boundary_type":"transform","feature_type":"gpml:Transform","polarity":null,"overriding_plate_id":null,"subducting_plate_id":null,"plate_ids":[505],"name":"Central Asian transform"},"geometry":{"type":"LineString","coordinates":[[74.677,37.745],[74.783,38.005]]}},{"type":"Feature","properties":{"boundary_type":"subduction","feature_type":"gpml:SubductionZone","polarity":"Right","overriding_plate_id":701,"subducting_plate_id":902,"plate_ids":[701,902],"name":"SZ south of East Klamath"},"geometry":{"type":"LineString","coordinates":[[-41.187,12.367],[-41.418,12.656],[-41.648,12.945],[-41.64,13.391],[-41.631,13.836],[-41.623,14.282],[-41.614,14.727],[-41.606,15.173],[-41.597,15.618],[-41.588,16.064],[-41.55,16.475],[-41.51,16.887]]}},{"type":"Feature","properties":{"boundary_type":"transform","feature_type":"gpml:Transform","polarity":null,"overriding_plate_id":null,"subducting_plate_id":null,"plate_ids":[902,16111],"name":"Alexander-Farallon transform"},"geometry":{"type":"LineString","coordinates":[[-81.902,28.42],[-81.639,28.821],[-81.374,29.221],[-81.107,29.621],[-80.838,30.02],[-80.566,30.418],[-80.293,30.816],[-80.017,31.214],[-79.738,31.61],[-79.468,32.008],[-79.194,32.406],[-78.919,32.803],[-78.64,33.199],[-78.36,33.594],[-78.076,33.989],[-77.79,34.384],[-77.502,34.777],[-77.21,35.17],[-76.916,35.562],[-76.619,35.954],[-76.383,36.349],[-76.144,36.745],[-75.902,37.139],[-75.658,37.533],[-75.412,37.927],[-75.163,38.32],[-74.911,38.712],[-74.5,39.035],[-74.085,39.356],[-73.666,39.676],[-73.244,39.994],[-72.818,40.311],[-72.387,40.626],[-71.953,40.939],[-71.514,41.251],[-71.071,41.561],[-70.684,41.906],[-70.293,42.25],[-69.897,42.593],[-69.497,42.934],[-69.092,43.273],[-68.683,43.612],[-68.27,43.948]]}},{"type":"Feature","properties":{"boundary_type":"transform","feature_type":"gpml:Transform","polarity":null,"overriding_plate_id":null,"subducting_plate_id":null,"plate_ids":[505,701],"name":"Transform Gondwana to Tethys"},"geometry":{"type":"LineString","coordinates":[[33.023,10.226],[33.456,10.329],[33.89,10.432],[34.324,10.533],[34.758,10.635],[35.193,10.735],[35.628,10.835],[36.063,10.935],[36.498,11.034]]}},{"type":"Feature","properties":{"boundary_type":"transform","feature_type":"gpml:Transform","polarity":null,"overriding_plate_id":null,"subducting_plate_id":null,"plate_ids":[505],"name":"Transform Gondwana to Tethys"},"geometry":{"type":"LineString","coordinates":[[36.498,11.034],[36.785,11.098]]}},{"type":"Feature","properties":{"boundary_type":"transform","feature_type":"gpml:Transform","polarity":null,"overriding_plate_id":null,"subducting_plate_id":null,"plate_ids":[505,701],"name":""},"geometry":{"type":"LineString","coordinates":[[51.239,20.293],[51.335,19.807],[51.43,19.321],[51.525,18.835],[51.619,18.349],[51.712,17.863],[51.806,17.377],[51.898,16.891],[51.99,16.405],[52.082,15.918],[52.173,15.432],[52.264,14.946],[52.355,14.459],[52.445,13.973],[52.534,13.486],[52.624,13.0],[52.713,12.513],[52.801,12.027],[52.89,11.54],[52.978,11.054],[53.065,10.567],[53.153,10.08],[53.24,9.594],[53.327,9.107],[53.413,8.62],[53.5,8.134],[53.586,7.647],[53.651,7.188],[53.715,6.729],[53.78,6.269],[53.844,5.81]]}},{"type":"Feature","properties":{"boundary_type":"transform","feature_type":"gpml:Transform","polarity":null,"overriding_plate_id":null,"subducting_plate_id":null,"plate_ids":[505,701],"name":"Sibumasu-PNG transform"},"geometry":{"type":"LineString","coordinates":[[124.474,-35.269],[124.467,-34.867],[124.459,-34.464],[124.452,-34.062],[124.425,-33.589],[124.399,-33.116],[124.373,-32.643],[124.348,-32.17],[124.323,-31.697],[124.298,-31.224],[124.273,-30.751],[124.248,-30.278]]}},{"type":"Feature","properties":{"boundary_type":"ridge","feature_type":"gpml:MidOceanRidge","polarity":null,"overriding_plate_id":null,"subducting_plate_id":null,"plate_ids":[505,701],"name":"Vardar ocean ridge"},"geometry":{"type":"LineString","coordinates":[[33.023,10.226],[33.243,9.797],[33.463,9.367],[33.682,8.938],[33.901,8.508],[34.119,8.078],[34.337,7.648],[34.554,7.218],[34.771,6.787],[34.987,6.357],[35.203,5.927],[35.419,5.496],[35.635,5.065],[35.85,4.635],[36.065,4.204],[36.279,3.773],[36.494,3.342],[36.841,3.501],[37.188,3.66],[37.535,3.819],[37.75,3.457],[37.964,3.094],[38.178,2.732],[38.392,2.369],[38.606,2.006],[38.82,1.644],[39.256,1.838],[39.692,2.031],[40.128,2.225],[40.343,1.781],[40.558,1.337],[40.772,0.893],[40.987,0.449],[41.201,0.004],[41.416,-0.44],[41.63,-0.884],[41.845,-1.328],[42.06,-1.772],[42.291,-2.2],[42.523,-2.628],[42.755,-3.056],[42.987,-3.483],[43.219,-3.911],[43.452,-4.338],[43.684,-4.766],[43.917,-5.193],[44.151,-5.62],[44.385,-6.048],[43.951,-6.224],[43.516,-6.4],[43.082,-6.576],[42.647,-6.751],[42.212,-6.926],[41.777,-7.1],[41.341,-7.275],[40.905,-7.448]]}},{"type":"Feature","properties":{"boundary_type":"ridge","feature_type":"gpml:MidOceanRidge","polarity":null,"overriding_plate_id":null,"subducting_plate_id":null,"plate_ids":[505,701],"name":"Iran and Afghanistan (Cimmerian Terranes)-Arabia MOR"},"geometry":{"type":"LineString","coordinates":[[40.905,-7.448],[41.321,-7.726],[41.737,-8.003],[42.154,-8.28],[42.572,-8.557],[42.921,-8.854],[43.27,-9.152],[43.62,-9.449],[43.97,-9.745],[44.321,-10.041],[44.673,-10.337],[45.025,-10.633],[45.378,-10.928],[45.732,-11.223],[46.086,-11.517],[46.415,-11.789],[46.745,-12.061],[47.076,-12.333],[47.407,-12.604],[47.739,-12.875],[48.072,-13.146],[47.896,-13.47],[47.719,-13.794],[47.542,-14.118],[47.901,-14.416],[48.26,-14.712],[48.621,-15.008],[48.982,-15.304],[49.344,-15.599],[49.708,-15.893],[50.072,-16.186],[50.438,-16.479],[50.805,-16.772],[51.173,-17.064],[51.542,-17.355],[51.29,-17.722],[51.038,-18.089],[50.784,-18.456],[50.53,-18.822],[50.274,-19.188],[50.017,-19.554],[50.417,-19.858],[50.818,-20.16],[51.221,-20.462],[51.626,-20.763],[52.032,-21.063],[52.439,-21.362],[52.849,-21.66],[53.26,-21.957],[53.673,-22.254],[53.978,-22.471],[54.284,-22.688],[54.047,-23.02],[53.808,-23.351],[53.568,-23.682],[53.327,-24.013],[53.755,-24.322],[54.185,-24.629],[54.617,-24.935],[55.051,-25.24],[55.488,-25.544],[55.927,-25.846],[56.368,-26.147],[56.811,-26.447],[57.256,-26.745],[57.704,-27.042],[57.454,-27.432],[57.202,-27.822],[56.949,-28.211],[56.693,-28.6],[56.436,-28.988],[56.177,-29.376],[55.915,-29.763],[56.333,-30.038],[56.754,-30.312],[57.177,-30.584],[57.602,-30.855],[58.029,-31.124],[58.459,-31.392],[58.892,-31.659],[59.326,-31.924],[59.764,-32.188],[60.204,-32.45],[60.646,-32.71],[60.405,-33.081],[60.162,-33.45],[59.917,-33.819],[59.616,-34.227],[59.313,-34.634],[59.006,-35.04],[58.696,-35.445],[58.384,-35.85],[58.068,-36.253],[57.749,-36.656],[57.426,-37.058],[56.958,-36.854],[56.492,-36.648],[56.029,-36.44],[55.569,-36.23],[55.111,-36.018],[54.655,-35.805]]}},{"type":"Feature","properties":{"boundary_type":"ridge","feature_type":"gpml:MidOceanRidge","polarity":null,"overriding_plate_id":null,"subducting_plate_id":null,"plate_ids":[505,701],"name":"Lhasa and Qiangtang (Cimmerian Terranes)-India MOR"},"geometry":{"type":"LineString","coordinates":[[54.655,-35.805],[54.202,-35.59],[53.751,-35.373],[53.303,-35.154],[52.857,-34.934],[52.413,-34.713],[51.972,-34.489],[52.419,-34.792],[52.868,-35.093],[53.321,-35.393],[53.778,-35.691],[54.238,-35.987],[54.701,-36.281],[55.168,-36.574],[55.638,-36.864],[56.112,-37.153],[56.589,-37.44],[57.07,-37.725],[57.555,-38.008],[58.044,-38.289],[58.536,-38.568],[59.032,-38.845],[59.532,-39.119],[60.036,-39.392],[60.544,-39.662],[61.056,-39.93],[61.572,-40.196],[61.745,-39.976],[62.257,-40.274],[62.774,-40.57],[63.295,-40.863],[63.821,-41.154],[64.351,-41.443],[64.887,-41.729],[65.427,-42.012],[65.971,-42.293],[66.521,-42.572],[67.076,-42.848],[67.635,-43.121],[68.2,-43.391],[68.769,-43.659],[69.344,-43.923],[69.923,-44.185],[70.508,-44.444],[71.098,-44.7],[71.694,-44.952],[72.294,-45.202],[72.9,-45.448],[73.511,-45.691],[74.127,-45.931],[74.749,-46.168],[75.376,-46.401],[76.008,-46.631],[76.646,-46.857],[77.289,-47.08],[77.937,-47.299],[78.591,-47.514],[79.25,-47.726],[79.914,-47.933],[80.584,-48.137],[81.259,-48.337],[81.077,-48.636],[80.893,-48.935],[81.563,-49.138],[82.239,-49.338],[82.921,-49.533],[83.608,-49.725],[84.3,-49.912],[84.997,-50.095],[85.7,-50.274],[86.409,-50.449],[87.122,-50.619],[87.84,-50.785],[88.564,-50.947],[89.292,-51.104],[90.026,-51.256],[90.764,-51.404],[91.507,-51.547],[92.215,-51.666],[92.926,-51.781],[93.641,-51.892],[94.36,-51.998],[95.082,-52.1],[95.807,-52.198],[96.536,-52.291],[97.267,-52.379],[98.001,-52.463],[98.738,-52.543],[99.478,-52.618]]}},{"type":"Feature","properties":{"boundary_type":"ridge","feature_type":"gpml:MidOceanRidge","polarity":null,"overriding_plate_id":null,"subducting_plate_id":null,"plate_ids":[505,701],"name":"MesoTethys MOR (Sibumasu)"},"geometry":{"type":"LineString","coordinates":[[99.478,-52.618],[99.641,-52.133],[99.801,-51.648],[99.958,-51.164],[100.111,-50.679],[100.261,-50.193],[100.409,-49.708],[100.553,-49.222],[100.694,-48.736],[100.833,-48.25],[100.969,-47.764],[101.103,-47.278],[101.234,-46.791],[101.363,-46.305],[101.49,-45.818],[101.614,-45.331],[101.736,-44.844],[102.389,-44.858],[103.042,-44.869],[103.695,-44.876],[104.348,-44.879],[105.001,-44.878],[105.654,-44.874],[106.307,-44.865],[106.959,-44.854],[107.612,-44.838],[108.263,-44.819],[108.915,-44.796],[108.928,-44.317],[108.94,-43.837],[108.953,-43.358],[108.965,-42.879],[109.593,-42.822],[110.22,-42.762],[110.846,-42.698],[111.47,-42.63],[112.093,-42.56],[112.715,-42.486],[113.335,-42.408],[113.954,-42.328],[114.571,-42.244],[115.186,-42.156],[115.799,-42.066],[115.774,-41.613],[115.749,-41.161],[115.724,-40.708],[115.7,-40.256],[115.676,-39.804],[115.652,-39.351],[115.629,-38.899],[115.606,-38.446],[115.583,-37.994],[116.199,-37.947],[116.815,-37.897],[117.43,-37.844],[118.044,-37.788],[118.657,-37.729],[119.269,-37.666],[119.88,-37.6],[120.489,-37.531],[121.098,-37.459],[121.705,-37.384],[121.62,-36.988],[121.535,-36.591],[121.452,-36.195],[121.369,-35.799],[121.287,-35.402],[121.819,-35.386],[122.35,-35.367],[122.882,-35.346],[123.413,-35.323],[123.944,-35.297],[124.474,-35.269]]}},{"type":"Feature","properties":{"boundary_type":"transform","feature_type":"gpml:Transform","polarity":null,"overriding_plate_id":null,"subducting_plate_id":null,"plate_ids":[505,60301],"name":"Transform SE of Indochina"},"geometry":{"type":"LineString","coordinates":[[93.486,-18.127],[93.972,-18.051],[94.458,-17.974],[94.943,-17.895],[95.427,-17.816],[95.912,-17.735]]}},{"type":"Feature","properties":{"boundary_type":"transform","feature_type":"gpml:Transform","polarity":null,"overriding_plate_id":null,"subducting_plate_id":null,"plate_ids":[505,902009],"name":"Transform SE of Indochina"},"geometry":{"type":"LineString","coordinates":[[95.912,-17.735],[96.394,-17.653],[96.877,-17.57],[97.358,-17.486],[97.84,-17.4],[98.321,-17.314],[98.801,-17.226],[99.281,-17.137],[99.76,-17.047],[100.24,-16.956]]}},{"type":"Feature","properties":{"boundary_type":"transform","feature_type":"gpml:Transform","polarity":null,"overriding_plate_id":null,"subducting_plate_id":null,"plate_ids":[505,602],"name":"Transform SE of Indochina"},"geometry":{"type":"LineString","coordinates":[[100.24,-16.956],[100.704,-16.867],[101.168,-16.776],[101.631,-16.685],[102.094,-16.592],[102.556,-16.499],[103.018,-16.404],[103.48,-16.309],[103.941,-16.212],[104.402,-16.115],[104.91,-16.038],[105.417,-15.96],[105.924,-15.882],[106.431,-15.802],[106.937,-15.72],[107.443,-15.638],[107.948,-15.554],[108.453,-15.47],[108.957,-15.384],[109.462,-15.297],[109.965,-15.209],[110.468,-15.12],[110.971,-15.029],[111.474,-14.938],[111.976,-14.845],[112.477,-14.752],[112.978,-14.657],[113.479,-14.561],[113.979,-14.464],[114.479,-14.367],[114.978,-14.268],[115.477,-14.168],[115.976,-14.067],[116.474,-13.965],[116.918,-13.864],[117.362,-13.763],[117.805,-13.661],[118.248,-13.559],[118.69,-13.455],[119.132,-13.351],[119.574,-13.246]]}},{"type":"Feature","properties":{"boundary_type":"transform","feature_type":"gpml:Transform","polarity":null,"overriding_plate_id":null,"subducting_plate_id":null,"plate_ids":[505,926],"name":"Transform SE of Indochina"},"geometry":{"type":"LineString","coordinates":[[119.574,-13.246],[120.072,-13.127],[120.569,-13.006],[121.066,-12.885],[121.562,-12.763],[122.058,-12.64],[122.554,-12.516],[123.049,-12.391]]}},{"type":"Feature","properties":{"boundary_type":"subduction","feature_type":"gpml:SubductionZone","polarity":"Right","overriding_plate_id":null,"subducting_plate_id":null,"plate_ids":[701],"name":"Paleotethys SZ under Rhodope and Pontides"},"geometry":{"type":"LineString","coordinates":[[36.498,11.034],[36.881,10.811],[37.263,10.588],[37.644,10.365],[38.025,10.141],[38.405,9.917],[38.785,9.692],[39.232,9.519],[39.678,9.346],[40.124,9.172],[40.57,8.998],[41.015,8.823],[41.46,8.647],[41.91,8.492],[42.359,8.336],[42.808,8.179],[43.257,8.022],[43.705,7.865],[44.154,7.707],[44.601,7.549],[45.049,7.39],[45.496,7.231],[45.927,7.097],[46.357,6.962],[46.787,6.828],[47.217,6.693],[47.647,6.557],[48.076,6.421],[48.505,6.285],[48.934,6.148],[49.426,6.117],[49.917,6.084],[50.408,6.052],[50.899,6.018],[51.39,5.985],[51.881,5.951],[52.372,5.916],[52.862,5.881],[53.353,5.846],[53.844,5.81]]}},{"type":"Feature","properties":{"boundary_type":"subduction","feature_type":"gpml:SubductionZone","polarity":"Left","overriding_plate_id":16111,"subducting_plate_id":701,"plate_ids":[701,16111],"name":"northern extension Yukon-Tanana SZ, closure of Slide Mountain Ocean"},"geometry":{"type":"LineString","coordinates":[[-64.897,41.913],[-64.614,42.279],[-64.327,42.644],[-64.037,43.008],[-63.743,43.371],[-63.289,43.687],[-62.831,44.001],[-62.368,44.313],[-61.9,44.624],[-61.426,44.932],[-60.948,45.238],[-60.465,45.543],[-59.976,45.845],[-59.482,46.145],[-58.988,46.458],[-58.489,46.769],[-57.983,47.077],[-57.472,47.384],[-56.955,47.688],[-56.432,47.989],[-55.903,48.289],[-55.367,48.586],[-54.825,48.88],[-54.277,49.172],[-53.723,49.461],[-53.161,49.747],[-52.594,50.031],[-52.041,50.355],[-51.48,50.676],[-50.912,50.994],[-50.336,51.31],[-49.752,51.623],[-49.16,51.932],[-48.56,52.239],[-47.952,52.543],[-47.335,52.844],[-46.709,53.141],[-46.075,53.435],[-45.432,53.725],[-44.78,54.013],[-44.12,54.296],[-43.45,54.576],[-42.8,54.824],[-42.143,55.069],[-41.477,55.311],[-40.804,55.549],[-40.122,55.783],[-39.432,56.013],[-38.734,56.239],[-38.028,56.462],[-37.313,56.68]]}},{"type":"Feature","properties":{"boundary_type":"subduction","feature_type":"gpml:SubductionZone","polarity":"Right","overriding_plate_id":430,"subducting_plate_id":926,"plate_ids":[430,926],"name":""},"geometry":{"type":"LineString","coordinates":[[165.696,35.448],[165.101,35.52],[164.505,35.59],[163.908,35.656],[163.31,35.72],[162.759,35.781],[162.207,35.839],[161.654,35.895],[161.101,35.948],[160.546,35.999],[159.992,36.047],[159.436,36.093]]}},{"type":"Feature","properties":{"boundary_type":"subduction","feature_type":"gpml:SubductionZone","polarity":"Right","overriding_plate_id":430,"subducting_plate_id":9014,"plate_ids":[430,9014],"name":""},"geometry":{"type":"LineString","coordinates":[[159.436,36.093],[158.836,36.139],[158.235,36.183],[157.633,36.223],[157.031,36.261],[156.458,36.405],[155.883,36.547],[155.306,36.685],[154.727,36.822],[154.146,36.955],[153.562,37.085],[152.977,37.213],[152.39,37.337],[151.801,37.459],[151.21,37.578],[150.617,37.694],[150.006,37.782],[149.393,37.868],[148.778,37.95],[148.162,38.029],[147.545,38.104],[146.927,38.177],[146.307,38.246],[145.686,38.312],[145.065,38.375],[144.442,38.434],[143.818,38.49],[143.193,38.543]]}},{"type":"Feature","properties":{"boundary_type":"subduction","feature_type":"gpml:SubductionZone","polarity":"Right","overriding_plate_id":430,"subducting_plate_id":9010,"plate_ids":[430,9010],"name":"Mongol-Okhotsk subduction zone"},"geometry":{"type":"LineString","coordinates":[[110.701,52.924],[111.394,53.001],[112.088,53.074],[112.785,53.143],[113.535,53.077],[114.284,53.006],[115.029,52.931],[115.772,52.851],[116.513,52.767],[117.25,52.678],[117.984,52.584],[118.715,52.486],[119.443,52.383],[120.205,52.348],[120.967,52.307],[121.727,52.262],[122.485,52.211],[123.241,52.156],[123.996,52.096],[124.748,52.031],[125.498,51.962],[126.246,51.887],[126.991,51.808],[127.733,51.725],[128.492,51.718],[129.25,51.705],[130.007,51.689],[130.764,51.667],[131.52,51.64],[132.275,51.609],[133.029,51.572],[133.821,51.607],[134.615,51.636],[135.41,51.66],[136.205,51.678],[137.001,51.692],[137.797,51.699],[138.594,51.702],[139.39,51.699],[140.186,51.69],[140.982,51.676],[141.777,51.657],[142.572,51.633],[143.365,51.603],[144.158,51.567],[144.949,51.527],[145.738,51.481],[146.526,51.43],[147.319,51.38],[148.11,51.325],[148.899,51.264],[149.686,51.199],[150.471,51.128],[151.253,51.051],[152.032,50.97],[152.809,50.883],[153.583,50.792],[154.353,50.695],[155.12,50.593],[155.884,50.486],[156.645,50.374],[157.401,50.257],[158.154,50.136],[158.903,50.009],[159.595,49.896],[160.283,49.778],[160.968,49.656],[161.65,49.531],[162.328,49.401],[163.002,49.267],[163.673,49.13],[164.34,48.988],[165.003,48.843],[165.71,48.699],[166.414,48.551],[167.113,48.398],[167.807,48.241],[168.498,48.08],[169.184,47.915],[169.866,47.746],[170.543,47.572],[171.216,47.395],[171.884,47.214],[172.307,47.098],[172.728,46.981]]}},{"type":"Feature","properties":{"boundary_type":"transform","feature_type":"gpml:Transform","polarity":null,"overriding_plate_id":null,"subducting_plate_id":null,"plate_ids":[902,16111],"name":"Transform at northern margin of Alexander plate"},"geometry":{"type":"LineString","coordinates":[[-103.168,52.589],[-102.799,53.033],[-102.422,53.475],[-102.038,53.916],[-101.645,54.356],[-101.244,54.794],[-100.834,55.231],[-100.415,55.667],[-99.986,56.101],[-99.548,56.534],[-99.1,56.965],[-98.641,57.395],[-98.171,57.823],[-97.691,58.249],[-97.198,58.673],[-96.693,59.095],[-96.176,59.516],[-95.646,59.934],[-95.102,60.35],[-94.544,60.764],[-94.018,61.181],[-93.477,61.596],[-92.922,62.008],[-92.352,62.419],[-91.766,62.827],[-91.163,63.232],[-90.543,63.635],[-89.906,64.036],[-89.25,64.433],[-88.575,64.827],[-87.88,65.219],[-87.164,65.606],[-86.426,65.991],[-85.666,66.372],[-84.883,66.749],[-84.076,67.121],[-83.243,67.49],[-82.384,67.855],[-81.498,68.214],[-80.584,68.569],[-79.641,68.919],[-78.668,69.263],[-77.664,69.602],[-76.628,69.935],[-75.558,70.261],[-74.454,70.581],[-73.315,70.894],[-72.14,71.2],[-70.928,71.498],[-69.679,71.789],[-68.391,72.071],[-67.063,72.344],[-65.696,72.608],[-64.289,72.862],[-62.841,73.107],[-61.354,73.341]]}},{"type":"Feature","properties":{"boundary_type":"ridge","feature_type":"gpml:MidOceanRidge","polarity":null,"overriding_plate_id":null,"subducting_plate_id":null,"plate_ids":[919,926],"name":"Phoenix-Izanagi MOR"},"geometry":{"type":"LineString","coordinates":[[-128.362,-0.293],[-128.769,-0.564],[-129.177,-0.834],[-129.584,-1.105],[-129.991,-1.376],[-130.399,-1.647],[-130.806,-1.917],[-131.214,-2.188],[-131.622,-2.458],[-132.03,-2.729],[-132.438,-2.999],[-132.847,-3.269],[-133.255,-3.539],[-133.664,-3.808],[-134.073,-4.078],[-134.483,-4.347],[-134.892,-4.616],[-135.302,-4.885],[-135.713,-5.154],[-136.123,-5.422],[-136.535,-5.69],[-136.946,-5.958],[-137.358,-6.225],[-137.77,-6.492],[-138.183,-6.759],[-138.596,-7.025],[-139.01,-7.291],[-139.424,-7.557],[-139.838,-7.822],[-140.253,-8.087],[-140.669,-8.352],[-141.085,-8.616],[-141.502,-8.879],[-141.92,-9.143],[-142.338,-9.405],[-142.756,-9.667],[-143.176,-9.929],[-143.413,-9.53],[-143.65,-9.13],[-143.887,-8.73],[-144.123,-8.331],[-144.568,-8.559],[-145.014,-8.787],[-145.46,-9.014],[-145.907,-9.241],[-146.355,-9.467],[-146.803,-9.693],[-147.251,-9.918],[-147.701,-10.143],[-148.151,-10.367],[-148.601,-10.59],[-149.052,-10.813],[-149.504,-11.035],[-149.957,-11.256],[-150.41,-11.477],[-150.864,-11.697],[-151.319,-11.916],[-151.774,-12.134],[-152.23,-12.352],[-152.687,-12.569],[-153.145,-12.785],[-153.603,-13.001],[-154.063,-13.215],[-154.523,-13.429],[-154.984,-13.642],[-155.445,-13.854],[-155.908,-14.066],[-156.371,-14.276],[-156.836,-14.485],[-157.301,-14.694],[-157.767,-14.902],[-158.234,-15.108],[-158.701,-15.314],[-159.17,-15.519],[-159.64,-15.723],[-160.111,-15.925],[-160.582,-16.127],[-161.055,-16.328],[-161.528,-16.527],[-162.003,-16.726],[-162.478,-16.923],[-162.955,-17.12],[-163.432,-17.315],[-163.911,-17.509],[-164.39,-17.702],[-164.871,-17.894],[-165.352,-18.085],[-165.835,-18.274],[-166.095,-17.855],[-166.355,-17.436],[-166.613,-17.016],[-166.87,-16.596],[-167.126,-16.176],[-167.381,-15.755],[-167.634,-15.334],[-167.887,-14.913],[-168.313,-15.197],[-168.74,-15.48],[-169.168,-15.763],[-169.598,-16.044],[-170.029,-16.325],[-170.461,-16.605],[-170.894,-16.884],[-171.328,-17.162],[-171.764,-17.439],[-172.201,-17.715],[-172.64,-17.991],[-173.079,-18.265],[-173.521,-18.538],[-173.963,-18.81],[-174.407,-19.081],[-174.853,-19.352],[-175.3,-19.621],[-175.748,-19.888],[-176.198,-20.155],[-176.65,-20.421],[-177.103,-20.685],[-177.558,-20.949],[-178.014,-21.211],[-178.472,-21.471],[-178.931,-21.731],[-179.393,-21.989],[-179.855,-22.246],[179.68,-22.502],[179.214,-22.756],[178.746,-23.009],[178.276,-23.261],[177.804,-23.511],[177.331,-23.76],[176.856,-24.007],[176.379,-24.253],[175.9,-24.498],[175.42,-24.741],[174.937,-24.982],[174.453,-25.222],[173.966,-25.46],[173.478,-25.697],[172.988,-25.931],[172.496,-26.165],[172.001,-26.396],[171.505,-26.626],[171.007,-26.854],[170.507,-27.081],[170.005,-27.306],[169.501,-27.528],[168.995,-27.749],[168.486,-27.969],[167.976,-28.186],[167.464,-28.401],[166.949,-28.615],[166.433,-28.826],[165.914,-29.036],[165.394,-29.243],[164.871,-29.449],[164.346,-29.652],[163.819,-29.854],[163.29,-30.053],[162.758,-30.25],[162.225,-30.445],[161.689,-30.638],[161.152,-30.829],[160.612,-31.017],[160.07,-31.203],[159.526,-31.387],[158.98,-31.569],[158.431,-31.748],[157.881,-31.925],[157.328,-32.099],[156.774,-32.271],[156.217,-32.441],[155.658,-32.608],[155.098,-32.773],[154.535,-32.935],[153.97,-33.095],[153.403,-33.252],[152.834,-33.407],[152.262,-33.559],[151.689,-33.708],[151.114,-33.854],[150.537,-33.998],[149.958,-34.14],[149.378,-34.278],[148.795,-34.414],[148.21,-34.547],[147.624,-34.677],[147.036,-34.805],[146.445,-34.929],[145.854,-35.051],[145.26,-35.17],[144.665,-35.286],[144.068,-35.399],[143.469,-35.509],[142.869,-35.616],[142.267,-35.72],[141.663,-35.821],[141.058,-35.919],[140.452,-36.014],[139.844,-36.106],[139.235,-36.195]]}},{"type":"Feature","properties":{"boundary_type":"ridge","feature_type":"gpml:MidOceanRidge","polarity":null,"overriding_plate_id":null,"subducting_plate_id":null,"plate_ids":[902,919],"name":"Phoenix-Farallon MOR"},"geometry":{"type":"LineString","coordinates":[[-128.264,-0.849],[-127.835,-1.103],[-127.406,-1.356],[-126.978,-1.61],[-126.549,-1.863],[-126.12,-2.117],[-125.69,-2.37],[-125.261,-2.623],[-124.832,-2.876],[-124.402,-3.129],[-123.972,-3.382],[-123.542,-3.634],[-123.111,-3.886],[-122.681,-4.138],[-122.25,-4.39],[-121.819,-4.642],[-121.387,-4.893],[-120.955,-5.144],[-120.523,-5.395],[-120.091,-5.645],[-119.658,-5.895],[-119.224,-6.145],[-118.791,-6.394],[-118.357,-6.643],[-117.922,-6.892],[-117.487,-7.14],[-117.052,-7.388],[-116.616,-7.636],[-116.179,-7.883],[-115.742,-8.129],[-115.305,-8.375],[-114.866,-8.621],[-114.428,-8.866],[-113.988,-9.111],[-114.236,-9.52],[-114.485,-9.93],[-114.734,-10.34],[-114.984,-10.749],[-115.235,-11.158],[-115.486,-11.567],[-115.042,-11.799],[-114.597,-12.031],[-114.151,-12.262],[-113.705,-12.493],[-113.257,-12.723],[-112.809,-12.952],[-112.36,-13.18],[-111.911,-13.408],[-111.46,-13.634],[-111.009,-13.86],[-110.556,-14.085],[-110.103,-14.309],[-109.649,-14.533],[-109.194,-14.755],[-108.738,-14.977],[-108.281,-15.197],[-107.823,-15.417],[-107.364,-15.636],[-106.904,-15.854],[-106.443,-16.071],[-105.982,-16.286],[-105.519,-16.501],[-105.055,-16.715],[-104.59,-16.928],[-104.124,-17.14],[-103.657,-17.35],[-103.189,-17.56],[-102.72,-17.769],[-102.25,-17.976],[-101.778,-18.182],[-101.306,-18.387],[-100.832,-18.591],[-100.357,-18.794],[-99.882,-18.996],[-99.405,-19.196],[-98.926,-19.395],[-98.447,-19.593],[-97.966,-19.789],[-97.485,-19.985],[-97.002,-20.179],[-96.518,-20.371],[-96.032,-20.563],[-95.546,-20.753],[-95.058,-20.941],[-94.569,-21.128],[-94.079,-21.314],[-93.588,-21.498],[-93.095,-21.681],[-92.601,-21.863],[-92.106,-22.043],[-91.609,-22.221],[-91.112,-22.398],[-90.613,-22.574],[-90.113,-22.748],[-89.611,-22.92],[-89.108,-23.091],[-88.604,-23.26],[-88.099,-23.428],[-87.592,-23.594],[-87.085,-23.758],[-86.575,-23.92],[-86.065,-24.081],[-85.553,-24.241],[-85.04,-24.398],[-84.526,-24.554],[-84.011,-24.708],[-83.494,-24.86],[-82.976,-25.011],[-82.456,-25.16],[-81.936,-25.306],[-81.414,-25.452],[-80.891,-25.595],[-81.066,-26.063],[-81.243,-26.53],[-81.421,-26.998],[-81.601,-27.465],[-81.782,-27.932],[-81.965,-28.398],[-81.433,-28.551],[-80.899,-28.701],[-80.364,-28.849],[-79.827,-28.995],[-79.289,-29.138],[-78.75,-29.28],[-78.208,-29.419],[-77.666,-29.556],[-77.121,-29.691],[-76.576,-29.824],[-76.029,-29.955],[-75.48,-30.083],[-74.931,-30.209],[-74.379,-30.333],[-73.827,-30.454],[-73.273,-30.573],[-72.717,-30.69],[-72.161,-30.804],[-71.603,-30.916],[-71.043,-31.025],[-70.483,-31.132],[-69.921,-31.237],[-69.358,-31.339],[-68.793,-31.439],[-68.228,-31.536],[-67.661,-31.631],[-67.094,-31.723],[-66.525,-31.813],[-65.955,-31.9],[-65.384,-31.985],[-64.812,-32.067],[-64.239,-32.146],[-63.665,-32.223],[-63.09,-32.298],[-62.514,-32.369],[-61.937,-32.439],[-61.359,-32.505],[-60.78,-32.569],[-60.201,-32.63],[-59.621,-32.688],[-59.04,-32.744],[-58.459,-32.797],[-57.876,-32.848],[-57.293,-32.896],[-56.71,-32.941],[-56.126,-32.983],[-55.541,-33.023],[-54.956,-33.06],[-54.37,-33.094],[-53.784,-33.125],[-53.198,-33.154],[-52.611,-33.18],[-52.024,-33.203],[-51.436,-33.223],[-50.849,-33.241],[-50.261,-33.256],[-49.673,-33.268],[-49.084,-33.277],[-48.496,-33.284],[-47.908,-33.288],[-47.319,-33.289]]}},{"type":"Feature","properties":{"boundary_type":"ridge","feature_type":"gpml:MidOceanRidge","polarity":null,"overriding_plate_id":null,"subducting_plate_id":null,"plate_ids":[902,919],"name":"Izanagi-Farallon MOR"},"geometry":{"type":"LineString","coordinates":[[-128.264,-0.849],[-128.313,-0.571],[-128.362,-0.293]]}},{"type":"Feature","properties":{"boundary_type":"ridge","feature_type":"gpml:MidOceanRidge","polarity":null,"overriding_plate_id":null,"subducting_plate_id":null,"plate_ids":[902,926],"name":"Izanagi-Farallon MOR"},"geometry":{"type":"LineString","coordinates":[[-128.362,-0.293],[-128.446,0.182],[-128.53,0.657],[-128.613,1.132],[-128.697,1.606],[-128.781,2.081],[-129.153,1.991],[-129.525,1.902],[-129.896,1.812],[-130.268,1.723],[-130.39,2.206],[-130.513,2.689],[-130.636,3.172],[-130.759,3.655],[-130.882,4.138],[-131.005,4.621],[-131.128,5.104],[-131.252,5.587],[-131.376,6.07],[-131.5,6.553],[-131.624,7.036],[-131.748,7.519],[-131.873,8.002],[-131.998,8.485],[-132.123,8.968],[-132.249,9.451],[-131.84,9.687],[-131.429,9.923],[-131.019,10.158],[-130.607,10.392],[-130.785,10.853],[-130.964,11.313],[-131.143,11.774],[-131.322,12.234],[-131.503,12.694],[-131.683,13.154],[-131.865,13.614],[-132.047,14.074],[-132.23,14.533],[-132.414,14.993],[-132.599,15.452],[-132.784,15.911],[-132.97,16.37],[-133.157,16.829],[-133.345,17.288],[-133.534,17.746],[-133.724,18.204],[-133.915,18.663],[-134.107,19.12],[-134.3,19.578],[-134.494,20.036],[-134.69,20.493],[-134.886,20.95],[-135.084,21.407],[-135.282,21.864],[-135.483,22.32],[-135.684,22.776],[-135.887,23.232],[-136.091,23.688],[-136.297,24.143],[-136.504,24.598],[-136.712,25.053],[-136.923,25.507],[-137.134,25.961],[-137.348,26.415],[-137.563,26.869],[-137.78,27.322],[-137.998,27.775],[-138.219,28.228],[-137.716,28.448],[-137.211,28.667],[-136.704,28.884],[-136.195,29.098],[-135.684,29.311],[-135.171,29.522],[-135.383,29.984],[-135.598,30.445],[-135.815,30.906],[-136.034,31.366],[-136.255,31.826],[-136.478,32.286],[-136.703,32.745],[-136.931,33.204],[-137.161,33.663],[-137.394,34.121],[-137.629,34.578],[-137.867,35.035],[-138.108,35.492],[-138.351,35.948],[-138.597,36.404],[-138.846,36.859],[-139.098,37.314],[-139.353,37.768],[-139.611,38.221],[-139.872,38.674],[-140.137,39.127],[-140.405,39.579],[-140.677,40.03],[-140.952,40.48],[-141.231,40.93],[-141.514,41.379],[-141.801,41.828],[-142.092,42.275],[-142.386,42.722],[-142.686,43.169],[-142.989,43.614],[-143.297,44.059],[-143.61,44.503],[-143.928,44.945],[-144.25,45.387],[-144.578,45.829],[-144.911,46.269],[-145.249,46.708],[-145.593,47.146],[-145.942,47.583],[-146.298,48.019],[-145.777,48.311],[-145.251,48.6],[-144.718,48.887],[-144.18,49.171],[-143.635,49.453],[-143.084,49.732],[-142.527,50.008],[-142.927,50.425],[-143.334,50.841],[-143.748,51.256],[-144.17,51.669],[-144.599,52.08],[-145.037,52.49],[-145.483,52.898],[-145.937,53.304],[-146.4,53.709],[-146.872,54.112],[-147.353,54.513],[-147.844,54.912],[-148.344,55.309],[-148.855,55.704],[-149.376,56.097],[-149.908,56.487],[-150.45,56.876],[-151.004,57.261],[-151.57,57.645],[-152.148,58.025],[-152.738,58.404],[-153.341,58.779],[-153.957,59.151],[-154.587,59.521],[-155.23,59.887],[-155.888,60.25],[-156.561,60.61],[-157.248,60.966],[-157.951,61.319],[-158.67,61.668],[-159.405,62.014],[-160.157,62.355],[-160.927,62.692],[-161.714,63.025],[-162.519,63.353],[-163.342,63.677],[-164.184,63.995],[-165.046,64.309],[-165.841,64.632],[-166.655,64.951],[-167.489,65.265],[-168.342,65.574],[-169.216,65.878],[-170.111,66.178],[-171.027,66.472],[-171.965,66.76],[-172.924,67.043],[-173.906,67.32],[-174.911,67.591]]}},{"type":"Feature","properties":{"boundary_type":"subduction","feature_type":"gpml:SubductionZone","polarity":"Left","overriding_plate_id":601,"subducting_plate_id":9014,"plate_ids":[601,9014],"name":"North China-Beishan subduction zone"},"geometry":{"type":"LineString","coordinates":[[156.703,32.992],[156.181,33.173],[155.658,33.351],[155.132,33.528],[154.604,33.702],[154.074,33.874],[153.542,34.043],[153.008,34.21],[152.471,34.375],[151.959,34.641],[151.444,34.905],[150.926,35.166],[150.404,35.425],[149.879,35.682],[149.35,35.937],[148.818,36.189],[148.29,36.435],[147.758,36.678],[147.222,36.918],[146.684,37.156],[146.141,37.392],[145.596,37.626],[145.047,37.856],[144.495,38.085],[144.063,38.239],[143.629,38.392],[143.193,38.543]]}},{"type":"Feature","properties":{"boundary_type":"subduction","feature_type":"gpml:SubductionZone","polarity":"Left","overriding_plate_id":601,"subducting_plate_id":430,"plate_ids":[430,601],"name":"North China-Beishan subduction zone"},"geometry":{"type":"LineString","coordinates":[[143.193,38.543],[142.64,38.731],[142.085,38.917],[141.526,39.1],[140.965,39.281],[140.401,39.459],[139.834,39.634],[139.264,39.806],[138.691,39.975],[138.115,40.142],[137.537,40.306],[136.923,40.457],[136.306,40.606],[135.687,40.751],[135.065,40.892],[134.44,41.03],[133.812,41.165],[133.182,41.297],[132.55,41.425],[131.915,41.549],[131.278,41.67],[130.638,41.788],[130.058,41.943],[129.475,42.096],[128.889,42.246],[128.3,42.392],[127.709,42.536],[127.115,42.677],[126.518,42.814],[125.919,42.949],[125.548,43.293],[125.173,43.636],[124.794,43.979],[124.589,44.335],[124.382,44.691],[124.091,44.9],[123.798,45.107]]}},{"type":"Feature","properties":{"boundary_type":"transform","feature_type":"gpml:Transform","polarity":null,"overriding_plate_id":null,"subducting_plate_id":null,"plate_ids":[701],"name":""},"geometry":{"type":"LineString","coordinates":[[75.149,38.003],[75.127,37.99],[74.677,37.745]]}},{"type":"Feature","properties":{"boundary_type":"subduction","feature_type":"gpml:SubductionZone","polarity":"Right","overriding_plate_id":701,"subducting_plate_id":9009,"plate_ids":[701,9009],"name":"subduction zone"},"geometry":{"type":"LineString","coordinates":[[83.317,71.446],[84.483,71.161],[85.614,70.869],[86.713,70.57],[87.779,70.264],[88.813,69.953],[89.817,69.635],[90.792,69.312],[91.737,68.984],[92.654,68.651],[93.544,68.312],[94.033,67.888],[94.505,67.463],[94.96,67.036],[95.399,66.607],[95.823,66.178],[96.233,65.747],[96.629,65.316],[97.013,64.883],[97.853,64.579],[98.674,64.27],[99.477,63.957],[100.262,63.64],[101.029,63.318],[101.78,62.993],[102.513,62.663],[103.231,62.33],[103.933,61.993],[104.619,61.652],[105.29,61.309],[105.947,60.961],[106.589,60.611],[107.218,60.258],[107.833,59.902]]}},{"type":"Feature","properties":{"boundary_type":"subduction","feature_type":"gpml:SubductionZone","polarity":"Right","overriding_plate_id":701,"subducting_plate_id":9010,"plate_ids":[701,9010],"name":"subduction zone"},"geometry":{"type":"LineString","coordinates":[[107.833,59.902],[108.391,59.57],[108.938,59.235],[109.475,58.898],[110.001,58.559],[110.517,58.218],[111.023,57.874],[111.52,57.529],[111.441,57.131],[111.364,56.734],[111.289,56.336],[111.215,55.939]]}},{"type":"Feature","properties":{"boundary_type":"subduction","feature_type":"gpml:SubductionZone","polarity":"Right","overriding_plate_id":5801,"subducting_plate_id":9010,"plate_ids":[5801,9010],"name":"subduction zone"},"geometry":{"type":"LineString","coordinates":[[111.215,55.939],[111.137,55.508],[111.061,55.078],[110.986,54.647],[110.912,54.217],[110.841,53.786],[110.77,53.355],[110.701,52.924]]}},{"type":"Feature","properties":{"boundary_type":"subduction","feature_type":"gpml:SubductionZone","polarity":"Right","overriding_plate_id":5801,"subducting_plate_id":430,"plate_ids":[430,5801],"name":"subduction zone"},"geometry":{"type":"LineString","coordinates":[[110.701,52.924],[110.631,52.477],[110.563,52.03],[110.495,51.583],[110.429,51.136],[110.365,50.689]]}},{"type":"Feature","properties":{"boundary_type":"transform","feature_type":"gpml:Transform","polarity":null,"overriding_plate_id":null,"subducting_plate_id":null,"plate_ids":[430,601],"name":"North China-Beishan subduction zone"},"geometry":{"type":"LineString","coordinates":[[123.798,45.107],[123.462,45.238],[123.123,45.368],[122.727,45.635],[122.326,45.901],[121.922,46.165],[121.514,46.428],[121.003,46.679],[120.488,46.927],[119.967,47.173],[119.442,47.416],[118.802,47.607],[118.157,47.794],[117.507,47.978],[116.853,48.158],[116.243,48.408],[115.627,48.654],[115.005,48.898],[114.377,49.137],[113.742,49.374],[113.192,49.6],[112.637,49.823],[112.077,50.044],[111.511,50.261],[110.941,50.477],[110.365,50.689]]}},{"type":"Feature","properties":{"boundary_type":"transform","feature_type":"gpml:Transform","polarity":null,"overriding_plate_id":null,"subducting_plate_id":null,"plate_ids":[601,5801],"name":"North China-Beishan subduction zone"},"geometry":{"type":"LineString","coordinates":[[110.365,50.689],[109.89,50.86],[109.413,51.03],[108.932,51.197]]}},{"type":"Feature","properties":{"boundary_type":"transform","feature_type":"gpml:Transform","polarity":null,"overriding_plate_id":null,"subducting_plate_id":null,"plate_ids":[505,60301],"name":"transform north of Nan BAB"},"geometry":{"type":"LineString","coordinates":[[67.752,7.765],[68.161,7.921],[68.57,8.075],[68.979,8.229],[69.389,8.383],[69.768,8.517],[70.146,8.651],[70.525,8.784],[70.905,8.916]]}},{"type":"Feature","properties":{"boundary_type":"transform","feature_type":"gpml:Transform","polarity":null,"overriding_plate_id":null,"subducting_plate_id":null,"plate_ids":[505,902009],"name":"transform north of Nan BAB"},"geometry":{"type":"LineString","coordinates":[[70.905,8.916],[71.36,9.075],[71.816,9.233],[72.272,9.391],[72.729,9.548],[73.186,9.704],[73.644,9.86],[74.102,10.015],[74.56,10.17],[75.019,10.324]]}},{"type":"Feature","properties":{"boundary_type":"transform","feature_type":"gpml:Transform","polarity":null,"overriding_plate_id":null,"subducting_plate_id":null,"plate_ids":[505,602],"name":"transform north of Nan BAB"},"geometry":{"type":"LineString","coordinates":[[75.019,10.324],[75.499,10.484],[75.979,10.643],[76.459,10.802],[76.94,10.96],[77.422,11.117],[77.915,11.239],[78.408,11.36],[78.901,11.481],[79.395,11.601],[79.89,11.72],[80.385,11.838],[80.88,11.955],[81.376,12.072],[81.872,12.187],[82.368,12.302],[82.865,12.416],[83.363,12.529],[83.861,12.641],[84.359,12.752],[84.858,12.862],[85.357,12.971],[85.856,13.079],[86.356,13.186],[86.825,13.295],[87.294,13.402],[87.764,13.509],[88.234,13.615],[88.704,13.72],[89.175,13.824],[89.646,13.927],[90.118,14.029],[90.59,14.13],[91.062,14.231],[91.535,14.33]]}},{"type":"Feature","properties":{"boundary_type":"transform","feature_type":"gpml:Transform","polarity":null,"overriding_plate_id":null,"subducting_plate_id":null,"plate_ids":[430,926],"name":""},"geometry":{"type":"LineString","coordinates":[[165.696,35.448],[166.038,35.849],[166.383,36.249],[166.731,36.648],[167.084,37.046],[167.44,37.443],[167.659,37.887],[167.881,38.332],[168.106,38.776],[168.334,39.219],[168.564,39.662],[168.798,40.105],[169.034,40.547],[169.274,40.989],[169.517,41.43],[169.763,41.87],[170.013,42.311],[170.266,42.75],[170.523,43.189],[170.783,43.627],[171.047,44.065],[171.316,44.502],[171.588,44.939],[171.865,45.375],[172.145,45.81],[172.337,46.201],[172.531,46.591],[172.728,46.981]]}},{"type":"Feature","properties":{"boundary_type":"transform","feature_type":"gpml:Transform","polarity":null,"overriding_plate_id":null,"subducting_plate_id":null,"plate_ids":[926,9010],"name":""},"geometry":{"type":"LineString","coordinates":[[172.728,46.981],[172.966,47.446],[173.209,47.91],[173.456,48.374],[173.708,48.837],[173.964,49.299],[174.225,49.761],[174.492,50.222],[174.763,50.683],[175.04,51.143],[175.322,51.603],[175.611,52.061],[175.905,52.519],[176.205,52.977],[176.512,53.433],[176.825,53.889],[177.146,54.343],[177.473,54.797],[177.808,55.25],[178.151,55.703],[178.348,56.184],[178.551,56.665],[178.758,57.146],[178.972,57.626],[179.191,58.107],[179.416,58.586],[179.647,59.066],[179.884,59.544],[-179.871,60.023],[-179.619,60.501],[-179.36,60.978],[-179.093,61.455],[-178.817,61.932],[-178.533,62.407],[-178.24,62.883],[-177.937,63.357],[-177.623,63.831],[-177.3,64.305],[-176.964,64.777],[-176.653,65.248],[-176.33,65.718],[-175.995,66.187],[-175.647,66.656],[-175.286,67.124],[-174.911,67.591]]}},{"type":"Feature","properties":{"boundary_type":"transform","feature_type":"gpml:Transform","polarity":null,"overriding_plate_id":null,"subducting_plate_id":null,"plate_ids":[902,9010],"name":""},"geometry":{"type":"LineString","coordinates":[[-174.911,67.591],[-174.52,68.057],[-174.114,68.522],[-173.69,68.987],[-173.248,69.45],[-172.787,69.912],[-172.304,70.373],[-171.8,70.832],[-171.272,71.29]]}},{"type":"Feature","properties":{"boundary_type":"transform","feature_type":"gpml:Transform","polarity":null,"overriding_plate_id":null,"subducting_plate_id":null,"plate_ids":[902,9009],"name":""},"geometry":{"type":"LineString","coordinates":[[-171.272,71.29],[-170.728,71.738],[-170.158,72.185],[-169.56,72.63],[-168.931,73.073],[-168.27,73.514],[-167.573,73.953],[-166.839,74.39],[-166.063,74.824],[-165.243,75.255],[-164.375,75.683],[-163.454,76.108],[-162.477,76.529],[-162.359,77.023],[-162.231,77.517],[-162.093,78.011],[-161.943,78.505],[-161.78,78.999],[-161.602,79.493],[-161.407,79.987],[-161.191,80.48],[-160.952,80.974],[-160.686,81.467],[-160.387,81.96],[-160.05,82.453],[-159.666,82.945],[-159.224,83.437],[-158.712,83.929],[-158.109,84.42],[-157.39,84.911],[-156.519,85.4],[-155.441,85.888],[-154.074,86.374],[-152.286,86.858],[-149.851,87.337],[-146.357,87.81],[-145.859,88.308],[-144.945,88.806],[-142.726,89.304],[-129.703,89.795],[19.963,89.689],[27.356,89.195]]}},{"type":"Feature","properties":{"boundary_type":"subduction","feature_type":"gpml:SubductionZone","polarity":"Right","overriding_plate_id":60301,"subducting_plate_id":902009,"plate_ids":[60301,902009],"name":"sz Sukhothai western margin"},"geometry":{"type":"LineString","coordinates":[[70.905,8.916],[71.153,8.531],[71.401,8.146],[71.649,7.76],[71.947,7.394],[72.246,7.028],[72.544,6.662],[72.841,6.295],[73.138,5.929],[73.435,5.562],[73.731,5.195],[74.027,4.828],[74.322,4.461],[74.618,4.093],[74.913,3.726],[75.207,3.358],[75.502,2.991],[75.796,2.623],[76.09,2.255],[76.384,1.887],[76.76,1.622],[77.136,1.358],[77.512,1.093],[77.909,0.875],[78.306,0.657],[78.703,0.44],[79.1,0.222],[79.497,0.004],[79.731,-0.415],[79.966,-0.834],[80.2,-1.254],[80.434,-1.673],[80.669,-2.092],[80.878,-2.53],[81.088,-2.968],[81.298,-3.406],[81.509,-3.843],[81.719,-4.281],[82.08,-4.546],[82.44,-4.811],[82.801,-5.076],[83.163,-5.341],[83.417,-5.659],[83.672,-5.978],[83.913,-6.413],[84.155,-6.849],[84.398,-7.284],[84.64,-7.72],[84.883,-8.155],[85.127,-8.59],[85.268,-8.945],[85.409,-9.3],[85.551,-9.655],[85.693,-10.01],[86.094,-10.24],[86.496,-10.469],[86.898,-10.698],[87.301,-10.926],[87.704,-11.153],[88.108,-11.38],[88.513,-11.607],[88.919,-11.833],[89.288,-12.145],[89.657,-12.456],[90.028,-12.767],[90.4,-13.077],[90.773,-13.387],[91.146,-13.697],[91.521,-14.005],[91.896,-14.314],[92.273,-14.621],[92.65,-14.928],[93.029,-15.234],[93.409,-15.54],[93.79,-15.845],[94.172,-16.15],[94.555,-16.453],[94.94,-16.756],[95.326,-17.059],[95.618,-17.397],[95.912,-17.735]]}},{"type":"Feature","properties":{"boundary_type":"ridge","feature_type":"gpml:MidOceanRidge","polarity":null,"overriding_plate_id":null,"subducting_plate_id":null,"plate_ids":[602,902009],"name":"Nan back arc MOR"},"geometry":{"type":"LineString","coordinates":[[75.019,10.324],[75.281,9.922],[75.542,9.521],[75.803,9.119],[76.063,8.717],[76.323,8.314],[76.582,7.912],[76.841,7.509],[77.099,7.107],[77.357,6.704],[77.614,6.301],[77.871,5.898],[78.127,5.494],[78.383,5.091],[78.639,4.688],[78.895,4.284],[79.15,3.88],[79.405,3.477],[79.66,3.073],[79.914,2.669],[80.169,2.265],[80.423,1.861],[80.835,1.682],[81.248,1.502],[81.66,1.323],[82.072,1.143],[82.485,0.963],[82.897,0.783],[83.128,0.396],[83.359,0.01],[83.591,-0.377],[83.822,-0.764],[84.053,-1.151],[84.284,-1.538],[84.516,-1.925],[84.487,-2.308],[84.457,-2.692],[84.428,-3.075],[84.806,-3.397],[85.185,-3.719],[85.565,-4.041],[85.944,-4.362],[86.324,-4.684],[86.704,-5.005],[87.085,-5.325],[87.466,-5.646],[87.847,-5.966],[87.569,-6.315],[87.291,-6.664],[87.692,-6.954],[88.092,-7.243],[88.494,-7.531],[88.895,-7.82],[89.298,-8.108],[89.701,-8.395],[90.104,-8.683],[90.509,-8.969],[90.913,-9.256],[91.319,-9.542],[91.725,-9.827],[92.132,-10.112],[92.54,-10.396],[92.948,-10.68],[93.357,-10.963],[93.767,-11.246],[94.178,-11.529],[94.589,-11.81],[95.002,-12.091],[95.415,-12.372],[95.829,-12.652],[96.244,-12.931],[96.66,-13.209],[97.077,-13.487],[97.495,-13.764],[97.914,-14.041],[98.201,-14.407],[98.489,-14.772],[98.778,-15.137],[99.068,-15.502],[99.36,-15.866],[99.652,-16.23],[99.945,-16.593],[100.24,-16.956]]}},{"type":"Feature","properties":{"boundary_type":"subduction","feature_type":"gpml:SubductionZone","polarity":"Left","overriding_plate_id":601,"subducting_plate_id":602,"plate_ids":[601,602],"name":"Mianlue SZ"},"geometry":{"type":"LineString","coordinates":[[128.503,27.103],[128.614,27.04],[129.103,26.853],[129.591,26.664],[130.077,26.474],[130.561,26.282],[131.044,26.089],[131.525,25.894],[132.005,25.697],[132.54,25.584],[133.075,25.469],[133.608,25.352],[134.14,25.233],[134.672,25.112],[135.202,24.989],[135.731,24.865],[136.259,24.738],[136.786,24.61]]}},{"type":"Feature","properties":{"boundary_type":"subduction","feature_type":"gpml:SubductionZone","polarity":"Left","overriding_plate_id":601,"subducting_plate_id":926,"plate_ids":[601,926],"name":"Paleoasian sz"},"geometry":{"type":"LineString","coordinates":[[152.996,28.147],[153.293,28.562],[153.593,28.977],[153.896,29.39],[154.2,29.803],[154.507,30.215],[154.817,30.627],[155.13,31.038],[155.445,31.448],[155.763,31.857],[156.073,32.236],[156.387,32.614],[156.703,32.992]]}},{"type":"Feature","properties":{"boundary_type":"subduction","feature_type":"gpml:SubductionZone","polarity":"Left","overriding_plate_id":9014,"subducting_plate_id":926,"plate_ids":[926,9014],"name":"Paleoasian sz"},"geometry":{"type":"LineString","coordinates":[[156.703,32.992],[157.033,33.383],[157.367,33.773],[157.704,34.162],[158.044,34.55],[158.387,34.937],[158.733,35.324],[159.083,35.709],[159.436,36.093]]}},{"type":"Feature","properties":{"boundary_type":"ridge","feature_type":"gpml:MidOceanRidge","polarity":null,"overriding_plate_id":null,"subducting_plate_id":null,"plate_ids":[9009,9010],"name":"Mongol-Okhotsk spreading"},"geometry":{"type":"LineString","coordinates":[[107.833,59.902],[108.356,60.328],[108.893,60.751],[109.444,61.172],[110.01,61.591],[110.592,62.007],[111.189,62.421],[111.804,62.832],[112.621,62.94],[113.444,63.043],[114.272,63.142],[115.106,63.235],[115.771,63.616],[116.454,63.995],[117.155,64.369],[117.876,64.741],[118.617,65.109],[119.378,65.473],[120.161,65.833],[120.966,66.189],[121.793,66.541],[122.645,66.888],[123.52,67.231],[124.421,67.568],[125.348,67.901],[126.592,67.893],[127.835,67.875],[129.075,67.849],[130.312,67.813],[131.545,67.767],[132.772,67.713],[133.737,68.049],[134.73,68.38],[135.752,68.704],[136.804,69.022],[137.886,69.334],[139.0,69.639],[140.145,69.936],[141.324,70.226],[142.535,70.508],[143.78,70.781],[145.059,71.046],[146.372,71.302],[147.72,71.548],[149.103,71.785],[150.519,72.012],[151.97,72.228],[153.455,72.433],[154.972,72.627],[156.522,72.809],[158.103,72.979],[159.335,72.715],[160.53,72.444],[161.69,72.165],[162.815,71.88],[163.906,71.589],[165.444,71.665],[166.993,71.729],[168.552,71.78],[170.118,71.818],[171.69,71.844],[173.265,71.857],[174.84,71.857],[176.415,71.844],[177.987,71.819],[179.553,71.781],[-178.888,71.73],[-177.339,71.666],[-175.8,71.59],[-174.275,71.502],[-172.765,71.402],[-171.272,71.29]]}},{"type":"Feature","properties":{"boundary_type":"transform","feature_type":"gpml:Transform","polarity":null,"overriding_plate_id":null,"subducting_plate_id":null,"plate_ids":[505],"name":"transform"},"geometry":{"type":"LineString","coordinates":[[74.783,38.005],[75.149,38.003]]}},{"type":"Feature","properties":{"boundary_type":"transform","feature_type":"gpml:Transform","polarity":null,"overriding_plate_id":null,"subducting_plate_id":null,"plate_ids":[505,701],"name":"transform"},"geometry":{"type":"LineString","coordinates":[[75.149,38.003],[75.72,37.999],[76.292,37.991],[76.862,37.981],[77.433,37.968],[78.004,37.952],[78.574,37.934],[79.161,37.996],[79.75,38.055],[80.339,38.111],[80.929,38.164],[81.52,38.215],[82.112,38.262],[82.704,38.306],[83.298,38.348]]}},{"type":"Feature","properties":{"boundary_type":"transform","feature_type":"gpml:Transform","polarity":null,"overriding_plate_id":null,"subducting_plate_id":null,"plate_ids":[505,5801],"name":"transform"},"geometry":{"type":"LineString","coordinates":[[83.298,38.348],[83.853,38.384],[84.408,38.417],[84.964,38.448],[85.52,38.476]]}},{"type":"Feature","properties":{"boundary_type":"subduction","feature_type":"gpml:SubductionZone","polarity":"Left","overriding_plate_id":601,"subducting_plate_id":505,"plate_ids":[505,601],"name":"Subduction Meso Tethys"},"geometry":{"type":"LineString","coordinates":[[95.976,45.785],[96.662,45.712],[97.347,45.635],[98.03,45.553],[98.655,45.479],[99.278,45.4],[99.9,45.319],[100.519,45.234],[101.137,45.145],[101.753,45.054],[102.367,44.959],[102.85,44.729],[103.329,44.497],[103.805,44.263],[104.276,44.027],[104.744,43.789],[105.007,43.365],[105.265,42.941],[105.52,42.516],[105.772,42.091],[106.021,41.665],[106.352,41.238],[106.679,40.809],[107.002,40.379],[107.321,39.949],[107.636,39.517],[108.037,39.15],[108.435,38.781],[108.828,38.41],[109.217,38.039],[109.602,37.666],[109.935,37.34],[110.264,37.014],[110.591,36.687],[110.915,36.359],[111.147,35.984],[111.376,35.609],[111.604,35.233],[111.829,34.857],[112.053,34.48],[112.547,34.235],[113.039,33.988],[113.528,33.739],[114.015,33.487],[114.498,33.235],[114.979,32.98],[115.053,32.941]]}},{"type":"Feature","properties":{"boundary_type":"subduction","feature_type":"gpml:SubductionZone","polarity":"Left","overriding_plate_id":601,"subducting_plate_id":602,"plate_ids":[601,602],"name":"Subduction Meso Tethys"},"geometry":{"type":"LineString","coordinates":[[115.053,32.941],[115.553,32.676],[116.05,32.41],[116.544,32.142],[117.035,31.871],[117.523,31.599],[117.852,31.297],[118.178,30.993],[118.502,30.689],[118.824,30.384],[119.144,30.078],[119.575,29.762],[120.003,29.445],[120.428,29.127],[120.851,28.807],[121.271,28.486],[121.718,28.399],[122.164,28.311],[122.61,28.221],[123.054,28.13],[123.498,28.037],[123.984,27.931],[124.468,27.824],[124.951,27.716],[125.434,27.605],[125.915,27.493],[126.396,27.379],[126.924,27.313],[127.451,27.245],[127.977,27.175],[128.503,27.103]]}},{"type":"Feature","properties":{"boundary_type":"transform","feature_type":"gpml:Transform","polarity":null,"overriding_plate_id":null,"subducting_plate_id":null,"plate_ids":[505,602],"name":"Transform north of SCB"},"geometry":{"type":"LineString","coordinates":[[91.535,14.33],[91.917,14.665],[92.299,15.0],[92.683,15.334],[93.068,15.667],[93.455,16.0],[93.842,16.332],[94.231,16.663],[94.622,16.994],[95.013,17.324],[95.406,17.653],[95.766,17.991],[96.126,18.328],[96.488,18.664],[96.852,18.999],[97.217,19.334],[97.583,19.668],[97.951,20.002],[98.32,20.334],[98.691,20.666],[99.064,20.997],[99.438,21.328],[99.814,21.657],[100.192,21.986],[100.572,22.313],[100.953,22.64],[101.336,22.966],[101.721,23.291],[102.108,23.615],[102.497,23.938],[102.841,24.304],[103.188,24.669],[103.537,25.034],[103.888,25.397],[104.241,25.76],[104.597,26.122],[104.954,26.483],[105.314,26.844],[105.676,27.203],[106.04,27.561],[106.407,27.919],[106.776,28.275],[107.148,28.63],[107.522,28.985],[107.899,29.338],[108.278,29.69],[108.747,29.934],[109.218,30.176],[109.691,30.416],[110.166,30.655],[110.644,30.892],[111.124,31.127],[111.607,31.36],[112.092,31.592],[112.579,31.821],[113.069,32.049],[113.561,32.275],[114.056,32.499],[114.553,32.721],[115.053,32.941]]}},{"type":"Feature","properties":{"boundary_type":"subduction","feature_type":"gpml:SubductionZone","polarity":"Left","overriding_plate_id":602,"subducting_plate_id":926,"plate_ids":[602,926],"name":"Panthalassa SZ estern China"},"geometry":{"type":"LineString","coordinates":[[119.574,-13.246],[119.571,-12.778],[119.569,-12.309],[119.566,-11.841],[119.564,-11.373],[119.561,-10.905],[119.559,-10.437],[119.556,-9.968],[119.554,-9.5],[119.538,-9.011],[119.522,-8.522],[119.506,-8.033],[119.49,-7.544],[119.475,-7.055],[119.459,-6.566],[119.374,-6.089],[119.29,-5.612],[119.205,-5.135],[119.121,-4.658],[119.037,-4.181],[118.953,-3.704],[118.869,-3.227],[118.785,-2.749],[118.701,-2.272],[118.617,-1.795],[118.534,-1.318],[118.45,-0.841],[118.366,-0.364],[118.282,0.113],[118.199,0.591],[118.115,1.068],[118.031,1.545],[117.948,2.022],[117.864,2.499],[117.899,2.989],[117.935,3.479],[117.971,3.969],[118.006,4.459],[118.042,4.949],[118.078,5.439],[118.114,5.929],[118.15,6.419],[118.186,6.909],[118.222,7.399],[118.258,7.888],[118.294,8.378],[118.33,8.868],[118.367,9.358],[118.403,9.848],[118.44,10.338],[118.477,10.828],[118.522,11.285],[118.568,11.743],[118.615,12.2],[118.661,12.658],[118.707,13.115],[118.754,13.573],[118.801,14.03],[118.848,14.487],[118.895,14.945],[118.942,15.402],[118.99,15.859],[118.946,16.354],[118.902,16.849],[118.858,17.343],[118.814,17.838],[118.769,18.332],[118.724,18.827],[118.679,19.321]]}},{"type":"Feature","properties":{"boundary_type":"subduction","feature_type":"gpml:SubductionZone","polarity":"Left","overriding_plate_id":505,"subducting_plate_id":701,"plate_ids":[505,701],"name":"South Chnia SZ segment 2"},"geometry":{"type":"LineString","coordinates":[[124.248,-30.278],[124.565,-30.08],[124.881,-29.882],[125.196,-29.682],[125.649,-29.389],[126.1,-29.095],[126.549,-28.799],[126.995,-28.501],[127.438,-28.202]]}},{"type":"Feature","properties":{"boundary_type":"subduction","feature_type":"gpml:SubductionZone","polarity":"Left","overriding_plate_id":505,"subducting_plate_id":926,"plate_ids":[505,926],"name":"South Chnia SZ segment 2"},"geometry":{"type":"LineString","coordinates":[[127.438,-28.202],[127.826,-27.938],[128.211,-27.673],[128.595,-27.407],[128.977,-27.14],[129.052,-26.645],[129.125,-26.151],[129.198,-25.657],[129.27,-25.162],[129.341,-24.668],[129.412,-24.173],[129.483,-23.679],[129.553,-23.184],[129.391,-22.753],[129.231,-22.321],[129.071,-21.889],[128.913,-21.457],[128.755,-21.025],[128.598,-20.593],[128.469,-20.135],[128.341,-19.678],[128.213,-19.22],[128.086,-18.762],[127.828,-18.36],[127.571,-17.957],[127.316,-17.554],[127.061,-17.151],[126.863,-16.739],[126.665,-16.326],[126.469,-15.914],[126.273,-15.501],[126.078,-15.088],[125.692,-14.842],[125.306,-14.596],[124.922,-14.349],[124.538,-14.101],[124.156,-13.853],[123.774,-13.604],[123.531,-13.2],[123.29,-12.795],[123.049,-12.391]]}},{"type":"Feature","properties":{"boundary_type":"transform","feature_type":"gpml:Transform","polarity":null,"overriding_plate_id":null,"subducting_plate_id":null,"plate_ids":[602,926],"name":"Panthalassa transform estern China"},"geometry":{"type":"LineString","coordinates":[[118.679,19.321],[119.07,19.524],[119.462,19.726],[119.855,19.928],[120.249,20.128],[120.644,20.328],[121.002,20.618],[121.361,20.908],[121.722,21.197],[122.083,21.485],[122.447,21.773],[122.812,22.059],[123.231,22.336],[123.652,22.611],[124.075,22.886],[124.5,23.159],[124.926,23.431],[125.354,23.702],[125.784,23.972],[126.216,24.241],[126.715,24.211],[127.213,24.18],[127.711,24.147],[128.209,24.112],[128.707,24.076],[129.204,24.038],[129.701,23.998],[130.198,23.957],[130.717,24.026],[131.237,24.093],[131.757,24.158],[132.278,24.221],[132.8,24.283],[133.321,24.343],[133.844,24.401],[134.367,24.457],[134.89,24.511],[135.414,24.564],[135.871,24.581],[136.329,24.596],[136.786,24.61]]}},{"type":"Feature","properties":{"boundary_type":"transform","feature_type":"gpml:Transform","polarity":null,"overriding_plate_id":null,"subducting_plate_id":null,"plate_ids":[601,926],"name":"Panthalassa transform estern China"},"geometry":{"type":"LineString","coordinates":[[136.786,24.61],[137.325,24.625],[137.864,24.638],[138.404,24.649],[138.943,24.658],[139.482,24.665],[140.022,24.67],[140.561,24.673],[141.1,24.674],[141.64,24.673],[142.179,24.671],[142.719,24.666],[143.243,24.813],[143.768,24.957],[144.294,25.1],[144.822,25.241],[145.351,25.38],[145.881,25.517],[146.412,25.652],[146.945,25.786],[147.413,25.992],[147.883,26.198],[148.354,26.402],[148.827,26.604],[149.302,26.804],[149.779,27.004],[150.257,27.201],[150.736,27.397],[151.218,27.591],[151.701,27.784],[152.186,27.974],[152.673,28.164],[152.996,28.147]]}},{"type":"Feature","properties":{"boundary_type":"subduction","feature_type":"gpml:SubductionZone","polarity":"Left","overriding_plate_id":60301,"subducting_plate_id":505,"plate_ids":[505,60301],"name":"Western Sukhothai SZ margin"},"geometry":{"type":"LineString","coordinates":[[67.752,7.765],[67.953,7.449],[68.155,7.132],[68.404,6.766],[68.653,6.399],[68.902,6.033],[69.151,5.666],[69.399,5.299],[69.699,4.932],[69.998,4.564],[70.297,4.197],[70.588,3.865],[70.879,3.532],[71.17,3.199],[71.461,2.867],[71.751,2.534],[72.042,2.201],[72.355,1.816],[72.668,1.431],[72.982,1.046],[73.295,0.661],[73.608,0.276],[73.921,-0.109],[74.234,-0.495],[74.41,-0.857],[74.585,-1.219],[74.76,-1.581],[74.935,-1.944],[75.111,-2.306],[75.427,-2.619],[75.744,-2.932],[76.06,-3.245],[76.377,-3.558],[76.674,-3.939],[76.972,-4.321],[77.27,-4.702],[77.568,-5.084],[77.866,-5.465],[78.165,-5.846],[78.464,-6.226],[78.76,-6.591],[79.056,-6.956],[79.352,-7.32],[79.649,-7.685],[79.947,-8.049],[80.245,-8.413],[80.544,-8.776],[80.843,-9.14],[81.143,-9.503],[81.443,-9.866],[81.84,-10.114],[82.237,-10.362],[82.635,-10.61],[83.034,-10.857],[83.433,-11.104],[83.833,-11.35],[84.233,-11.595],[84.634,-11.84],[85.036,-12.084],[85.439,-12.328],[85.843,-12.572],[86.261,-12.83],[86.68,-13.087],[87.1,-13.344],[87.521,-13.6],[87.943,-13.855],[88.366,-14.11],[88.79,-14.364],[89.215,-14.617],[89.64,-14.87],[90.067,-15.121],[90.495,-15.372],[90.923,-15.622],[91.353,-15.871],[91.784,-16.119],[92.216,-16.367],[92.468,-16.72],[92.721,-17.072],[92.975,-17.424],[93.23,-17.776],[93.486,-18.127]]}},{"type":"Feature","properties":{"boundary_type":"subduction","feature_type":"gpml:SubductionZone","polarity":"Left","overriding_plate_id":5801,"subducting_plate_id":701,"plate_ids":[701,5801],"name":"South Kunlun subduction zone"},"geometry":{"type":"LineString","coordinates":[[111.215,55.939],[110.6,55.646],[109.994,55.351],[109.396,55.052],[108.808,54.751],[108.228,54.447],[107.657,54.14],[107.095,53.83],[106.541,53.518],[105.994,53.204],[105.42,52.94],[104.854,52.673],[104.293,52.404],[103.74,52.132],[103.194,51.858],[102.654,51.581],[102.121,51.301],[101.491,51.012],[100.869,50.72],[100.255,50.424],[99.648,50.125],[99.05,49.823],[98.458,49.517],[97.9,49.23],[97.348,48.941],[96.802,48.648],[96.263,48.353],[95.73,48.056],[95.203,47.756],[94.682,47.454],[94.168,47.149],[93.659,46.842],[93.131,46.559],[92.609,46.273],[92.092,45.984],[91.58,45.694],[91.074,45.401],[90.573,45.105],[90.077,44.808],[89.628,44.459],[89.184,44.107],[88.745,43.755],[88.311,43.4],[87.883,43.044],[87.459,42.686],[87.04,42.327],[86.688,41.938],[86.34,41.547],[85.997,41.156],[85.657,40.764],[85.321,40.371],[84.99,39.977],[84.662,39.581],[84.316,39.274],[83.974,38.967],[83.634,38.658],[83.298,38.348]]}},{"type":"Feature","properties":{"boundary_type":"transform","feature_type":"gpml:Transform","polarity":null,"overriding_plate_id":null,"subducting_plate_id":null,"plate_ids":[601,5801],"name":"South Kunlun transform"},"geometry":{"type":"LineString","coordinates":[[108.932,51.197],[108.417,50.946],[107.908,50.692],[107.404,50.437],[106.906,50.179],[106.413,49.919],[105.805,49.694],[105.203,49.466],[104.606,49.235],[104.015,49.0],[103.429,48.763],[102.849,48.523],[102.262,48.317],[101.68,48.107],[101.102,47.895],[100.529,47.68],[99.96,47.462],[99.397,47.241],[98.838,47.017],[98.284,46.791],[97.699,46.544],[97.119,46.294],[96.545,46.041],[95.976,45.785]]}},{"type":"Feature","properties":{"boundary_type":"transform","feature_type":"gpml:Transform","polarity":null,"overriding_plate_id":null,"subducting_plate_id":null,"plate_ids":[505,5801],"name":"South Kunlun transform"},"geometry":{"type":"LineString","coordinates":[[95.976,45.785],[95.538,45.585],[95.002,45.266],[94.473,44.945],[93.949,44.621],[93.431,44.295],[92.919,43.967],[92.412,43.637],[91.974,43.359],[91.54,43.081],[91.11,42.8],[90.684,42.518],[90.261,42.234],[89.843,41.949],[89.387,41.589],[88.937,41.226],[88.491,40.862],[88.05,40.496],[87.615,40.128],[87.183,39.759],[86.762,39.441],[86.344,39.12],[85.93,38.799],[85.52,38.476]]}}]}