{"type":"FeatureCollection","meta":{"model":"Cao2024","reconstruction_time_ma":695.0,"anchor_plate_id":0,"pygplates_version":"1.0.0","tessellate_degrees":0.5,"polarity_convention":"gpml:subductionPolarity. 'Left'/'Right' names the side of the line, in vertex order, on which the OVERRIDING plate lies. Triangles are drawn on that side.","antimeridian":"Lines are NOT split at +/-180 deg. The renderer works in 3D unit vectors where the dateline is not special; splitting would only add spurious breaks. Do not treat this as RFC 7946 GIS-ready 2D data."},"features":[{"type":"Feature","properties":{"boundary_type":"subduction","feature_type":"gpml:SubductionZone","polarity":"Right","overriding_plate_id":701,"subducting_plate_id":5032,"plate_ids":[701,5032],"name":"Mozambique Belt"},"geometry":{"type":"LineString","coordinates":[[17.227,-30.78],[17.232,-30.366],[17.237,-29.953],[17.243,-29.539],[17.248,-29.126],[17.12,-28.665],[16.993,-28.204],[16.867,-27.743],[16.806,-27.318],[16.745,-26.893],[16.685,-26.468],[16.565,-26.06],[16.445,-25.652],[16.327,-25.244],[16.209,-24.836],[16.092,-24.428],[16.119,-24.088],[16.145,-23.748],[16.171,-23.408],[16.584,-23.244],[16.995,-23.078],[17.406,-22.911],[17.941,-22.921],[18.475,-22.93],[19.01,-22.936],[19.41,-23.103],[19.811,-23.269],[20.214,-23.433],[20.617,-23.597],[21.062,-23.607],[21.507,-23.615],[21.951,-23.622],[22.396,-23.628],[22.841,-23.633],[23.372,-23.586],[23.903,-23.538],[24.434,-23.488],[24.964,-23.436],[25.494,-23.382],[25.88,-23.277],[26.266,-23.171],[26.765,-23.023],[27.263,-22.873],[27.613,-22.766],[27.962,-22.658],[28.311,-22.549],[28.697,-22.425],[29.081,-22.301],[29.465,-22.175],[29.909,-21.914],[30.35,-21.651],[30.783,-21.482],[31.215,-21.312],[31.646,-21.14],[32.076,-20.968],[32.511,-20.914],[32.946,-20.859],[33.381,-20.804],[33.815,-20.747],[34.292,-20.64],[34.768,-20.532],[35.243,-20.422],[35.718,-20.311],[36.24,-20.296],[36.763,-20.28],[37.09,-20.319],[37.418,-20.357]]}},{"type":"Feature","properties":{"boundary_type":"subduction","feature_type":"gpml:SubductionZone","polarity":"Right","overriding_plate_id":715,"subducting_plate_id":98043,"plate_ids":[715,98043],"name":"ANS SZ"},"geometry":{"type":"LineString","coordinates":[[-12.176,-29.631],[-11.713,-29.708]]}},{"type":"Feature","properties":{"boundary_type":"subduction","feature_type":"gpml:SubductionZone","polarity":"Right","overriding_plate_id":715,"subducting_plate_id":5031,"plate_ids":[715,5031],"name":"ANS SZ"},"geometry":{"type":"LineString","coordinates":[[-11.713,-29.708],[-11.373,-29.764],[-11.032,-29.819],[-10.586,-29.974],[-10.138,-30.128],[-9.746,-30.196],[-9.353,-30.262],[-8.96,-30.328],[-8.583,-30.473],[-8.206,-30.617],[-7.827,-30.759],[-7.361,-30.899],[-6.894,-31.037],[-6.425,-31.173],[-5.998,-31.211],[-5.57,-31.247],[-5.142,-31.281],[-4.598,-31.376],[-4.053,-31.468],[-3.68,-31.594],[-3.305,-31.719],[-2.93,-31.843],[-2.348,-31.914],[-1.766,-31.983],[-1.256,-31.951],[-0.747,-31.918],[-0.238,-31.882],[0.18,-31.737],[0.598,-31.592],[1.014,-31.445],[1.428,-31.296],[1.863,-31.298],[2.298,-31.298],[2.733,-31.297],[3.303,-31.331],[3.873,-31.363],[4.443,-31.392],[4.915,-31.425],[5.386,-31.456],[5.858,-31.485],[6.279,-31.378],[6.699,-31.271],[7.118,-31.162],[7.536,-31.081],[7.953,-30.999],[8.37,-30.916],[8.797,-30.763],[9.222,-30.61],[9.646,-30.455],[10.069,-30.299],[10.629,-30.361],[11.189,-30.42],[11.75,-30.477],[12.209,-30.567],[12.669,-30.657],[13.06,-30.746],[13.451,-30.834],[13.843,-30.921],[14.372,-31.092],[14.903,-31.261]]}},{"type":"Feature","properties":{"boundary_type":"subduction","feature_type":"gpml:SubductionZone","polarity":"Right","overriding_plate_id":715,"subducting_plate_id":5032,"plate_ids":[715,5032],"name":"ANS SZ"},"geometry":{"type":"LineString","coordinates":[[14.903,-31.261],[14.995,-31.289],[15.435,-31.144],[15.873,-30.997]]}},{"type":"Feature","properties":{"boundary_type":"subduction","feature_type":"gpml:SubductionZone","polarity":"Right","overriding_plate_id":701,"subducting_plate_id":5032,"plate_ids":[701,5032],"name":"ANS SZ"},"geometry":{"type":"LineString","coordinates":[[15.873,-30.997],[16.155,-30.902],[16.628,-30.896],[17.101,-30.889],[17.227,-30.78]]}},{"type":"Feature","properties":{"boundary_type":"subduction","feature_type":"gpml:SubductionZone","polarity":"Right","overriding_plate_id":401,"subducting_plate_id":3003,"plate_ids":[401,3003],"name":"SZ"},"geometry":{"type":"LineString","coordinates":[[162.537,5.302],[162.837,5.547],[163.137,5.792],[163.438,6.037],[163.859,6.288],[164.28,6.538],[164.702,6.788],[165.124,7.038],[165.547,7.287],[165.97,7.536],[166.394,7.784],[166.818,8.033],[167.243,8.28],[167.668,8.527],[168.094,8.774],[168.52,9.02],[168.947,9.266],[169.374,9.511],[169.803,9.756],[170.231,10.0],[170.719,10.078],[171.206,10.155],[171.694,10.231],[172.182,10.307],[172.67,10.382],[173.159,10.456],[173.647,10.529],[174.136,10.602],[174.626,10.674],[175.115,10.745],[175.605,10.815],[176.094,10.885],[176.585,10.953],[177.075,11.021],[177.565,11.089],[178.056,11.155],[178.547,11.221],[179.038,11.286],[179.519,11.281],[-180.0,11.275],[-179.519,11.269],[-179.038,11.261],[-178.558,11.253],[-178.077,11.245],[-177.596,11.235],[-177.13,11.037],[-176.665,10.838],[-176.2,10.639],[-175.737,10.439],[-175.273,10.238],[-174.81,10.037],[-174.348,9.835],[-173.886,9.632],[-173.425,9.428],[-172.965,9.225],[-172.505,9.02],[-172.045,8.815],[-171.586,8.609],[-171.128,8.403],[-170.67,8.196],[-170.212,7.989],[-169.894,7.713],[-169.577,7.437],[-169.259,7.161],[-168.942,6.885],[-168.626,6.608],[-168.31,6.331],[-167.979,5.965],[-167.649,5.599],[-167.32,5.233],[-166.99,4.866],[-166.662,4.5],[-166.333,4.133],[-166.005,3.766],[-165.677,3.399],[-165.349,3.032],[-165.022,2.665],[-164.694,2.298],[-164.367,1.93],[-164.04,1.563],[-163.724,1.261],[-163.408,0.96],[-163.091,0.659],[-162.775,0.358],[-162.459,0.056],[-162.093,-0.278],[-161.727,-0.612]]}},{"type":"Feature","properties":{"boundary_type":"subduction","feature_type":"gpml:SubductionZone","polarity":"Left","overriding_plate_id":77148,"subducting_plate_id":714,"plate_ids":[714,77148],"name":"Dahomenides"},"geometry":{"type":"LineString","coordinates":[[-22.738,-65.339],[-21.833,-65.556],[-20.913,-65.767],[-19.977,-65.973],[-19.027,-66.172],[-18.062,-66.366],[-17.082,-66.554],[-16.088,-66.736],[-15.085,-66.906],[-14.068,-67.069],[-13.038,-67.227],[-11.994,-67.377],[-10.938,-67.521],[-9.868,-67.657]]}},{"type":"Feature","properties":{"boundary_type":"subduction","feature_type":"gpml:SubductionZone","polarity":"Left","overriding_plate_id":715,"subducting_plate_id":714,"plate_ids":[714,715],"name":"Dahomenides"},"geometry":{"type":"LineString","coordinates":[[-9.868,-67.657],[-8.735,-67.793],[-7.588,-67.921],[-6.429,-68.04],[-5.259,-68.152],[-4.077,-68.255],[-2.886,-68.35],[-1.684,-68.436],[-0.475,-68.513],[0.743,-68.582],[2.036,-68.621],[3.332,-68.65],[4.632,-68.669],[5.933,-68.678],[7.234,-68.677],[8.535,-68.666],[9.834,-68.645],[11.129,-68.615],[12.421,-68.574],[13.708,-68.523],[14.988,-68.463],[16.261,-68.393],[17.525,-68.313],[18.532,-68.289],[19.536,-68.26],[20.538,-68.224]]}},{"type":"Feature","properties":{"boundary_type":"subduction","feature_type":"gpml:SubductionZone","polarity":"Right","overriding_plate_id":5031,"subducting_plate_id":98043,"plate_ids":[5031,98043],"name":"ANS formation"},"geometry":{"type":"LineString","coordinates":[[-10.66,-23.748],[-10.851,-23.318],[-11.04,-22.888],[-11.227,-22.457],[-11.414,-22.026],[-11.452,-21.55],[-11.49,-21.074],[-11.527,-20.598],[-11.564,-20.122],[-11.601,-19.645],[-11.638,-19.169],[-11.674,-18.693],[-11.711,-18.217],[-11.747,-17.74],[-11.783,-17.264],[-11.818,-16.788],[-11.854,-16.311],[-11.889,-15.835],[-11.924,-15.359],[-11.96,-14.883],[-11.994,-14.406],[-12.029,-13.93],[-11.939,-13.606]]}},{"type":"Feature","properties":{"boundary_type":"subduction","feature_type":"gpml:SubductionZone","polarity":"Right","overriding_plate_id":5031,"subducting_plate_id":801,"plate_ids":[801,5031],"name":"ANS formation"},"geometry":{"type":"LineString","coordinates":[[-11.939,-13.606],[-11.81,-13.138],[-11.681,-12.669],[-11.552,-12.2],[-11.424,-11.731],[-11.296,-11.262],[-11.169,-10.793],[-11.042,-10.324],[-10.915,-9.855],[-10.647,-9.532],[-10.38,-9.208],[-10.113,-8.884],[-9.846,-8.56],[-9.564,-8.273],[-9.282,-7.985],[-8.887,-7.675],[-8.491,-7.365],[-8.097,-7.054],[-7.777,-6.86],[-7.459,-6.665],[-7.14,-6.471],[-6.761,-6.262],[-6.383,-6.053],[-5.989,-5.917],[-5.595,-5.781],[-5.239,-5.727],[-4.883,-5.673],[-4.477,-5.69],[-4.071,-5.708],[-3.689,-5.632],[-3.308,-5.556],[-3.019,-5.355],[-2.731,-5.155],[-2.442,-4.955],[-2.118,-4.748],[-1.795,-4.542],[-1.471,-4.335],[-1.142,-4.152],[-0.813,-3.97],[-0.419,-3.898],[-0.024,-3.827],[0.343,-3.792],[0.711,-3.757],[1.078,-3.722],[1.493,-3.729],[1.908,-3.736],[2.323,-3.743],[2.698,-3.743],[3.072,-3.743],[3.447,-3.742],[3.898,-3.797],[4.349,-3.851],[4.705,-4.064],[5.062,-4.276],[5.418,-4.488],[5.873,-4.688],[6.328,-4.888],[6.783,-5.088],[7.239,-5.287],[7.694,-5.486],[8.151,-5.685],[8.607,-5.884],[9.064,-6.082],[9.521,-6.279],[9.978,-6.476],[10.436,-6.673],[10.669,-6.793],[10.903,-6.912]]}},{"type":"Feature","properties":{"boundary_type":"subduction","feature_type":"gpml:SubductionZone","polarity":"Right","overriding_plate_id":5032,"subducting_plate_id":801,"plate_ids":[801,5032],"name":"ANS formation"},"geometry":{"type":"LineString","coordinates":[[10.903,-6.912],[11.288,-7.109],[11.673,-7.305],[12.058,-7.5],[12.444,-7.696],[12.83,-7.891],[13.216,-8.086],[13.603,-8.28],[14.071,-8.43],[14.541,-8.58]]}},{"type":"Feature","properties":{"boundary_type":"subduction","feature_type":"gpml:SubductionZone","polarity":"Right","overriding_plate_id":77148,"subducting_plate_id":98043,"plate_ids":[77148,98043],"name":"northern SM SZ?"},"geometry":{"type":"LineString","coordinates":[[-35.05,-48.21],[-34.393,-48.404],[-33.737,-48.339],[-33.083,-48.271],[-32.431,-48.198],[-31.987,-48.033],[-31.546,-47.866],[-31.108,-47.697]]}},{"type":"Feature","properties":{"boundary_type":"subduction","feature_type":"gpml:SubductionZone","polarity":"Right","overriding_plate_id":715,"subducting_plate_id":98043,"plate_ids":[715,98043],"name":"northern SM SZ?"},"geometry":{"type":"LineString","coordinates":[[-31.108,-47.697],[-30.643,-47.515],[-30.183,-47.332],[-29.773,-46.935],[-29.369,-46.536],[-28.972,-46.137],[-28.58,-45.736],[-28.457,-45.334],[-28.336,-44.931],[-28.217,-44.529],[-27.82,-44.244],[-27.428,-43.958],[-27.039,-43.67],[-26.654,-43.381],[-26.141,-43.125],[-25.632,-42.866],[-25.127,-42.606],[-24.627,-42.343],[-24.131,-42.078],[-23.639,-41.81],[-23.108,-41.546],[-22.581,-41.279],[-22.059,-41.009],[-21.541,-40.737],[-21.027,-40.463],[-20.517,-40.187],[-20.012,-39.908],[-19.648,-39.561],[-19.288,-39.214],[-18.932,-38.865],[-18.579,-38.515],[-18.229,-38.163],[-17.883,-37.811],[-17.54,-37.458],[-17.2,-37.104],[-16.943,-36.652],[-16.688,-36.198],[-16.437,-35.745],[-16.188,-35.291],[-15.942,-34.836],[-15.53,-34.47],[-15.123,-34.102],[-14.718,-33.733],[-14.403,-33.378],[-14.09,-33.022],[-13.78,-32.665],[-13.472,-32.307],[-13.167,-31.949],[-12.902,-31.607],[-12.639,-31.264],[-12.378,-30.922],[-12.119,-30.578],[-12.063,-30.294],[-12.007,-30.01],[-12.176,-29.631]]}},{"type":"Feature","properties":{"boundary_type":"subduction","feature_type":"gpml:SubductionZone","polarity":"Left","overriding_plate_id":801,"subducting_plate_id":98044,"plate_ids":[801,98044],"name":"Alxa SZ"},"geometry":{"type":"LineString","coordinates":[[-29.861,54.331],[-29.591,53.887],[-29.326,53.442],[-29.067,52.997],[-28.813,52.551],[-28.564,52.104],[-28.32,51.657],[-27.871,51.303],[-27.429,50.946],[-26.993,50.588],[-26.564,50.228],[-26.141,49.867],[-25.725,49.504],[-25.314,49.14],[-24.91,48.774],[-24.512,48.407],[-24.361,47.929],[-24.213,47.45],[-24.068,46.971],[-23.925,46.492],[-23.785,46.012],[-23.639,45.585],[-23.496,45.156],[-23.355,44.728],[-23.216,44.3],[-23.078,43.871],[-22.943,43.442],[-22.782,42.991],[-22.623,42.54],[-22.466,42.089],[-22.311,41.638],[-22.159,41.186],[-22.008,40.734]]}},{"type":"Feature","properties":{"boundary_type":"subduction","feature_type":"gpml:SubductionZone","polarity":"Left","overriding_plate_id":801,"subducting_plate_id":580,"plate_ids":[580,801],"name":"Alxa SZ"},"geometry":{"type":"LineString","coordinates":[[-22.008,40.734],[-21.877,40.334],[-21.747,39.934],[-21.619,39.534],[-21.222,39.155],[-20.829,38.775],[-20.44,38.394],[-20.056,38.011],[-19.675,37.628],[-19.299,37.243],[-18.926,36.857],[-18.557,36.469],[-18.192,36.081],[-17.834,35.776],[-17.479,35.471],[-17.127,35.165],[-16.777,34.857],[-16.43,34.549],[-16.086,34.24],[-15.799,33.826]]}},{"type":"Feature","properties":{"boundary_type":"subduction","feature_type":"gpml:SubductionZone","polarity":"Left","overriding_plate_id":77147,"subducting_plate_id":714,"plate_ids":[714,77147],"name":"foras Granulite Unit SZ"},"geometry":{"type":"LineString","coordinates":[[-55.953,-56.032],[-55.592,-56.413],[-55.224,-56.794],[-54.848,-57.173],[-54.23,-57.511],[-53.601,-57.845],[-52.959,-58.177],[-52.306,-58.505],[-51.641,-58.83],[-51.127,-59.223],[-50.6,-59.615],[-50.062,-60.005],[-49.51,-60.392],[-48.945,-60.777],[-48.367,-61.16],[-47.775,-61.54],[-47.147,-61.721]]}},{"type":"Feature","properties":{"boundary_type":"subduction","feature_type":"gpml:SubductionZone","polarity":"Right","overriding_plate_id":77148,"subducting_plate_id":715,"plate_ids":[715,77148],"name":"East Saharan Craton - Aouzeguer Terrane SZ"},"geometry":{"type":"LineString","coordinates":[[-31.108,-47.697],[-30.798,-48.129],[-30.484,-48.56],[-30.164,-48.99],[-29.676,-49.356],[-29.182,-49.72],[-28.68,-50.083],[-28.17,-50.443],[-27.653,-50.801],[-27.095,-51.089],[-26.531,-51.376],[-25.959,-51.659],[-25.38,-51.94],[-24.892,-52.175],[-24.398,-52.409],[-23.899,-52.64],[-23.316,-52.76],[-22.729,-52.877],[-22.139,-52.991],[-21.512,-53.182],[-20.879,-53.369],[-20.241,-53.553],[-19.597,-53.733],[-18.925,-53.934],[-18.246,-54.132],[-17.56,-54.325],[-16.868,-54.514],[-16.238,-54.694],[-15.603,-54.869],[-14.962,-55.042],[-14.316,-55.211],[-13.837,-55.375],[-13.355,-55.538],[-12.764,-55.696],[-12.168,-55.851],[-11.568,-56.004],[-10.976,-56.22],[-10.378,-56.433],[-9.773,-56.644],[-9.161,-56.851],[-8.361,-57.005],[-7.554,-57.155],[-6.741,-57.299]]}},{"type":"Feature","properties":{"boundary_type":"subduction","feature_type":"gpml:SubductionZone","polarity":"Left","overriding_plate_id":3003,"subducting_plate_id":401,"plate_ids":[401,3003],"name":"Taimyr SZ"},"geometry":{"type":"LineString","coordinates":[[-161.727,-0.612],[-161.535,-0.985],[-161.343,-1.359],[-161.151,-1.732],[-160.941,-2.146],[-160.73,-2.559],[-160.52,-2.973],[-160.309,-3.386],[-160.098,-3.8],[-159.887,-4.213],[-159.661,-4.612],[-159.434,-5.012],[-159.206,-5.411],[-158.979,-5.81],[-158.751,-6.209],[-158.522,-6.608],[-158.294,-7.007],[-158.065,-7.406],[-157.928,-7.817],[-157.791,-8.228],[-157.654,-8.639],[-157.516,-9.05],[-157.378,-9.461],[-157.24,-9.872],[-157.102,-10.283],[-156.902,-10.695],[-156.701,-11.107],[-156.5,-11.519],[-156.298,-11.93],[-156.096,-12.342],[-155.893,-12.753],[-155.689,-13.164],[-155.676,-13.616],[-155.662,-14.067],[-155.649,-14.518],[-155.635,-14.969],[-155.621,-15.421],[-155.607,-15.872],[-155.593,-16.323],[-155.565,-16.733],[-155.537,-17.143]]}},{"type":"Feature","properties":{"boundary_type":"subduction","feature_type":"gpml:SubductionZone","polarity":"Right","overriding_plate_id":101,"subducting_plate_id":3003,"plate_ids":[101,3003],"name":"Offshore Timan ocean arc?"},"geometry":{"type":"LineString","coordinates":[[-163.108,-21.346],[-162.916,-21.799],[-162.722,-22.251],[-162.528,-22.703],[-162.332,-23.155],[-162.135,-23.607],[-161.936,-24.058],[-161.736,-24.509],[-161.535,-24.96],[-161.332,-25.411],[-160.91,-25.695],[-160.486,-25.978],[-160.06,-26.26],[-159.632,-26.541],[-159.202,-26.82],[-158.77,-27.098],[-158.335,-27.375],[-157.899,-27.651],[-157.46,-27.925],[-157.019,-28.197],[-156.575,-28.469],[-156.13,-28.738],[-155.682,-29.007],[-155.187,-29.219],[-154.689,-29.429],[-154.19,-29.638],[-153.689,-29.844],[-153.185,-30.049],[-152.68,-30.252],[-152.172,-30.453],[-151.662,-30.651],[-151.15,-30.848],[-150.636,-31.043],[-150.121,-31.236],[-149.602,-31.427],[-149.31,-31.583],[-149.017,-31.74]]}},{"type":"Feature","properties":{"boundary_type":"subduction","feature_type":"gpml:SubductionZone","polarity":"Right","overriding_plate_id":714,"subducting_plate_id":3003,"plate_ids":[714,3003],"name":"Offshore Timan ocean arc?"},"geometry":{"type":"LineString","coordinates":[[-149.017,-31.74],[-148.558,-31.981],[-148.097,-32.221],[-147.634,-32.459],[-147.168,-32.696],[-146.7,-32.931],[-146.229,-33.164],[-145.756,-33.395],[-145.28,-33.625],[-144.802,-33.852]]}},{"type":"Feature","properties":{"boundary_type":"subduction","feature_type":"gpml:SubductionZone","polarity":"Right","overriding_plate_id":580,"subducting_plate_id":98044,"plate_ids":[580,98044],"name":"Tarim Oceanic arc"},"geometry":{"type":"LineString","coordinates":[[-43.169,19.458],[-42.881,19.863],[-42.591,20.266],[-42.299,20.67],[-42.006,21.073],[-41.712,21.475],[-41.415,21.877],[-41.117,22.278],[-40.788,22.654],[-40.458,23.029],[-40.125,23.404],[-39.79,23.777],[-39.454,24.15],[-39.116,24.523],[-38.775,24.894],[-38.433,25.265],[-38.088,25.635],[-37.741,26.004],[-37.392,26.372],[-36.996,26.696],[-36.597,27.02],[-36.196,27.342],[-35.792,27.662],[-35.387,27.982],[-34.978,28.301],[-34.568,28.618],[-34.155,28.934],[-33.739,29.249],[-33.321,29.562],[-32.9,29.875]]}},{"type":"Feature","properties":{"boundary_type":"subduction","feature_type":"gpml:SubductionZone","polarity":"Left","overriding_plate_id":98046,"subducting_plate_id":98044,"plate_ids":[98044,98046],"name":"Missing-Link subduction"},"geometry":{"type":"LineString","coordinates":[[162.38,22.327],[161.865,22.423],[161.35,22.517],[160.834,22.61],[160.318,22.7],[159.8,22.79],[159.282,22.877],[158.764,22.963],[158.244,23.047],[157.725,23.13],[157.204,23.211],[156.683,23.29],[156.161,23.367],[155.639,23.443],[155.116,23.517],[154.651,23.723],[154.185,23.929],[153.718,24.133],[153.249,24.335],[152.779,24.536],[152.307,24.736],[151.834,24.934],[151.359,25.13],[150.883,25.326],[150.405,25.519],[149.926,25.711],[149.445,25.902],[148.962,26.09],[148.478,26.278],[147.993,26.463],[147.506,26.647],[147.017,26.829],[146.527,27.01],[146.033,27.226],[145.538,27.441],[145.041,27.654],[144.541,27.865],[144.04,28.074],[143.537,28.281],[143.032,28.487],[142.525,28.69],[142.016,28.892],[141.505,29.092],[140.993,29.29],[140.478,29.486],[139.961,29.68],[139.442,29.872],[138.921,30.062],[138.398,30.25],[137.874,30.435],[137.347,30.619],[136.818,30.8],[136.287,30.98],[135.755,31.157],[135.22,31.332],[134.683,31.505],[134.144,31.675],[133.604,31.844],[133.155,32.157],[132.703,32.47],[132.248,32.78],[131.79,33.089],[131.329,33.397],[130.864,33.702],[130.396,34.006],[129.925,34.308],[129.451,34.609],[128.972,34.907],[128.491,35.204],[128.006,35.498],[127.517,35.791],[127.025,36.082],[126.529,36.37],[126.03,36.657],[125.526,36.941],[125.019,37.224],[124.508,37.504],[123.994,37.782],[123.475,38.057],[122.953,38.331],[122.426,38.602],[121.896,38.87],[121.362,39.137],[120.823,39.401],[120.281,39.662],[119.734,39.921],[119.184,40.177],[118.629,40.43],[118.07,40.681],[117.507,40.929],[116.939,41.175],[116.368,41.417],[115.792,41.657],[115.212,41.894],[114.714,42.183],[114.212,42.469],[113.706,42.753],[113.195,43.036],[112.679,43.315],[112.158,43.593],[111.633,43.868],[111.103,44.14],[110.568,44.411],[110.028,44.678],[109.482,44.943],[108.956,45.229],[108.424,45.512],[107.886,45.793],[107.343,46.071],[106.795,46.346],[106.241,46.619],[105.682,46.89],[105.117,47.157],[104.546,47.422],[103.97,47.684],[103.388,47.942],[102.799,48.198]]}},{"type":"Feature","properties":{"boundary_type":"subduction","feature_type":"gpml:SubductionZone","polarity":"Left","overriding_plate_id":3003,"subducting_plate_id":714,"plate_ids":[714,3003],"name":"Avalonia-Ganderia subduction zone"},"geometry":{"type":"LineString","coordinates":[[-146.263,-36.3],[-145.91,-36.132],[-145.335,-36.109],[-144.76,-36.082],[-144.186,-36.053],[-143.612,-36.022],[-143.039,-35.987],[-142.466,-35.95],[-141.894,-35.91],[-141.315,-35.885],[-140.736,-35.858],[-140.158,-35.827],[-139.58,-35.794],[-139.003,-35.758],[-138.426,-35.72],[-137.85,-35.678],[-137.274,-35.634],[-136.699,-35.587],[-136.125,-35.538],[-135.552,-35.485],[-134.979,-35.43],[-134.383,-35.348],[-133.788,-35.263],[-133.194,-35.175],[-132.602,-35.084],[-132.01,-34.99],[-131.421,-34.893],[-130.832,-34.794],[-130.245,-34.691],[-129.66,-34.586],[-129.076,-34.478],[-128.494,-34.368],[-127.913,-34.254],[-127.334,-34.138],[-126.756,-34.019],[-126.18,-33.897],[-125.606,-33.773],[-125.033,-33.646],[-124.462,-33.517],[-123.893,-33.384],[-123.325,-33.25],[-122.76,-33.112],[-122.196,-32.972],[-121.634,-32.83],[-121.073,-32.685],[-120.515,-32.538],[-119.958,-32.388],[-119.403,-32.236],[-118.834,-32.102],[-118.267,-31.967],[-117.702,-31.828],[-117.138,-31.688],[-116.576,-31.544],[-116.015,-31.399],[-115.457,-31.25],[-114.9,-31.1],[-114.345,-30.947],[-113.791,-30.792],[-113.228,-30.701],[-112.666,-30.608],[-112.105,-30.512],[-111.545,-30.415],[-110.986,-30.314],[-110.429,-30.212],[-109.872,-30.107],[-109.317,-29.999],[-108.763,-29.89],[-108.21,-29.778],[-107.658,-29.663],[-107.129,-29.584],[-106.6,-29.502],[-106.073,-29.418],[-105.546,-29.333],[-105.02,-29.245],[-104.495,-29.155],[-103.971,-29.063],[-103.448,-28.969],[-102.925,-28.873],[-102.404,-28.775],[-101.884,-28.675],[-101.365,-28.573],[-100.847,-28.469],[-100.353,-28.418],[-99.859,-28.365],[-99.367,-28.311],[-98.874,-28.255],[-98.383,-28.197],[-97.891,-28.137],[-97.401,-28.075],[-96.855,-28.056],[-96.31,-28.034],[-95.765,-28.01],[-95.221,-27.984],[-94.677,-27.956],[-94.133,-27.926],[-93.589,-27.894],[-93.045,-27.859],[-92.502,-27.822],[-91.96,-27.784],[-91.418,-27.743],[-90.957,-27.768],[-90.497,-27.792]]}},{"type":"Feature","properties":{"boundary_type":"subduction","feature_type":"gpml:SubductionZone","polarity":"Left","overriding_plate_id":98043,"subducting_plate_id":714,"plate_ids":[714,98043],"name":"Avalonia-Ganderia subduction zone"},"geometry":{"type":"LineString","coordinates":[[-90.497,-27.792],[-89.969,-27.818],[-89.44,-27.842],[-88.911,-27.863],[-88.382,-27.883],[-87.853,-27.901],[-87.323,-27.916],[-86.794,-27.93],[-86.264,-27.941],[-85.734,-27.951],[-85.249,-27.952],[-84.764,-27.952],[-84.278,-27.951]]}},{"type":"Feature","properties":{"boundary_type":"subduction","feature_type":"gpml:SubductionZone","polarity":"Left","overriding_plate_id":22053,"subducting_plate_id":701,"plate_ids":[701,22053],"name":"Brasilia Belt"},"geometry":{"type":"LineString","coordinates":[[90.376,-45.948],[90.11,-46.385],[89.84,-46.821],[89.566,-47.257],[89.287,-47.692],[89.003,-48.126],[88.666,-48.49],[88.323,-48.853],[87.976,-49.216],[87.624,-49.577],[87.266,-49.937],[86.772,-50.281],[86.27,-50.623],[85.761,-50.963],[85.245,-51.301],[84.721,-51.636],[84.19,-51.97],[83.65,-52.3],[83.102,-52.628],[82.547,-52.954],[81.948,-53.212],[81.343,-53.467],[80.73,-53.72],[80.109,-53.969],[79.482,-54.214],[78.847,-54.457],[78.583,-54.884],[78.313,-55.31],[78.038,-55.735],[77.756,-56.16],[77.469,-56.584],[77.174,-57.008],[76.873,-57.431],[76.696,-57.907],[76.513,-58.382],[76.326,-58.858],[76.133,-59.333],[75.935,-59.808],[75.731,-60.282],[75.522,-60.757]]}},{"type":"Feature","properties":{"boundary_type":"subduction","feature_type":"gpml:SubductionZone","polarity":"Left","overriding_plate_id":22053,"subducting_plate_id":701,"plate_ids":[701,22053],"name":"Goias Arc and Brasilia Belt"},"geometry":{"type":"LineString","coordinates":[[65.773,-59.071],[65.198,-59.423],[64.612,-59.772],[64.014,-60.118],[63.402,-60.461],[62.778,-60.802],[62.141,-61.139],[61.489,-61.474],[60.824,-61.805],[60.356,-62.124],[59.878,-62.441],[59.389,-62.757],[58.751,-62.989],[58.102,-63.219],[57.442,-63.445],[56.415,-63.611],[55.375,-63.769],[54.324,-63.92],[53.262,-64.063],[52.6,-64.443],[51.92,-64.82],[51.221,-65.194],[50.501,-65.564],[49.761,-65.931],[49.0,-66.294],[48.216,-66.654],[47.41,-67.009],[46.579,-67.36]]}},{"type":"Feature","properties":{"boundary_type":"subduction","feature_type":"gpml:SubductionZone","polarity":"Left","overriding_plate_id":714,"subducting_plate_id":701,"plate_ids":[701,714],"name":"Goias Arc and Brasilia Belt"},"geometry":{"type":"LineString","coordinates":[[46.579,-67.36],[45.929,-67.625],[44.927,-67.879],[43.902,-68.126],[42.856,-68.367],[41.788,-68.601],[40.698,-68.828],[39.585,-69.048],[38.45,-69.261],[37.293,-69.466],[36.115,-69.664],[34.914,-69.853],[33.545,-69.906],[32.169,-69.948],[30.788,-69.98],[29.404,-70.001],[28.018,-70.012],[26.732,-69.997],[25.447,-69.972],[24.166,-69.939],[22.89,-69.896],[21.62,-69.844],[20.356,-69.784],[18.92,-69.79]]}},{"type":"Feature","properties":{"boundary_type":"subduction","feature_type":"gpml:SubductionZone","polarity":"Left","overriding_plate_id":77148,"subducting_plate_id":77144,"plate_ids":[77144,77148],"name":"Serouenent Terrane accretion"},"geometry":{"type":"LineString","coordinates":[[-43.091,-52.039],[-42.506,-52.362],[-41.913,-52.683],[-41.31,-53.001],[-40.699,-53.316],[-39.948,-53.52],[-39.189,-53.72],[-38.424,-53.915],[-37.634,-54.086],[-36.838,-54.252],[-36.035,-54.412],[-35.226,-54.567],[-34.411,-54.717],[-33.76,-54.829],[-33.105,-54.937],[-32.447,-55.042],[-31.785,-55.143],[-31.312,-55.213],[-30.661,-55.409],[-30.003,-55.602],[-29.339,-55.791],[-28.684,-56.0],[-28.021,-56.204],[-27.438,-56.472],[-26.848,-56.736],[-26.248,-56.998],[-25.641,-57.257]]}},{"type":"Feature","properties":{"boundary_type":"subduction","feature_type":"gpml:SubductionZone","polarity":"Left","overriding_plate_id":77144,"subducting_plate_id":77147,"plate_ids":[77144,77147],"name":"Hoggar assembly"},"geometry":{"type":"LineString","coordinates":[[-54.924,-54.161],[-54.623,-54.531],[-54.316,-54.9],[-54.004,-55.269],[-53.686,-55.636],[-53.306,-55.979],[-52.919,-56.32],[-52.525,-56.66],[-52.125,-56.999],[-51.602,-57.312],[-51.07,-57.623],[-50.53,-57.931],[-49.98,-58.237],[-49.42,-58.541],[-48.872,-58.894],[-48.312,-59.244],[-47.74,-59.592],[-47.157,-59.938],[-46.423,-60.278],[-45.674,-60.613],[-44.909,-60.945],[-44.589,-61.07]]}},{"type":"Feature","properties":{"boundary_type":"subduction","feature_type":"gpml:SubductionZone","polarity":"Left","overriding_plate_id":77144,"subducting_plate_id":714,"plate_ids":[714,77144],"name":"Hoggar assembly"},"geometry":{"type":"LineString","coordinates":[[-44.589,-61.07],[-43.802,-61.372],[-42.999,-61.669],[-42.182,-61.961],[-41.348,-62.248],[-40.544,-62.478],[-39.727,-62.702],[-38.898,-62.922],[-38.056,-63.137],[-37.202,-63.347],[-36.336,-63.552],[-35.457,-63.751],[-34.561,-63.913],[-33.654,-64.068],[-32.738,-64.218],[-31.811,-64.363],[-30.875,-64.501],[-29.93,-64.633]]}},{"type":"Feature","properties":{"boundary_type":"subduction","feature_type":"gpml:SubductionZone","polarity":"Left","overriding_plate_id":77148,"subducting_plate_id":714,"plate_ids":[714,77148],"name":"Hoggar assembly"},"geometry":{"type":"LineString","coordinates":[[-29.93,-64.633],[-29.107,-64.743],[-28.277,-64.847],[-27.44,-64.947],[-26.511,-65.037],[-25.576,-65.122],[-24.636,-65.2],[-23.689,-65.273],[-22.738,-65.339]]}},{"type":"Feature","properties":{"boundary_type":"subduction","feature_type":"gpml:SubductionZone","polarity":"Right","overriding_plate_id":98043,"subducting_plate_id":714,"plate_ids":[714,98043],"name":""},"geometry":{"type":"LineString","coordinates":[[-37.444,-49.503],[-38.114,-49.279],[-38.778,-49.053],[-39.436,-48.822],[-40.088,-48.587],[-40.733,-48.349],[-41.373,-48.108],[-42.007,-47.863],[-42.634,-47.614],[-43.256,-47.362],[-43.927,-47.172],[-44.594,-46.978],[-45.256,-46.781],[-45.912,-46.579],[-46.564,-46.374],[-47.211,-46.165],[-47.853,-45.953],[-48.49,-45.736],[-49.122,-45.517],[-49.75,-45.294],[-50.372,-45.067],[-50.989,-44.838],[-51.601,-44.605],[-52.209,-44.368],[-52.811,-44.129],[-53.409,-43.886],[-54.002,-43.64],[-54.589,-43.391],[-55.172,-43.14],[-55.751,-42.885],[-56.324,-42.627],[-56.893,-42.367],[-57.457,-42.104],[-58.016,-41.838],[-58.571,-41.569],[-59.121,-41.298],[-59.666,-41.024],[-60.207,-40.747],[-60.743,-40.468],[-61.275,-40.187],[-61.789,-39.925],[-62.3,-39.661],[-62.806,-39.394],[-63.309,-39.126],[-63.808,-38.855],[-64.303,-38.582],[-64.794,-38.307],[-65.281,-38.03],[-65.765,-37.751],[-66.245,-37.47],[-66.722,-37.187],[-67.195,-36.902],[-67.664,-36.616],[-68.13,-36.327],[-68.593,-36.037],[-69.052,-35.745],[-69.552,-35.502],[-70.048,-35.256],[-70.542,-35.008],[-71.032,-34.759],[-71.52,-34.507],[-72.005,-34.254],[-72.486,-33.998],[-72.965,-33.741],[-73.441,-33.482],[-73.914,-33.221],[-74.385,-32.958],[-74.852,-32.694],[-75.317,-32.428],[-75.779,-32.16],[-76.238,-31.89],[-76.695,-31.619],[-77.149,-31.346],[-77.6,-31.072],[-78.091,-30.86],[-78.579,-30.647],[-79.066,-30.432],[-79.55,-30.215],[-80.033,-29.996],[-80.513,-29.775],[-80.991,-29.553],[-81.467,-29.329],[-81.94,-29.103],[-82.412,-28.876],[-82.882,-28.647],[-83.349,-28.416],[-83.815,-28.184],[-84.278,-27.951]]}},{"type":"Feature","properties":{"boundary_type":"ridge","feature_type":"gpml:MidOceanRidge","polarity":null,"overriding_plate_id":null,"subducting_plate_id":null,"plate_ids":[801,98043],"name":"Tarim-Lut MOR"},"geometry":{"type":"LineString","coordinates":[[-27.179,-3.534],[-27.095,-3.125],[-27.012,-2.717],[-26.928,-2.308],[-26.844,-1.899],[-26.76,-1.49]]}},{"type":"Feature","properties":{"boundary_type":"ridge","feature_type":"gpml:MidOceanRidge","polarity":null,"overriding_plate_id":null,"subducting_plate_id":null,"plate_ids":[580,801],"name":"Tarim-Lut MOR"},"geometry":{"type":"LineString","coordinates":[[-26.76,-1.49],[-26.663,-1.014],[-26.566,-0.539],[-26.468,-0.063],[-26.371,0.412],[-26.274,0.888],[-26.176,1.364],[-26.079,1.839],[-25.982,2.315],[-25.884,2.79],[-25.787,3.266],[-25.689,3.741],[-25.983,3.969],[-26.277,4.197],[-26.572,4.425],[-26.488,4.908],[-26.404,5.392],[-26.32,5.876],[-26.236,6.359],[-26.151,6.843],[-26.067,7.326],[-25.982,7.81],[-25.897,8.294],[-25.812,8.777],[-25.727,9.261],[-25.641,9.744],[-25.555,10.228],[-25.469,10.711],[-25.382,11.195],[-25.296,11.678],[-25.209,12.162],[-25.121,12.645],[-25.515,12.657],[-25.909,12.669],[-26.304,12.679],[-26.179,13.127],[-26.054,13.575],[-25.928,14.022],[-25.802,14.47],[-25.676,14.917],[-25.549,15.364],[-25.421,15.812],[-25.293,16.259],[-25.164,16.706],[-25.035,17.153],[-24.905,17.6],[-24.774,18.047],[-24.643,18.493],[-24.297,18.404],[-23.952,18.313],[-23.812,18.781],[-23.672,19.249],[-23.53,19.717],[-23.388,20.185],[-23.245,20.653],[-23.102,21.121],[-22.957,21.588],[-22.811,22.056],[-22.665,22.523],[-23.124,22.605],[-23.584,22.685],[-23.412,23.159],[-23.24,23.633],[-23.066,24.107],[-22.891,24.58],[-22.715,25.053],[-22.537,25.526],[-22.358,25.999],[-22.178,26.472],[-21.996,26.944],[-21.812,27.416],[-21.627,27.888],[-21.122,27.884]]}},{"type":"Feature","properties":{"boundary_type":"ridge","feature_type":"gpml:MidOceanRidge","polarity":null,"overriding_plate_id":null,"subducting_plate_id":null,"plate_ids":[3003,98043],"name":"Mirovoi MOR"},"geometry":{"type":"LineString","coordinates":[[-92.225,-15.969],[-91.883,-15.911],[-91.541,-15.852],[-91.199,-15.793],[-91.173,-16.273],[-91.147,-16.753],[-91.121,-17.233],[-91.094,-17.713],[-91.068,-18.193],[-91.041,-18.673],[-91.014,-19.153],[-90.987,-19.633],[-90.96,-20.113],[-90.932,-20.593],[-90.905,-21.073],[-90.877,-21.553],[-90.849,-22.033],[-90.821,-22.513],[-90.793,-22.993],[-90.764,-23.473],[-90.735,-23.953],[-90.706,-24.433],[-90.677,-24.913],[-90.648,-25.393],[-90.618,-25.873],[-90.588,-26.353],[-90.558,-26.832],[-90.528,-27.312],[-90.497,-27.792]]}},{"type":"Feature","properties":{"boundary_type":"ridge","feature_type":"gpml:MidOceanRidge","polarity":null,"overriding_plate_id":null,"subducting_plate_id":null,"plate_ids":[701,801],"name":"Aus-Azania MoR"},"geometry":{"type":"LineString","coordinates":[[69.245,-13.876],[68.968,-13.479],[68.692,-13.082],[68.416,-12.685],[68.142,-12.287],[67.868,-11.889],[67.595,-11.491],[67.323,-11.093],[67.052,-10.694],[66.781,-10.295],[66.511,-9.896],[66.242,-9.496],[66.532,-9.268],[66.821,-9.04],[66.556,-8.652],[66.292,-8.264],[66.028,-7.875],[65.765,-7.487],[65.502,-7.099],[65.239,-6.71],[64.977,-6.321],[64.716,-5.932]]}},{"type":"Feature","properties":{"boundary_type":"ridge","feature_type":"gpml:MidOceanRidge","polarity":null,"overriding_plate_id":null,"subducting_plate_id":null,"plate_ids":[801,5032],"name":"Aus-Azania MoR"},"geometry":{"type":"LineString","coordinates":[[64.716,-5.932],[64.498,-5.608],[64.28,-5.283],[64.063,-4.959]]}},{"type":"Feature","properties":{"boundary_type":"ridge","feature_type":"gpml:MidOceanRidge","polarity":null,"overriding_plate_id":null,"subducting_plate_id":null,"plate_ids":[801,5032],"name":"Mawson sea?"},"geometry":{"type":"LineString","coordinates":[[61.303,-6.509],[61.082,-6.11],[60.86,-5.711],[60.639,-5.311],[60.419,-4.911],[60.198,-4.512],[59.978,-4.112],[59.758,-3.712],[59.538,-3.313],[59.206,-3.496],[58.874,-3.679],[58.541,-3.863],[58.209,-4.046],[57.924,-3.646],[57.64,-3.247],[57.357,-2.847],[57.073,-2.448],[56.79,-2.048],[56.506,-1.648],[56.223,-1.249],[55.94,-0.849],[55.657,-0.449],[55.374,-0.049],[55.091,0.35],[54.808,0.75],[54.525,1.15],[54.241,1.55],[53.958,1.949],[53.675,2.349],[53.391,2.749],[53.107,3.148],[52.83,2.953],[52.553,2.758],[52.277,2.562],[52.019,2.907],[51.762,3.253],[51.504,3.598]]}},{"type":"Feature","properties":{"boundary_type":"ridge","feature_type":"gpml:MidOceanRidge","polarity":null,"overriding_plate_id":null,"subducting_plate_id":null,"plate_ids":[3003,98044],"name":"MOR of unnamed large oceanic plate"},"geometry":{"type":"LineString","coordinates":[[162.475,24.387],[163.001,24.333],[163.526,24.278],[164.05,24.222],[164.574,24.163],[165.098,24.103],[165.621,24.041],[166.144,23.977],[166.666,23.911],[167.187,23.844],[167.708,23.774],[168.229,23.703],[168.748,23.631],[169.268,23.556],[169.786,23.48],[170.304,23.402],[170.822,23.323],[171.339,23.242],[171.855,23.159],[172.37,23.074],[172.885,22.988],[173.399,22.9],[173.913,22.81],[173.923,23.264],[173.934,23.717],[173.945,24.17],[173.956,24.623],[174.494,24.556],[175.032,24.487],[175.569,24.417],[176.105,24.344],[176.641,24.269],[177.176,24.193],[177.711,24.115],[178.245,24.035],[178.778,23.953],[179.311,23.869],[179.843,23.784],[-179.626,23.696],[-179.096,23.607],[-178.566,23.516],[-178.037,23.423],[-177.509,23.328],[-176.981,23.232],[-176.454,23.134],[-175.928,23.034],[-175.403,22.932],[-174.879,22.829],[-174.355,22.724],[-173.833,22.617],[-173.311,22.509],[-172.79,22.399],[-172.269,22.287],[-171.75,22.174],[-171.231,22.059],[-170.714,21.942],[-170.197,21.824],[-169.681,21.704],[-169.165,21.582],[-168.651,21.459],[-168.138,21.334],[-167.625,21.208],[-167.113,21.08],[-166.603,20.951],[-166.093,20.82],[-165.584,20.688],[-165.076,20.554],[-164.568,20.419],[-164.062,20.282],[-163.557,20.144],[-163.052,20.004],[-162.549,19.863],[-162.046,19.72],[-161.544,19.577],[-161.043,19.431],[-160.543,19.285],[-160.044,19.137],[-159.546,18.987],[-159.048,18.837],[-158.552,18.685],[-158.056,18.531],[-157.562,18.377],[-157.068,18.221],[-156.575,18.064],[-156.083,17.905],[-156.032,18.344],[-155.98,18.783],[-155.928,19.222],[-155.876,19.661],[-155.823,20.1],[-155.329,19.937],[-154.836,19.773],[-154.343,19.608],[-153.852,19.441],[-153.362,19.273],[-152.873,19.103],[-152.385,18.933],[-151.898,18.761],[-151.411,18.588],[-150.926,18.413],[-150.442,18.237],[-149.959,18.06],[-149.477,17.882],[-148.995,17.703],[-148.515,17.522],[-148.036,17.341],[-147.557,17.158],[-147.08,16.974],[-146.603,16.789],[-146.128,16.603],[-145.653,16.416],[-145.179,16.228],[-144.706,16.038],[-144.235,15.848],[-143.764,15.657],[-143.293,15.464],[-142.824,15.271],[-142.356,15.077],[-141.888,14.881],[-141.421,14.685],[-140.955,14.488],[-140.49,14.29],[-140.026,14.091],[-139.563,13.891],[-139.1,13.69],[-138.638,13.489],[-138.177,13.286],[-137.717,13.083],[-137.258,12.879],[-136.799,12.674],[-136.341,12.469],[-135.883,12.262],[-135.427,12.055],[-134.971,11.847],[-134.516,11.638],[-134.061,11.429],[-133.607,11.219],[-133.154,11.008],[-132.702,10.797],[-132.25,10.585],[-132.021,11.007],[-131.792,11.429],[-131.562,11.851],[-131.332,12.272],[-131.1,12.694],[-130.868,13.115],[-130.635,13.536],[-130.402,13.957],[-130.167,14.377],[-129.932,14.797],[-129.695,15.218],[-129.458,15.637],[-129.22,16.057],[-128.98,16.476],[-128.74,16.895],[-128.498,17.314],[-128.043,17.074],[-127.589,16.832],[-127.137,16.59],[-126.685,16.347],[-126.235,16.102],[-125.785,15.857],[-125.337,15.611],[-124.89,15.364],[-124.444,15.116],[-123.999,14.867],[-123.555,14.618],[-123.112,14.367],[-122.669,14.116],[-122.228,13.864],[-121.788,13.611],[-121.349,13.357],[-120.911,13.103],[-120.473,12.847],[-120.037,12.592],[-119.601,12.335],[-119.167,12.078],[-118.733,11.82],[-118.3,11.561],[-117.867,11.302],[-117.436,11.042],[-117.005,10.781],[-116.575,10.52],[-116.146,10.259],[-115.717,9.996],[-115.29,9.734],[-114.862,9.47],[-114.436,9.206],[-114.01,8.942],[-113.585,8.677],[-113.16,8.412],[-112.736,8.146],[-112.312,7.88],[-111.889,7.613],[-111.467,7.346],[-111.045,7.079],[-110.623,6.811],[-110.202,6.543],[-109.782,6.275],[-109.362,6.006],[-108.942,5.737],[-108.523,5.467],[-108.104,5.197],[-107.685,4.927],[-107.267,4.657],[-106.849,4.386],[-106.432,4.116],[-106.014,3.845],[-105.597,3.573],[-105.18,3.302],[-104.764,3.03],[-104.984,2.595],[-105.203,2.16],[-105.423,1.724],[-105.642,1.289],[-105.861,0.853],[-106.08,0.418],[-106.3,-0.018],[-106.519,-0.454],[-106.103,-0.731],[-105.686,-1.008],[-105.27,-1.285],[-104.854,-1.562],[-104.438,-1.839],[-104.021,-2.116],[-103.604,-2.393],[-103.188,-2.669],[-102.771,-2.946],[-102.353,-3.222],[-101.936,-3.498],[-101.518,-3.774],[-101.1,-4.05],[-100.682,-4.326],[-100.263,-4.601],[-99.844,-4.876],[-99.425,-5.151],[-99.006,-5.425],[-98.586,-5.7],[-98.165,-5.974],[-97.744,-6.247],[-97.323,-6.52],[-96.901,-6.793],[-96.479,-7.066],[-96.057,-7.338],[-95.633,-7.61],[-95.21,-7.881],[-94.785,-8.152],[-94.361,-8.423],[-93.935,-8.693],[-93.509,-8.963],[-93.082,-9.232],[-92.655,-9.5],[-92.227,-9.768],[-91.798,-10.036],[-91.369,-10.303],[-90.939,-10.569],[-90.508,-10.835],[-90.076,-11.1],[-89.644,-11.365],[-89.21,-11.629],[-88.776,-11.892],[-88.341,-12.155],[-87.906,-12.417],[-87.469,-12.678],[-87.031,-12.939],[-86.593,-13.199],[-86.154,-13.458]]}},{"type":"Feature","properties":{"boundary_type":"ridge","feature_type":"gpml:MidOceanRidge","polarity":null,"overriding_plate_id":null,"subducting_plate_id":null,"plate_ids":[3003,98043],"name":"MOR of unnamed large oceanic plate"},"geometry":{"type":"LineString","coordinates":[[-92.225,-15.969],[-91.753,-15.782],[-91.282,-15.593],[-90.811,-15.404],[-90.342,-15.213],[-89.873,-15.022],[-89.405,-14.83],[-88.938,-14.637],[-88.472,-14.442],[-88.007,-14.247],[-87.542,-14.051],[-87.079,-13.854],[-86.616,-13.657],[-86.154,-13.458]]}},{"type":"Feature","properties":{"boundary_type":"ridge","feature_type":"gpml:MidOceanRidge","polarity":null,"overriding_plate_id":null,"subducting_plate_id":null,"plate_ids":[98043,98044],"name":"MOR of unnamed large oceanic plate"},"geometry":{"type":"LineString","coordinates":[[-86.154,-13.458],[-85.69,-13.258],[-85.227,-13.056],[-84.765,-12.854],[-84.304,-12.651],[-83.843,-12.448],[-83.383,-12.243],[-82.924,-12.038],[-82.465,-11.832],[-82.008,-11.625],[-81.551,-11.418],[-81.094,-11.21],[-80.638,-11.001],[-80.183,-10.791],[-79.729,-10.581],[-79.275,-10.37],[-78.821,-10.159],[-78.369,-9.947],[-77.917,-9.734],[-77.465,-9.521],[-77.014,-9.307],[-76.564,-9.093],[-76.114,-8.878],[-75.665,-8.662],[-75.216,-8.446],[-74.768,-8.229],[-74.32,-8.012],[-73.872,-7.795],[-73.425,-7.577],[-72.979,-7.358],[-72.533,-7.14],[-72.088,-6.92],[-71.642,-6.701],[-71.198,-6.48],[-70.753,-6.26],[-70.309,-6.039],[-70.03,-6.378],[-69.75,-6.717],[-69.47,-7.056],[-69.19,-7.394],[-68.909,-7.732],[-68.43,-7.603],[-67.951,-7.473],[-67.473,-7.342],[-66.995,-7.211],[-66.517,-7.079],[-66.04,-6.947],[-65.563,-6.814],[-65.086,-6.681],[-64.61,-6.548],[-64.133,-6.414],[-63.657,-6.279],[-63.181,-6.144],[-62.706,-6.009],[-62.23,-5.873],[-61.755,-5.737],[-61.28,-5.601],[-60.806,-5.464],[-60.331,-5.327],[-59.857,-5.189],[-59.383,-5.051],[-58.909,-4.913],[-58.435,-4.774],[-57.962,-4.635],[-57.489,-4.496],[-57.016,-4.356],[-56.543,-4.216],[-56.07,-4.076],[-55.597,-3.936],[-55.125,-3.795],[-54.653,-3.654],[-54.181,-3.513],[-53.709,-3.372],[-53.237,-3.23],[-52.765,-3.088],[-52.294,-2.946],[-51.822,-2.803],[-51.351,-2.661],[-50.88,-2.518],[-50.408,-2.375],[-49.937,-2.232],[-49.467,-2.089],[-48.996,-1.946],[-48.525,-1.803],[-48.278,-2.213],[-48.031,-2.624],[-47.785,-3.034],[-47.537,-3.445],[-47.29,-3.855],[-47.042,-4.265],[-46.583,-4.088],[-46.123,-3.91],[-45.664,-3.732],[-45.205,-3.553],[-44.746,-3.375],[-44.287,-3.196],[-43.829,-3.017],[-43.37,-2.838],[-42.912,-2.658],[-42.454,-2.479],[-41.996,-2.299],[-41.538,-2.119],[-41.08,-1.939],[-40.622,-1.759],[-40.164,-1.579],[-39.707,-1.399],[-39.249,-1.218],[-38.792,-1.038],[-38.335,-0.857],[-37.877,-0.677],[-37.42,-0.496],[-36.963,-0.315],[-36.505,-0.135],[-36.048,0.046],[-35.591,0.227],[-35.134,0.407],[-34.676,0.588],[-34.219,0.769],[-33.762,0.949],[-33.304,1.13],[-32.847,1.31]]}},{"type":"Feature","properties":{"boundary_type":"ridge","feature_type":"gpml:MidOceanRidge","polarity":null,"overriding_plate_id":null,"subducting_plate_id":null,"plate_ids":[101,701],"name":"Laurentia-Kalahari"},"geometry":{"type":"LineString","coordinates":[[100.953,-30.3],[100.504,-30.352],[100.053,-30.402],[100.086,-29.91],[100.119,-29.418],[100.151,-28.926],[100.183,-28.434],[100.215,-27.942],[100.246,-27.45],[100.277,-26.957],[100.308,-26.465],[100.338,-25.973],[100.368,-25.481],[100.398,-24.989],[100.428,-24.497],[100.458,-24.005],[100.487,-23.512],[100.516,-23.02],[100.545,-22.528],[100.574,-22.036],[100.602,-21.544],[100.631,-21.052],[100.276,-21.133],[99.921,-21.214],[99.943,-20.742],[99.965,-20.27],[99.987,-19.799],[100.008,-19.327],[100.03,-18.856],[100.051,-18.384],[100.073,-17.912],[100.094,-17.441],[100.115,-16.969],[100.136,-16.498],[100.157,-16.026],[100.178,-15.554],[100.199,-15.083],[100.22,-14.611],[99.818,-14.568],[99.416,-14.525],[99.015,-14.481],[99.045,-14.001],[99.076,-13.521],[99.106,-13.041],[99.136,-12.561],[99.166,-12.081],[98.717,-12.045],[98.267,-12.008],[98.308,-11.519],[98.349,-11.03],[98.389,-10.54],[98.429,-10.051],[98.469,-9.562],[98.509,-9.073],[98.549,-8.584],[98.589,-8.095],[98.629,-7.605],[98.668,-7.116],[98.708,-6.627],[98.747,-6.138],[98.787,-5.649],[98.826,-5.16],[98.865,-4.67],[98.904,-4.181],[98.943,-3.692],[98.982,-3.203],[99.022,-2.714],[99.061,-2.224],[99.1,-1.735],[99.139,-1.246],[99.178,-0.757],[99.216,-0.268],[99.255,0.222],[99.294,0.711],[99.333,1.2]]}},{"type":"Feature","properties":{"boundary_type":"ridge","feature_type":"gpml:MidOceanRidge","polarity":null,"overriding_plate_id":null,"subducting_plate_id":null,"plate_ids":[701,801],"name":"Laurentia-Kalahari"},"geometry":{"type":"LineString","coordinates":[[99.333,1.2],[99.366,1.616],[99.4,2.032],[98.914,2.056],[98.428,2.08],[97.942,2.104],[97.456,2.128],[96.97,2.151],[96.484,2.175],[95.998,2.198],[95.511,2.221],[95.025,2.244],[94.539,2.267],[94.053,2.289],[93.567,2.312],[93.081,2.334],[93.247,2.768],[93.412,3.202]]}},{"type":"Feature","properties":{"boundary_type":"ridge","feature_type":"gpml:MidOceanRidge","polarity":null,"overriding_plate_id":null,"subducting_plate_id":null,"plate_ids":[101,801],"name":"Laur rift unknown?"},"geometry":{"type":"LineString","coordinates":[[99.333,1.2],[99.681,1.178],[100.028,1.156],[100.375,1.135]]}},{"type":"Feature","properties":{"boundary_type":"ridge","feature_type":"gpml:MidOceanRidge","polarity":null,"overriding_plate_id":null,"subducting_plate_id":null,"plate_ids":[101,98046],"name":"Laur rift unknown?"},"geometry":{"type":"LineString","coordinates":[[100.375,1.135],[100.844,1.105],[101.312,1.075],[101.781,1.046],[102.249,1.016],[102.718,0.986],[102.812,1.453],[102.905,1.92],[102.999,2.387],[103.093,2.854],[103.187,3.321],[103.281,3.788],[103.691,3.953],[104.1,4.118],[104.51,4.283],[104.92,4.447],[105.331,4.612],[105.741,4.776],[106.152,4.94],[106.563,5.103],[106.676,5.507],[106.79,5.91],[106.904,6.314],[107.018,6.717],[107.132,7.12],[107.247,7.524],[107.746,7.571],[108.246,7.617],[108.745,7.663],[109.245,7.709],[109.745,7.754],[110.245,7.798],[110.745,7.842],[111.245,7.885],[111.745,7.928],[112.246,7.97],[112.746,8.011],[113.247,8.052],[113.747,8.092],[114.248,8.131],[114.749,8.17],[115.25,8.209],[115.751,8.246],[116.252,8.283],[116.753,8.32],[117.255,8.356],[117.756,8.391],[118.257,8.425],[118.759,8.459],[119.261,8.493],[119.763,8.525],[120.264,8.557],[120.766,8.589],[121.268,8.619],[121.771,8.649],[122.273,8.679],[122.775,8.707],[123.277,8.735],[123.78,8.763],[124.282,8.79],[124.785,8.816],[125.287,8.841],[125.79,8.866],[126.293,8.89],[126.796,8.913],[127.299,8.936],[127.802,8.958],[127.78,9.385],[127.757,9.811],[127.735,10.238],[127.713,10.664],[127.691,11.091],[128.188,11.072],[128.685,11.052],[129.181,11.032],[129.678,11.01],[130.175,10.988],[130.671,10.965],[131.168,10.942],[131.664,10.917],[132.16,10.892],[132.657,10.865],[133.153,10.838],[133.649,10.811],[134.145,10.782],[134.64,10.753],[135.136,10.723],[135.632,10.692],[136.127,10.66],[136.623,10.628],[137.118,10.594],[137.613,10.56],[138.109,10.526],[138.604,10.49],[139.098,10.454],[139.593,10.417],[140.088,10.379],[140.582,10.34],[141.077,10.301],[141.571,10.261],[142.065,10.22],[142.559,10.178],[143.053,10.136],[143.547,10.093],[144.041,10.049],[144.167,10.514],[144.293,10.98],[144.42,11.445],[144.548,11.91],[145.053,11.956],[145.559,12.002],[146.065,12.047],[146.571,12.09],[147.077,12.133],[147.583,12.175],[148.09,12.216],[148.596,12.256],[149.103,12.295],[149.61,12.334],[150.117,12.371],[150.624,12.407],[151.132,12.442],[151.639,12.477],[152.147,12.51],[152.655,12.543],[153.163,12.575],[153.671,12.605],[154.179,12.635],[154.687,12.664],[155.196,12.691],[155.704,12.718],[156.213,12.744],[156.721,12.769],[157.23,12.793],[157.739,12.815],[158.248,12.837],[158.261,13.321],[158.273,13.804],[158.286,14.287],[158.298,14.77],[158.311,15.253],[158.324,15.737],[158.336,16.22],[158.349,16.703],[158.362,17.186],[158.375,17.669],[158.388,18.153],[158.864,18.144],[159.339,18.134],[159.815,18.123],[160.29,18.111],[160.765,18.098],[161.24,18.084],[161.715,18.068],[162.19,18.051]]}},{"type":"Feature","properties":{"boundary_type":"ridge","feature_type":"gpml:MidOceanRidge","polarity":null,"overriding_plate_id":null,"subducting_plate_id":null,"plate_ids":[801,98044],"name":"Aus rift unknown?"},"geometry":{"type":"LineString","coordinates":[[93.609,67.006],[93.723,66.514],[93.833,66.022],[93.938,65.53],[94.039,65.037],[94.137,64.545],[94.231,64.052],[94.322,63.56],[94.41,63.067],[94.495,62.575],[94.577,62.082],[94.657,61.589],[94.734,61.096],[94.809,60.603],[94.881,60.111],[94.951,59.618],[95.02,59.125],[95.086,58.632],[95.15,58.139],[95.213,57.646],[95.274,57.153],[95.334,56.66],[95.392,56.166],[95.448,55.673],[95.503,55.18],[95.557,54.687],[95.609,54.194],[95.66,53.7],[95.71,53.207],[95.759,52.714],[95.807,52.221],[95.854,51.727],[95.899,51.234],[95.944,50.74],[95.988,50.247],[95.352,49.99],[94.723,49.729],[94.101,49.465],[93.486,49.197],[92.877,48.927],[92.275,48.653],[91.68,48.376],[91.091,48.096],[91.23,47.644],[91.367,47.192],[91.502,46.74],[91.635,46.288],[91.765,45.835],[91.894,45.382],[92.02,44.93],[92.144,44.477],[92.267,44.024]]}},{"type":"Feature","properties":{"boundary_type":"ridge","feature_type":"gpml:MidOceanRidge","polarity":null,"overriding_plate_id":null,"subducting_plate_id":null,"plate_ids":[801,98046],"name":"Aus rift unknown?"},"geometry":{"type":"LineString","coordinates":[[92.267,44.024],[92.397,43.536],[92.524,43.048],[92.65,42.56],[92.773,42.072],[92.895,41.584],[93.015,41.095],[93.133,40.607],[93.25,40.118],[93.364,39.629],[93.888,39.475],[94.409,39.318],[94.441,38.828],[94.472,38.337],[94.502,37.847],[94.533,37.357],[94.563,36.867],[94.592,36.376],[94.621,35.886],[94.65,35.396],[94.678,34.906],[94.706,34.415],[94.734,33.925],[94.761,33.435],[94.789,32.944],[94.815,32.454],[94.842,31.964],[94.868,31.474],[94.894,30.983],[94.92,30.493],[94.945,30.003],[94.97,29.512],[94.995,29.022],[95.02,28.531],[95.045,28.041],[95.069,27.551],[95.093,27.06],[95.117,26.57],[95.14,26.08],[95.164,25.589],[95.187,25.099],[95.21,24.608],[95.233,24.118],[95.256,23.628],[95.278,23.137],[95.3,22.647],[95.323,22.157],[95.345,21.666],[95.367,21.176],[95.388,20.685],[95.41,20.195],[95.432,19.704],[95.453,19.214],[95.474,18.724],[95.977,18.702],[96.48,18.679],[96.983,18.655],[97.485,18.63],[97.988,18.603],[98.49,18.575],[98.992,18.546],[99.494,18.515],[99.996,18.483],[100.498,18.449],[100.999,18.415],[101.5,18.378],[102.001,18.341],[101.952,17.85],[101.902,17.358],[101.853,16.867],[101.805,16.375],[101.756,15.884],[101.708,15.392],[101.66,14.901],[101.612,14.409],[101.564,13.917],[101.517,13.426],[101.47,12.934],[101.423,12.443],[101.376,11.951],[101.329,11.459],[101.283,10.968],[101.236,10.476],[101.19,9.985],[101.144,9.493],[101.098,9.001],[101.052,8.51],[101.006,8.018],[100.961,7.526],[100.915,7.035],[100.87,6.543],[100.825,6.051],[100.779,5.56],[100.734,5.068],[100.689,4.576],[100.644,4.085],[100.599,3.593],[100.554,3.101],[100.51,2.61],[100.465,2.118],[100.42,1.626],[100.375,1.135]]}},{"type":"Feature","properties":{"boundary_type":"ridge","feature_type":"gpml:MidOceanRidge","polarity":null,"overriding_plate_id":null,"subducting_plate_id":null,"plate_ids":[401,3003],"name":"siberia-Timan small ridge"},"geometry":{"type":"LineString","coordinates":[[-159.905,-18.101],[-160.254,-18.465],[-160.606,-18.827],[-160.958,-19.189],[-161.312,-19.55],[-161.668,-19.911],[-162.025,-20.271],[-162.384,-20.63],[-162.745,-20.988],[-163.108,-21.346]]}},{"type":"Feature","properties":{"boundary_type":"ridge","feature_type":"gpml:MidOceanRidge","polarity":null,"overriding_plate_id":null,"subducting_plate_id":null,"plate_ids":[101,401],"name":"siberia-Timan small ridge"},"geometry":{"type":"LineString","coordinates":[[-163.108,-21.346],[-163.129,-21.367],[-163.49,-21.044],[-163.85,-20.72],[-164.208,-20.395],[-164.565,-20.07],[-164.92,-19.743],[-165.274,-19.416],[-165.626,-19.089],[-165.977,-18.761],[-166.327,-18.432],[-166.657,-18.758],[-166.989,-19.084],[-167.323,-19.41],[-167.658,-19.735],[-167.994,-20.059],[-168.331,-20.382],[-168.67,-20.705],[-169.01,-21.028],[-169.352,-21.349],[-169.695,-21.67],[-170.041,-21.339],[-170.384,-21.007],[-170.727,-20.674],[-171.067,-20.34],[-171.407,-20.006],[-171.826,-20.305],[-172.248,-20.602],[-172.671,-20.898],[-173.095,-21.194],[-173.521,-21.488],[-173.949,-21.781],[-174.379,-22.073],[-174.811,-22.364],[-175.244,-22.654],[-175.679,-22.943],[-176.116,-23.23],[-176.555,-23.517],[-176.996,-23.802],[-177.439,-24.085],[-177.884,-24.368],[-178.33,-24.649],[-178.779,-24.929],[-179.23,-25.207],[-179.683,-25.485],[179.862,-25.76],[179.405,-26.035],[178.946,-26.307]]}},{"type":"Feature","properties":{"boundary_type":"ridge","feature_type":"gpml:MidOceanRidge","polarity":null,"overriding_plate_id":null,"subducting_plate_id":null,"plate_ids":[101,714],"name":"Amazonia-WAC ridge"},"geometry":{"type":"LineString","coordinates":[[99.405,-64.645],[100.534,-64.613],[101.659,-64.572],[102.78,-64.523],[103.897,-64.465],[105.009,-64.398],[106.115,-64.324],[107.215,-64.24],[108.308,-64.149],[109.394,-64.05],[110.471,-63.942],[111.54,-63.827],[112.6,-63.704],[113.651,-63.573],[114.691,-63.434],[115.722,-63.288],[116.741,-63.135],[117.75,-62.974],[118.747,-62.807],[119.733,-62.632],[120.708,-62.45],[121.755,-62.489],[122.804,-62.519],[123.856,-62.542],[124.909,-62.557],[125.962,-62.564],[127.016,-62.562],[128.07,-62.553],[129.122,-62.536],[130.173,-62.512],[131.222,-62.479],[132.269,-62.438],[133.312,-62.39],[134.352,-62.334],[135.387,-62.27],[136.418,-62.198],[137.444,-62.119],[138.464,-62.032],[139.478,-61.938],[140.486,-61.837],[141.487,-61.728],[142.48,-61.612],[143.406,-61.684],[144.336,-61.751],[145.27,-61.811],[146.207,-61.865],[147.147,-61.912],[148.09,-61.953],[149.036,-61.987],[149.261,-61.592],[149.482,-61.197],[149.696,-60.801],[150.638,-60.911],[151.586,-61.015],[152.54,-61.111],[153.5,-61.201],[154.465,-61.284],[155.435,-61.361],[156.41,-61.43],[157.388,-61.492],[158.371,-61.547],[159.356,-61.596],[160.345,-61.637],[161.336,-61.67],[162.329,-61.697],[163.323,-61.717],[164.319,-61.746],[165.316,-61.768],[166.315,-61.783],[167.315,-61.791],[168.315,-61.791],[169.314,-61.784],[170.313,-61.77],[171.311,-61.749],[172.307,-61.72],[173.301,-61.684],[174.293,-61.641],[175.281,-61.591],[176.266,-61.533],[177.247,-61.469],[178.224,-61.398],[179.197,-61.319],[-179.836,-61.234],[-179.845,-60.806],[-179.853,-60.378],[-179.862,-59.95],[-178.925,-59.948],[-177.989,-59.94],[-177.053,-59.926],[-176.119,-59.905],[-175.186,-59.877],[-174.255,-59.843],[-173.325,-59.802],[-172.398,-59.754],[-171.474,-59.7],[-170.554,-59.64],[-169.636,-59.573],[-168.723,-59.5],[-167.813,-59.421],[-166.908,-59.335],[-165.999,-59.226],[-165.096,-59.112],[-164.2,-58.991],[-163.309,-58.864],[-162.426,-58.731],[-161.549,-58.592],[-160.679,-58.447],[-159.817,-58.296],[-158.962,-58.14],[-158.115,-57.978],[-157.275,-57.81],[-156.443,-57.636],[-155.62,-57.458],[-154.804,-57.274],[-153.997,-57.085],[-153.198,-56.89],[-152.407,-56.691],[-151.625,-56.486],[-150.852,-56.277],[-150.086,-56.063],[-150.512,-55.639],[-150.928,-55.214],[-151.335,-54.788],[-151.734,-54.36],[-152.125,-53.931],[-152.508,-53.5],[-152.883,-53.068],[-153.25,-52.636],[-153.611,-52.202],[-153.964,-51.767],[-154.311,-51.331],[-154.651,-50.894],[-154.985,-50.456],[-155.312,-50.017],[-155.634,-49.577],[-155.95,-49.136],[-156.26,-48.695],[-156.565,-48.252],[-156.865,-47.809],[-157.16,-47.365],[-157.449,-46.92],[-157.734,-46.475],[-158.015,-46.029],[-158.291,-45.582],[-158.562,-45.135],[-158.829,-44.687],[-158.252,-44.475],[-157.678,-44.259],[-157.109,-44.041],[-156.544,-43.821],[-155.983,-43.597],[-156.32,-43.184],[-156.653,-42.77],[-156.981,-42.354],[-157.305,-41.938],[-157.624,-41.521],[-157.94,-41.103],[-158.251,-40.685],[-158.559,-40.265],[-158.863,-39.845],[-159.163,-39.423],[-159.459,-39.002],[-159.753,-38.579],[-160.042,-38.155],[-160.328,-37.731],[-160.611,-37.307],[-160.891,-36.881],[-161.168,-36.455],[-160.611,-36.276],[-160.057,-36.095],[-159.506,-35.91],[-158.957,-35.724],[-158.41,-35.535],[-157.867,-35.343],[-157.325,-35.149],[-156.787,-34.953],[-156.251,-34.754],[-155.717,-34.553],[-155.187,-34.35],[-154.658,-34.144],[-154.133,-33.936],[-153.61,-33.726],[-153.089,-33.514],[-152.571,-33.299],[-152.056,-33.083],[-151.543,-32.864],[-151.033,-32.643],[-150.525,-32.42],[-150.02,-32.195],[-149.517,-31.968],[-149.017,-31.74]]}},{"type":"Feature","properties":{"boundary_type":"ridge","feature_type":"gpml:MidOceanRidge","polarity":null,"overriding_plate_id":null,"subducting_plate_id":null,"plate_ids":[101,714],"name":"Parana-Rodinia ridge"},"geometry":{"type":"LineString","coordinates":[[99.405,-64.645],[99.196,-64.183],[98.994,-63.72],[98.798,-63.256],[98.608,-62.793],[98.424,-62.329],[98.246,-61.865],[98.073,-61.401],[97.905,-60.936],[97.742,-60.472],[97.584,-60.007],[97.43,-59.542],[97.28,-59.077]]}},{"type":"Feature","properties":{"boundary_type":"ridge","feature_type":"gpml:MidOceanRidge","polarity":null,"overriding_plate_id":null,"subducting_plate_id":null,"plate_ids":[101,22053],"name":"Parana-Rodinia ridge"},"geometry":{"type":"LineString","coordinates":[[97.28,-59.077],[97.126,-58.585],[96.977,-58.093],[96.831,-57.601],[96.689,-57.109],[96.551,-56.616],[96.417,-56.124],[96.286,-55.631],[96.158,-55.138],[96.033,-54.645],[95.912,-54.152],[95.793,-53.659],[95.677,-53.165],[95.563,-52.672],[95.452,-52.178],[95.344,-51.685],[95.238,-51.191],[95.134,-50.697],[95.032,-50.203],[95.77,-50.1],[96.505,-49.993],[97.237,-49.881],[97.159,-49.395],[97.082,-48.908],[97.007,-48.422],[96.933,-47.936],[96.861,-47.45],[96.79,-46.964],[96.72,-46.477],[96.652,-45.991],[96.585,-45.504]]}},{"type":"Feature","properties":{"boundary_type":"ridge","feature_type":"gpml:MidOceanRidge","polarity":null,"overriding_plate_id":null,"subducting_plate_id":null,"plate_ids":[101,701],"name":"Parana-Rodinia ridge"},"geometry":{"type":"LineString","coordinates":[[96.585,-45.504],[96.52,-45.025],[96.456,-44.545],[96.393,-44.066],[96.331,-43.586]]}},{"type":"Feature","properties":{"boundary_type":"transform","feature_type":"gpml:Transform","polarity":null,"overriding_plate_id":null,"subducting_plate_id":null,"plate_ids":[701,714],"name":"Transform?"},"geometry":{"type":"LineString","coordinates":[[18.92,-69.79],[19.346,-69.4],[19.758,-69.009],[20.155,-68.617],[20.538,-68.224]]}},{"type":"Feature","properties":{"boundary_type":"transform","feature_type":"gpml:Transform","polarity":null,"overriding_plate_id":null,"subducting_plate_id":null,"plate_ids":[701,715],"name":"Transform?"},"geometry":{"type":"LineString","coordinates":[[20.538,-68.224],[20.961,-67.773],[21.368,-67.321],[21.685,-66.891],[21.99,-66.461],[22.285,-66.03],[22.571,-65.598],[22.847,-65.166],[23.114,-64.734],[23.03,-64.282],[22.948,-63.831],[22.868,-63.38],[22.791,-62.928],[22.717,-62.477],[22.645,-62.025],[22.574,-61.573],[22.506,-61.122],[22.44,-60.67]]}},{"type":"Feature","properties":{"boundary_type":"transform","feature_type":"gpml:Transform","polarity":null,"overriding_plate_id":null,"subducting_plate_id":null,"plate_ids":[5031,98043],"name":"transform"},"geometry":{"type":"LineString","coordinates":[[-11.713,-29.708],[-11.628,-29.25],[-11.544,-28.792],[-11.46,-28.334],[-11.377,-27.875],[-11.295,-27.417],[-11.214,-26.959],[-11.133,-26.5],[-11.053,-26.042],[-10.973,-25.583],[-10.894,-25.124],[-10.816,-24.666],[-10.738,-24.207],[-10.66,-23.748]]}},{"type":"Feature","properties":{"boundary_type":"transform","feature_type":"gpml:Transform","polarity":null,"overriding_plate_id":null,"subducting_plate_id":null,"plate_ids":[5031,5032],"name":"transform"},"geometry":{"type":"LineString","coordinates":[[10.903,-6.912],[10.982,-7.388],[11.061,-7.864],[11.14,-8.34],[11.22,-8.817],[11.299,-9.293],[11.379,-9.769],[11.459,-10.244],[11.603,-10.718],[11.747,-11.192],[11.892,-11.666],[12.037,-12.14],[12.182,-12.614],[12.328,-13.087],[12.475,-13.561],[12.622,-14.034],[12.77,-14.507],[12.826,-15.0],[12.883,-15.494],[12.94,-15.987],[12.997,-16.48],[13.054,-16.973],[13.112,-17.466],[13.17,-17.959],[13.229,-18.452],[13.287,-18.945],[13.346,-19.438],[13.406,-19.93],[13.465,-20.423],[13.526,-20.916],[13.586,-21.409],[13.647,-21.902],[13.708,-22.395],[13.77,-22.887],[13.833,-23.38],[13.895,-23.873],[13.959,-24.366],[14.022,-24.858],[14.086,-25.351],[14.151,-25.844],[14.217,-26.336],[14.282,-26.829],[14.349,-27.321],[14.416,-27.814],[14.483,-28.306],[14.552,-28.799],[14.621,-29.291],[14.69,-29.784],[14.76,-30.276],[14.831,-30.768],[14.903,-31.261]]}},{"type":"Feature","properties":{"boundary_type":"transform","feature_type":"gpml:Transform","polarity":null,"overriding_plate_id":null,"subducting_plate_id":null,"plate_ids":[3003,98044],"name":"transform"},"geometry":{"type":"LineString","coordinates":[[162.475,24.387],[162.456,23.975],[162.437,23.563],[162.418,23.151],[162.399,22.739],[162.38,22.327]]}},{"type":"Feature","properties":{"boundary_type":"transform","feature_type":"gpml:Transform","polarity":null,"overriding_plate_id":null,"subducting_plate_id":null,"plate_ids":[3003,98046],"name":"transform"},"geometry":{"type":"LineString","coordinates":[[162.38,22.327],[162.358,21.852],[162.337,21.377],[162.316,20.902],[162.294,20.427],[162.273,19.952],[162.252,19.477],[162.232,19.002],[162.211,18.527],[162.19,18.051]]}},{"type":"Feature","properties":{"boundary_type":"transform","feature_type":"gpml:Transform","polarity":null,"overriding_plate_id":null,"subducting_plate_id":null,"plate_ids":[101,3003],"name":"transform"},"geometry":{"type":"LineString","coordinates":[[162.19,18.051],[162.171,17.593],[162.151,17.134],[162.131,16.675],[162.112,16.216],[162.093,15.757],[162.073,15.298],[162.054,14.84],[162.035,14.381],[162.016,13.922],[161.997,13.463],[161.978,13.004],[162.012,12.513],[162.046,12.022],[162.08,11.531],[162.114,11.04],[162.147,10.549],[162.181,10.057],[162.214,9.566],[162.248,9.075],[162.281,8.584],[162.314,8.093],[162.347,7.602],[162.38,7.111],[162.413,6.619],[162.446,6.128],[162.479,5.637],[162.537,5.302]]}},{"type":"Feature","properties":{"boundary_type":"transform","feature_type":"gpml:Transform","polarity":null,"overriding_plate_id":null,"subducting_plate_id":null,"plate_ids":[101,401],"name":"transform"},"geometry":{"type":"LineString","coordinates":[[162.537,5.302],[162.617,4.844],[162.697,4.386],[162.776,3.928],[162.856,3.47],[162.935,3.012],[163.014,2.554],[163.094,2.096],[163.173,1.637],[163.252,1.179],[163.331,0.721],[163.41,0.263],[163.489,-0.195],[163.569,-0.653],[163.648,-1.111],[163.814,-1.557],[163.981,-2.003],[164.147,-2.449],[164.314,-2.894],[164.48,-3.34],[164.647,-3.786],[164.814,-4.231],[164.982,-4.677],[165.149,-5.122],[165.317,-5.568],[165.485,-6.013],[165.653,-6.459],[165.822,-6.904],[165.991,-7.349],[166.16,-7.794],[166.329,-8.24],[166.499,-8.685],[166.67,-9.13],[166.841,-9.575],[167.012,-10.019],[167.23,-10.445],[167.449,-10.87],[167.669,-11.295],[167.889,-11.719],[168.11,-12.144],[168.332,-12.568],[168.554,-12.992],[168.777,-13.416],[169.001,-13.84],[169.226,-14.264],[169.452,-14.687],[169.678,-15.11],[169.906,-15.533],[170.134,-15.956],[170.363,-16.379],[170.594,-16.801],[170.825,-17.223],[171.134,-17.617],[171.444,-18.01],[171.756,-18.403],[172.069,-18.796],[172.383,-19.188],[172.7,-19.579],[173.017,-19.97],[173.336,-20.361],[173.657,-20.75],[173.98,-21.14],[174.304,-21.528],[174.63,-21.916],[174.957,-22.303],[175.287,-22.69],[175.618,-23.076],[175.951,-23.461],[176.318,-23.82],[176.687,-24.178],[177.058,-24.535],[177.431,-24.892],[177.807,-25.247],[178.184,-25.602],[178.564,-25.955],[178.946,-26.307]]}},{"type":"Feature","properties":{"boundary_type":"transform","feature_type":"gpml:Transform","polarity":null,"overriding_plate_id":null,"subducting_plate_id":null,"plate_ids":[77144,77148],"name":"Hoggar transform"},"geometry":{"type":"LineString","coordinates":[[-25.641,-57.257],[-25.592,-57.631],[-25.541,-58.006],[-25.546,-58.407],[-25.551,-58.809],[-25.556,-59.21],[-25.561,-59.612],[-25.704,-60.028],[-25.851,-60.443],[-26.002,-60.859],[-26.156,-61.274],[-26.548,-61.657],[-26.95,-62.039],[-27.361,-62.419],[-27.783,-62.798],[-28.216,-63.176],[-28.628,-63.542],[-29.051,-63.907],[-29.485,-64.271],[-29.93,-64.633]]}},{"type":"Feature","properties":{"boundary_type":"transform","feature_type":"gpml:Transform","polarity":null,"overriding_plate_id":null,"subducting_plate_id":null,"plate_ids":[714,77147],"name":"Iforas granulitic unit transform"},"geometry":{"type":"LineString","coordinates":[[-47.147,-61.721],[-46.397,-61.545],[-45.771,-61.366],[-45.151,-61.184],[-44.589,-61.07]]}},{"type":"Feature","properties":{"boundary_type":"transform","feature_type":"gpml:Transform","polarity":null,"overriding_plate_id":null,"subducting_plate_id":null,"plate_ids":[401,3003],"name":"Siberia transform"},"geometry":{"type":"LineString","coordinates":[[-159.905,-18.101],[-159.896,-18.103],[-159.379,-18.02],[-158.862,-17.935],[-158.346,-17.85],[-157.83,-17.763],[-157.315,-17.674],[-156.869,-17.543],[-156.425,-17.411],[-155.98,-17.278],[-155.537,-17.143]]}},{"type":"Feature","properties":{"boundary_type":"transform","feature_type":"gpml:Transform","polarity":null,"overriding_plate_id":null,"subducting_plate_id":null,"plate_ids":[580,801],"name":"Tarim transform"},"geometry":{"type":"LineString","coordinates":[[-21.122,27.884],[-20.922,28.271],[-20.72,28.658],[-20.518,29.044],[-20.313,29.43],[-20.107,29.816],[-19.85,30.218],[-19.591,30.619],[-19.33,31.02],[-19.066,31.42],[-18.8,31.82],[-18.532,32.219],[-18.261,32.618],[-17.774,32.863],[-17.285,33.107],[-16.792,33.349],[-16.297,33.589],[-15.799,33.826]]}},{"type":"Feature","properties":{"boundary_type":"transform","feature_type":"gpml:Transform","polarity":null,"overriding_plate_id":null,"subducting_plate_id":null,"plate_ids":[701,801],"name":"Transform"},"geometry":{"type":"LineString","coordinates":[[69.245,-13.876],[69.591,-13.657],[69.937,-13.438],[70.282,-13.218],[70.627,-12.997],[70.968,-12.667],[71.309,-12.337],[71.649,-12.006],[71.988,-11.674],[72.327,-11.343],[72.664,-11.011],[73.001,-10.678],[73.337,-10.345],[73.672,-10.012],[74.007,-9.678],[74.341,-9.345],[74.674,-9.01],[75.007,-8.676],[75.339,-8.341],[75.671,-8.006],[76.002,-7.671],[76.441,-7.435],[76.88,-7.198],[77.318,-6.961],[77.755,-6.724],[78.193,-6.486],[78.63,-6.247],[79.066,-6.009],[79.502,-5.77],[79.938,-5.531],[80.373,-5.291],[80.808,-5.051],[81.243,-4.811],[81.677,-4.571],[82.111,-4.33],[82.499,-4.039],[82.886,-3.748],[83.273,-3.457],[83.66,-3.166],[84.046,-2.874],[84.433,-2.583],[84.819,-2.291],[85.205,-1.999],[85.591,-1.707],[85.977,-1.415],[86.363,-1.123],[86.748,-0.831],[87.134,-0.539],[87.519,-0.247],[87.944,0.006],[88.369,0.259],[88.793,0.512],[89.218,0.766],[89.643,1.019],[90.068,1.271],[90.493,1.524],[90.918,1.777],[91.343,2.03],[91.768,2.282],[92.194,2.535],[92.62,2.787],[93.045,3.039],[93.412,3.202]]}},{"type":"Feature","properties":{"boundary_type":"transform","feature_type":"gpml:Transform","polarity":null,"overriding_plate_id":null,"subducting_plate_id":null,"plate_ids":[801,5032],"name":"TOAST-DML compressive(?) transform"},"geometry":{"type":"LineString","coordinates":[[61.303,-6.509],[61.698,-6.289],[62.093,-6.068],[62.488,-5.846],[62.882,-5.625],[63.276,-5.403],[63.669,-5.181],[64.063,-4.959]]}},{"type":"Feature","properties":{"boundary_type":"transform","feature_type":"gpml:Transform","polarity":null,"overriding_plate_id":null,"subducting_plate_id":null,"plate_ids":[801,5032],"name":"Mawson sea transform"},"geometry":{"type":"LineString","coordinates":[[14.541,-8.58],[14.869,-8.209],[15.197,-7.839],[15.524,-7.468],[15.851,-7.097],[16.177,-6.726],[16.502,-6.355],[16.827,-5.983],[17.229,-5.721],[17.629,-5.459],[18.03,-5.197],[18.43,-4.935],[18.83,-4.672],[19.23,-4.409],[19.629,-4.146],[20.028,-3.883],[20.427,-3.62],[20.825,-3.356],[21.223,-3.092],[21.622,-2.828],[22.02,-2.564],[22.417,-2.3],[22.815,-2.036],[23.212,-1.771],[23.61,-1.507],[24.007,-1.242],[24.404,-0.978],[24.881,-0.881],[25.359,-0.785],[25.836,-0.688],[26.313,-0.592],[26.79,-0.495],[27.267,-0.398],[27.744,-0.302],[28.221,-0.205],[28.698,-0.108],[29.175,-0.012],[29.652,0.085],[30.129,0.182],[30.606,0.278],[31.083,0.375],[31.56,0.472],[32.038,0.568],[32.515,0.665],[32.99,0.732],[33.465,0.8],[33.941,0.867],[34.416,0.935],[34.891,1.002],[35.367,1.069],[35.842,1.136],[36.318,1.203],[36.793,1.27],[37.269,1.337],[37.744,1.404],[38.22,1.471],[38.695,1.537],[39.171,1.604],[39.647,1.67],[40.122,1.737],[40.598,1.803],[41.074,1.869],[41.55,1.935],[42.026,2.001],[42.499,2.082],[42.972,2.163],[43.446,2.245],[43.919,2.326],[44.393,2.407],[44.866,2.487],[45.34,2.568],[45.814,2.648],[46.288,2.729],[46.762,2.809],[47.235,2.889],[47.709,2.968],[48.184,3.048],[48.658,3.127],[49.132,3.206],[49.606,3.285],[50.081,3.363],[50.555,3.442],[51.03,3.52],[51.504,3.598]]}},{"type":"Feature","properties":{"boundary_type":"transform","feature_type":"gpml:Transform","polarity":null,"overriding_plate_id":null,"subducting_plate_id":null,"plate_ids":[701,5032],"name":"Azania-Kalahari transform"},"geometry":{"type":"LineString","coordinates":[[37.418,-20.357],[37.882,-20.175],[38.345,-19.991],[38.806,-19.806],[39.267,-19.62],[39.764,-19.482],[40.26,-19.343],[40.756,-19.202],[41.251,-19.06],[41.745,-18.917],[42.238,-18.772],[42.73,-18.627],[43.221,-18.479],[43.712,-18.331],[44.201,-18.181],[44.69,-18.031],[45.178,-17.879],[45.665,-17.725],[46.08,-17.485],[46.494,-17.243],[46.907,-17.001],[47.319,-16.757],[47.73,-16.513],[48.14,-16.269],[48.549,-16.023],[48.957,-15.777],[49.407,-15.531],[49.856,-15.285],[50.304,-15.038],[50.751,-14.79],[51.197,-14.541],[51.643,-14.291],[52.087,-14.041],[52.53,-13.789],[52.972,-13.537],[53.413,-13.284],[53.853,-13.03],[54.293,-12.776],[54.734,-12.56],[55.174,-12.342],[55.613,-12.124],[56.052,-11.906],[56.49,-11.686],[56.927,-11.466],[57.364,-11.246],[57.799,-11.025],[58.235,-10.803],[58.669,-10.58],[59.103,-10.357],[59.536,-10.133],[59.969,-9.909],[60.401,-9.684],[60.738,-9.38],[61.074,-9.075],[61.409,-8.77],[61.744,-8.465],[62.078,-8.16],[62.412,-7.854],[62.745,-7.548],[63.078,-7.241],[63.41,-6.935],[63.742,-6.628],[64.067,-6.396],[64.391,-6.164],[64.716,-5.932]]}},{"type":"Feature","properties":{"boundary_type":"transform","feature_type":"gpml:Transform","polarity":null,"overriding_plate_id":null,"subducting_plate_id":null,"plate_ids":[801,98043],"name":"India closure transform"},"geometry":{"type":"LineString","coordinates":[[-27.179,-3.534],[-26.927,-3.907],[-26.674,-4.28],[-26.421,-4.652],[-26.167,-5.025],[-25.913,-5.397],[-25.659,-5.769],[-25.405,-6.142],[-25.15,-6.514],[-24.761,-6.762],[-24.371,-7.009],[-23.981,-7.256],[-23.59,-7.503],[-23.199,-7.75],[-22.807,-7.996],[-22.415,-8.241],[-22.022,-8.487],[-21.629,-8.732],[-21.236,-8.976],[-20.842,-9.221],[-20.447,-9.464],[-20.013,-9.685],[-19.578,-9.905],[-19.143,-10.124],[-18.707,-10.343],[-18.27,-10.561],[-17.833,-10.778],[-17.395,-10.995],[-16.957,-11.212],[-16.518,-11.427],[-16.078,-11.642],[-15.638,-11.857],[-15.197,-12.07],[-14.755,-12.283],[-14.312,-12.495],[-13.869,-12.707],[-13.425,-12.918],[-13.055,-13.091],[-12.683,-13.263],[-12.312,-13.435],[-11.939,-13.606]]}},{"type":"Feature","properties":{"boundary_type":"transform","feature_type":"gpml:Transform","polarity":null,"overriding_plate_id":null,"subducting_plate_id":null,"plate_ids":[801,98044],"name":"Transform"},"geometry":{"type":"LineString","coordinates":[[-29.861,54.331],[-29.202,54.643],[-28.532,54.952],[-27.852,55.257],[-27.161,55.557],[-26.46,55.854],[-25.748,56.147],[-25.025,56.436],[-24.292,56.721],[-23.547,57.001],[-22.791,57.277],[-22.024,57.548],[-21.245,57.814],[-20.455,58.075],[-19.653,58.332],[-18.839,58.583],[-18.014,58.83],[-17.28,59.148],[-16.532,59.462],[-15.77,59.772],[-14.993,60.077],[-14.203,60.377],[-13.397,60.673],[-12.577,60.964],[-11.742,61.25],[-10.892,61.531],[-10.026,61.806],[-9.145,62.075],[-8.248,62.339],[-7.336,62.597],[-6.408,62.849],[-5.464,63.095],[-4.504,63.335],[-3.528,63.568],[-2.536,63.794],[-1.528,64.013],[-0.505,64.225],[0.534,64.43],[1.588,64.627],[2.657,64.817],[3.554,65.129],[4.472,65.436],[5.412,65.736],[6.374,66.031],[7.358,66.32],[8.364,66.602],[9.394,66.878],[10.446,67.147],[11.522,67.409],[12.622,67.663],[13.745,67.91],[14.892,68.149],[16.063,68.38],[17.257,68.603],[18.475,68.817],[19.716,69.022],[20.98,69.218],[22.269,69.398],[23.58,69.568],[24.911,69.728],[26.262,69.878],[27.631,70.018],[29.019,70.147],[30.423,70.265],[31.842,70.372],[33.276,70.468],[34.722,70.552],[36.179,70.625],[37.647,70.686],[39.122,70.735],[40.604,70.772],[42.09,70.798],[43.58,70.811],[45.07,70.813],[46.528,70.762],[47.978,70.701],[49.418,70.628],[50.847,70.543],[52.263,70.448],[53.665,70.341],[55.052,70.224],[56.422,70.096],[57.775,69.958],[59.11,69.81],[60.425,69.652],[61.721,69.484],[62.995,69.306],[64.249,69.12],[65.481,68.924],[66.69,68.72],[68.011,68.722],[69.331,68.714],[70.649,68.696],[71.965,68.668],[73.277,68.629],[74.583,68.58],[75.884,68.521],[77.177,68.452],[78.462,68.373],[79.737,68.284],[81.002,68.186],[82.255,68.078],[83.496,67.961],[84.725,67.834],[85.939,67.699],[87.14,67.554],[88.325,67.401],[89.395,67.336],[90.459,67.264],[91.517,67.185],[92.567,67.099],[93.609,67.006]]}},{"type":"Feature","properties":{"boundary_type":"transform","feature_type":"gpml:Transform","polarity":null,"overriding_plate_id":null,"subducting_plate_id":null,"plate_ids":[580,98043],"name":"Transform closing Tarim plate"},"geometry":{"type":"LineString","coordinates":[[-26.76,-1.49],[-27.195,-1.29],[-27.63,-1.09],[-28.065,-0.89],[-28.5,-0.69],[-28.934,-0.49],[-29.369,-0.29],[-29.804,-0.09],[-30.238,0.11],[-30.673,0.31],[-31.108,0.51],[-31.542,0.71],[-31.977,0.91],[-32.412,1.11],[-32.847,1.31]]}},{"type":"Feature","properties":{"boundary_type":"transform","feature_type":"gpml:Transform","polarity":null,"overriding_plate_id":null,"subducting_plate_id":null,"plate_ids":[580,98044],"name":"Transform closing Tarim plate"},"geometry":{"type":"LineString","coordinates":[[-32.847,1.31],[-33.278,1.508],[-33.71,1.706],[-34.141,1.905],[-34.573,2.102],[-35.005,2.3],[-35.437,2.498],[-35.869,2.696],[-36.301,2.893],[-36.51,3.313],[-36.719,3.734],[-36.927,4.154],[-37.137,4.574],[-37.346,4.994],[-37.556,5.414],[-37.766,5.834],[-37.976,6.254],[-38.186,6.674],[-38.397,7.093],[-38.609,7.513],[-38.82,7.932],[-39.033,8.352],[-39.28,8.773],[-39.529,9.193],[-39.777,9.614],[-40.027,10.034],[-40.277,10.455],[-40.528,10.875],[-40.779,11.294],[-41.032,11.714],[-41.285,12.133],[-41.539,12.552],[-41.793,12.971],[-42.049,13.39],[-42.305,13.808],[-42.375,14.279],[-42.446,14.75],[-42.517,15.221],[-42.588,15.692],[-42.659,16.163],[-42.731,16.634],[-42.803,17.105],[-42.876,17.575],[-42.948,18.046],[-43.022,18.517],[-43.095,18.988],[-43.169,19.458]]}},{"type":"Feature","properties":{"boundary_type":"transform","feature_type":"gpml:Transform","polarity":null,"overriding_plate_id":null,"subducting_plate_id":null,"plate_ids":[580,98044],"name":"Transform closing Tarim plate"},"geometry":{"type":"LineString","coordinates":[[-32.9,29.875],[-32.741,30.299],[-32.581,30.723],[-32.228,31.098],[-31.871,31.472],[-31.512,31.845],[-31.15,32.217],[-30.785,32.589],[-30.417,32.959],[-30.046,33.328],[-29.671,33.696],[-29.294,34.062],[-28.913,34.428],[-28.529,34.792],[-28.141,35.156],[-27.75,35.518],[-27.356,35.878],[-26.958,36.238],[-26.556,36.596],[-26.163,36.979],[-25.767,37.361],[-25.367,37.741],[-24.962,38.121],[-24.554,38.498],[-24.141,38.875],[-23.723,39.25],[-23.302,39.623],[-22.875,39.995],[-22.444,40.365],[-22.008,40.734]]}},{"type":"Feature","properties":{"boundary_type":"transform","feature_type":"gpml:Transform","polarity":null,"overriding_plate_id":null,"subducting_plate_id":null,"plate_ids":[715,77148],"name":"Hoggar transform"},"geometry":{"type":"LineString","coordinates":[[-6.741,-57.299],[-6.721,-57.653],[-6.7,-58.008],[-6.678,-58.362],[-6.947,-58.818],[-7.223,-59.272],[-7.506,-59.726],[-7.797,-60.18],[-8.096,-60.633],[-8.404,-61.085],[-8.509,-61.551],[-8.616,-62.017],[-8.727,-62.483],[-8.842,-62.949],[-8.96,-63.415],[-9.082,-63.88],[-9.209,-64.346],[-9.293,-64.819],[-9.38,-65.292],[-9.471,-65.765],[-9.565,-66.239],[-9.662,-66.712],[-9.763,-67.185],[-9.868,-67.657]]}},{"type":"Feature","properties":{"boundary_type":"transform","feature_type":"gpml:Transform","polarity":null,"overriding_plate_id":null,"subducting_plate_id":null,"plate_ids":[701,715],"name":"Congo-SM transform"},"geometry":{"type":"LineString","coordinates":[[15.873,-30.997],[15.92,-31.466],[15.967,-31.935],[16.015,-32.404],[16.064,-32.873],[16.112,-33.341],[16.16,-33.838],[16.208,-34.335],[16.256,-34.832],[16.306,-35.329],[16.355,-35.825],[16.406,-36.322],[16.457,-36.819],[16.509,-37.316],[16.561,-37.812],[16.614,-38.309],[16.668,-38.806],[16.722,-39.302],[16.778,-39.799],[16.834,-40.295],[16.891,-40.792],[16.949,-41.288],[17.008,-41.785],[17.067,-42.281],[17.128,-42.778],[17.19,-43.274],[17.252,-43.771],[17.316,-44.267],[17.381,-44.763],[17.447,-45.259],[17.514,-45.756],[17.582,-46.252],[17.651,-46.748],[17.722,-47.244],[17.794,-47.74],[17.868,-48.236],[17.943,-48.732],[18.019,-49.228],[18.097,-49.724],[18.177,-50.219],[18.258,-50.715],[18.341,-51.211],[18.498,-51.677],[18.658,-52.142],[18.822,-52.608],[18.989,-53.073],[19.159,-53.538],[19.334,-54.003],[19.512,-54.467],[19.695,-54.931],[19.882,-55.395],[20.073,-55.859],[20.269,-56.322],[20.47,-56.785],[20.668,-57.218],[20.871,-57.651],[21.078,-58.083],[21.291,-58.515],[21.509,-58.947],[21.733,-59.378],[21.963,-59.809],[22.198,-60.24],[22.44,-60.67]]}},{"type":"Feature","properties":{"boundary_type":"transform","feature_type":"gpml:Transform","polarity":null,"overriding_plate_id":null,"subducting_plate_id":null,"plate_ids":[701,22053],"name":"Parana transform"},"geometry":{"type":"LineString","coordinates":[[96.585,-45.504],[95.998,-45.618],[95.409,-45.728],[94.818,-45.836],[94.185,-45.863],[93.551,-45.886],[92.916,-45.905],[92.282,-45.921],[91.647,-45.934],[91.011,-45.943],[90.376,-45.948]]}},{"type":"Feature","properties":{"boundary_type":"transform","feature_type":"gpml:Transform","polarity":null,"overriding_plate_id":null,"subducting_plate_id":null,"plate_ids":[101,701],"name":"Kalahari-Amazonia transform"},"geometry":{"type":"LineString","coordinates":[[96.331,-43.586],[96.641,-43.265],[96.825,-42.808],[97.006,-42.35],[97.185,-41.892],[97.361,-41.433],[97.534,-40.975],[97.706,-40.516],[97.874,-40.057],[98.041,-39.597],[98.237,-39.132],[98.431,-38.666],[98.622,-38.199],[98.81,-37.733],[98.997,-37.266],[99.181,-36.799],[99.362,-36.332],[99.542,-35.864],[99.719,-35.396],[99.895,-34.928],[100.068,-34.459],[100.171,-33.997],[100.272,-33.536],[100.372,-33.073],[100.472,-32.611],[100.57,-32.149],[100.667,-31.687],[100.763,-31.225],[100.859,-30.762],[100.953,-30.3]]}},{"type":"Feature","properties":{"boundary_type":"transform","feature_type":"gpml:Transform","polarity":null,"overriding_plate_id":null,"subducting_plate_id":null,"plate_ids":[98044,98046],"name":"Ocean transform"},"geometry":{"type":"LineString","coordinates":[[102.799,48.198],[102.178,47.93],[101.563,47.659],[100.955,47.385],[100.353,47.107],[99.757,46.827],[99.167,46.543],[98.515,46.331],[97.867,46.116],[97.224,45.897],[96.587,45.675],[95.955,45.449],[95.327,45.22],[94.705,44.987],[94.088,44.751],[93.476,44.512],[92.869,44.269],[92.267,44.024]]}},{"type":"Feature","properties":{"boundary_type":"subduction","feature_type":"gpml:SubductionZone","polarity":"Right","overriding_plate_id":714,"subducting_plate_id":3003,"plate_ids":[714,3003],"name":"Avalonia transform"},"geometry":{"type":"LineString","coordinates":[[-144.802,-33.852],[-145.039,-34.261],[-145.279,-34.67],[-145.522,-35.078],[-145.766,-35.486],[-146.013,-35.893],[-146.263,-36.3]]}},{"type":"Feature","properties":{"boundary_type":"transform","feature_type":"gpml:Transform","polarity":null,"overriding_plate_id":null,"subducting_plate_id":null,"plate_ids":[714,77147],"name":"Iforas granulitic unit transform"},"geometry":{"type":"LineString","coordinates":[[-55.953,-56.032],[-55.794,-55.555],[-55.638,-55.078],[-55.396,-54.773],[-55.158,-54.467],[-54.924,-54.161]]}},{"type":"Feature","properties":{"boundary_type":"transform","feature_type":"gpml:Transform","polarity":null,"overriding_plate_id":null,"subducting_plate_id":null,"plate_ids":[714,77144],"name":"Iforas granulitic unit transform"},"geometry":{"type":"LineString","coordinates":[[-54.924,-54.161],[-54.804,-54.003],[-54.847,-53.696],[-54.89,-53.389]]}},{"type":"Feature","properties":{"boundary_type":"transform","feature_type":"gpml:Transform","polarity":null,"overriding_plate_id":null,"subducting_plate_id":null,"plate_ids":[701,22053],"name":"Goias-Parana transform"},"geometry":{"type":"LineString","coordinates":[[65.773,-59.071],[66.617,-59.254],[67.469,-59.43],[68.331,-59.601],[69.202,-59.767],[70.08,-59.926],[70.968,-60.08],[71.863,-60.228],[72.766,-60.369],[73.677,-60.505],[74.596,-60.634],[75.522,-60.757]]}},{"type":"Feature","properties":{"boundary_type":"transform","feature_type":"gpml:Transform","polarity":null,"overriding_plate_id":null,"subducting_plate_id":null,"plate_ids":[714,22053],"name":"Goias Massif-WAC transform"},"geometry":{"type":"LineString","coordinates":[[46.579,-67.36],[47.798,-67.426],[49.023,-67.482],[50.254,-67.528],[51.488,-67.566],[52.727,-67.594],[53.967,-67.612],[55.209,-67.621],[56.452,-67.621],[57.694,-67.611],[58.934,-67.592],[60.172,-67.563],[61.407,-67.525],[62.66,-67.46],[63.907,-67.386],[65.145,-67.303],[66.374,-67.209],[67.593,-67.107],[68.801,-66.995],[69.998,-66.875],[71.183,-66.745],[72.355,-66.607],[73.513,-66.46],[74.658,-66.304],[75.742,-66.101],[76.808,-65.891],[77.857,-65.673],[78.888,-65.449],[79.901,-65.217],[80.896,-64.979],[81.874,-64.734],[82.834,-64.483],[83.776,-64.226],[84.701,-63.962],[85.608,-63.694],[86.498,-63.419],[87.37,-63.139],[88.226,-62.854],[89.066,-62.563],[89.889,-62.268],[90.696,-61.968],[91.487,-61.663],[92.263,-61.354],[93.023,-61.041],[93.768,-60.723],[94.499,-60.401],[95.215,-60.076],[95.917,-59.746],[96.605,-59.413],[97.28,-59.077]]}},{"type":"Feature","properties":{"boundary_type":"transform","feature_type":"gpml:Transform","polarity":null,"overriding_plate_id":null,"subducting_plate_id":null,"plate_ids":[77148,98043],"name":""},"geometry":{"type":"LineString","coordinates":[[-35.05,-48.21],[-35.519,-48.472],[-35.993,-48.733],[-36.472,-48.991],[-36.955,-49.248],[-37.444,-49.503]]}},{"type":"Feature","properties":{"boundary_type":"transform","feature_type":"gpml:Transform","polarity":null,"overriding_plate_id":null,"subducting_plate_id":null,"plate_ids":[714,77148],"name":""},"geometry":{"type":"LineString","coordinates":[[-37.444,-49.503],[-37.97,-49.771],[-38.502,-50.038],[-39.039,-50.302],[-39.583,-50.563],[-40.133,-50.822],[-40.689,-51.078],[-41.28,-51.323],[-41.877,-51.565],[-42.481,-51.803],[-43.091,-52.039]]}},{"type":"Feature","properties":{"boundary_type":"transform","feature_type":"gpml:Transform","polarity":null,"overriding_plate_id":null,"subducting_plate_id":null,"plate_ids":[714,77144],"name":""},"geometry":{"type":"LineString","coordinates":[[-43.091,-52.039],[-43.782,-52.298],[-44.481,-52.554],[-45.188,-52.806],[-45.903,-53.053],[-46.666,-53.153],[-47.433,-53.247],[-48.203,-53.336],[-48.976,-53.421],[-49.752,-53.5],[-50.531,-53.575],[-51.24,-53.556],[-51.949,-53.533],[-52.658,-53.506],[-53.365,-53.474],[-54.071,-53.438],[-54.776,-53.399],[-54.89,-53.389]]}}]}