{"type":"FeatureCollection","meta":{"model":"Cao2024","reconstruction_time_ma":1200.0,"anchor_plate_id":0,"pygplates_version":"1.0.0","tessellate_degrees":0.5,"polarity_convention":"gpml:subductionPolarity. 'Left'/'Right' names the side of the line, in vertex order, on which the OVERRIDING plate lies. Triangles are drawn on that side.","antimeridian":"Lines are NOT split at +/-180 deg. The renderer works in 3D unit vectors where the dateline is not special; splitting would only add spurious breaks. Do not treat this as RFC 7946 GIS-ready 2D data."},"features":[{"type":"Feature","properties":{"boundary_type":"ridge","feature_type":"gpml:MidOceanRidge","polarity":null,"overriding_plate_id":null,"subducting_plate_id":null,"plate_ids":[101,302],"name":"MOR-Greenland-Baltica"},"geometry":{"type":"LineString","coordinates":[[-170.151,2.231],[-169.671,2.372],[-169.191,2.511],[-168.711,2.651],[-168.231,2.791],[-167.751,2.93],[-167.27,3.069],[-166.79,3.208],[-166.309,3.346],[-165.829,3.485],[-165.348,3.623],[-164.867,3.761],[-164.386,3.899],[-163.904,4.036],[-163.423,4.173],[-162.941,4.31],[-162.459,4.446],[-161.977,4.583],[-161.495,4.718],[-161.013,4.854],[-160.53,4.989],[-160.047,5.124],[-159.564,5.258],[-159.081,5.393],[-158.598,5.526],[-158.114,5.66],[-157.63,5.793],[-157.146,5.925],[-157.233,6.402],[-157.321,6.879],[-157.409,7.355],[-157.497,7.832],[-157.585,8.309],[-157.104,8.339],[-156.623,8.369],[-156.142,8.398],[-155.661,8.427],[-155.179,8.455],[-154.698,8.482],[-154.217,8.509],[-153.735,8.535],[-153.254,8.561],[-152.772,8.586],[-152.29,8.611],[-151.809,8.635],[-151.327,8.658],[-150.845,8.681],[-150.363,8.703],[-149.881,8.724],[-149.399,8.745],[-148.917,8.765],[-148.435,8.785],[-147.953,8.804],[-147.855,8.452],[-147.758,8.099],[-147.66,7.747],[-147.164,7.767],[-146.669,7.786],[-146.173,7.804],[-145.677,7.822],[-145.181,7.84],[-144.685,7.857],[-144.189,7.873],[-143.693,7.889],[-143.197,7.904],[-142.701,7.919],[-142.205,7.932],[-141.708,7.946],[-141.212,7.959],[-140.716,7.971],[-140.22,7.982],[-139.723,7.993],[-139.227,8.004],[-138.731,8.014],[-138.811,8.378],[-138.892,8.742],[-138.972,9.106],[-138.474,9.112],[-137.975,9.117],[-137.476,9.122],[-136.978,9.126],[-136.479,9.129],[-135.98,9.132],[-135.481,9.134],[-134.983,9.135],[-134.484,9.136],[-133.985,9.136],[-133.487,9.135],[-132.988,9.134],[-132.489,9.131],[-131.99,9.129]]}},{"type":"Feature","properties":{"boundary_type":"transform","feature_type":"gpml:Transform","polarity":null,"overriding_plate_id":null,"subducting_plate_id":null,"plate_ids":[101],"name":"inferred transform"},"geometry":{"type":"LineString","coordinates":[[-75.394,18.374],[-75.506,18.797],[-75.618,19.22],[-75.73,19.643],[-75.843,20.065],[-75.957,20.488],[-76.072,20.911],[-76.261,21.338],[-76.452,21.766],[-76.643,22.194],[-76.836,22.621],[-77.03,23.048],[-77.226,23.475],[-77.422,23.901],[-77.62,24.327],[-77.819,24.753],[-78.02,25.179]]}},{"type":"Feature","properties":{"boundary_type":"transform","feature_type":"gpml:Transform","polarity":null,"overriding_plate_id":null,"subducting_plate_id":null,"plate_ids":[101,801],"name":"inferred transform"},"geometry":{"type":"LineString","coordinates":[[-78.02,25.179],[-78.235,25.632],[-78.452,26.085],[-78.67,26.537],[-78.89,26.99],[-79.112,27.441],[-79.336,27.893],[-79.562,28.344],[-79.789,28.795],[-80.019,29.245],[-80.25,29.695],[-80.484,30.144],[-80.72,30.594],[-80.958,31.042],[-81.198,31.49],[-81.441,31.938],[-81.686,32.386],[-81.933,32.832],[-82.183,33.279],[-82.436,33.725],[-82.691,34.17],[-82.948,34.615],[-83.209,35.059],[-83.472,35.503],[-83.739,35.946],[-84.008,36.388],[-84.281,36.83],[-84.556,37.271],[-84.835,37.712],[-85.117,38.152],[-85.403,38.591],[-85.692,39.03],[-85.985,39.468],[-86.281,39.905],[-86.581,40.341],[-86.885,40.777],[-87.194,41.211],[-87.506,41.645],[-87.822,42.078],[-88.143,42.511],[-88.468,42.942],[-88.798,43.372],[-89.133,43.802],[-89.472,44.23],[-89.817,44.657],[-90.166,45.084],[-90.521,45.509],[-90.881,45.933],[-91.247,46.356],[-91.618,46.778],[-91.995,47.198],[-92.379,47.618],[-92.768,48.036],[-93.164,48.452],[-93.566,48.868],[-93.975,49.281],[-94.418,49.687],[-94.868,50.092],[-95.326,50.494],[-95.792,50.895],[-96.265,51.294],[-96.747,51.691],[-97.238,52.085],[-97.737,52.478],[-98.245,52.869],[-98.762,53.257],[-99.289,53.643],[-99.826,54.027],[-100.372,54.409],[-100.929,54.788],[-101.496,55.164],[-102.074,55.537],[-102.663,55.908],[-103.263,56.276],[-103.875,56.641],[-104.499,57.003],[-105.135,57.362],[-105.784,57.717],[-106.445,58.069],[-107.119,58.418],[-107.807,58.763],[-108.509,59.104],[-109.225,59.442],[-109.955,59.775],[-110.699,60.104],[-111.459,60.429],[-112.234,60.75],[-113.024,61.066],[-113.83,61.377],[-114.652,61.684],[-115.491,61.985],[-116.346,62.282],[-117.218,62.572],[-118.107,62.858],[-119.013,63.138],[-119.937,63.411],[-120.878,63.679],[-121.838,63.94],[-122.814,64.195],[-123.809,64.444],[-124.822,64.685],[-125.812,64.928],[-126.82,65.164],[-127.846,65.392],[-128.89,65.614],[-129.951,65.829],[-131.03,66.036],[-132.126,66.236],[-133.239,66.427],[-134.369,66.611],[-135.516,66.786],[-136.678,66.953],[-137.857,67.111],[-139.05,67.261],[-140.258,67.401],[-141.48,67.533],[-142.715,67.655],[-143.962,67.767],[-145.221,67.87],[-146.49,67.963],[-147.769,68.047],[-149.057,68.12],[-150.352,68.184],[-151.654,68.237],[-152.962,68.28],[-154.274,68.313],[-155.589,68.335],[-156.906,68.347],[-158.224,68.349],[-159.542,68.34],[-160.857,68.321],[-162.17,68.291],[-163.479,68.251],[-164.783,68.201],[-166.081,68.141],[-167.371,68.07],[-168.653,67.99],[-169.93,67.878],[-171.195,67.757],[-172.446,67.626],[-173.683,67.485],[-174.904,67.335],[-176.11,67.176],[-177.3,67.008],[-178.473,66.831],[-179.629,66.646],[179.233,66.452],[178.113,66.25],[177.011,66.04],[175.927,65.823],[174.862,65.598],[173.815,65.365],[172.787,65.126],[171.777,64.879],[170.787,64.626],[169.814,64.367],[168.86,64.101],[167.925,63.828],[167.007,63.55],[166.108,63.267],[165.226,62.977],[164.361,62.683],[163.514,62.383],[162.684,62.078],[161.87,61.768],[161.072,61.453],[160.291,61.134],[159.526,60.81],[158.775,60.483],[158.04,60.151],[157.32,59.815],[156.614,59.475],[155.923,59.131],[155.245,58.784],[154.58,58.434],[153.929,58.08],[153.291,57.722],[152.665,57.362],[152.051,56.999],[151.45,56.632],[150.86,56.263],[150.281,55.891],[149.713,55.516],[149.156,55.139],[148.61,54.759],[148.073,54.377],[147.547,53.993],[147.03,53.606],[146.523,53.217],[146.025,52.826],[145.535,52.433]]}},{"type":"Feature","properties":{"boundary_type":"transform","feature_type":"gpml:Transform","polarity":null,"overriding_plate_id":null,"subducting_plate_id":null,"plate_ids":[801,90109],"name":"inferred transform"},"geometry":{"type":"LineString","coordinates":[[145.535,52.433],[145.059,52.041],[144.59,51.647],[144.13,51.252],[143.677,50.854],[143.232,50.455],[142.795,50.054],[142.365,49.652],[141.942,49.248],[141.525,48.843],[141.116,48.436]]}},{"type":"Feature","properties":{"boundary_type":"subduction","feature_type":"gpml:SubductionZone","polarity":"Left","overriding_plate_id":101,"subducting_plate_id":90109,"plate_ids":[101,90109],"name":"E-Lau SZ"},"geometry":{"type":"LineString","coordinates":[[145.535,52.433],[146.057,52.092],[146.571,51.749],[147.076,51.403],[147.575,51.056],[147.9,50.628],[148.219,50.199],[148.532,49.769],[148.84,49.339],[149.143,48.908],[149.44,48.476],[149.733,48.043],[150.02,47.609],[150.303,47.175],[150.581,46.74],[150.855,46.305],[151.124,45.869],[151.39,45.432],[151.651,44.994],[151.908,44.556],[152.107,44.1],[152.304,43.643],[152.497,43.186],[152.687,42.729],[152.875,42.271],[153.06,41.813],[153.242,41.355],[153.422,40.897],[153.599,40.438],[153.774,39.979],[153.947,39.52],[154.117,39.06],[154.285,38.6],[154.451,38.14],[154.615,37.68],[154.777,37.219],[154.937,36.759],[155.166,36.324],[155.393,35.89],[155.617,35.454],[155.839,35.019],[156.059,34.583],[156.276,34.147],[156.491,33.71],[156.704,33.273],[156.914,32.835]]}},{"type":"Feature","properties":{"boundary_type":"subduction","feature_type":"gpml:SubductionZone","polarity":"Left","overriding_plate_id":101,"subducting_plate_id":90109,"plate_ids":[101,90109],"name":"E-Lau SZ"},"geometry":{"type":"LineString","coordinates":[[156.914,32.835],[157.132,32.492],[157.347,32.147],[157.562,31.803],[157.99,31.488],[158.416,31.172],[158.839,30.854],[159.26,30.535],[159.677,30.214],[160.092,29.892],[160.504,29.569],[160.914,29.245],[161.321,28.919],[161.725,28.593],[162.127,28.265],[162.526,27.935],[162.923,27.605],[163.318,27.274],[163.816,27.043],[164.312,26.81],[164.807,26.576],[165.299,26.339],[165.789,26.102],[166.277,25.862],[166.764,25.621],[167.248,25.379],[167.73,25.134],[168.21,24.888],[168.689,24.641],[169.166,24.392],[169.528,24.041],[169.888,23.688],[170.246,23.335],[170.602,22.981],[170.956,22.626],[171.309,22.27],[171.66,21.914],[172.009,21.557],[172.356,21.199],[172.702,20.84],[173.046,20.481],[173.388,20.121],[173.821,19.87],[174.252,19.617],[174.683,19.364],[175.111,19.109],[175.539,18.853],[175.965,18.597],[176.39,18.339],[176.813,18.081],[177.236,17.822],[177.657,17.561],[178.077,17.3],[178.496,17.038],[178.913,16.775],[179.124,16.343],[179.335,15.91],[179.544,15.477],[179.753,15.044],[179.961,14.61],[-179.833,14.177],[-179.626,13.743],[-179.421,13.309],[-179.216,12.875],[-179.012,12.441],[-178.648,12.097],[-178.285,11.752],[-177.922,11.407],[-177.56,11.061],[-177.199,10.715],[-176.839,10.369],[-176.48,10.022],[-176.122,9.674],[-175.764,9.327],[-175.407,8.979],[-175.05,8.63],[-174.695,8.282],[-174.433,7.877],[-174.172,7.472],[-173.912,7.067],[-173.652,6.662],[-173.392,6.256],[-173.133,5.851],[-172.874,5.445],[-172.615,5.039],[-172.357,4.633],[-172.099,4.227],[-171.842,3.821],[-171.584,3.415],[-171.327,3.009],[-171.127,2.737],[-170.928,2.465]]}},{"type":"Feature","properties":{"boundary_type":"subduction","feature_type":"gpml:SubductionZone","polarity":"Left","overriding_plate_id":701,"subducting_plate_id":90108,"plate_ids":[701,90108],"name":""},"geometry":{"type":"LineString","coordinates":[[28.209,-40.925],[28.257,-40.428],[28.305,-39.931],[28.351,-39.434],[28.397,-38.937],[28.443,-38.44],[28.488,-37.943],[28.532,-37.446],[28.575,-36.949],[28.618,-36.452],[28.661,-35.955],[28.703,-35.458],[28.744,-34.96],[28.785,-34.463],[28.825,-33.966],[28.865,-33.469],[28.905,-32.972],[28.944,-32.474],[28.982,-31.977],[29.021,-31.48],[29.058,-30.983],[29.096,-30.485],[29.133,-29.988],[29.169,-29.491],[29.206,-28.993],[29.242,-28.496],[29.239,-27.998],[29.236,-27.499],[29.233,-27.001],[29.231,-26.502],[29.228,-26.004],[29.225,-25.505],[29.223,-25.007],[29.22,-24.509],[29.218,-24.01],[29.215,-23.512],[29.213,-23.013],[29.21,-22.515],[29.208,-22.016],[29.205,-21.518],[29.203,-21.02],[29.2,-20.521],[29.198,-20.023],[29.195,-19.524],[29.193,-19.026],[29.191,-18.527],[29.188,-18.029],[29.186,-17.53],[29.184,-17.032],[29.181,-16.534],[29.179,-16.035],[29.177,-15.537],[29.174,-15.038]]}},{"type":"Feature","properties":{"boundary_type":"subduction","feature_type":"gpml:SubductionZone","polarity":"Left","overriding_plate_id":701,"subducting_plate_id":801,"plate_ids":[701,801],"name":""},"geometry":{"type":"LineString","coordinates":[[29.174,-15.038],[29.172,-14.556],[29.17,-14.074],[29.168,-13.592],[29.165,-13.109],[29.163,-12.627],[29.049,-12.141],[28.935,-11.654],[28.821,-11.167],[28.708,-10.681],[28.595,-10.194],[28.483,-9.707],[28.371,-9.221],[28.259,-8.734],[28.147,-8.247],[28.036,-7.76],[27.925,-7.273],[27.814,-6.786],[27.704,-6.3],[27.594,-5.813],[27.483,-5.326],[27.373,-4.839],[27.264,-4.352],[27.154,-3.865],[27.044,-3.378],[26.935,-2.891],[26.826,-2.403],[26.716,-1.916],[26.607,-1.429],[26.498,-0.942],[26.389,-0.455],[26.28,0.032],[26.171,0.519],[26.061,1.006],[25.952,1.493],[25.843,1.98],[25.734,2.467],[25.624,2.954],[25.515,3.442],[25.332,3.893],[25.148,4.345],[24.965,4.797],[24.781,5.249],[24.596,5.701],[24.412,6.152],[24.227,6.604],[24.042,7.055],[23.857,7.507],[23.671,7.958],[23.484,8.409],[23.298,8.861],[23.11,9.312],[22.923,9.763],[22.735,10.214],[22.546,10.664],[22.357,11.115],[22.167,11.566],[21.976,12.016],[21.785,12.466],[21.593,12.916],[21.401,13.366],[21.208,13.816],[21.014,14.266],[20.819,14.716],[20.624,15.165],[20.427,15.614],[20.23,16.063],[20.032,16.512],[19.833,16.961],[19.59,17.397],[19.347,17.832],[19.102,18.267],[18.855,18.701],[18.608,19.136],[18.359,19.57],[18.109,20.003],[17.858,20.436],[17.605,20.869],[17.351,21.302],[17.095,21.734],[16.837,22.166],[16.578,22.597],[16.318,23.028],[16.055,23.459],[15.791,23.889],[15.526,24.318],[15.258,24.747],[14.989,25.176],[14.717,25.604],[14.444,26.032],[14.169,26.459],[13.892,26.886],[13.612,27.312],[13.331,27.737],[13.047,28.162],[12.761,28.587],[12.441,28.961],[12.119,29.335],[11.794,29.708],[11.467,30.081],[11.138,30.452],[10.806,30.823],[10.471,31.193],[10.134,31.561],[9.794,31.929],[9.452,32.297],[9.106,32.663]]}},{"type":"Feature","properties":{"boundary_type":"transform","feature_type":"gpml:Transform","polarity":null,"overriding_plate_id":null,"subducting_plate_id":null,"plate_ids":[701,801],"name":""},"geometry":{"type":"LineString","coordinates":[[-18.159,25.272],[-17.713,25.524],[-17.265,25.775],[-16.815,26.024],[-16.363,26.272],[-15.91,26.518],[-15.454,26.763],[-14.997,27.007],[-14.537,27.249],[-14.076,27.489],[-13.612,27.728],[-13.147,27.965],[-12.679,28.201],[-12.21,28.436],[-11.738,28.668],[-11.264,28.899],[-10.788,29.129],[-10.274,29.303],[-9.757,29.476],[-9.239,29.646],[-8.719,29.815],[-8.198,29.981],[-7.674,30.146],[-7.149,30.308],[-6.623,30.469],[-6.094,30.627],[-5.564,30.783],[-5.032,30.937],[-4.498,31.088],[-3.963,31.238],[-3.426,31.385],[-2.887,31.53],[-2.347,31.673],[-1.805,31.813],[-1.261,31.951],[-0.704,32.011],[-0.146,32.069],[0.413,32.124],[0.972,32.176],[1.532,32.227],[2.092,32.274],[2.653,32.319],[3.215,32.362],[3.777,32.402],[4.34,32.44],[4.903,32.475],[5.466,32.508],[6.03,32.538],[6.594,32.566],[7.159,32.591],[7.724,32.614],[8.289,32.634],[8.698,32.649],[9.106,32.663]]}},{"type":"Feature","properties":{"boundary_type":"transform","feature_type":"gpml:Transform","polarity":null,"overriding_plate_id":null,"subducting_plate_id":null,"plate_ids":[801],"name":""},"geometry":{"type":"LineString","coordinates":[[-78.02,25.179],[-78.17,24.735],[-78.32,24.29],[-78.468,23.846],[-78.616,23.401],[-78.762,22.956],[-78.907,22.511],[-79.052,22.066],[-79.196,21.621],[-79.338,21.175],[-79.48,20.73],[-79.621,20.284],[-79.761,19.839]]}},{"type":"Feature","properties":{"boundary_type":"transform","feature_type":"gpml:Transform","polarity":null,"overriding_plate_id":null,"subducting_plate_id":null,"plate_ids":[101,602],"name":""},"geometry":{"type":"LineString","coordinates":[[-79.761,19.839],[-79.901,19.394],[-80.039,18.949],[-80.177,18.504],[-80.314,18.059],[-80.45,17.613],[-80.585,17.168],[-80.72,16.722],[-80.855,16.277],[-80.988,15.831],[-81.121,15.386],[-81.254,14.94],[-81.386,14.494],[-81.517,14.048],[-81.64,13.597],[-81.761,13.146],[-81.883,12.695],[-82.004,12.243],[-82.124,11.792],[-82.244,11.341],[-82.364,10.889],[-82.483,10.438],[-82.602,9.986],[-82.721,9.535],[-82.839,9.083],[-82.957,8.631],[-83.075,8.18],[-83.193,7.728],[-83.251,7.257],[-83.309,6.786],[-83.366,6.315],[-83.424,5.844],[-83.482,5.373],[-83.539,4.901],[-83.596,4.43],[-83.654,3.959],[-83.711,3.488],[-83.768,3.017],[-83.825,2.546],[-83.883,2.075],[-83.94,1.603],[-83.859,1.137],[-83.779,0.671],[-83.698,0.205],[-83.617,-0.261],[-83.537,-0.728],[-83.456,-1.194],[-83.376,-1.66],[-83.295,-2.126],[-83.215,-2.593],[-83.134,-3.059],[-83.053,-3.525],[-82.972,-3.991],[-82.891,-4.457],[-82.712,-4.847],[-82.533,-5.236]]}},{"type":"Feature","properties":{"boundary_type":"subduction","feature_type":"gpml:SubductionZone","polarity":"Left","overriding_plate_id":602,"subducting_plate_id":101,"plate_ids":[101,602],"name":""},"geometry":{"type":"LineString","coordinates":[[-82.533,-5.236],[-82.13,-5.519],[-81.725,-5.801],[-81.321,-6.084],[-80.916,-6.365],[-80.511,-6.647],[-80.105,-6.928],[-79.699,-7.209],[-79.292,-7.489],[-78.885,-7.769],[-78.477,-8.049],[-78.069,-8.328],[-77.66,-8.607],[-77.25,-8.885],[-76.84,-9.163],[-76.429,-9.441],[-76.018,-9.718],[-75.605,-9.995]]}},{"type":"Feature","properties":{"boundary_type":"subduction","feature_type":"gpml:SubductionZone","polarity":"Left","overriding_plate_id":602,"subducting_plate_id":501,"plate_ids":[501,602],"name":""},"geometry":{"type":"LineString","coordinates":[[-75.605,-9.995],[-75.195,-10.269],[-74.785,-10.542],[-74.374,-10.815],[-73.961,-11.088],[-73.549,-11.359],[-73.135,-11.631],[-72.721,-11.901],[-72.305,-12.172],[-71.889,-12.441],[-71.472,-12.71],[-71.054,-12.978],[-70.636,-13.246],[-70.216,-13.512],[-69.795,-13.779],[-69.374,-14.044],[-68.951,-14.309],[-68.528,-14.573],[-68.103,-14.836],[-67.677,-15.098],[-67.251,-15.36],[-66.823,-15.621],[-66.394,-15.881],[-65.964,-16.14],[-65.533,-16.398],[-65.101,-16.655],[-64.668,-16.912],[-64.233,-17.168],[-63.798,-17.422],[-63.361,-17.676],[-62.922,-17.929],[-62.437,-18.105],[-61.95,-18.28],[-61.462,-18.453],[-60.974,-18.626],[-60.484,-18.797],[-59.993,-18.967],[-59.501,-19.136],[-59.009,-19.303],[-58.515,-19.469],[-58.02,-19.633],[-57.525,-19.797],[-57.028,-19.959],[-56.53,-20.119],[-56.031,-20.278],[-55.532,-20.436],[-55.031,-20.592]]}},{"type":"Feature","properties":{"boundary_type":"subduction","feature_type":"gpml:SubductionZone","polarity":"Left","overriding_plate_id":701,"subducting_plate_id":501,"plate_ids":[501,701],"name":""},"geometry":{"type":"LineString","coordinates":[[-55.031,-20.592],[-54.561,-20.738],[-54.089,-20.881],[-53.617,-21.024],[-53.144,-21.165],[-52.67,-21.305],[-52.196,-21.444],[-51.72,-21.581],[-51.243,-21.717],[-50.766,-21.852],[-50.287,-21.985]]}},{"type":"Feature","properties":{"boundary_type":"subduction","feature_type":"gpml:SubductionZone","polarity":"Left","overriding_plate_id":701,"subducting_plate_id":501,"plate_ids":[501,701],"name":""},"geometry":{"type":"LineString","coordinates":[[-50.287,-21.985],[-49.99,-22.388],[-49.691,-22.791],[-49.39,-23.193],[-49.087,-23.594],[-48.782,-23.995],[-48.475,-24.395],[-48.167,-24.795],[-47.856,-25.194],[-47.544,-25.592],[-47.229,-25.99],[-46.912,-26.387],[-46.593,-26.783],[-46.272,-27.179],[-45.948,-27.574],[-45.623,-27.968],[-45.294,-28.361],[-44.881,-28.683],[-44.466,-29.005],[-44.048,-29.325],[-43.627,-29.644],[-43.204,-29.961],[-42.778,-30.277],[-42.349,-30.592],[-41.917,-30.905],[-41.483,-31.217],[-41.045,-31.527],[-40.605,-31.836],[-40.162,-32.143],[-39.716,-32.449],[-39.267,-32.753],[-38.814,-33.056],[-38.359,-33.356],[-37.9,-33.656],[-37.439,-33.953],[-36.974,-34.249],[-36.505,-34.543],[-36.034,-34.835],[-35.559,-35.126],[-35.081,-35.414],[-34.585,-35.698],[-34.085,-35.98],[-33.583,-36.26],[-33.076,-36.537],[-32.566,-36.813],[-32.052,-37.086],[-31.534,-37.357],[-31.013,-37.626],[-30.488,-37.893],[-29.959,-38.157],[-29.426,-38.419],[-28.89,-38.678],[-28.349,-38.935],[-27.805,-39.189],[-27.256,-39.441],[-26.704,-39.691],[-26.148,-39.937],[-25.588,-40.181],[-25.023,-40.422],[-24.455,-40.661],[-23.883,-40.896],[-23.306,-41.129],[-22.726,-41.359],[-22.141,-41.586],[-21.552,-41.81],[-20.96,-42.031],[-20.323,-42.15],[-19.684,-42.265],[-19.043,-42.377],[-18.399,-42.485],[-17.754,-42.59],[-17.106,-42.691],[-16.456,-42.788],[-15.804,-42.882],[-15.15,-42.972],[-14.495,-43.058],[-13.837,-43.14],[-13.178,-43.219],[-12.517,-43.294],[-11.855,-43.365],[-11.191,-43.432],[-10.525,-43.495],[-9.858,-43.555],[-9.19,-43.61],[-8.521,-43.662],[-7.851,-43.71],[-7.179,-43.754],[-6.507,-43.794],[-5.834,-43.829],[-5.16,-43.862],[-4.485,-43.89],[-3.81,-43.914],[-3.134,-43.934],[-2.458,-43.95],[-1.782,-43.962],[-1.105,-43.97],[-0.428,-43.974],[0.248,-43.975],[0.925,-43.971],[1.602,-43.963],[2.278,-43.951],[2.955,-43.935],[3.63,-43.915],[4.306,-43.892],[4.983,-43.879],[5.661,-43.862],[6.338,-43.841],[7.014,-43.816],[7.69,-43.787],[8.365,-43.754],[9.039,-43.718],[9.712,-43.677],[10.385,-43.632],[11.056,-43.583],[11.727,-43.531],[12.396,-43.474],[13.064,-43.414],[13.73,-43.35]]}},{"type":"Feature","properties":{"boundary_type":"subduction","feature_type":"gpml:SubductionZone","polarity":"Left","overriding_plate_id":701,"subducting_plate_id":90108,"plate_ids":[701,90108],"name":""},"geometry":{"type":"LineString","coordinates":[[13.73,-43.35],[14.41,-43.28],[15.088,-43.206],[15.765,-43.129],[16.44,-43.047],[17.113,-42.961],[17.784,-42.872],[18.453,-42.778],[19.121,-42.681],[19.786,-42.58],[20.448,-42.475],[21.109,-42.366],[21.767,-42.253],[22.423,-42.137],[23.077,-42.017],[23.727,-41.893],[24.376,-41.765],[25.021,-41.634],[25.665,-41.499],[26.305,-41.361],[26.943,-41.219],[27.577,-41.074],[28.209,-40.925]]}},{"type":"Feature","properties":{"boundary_type":"subduction","feature_type":"gpml:SubductionZone","polarity":"Right","overriding_plate_id":201,"subducting_plate_id":801,"plate_ids":[201,801],"name":""},"geometry":{"type":"LineString","coordinates":[[95.954,-18.988],[96.424,-18.782],[96.892,-18.574],[97.359,-18.365],[97.825,-18.155],[98.289,-17.944],[98.753,-17.732],[99.215,-17.518],[99.677,-17.304],[100.137,-17.088],[100.597,-16.872],[101.055,-16.654],[101.512,-16.436],[101.968,-16.216],[102.423,-15.996],[102.878,-15.774],[103.331,-15.552],[103.783,-15.329],[104.234,-15.104],[104.684,-14.879],[105.134,-14.653],[105.582,-14.426],[106.03,-14.199],[106.476,-13.97],[106.922,-13.741],[107.367,-13.511],[107.811,-13.28],[108.254,-13.048],[108.696,-12.816],[109.138,-12.582],[109.578,-12.349],[110.018,-12.114],[110.457,-11.879],[110.896,-11.643],[111.333,-11.406],[111.836,-11.341],[112.339,-11.276],[112.842,-11.209]]}},{"type":"Feature","properties":{"boundary_type":"subduction","feature_type":"gpml:SubductionZone","polarity":"Right","overriding_plate_id":201,"subducting_plate_id":90110,"plate_ids":[201,90110],"name":""},"geometry":{"type":"LineString","coordinates":[[112.842,-11.209],[113.336,-11.143],[113.83,-11.076],[114.323,-11.008],[114.816,-10.939],[115.31,-10.87],[115.802,-10.8],[116.295,-10.729],[116.788,-10.657],[117.28,-10.584],[117.772,-10.511],[118.263,-10.437],[118.755,-10.362],[119.246,-10.287],[119.737,-10.21],[120.228,-10.133],[120.719,-10.056],[121.209,-9.977],[121.699,-9.898],[122.189,-9.818],[122.678,-9.737],[123.168,-9.656],[123.657,-9.574],[124.146,-9.491],[124.634,-9.408],[125.123,-9.324],[125.611,-9.239],[126.099,-9.154],[126.587,-9.068],[127.074,-8.981],[127.561,-8.894],[128.048,-8.806],[128.535,-8.717],[129.022,-8.628],[129.508,-8.538],[129.994,-8.448],[130.442,-8.645],[130.89,-8.842],[131.338,-9.038],[131.787,-9.233],[132.236,-9.428],[132.686,-9.623],[133.137,-9.816],[133.588,-10.01],[134.039,-10.202],[134.491,-10.394],[134.944,-10.585],[135.397,-10.776],[135.851,-10.966],[136.305,-11.156],[136.76,-11.344],[137.216,-11.532],[137.672,-11.719],[138.129,-11.906],[138.586,-12.092],[139.044,-12.277],[139.503,-12.461],[139.962,-12.645],[140.422,-12.827],[140.883,-13.009],[141.249,-13.329],[141.617,-13.649],[141.985,-13.968],[142.355,-14.286],[142.726,-14.604],[143.097,-14.921],[143.47,-15.237],[143.844,-15.553],[144.219,-15.869],[144.595,-16.183],[144.973,-16.497],[145.352,-16.811],[145.732,-17.123],[146.113,-17.435],[146.495,-17.746],[146.879,-18.057],[147.264,-18.366],[147.651,-18.675],[148.039,-18.983]]}},{"type":"Feature","properties":{"boundary_type":"subduction","feature_type":"gpml:SubductionZone","polarity":"Right","overriding_plate_id":90108,"subducting_plate_id":801,"plate_ids":[801,90108],"name":""},"geometry":{"type":"LineString","coordinates":[[29.174,-15.038],[29.662,-15.205],[30.15,-15.371],[30.639,-15.536],[31.129,-15.699],[31.62,-15.862],[32.112,-16.023],[32.604,-16.183],[33.097,-16.342],[33.591,-16.5],[34.085,-16.657],[34.581,-16.813],[35.077,-16.967],[35.574,-17.121],[36.072,-17.273],[36.571,-17.424],[37.071,-17.573],[37.571,-17.721],[38.072,-17.869],[38.574,-18.014],[39.077,-18.159],[39.581,-18.302],[40.086,-18.444],[40.591,-18.584],[41.097,-18.723],[41.604,-18.861],[42.112,-18.998],[42.621,-19.133],[43.13,-19.266],[43.641,-19.399],[44.152,-19.529],[44.664,-19.659],[45.177,-19.787],[45.69,-19.913],[46.205,-20.038],[46.72,-20.162],[47.236,-20.284],[47.753,-20.404],[48.271,-20.523],[48.789,-20.64],[49.308,-20.756],[49.829,-20.87],[50.349,-20.983],[50.871,-21.094],[51.393,-21.204],[51.917,-21.312],[52.441,-21.418],[52.965,-21.523],[53.491,-21.626],[54.017,-21.727],[54.544,-21.827],[55.072,-21.925],[55.6,-22.021],[56.129,-22.116],[56.659,-22.209],[57.189,-22.3],[57.721,-22.39],[58.253,-22.477],[58.785,-22.563],[59.318,-22.648],[59.852,-22.73],[60.387,-22.811],[60.922,-22.89],[61.457,-22.967],[61.994,-23.042],[62.531,-23.116],[63.068,-23.188],[63.606,-23.257],[64.145,-23.325],[64.684,-23.392],[65.224,-23.456],[65.764,-23.519],[66.305,-23.579],[66.846,-23.638],[67.388,-23.695],[67.93,-23.75],[68.472,-23.803],[69.016,-23.854],[69.559,-23.903],[70.103,-23.951],[70.647,-23.996],[71.192,-24.04],[71.737,-24.081],[72.282,-24.121],[72.828,-24.159],[73.374,-24.195],[73.92,-24.229],[74.467,-24.261],[75.014,-24.29],[75.561,-24.318],[76.108,-24.345],[76.656,-24.369],[77.203,-24.391],[77.751,-24.411],[78.299,-24.429],[78.848,-24.445],[79.396,-24.459],[79.944,-24.472],[80.493,-24.482],[81.042,-24.49],[81.59,-24.496],[82.139,-24.501],[82.688,-24.503],[83.237,-24.503],[83.786,-24.502]]}},{"type":"Feature","properties":{"boundary_type":"subduction","feature_type":"gpml:SubductionZone","polarity":"Right","overriding_plate_id":201,"subducting_plate_id":801,"plate_ids":[201,801],"name":""},"geometry":{"type":"LineString","coordinates":[[83.786,-24.502],[84.334,-24.498],[84.882,-24.493],[85.431,-24.485],[85.979,-24.475],[86.527,-24.464],[87.075,-24.45],[87.623,-24.435],[88.171,-24.417],[88.718,-24.398],[89.266,-24.377]]}},{"type":"Feature","properties":{"boundary_type":"ridge","feature_type":"gpml:MidOceanRidge","polarity":null,"overriding_plate_id":null,"subducting_plate_id":null,"plate_ids":[501,90108],"name":""},"geometry":{"type":"LineString","coordinates":[[13.73,-43.35],[14.109,-43.759],[14.494,-44.168],[14.883,-44.575],[15.279,-44.98],[15.68,-45.384],[16.086,-45.787],[16.499,-46.189],[16.917,-46.588],[17.342,-46.987],[17.773,-47.383],[18.211,-47.778],[18.656,-48.172],[19.107,-48.563],[19.565,-48.953],[20.031,-49.341],[20.503,-49.727],[20.984,-50.112],[21.472,-50.494],[21.968,-50.874],[22.473,-51.252],[22.985,-51.627],[23.506,-52.001],[24.036,-52.372],[24.575,-52.741],[25.123,-53.107],[25.68,-53.47],[26.247,-53.831],[26.824,-54.19],[27.411,-54.545],[28.008,-54.898],[27.606,-55.306],[27.197,-55.712],[26.778,-56.117],[26.351,-56.521],[25.915,-56.923],[25.469,-57.323],[25.013,-57.722],[24.547,-58.119],[24.071,-58.515],[23.583,-58.909],[24.306,-59.23],[25.043,-59.547],[25.794,-59.861],[26.558,-60.169],[27.338,-60.474],[28.131,-60.773],[28.94,-61.068],[29.764,-61.358],[30.603,-61.643],[31.457,-61.923],[32.327,-62.197],[33.213,-62.466],[34.115,-62.729],[35.033,-62.986],[35.966,-63.237],[36.917,-63.482],[37.883,-63.721],[38.865,-63.952],[39.864,-64.178],[40.879,-64.396],[41.909,-64.607],[42.956,-64.811],[44.018,-65.007],[45.096,-65.196],[46.189,-65.376],[47.296,-65.549],[48.418,-65.714],[49.554,-65.87],[50.704,-66.018],[51.866,-66.157],[51.624,-66.646],[51.372,-67.134],[51.109,-67.622],[50.835,-68.109],[50.55,-68.596],[50.252,-69.082],[51.544,-69.265],[52.857,-69.437],[54.19,-69.6],[55.544,-69.753],[56.917,-69.895],[58.307,-70.026],[59.715,-70.146],[61.138,-70.255],[62.576,-70.353]]}},{"type":"Feature","properties":{"boundary_type":"ridge","feature_type":"gpml:MidOceanRidge","polarity":null,"overriding_plate_id":null,"subducting_plate_id":null,"plate_ids":[201,90108],"name":""},"geometry":{"type":"LineString","coordinates":[[62.576,-70.353],[64.001,-70.438],[65.438,-70.511],[66.884,-70.574],[68.338,-70.624],[69.799,-70.663],[71.265,-70.691],[72.733,-70.706],[74.204,-70.71],[75.673,-70.702],[77.141,-70.682],[78.605,-70.651],[80.064,-70.608],[81.516,-70.553],[82.959,-70.487],[84.392,-70.41],[85.813,-70.321],[87.221,-70.221],[88.615,-70.111],[89.994,-69.989],[91.355,-69.857]]}},{"type":"Feature","properties":{"boundary_type":"ridge","feature_type":"gpml:MidOceanRidge","polarity":null,"overriding_plate_id":null,"subducting_plate_id":null,"plate_ids":[201,90108],"name":""},"geometry":{"type":"LineString","coordinates":[[83.786,-24.502],[83.857,-24.993],[83.929,-25.484],[84.001,-25.976],[84.074,-26.467],[84.148,-26.958],[84.223,-27.449],[84.298,-27.941],[84.373,-28.432],[84.45,-28.923],[84.527,-29.414],[84.605,-29.905],[84.683,-30.396],[84.763,-30.886],[84.843,-31.377],[84.924,-31.868],[85.006,-32.359],[85.089,-32.849],[85.173,-33.34],[85.258,-33.83],[85.343,-34.321],[85.43,-34.811],[85.518,-35.302],[85.607,-35.792],[85.697,-36.282],[85.788,-36.772],[85.88,-37.263],[85.974,-37.753],[86.068,-38.243],[86.164,-38.732],[86.262,-39.222],[86.36,-39.712],[86.46,-40.202],[86.562,-40.691],[86.665,-41.181],[86.77,-41.67],[86.876,-42.159],[86.984,-42.648],[87.093,-43.137],[87.205,-43.626],[87.318,-44.115],[87.433,-44.604],[87.55,-45.092],[87.669,-45.581],[87.79,-46.069],[87.913,-46.558],[88.039,-47.046],[88.167,-47.534],[88.297,-48.021],[88.43,-48.509],[88.565,-48.997],[88.703,-49.484],[88.844,-49.971],[88.987,-50.458],[89.134,-50.945],[89.284,-51.432],[89.437,-51.918],[89.593,-52.404],[89.753,-52.89],[89.916,-53.376],[90.083,-53.862],[90.254,-54.347],[90.43,-54.832],[90.609,-55.317],[90.793,-55.802],[90.982,-56.286],[91.175,-56.77],[91.373,-57.253],[91.577,-57.737],[91.786,-58.22],[92.001,-58.703],[92.222,-59.185],[92.45,-59.667],[92.684,-60.148],[92.925,-60.629],[93.173,-61.11],[93.429,-61.59],[92.481,-61.753],[91.523,-61.91],[90.556,-62.06],[89.58,-62.202],[88.594,-62.338],[87.6,-62.467],[86.597,-62.589],[85.586,-62.704],[85.861,-63.156],[86.145,-63.608],[86.439,-64.06],[86.742,-64.511],[87.055,-64.961],[87.378,-65.41],[87.713,-65.859],[88.06,-66.307],[88.42,-66.754],[88.792,-67.2],[89.179,-67.646],[89.581,-68.09],[89.998,-68.534],[90.432,-68.976],[90.885,-69.417],[91.355,-69.857]]}},{"type":"Feature","properties":{"boundary_type":"subduction","feature_type":"gpml:SubductionZone","polarity":"Right","overriding_plate_id":201,"subducting_plate_id":801,"plate_ids":[201,801],"name":""},"geometry":{"type":"LineString","coordinates":[[89.266,-24.377],[89.674,-24.067],[90.08,-23.757],[90.484,-23.446],[90.886,-23.134],[91.286,-22.82],[91.685,-22.506],[92.081,-22.191],[92.476,-21.875],[92.869,-21.557],[93.26,-21.239],[93.65,-20.92],[94.038,-20.6],[94.424,-20.28],[94.809,-19.958],[95.192,-19.636],[95.574,-19.312],[95.954,-18.988]]}},{"type":"Feature","properties":{"boundary_type":"ridge","feature_type":"gpml:MidOceanRidge","polarity":null,"overriding_plate_id":null,"subducting_plate_id":null,"plate_ids":[501,90110],"name":""},"geometry":{"type":"LineString","coordinates":[[155.924,-15.718],[155.651,-15.987],[155.377,-16.255],[155.103,-16.524],[154.828,-16.792]]}},{"type":"Feature","properties":{"boundary_type":"ridge","feature_type":"gpml:MidOceanRidge","polarity":null,"overriding_plate_id":null,"subducting_plate_id":null,"plate_ids":[201,501],"name":""},"geometry":{"type":"LineString","coordinates":[[154.828,-16.792],[154.471,-17.139],[154.112,-17.485],[153.752,-17.83],[153.39,-18.175],[153.027,-18.519],[152.663,-18.863],[152.927,-19.28],[153.192,-19.698],[153.459,-20.114],[153.727,-20.531],[153.997,-20.947],[154.268,-21.362],[154.541,-21.777],[154.815,-22.192],[155.091,-22.606],[155.369,-23.02],[155.648,-23.433],[155.929,-23.846],[156.212,-24.258],[156.497,-24.67],[156.783,-25.081],[157.072,-25.491],[157.362,-25.901],[157.655,-26.311],[157.949,-26.72],[157.701,-27.055],[157.45,-27.391],[157.199,-27.726],[156.945,-28.06],[156.691,-28.394],[156.512,-28.862],[156.332,-29.329],[156.15,-29.796],[155.966,-30.262],[155.781,-30.729],[155.593,-31.195],[155.404,-31.661],[155.213,-32.126],[155.02,-32.591],[154.825,-33.056],[154.628,-33.521],[154.429,-33.985],[154.228,-34.449],[154.024,-34.913],[153.819,-35.376],[153.61,-35.839],[153.4,-36.302],[153.186,-36.764],[152.97,-37.226],[152.752,-37.688],[152.531,-38.149],[152.307,-38.609],[152.08,-39.07],[151.85,-39.529],[151.617,-39.989],[151.381,-40.447],[151.142,-40.906],[150.899,-41.364],[150.653,-41.821],[150.403,-42.278],[150.15,-42.734],[149.602,-42.501],[149.059,-42.266],[148.519,-42.029],[147.984,-41.788],[147.452,-41.546],[146.925,-41.301],[146.402,-41.053],[145.882,-40.803],[145.603,-41.244],[145.319,-41.684],[145.032,-42.123],[144.741,-42.562],[144.445,-42.999],[144.145,-43.436],[143.841,-43.872],[143.533,-44.308],[143.22,-44.742],[142.902,-45.176],[142.579,-45.608],[142.252,-46.04],[141.919,-46.471],[141.581,-46.901],[141.237,-47.33],[140.888,-47.757],[140.533,-48.184],[140.172,-48.61],[139.805,-49.034],[139.431,-49.457],[139.051,-49.879],[138.665,-50.3],[138.271,-50.72],[137.871,-51.138],[137.463,-51.555],[137.047,-51.97],[136.624,-52.384],[136.193,-52.796],[135.753,-53.207],[135.305,-53.616],[134.849,-54.023],[134.383,-54.429],[133.908,-54.832],[133.424,-55.234],[132.929,-55.634],[132.425,-56.032],[131.91,-56.428],[131.384,-56.821],[130.847,-57.213],[130.298,-57.602],[129.738,-57.988],[130.447,-58.314],[131.17,-58.636],[131.905,-58.953],[132.655,-59.267],[133.418,-59.576],[132.784,-59.956],[132.135,-60.333],[131.472,-60.706],[130.793,-61.077],[130.097,-61.443],[129.386,-61.807],[128.657,-62.166],[127.911,-62.522],[127.147,-62.873],[126.365,-63.22],[125.564,-63.563],[124.743,-63.901],[123.902,-64.235],[123.042,-64.563],[122.16,-64.886],[121.257,-65.205],[120.332,-65.517],[119.385,-65.824],[118.416,-66.124],[117.423,-66.419],[116.407,-66.707],[115.367,-66.988],[114.303,-67.263],[113.215,-67.53],[112.103,-67.79],[110.966,-68.042],[109.804,-68.286],[108.617,-68.522],[107.406,-68.749],[106.171,-68.967],[104.911,-69.176],[103.627,-69.376],[102.32,-69.567],[100.99,-69.747],[99.638,-69.917],[98.264,-70.077],[96.87,-70.226],[95.456,-70.364],[94.024,-70.49],[92.575,-70.606],[91.109,-70.71],[89.63,-70.802],[88.137,-70.882],[86.634,-70.95],[85.121,-71.005],[83.6,-71.048],[82.074,-71.079],[80.544,-71.098],[79.012,-71.103],[77.48,-71.097],[75.95,-71.077],[74.424,-71.045],[72.904,-71.001],[71.391,-70.945],[69.889,-70.876],[68.397,-70.795],[66.919,-70.702],[65.455,-70.597],[64.007,-70.481],[62.576,-70.353]]}},{"type":"Feature","properties":{"boundary_type":"ridge","feature_type":"gpml:MidOceanRidge","polarity":null,"overriding_plate_id":null,"subducting_plate_id":null,"plate_ids":[101,602,801],"name":""},"geometry":{"type":"LineString","coordinates":[[-79.761,19.839],[-79.272,19.681],[-78.784,19.522],[-78.297,19.362],[-77.811,19.2],[-77.326,19.038],[-76.841,18.874],[-76.358,18.708],[-75.875,18.542],[-75.394,18.374]]}},{"type":"Feature","properties":{"boundary_type":"ridge","feature_type":"gpml:MidOceanRidge","polarity":null,"overriding_plate_id":null,"subducting_plate_id":null,"plate_ids":[602,801],"name":""},"geometry":{"type":"LineString","coordinates":[[-75.394,18.374],[-74.909,18.204],[-74.425,18.032],[-73.941,17.859],[-73.459,17.685],[-72.977,17.509],[-72.497,17.333],[-72.017,17.155],[-71.539,16.976],[-71.061,16.796],[-70.584,16.615],[-70.108,16.433],[-69.633,16.25],[-69.159,16.066],[-68.686,15.88],[-68.213,15.694],[-67.742,15.507],[-67.271,15.318],[-66.801,15.129],[-66.332,14.939],[-65.864,14.748],[-65.397,14.556],[-64.93,14.362],[-64.464,14.168],[-64.0,13.974],[-63.535,13.778],[-63.072,13.581],[-62.609,13.384],[-62.491,13.842],[-62.373,14.3],[-62.254,14.757],[-62.135,15.215],[-62.015,15.673],[-61.894,16.131],[-61.773,16.588],[-61.651,17.046],[-61.529,17.503],[-61.042,17.353],[-60.555,17.201],[-60.069,17.048],[-59.584,16.893],[-59.099,16.738],[-58.616,16.582],[-58.133,16.424],[-57.651,16.265],[-57.17,16.106],[-56.69,15.945],[-56.21,15.783],[-55.731,15.62],[-55.253,15.456],[-54.776,15.291],[-54.299,15.125],[-53.823,14.958],[-53.348,14.79],[-52.874,14.621],[-52.4,14.451],[-51.927,14.28],[-51.455,14.108],[-50.984,13.936],[-50.513,13.762],[-50.043,13.587],[-49.573,13.412],[-49.105,13.236],[-48.637,13.059],[-48.169,12.881],[-47.703,12.702],[-47.237,12.522],[-46.771,12.342],[-46.307,12.161],[-46.13,12.58],[-45.953,13.0],[-45.775,13.42],[-45.597,13.839],[-45.418,14.258],[-45.238,14.678],[-45.057,15.097],[-44.876,15.515],[-44.694,15.934],[-44.206,15.792],[-43.717,15.649],[-43.23,15.505],[-42.743,15.36],[-42.257,15.213],[-41.772,15.066],[-41.287,14.917],[-40.803,14.768],[-40.32,14.618],[-39.837,14.466],[-39.355,14.314],[-38.874,14.16],[-38.393,14.006],[-37.913,13.851],[-37.433,13.695],[-36.955,13.538],[-36.476,13.38],[-35.999,13.221],[-35.522,13.061],[-35.046,12.9],[-34.57,12.739],[-34.095,12.576],[-33.62,12.413],[-33.146,12.249],[-32.673,12.084],[-32.201,11.918],[-31.728,11.752],[-31.257,11.585],[-30.786,11.417],[-30.315,11.248],[-29.846,11.078],[-29.376,10.908],[-28.907,10.737],[-28.439,10.566],[-27.971,10.393],[-27.504,10.22],[-27.037,10.047]]}},{"type":"Feature","properties":{"boundary_type":"ridge","feature_type":"gpml:MidOceanRidge","polarity":null,"overriding_plate_id":null,"subducting_plate_id":null,"plate_ids":[701,801],"name":""},"geometry":{"type":"LineString","coordinates":[[-18.159,25.272],[-18.437,24.844],[-18.713,24.415],[-18.988,23.985],[-19.261,23.555],[-19.532,23.125],[-19.801,22.694],[-20.069,22.262],[-20.335,21.831],[-20.599,21.398],[-20.862,20.966],[-21.123,20.533],[-21.383,20.099],[-21.641,19.666],[-21.898,19.231],[-22.154,18.797],[-22.408,18.362],[-22.661,17.927],[-22.913,17.491],[-23.164,17.055],[-23.413,16.619],[-23.661,16.183],[-23.908,15.746],[-24.155,15.309],[-24.4,14.872],[-24.644,14.434],[-24.887,13.997],[-25.129,13.559],[-25.37,13.12],[-25.611,12.682],[-25.851,12.243],[-26.089,11.804],[-26.327,11.365],[-26.565,10.926],[-26.801,10.486],[-27.037,10.047]]}},{"type":"Feature","properties":{"boundary_type":"ridge","feature_type":"gpml:MidOceanRidge","polarity":null,"overriding_plate_id":null,"subducting_plate_id":null,"plate_ids":[602,701],"name":""},"geometry":{"type":"LineString","coordinates":[[-27.037,10.047],[-27.268,9.617],[-27.497,9.187],[-27.726,8.756],[-27.954,8.326],[-28.182,7.895],[-28.41,7.464],[-28.637,7.034],[-28.863,6.603],[-29.09,6.172],[-29.316,5.74],[-29.541,5.309],[-29.766,4.878],[-29.991,4.446],[-30.216,4.015],[-30.44,3.583],[-30.664,3.152],[-30.888,2.72],[-31.112,2.289],[-31.336,1.857],[-31.559,1.425],[-31.783,0.993],[-32.006,0.562],[-32.23,0.13],[-32.453,-0.302],[-32.882,-0.07],[-33.311,0.161],[-33.74,0.393],[-34.17,0.624],[-34.599,0.856],[-35.028,1.087],[-35.457,1.319],[-35.887,1.55],[-36.316,1.781],[-36.746,2.013],[-37.175,2.244],[-37.605,2.475],[-38.035,2.705],[-38.465,2.936],[-38.741,2.527],[-39.016,2.118],[-39.291,1.708],[-39.565,1.299],[-39.84,0.89],[-40.115,0.48],[-40.389,0.071],[-40.664,-0.339],[-40.938,-0.748],[-41.213,-1.157],[-41.488,-1.567],[-41.762,-1.976],[-42.037,-2.385],[-42.313,-2.795],[-42.588,-3.204],[-42.863,-3.613],[-43.139,-4.022],[-43.415,-4.431],[-43.692,-4.839],[-43.968,-5.248],[-44.245,-5.657],[-44.523,-6.065],[-44.801,-6.473],[-45.079,-6.882],[-45.358,-7.29],[-45.637,-7.697],[-45.917,-8.105],[-46.197,-8.512],[-46.478,-8.92],[-46.76,-9.327],[-47.042,-9.733],[-47.325,-10.14],[-47.609,-10.546],[-47.893,-10.952],[-48.179,-11.358],[-48.465,-11.764],[-48.752,-12.169],[-49.039,-12.574],[-49.328,-12.979],[-49.618,-13.383],[-49.908,-13.787],[-50.2,-14.191],[-50.493,-14.594],[-50.786,-14.997],[-51.081,-15.399],[-51.377,-15.801],[-51.674,-16.203],[-51.973,-16.605],[-52.272,-17.006],[-52.573,-17.406],[-52.875,-17.806],[-53.179,-18.206],[-53.484,-18.605],[-53.79,-19.003],[-54.098,-19.401],[-54.407,-19.799],[-54.718,-20.196],[-55.031,-20.592]]}},{"type":"Feature","properties":{"boundary_type":"ridge","feature_type":"gpml:MidOceanRidge","polarity":null,"overriding_plate_id":null,"subducting_plate_id":null,"plate_ids":[101,501],"name":""},"geometry":{"type":"LineString","coordinates":[[-123.56,-38.138],[-123.927,-37.842],[-124.291,-37.544],[-124.652,-37.246],[-125.01,-36.947]]}},{"type":"Feature","properties":{"boundary_type":"ridge","feature_type":"gpml:MidOceanRidge","polarity":null,"overriding_plate_id":null,"subducting_plate_id":null,"plate_ids":[101,302],"name":""},"geometry":{"type":"LineString","coordinates":[[-125.01,-36.947],[-125.428,-36.594],[-125.841,-36.239],[-126.251,-35.884],[-126.657,-35.526],[-127.059,-35.168],[-127.458,-34.808],[-127.854,-34.447],[-128.246,-34.085],[-128.634,-33.721],[-129.02,-33.356],[-129.402,-32.99],[-129.781,-32.623],[-130.157,-32.255],[-130.53,-31.885],[-130.899,-31.515],[-131.266,-31.143],[-131.63,-30.771],[-131.992,-30.397],[-132.35,-30.023],[-132.706,-29.647],[-133.059,-29.271],[-133.41,-28.893],[-133.758,-28.515],[-134.103,-28.136],[-134.446,-27.756],[-134.787,-27.375],[-135.125,-26.993],[-135.461,-26.611],[-135.795,-26.227],[-135.389,-25.887],[-134.986,-25.546],[-134.584,-25.203],[-134.185,-24.859],[-133.788,-24.515],[-133.393,-24.169],[-133.001,-23.822],[-132.61,-23.474],[-132.222,-23.126],[-131.835,-22.776],[-131.451,-22.425],[-131.068,-22.074],[-131.477,-21.769],[-131.884,-21.464],[-132.289,-21.157],[-132.692,-20.85],[-133.094,-20.541],[-133.494,-20.232],[-133.893,-19.922],[-134.29,-19.61],[-134.686,-19.298],[-135.08,-18.985],[-135.472,-18.672],[-135.863,-18.357],[-136.253,-18.042],[-136.641,-17.726],[-137.028,-17.409],[-137.414,-17.091],[-137.105,-16.689],[-136.797,-16.286],[-136.49,-15.883],[-136.185,-15.48],[-135.881,-15.076],[-135.578,-14.672],[-135.276,-14.267],[-134.976,-13.862],[-134.676,-13.457],[-134.378,-13.051],[-134.08,-12.645],[-133.783,-12.238],[-133.487,-11.831],[-133.193,-11.424],[-132.898,-11.017],[-132.605,-10.609],[-132.313,-10.201],[-132.021,-9.793],[-131.73,-9.385],[-131.44,-8.976],[-131.15,-8.567],[-130.861,-8.158],[-130.573,-7.749],[-131.005,-7.575],[-131.437,-7.4],[-131.869,-7.226],[-132.3,-7.05],[-132.731,-6.875],[-133.162,-6.699],[-132.991,-6.238],[-132.82,-5.776],[-132.649,-5.315],[-132.479,-4.854],[-132.309,-4.393],[-132.139,-3.932],[-131.969,-3.47],[-131.799,-3.009],[-131.63,-2.547],[-131.461,-2.086],[-131.292,-1.625],[-131.122,-1.163],[-130.953,-0.702],[-130.784,-0.24],[-130.615,0.221],[-130.446,0.683],[-130.277,1.144],[-130.108,1.606],[-130.506,1.679],[-130.904,1.752],[-131.302,1.825],[-131.699,1.897],[-132.097,1.97],[-132.09,2.447],[-132.083,2.925],[-132.076,3.402],[-132.069,3.879],[-132.062,4.356],[-132.055,4.834],[-132.048,5.311],[-132.041,5.788],[-132.033,6.265],[-132.026,6.742],[-132.019,7.22],[-132.012,7.697],[-132.005,8.174],[-131.998,8.651],[-131.99,9.129]]}},{"type":"Feature","properties":{"boundary_type":"ridge","feature_type":"gpml:MidOceanRidge","polarity":null,"overriding_plate_id":null,"subducting_plate_id":null,"plate_ids":[801,90109],"name":""},"geometry":{"type":"LineString","coordinates":[[141.116,48.436],[141.518,48.036],[141.913,47.634],[142.303,47.232],[142.686,46.828],[143.064,46.423],[143.436,46.016],[143.803,45.609],[144.165,45.2],[144.521,44.79],[143.947,44.549],[143.378,44.305],[142.813,44.059],[142.253,43.81],[141.697,43.558],[141.147,43.303],[140.601,43.046],[140.059,42.786],[139.522,42.523],[138.99,42.258],[138.462,41.991],[137.938,41.721],[137.419,41.449],[136.904,41.175],[136.394,40.898],[135.887,40.619]]}},{"type":"Feature","properties":{"boundary_type":"ridge","feature_type":"gpml:MidOceanRidge","polarity":null,"overriding_plate_id":null,"subducting_plate_id":null,"plate_ids":[801,90110],"name":""},"geometry":{"type":"LineString","coordinates":[[135.887,40.619],[135.39,40.34],[134.896,40.059],[134.406,39.776],[133.92,39.491],[133.439,39.204],[132.961,38.915],[132.487,38.624],[132.017,38.332],[131.551,38.037],[131.088,37.74],[130.629,37.442],[130.922,37.095],[131.213,36.747],[131.501,36.399],[131.786,36.049],[131.295,35.778],[130.808,35.505],[130.324,35.23],[129.844,34.953],[129.366,34.674],[128.892,34.393],[128.421,34.11],[127.953,33.826],[127.488,33.539],[127.027,33.251],[126.568,32.962],[126.113,32.67],[125.66,32.377],[125.21,32.083],[124.763,31.787],[124.319,31.489],[123.878,31.19],[123.44,30.889],[123.004,30.587],[122.572,30.283],[122.141,29.978],[121.714,29.672],[121.289,29.364],[120.866,29.055]]}},{"type":"Feature","properties":{"boundary_type":"ridge","feature_type":"gpml:MidOceanRidge","polarity":null,"overriding_plate_id":null,"subducting_plate_id":null,"plate_ids":[801,90110],"name":""},"geometry":{"type":"LineString","coordinates":[[120.866,29.055],[121.25,28.735],[121.631,28.413],[122.009,28.091],[122.386,27.768],[122.76,27.443],[123.132,27.118],[123.502,26.791],[123.223,26.37],[122.946,25.948],[122.671,25.525],[122.398,25.102],[122.128,24.679],[121.858,24.255],[121.591,23.83],[121.326,23.405],[121.062,22.98],[120.799,22.554],[120.539,22.128],[120.28,21.701],[120.022,21.274],[119.766,20.847],[119.512,20.419],[119.259,19.991],[119.007,19.563],[118.756,19.134],[118.507,18.704],[118.259,18.275],[118.013,17.845],[117.767,17.415],[117.523,16.984],[117.28,16.554],[117.038,16.123],[116.797,15.691],[116.556,15.26],[116.317,14.828],[116.079,14.396],[115.842,13.964],[115.606,13.531],[115.37,13.098],[115.136,12.665],[114.902,12.232],[114.669,11.799],[114.437,11.365],[114.86,11.126],[115.282,10.887],[115.704,10.647],[116.125,10.406],[116.545,10.164],[116.965,9.923],[117.384,9.68],[117.802,9.437],[118.22,9.194],[118.638,8.95],[118.498,8.47],[118.359,7.991],[118.22,7.511],[118.081,7.031],[117.942,6.551],[117.804,6.071],[117.666,5.591],[117.528,5.111],[117.391,4.631],[117.254,4.151],[117.116,3.671],[116.979,3.191],[116.843,2.711],[116.706,2.23],[116.569,1.75],[116.433,1.27],[116.296,0.79],[116.159,0.31],[116.023,-0.17],[115.886,-0.651],[115.75,-1.131],[115.613,-1.611],[115.477,-2.091],[115.34,-2.571],[115.203,-3.052],[115.066,-3.532],[114.929,-4.012],[114.792,-4.492],[114.654,-4.972],[114.517,-5.452],[114.379,-5.932],[114.241,-6.412],[114.102,-6.892],[113.964,-7.372],[113.825,-7.852],[113.685,-8.331],[113.546,-8.811],[113.406,-9.291],[113.265,-9.77],[113.125,-10.25],[112.983,-10.73],[112.842,-11.209]]}},{"type":"Feature","properties":{"boundary_type":"ridge","feature_type":"gpml:MidOceanRidge","polarity":null,"overriding_plate_id":null,"subducting_plate_id":null,"plate_ids":[90109,90110],"name":""},"geometry":{"type":"LineString","coordinates":[[135.887,40.619],[136.36,40.273],[136.828,39.924],[137.292,39.574],[137.75,39.222],[138.204,38.868],[138.654,38.512],[139.099,38.155],[139.539,37.796],[139.976,37.435],[140.408,37.073],[140.836,36.709],[141.26,36.344],[141.68,35.977],[142.096,35.609],[142.509,35.239],[142.917,34.868],[143.322,34.496],[143.724,34.122],[144.121,33.747],[144.516,33.371],[144.907,32.993],[145.294,32.615],[145.679,32.235],[146.06,31.854],[146.438,31.471],[146.813,31.088],[147.184,30.704],[147.553,30.318],[147.099,30.052],[146.646,29.783],[146.197,29.514],[145.749,29.242],[145.304,28.97],[144.861,28.696],[144.421,28.42],[144.777,28.038],[145.131,27.655],[145.483,27.271],[145.832,26.886],[146.178,26.5],[146.522,26.113],[146.864,25.726],[147.204,25.338],[147.542,24.949],[147.877,24.559],[148.211,24.169],[148.542,23.778],[148.872,23.386],[149.199,22.993],[149.524,22.6],[149.848,22.206],[150.17,21.811],[150.49,21.416],[150.809,21.021],[151.125,20.624],[151.44,20.227],[151.754,19.83],[152.066,19.432],[152.376,19.033],[152.685,18.634],[152.992,18.235],[153.298,17.835],[153.603,17.434],[153.906,17.033],[154.208,16.632],[154.509,16.23],[154.808,15.828],[155.107,15.425],[155.404,15.022],[155.7,14.618],[155.995,14.215],[156.289,13.81],[156.582,13.406],[156.873,13.001],[156.506,12.743],[156.138,12.484],[155.772,12.224],[155.407,11.964],[155.042,11.704],[154.677,11.443],[154.963,11.042],[155.249,10.64],[155.533,10.238],[155.817,9.836],[156.1,9.434],[156.382,9.031],[156.664,8.629],[156.945,8.226],[157.226,7.823],[157.506,7.419],[157.786,7.016],[158.065,6.612],[158.343,6.208],[158.622,5.804],[158.9,5.4],[159.177,4.996],[159.454,4.592],[159.731,4.187],[160.007,3.783],[160.284,3.378],[160.56,2.973],[160.835,2.569],[161.111,2.164],[161.387,1.759],[161.662,1.354],[161.937,0.949],[162.212,0.544],[162.488,0.139],[162.763,-0.266],[163.038,-0.671],[163.313,-1.076],[163.588,-1.481],[163.864,-1.886],[164.139,-2.291],[164.415,-2.695],[164.691,-3.1],[164.967,-3.505],[164.597,-3.802],[164.227,-4.099],[163.857,-4.396],[163.487,-4.692],[163.116,-4.988],[162.745,-5.285],[162.373,-5.581],[162.002,-5.876],[161.629,-6.172],[161.257,-6.467],[160.884,-6.762],[160.51,-7.056],[160.136,-7.351],[159.762,-7.645],[160.037,-8.059],[160.313,-8.473],[160.589,-8.887],[160.867,-9.3],[161.144,-9.714],[161.423,-10.127],[161.702,-10.54],[161.982,-10.952],[162.263,-11.365],[162.544,-11.777],[162.827,-12.189],[163.11,-12.6],[163.394,-13.012],[163.679,-13.423],[163.966,-13.833],[164.253,-14.243],[164.541,-14.653],[164.83,-15.063],[165.121,-15.472],[165.412,-15.881],[165.705,-16.29],[165.999,-16.698],[166.294,-17.105],[166.59,-17.513],[166.888,-17.919],[167.187,-18.326],[167.488,-18.732],[167.79,-19.137],[168.094,-19.542],[168.399,-19.946],[168.705,-20.35],[169.013,-20.753],[169.323,-21.156],[169.635,-21.558],[169.948,-21.96],[170.263,-22.361],[170.58,-22.761],[170.899,-23.161],[171.219,-23.56],[171.542,-23.959],[171.867,-24.356],[172.193,-24.753],[172.522,-25.15],[172.853,-25.545],[173.186,-25.94],[173.521,-26.334],[173.859,-26.728],[174.199,-27.12],[174.541,-27.512],[174.886,-27.903],[175.233,-28.293],[175.583,-28.682],[175.935,-29.07],[176.291,-29.457],[176.648,-29.844],[177.009,-30.229],[177.372,-30.614],[177.739,-30.997],[178.108,-31.379],[178.48,-31.76],[178.856,-32.141],[179.234,-32.52],[179.616,-32.897],[-179.999,-33.274],[-179.611,-33.65]]}},{"type":"Feature","properties":{"boundary_type":"subduction","feature_type":"gpml:SubductionZone","polarity":"Left","overriding_plate_id":101,"subducting_plate_id":90109,"plate_ids":[101,90109],"name":"Baltica_SZ"},"geometry":{"type":"LineString","coordinates":[[-170.928,2.465],[-170.539,2.348],[-170.151,2.231]]}},{"type":"Feature","properties":{"boundary_type":"subduction","feature_type":"gpml:SubductionZone","polarity":"Left","overriding_plate_id":302,"subducting_plate_id":90109,"plate_ids":[302,90109],"name":"Baltica_SZ"},"geometry":{"type":"LineString","coordinates":[[-170.151,2.231],[-169.779,2.12],[-169.408,2.008],[-169.134,1.604],[-168.86,1.2],[-168.587,0.796],[-168.313,0.392],[-168.04,-0.012],[-167.766,-0.416],[-167.493,-0.82],[-167.219,-1.224],[-166.946,-1.628],[-166.683,-2.048],[-166.421,-2.469],[-166.158,-2.889],[-165.895,-3.309],[-165.632,-3.73],[-165.369,-4.15],[-165.106,-4.57],[-164.842,-4.99],[-164.639,-5.421],[-164.436,-5.851],[-164.233,-6.282],[-164.029,-6.712],[-163.825,-7.143],[-163.621,-7.573],[-163.416,-8.003],[-163.211,-8.433],[-163.005,-8.863],[-162.799,-9.293],[-162.595,-9.702],[-162.391,-10.111],[-162.187,-10.521],[-161.981,-10.93],[-161.776,-11.338],[-161.569,-11.747],[-161.362,-12.156],[-161.155,-12.564],[-160.946,-12.972],[-160.737,-13.381],[-160.481,-13.79],[-160.224,-14.199],[-159.966,-14.607],[-159.707,-15.016],[-159.448,-15.424],[-159.187,-15.831],[-158.925,-16.239],[-158.662,-16.646],[-158.397,-17.053],[-158.132,-17.459],[-157.866,-17.865],[-157.598,-18.271],[-157.329,-18.676],[-157.058,-19.081],[-156.787,-19.486],[-156.514,-19.89],[-156.24,-20.294],[-156.032,-20.741],[-155.824,-21.187],[-155.614,-21.634],[-155.403,-22.08],[-155.19,-22.526],[-154.977,-22.972],[-154.761,-23.418],[-154.545,-23.863],[-154.326,-24.308],[-154.107,-24.752],[-153.885,-25.196],[-153.662,-25.64],[-153.438,-26.084],[-153.212,-26.527],[-152.984,-26.97],[-152.754,-27.412],[-152.522,-27.854],[-152.289,-28.296],[-152.053,-28.737],[-151.815,-29.178],[-151.576,-29.619],[-151.334,-30.059],[-151.09,-30.498],[-150.844,-30.937],[-150.596,-31.376],[-150.345,-31.814],[-150.092,-32.252],[-149.743,-32.45],[-149.393,-32.648],[-149.04,-32.844]]}},{"type":"Feature","properties":{"boundary_type":"transform","feature_type":"gpml:Transform","polarity":null,"overriding_plate_id":null,"subducting_plate_id":null,"plate_ids":[201,90110],"name":""},"geometry":{"type":"LineString","coordinates":[[148.039,-18.983],[148.488,-18.786],[148.936,-18.588],[149.382,-18.389],[149.828,-18.189],[150.332,-18.055],[150.834,-17.919],[151.336,-17.783],[151.837,-17.645],[152.338,-17.506],[152.837,-17.366],[153.336,-17.224],[153.834,-17.081],[154.332,-16.937],[154.828,-16.792]]}},{"type":"Feature","properties":{"boundary_type":"ridge","feature_type":"gpml:MidOceanRidge","polarity":null,"overriding_plate_id":null,"subducting_plate_id":null,"plate_ids":[501,90109],"name":""},"geometry":{"type":"LineString","coordinates":[[-148.761,-32.776],[-148.745,-33.239],[-148.729,-33.703],[-148.713,-34.166],[-148.697,-34.629],[-148.68,-35.093],[-148.664,-35.556],[-148.647,-36.019],[-148.63,-36.482],[-148.612,-36.946],[-149.212,-36.956],[-149.811,-36.963],[-150.41,-36.968],[-151.01,-36.969],[-151.609,-36.967],[-152.209,-36.962],[-152.808,-36.955],[-153.407,-36.944],[-154.006,-36.93],[-154.605,-36.913],[-155.204,-36.893],[-155.802,-36.871],[-156.4,-36.845],[-156.997,-36.816],[-157.594,-36.784],[-158.19,-36.75],[-158.786,-36.712],[-159.381,-36.671],[-159.976,-36.628],[-160.57,-36.581],[-161.163,-36.532],[-161.755,-36.479],[-162.346,-36.424],[-162.306,-35.993],[-162.265,-35.562],[-162.225,-35.132],[-162.186,-34.701],[-162.147,-34.27],[-162.711,-34.166],[-163.274,-34.059],[-163.836,-33.95],[-164.396,-33.838],[-164.954,-33.723],[-165.511,-33.606],[-166.066,-33.487],[-166.62,-33.365],[-167.173,-33.241],[-167.724,-33.114],[-168.273,-32.984],[-168.82,-32.853],[-169.366,-32.719],[-169.91,-32.582],[-170.453,-32.444],[-170.994,-32.303],[-171.533,-32.159],[-172.071,-32.014],[-172.606,-31.866],[-173.14,-31.716],[-173.673,-31.563]]}},{"type":"Feature","properties":{"boundary_type":"ridge","feature_type":"gpml:MidOceanRidge","polarity":null,"overriding_plate_id":null,"subducting_plate_id":null,"plate_ids":[501,90110],"name":""},"geometry":{"type":"LineString","coordinates":[[155.924,-15.718],[155.949,-16.203],[155.974,-16.689],[156.0,-17.174],[156.025,-17.66],[156.051,-18.146],[156.077,-18.631],[156.103,-19.117],[156.129,-19.603],[156.156,-20.088],[156.182,-20.574],[156.209,-21.06],[156.236,-21.545],[156.263,-22.031],[156.29,-22.516],[156.826,-22.463],[157.362,-22.407],[157.898,-22.349],[158.433,-22.29],[158.967,-22.229],[159.502,-22.167],[160.035,-22.102],[160.568,-22.036],[161.101,-21.968],[161.633,-21.899],[162.165,-21.827],[162.696,-21.754],[163.226,-21.68],[163.756,-21.603],[164.285,-21.525],[164.814,-21.446],[165.342,-21.364],[165.87,-21.281],[166.397,-21.197],[166.494,-21.674],[166.591,-22.152],[166.689,-22.629],[166.788,-23.107],[166.887,-23.584],[166.987,-24.062],[167.088,-24.539],[167.189,-25.016],[167.292,-25.493],[167.395,-25.97],[167.499,-26.447],[167.604,-26.924],[167.709,-27.401],[167.816,-27.878],[167.924,-28.354],[168.032,-28.831],[168.142,-29.307],[168.252,-29.784],[168.364,-30.26],[168.477,-30.736],[168.591,-31.213],[168.706,-31.689],[168.822,-32.164],[168.939,-32.64],[169.058,-33.116],[169.178,-33.592],[169.3,-34.067],[169.422,-34.542],[169.546,-35.018],[169.672,-35.493],[169.799,-35.968],[169.927,-36.442],[170.496,-36.318],[171.062,-36.192],[171.626,-36.062],[172.189,-35.93],[172.749,-35.796],[173.308,-35.659],[173.865,-35.519],[174.419,-35.377],[174.972,-35.232],[175.523,-35.085],[176.072,-34.935],[176.619,-34.782],[177.164,-34.628],[177.706,-34.471],[178.247,-34.311],[178.786,-34.149],[179.322,-33.985],[179.857,-33.819],[-179.611,-33.65]]}},{"type":"Feature","properties":{"boundary_type":"ridge","feature_type":"gpml:MidOceanRidge","polarity":null,"overriding_plate_id":null,"subducting_plate_id":null,"plate_ids":[501,90109],"name":""},"geometry":{"type":"LineString","coordinates":[[-179.611,-33.65],[-179.06,-33.472],[-178.511,-33.291],[-177.964,-33.109],[-177.42,-32.924],[-176.877,-32.736],[-176.338,-32.546],[-175.8,-32.354],[-175.265,-32.16],[-174.732,-31.963],[-174.201,-31.764],[-173.673,-31.563]]}},{"type":"Feature","properties":{"boundary_type":"ridge","feature_type":"gpml:MidOceanRidge","polarity":null,"overriding_plate_id":null,"subducting_plate_id":null,"plate_ids":[302,501],"name":""},"geometry":{"type":"LineString","coordinates":[[-125.01,-36.947],[-125.349,-37.326],[-125.692,-37.703],[-126.037,-38.08],[-126.387,-38.456],[-126.74,-38.831],[-127.096,-39.205],[-127.457,-39.577],[-127.821,-39.949],[-128.19,-40.319],[-128.562,-40.688],[-128.939,-41.056],[-129.32,-41.423],[-129.758,-41.061],[-130.191,-40.698],[-130.619,-40.333],[-131.043,-39.967],[-131.462,-39.599],[-131.877,-39.229],[-132.287,-38.858],[-132.693,-38.486],[-133.095,-38.112],[-133.493,-37.737],[-133.887,-37.36],[-134.277,-36.983],[-134.663,-36.604],[-135.046,-36.223],[-135.424,-35.842],[-135.799,-35.459],[-136.171,-35.075],[-136.538,-34.691],[-136.903,-34.305],[-137.264,-33.918],[-137.622,-33.529],[-137.977,-33.14],[-138.328,-32.75],[-138.677,-32.359],[-139.022,-31.967],[-139.365,-31.574],[-139.704,-31.18],[-140.041,-30.785],[-140.375,-30.39],[-140.887,-30.555],[-141.4,-30.718],[-141.915,-30.878],[-142.431,-31.037],[-142.949,-31.194],[-143.469,-31.349],[-143.991,-31.501],[-144.514,-31.651],[-145.039,-31.8],[-145.566,-31.946],[-146.094,-32.09],[-146.624,-32.232],[-147.156,-32.371],[-147.689,-32.508],[-148.224,-32.643],[-148.761,-32.776]]}},{"type":"Feature","properties":{"boundary_type":"ridge","feature_type":"gpml:MidOceanRidge","polarity":null,"overriding_plate_id":null,"subducting_plate_id":null,"plate_ids":[302,90109],"name":""},"geometry":{"type":"LineString","coordinates":[[-148.761,-32.776],[-149.04,-32.844]]}},{"type":"Feature","properties":{"boundary_type":"ridge","feature_type":"gpml:MidOceanRidge","polarity":null,"overriding_plate_id":null,"subducting_plate_id":null,"plate_ids":[101,501],"name":""},"geometry":{"type":"LineString","coordinates":[[-75.605,-9.995],[-75.553,-10.489],[-75.501,-10.984],[-75.448,-11.479],[-75.396,-11.973],[-75.343,-12.468],[-75.29,-12.963],[-75.236,-13.457],[-75.183,-13.952],[-75.24,-14.44],[-75.298,-14.927],[-75.356,-15.415],[-75.414,-15.902],[-75.473,-16.39],[-75.532,-16.877],[-75.591,-17.365],[-75.65,-17.852],[-75.71,-18.34],[-75.77,-18.827],[-75.83,-19.319],[-75.89,-19.812],[-75.951,-20.304],[-76.011,-20.797],[-76.073,-21.289],[-76.134,-21.782],[-76.196,-22.274],[-76.259,-22.766],[-76.322,-23.259],[-76.385,-23.751],[-76.449,-24.243],[-76.513,-24.735],[-76.746,-25.16],[-76.981,-25.584],[-77.217,-26.008],[-77.455,-26.432],[-77.695,-26.855],[-77.937,-27.278],[-78.18,-27.7],[-78.425,-28.122],[-78.673,-28.544],[-78.922,-28.965],[-79.331,-29.29],[-79.743,-29.615],[-80.157,-29.938],[-80.574,-30.259],[-80.994,-30.58],[-81.417,-30.899],[-81.842,-31.217],[-82.271,-31.533],[-82.702,-31.848],[-83.136,-32.161],[-83.573,-32.473],[-84.013,-32.783],[-84.457,-33.092],[-84.903,-33.399],[-85.481,-33.516],[-86.061,-33.63],[-86.643,-33.742],[-87.226,-33.851],[-87.81,-33.956],[-88.396,-34.06],[-88.983,-34.16],[-89.572,-34.258],[-90.162,-34.353],[-90.753,-34.444],[-91.346,-34.534],[-91.939,-34.62],[-92.534,-34.703],[-93.131,-34.784],[-93.69,-34.633],[-94.248,-34.48],[-94.804,-34.324],[-95.358,-34.166],[-95.91,-34.005],[-96.459,-33.842],[-97.006,-33.676],[-97.552,-33.508],[-98.095,-33.337],[-98.636,-33.165],[-99.175,-32.989],[-99.712,-32.812],[-100.246,-32.632],[-100.779,-32.45],[-101.309,-32.266],[-101.837,-32.08],[-102.363,-31.891],[-102.837,-32.183],[-103.315,-32.474],[-103.795,-32.763],[-104.278,-33.05],[-104.765,-33.335],[-105.255,-33.618],[-105.748,-33.899],[-106.244,-34.178],[-106.744,-34.455],[-107.247,-34.73],[-107.753,-35.004],[-108.262,-35.274],[-108.775,-35.543],[-109.292,-35.81],[-109.576,-35.394],[-109.857,-34.978],[-110.136,-34.562],[-110.411,-34.144],[-110.684,-33.726],[-110.955,-33.308],[-111.223,-32.889],[-111.488,-32.469],[-111.75,-32.049],[-112.228,-32.336],[-112.709,-32.622],[-113.193,-32.905],[-113.68,-33.187],[-114.17,-33.467],[-114.663,-33.744],[-115.159,-34.02],[-115.659,-34.294],[-116.162,-34.566],[-116.668,-34.836],[-117.178,-35.104],[-117.69,-35.369],[-118.207,-35.632],[-118.726,-35.893],[-119.249,-36.152],[-119.776,-36.409],[-120.306,-36.663],[-120.839,-36.915],[-121.376,-37.165],[-121.917,-37.412],[-122.461,-37.656],[-123.008,-37.898],[-123.56,-38.138]]}}]}