{"type":"FeatureCollection","meta":{"model":"Cao2024","reconstruction_time_ma":1175.0,"anchor_plate_id":0,"pygplates_version":"1.0.0","tessellate_degrees":0.5,"polarity_convention":"gpml:subductionPolarity. 'Left'/'Right' names the side of the line, in vertex order, on which the OVERRIDING plate lies. Triangles are drawn on that side.","antimeridian":"Lines are NOT split at +/-180 deg. The renderer works in 3D unit vectors where the dateline is not special; splitting would only add spurious breaks. Do not treat this as RFC 7946 GIS-ready 2D data."},"features":[{"type":"Feature","properties":{"boundary_type":"ridge","feature_type":"gpml:MidOceanRidge","polarity":null,"overriding_plate_id":null,"subducting_plate_id":null,"plate_ids":[101,302],"name":"MOR-Greenland-Baltica"},"geometry":{"type":"LineString","coordinates":[[-170.07,18.525],[-169.566,18.651],[-169.06,18.776],[-168.554,18.899],[-168.047,19.021],[-167.539,19.141],[-167.03,19.261],[-166.521,19.378],[-166.011,19.494],[-165.5,19.609],[-164.989,19.723],[-164.477,19.834],[-163.964,19.945],[-163.45,20.054],[-162.936,20.161],[-162.421,20.267],[-161.905,20.372],[-161.388,20.475],[-160.871,20.576],[-160.354,20.676],[-159.835,20.774],[-159.316,20.871],[-158.796,20.967],[-158.276,21.06],[-157.755,21.152],[-157.233,21.243],[-156.71,21.332],[-156.758,21.814],[-156.806,22.297],[-156.854,22.779],[-156.902,23.262],[-156.951,23.745],[-156.43,23.732],[-155.91,23.718],[-155.389,23.702],[-154.869,23.685],[-154.348,23.665],[-153.828,23.644],[-153.308,23.621],[-152.788,23.597],[-152.269,23.57],[-151.75,23.542],[-151.231,23.512],[-150.712,23.481],[-150.193,23.448],[-149.675,23.413],[-149.157,23.376],[-148.639,23.338],[-148.121,23.298],[-147.604,23.256],[-147.088,23.213],[-146.571,23.168],[-146.519,22.806],[-146.467,22.443],[-146.415,22.081],[-145.887,22.034],[-145.36,21.984],[-144.833,21.933],[-144.306,21.881],[-143.779,21.826],[-143.253,21.77],[-142.728,21.713],[-142.203,21.653],[-141.678,21.592],[-141.154,21.53],[-140.63,21.466],[-140.106,21.4],[-139.584,21.332],[-139.061,21.263],[-138.539,21.192],[-138.018,21.12],[-137.497,21.046],[-136.977,20.971],[-136.992,21.343],[-137.008,21.715],[-137.024,22.088],[-136.5,22.007],[-135.977,21.925],[-135.454,21.841],[-134.932,21.756],[-134.41,21.668],[-133.889,21.58],[-133.369,21.489],[-132.849,21.397],[-132.33,21.304],[-131.812,21.208],[-131.294,21.112],[-130.777,21.013],[-130.261,20.913],[-129.745,20.812]]}},{"type":"Feature","properties":{"boundary_type":"transform","feature_type":"gpml:Transform","polarity":null,"overriding_plate_id":null,"subducting_plate_id":null,"plate_ids":[101,801],"name":"inferred transform"},"geometry":{"type":"LineString","coordinates":[[-69.752,21.32],[-69.745,21.459],[-69.797,21.953],[-69.85,22.447],[-69.903,22.94],[-69.957,23.434],[-70.011,23.927],[-70.065,24.421],[-70.12,24.914],[-70.175,25.408],[-70.231,25.901],[-70.287,26.395],[-70.343,26.888],[-70.401,27.382],[-70.458,27.875],[-70.516,28.369],[-70.575,28.862],[-70.634,29.355],[-70.694,29.849],[-70.755,30.342],[-70.816,30.835],[-70.877,31.328],[-70.94,31.822],[-71.003,32.315],[-71.066,32.808],[-71.131,33.301],[-71.196,33.794],[-71.262,34.287],[-71.328,34.78],[-71.396,35.273],[-71.464,35.766],[-71.533,36.259],[-71.603,36.752],[-71.674,37.244],[-71.746,37.737],[-71.819,38.23],[-71.893,38.723],[-71.967,39.215],[-72.043,39.708],[-72.12,40.2],[-72.198,40.693],[-72.278,41.185],[-72.358,41.678],[-72.44,42.17],[-72.523,42.662],[-72.607,43.154],[-72.693,43.646],[-72.78,44.138],[-72.869,44.63],[-72.959,45.122],[-73.05,45.614],[-73.144,46.106],[-73.239,46.598],[-73.335,47.089],[-73.434,47.581],[-73.534,48.072],[-73.636,48.564],[-73.741,49.055],[-73.847,49.546],[-73.956,50.037],[-74.066,50.528],[-74.18,51.019],[-74.295,51.51],[-74.413,52.0],[-74.534,52.491],[-74.657,52.981],[-74.814,53.47],[-74.973,53.958],[-75.137,54.447],[-75.305,54.935],[-75.477,55.422],[-75.653,55.91],[-75.833,56.397],[-76.018,56.884],[-76.209,57.371],[-76.404,57.857],[-76.604,58.343],[-76.811,58.829],[-77.023,59.315],[-77.241,59.8],[-77.465,60.284],[-77.697,60.769],[-77.935,61.253],[-78.181,61.736],[-78.435,62.219],[-78.697,62.702],[-78.968,63.184],[-79.248,63.665],[-79.537,64.146],[-79.837,64.627],[-80.147,65.106],[-80.469,65.585],[-80.803,66.064],[-81.15,66.541],[-81.51,67.018],[-81.885,67.494],[-82.275,67.969],[-82.682,68.443],[-83.105,68.916],[-83.548,69.388],[-84.01,69.859],[-84.493,70.329],[-84.999,70.797],[-85.529,71.264],[-86.085,71.729],[-86.669,72.192],[-87.284,72.654],[-87.93,73.114],[-88.612,73.571],[-89.332,74.027],[-90.092,74.479],[-90.826,74.925],[-91.603,75.369],[-92.427,75.81],[-93.303,76.248],[-94.235,76.682],[-95.228,77.113],[-96.289,77.54],[-97.424,77.963],[-98.639,78.38],[-99.943,78.793],[-101.344,79.199],[-102.853,79.598],[-104.479,79.99],[-106.235,80.373],[-108.133,80.746],[-110.187,81.109],[-112.412,81.46],[-114.821,81.797],[-117.43,82.118],[-120.254,82.422],[-123.303,82.706],[-126.589,82.968],[-130.115,83.206],[-133.88,83.416],[-137.874,83.596],[-142.077,83.744],[-146.458,83.857],[-150.975,83.933],[-155.577,83.971],[-160.207,83.969],[-164.805,83.929],[-169.316,83.851],[-173.687,83.736],[-177.878,83.586],[178.141,83.404],[174.39,83.192],[170.923,82.932],[167.711,82.649],[164.745,82.344],[162.012,82.021],[159.495,81.681],[157.178,81.327],[155.045,80.96],[153.08,80.581],[151.267,80.192],[149.592,79.795],[148.043,79.389],[146.608,78.977],[145.275,78.558],[144.036,78.134],[142.882,77.704],[141.805,77.27],[140.799,76.832],[139.856,76.391],[138.972,75.946],[138.141,75.498],[137.359,75.047],[136.621,74.594],[135.925,74.138],[135.267,73.681],[134.644,73.221],[134.054,72.76],[133.493,72.297],[132.96,71.832],[132.453,71.366],[131.97,70.899],[131.509,70.431],[131.068,69.961],[130.647,69.491],[130.245,69.019],[129.859,68.547],[129.489,68.073],[129.134,67.599],[128.793,67.125],[128.465,66.649],[128.149,66.173],[127.845,65.696],[127.552,65.219],[127.27,64.741],[126.997,64.262],[126.734,63.783],[126.479,63.304],[126.233,62.824],[125.994,62.344],[125.763,61.863],[125.54,61.382],[125.323,60.901],[125.112,60.419],[124.908,59.937],[124.71,59.455]]}},{"type":"Feature","properties":{"boundary_type":"transform","feature_type":"gpml:Transform","polarity":null,"overriding_plate_id":null,"subducting_plate_id":null,"plate_ids":[801,90109],"name":"inferred transform"},"geometry":{"type":"LineString","coordinates":[[124.71,59.455],[124.549,59.054],[124.392,58.653],[124.239,58.251],[124.089,57.85],[123.942,57.448]]}},{"type":"Feature","properties":{"boundary_type":"subduction","feature_type":"gpml:SubductionZone","polarity":"Left","overriding_plate_id":101,"subducting_plate_id":90109,"plate_ids":[101,90109],"name":"E-Lau SZ"},"geometry":{"type":"LineString","coordinates":[[124.71,59.455],[125.561,59.281],[126.403,59.102],[127.236,58.918],[128.061,58.728],[128.752,58.419],[129.431,58.107],[130.098,57.791],[130.754,57.471],[131.398,57.149],[132.031,56.823],[132.653,56.494],[133.265,56.162],[133.865,55.826],[134.456,55.488],[135.036,55.148],[135.607,54.804],[136.168,54.458],[136.719,54.109],[137.261,53.758],[137.743,53.375],[138.216,52.99],[138.68,52.603],[139.137,52.215],[139.585,51.824],[140.026,51.432],[140.459,51.038],[140.885,50.643],[141.304,50.246],[141.716,49.848],[142.121,49.448],[142.52,49.047],[142.912,48.645],[143.298,48.241],[143.678,47.836],[144.052,47.43],[144.42,47.022],[144.853,46.655],[145.28,46.286],[145.701,45.916],[146.117,45.544],[146.527,45.17],[146.931,44.795],[147.331,44.419],[147.725,44.041],[148.115,43.662]]}},{"type":"Feature","properties":{"boundary_type":"subduction","feature_type":"gpml:SubductionZone","polarity":"Left","overriding_plate_id":101,"subducting_plate_id":90109,"plate_ids":[101,90109],"name":"E-Lau SZ"},"geometry":{"type":"LineString","coordinates":[[148.115,43.662],[148.477,43.375],[148.836,43.086],[149.191,42.796],[149.777,42.579],[150.358,42.359],[150.936,42.135],[151.509,41.909],[152.078,41.68],[152.643,41.448],[153.204,41.214],[153.761,40.977],[154.314,40.737],[154.863,40.494],[155.408,40.249],[155.949,40.002],[156.486,39.752],[157.02,39.499],[157.642,39.363],[158.263,39.223],[158.88,39.08],[159.495,38.934],[160.108,38.784],[160.718,38.631],[161.326,38.475],[161.93,38.317],[162.532,38.154],[163.132,37.989],[163.729,37.821],[164.323,37.65],[164.807,37.359],[165.288,37.066],[165.766,36.771],[166.239,36.474],[166.71,36.175],[167.176,35.875],[167.639,35.573],[168.098,35.268],[168.554,34.963],[169.007,34.655],[169.456,34.346],[169.902,34.035],[170.43,33.843],[170.955,33.648],[171.478,33.451],[171.999,33.252],[172.517,33.051],[173.033,32.848],[173.546,32.642],[174.057,32.435],[174.566,32.225],[175.073,32.014],[175.577,31.8],[176.078,31.584],[176.578,31.367],[176.867,30.959],[177.155,30.55],[177.439,30.14],[177.722,29.73],[178.002,29.319],[178.28,28.908],[178.556,28.496],[178.829,28.084],[179.101,27.671],[179.37,27.257],[179.804,26.947],[-179.764,26.636],[-179.334,26.324],[-178.907,26.01],[-178.483,25.695],[-178.06,25.379],[-177.64,25.062],[-177.221,24.743],[-176.805,24.424],[-176.391,24.103],[-175.979,23.781],[-175.57,23.458],[-175.267,23.083],[-174.966,22.708],[-174.667,22.332],[-174.37,21.955],[-174.074,21.578],[-173.78,21.201],[-173.487,20.823],[-173.196,20.444],[-172.906,20.065],[-172.617,19.686]]}},{"type":"Feature","properties":{"boundary_type":"ridge","feature_type":"gpml:MidOceanRidge","polarity":null,"overriding_plate_id":null,"subducting_plate_id":null,"plate_ids":[101,501],"name":""},"geometry":{"type":"LineString","coordinates":[[-78.727,-11.06],[-78.716,-11.5],[-78.705,-11.941],[-78.693,-12.381],[-78.681,-12.822],[-78.67,-13.262],[-78.658,-13.703],[-78.647,-14.143],[-78.635,-14.584],[-78.674,-15.053],[-78.713,-15.522],[-78.753,-15.992],[-78.793,-16.461],[-78.833,-16.93],[-78.873,-17.399],[-78.913,-17.869],[-78.954,-18.338],[-78.994,-18.807],[-79.035,-19.276],[-79.077,-19.746],[-79.242,-20.217],[-79.408,-20.689],[-79.576,-21.16],[-79.744,-21.631],[-79.914,-22.102],[-80.085,-22.573],[-80.257,-23.044],[-80.43,-23.514],[-80.604,-23.985],[-80.78,-24.455],[-80.957,-24.925],[-81.332,-25.265],[-81.71,-25.604],[-82.089,-25.942],[-82.471,-26.279],[-82.855,-26.615],[-83.241,-26.95],[-83.63,-27.284],[-84.021,-27.617],[-84.414,-27.949],[-84.81,-28.28],[-85.208,-28.61],[-85.608,-28.938],[-86.012,-29.265],[-86.417,-29.591],[-86.826,-29.916],[-87.375,-30.055],[-87.926,-30.192],[-88.478,-30.326],[-89.032,-30.458],[-89.588,-30.588],[-90.144,-30.716],[-90.703,-30.841],[-91.262,-30.963],[-91.823,-31.083],[-92.386,-31.201],[-92.95,-31.317],[-93.515,-31.429],[-94.082,-31.54],[-94.61,-31.424],[-95.136,-31.306],[-95.662,-31.186],[-96.185,-31.063],[-96.708,-30.939],[-97.229,-30.812],[-97.749,-30.684],[-98.267,-30.553],[-98.784,-30.42],[-99.3,-30.286],[-99.814,-30.149],[-100.132,-30.524],[-100.452,-30.897],[-100.775,-31.271],[-101.101,-31.643],[-101.429,-32.014],[-101.759,-32.385],[-102.093,-32.755],[-102.429,-33.123],[-102.929,-32.881],[-103.427,-32.637],[-103.922,-32.391],[-104.415,-32.143],[-104.904,-31.893],[-105.391,-31.641],[-105.876,-31.387],[-106.357,-31.132],[-106.836,-30.875],[-107.313,-30.616],[-107.787,-30.355],[-108.258,-30.092],[-108.727,-29.828],[-109.194,-29.563],[-109.658,-29.295],[-110.138,-29.531],[-110.621,-29.765],[-111.106,-29.998],[-111.593,-30.228],[-112.082,-30.457],[-112.574,-30.684],[-113.068,-30.909],[-113.564,-31.132],[-114.062,-31.353],[-114.563,-31.573],[-115.067,-31.79],[-115.572,-32.006],[-115.843,-31.673],[-116.113,-31.34],[-116.38,-31.006],[-116.645,-30.672],[-117.139,-30.904],[-117.635,-31.133],[-118.133,-31.361],[-118.634,-31.587],[-119.137,-31.811],[-119.642,-32.033],[-120.15,-32.253],[-120.661,-32.471],[-121.173,-32.687],[-121.689,-32.9],[-122.207,-33.112],[-122.727,-33.321],[-123.25,-33.529],[-123.775,-33.734],[-124.303,-33.937],[-124.833,-34.137],[-125.366,-34.335],[-125.901,-34.531],[-126.439,-34.725]]}},{"type":"Feature","properties":{"boundary_type":"subduction","feature_type":"gpml:SubductionZone","polarity":"Left","overriding_plate_id":701,"subducting_plate_id":90108,"plate_ids":[701,90108],"name":""},"geometry":{"type":"LineString","coordinates":[[46.256,-22.433],[46.1,-21.956],[45.944,-21.48],[45.789,-21.003],[45.635,-20.525],[45.483,-20.048],[45.331,-19.571],[45.18,-19.093],[45.03,-18.616],[44.881,-18.138],[44.732,-17.66],[44.585,-17.182],[44.438,-16.704],[44.292,-16.226],[44.146,-15.747],[44.002,-15.269],[43.858,-14.79],[43.714,-14.312],[43.572,-13.833],[43.429,-13.354],[43.288,-12.876],[43.147,-12.397],[43.006,-11.918],[42.866,-11.439],[42.726,-10.959],[42.587,-10.48],[42.416,-10.014],[42.246,-9.547],[42.076,-9.08],[41.907,-8.613],[41.738,-8.146],[41.57,-7.679],[41.402,-7.212],[41.234,-6.745],[41.066,-6.278],[40.899,-5.811],[40.732,-5.344],[40.566,-4.876],[40.4,-4.409],[40.233,-3.941],[40.067,-3.474],[39.902,-3.007],[39.736,-2.539],[39.57,-2.072],[39.405,-1.604],[39.24,-1.137],[39.074,-0.669],[38.909,-0.201],[38.744,0.266],[38.578,0.734],[38.413,1.201],[38.248,1.669],[38.082,2.136],[37.917,2.604],[37.751,3.071],[37.585,3.539],[37.419,4.006],[37.253,4.474],[37.029,4.827],[36.805,5.181],[36.581,5.534],[36.357,5.887]]}},{"type":"Feature","properties":{"boundary_type":"subduction","feature_type":"gpml:SubductionZone","polarity":"Left","overriding_plate_id":701,"subducting_plate_id":801,"plate_ids":[701,801],"name":""},"geometry":{"type":"LineString","coordinates":[[36.357,5.887],[36.092,6.304],[35.826,6.721],[35.56,7.138],[35.293,7.554],[35.026,7.97],[34.758,8.387],[34.49,8.803],[34.221,9.218],[33.952,9.634],[33.682,10.049],[33.411,10.465],[33.139,10.879],[32.867,11.294],[32.594,11.709],[32.32,12.123],[32.045,12.537],[31.769,12.95],[31.493,13.364],[31.215,13.777],[30.937,14.19],[30.657,14.602],[30.377,15.014],[30.095,15.426],[29.812,15.837],[29.528,16.248],[29.243,16.659],[28.957,17.069],[28.669,17.479],[28.38,17.888],[28.09,18.297],[27.736,18.651],[27.381,19.004],[27.024,19.356],[26.666,19.708],[26.306,20.059],[25.945,20.409],[25.582,20.759],[25.217,21.107],[24.851,21.455],[24.482,21.802],[24.112,22.149],[23.74,22.494],[23.367,22.839],[22.991,23.183],[22.614,23.525],[22.234,23.867],[21.853,24.208],[21.469,24.548],[21.084,24.887],[20.696,25.225],[20.306,25.563],[19.914,25.899],[19.52,26.233],[19.123,26.567],[18.724,26.9],[18.323,27.232],[17.919,27.562],[17.513,27.892],[17.105,28.22],[16.693,28.546],[16.271,28.826],[15.845,29.104],[15.418,29.38],[14.988,29.656],[14.556,29.929],[14.121,30.202],[13.684,30.473],[13.245,30.742],[12.803,31.01],[12.359,31.277]]}},{"type":"Feature","properties":{"boundary_type":"transform","feature_type":"gpml:Transform","polarity":null,"overriding_plate_id":null,"subducting_plate_id":null,"plate_ids":[701,801],"name":""},"geometry":{"type":"LineString","coordinates":[[-20.896,17.474],[-20.574,17.818],[-20.25,18.161],[-19.925,18.503],[-19.598,18.845],[-19.27,19.186],[-18.941,19.526],[-18.611,19.866],[-18.279,20.206],[-17.854,20.505],[-17.428,20.803],[-17.0,21.1],[-16.571,21.396],[-16.14,21.691],[-15.707,21.985],[-15.272,22.277],[-14.836,22.569],[-14.397,22.859],[-13.957,23.148],[-13.515,23.436],[-13.071,23.722],[-12.625,24.008],[-12.177,24.292],[-11.726,24.574],[-11.274,24.856],[-10.82,25.136],[-10.364,25.414],[-9.906,25.691],[-9.426,25.904],[-8.944,26.116],[-8.461,26.326],[-7.975,26.534],[-7.488,26.741],[-7.0,26.946],[-6.509,27.149],[-6.017,27.351],[-5.523,27.551],[-5.027,27.749],[-4.529,27.945],[-4.03,28.14],[-3.528,28.333],[-3.025,28.524],[-2.52,28.713],[-2.014,28.9],[-1.505,29.085],[-0.995,29.268],[-0.462,29.375],[0.071,29.48],[0.606,29.583],[1.142,29.683],[1.679,29.782],[2.217,29.878],[2.755,29.972],[3.295,30.064],[3.836,30.153],[4.378,30.241],[4.921,30.326],[5.465,30.409],[6.009,30.489],[6.555,30.568],[7.101,30.644],[7.648,30.718],[8.196,30.789],[8.714,30.857],[9.233,30.924],[9.752,30.988],[10.272,31.05],[10.793,31.11],[11.314,31.167],[11.836,31.223],[12.359,31.277]]}},{"type":"Feature","properties":{"boundary_type":"ridge","feature_type":"gpml:MidOceanRidge","polarity":null,"overriding_plate_id":null,"subducting_plate_id":null,"plate_ids":[201,501],"name":""},"geometry":{"type":"LineString","coordinates":[[150.636,-23.645],[150.3,-24.039],[149.962,-24.432],[149.622,-24.824],[149.28,-25.216],[148.936,-25.607],[148.589,-25.997],[148.24,-26.386],[147.889,-26.774],[147.535,-27.161],[147.179,-27.548],[146.82,-27.934],[146.459,-28.318],[146.095,-28.702],[145.729,-29.085],[145.359,-29.467],[144.987,-29.847],[144.612,-30.227],[144.234,-30.605],[143.854,-30.983],[143.47,-31.359],[143.083,-31.735],[142.693,-32.109],[142.3,-32.481],[141.903,-32.853],[141.503,-33.223],[141.1,-33.592],[140.693,-33.96],[140.283,-34.327],[139.869,-34.692],[139.452,-35.055],[139.031,-35.417],[138.606,-35.778],[138.177,-36.137],[137.744,-36.495],[137.307,-36.851],[136.866,-37.205],[136.421,-37.558],[135.972,-37.909],[135.519,-38.258],[135.061,-38.606],[134.598,-38.952],[134.131,-39.296],[133.66,-39.638],[133.184,-39.978],[132.703,-40.316],[132.217,-40.652],[131.727,-40.987],[131.231,-41.319],[130.73,-41.648],[130.224,-41.976],[129.713,-42.302],[129.197,-42.625],[128.675,-42.946],[128.148,-43.264],[127.616,-43.58],[127.077,-43.893],[126.534,-44.204],[125.984,-44.513],[125.428,-44.818],[124.867,-45.121],[124.3,-45.421],[123.726,-45.719],[123.147,-46.013],[122.561,-46.304],[121.969,-46.593],[121.371,-46.878],[120.958,-46.504],[120.551,-46.129],[120.149,-45.752],[119.753,-45.374],[119.362,-44.994],[118.977,-44.613],[118.596,-44.231],[118.22,-43.847],[117.849,-43.463],[117.483,-43.077],[116.823,-43.202],[116.161,-43.324],[115.496,-43.441],[114.829,-43.555],[114.159,-43.665],[113.486,-43.771],[112.812,-43.873],[112.135,-43.971],[111.456,-44.065],[110.774,-44.155],[110.091,-44.241],[109.406,-44.323],[108.719,-44.401],[108.03,-44.475],[107.339,-44.544],[106.647,-44.609],[105.954,-44.671],[105.258,-44.728],[104.562,-44.78],[103.864,-44.829],[103.166,-44.873],[102.466,-44.913],[101.765,-44.949],[101.064,-44.98],[100.362,-45.007],[99.659,-45.03],[98.955,-45.048],[98.252,-45.062],[97.548,-45.072],[96.843,-45.078],[96.139,-45.079],[95.435,-45.076],[94.731,-45.068],[94.027,-45.056],[93.323,-45.04],[92.62,-45.02],[91.917,-44.995],[91.215,-44.966],[90.514,-44.933],[89.814,-44.895],[89.115,-44.853],[88.417,-44.807],[87.719,-44.756],[87.024,-44.702],[86.329,-44.643],[85.636,-44.58],[84.945,-44.512],[84.255,-44.441],[83.567,-44.365],[82.881,-44.286],[82.196,-44.202],[81.514,-44.114],[80.834,-44.022],[80.156,-43.926],[79.48,-43.826],[78.806,-43.722],[78.135,-43.615]]}},{"type":"Feature","properties":{"boundary_type":"ridge","feature_type":"gpml:MidOceanRidge","polarity":null,"overriding_plate_id":null,"subducting_plate_id":null,"plate_ids":[201,90108],"name":""},"geometry":{"type":"LineString","coordinates":[[78.135,-43.615],[78.09,-43.607]]}},{"type":"Feature","properties":{"boundary_type":"subduction","feature_type":"gpml:SubductionZone","polarity":"Left","overriding_plate_id":602,"subducting_plate_id":101,"plate_ids":[101,602],"name":""},"geometry":{"type":"LineString","coordinates":[[-80.909,-9.412],[-80.547,-9.688],[-80.184,-9.963],[-79.821,-10.238],[-79.457,-10.512],[-79.093,-10.786],[-78.727,-11.06]]}},{"type":"Feature","properties":{"boundary_type":"subduction","feature_type":"gpml:SubductionZone","polarity":"Left","overriding_plate_id":602,"subducting_plate_id":501,"plate_ids":[501,602],"name":""},"geometry":{"type":"LineString","coordinates":[[-78.727,-11.06],[-78.326,-11.359],[-77.925,-11.658],[-77.522,-11.956],[-77.118,-12.254],[-76.714,-12.551],[-76.308,-12.847],[-75.902,-13.143],[-75.495,-13.438],[-75.086,-13.733],[-74.677,-14.026],[-74.266,-14.32],[-73.855,-14.612],[-73.442,-14.904],[-73.029,-15.195],[-72.614,-15.485],[-72.198,-15.774],[-71.78,-16.063],[-71.362,-16.351],[-70.942,-16.638],[-70.521,-16.924],[-70.099,-17.209],[-69.676,-17.493],[-69.251,-17.777],[-68.825,-18.06],[-68.397,-18.341],[-67.968,-18.622],[-67.538,-18.902],[-67.106,-19.18],[-66.673,-19.458],[-66.238,-19.735],[-65.802,-20.01],[-65.364,-20.285],[-64.925,-20.558],[-64.484,-20.831],[-64.041,-21.102],[-63.597,-21.372],[-63.152,-21.641],[-62.704,-21.909],[-62.255,-22.175],[-61.804,-22.44],[-61.309,-22.626],[-60.812,-22.81],[-60.314,-22.993],[-59.815,-23.174],[-59.314,-23.353],[-58.812,-23.531],[-58.309,-23.707],[-57.804,-23.882],[-57.298,-24.055],[-56.791,-24.226],[-56.282,-24.395],[-55.772,-24.563],[-55.26,-24.73],[-54.747,-24.894],[-54.233,-25.057],[-53.717,-25.218],[-53.2,-25.377],[-52.682,-25.534],[-52.162,-25.689],[-51.641,-25.843],[-51.119,-25.995],[-50.595,-26.145],[-50.07,-26.293],[-49.544,-26.439],[-49.016,-26.583],[-48.487,-26.725],[-47.956,-26.865],[-47.425,-27.003],[-46.892,-27.14],[-46.357,-27.274],[-45.822,-27.406],[-45.285,-27.536],[-44.747,-27.664],[-44.208,-27.79]]}},{"type":"Feature","properties":{"boundary_type":"subduction","feature_type":"gpml:SubductionZone","polarity":"Left","overriding_plate_id":701,"subducting_plate_id":501,"plate_ids":[501,701],"name":""},"geometry":{"type":"LineString","coordinates":[[-44.208,-27.79],[-43.792,-27.885],[-43.375,-27.98],[-42.958,-28.073]]}},{"type":"Feature","properties":{"boundary_type":"subduction","feature_type":"gpml:SubductionZone","polarity":"Left","overriding_plate_id":701,"subducting_plate_id":501,"plate_ids":[501,701],"name":""},"geometry":{"type":"LineString","coordinates":[[-42.958,-28.073],[-42.633,-28.448],[-42.305,-28.822],[-41.975,-29.196],[-41.642,-29.569],[-41.307,-29.941],[-40.97,-30.312],[-40.629,-30.683],[-40.287,-31.052],[-39.941,-31.421],[-39.469,-31.709],[-38.994,-31.997],[-38.516,-32.282],[-38.035,-32.565],[-37.55,-32.847],[-37.063,-33.127],[-36.573,-33.405],[-36.079,-33.681],[-35.582,-33.954],[-35.082,-34.226],[-34.579,-34.496],[-34.073,-34.764],[-33.563,-35.03],[-33.05,-35.293],[-32.534,-35.555],[-32.014,-35.814],[-31.491,-36.071],[-30.965,-36.325],[-30.435,-36.578],[-29.901,-36.828],[-29.365,-37.075],[-28.824,-37.32],[-28.28,-37.563],[-27.733,-37.803],[-27.182,-38.041],[-26.627,-38.276],[-26.069,-38.508],[-25.508,-38.738],[-24.942,-38.965],[-24.373,-39.189],[-23.801,-39.41],[-23.225,-39.629],[-22.645,-39.845],[-22.03,-39.959],[-21.413,-40.07],[-20.793,-40.178],[-20.172,-40.282],[-19.549,-40.383],[-18.925,-40.481],[-18.298,-40.575],[-17.67,-40.666],[-17.04,-40.753],[-16.408,-40.837],[-15.775,-40.918],[-15.14,-40.995],[-14.504,-41.068],[-13.866,-41.139],[-13.227,-41.205],[-12.587,-41.268],[-11.946,-41.328],[-11.303,-41.384],[-10.66,-41.436],[-10.015,-41.485],[-9.37,-41.53],[-8.723,-41.571],[-8.076,-41.609],[-7.417,-41.635],[-6.758,-41.657],[-6.098,-41.676],[-5.437,-41.69],[-4.777,-41.701],[-4.116,-41.708],[-3.455,-41.711],[-2.795,-41.711],[-2.134,-41.706],[-1.473,-41.698],[-0.813,-41.686],[-0.152,-41.67],[0.507,-41.651],[1.167,-41.628],[1.826,-41.601],[2.484,-41.57],[3.142,-41.535],[3.798,-41.497],[4.455,-41.455],[5.11,-41.409],[5.764,-41.36],[6.417,-41.307],[7.069,-41.25],[7.72,-41.19],[8.37,-41.125],[9.018,-41.058],[9.623,-40.888],[10.225,-40.715],[10.823,-40.539],[11.418,-40.36],[12.011,-40.178],[12.6,-39.993],[13.185,-39.805],[13.768,-39.615],[14.347,-39.421],[14.923,-39.224],[15.496,-39.025],[16.066,-38.822],[16.632,-38.617],[17.195,-38.41],[17.755,-38.199],[18.312,-37.986],[18.865,-37.771],[19.415,-37.552],[19.962,-37.332],[20.506,-37.108],[21.046,-36.883],[21.583,-36.655],[22.118,-36.424],[22.648,-36.191],[23.176,-35.956],[23.701,-35.718],[24.222,-35.479],[24.74,-35.237],[25.256,-34.992],[25.768,-34.746],[26.277,-34.497],[26.783,-34.247],[27.286,-33.994],[27.786,-33.739],[28.283,-33.483],[28.777,-33.224],[29.268,-32.963],[29.757,-32.701],[30.229,-32.461],[30.698,-32.219],[31.165,-31.975],[31.629,-31.73],[32.091,-31.483],[32.551,-31.235],[33.008,-30.984],[33.463,-30.733],[33.915,-30.479],[34.365,-30.224],[34.813,-29.968],[35.258,-29.71]]}},{"type":"Feature","properties":{"boundary_type":"subduction","feature_type":"gpml:SubductionZone","polarity":"Left","overriding_plate_id":701,"subducting_plate_id":90108,"plate_ids":[701,90108],"name":""},"geometry":{"type":"LineString","coordinates":[[35.258,-29.71],[35.726,-29.436],[36.191,-29.161],[36.653,-28.883],[37.113,-28.605],[37.571,-28.324],[38.026,-28.043],[38.479,-27.759],[38.93,-27.475],[39.378,-27.189],[39.824,-26.901],[40.268,-26.612],[40.709,-26.322],[41.148,-26.03],[41.585,-25.737],[42.02,-25.443],[42.453,-25.147],[42.883,-24.85],[43.312,-24.552],[43.738,-24.253],[44.163,-23.952],[44.585,-23.651],[45.006,-23.348],[45.425,-23.044],[45.841,-22.739],[46.256,-22.433]]}},{"type":"Feature","properties":{"boundary_type":"subduction","feature_type":"gpml:SubductionZone","polarity":"Right","overriding_plate_id":201,"subducting_plate_id":90110,"plate_ids":[201,90110],"name":""},"geometry":{"type":"LineString","coordinates":[[135.85,15.383],[136.238,15.182],[136.566,14.808],[136.892,14.433],[137.217,14.058],[137.541,13.683],[137.864,13.307],[138.186,12.931],[138.507,12.554],[138.827,12.177],[139.146,11.8],[139.465,11.422],[139.782,11.044],[140.099,10.665],[140.415,10.286],[140.73,9.907],[141.044,9.528],[141.358,9.148],[141.671,8.768],[141.983,8.388],[142.295,8.008],[142.606,7.627],[142.917,7.246],[143.227,6.865],[143.536,6.484],[143.846,6.103],[144.154,5.721],[144.463,5.339],[144.77,4.957],[145.078,4.575],[145.385,4.193],[145.692,3.81],[145.999,3.428],[146.305,3.045],[146.611,2.663],[146.917,2.28],[147.223,1.897],[147.529,1.514],[147.834,1.132],[148.14,0.749],[148.172,0.265],[148.205,-0.218],[148.238,-0.701],[148.27,-1.185],[148.303,-1.668],[148.335,-2.151],[148.368,-2.635],[148.4,-3.118],[148.433,-3.601],[148.466,-4.085],[148.499,-4.568],[148.531,-5.051],[148.564,-5.535],[148.597,-6.018],[148.63,-6.501],[148.663,-6.985],[148.696,-7.468],[148.729,-7.951],[148.762,-8.435],[148.796,-8.918],[148.829,-9.401],[148.863,-9.885],[148.896,-10.368],[148.93,-10.851],[148.79,-11.331],[148.649,-11.811],[148.508,-12.291],[148.366,-12.771],[148.224,-13.251],[148.081,-13.731],[147.937,-14.211],[147.793,-14.69],[147.649,-15.17],[147.503,-15.649],[147.357,-16.128],[147.211,-16.608],[147.063,-17.087],[146.915,-17.566],[146.766,-18.045],[146.616,-18.523],[146.466,-19.002],[146.314,-19.481],[146.162,-19.959],[146.008,-20.437]]}},{"type":"Feature","properties":{"boundary_type":"ridge","feature_type":"gpml:MidOceanRidge","polarity":null,"overriding_plate_id":null,"subducting_plate_id":null,"plate_ids":[201,90108],"name":""},"geometry":{"type":"LineString","coordinates":[[83.05,16.764],[83.066,16.27],[83.082,15.775],[83.097,15.281],[83.113,14.787],[83.128,14.293],[83.144,13.798],[83.159,13.304],[83.174,12.81],[83.19,12.316],[83.205,11.821],[83.22,11.327],[83.235,10.833],[83.25,10.339],[83.265,9.844],[83.28,9.35],[83.294,8.856],[83.309,8.361],[83.324,7.867],[83.339,7.373],[83.354,6.879],[83.368,6.384],[83.383,5.89],[83.397,5.396],[83.412,4.902],[83.427,4.407],[83.441,3.913],[83.456,3.419],[83.47,2.924],[83.485,2.43],[83.499,1.936],[83.514,1.442],[83.528,0.947],[83.543,0.453],[83.557,-0.041],[83.572,-0.535],[83.586,-1.03],[83.601,-1.524],[83.615,-2.018],[83.63,-2.513],[83.644,-3.007],[83.659,-3.501],[83.673,-3.995],[83.688,-4.49],[83.702,-4.984],[83.717,-5.478],[83.732,-5.973],[83.746,-6.467],[83.761,-6.961],[83.776,-7.455],[83.79,-7.95],[83.805,-8.444],[83.82,-8.938],[83.835,-9.432],[83.85,-9.927],[83.865,-10.421],[83.88,-10.915],[83.895,-11.409],[83.91,-11.904],[83.925,-12.398],[83.94,-12.892],[83.955,-13.387],[83.971,-13.881],[83.986,-14.375],[84.002,-14.869],[84.017,-15.364],[84.033,-15.858],[84.048,-16.352],[84.064,-16.846],[84.08,-17.341],[84.096,-17.835],[84.112,-18.329],[84.128,-18.823],[84.144,-19.318],[83.647,-19.366],[83.149,-19.413],[82.65,-19.458],[82.152,-19.503],[81.653,-19.546],[81.154,-19.587],[80.654,-19.627],[80.155,-19.666],[79.655,-19.703],[79.155,-19.739],[79.247,-20.223],[79.34,-20.706],[79.434,-21.189],[79.528,-21.673],[79.623,-22.156],[79.719,-22.639],[79.815,-23.122],[79.912,-23.605],[80.01,-24.088],[80.108,-24.571],[80.207,-25.054],[80.307,-25.537],[80.408,-26.02],[80.51,-26.502],[80.612,-26.985],[80.716,-27.467],[80.82,-27.95],[80.925,-28.432],[81.031,-28.915],[81.138,-29.397],[81.247,-29.879],[81.356,-30.361],[80.794,-30.448],[80.232,-30.532],[79.669,-30.614],[79.104,-30.693],[78.539,-30.77],[77.973,-30.845],[77.406,-30.917],[76.839,-30.986],[76.27,-31.053],[75.701,-31.118],[75.13,-31.18],[74.56,-31.24],[74.676,-31.717],[74.794,-32.194],[74.913,-32.672],[75.033,-33.149],[75.154,-33.626],[75.277,-34.102],[75.401,-34.579],[75.527,-35.056],[75.654,-35.532],[75.783,-36.008],[75.913,-36.485],[76.045,-36.961],[76.179,-37.436],[76.314,-37.912],[76.451,-38.388],[76.59,-38.863],[76.73,-39.338],[76.873,-39.814],[77.017,-40.288],[77.164,-40.763],[77.313,-41.238],[77.464,-41.712],[77.617,-42.186],[77.772,-42.66],[77.93,-43.134],[78.09,-43.607]]}},{"type":"Feature","properties":{"boundary_type":"ridge","feature_type":"gpml:MidOceanRidge","polarity":null,"overriding_plate_id":null,"subducting_plate_id":null,"plate_ids":[501,90108],"name":""},"geometry":{"type":"LineString","coordinates":[[35.258,-29.71],[35.762,-29.922],[36.268,-30.131],[36.776,-30.339],[37.286,-30.545],[37.798,-30.749],[38.313,-30.951],[38.829,-31.151],[39.348,-31.349],[39.869,-31.544],[40.392,-31.738],[40.918,-31.929],[41.445,-32.118],[41.975,-32.305],[42.507,-32.49],[43.041,-32.673],[43.577,-32.853],[44.115,-33.031],[44.656,-33.207],[45.199,-33.38],[45.744,-33.551],[46.291,-33.719],[46.84,-33.886],[46.682,-34.368],[46.523,-34.851],[46.361,-35.333],[46.198,-35.815],[46.032,-36.297],[45.865,-36.778],[45.696,-37.26],[45.524,-37.741],[45.35,-38.221],[45.174,-38.702],[45.771,-38.855],[46.371,-39.006],[46.974,-39.153],[47.579,-39.298],[48.186,-39.439],[48.796,-39.577],[49.409,-39.711],[50.023,-39.843],[50.641,-39.971],[51.26,-40.096],[51.882,-40.218],[52.505,-40.336],[53.131,-40.451],[53.76,-40.563],[54.39,-40.671],[55.022,-40.776],[55.656,-40.877],[56.292,-40.975],[56.93,-41.069],[57.57,-41.16],[58.211,-41.247],[58.854,-41.33],[59.499,-41.41],[59.618,-41.884],[59.738,-42.357],[59.86,-42.83],[59.984,-43.304],[60.11,-43.777],[60.237,-44.249],[60.367,-44.722],[60.499,-45.195],[60.634,-45.667],[60.77,-46.139],[60.909,-46.611],[61.051,-47.083],[61.195,-47.555],[61.341,-48.026],[61.49,-48.497],[61.642,-48.969],[62.336,-48.809],[63.024,-48.646],[63.709,-48.478],[64.389,-48.306],[65.064,-48.131],[65.734,-47.951],[66.4,-47.767],[67.061,-47.58],[67.718,-47.389],[68.369,-47.194],[69.016,-46.996],[69.658,-46.794],[70.295,-46.588],[70.927,-46.379],[71.554,-46.166],[72.177,-45.95],[72.794,-45.731],[73.407,-45.509],[74.015,-45.283],[74.618,-45.054],[75.216,-44.821],[75.81,-44.586],[76.398,-44.348],[76.982,-44.106],[77.561,-43.862],[78.135,-43.615]]}},{"type":"Feature","properties":{"boundary_type":"subduction","feature_type":"gpml:SubductionZone","polarity":"Right","overriding_plate_id":90108,"subducting_plate_id":801,"plate_ids":[801,90108],"name":""},"geometry":{"type":"LineString","coordinates":[[36.357,5.887],[36.831,6.023],[37.305,6.159],[37.78,6.295],[38.255,6.43],[38.73,6.564],[39.205,6.698],[39.681,6.832],[40.156,6.965],[40.632,7.098],[41.109,7.23],[41.585,7.361],[42.062,7.493],[42.54,7.623],[43.017,7.753],[43.495,7.883],[43.973,8.012],[44.451,8.141],[44.93,8.269],[45.409,8.396],[45.888,8.523],[46.368,8.649],[46.848,8.775],[47.328,8.9],[47.809,9.024],[48.29,9.148],[48.771,9.271],[49.253,9.393],[49.735,9.515],[50.217,9.637],[50.7,9.757],[51.183,9.877],[51.666,9.996],[52.15,10.115],[52.634,10.232],[53.118,10.349],[53.603,10.466],[54.088,10.581],[54.574,10.696],[55.06,10.81],[55.546,10.923],[56.033,11.036],[56.52,11.148],[57.007,11.259],[57.495,11.369],[57.983,11.478],[58.471,11.587],[58.96,11.695],[59.451,11.824],[59.942,11.952],[60.434,12.079],[60.926,12.205],[61.418,12.331],[61.911,12.455],[62.405,12.579],[62.899,12.702],[63.393,12.824],[63.888,12.945],[64.384,13.065],[64.879,13.184],[65.376,13.302],[65.873,13.419],[66.37,13.536],[66.868,13.651],[67.366,13.765],[67.865,13.878],[68.364,13.991],[68.864,14.102],[69.364,14.212],[69.865,14.321],[70.366,14.429],[70.868,14.536],[71.37,14.642],[71.873,14.747],[72.376,14.851],[72.88,14.953],[73.384,15.055],[73.888,15.156],[74.393,15.255],[74.899,15.353],[75.405,15.45],[75.911,15.546],[76.418,15.641],[76.926,15.735],[77.434,15.827],[77.942,15.918],[78.451,16.008],[78.96,16.097],[79.47,16.185],[79.98,16.271],[80.491,16.356],[81.002,16.44],[81.513,16.523],[82.025,16.605],[82.538,16.685],[83.05,16.764]]}},{"type":"Feature","properties":{"boundary_type":"subduction","feature_type":"gpml:SubductionZone","polarity":"Right","overriding_plate_id":201,"subducting_plate_id":801,"plate_ids":[201,801],"name":""},"geometry":{"type":"LineString","coordinates":[[83.05,16.764],[83.53,16.837],[84.009,16.908],[84.489,16.978],[84.97,17.048],[85.45,17.116],[85.931,17.183],[86.413,17.249],[86.894,17.313],[87.376,17.377],[87.859,17.439],[88.341,17.501],[88.852,17.535],[89.363,17.569],[89.874,17.601],[90.385,17.632],[90.896,17.662],[91.408,17.69],[91.92,17.717],[92.431,17.743],[92.943,17.767],[93.455,17.79],[93.968,17.811],[94.48,17.832],[94.992,17.851],[95.505,17.868],[96.018,17.885],[96.53,17.9],[97.043,17.913],[97.556,17.925],[98.069,17.936],[98.582,17.946],[99.095,17.954],[99.608,17.961],[100.122,17.967],[100.635,17.971],[101.148,17.974]]}},{"type":"Feature","properties":{"boundary_type":"subduction","feature_type":"gpml:SubductionZone","polarity":"Right","overriding_plate_id":201,"subducting_plate_id":801,"plate_ids":[201,801],"name":""},"geometry":{"type":"LineString","coordinates":[[101.148,17.974],[101.649,18.059],[102.15,18.143],[102.652,18.225],[103.154,18.307],[103.657,18.387],[104.16,18.465],[104.664,18.543],[105.168,18.619],[105.673,18.694],[106.178,18.767],[106.683,18.839],[107.189,18.91],[107.696,18.979],[108.202,19.047],[108.71,19.113],[109.217,19.178],[109.725,19.242],[110.233,19.304],[110.742,19.365],[111.251,19.425],[111.761,19.483],[112.27,19.539],[112.781,19.595],[113.291,19.648],[113.802,19.701],[114.313,19.751],[114.825,19.801],[115.337,19.849],[115.849,19.895],[116.361,19.94],[116.874,19.984]]}},{"type":"Feature","properties":{"boundary_type":"subduction","feature_type":"gpml:SubductionZone","polarity":"Right","overriding_plate_id":201,"subducting_plate_id":90110,"plate_ids":[201,90110],"name":""},"geometry":{"type":"LineString","coordinates":[[116.874,19.984],[117.379,20.026],[117.885,20.066],[118.391,20.104],[118.897,20.141],[119.403,20.177],[119.915,20.053],[120.426,19.928],[120.935,19.801],[121.444,19.673],[121.953,19.543],[122.46,19.412],[122.967,19.279],[123.472,19.146],[123.977,19.01],[124.481,18.874],[124.985,18.736],[125.487,18.596],[125.989,18.456],[126.489,18.314],[126.989,18.17],[127.488,18.026],[127.987,17.88],[128.484,17.733],[128.981,17.584],[129.477,17.435],[129.972,17.284],[130.466,17.132],[130.96,16.978],[131.452,16.824],[131.944,16.668],[132.435,16.512],[132.925,16.354],[133.415,16.195],[133.903,16.035],[134.391,15.873],[134.878,15.711],[135.364,15.547],[135.85,15.383]]}},{"type":"Feature","properties":{"boundary_type":"ridge","feature_type":"gpml:MidOceanRidge","polarity":null,"overriding_plate_id":null,"subducting_plate_id":null,"plate_ids":[101,602],"name":""},"geometry":{"type":"LineString","coordinates":[[-73.131,23.007],[-72.704,22.8],[-72.278,22.591],[-71.854,22.382],[-71.431,22.172],[-71.009,21.96],[-70.589,21.748],[-70.17,21.534],[-69.752,21.32]]}},{"type":"Feature","properties":{"boundary_type":"ridge","feature_type":"gpml:MidOceanRidge","polarity":null,"overriding_plate_id":null,"subducting_plate_id":null,"plate_ids":[602,801],"name":""},"geometry":{"type":"LineString","coordinates":[[-69.752,21.32],[-69.291,21.081],[-68.831,20.841],[-68.373,20.6],[-67.916,20.358],[-67.461,20.115],[-67.007,19.87],[-66.555,19.624],[-66.104,19.377],[-65.655,19.129],[-65.206,18.88],[-64.759,18.63],[-64.314,18.379],[-63.87,18.127],[-63.427,17.873],[-62.985,17.619],[-62.544,17.364],[-62.105,17.108],[-61.667,16.851],[-61.23,16.593],[-60.794,16.334],[-60.36,16.074],[-59.926,15.813],[-59.739,16.25],[-59.551,16.686],[-59.362,17.122],[-59.172,17.558],[-58.982,17.994],[-58.79,18.429],[-58.597,18.865],[-58.404,19.3],[-58.209,19.735],[-57.744,19.517],[-57.281,19.297],[-56.819,19.076],[-56.359,18.855],[-55.899,18.632],[-55.441,18.407],[-54.984,18.182],[-54.528,17.956],[-54.073,17.729],[-53.619,17.5],[-53.167,17.271],[-52.716,17.04],[-52.265,16.809],[-51.816,16.577],[-51.368,16.343],[-50.921,16.109],[-50.475,15.874],[-50.031,15.637],[-49.587,15.4],[-49.144,15.163],[-48.702,14.924],[-48.261,14.684],[-47.821,14.444],[-47.383,14.202],[-46.945,13.96],[-46.507,13.717],[-46.071,13.474],[-45.636,13.23],[-45.202,12.984],[-44.768,12.739],[-44.335,12.492],[-43.904,12.245],[-43.664,12.634],[-43.425,13.023],[-43.184,13.412],[-42.943,13.8],[-42.7,14.189],[-42.457,14.577],[-42.213,14.964],[-41.969,15.352],[-41.723,15.739],[-41.261,15.526],[-40.8,15.313],[-40.34,15.098],[-39.881,14.882],[-39.422,14.666],[-38.965,14.449],[-38.508,14.23],[-38.053,14.011],[-37.598,13.791],[-37.144,13.57],[-36.691,13.349],[-36.239,13.126],[-35.788,12.903],[-35.337,12.679],[-34.887,12.454],[-34.438,12.229],[-33.99,12.003],[-33.543,11.776],[-33.096,11.548],[-32.65,11.32],[-32.205,11.091],[-31.76,10.861],[-31.316,10.631],[-30.873,10.4],[-30.43,10.168],[-29.988,9.936],[-29.547,9.703],[-29.106,9.47],[-28.666,9.236],[-28.227,9.002],[-27.788,8.767],[-27.349,8.532],[-26.911,8.296],[-26.474,8.06],[-26.037,7.823],[-25.601,7.586],[-25.165,7.348],[-24.73,7.11],[-24.295,6.871],[-23.86,6.633]]}},{"type":"Feature","properties":{"boundary_type":"ridge","feature_type":"gpml:MidOceanRidge","polarity":null,"overriding_plate_id":null,"subducting_plate_id":null,"plate_ids":[701,801],"name":""},"geometry":{"type":"LineString","coordinates":[[-20.896,17.474],[-21.031,17.004],[-21.165,16.533],[-21.298,16.062],[-21.431,15.591],[-21.563,15.12],[-21.695,14.649],[-21.825,14.178],[-21.956,13.707],[-22.086,13.236],[-22.215,12.764],[-22.344,12.293],[-22.473,11.822],[-22.601,11.35],[-22.728,10.879],[-22.855,10.407],[-22.982,9.935],[-23.108,9.464],[-23.235,8.992],[-23.36,8.52],[-23.486,8.048],[-23.611,7.576],[-23.736,7.105],[-23.86,6.633]]}},{"type":"Feature","properties":{"boundary_type":"ridge","feature_type":"gpml:MidOceanRidge","polarity":null,"overriding_plate_id":null,"subducting_plate_id":null,"plate_ids":[602,701],"name":""},"geometry":{"type":"LineString","coordinates":[[-23.86,6.633],[-23.987,6.15],[-24.114,5.668],[-24.241,5.186],[-24.367,4.704],[-24.494,4.221],[-24.62,3.739],[-24.746,3.257],[-24.872,2.775],[-24.997,2.292],[-25.123,1.81],[-25.249,1.327],[-25.374,0.845],[-25.5,0.363],[-25.625,-0.12],[-25.751,-0.602],[-25.876,-1.084],[-26.002,-1.567],[-26.127,-2.049],[-26.253,-2.531],[-26.379,-3.014],[-26.505,-3.496],[-26.631,-3.978],[-26.757,-4.461],[-26.883,-4.943],[-27.01,-5.425],[-27.136,-5.907],[-27.263,-6.39],[-27.391,-6.872],[-27.518,-7.354],[-27.991,-7.222],[-28.464,-7.089],[-28.937,-6.956],[-29.409,-6.822],[-29.881,-6.688],[-30.353,-6.553],[-30.825,-6.418],[-31.296,-6.283],[-31.767,-6.147],[-32.238,-6.011],[-32.708,-5.874],[-33.179,-5.737],[-33.649,-5.6],[-34.119,-5.462],[-34.307,-5.921],[-34.495,-6.38],[-34.683,-6.84],[-34.872,-7.299],[-35.061,-7.758],[-35.251,-8.217],[-35.441,-8.676],[-35.631,-9.135],[-35.822,-9.593],[-36.014,-10.052],[-36.206,-10.511],[-36.398,-10.969],[-36.591,-11.427],[-36.785,-11.885],[-36.98,-12.343],[-37.175,-12.801],[-37.371,-13.259],[-37.567,-13.717],[-37.765,-14.174],[-37.963,-14.631],[-38.162,-15.088],[-38.362,-15.545],[-38.562,-16.002],[-38.764,-16.459],[-38.967,-16.915],[-39.17,-17.371],[-39.375,-17.827],[-39.581,-18.283],[-39.787,-18.738],[-39.995,-19.194],[-40.204,-19.649],[-40.414,-20.103],[-40.626,-20.558],[-40.838,-21.012],[-41.052,-21.466],[-41.268,-21.92],[-41.485,-22.373],[-41.703,-22.827],[-41.922,-23.28],[-42.143,-23.732],[-42.366,-24.184],[-42.59,-24.636],[-42.816,-25.088],[-43.043,-25.539],[-43.273,-25.99],[-43.504,-26.441],[-43.736,-26.891],[-43.971,-27.341],[-44.208,-27.79]]}},{"type":"Feature","properties":{"boundary_type":"ridge","feature_type":"gpml:MidOceanRidge","polarity":null,"overriding_plate_id":null,"subducting_plate_id":null,"plate_ids":[302,501],"name":""},"geometry":{"type":"LineString","coordinates":[[-126.249,-34.963],[-126.439,-34.725]]}},{"type":"Feature","properties":{"boundary_type":"ridge","feature_type":"gpml:MidOceanRidge","polarity":null,"overriding_plate_id":null,"subducting_plate_id":null,"plate_ids":[101,302],"name":""},"geometry":{"type":"LineString","coordinates":[[-126.439,-34.725],[-126.768,-34.31],[-127.094,-33.895],[-127.416,-33.478],[-127.735,-33.061],[-128.052,-32.643],[-128.365,-32.224],[-128.675,-31.804],[-128.983,-31.384],[-129.288,-30.963],[-129.59,-30.541],[-129.89,-30.118],[-130.187,-29.695],[-130.481,-29.271],[-130.773,-28.847],[-131.063,-28.422],[-131.351,-27.996],[-131.636,-27.57],[-131.919,-27.143],[-132.199,-26.715],[-132.478,-26.287],[-132.755,-25.859],[-133.029,-25.43],[-133.302,-25.0],[-133.573,-24.57],[-133.842,-24.14],[-134.109,-23.708],[-134.374,-23.277],[-134.638,-22.845],[-134.9,-22.413],[-135.16,-21.98],[-135.419,-21.547],[-135.676,-21.113],[-135.932,-20.679],[-136.186,-20.245],[-136.439,-19.81],[-136.691,-19.375],[-136.941,-18.94],[-137.19,-18.504],[-137.437,-18.068],[-137.684,-17.632],[-137.929,-17.195],[-138.173,-16.758],[-138.416,-16.321],[-138.657,-15.883],[-138.898,-15.446],[-139.138,-15.007],[-139.377,-14.569],[-139.615,-14.131],[-139.851,-13.692],[-140.087,-13.253],[-139.656,-12.984],[-139.226,-12.714],[-138.797,-12.443],[-138.368,-12.171],[-137.941,-11.899],[-137.514,-11.627],[-137.088,-11.353],[-136.663,-11.08],[-136.239,-10.805],[-135.815,-10.53],[-135.392,-10.254],[-134.97,-9.978],[-135.288,-9.606],[-135.605,-9.233],[-135.921,-8.861],[-136.236,-8.488],[-136.551,-8.114],[-136.866,-7.741],[-137.179,-7.367],[-137.493,-6.993],[-137.805,-6.619],[-138.118,-6.244],[-138.429,-5.87],[-138.741,-5.495],[-139.052,-5.12],[-139.363,-4.745],[-139.673,-4.37],[-139.983,-3.995],[-139.623,-3.648],[-139.263,-3.302],[-138.903,-2.955],[-138.544,-2.608],[-138.185,-2.261],[-137.826,-1.914],[-137.467,-1.567],[-137.108,-1.22],[-136.749,-0.873],[-136.391,-0.526],[-136.032,-0.178],[-135.674,0.169],[-135.315,0.516],[-134.956,0.863],[-134.598,1.211],[-134.239,1.558],[-133.88,1.905],[-133.521,2.252],[-133.162,2.599],[-132.802,2.945],[-132.443,3.292],[-132.083,3.639],[-131.723,3.985],[-132.111,4.239],[-132.499,4.492],[-132.887,4.745],[-133.276,4.998],[-133.665,5.25],[-134.054,5.503],[-133.8,5.924],[-133.546,6.346],[-133.292,6.767],[-133.037,7.188],[-132.781,7.609],[-132.525,8.03],[-132.268,8.451],[-132.011,8.872],[-131.754,9.292],[-131.495,9.712],[-131.236,10.132],[-130.977,10.552],[-130.716,10.972],[-130.455,11.391],[-130.193,11.81],[-129.931,12.229],[-129.667,12.648],[-129.403,13.066],[-129.788,13.217],[-130.173,13.368],[-130.56,13.517],[-130.946,13.667],[-131.333,13.815],[-131.231,14.282],[-131.128,14.749],[-131.025,15.215],[-130.921,15.682],[-130.817,16.149],[-130.712,16.615],[-130.607,17.082],[-130.501,17.548],[-130.395,18.015],[-130.288,18.481],[-130.181,18.947],[-130.073,19.414],[-129.964,19.88],[-129.855,20.346],[-129.745,20.812]]}},{"type":"Feature","properties":{"boundary_type":"ridge","feature_type":"gpml:MidOceanRidge","polarity":null,"overriding_plate_id":null,"subducting_plate_id":null,"plate_ids":[801,90110],"name":""},"geometry":{"type":"LineString","coordinates":[[117.028,42.513],[117.6,42.317],[118.169,42.118],[118.734,41.917],[119.295,41.713],[119.853,41.506],[120.407,41.296],[120.957,41.084],[121.504,40.869],[122.048,40.652],[122.588,40.432],[123.124,40.209],[122.83,39.778],[122.541,39.345],[122.254,38.912],[121.971,38.478],[121.692,38.043],[121.416,37.607],[121.143,37.171],[120.873,36.735],[120.606,36.298],[120.343,35.86],[120.082,35.421],[119.824,34.983],[119.568,34.543],[119.316,34.103],[119.066,33.663],[118.818,33.222],[118.573,32.78],[118.331,32.338],[118.091,31.896],[117.853,31.453],[117.617,31.009],[117.384,30.566],[117.152,30.122],[116.923,29.677],[116.696,29.232],[116.47,28.787],[116.247,28.341],[116.026,27.895],[115.806,27.449],[115.588,27.002],[116.009,26.766],[116.428,26.528],[116.845,26.289],[117.261,26.049],[117.675,25.808],[118.087,25.566],[118.497,25.322],[118.357,24.878],[118.218,24.434],[118.079,23.989],[117.942,23.545],[117.805,23.1],[117.67,22.655],[117.535,22.21],[117.401,21.765],[117.268,21.32],[117.136,20.875],[117.005,20.429],[116.874,19.984]]}},{"type":"Feature","properties":{"boundary_type":"ridge","feature_type":"gpml:MidOceanRidge","polarity":null,"overriding_plate_id":null,"subducting_plate_id":null,"plate_ids":[801,90109],"name":""},"geometry":{"type":"LineString","coordinates":[[123.942,57.448],[124.689,57.198],[125.426,56.943],[126.153,56.684],[126.87,56.421],[127.577,56.154],[127.134,55.737],[126.7,55.317],[126.276,54.897],[125.86,54.475],[125.453,54.051],[125.054,53.627],[124.663,53.201],[124.28,52.773],[123.904,52.345],[123.535,51.915],[123.174,51.484],[122.819,51.052],[122.471,50.619],[122.129,50.185]]}},{"type":"Feature","properties":{"boundary_type":"ridge","feature_type":"gpml:MidOceanRidge","polarity":null,"overriding_plate_id":null,"subducting_plate_id":null,"plate_ids":[801,90110],"name":""},"geometry":{"type":"LineString","coordinates":[[122.129,50.185],[121.786,49.741],[121.449,49.295],[121.118,48.849],[120.793,48.401],[120.474,47.953],[120.161,47.504],[119.852,47.054],[119.549,46.603],[119.251,46.151],[118.957,45.699],[118.669,45.246],[118.385,44.792],[118.105,44.338],[117.83,43.882],[117.559,43.427],[117.292,42.97],[117.028,42.513]]}},{"type":"Feature","properties":{"boundary_type":"ridge","feature_type":"gpml:MidOceanRidge","polarity":null,"overriding_plate_id":null,"subducting_plate_id":null,"plate_ids":[90109,90110],"name":""},"geometry":{"type":"LineString","coordinates":[[122.129,50.185],[122.788,49.931],[123.44,49.674],[124.085,49.413],[124.723,49.148],[125.355,48.88],[125.979,48.608],[126.597,48.333],[127.209,48.055],[127.813,47.773],[128.411,47.489],[129.003,47.201],[129.588,46.91],[130.167,46.617],[130.74,46.32],[131.306,46.021],[131.866,45.719],[132.421,45.414],[132.969,45.107],[133.511,44.797],[134.048,44.484],[134.578,44.169],[135.104,43.851],[135.623,43.532],[136.137,43.209],[136.646,42.885],[137.149,42.558],[137.647,42.229],[138.14,41.898],[138.628,41.565],[139.11,41.23],[139.588,40.893],[140.061,40.554],[140.529,40.213],[140.993,39.87],[141.451,39.525],[141.906,39.179],[142.355,38.83],[142.801,38.48],[143.242,38.129],[143.679,37.776],[144.112,37.421],[144.54,37.064],[144.965,36.706],[145.385,36.347],[145.802,35.986],[146.215,35.624],[146.624,35.26],[147.03,34.895],[147.432,34.528],[147.83,34.161],[148.225,33.792],[148.617,33.421],[148.157,33.142],[147.701,32.861],[147.247,32.579],[146.796,32.294],[146.348,32.009],[145.903,31.721],[145.46,31.432],[145.843,31.061],[146.222,30.689],[146.599,30.316],[146.973,29.941],[147.344,29.566],[147.712,29.19],[148.078,28.812],[148.441,28.434],[148.801,28.054],[149.159,27.674],[149.514,27.293],[149.867,26.911],[150.218,26.528],[150.566,26.144],[150.912,25.759],[151.255,25.374],[151.597,24.988],[151.936,24.6],[152.273,24.213],[152.609,23.824],[152.942,23.435],[153.273,23.045],[153.602,22.654],[153.93,22.263],[154.255,21.871],[154.579,21.478],[154.901,21.085],[155.222,20.691],[155.54,20.297],[155.857,19.902],[156.173,19.506],[156.487,19.11],[156.799,18.714],[157.11,18.317],[157.42,17.919],[157.728,17.521],[158.035,17.122],[158.341,16.723],[158.645,16.324],[158.277,16.059],[157.909,15.793],[157.543,15.527],[157.178,15.26],[156.813,14.992],[156.449,14.724],[156.748,14.329],[157.045,13.933],[157.341,13.537],[157.636,13.14],[157.931,12.743],[158.224,12.346],[158.516,11.948],[158.808,11.551],[159.099,11.153],[159.389,10.754],[159.678,10.356],[159.966,9.957],[160.254,9.557],[160.541,9.158],[160.827,8.759],[161.113,8.359],[161.399,7.959],[161.683,7.558],[161.967,7.158],[162.251,6.757],[162.534,6.357],[162.817,5.956],[163.099,5.555],[163.381,5.154],[163.663,4.752],[163.944,4.351],[164.225,3.949],[164.506,3.548],[164.786,3.146],[165.066,2.744],[165.346,2.342],[165.626,1.941],[165.906,1.539],[166.186,1.137],[166.465,0.735],[166.745,0.333],[167.024,-0.069],[166.658,-0.37],[166.292,-0.671],[165.926,-0.971],[165.56,-1.272],[165.194,-1.572],[164.827,-1.872],[164.461,-2.173],[164.094,-2.473],[163.727,-2.773],[163.36,-3.073],[162.993,-3.373],[162.626,-3.673],[162.258,-3.972],[161.89,-4.272],[162.17,-4.682],[162.45,-5.092],[162.73,-5.501],[163.011,-5.911],[163.292,-6.321],[163.574,-6.73],[163.856,-7.139],[164.138,-7.548],[164.421,-7.957],[164.705,-8.365],[164.989,-8.774],[165.274,-9.182],[165.56,-9.59],[165.846,-9.998],[166.133,-10.405],[166.421,-10.813],[166.709,-11.22],[166.998,-11.626],[167.288,-12.033],[167.579,-12.439],[167.871,-12.845],[168.164,-13.25],[168.458,-13.655],[168.753,-14.06],[169.049,-14.464],[169.346,-14.868],[169.644,-15.272],[169.943,-15.675],[170.244,-16.078],[170.545,-16.481],[170.848,-16.883],[171.152,-17.284],[171.458,-17.685],[171.765,-18.086],[172.073,-18.486],[172.383,-18.886],[172.694,-19.285],[173.007,-19.684],[173.321,-20.082],[173.637,-20.479],[173.954,-20.876],[174.274,-21.272],[174.594,-21.668],[174.917,-22.063],[175.242,-22.458],[175.568,-22.852],[175.896,-23.245],[176.226,-23.637],[176.559,-24.029],[176.893,-24.42],[177.229,-24.81],[177.568,-25.2],[177.908,-25.589],[178.251,-25.977],[178.596,-26.364],[178.943,-26.75],[179.293,-27.136],[179.645,-27.52],[180.0,-27.904],[-179.643,-28.287],[-179.283,-28.669],[-178.921,-29.05],[-178.556,-29.43],[-178.188,-29.809],[-177.818,-30.186],[-177.444,-30.563],[-177.068,-30.939],[-176.689,-31.314],[-176.306,-31.687],[-175.921,-32.06],[-175.532,-32.431],[-175.14,-32.801],[-174.745,-33.17],[-174.347,-33.537],[-173.945,-33.904],[-173.54,-34.269],[-173.131,-34.632],[-172.719,-34.994],[-172.303,-35.355],[-171.883,-35.715],[-171.46,-36.072],[-171.032,-36.429],[-170.601,-36.784],[-170.166,-37.137],[-169.726,-37.489]]}},{"type":"Feature","properties":{"boundary_type":"ridge","feature_type":"gpml:MidOceanRidge","polarity":null,"overriding_plate_id":null,"subducting_plate_id":null,"plate_ids":[501,90110],"name":""},"geometry":{"type":"LineString","coordinates":[[-169.726,-37.489],[-169.335,-37.798],[-168.939,-38.106],[-168.541,-38.413],[-168.139,-38.719],[-167.734,-39.023],[-167.325,-39.326],[-166.913,-39.627]]}},{"type":"Feature","properties":{"boundary_type":"subduction","feature_type":"gpml:SubductionZone","polarity":"Left","overriding_plate_id":101,"subducting_plate_id":90109,"plate_ids":[101,90109],"name":"Baltica_SZ"},"geometry":{"type":"LineString","coordinates":[[-172.617,19.686],[-172.136,19.508],[-171.655,19.329],[-171.176,19.149],[-170.698,18.968],[-170.221,18.785],[-170.07,18.525]]}},{"type":"Feature","properties":{"boundary_type":"subduction","feature_type":"gpml:SubductionZone","polarity":"Left","overriding_plate_id":302,"subducting_plate_id":90109,"plate_ids":[302,90109],"name":"Baltica_SZ"},"geometry":{"type":"LineString","coordinates":[[-170.07,18.525],[-169.84,18.126],[-169.611,17.727],[-169.383,17.328],[-169.156,16.928],[-168.93,16.528],[-168.705,16.127],[-168.481,15.727],[-168.257,15.326],[-168.035,14.925],[-167.811,14.479],[-167.588,14.033],[-167.365,13.587],[-167.144,13.141],[-166.923,12.695],[-166.703,12.248],[-166.484,11.801],[-166.265,11.354],[-166.111,10.904],[-165.957,10.453],[-165.803,10.002],[-165.65,9.551],[-165.497,9.1],[-165.344,8.649],[-165.192,8.198],[-165.04,7.747],[-164.889,7.295],[-164.738,6.844],[-164.587,6.413],[-164.437,5.982],[-164.287,5.551],[-164.138,5.12],[-163.988,4.689],[-163.839,4.258],[-163.69,3.827],[-163.541,3.396],[-163.392,2.965],[-163.243,2.534],[-163.05,2.096],[-162.857,1.657],[-162.664,1.219],[-162.471,0.781],[-162.278,0.342],[-162.085,-0.096],[-161.892,-0.535],[-161.699,-0.973],[-161.506,-1.411],[-161.313,-1.85],[-161.12,-2.288],[-160.926,-2.726],[-160.733,-3.165],[-160.539,-3.603],[-160.346,-4.041],[-160.152,-4.479],[-159.957,-4.917],[-159.833,-5.391],[-159.708,-5.865],[-159.583,-6.338],[-159.457,-6.812],[-159.332,-7.286],[-159.206,-7.759],[-159.079,-8.233],[-158.953,-8.706],[-158.826,-9.18],[-158.699,-9.653],[-158.571,-10.127],[-158.444,-10.6],[-158.315,-11.073],[-158.187,-11.547],[-158.058,-12.02],[-157.928,-12.493],[-157.798,-12.966],[-157.667,-13.439],[-157.536,-13.912],[-157.405,-14.385],[-157.272,-14.857],[-157.14,-15.33]]}},{"type":"Feature","properties":{"boundary_type":"ridge","feature_type":"gpml:MidOceanRidge","polarity":null,"overriding_plate_id":null,"subducting_plate_id":null,"plate_ids":[501],"name":""},"geometry":{"type":"LineString","coordinates":[[-144.761,-27.809],[-144.661,-28.246],[-144.559,-28.683],[-144.456,-29.12],[-144.353,-29.557],[-144.248,-29.993]]}},{"type":"Feature","properties":{"boundary_type":"ridge","feature_type":"gpml:MidOceanRidge","polarity":null,"overriding_plate_id":null,"subducting_plate_id":null,"plate_ids":[501,90109],"name":""},"geometry":{"type":"LineString","coordinates":[[-144.248,-29.993],[-144.135,-30.464],[-144.02,-30.934],[-143.904,-31.404],[-143.787,-31.874],[-143.669,-32.344],[-143.55,-32.814],[-143.429,-33.283],[-143.307,-33.753],[-143.184,-34.222],[-143.757,-34.36],[-144.332,-34.495],[-144.908,-34.627],[-145.487,-34.756],[-146.067,-34.882],[-146.649,-35.006],[-147.233,-35.127],[-147.818,-35.245],[-148.405,-35.361],[-148.994,-35.473],[-149.584,-35.583],[-150.177,-35.69],[-150.77,-35.794],[-151.365,-35.895],[-151.962,-35.993],[-152.56,-36.088],[-153.159,-36.18],[-153.76,-36.269],[-154.362,-36.355],[-154.966,-36.438],[-155.571,-36.518],[-156.177,-36.595],[-156.784,-36.668],[-157.392,-36.739],[-158.002,-36.807],[-158.612,-36.871],[-159.224,-36.933],[-159.836,-36.991],[-160.45,-37.046],[-161.064,-37.098],[-161.679,-37.147],[-162.295,-37.192],[-162.912,-37.235],[-163.529,-37.274],[-164.147,-37.31],[-164.765,-37.343],[-165.384,-37.372],[-166.003,-37.399],[-166.623,-37.422],[-167.243,-37.442],[-167.864,-37.458],[-168.485,-37.472],[-169.105,-37.482],[-169.726,-37.489]]}},{"type":"Feature","properties":{"boundary_type":"ridge","feature_type":"gpml:MidOceanRidge","polarity":null,"overriding_plate_id":null,"subducting_plate_id":null,"plate_ids":[501,90110],"name":""},"geometry":{"type":"LineString","coordinates":[[151.177,-23.728],[151.23,-24.209],[151.283,-24.69],[151.337,-25.171],[151.391,-25.652],[151.445,-26.133],[151.5,-26.614],[151.556,-27.095],[151.612,-27.576],[151.668,-28.057],[151.725,-28.537],[151.783,-29.018],[151.841,-29.499],[151.9,-29.98],[151.959,-30.461],[152.018,-30.942],[152.079,-31.422],[152.14,-31.903],[152.201,-32.384],[152.264,-32.864],[152.327,-33.345],[152.886,-33.214],[153.444,-33.08],[154.0,-32.943],[154.554,-32.805],[155.106,-32.664],[155.657,-32.52],[156.206,-32.374],[156.753,-32.226],[157.299,-32.075],[157.842,-31.922],[158.384,-31.766],[158.924,-31.609],[159.462,-31.449],[159.999,-31.287],[160.533,-31.122],[161.066,-30.956],[161.596,-30.787],[162.125,-30.616],[162.652,-30.443],[163.177,-30.268],[163.274,-30.752],[163.372,-31.236],[163.47,-31.72],[163.57,-32.204],[163.671,-32.688],[163.773,-33.171],[163.876,-33.655],[163.98,-34.138],[164.086,-34.622],[164.192,-35.105],[164.3,-35.588],[164.41,-36.071],[164.52,-36.554],[164.632,-37.037],[164.746,-37.52],[164.861,-38.003],[164.977,-38.485],[165.095,-38.968],[165.215,-39.45],[165.336,-39.932],[165.459,-40.414],[165.584,-40.896],[165.711,-41.378],[165.839,-41.86],[165.97,-42.341],[166.102,-42.822],[166.237,-43.304],[166.374,-43.785],[166.513,-44.266],[166.654,-44.746],[166.797,-45.227],[166.943,-45.707],[167.092,-46.187],[167.243,-46.667],[167.397,-47.147],[167.554,-47.627],[167.713,-48.106],[168.417,-47.972],[169.116,-47.835],[169.812,-47.693],[170.504,-47.546],[171.192,-47.396],[171.876,-47.241],[172.556,-47.083],[173.232,-46.92],[173.904,-46.754],[174.571,-46.584],[175.235,-46.409],[175.894,-46.231],[176.548,-46.049],[177.199,-45.864],[177.845,-45.675],[178.487,-45.482],[179.124,-45.285],[179.757,-45.086],[-179.615,-44.882],[-178.991,-44.675],[-178.371,-44.465],[-177.756,-44.252],[-177.146,-44.035],[-176.54,-43.815],[-175.938,-43.592],[-175.341,-43.365],[-174.749,-43.136],[-174.161,-42.904],[-173.577,-42.668],[-172.998,-42.43],[-172.423,-42.189],[-171.853,-41.944],[-171.287,-41.698],[-170.725,-41.448],[-170.167,-41.196],[-169.614,-40.941],[-169.066,-40.683],[-168.521,-40.423],[-167.981,-40.16],[-167.445,-39.895],[-166.913,-39.627]]}},{"type":"Feature","properties":{"boundary_type":"transform","feature_type":"gpml:Transform","polarity":null,"overriding_plate_id":null,"subducting_plate_id":null,"plate_ids":[201,90110],"name":""},"geometry":{"type":"LineString","coordinates":[[146.008,-20.437],[146.299,-20.794],[146.59,-21.15],[146.883,-21.506],[147.178,-21.861],[147.474,-22.215],[147.771,-22.57],[148.07,-22.923],[148.371,-23.276],[148.823,-23.352],[149.275,-23.427],[149.728,-23.501],[150.182,-23.574],[150.636,-23.645]]}},{"type":"Feature","properties":{"boundary_type":"transform","feature_type":"gpml:Transform","polarity":null,"overriding_plate_id":null,"subducting_plate_id":null,"plate_ids":[501,90110],"name":""},"geometry":{"type":"LineString","coordinates":[[150.636,-23.645],[150.906,-23.686],[151.177,-23.728]]}},{"type":"Feature","properties":{"boundary_type":"ridge","feature_type":"gpml:MidOceanRidge","polarity":null,"overriding_plate_id":null,"subducting_plate_id":null,"plate_ids":[302,501],"name":""},"geometry":{"type":"LineString","coordinates":[[-126.249,-34.963],[-126.54,-35.242],[-126.833,-35.52],[-127.201,-35.132],[-127.566,-34.743],[-127.927,-34.353],[-128.285,-33.962],[-128.64,-33.57],[-128.991,-33.177],[-129.339,-32.783],[-129.685,-32.388],[-130.027,-31.992],[-130.366,-31.595],[-130.703,-31.197],[-131.036,-30.798],[-131.367,-30.399],[-131.695,-29.998],[-132.021,-29.597],[-132.343,-29.195],[-132.664,-28.792],[-132.982,-28.389],[-133.297,-27.985],[-133.61,-27.58],[-133.921,-27.174],[-134.23,-26.768],[-134.536,-26.361],[-134.84,-25.953],[-135.142,-25.545],[-135.442,-25.136],[-135.74,-24.727],[-136.037,-24.317],[-136.331,-23.906],[-136.785,-24.135],[-137.24,-24.363],[-137.698,-24.589],[-138.157,-24.814],[-138.617,-25.038],[-139.079,-25.26],[-139.543,-25.481],[-140.009,-25.701],[-140.476,-25.918],[-140.945,-26.135],[-141.416,-26.35],[-141.889,-26.563],[-142.363,-26.775],[-142.839,-26.985],[-143.317,-27.193],[-143.797,-27.4],[-144.278,-27.605],[-144.761,-27.809]]}},{"type":"Feature","properties":{"boundary_type":"ridge","feature_type":"gpml:MidOceanRidge","polarity":null,"overriding_plate_id":null,"subducting_plate_id":null,"plate_ids":[302],"name":""},"geometry":{"type":"LineString","coordinates":[[-144.761,-27.809],[-145.273,-28.022],[-145.786,-28.233],[-146.301,-28.441]]}},{"type":"Feature","properties":{"boundary_type":"subduction","feature_type":"gpml:SubductionZone","polarity":"Left","overriding_plate_id":302,"subducting_plate_id":90109,"plate_ids":[302,90109],"name":""},"geometry":{"type":"LineString","coordinates":[[-157.14,-15.33],[-156.846,-15.725],[-156.552,-16.119],[-156.256,-16.512],[-155.959,-16.906],[-155.66,-17.299],[-155.361,-17.691],[-155.06,-18.083],[-154.758,-18.474],[-154.454,-18.865],[-154.149,-19.256],[-153.843,-19.646],[-153.535,-20.035],[-153.225,-20.424],[-152.914,-20.813],[-152.602,-21.201],[-152.287,-21.588],[-151.971,-21.975],[-151.654,-22.361],[-151.334,-22.746],[-151.013,-23.131],[-150.69,-23.515],[-150.365,-23.898],[-150.038,-24.281],[-149.709,-24.663],[-149.378,-25.045],[-149.045,-25.425],[-148.71,-25.805],[-148.372,-26.184],[-148.033,-26.562],[-147.691,-26.94],[-147.347,-27.317],[-147.001,-27.692],[-146.652,-28.067],[-146.301,-28.441]]}},{"type":"Feature","properties":{"boundary_type":"subduction","feature_type":"gpml:SubductionZone","polarity":"Left","overriding_plate_id":null,"subducting_plate_id":null,"plate_ids":[90109],"name":""},"geometry":{"type":"LineString","coordinates":[[-146.301,-28.441],[-146.17,-28.58],[-145.79,-28.865],[-145.407,-29.149],[-145.023,-29.431],[-144.637,-29.713],[-144.248,-29.993]]}},{"type":"Feature","properties":{"boundary_type":"ridge","feature_type":"gpml:MidOceanRidge","polarity":null,"overriding_plate_id":null,"subducting_plate_id":null,"plate_ids":[101,602],"name":""},"geometry":{"type":"LineString","coordinates":[[-73.131,23.007],[-73.363,22.569],[-73.594,22.131],[-73.823,21.693],[-74.051,21.254],[-74.278,20.815],[-74.503,20.376],[-74.727,19.936],[-74.95,19.496],[-75.171,19.056],[-75.392,18.616],[-75.611,18.175],[-75.788,17.748],[-75.965,17.321],[-76.141,16.893],[-76.316,16.466],[-76.49,16.038],[-76.664,15.61],[-76.837,15.182],[-77.009,14.754],[-77.18,14.326],[-77.351,13.897],[-77.521,13.469],[-77.691,13.04],[-77.814,12.568],[-77.937,12.097],[-78.059,11.625],[-78.181,11.153],[-78.302,10.681],[-78.423,10.209],[-78.544,9.738],[-78.665,9.266],[-78.785,8.794],[-78.904,8.322],[-79.024,7.849],[-79.143,7.377],[-79.611,7.463],[-80.079,7.548],[-80.548,7.633],[-81.017,7.717],[-81.485,7.801],[-81.954,7.884],[-82.424,7.967],[-82.893,8.049],[-83.363,8.131],[-83.832,8.212],[-84.302,8.293],[-84.371,7.843],[-84.44,7.393],[-84.509,6.943],[-84.577,6.492],[-84.645,6.042],[-84.714,5.592],[-84.782,5.142],[-84.85,4.692],[-84.918,4.242],[-84.985,3.792],[-85.009,3.347],[-85.033,2.903],[-85.057,2.459],[-85.081,2.015],[-85.105,1.571],[-85.128,1.126],[-85.152,0.682],[-85.176,0.238],[-85.2,-0.206],[-85.074,-0.644],[-84.947,-1.081],[-84.821,-1.518],[-84.695,-1.956],[-84.569,-2.393],[-84.442,-2.831],[-84.316,-3.268],[-84.189,-3.705],[-84.062,-4.143],[-83.936,-4.58],[-83.809,-5.017],[-83.547,-5.417],[-83.285,-5.818],[-83.023,-6.218],[-82.761,-6.617],[-82.498,-7.017],[-82.234,-7.417],[-81.97,-7.816],[-81.706,-8.216],[-81.441,-8.615],[-81.175,-9.014],[-80.909,-9.412]]}}]}