{"type":"FeatureCollection","meta":{"model":"Cao2024","reconstruction_time_ma":1120.0,"anchor_plate_id":0,"pygplates_version":"1.0.0","tessellate_degrees":0.5,"polarity_convention":"gpml:subductionPolarity. 'Left'/'Right' names the side of the line, in vertex order, on which the OVERRIDING plate lies. Triangles are drawn on that side.","antimeridian":"Lines are NOT split at +/-180 deg. The renderer works in 3D unit vectors where the dateline is not special; splitting would only add spurious breaks. Do not treat this as RFC 7946 GIS-ready 2D data."},"features":[{"type":"Feature","properties":{"boundary_type":"ridge","feature_type":"gpml:MidOceanRidge","polarity":null,"overriding_plate_id":null,"subducting_plate_id":null,"plate_ids":[101,302],"name":"MOR-Greenland-Baltica"},"geometry":{"type":"LineString","coordinates":[[178.282,27.166],[178.813,27.315],[179.346,27.461],[179.88,27.606],[-179.585,27.749],[-179.048,27.889],[-178.51,28.028],[-177.971,28.164],[-177.43,28.298],[-176.888,28.431],[-176.344,28.561],[-175.799,28.688],[-175.253,28.814],[-174.705,28.937],[-174.157,29.059],[-173.606,29.178],[-173.055,29.294],[-172.502,29.409],[-171.949,29.521],[-171.394,29.631],[-170.837,29.738],[-170.28,29.844],[-169.721,29.946],[-169.161,30.047],[-168.601,30.145],[-168.039,30.241],[-167.476,30.334],[-166.911,30.425],[-166.346,30.514],[-165.78,30.6],[-165.213,30.683],[-165.258,31.166],[-165.303,31.649],[-165.349,32.133],[-165.395,32.616],[-165.442,33.099],[-164.873,33.08],[-164.305,33.06],[-163.736,33.036],[-163.168,33.01],[-162.601,32.982],[-162.034,32.951],[-161.467,32.917],[-160.901,32.881],[-160.335,32.842],[-159.769,32.801],[-159.205,32.757],[-158.64,32.711],[-158.077,32.662],[-157.514,32.61],[-156.951,32.557],[-156.39,32.5],[-155.829,32.441],[-155.269,32.38],[-154.709,32.316],[-154.151,32.25],[-154.114,31.886],[-154.077,31.522],[-154.04,31.158],[-153.472,31.088],[-152.904,31.015],[-152.338,30.94],[-151.772,30.862],[-151.207,30.782],[-150.643,30.699],[-150.081,30.614],[-149.519,30.527],[-148.958,30.437],[-148.398,30.345],[-147.839,30.25],[-147.282,30.153],[-146.725,30.054],[-146.17,29.952],[-145.616,29.848],[-145.062,29.742],[-144.511,29.633],[-143.96,29.522],[-143.945,29.895],[-143.93,30.267],[-143.915,30.639],[-143.366,30.524],[-142.817,30.406],[-142.271,30.286],[-141.725,30.163],[-141.181,30.038],[-140.638,29.911],[-140.097,29.782],[-139.557,29.651],[-139.018,29.517],[-138.481,29.381],[-137.945,29.243],[-137.411,29.103],[-136.878,28.961],[-136.347,28.817],[-135.817,28.67]]}},{"type":"Feature","properties":{"boundary_type":"transform","feature_type":"gpml:Transform","polarity":null,"overriding_plate_id":null,"subducting_plate_id":null,"plate_ids":[101,602],"name":"inferred transform"},"geometry":{"type":"LineString","coordinates":[[-68.81,37.735],[-68.81,37.736]]}},{"type":"Feature","properties":{"boundary_type":"transform","feature_type":"gpml:Transform","polarity":null,"overriding_plate_id":null,"subducting_plate_id":null,"plate_ids":[101,801],"name":"inferred transform"},"geometry":{"type":"LineString","coordinates":[[-68.81,37.736],[-68.746,38.223],[-68.681,38.71],[-68.615,39.197],[-68.548,39.684],[-68.48,40.171],[-68.412,40.657],[-68.342,41.144],[-68.271,41.63],[-68.199,42.117],[-68.126,42.604],[-68.052,43.09],[-67.976,43.576],[-67.9,44.063],[-67.822,44.549],[-67.743,45.035],[-67.662,45.522],[-67.58,46.008],[-67.497,46.494],[-67.412,46.98],[-67.325,47.466],[-67.237,47.952],[-67.148,48.438],[-67.056,48.923],[-66.963,49.409],[-66.868,49.895],[-66.771,50.38],[-66.672,50.866],[-66.57,51.351],[-66.467,51.836],[-66.362,52.322],[-66.254,52.807],[-66.143,53.292],[-66.03,53.777],[-65.915,54.261],[-65.797,54.746],[-65.675,55.23],[-65.551,55.715],[-65.424,56.199],[-65.294,56.683],[-65.16,57.167],[-65.022,57.651],[-64.881,58.135],[-64.736,58.619],[-64.587,59.102],[-64.433,59.585],[-64.276,60.068],[-64.146,60.562],[-64.013,61.055],[-63.876,61.548],[-63.734,62.041],[-63.587,62.534],[-63.436,63.027],[-63.279,63.519],[-63.117,64.011],[-62.949,64.504],[-62.775,64.995],[-62.595,65.487],[-62.407,65.979],[-62.212,66.47],[-62.009,66.961],[-61.798,67.452],[-61.578,67.942],[-61.349,68.432],[-61.109,68.922],[-60.858,69.412],[-60.596,69.901],[-60.322,70.39],[-60.033,70.878],[-59.731,71.366],[-59.412,71.853],[-59.077,72.34],[-58.723,72.826],[-58.35,73.311],[-57.955,73.796],[-57.535,74.28],[-57.091,74.763],[-56.617,75.246],[-56.113,75.727],[-55.574,76.207],[-54.997,76.686],[-54.377,77.163],[-53.711,77.639],[-52.993,78.113],[-52.216,78.585],[-51.373,79.055],[-50.455,79.522],[-49.453,79.987],[-48.355,80.448],[-47.147,80.906],[-45.813,81.359],[-44.333,81.807],[-42.626,82.231],[-40.725,82.648],[-38.599,83.056],[-36.213,83.454],[-33.525,83.839],[-30.488,84.208],[-27.05,84.56],[-23.154,84.889],[-18.748,85.191],[-13.786,85.462],[-8.243,85.694],[-2.133,85.882],[4.478,86.02],[11.46,86.101],[18.628,86.122],[25.764,86.083],[32.656,85.985],[39.133,85.833],[45.083,85.631],[50.457,85.387],[55.255,85.107],[59.509,84.796],[63.266,84.46],[66.583,84.103],[69.514,83.729],[72.11,83.34],[74.417,82.94],[76.474,82.529],[78.316,82.109],[79.972,81.683],[81.466,81.25],[82.82,80.812],[84.051,80.369],[85.174,79.922],[86.202,79.472],[87.147,79.019],[88.131,78.562],[89.04,78.102],[89.882,77.639],[90.664,77.173],[91.392,76.706],[92.071,76.236],[92.707,75.765],[93.302,75.292],[93.861,74.818],[94.387,74.342],[94.882,73.866],[95.35,73.388],[95.792,72.909],[96.211,72.43],[96.609,71.949],[96.986,71.468],[97.345,70.986],[97.687,70.503],[98.012,70.02],[98.324,69.536],[98.621,69.052],[98.905,68.567],[99.178,68.082],[99.439,67.596],[99.69,67.11],[99.931,66.623],[100.162,66.136],[100.385,65.649],[100.599,65.162],[100.806,64.674],[101.006,64.186],[101.198,63.697],[101.384,63.209],[101.564,62.72],[101.738,62.231],[101.907,61.742],[102.07,61.252],[102.228,60.762],[102.382,60.273],[102.531,59.783],[102.675,59.292],[102.816,58.802],[102.952,58.312],[103.085,57.821],[103.214,57.33],[103.34,56.839],[103.463,56.348],[103.582,55.857],[103.699,55.366],[103.813,54.875],[103.924,54.383],[104.032,53.892],[104.138,53.4],[104.241,52.908],[104.342,52.416],[104.441,51.924],[104.537,51.432],[104.632,50.94],[104.725,50.448],[104.815,49.956],[104.904,49.464],[104.991,48.971],[105.077,48.479],[105.161,47.986],[105.243,47.494],[105.336,47.055],[105.428,46.615],[105.519,46.176],[105.608,45.736],[105.695,45.297],[105.782,44.857],[105.867,44.418]]}},{"type":"Feature","properties":{"boundary_type":"subduction","feature_type":"gpml:SubductionZone","polarity":"Left","overriding_plate_id":101,"subducting_plate_id":90109,"plate_ids":[101,90109],"name":"E-Lau SZ"},"geometry":{"type":"LineString","coordinates":[[133.535,41.817],[134.152,41.732],[134.768,41.643],[135.382,41.551],[135.995,41.455],[136.605,41.357],[137.214,41.255],[137.821,41.15],[138.425,41.042],[139.028,40.93],[139.629,40.816],[140.227,40.698],[140.824,40.578],[141.418,40.454],[142.01,40.327],[142.666,40.327],[143.322,40.324],[143.977,40.316],[144.633,40.305],[145.288,40.291],[145.943,40.272],[146.597,40.25],[147.251,40.225],[147.905,40.195],[148.558,40.162],[149.21,40.125],[149.862,40.085],[150.446,39.906],[151.028,39.724],[151.606,39.539],[152.181,39.351],[152.753,39.16],[153.323,38.967],[153.889,38.77],[154.451,38.572],[155.011,38.37],[155.568,38.166],[156.121,37.959],[156.671,37.749],[157.268,37.671],[157.863,37.59],[158.457,37.506],[159.049,37.419],[159.64,37.328],[160.23,37.235],[160.818,37.139],[161.404,37.041],[161.989,36.939],[162.573,36.834],[163.154,36.727],[163.735,36.616],[164.313,36.503],[164.729,36.163],[165.141,35.821],[165.55,35.478],[165.956,35.133],[166.358,34.788],[166.756,34.44],[167.151,34.092],[167.543,33.742],[167.932,33.391],[168.318,33.039],[168.847,32.819],[169.373,32.597],[169.896,32.373],[170.417,32.147],[170.936,31.918],[171.452,31.688],[171.965,31.455],[172.476,31.22],[172.984,30.984],[173.49,30.745],[173.993,30.504],[174.493,30.262],[174.883,29.957],[175.269,29.651],[175.654,29.344],[176.036,29.036],[176.416,28.727],[176.793,28.417],[177.169,28.106],[177.542,27.793],[177.913,27.48],[178.282,27.166]]}},{"type":"Feature","properties":{"boundary_type":"subduction","feature_type":"gpml:SubductionZone","polarity":"Left","overriding_plate_id":302,"subducting_plate_id":90109,"plate_ids":[302,90109],"name":"E-Lau SZ"},"geometry":{"type":"LineString","coordinates":[[178.282,27.166],[178.627,26.87],[178.97,26.573],[179.311,26.275],[179.65,25.977],[-179.972,25.685],[-179.596,25.392],[-179.222,25.099],[-178.849,24.804],[-178.479,24.509]]}},{"type":"Feature","properties":{"boundary_type":"ridge","feature_type":"gpml:MidOceanRidge","polarity":null,"overriding_plate_id":null,"subducting_plate_id":null,"plate_ids":[602,701],"name":""},"geometry":{"type":"LineString","coordinates":[[-24.727,13.228],[-25.153,12.975],[-25.579,12.722],[-26.004,12.469],[-26.428,12.215],[-26.851,11.96],[-27.273,11.704],[-27.694,11.448],[-28.115,11.191],[-28.535,10.934],[-28.954,10.676],[-29.373,10.418],[-29.791,10.159],[-30.208,9.899],[-29.937,9.482],[-29.666,9.065],[-29.396,8.647],[-29.127,8.229],[-28.858,7.811],[-28.59,7.393],[-28.322,6.975],[-28.055,6.557],[-27.788,6.138],[-27.521,5.719],[-27.255,5.301],[-26.99,4.882],[-26.724,4.463],[-26.459,4.043],[-26.195,3.624],[-25.93,3.205],[-25.666,2.786],[-25.402,2.366],[-25.138,1.947],[-24.874,1.527],[-24.61,1.108],[-24.347,0.688],[-24.083,0.268],[-23.819,-0.151],[-23.556,-0.571],[-23.292,-0.99],[-23.028,-1.41],[-22.765,-1.829],[-22.501,-2.249],[-22.237,-2.668],[-21.972,-3.088],[-21.708,-3.507],[-21.443,-3.926],[-21.178,-4.345],[-20.913,-4.764],[-20.648,-5.183],[-20.382,-5.602],[-20.115,-6.021],[-19.849,-6.44],[-19.582,-6.858],[-19.314,-7.276],[-19.046,-7.694],[-18.777,-8.112],[-18.508,-8.53],[-18.238,-8.948],[-17.968,-9.365],[-18.364,-9.631],[-18.761,-9.896],[-19.159,-10.161],[-19.557,-10.425],[-19.956,-10.689],[-20.356,-10.952],[-20.757,-11.214],[-21.158,-11.476],[-21.56,-11.738]]}},{"type":"Feature","properties":{"boundary_type":"ridge","feature_type":"gpml:MidOceanRidge","polarity":null,"overriding_plate_id":null,"subducting_plate_id":null,"plate_ids":[602,801],"name":""},"geometry":{"type":"LineString","coordinates":[[-68.81,37.736],[-68.22,37.581],[-67.631,37.423],[-67.046,37.262],[-66.463,37.098],[-65.882,36.932],[-65.304,36.762],[-64.866,37.092],[-64.424,37.42],[-63.979,37.747],[-63.529,38.071],[-63.075,38.394],[-62.618,38.716],[-62.01,38.563],[-61.406,38.408],[-60.804,38.249],[-60.204,38.088],[-59.607,37.923],[-59.013,37.755],[-58.422,37.584],[-57.833,37.411],[-57.248,37.234],[-56.664,37.055],[-56.084,36.873],[-55.507,36.688],[-54.932,36.5],[-54.36,36.309],[-53.791,36.116],[-53.224,35.92],[-52.661,35.721],[-52.1,35.52],[-51.542,35.316],[-50.987,35.11],[-50.435,34.901],[-49.885,34.69],[-49.339,34.476],[-48.795,34.26],[-48.254,34.041],[-47.716,33.82],[-47.18,33.597],[-47.516,33.212],[-47.848,32.827],[-48.178,32.44],[-48.505,32.053],[-48.829,31.665],[-49.151,31.276],[-49.469,30.886],[-49.786,30.496],[-50.099,30.105],[-50.41,29.713],[-50.008,29.383],[-49.608,29.052],[-49.21,28.72],[-48.815,28.387],[-48.423,28.053],[-48.033,27.717],[-47.645,27.381],[-47.26,27.043],[-46.877,26.704],[-46.497,26.365],[-46.118,26.024],[-45.742,25.682],[-45.368,25.34],[-44.996,24.996],[-44.626,24.652],[-44.258,24.307],[-43.892,23.96],[-43.528,23.613],[-43.166,23.265],[-42.806,22.917],[-42.448,22.567],[-42.092,22.217],[-41.737,21.866],[-41.296,22.116],[-40.853,22.366],[-40.408,22.614],[-39.962,22.861],[-39.515,23.107],[-39.065,23.352],[-38.614,23.595],[-38.161,23.837],[-37.707,24.078],[-37.251,24.317],[-36.793,24.555],[-36.334,24.792],[-35.872,25.027],[-35.409,25.261],[-34.945,25.493],[-34.478,25.724],[-34.009,25.953],[-33.539,26.181],[-33.067,26.407],[-32.773,25.989],[-32.482,25.57],[-32.192,25.151],[-31.904,24.731],[-31.618,24.311],[-31.334,23.89],[-31.052,23.468],[-30.772,23.046],[-30.494,22.623],[-30.217,22.2],[-29.942,21.777],[-29.668,21.353],[-29.396,20.929],[-29.126,20.504],[-28.857,20.079],[-28.59,19.653],[-28.324,19.227],[-28.059,18.801],[-27.796,18.374],[-27.534,17.947],[-27.273,17.519],[-27.013,17.091],[-26.755,16.663],[-26.498,16.235],[-26.242,15.806],[-25.987,15.377],[-25.733,14.948],[-25.48,14.518],[-25.228,14.088],[-24.977,13.658],[-24.727,13.228]]}},{"type":"Feature","properties":{"boundary_type":"ridge","feature_type":"gpml:MidOceanRidge","polarity":null,"overriding_plate_id":null,"subducting_plate_id":null,"plate_ids":[701,801],"name":""},"geometry":{"type":"LineString","coordinates":[[-24.727,13.228],[-24.479,12.799],[-24.232,12.37],[-23.986,11.942],[-23.74,11.512],[-23.496,11.083],[-23.251,10.654],[-23.008,10.224],[-22.765,9.794]]}},{"type":"Feature","properties":{"boundary_type":"ridge","feature_type":"gpml:MidOceanRidge","polarity":null,"overriding_plate_id":null,"subducting_plate_id":null,"plate_ids":[701,801],"name":""},"geometry":{"type":"LineString","coordinates":[[28.713,36.978],[28.125,37.144],[27.535,37.307],[26.942,37.468],[26.347,37.625],[25.749,37.779],[25.148,37.931],[24.545,38.079],[24.64,38.466],[24.737,38.852],[24.834,39.239],[24.932,39.625],[24.301,39.603],[23.671,39.578],[23.041,39.549],[22.412,39.517],[21.783,39.481],[21.155,39.442],[20.528,39.4],[19.901,39.354],[19.276,39.305],[18.651,39.252],[18.027,39.196],[17.405,39.137],[16.783,39.075],[16.162,39.009],[15.543,38.94],[14.925,38.868],[14.308,38.793],[13.693,38.714],[13.079,38.632],[12.466,38.547],[11.855,38.458],[11.245,38.367],[10.637,38.272],[10.03,38.174],[9.426,38.073],[8.822,37.969],[8.221,37.862],[7.621,37.752],[7.36,38.117],[7.096,38.482],[6.829,38.846],[6.56,39.209],[6.287,39.572],[6.012,39.934],[5.454,39.706],[4.9,39.475],[4.35,39.242],[3.803,39.006],[3.26,38.768],[2.72,38.527],[2.184,38.284],[1.652,38.039],[1.123,37.791],[0.598,37.54],[0.077,37.288],[-0.442,37.033],[-0.956,36.775],[-1.467,36.516],[-1.975,36.254],[-2.48,35.991],[-2.98,35.725],[-3.342,36.021],[-3.707,36.317],[-4.074,36.611],[-4.444,36.904],[-4.817,37.196],[-5.261,36.845],[-5.701,36.493],[-6.137,36.139],[-6.569,35.784],[-6.997,35.427],[-7.422,35.069],[-7.843,34.709],[-8.26,34.348],[-8.673,33.986],[-9.083,33.622],[-9.49,33.256],[-9.893,32.89],[-10.293,32.522],[-10.689,32.153],[-11.082,31.782],[-11.473,31.411],[-11.86,31.038],[-12.244,30.664],[-12.625,30.289],[-13.003,29.913],[-13.378,29.536],[-13.751,29.158],[-14.121,28.779],[-14.552,28.85],[-14.984,28.92],[-15.416,28.989],[-15.586,28.54],[-15.754,28.09],[-15.921,27.641],[-16.086,27.191],[-16.25,26.741],[-16.413,26.29],[-16.575,25.84],[-16.735,25.389],[-16.894,24.939],[-17.052,24.488],[-17.209,24.037],[-17.364,23.585],[-17.371,23.089],[-17.378,22.592],[-17.385,22.095],[-17.391,21.599],[-17.398,21.102],[-17.404,20.605],[-17.411,20.108],[-17.417,19.612],[-17.423,19.115],[-17.43,18.618],[-17.436,18.122],[-17.442,17.625],[-17.449,17.128],[-17.455,16.632],[-17.461,16.135],[-17.467,15.638],[-17.473,15.142],[-17.479,14.645],[-17.485,14.148],[-17.491,13.652],[-17.497,13.155],[-17.503,12.658],[-17.509,12.162],[-17.515,11.665],[-17.521,11.168],[-17.527,10.671],[-17.533,10.175],[-17.539,9.678],[-18.014,9.692],[-18.489,9.705],[-18.964,9.718],[-19.439,9.729],[-19.914,9.741],[-20.389,9.751],[-20.864,9.761],[-21.34,9.77],[-21.815,9.779],[-22.29,9.787],[-22.765,9.794]]}},{"type":"Feature","properties":{"boundary_type":"ridge","feature_type":"gpml:MidOceanRidge","polarity":null,"overriding_plate_id":null,"subducting_plate_id":null,"plate_ids":[701,50101],"name":""},"geometry":{"type":"LineString","coordinates":[[-21.064,-11.772],[-21.56,-11.738]]}},{"type":"Feature","properties":{"boundary_type":"ridge","feature_type":"gpml:MidOceanRidge","polarity":null,"overriding_plate_id":null,"subducting_plate_id":null,"plate_ids":[602,50101],"name":""},"geometry":{"type":"LineString","coordinates":[[-21.56,-11.738],[-22.057,-11.703],[-22.554,-11.667],[-23.051,-11.63],[-23.548,-11.592],[-24.045,-11.553],[-24.541,-11.514],[-25.038,-11.473],[-25.534,-11.432],[-26.03,-11.39],[-26.526,-11.347],[-27.022,-11.304],[-27.518,-11.259],[-28.013,-11.214],[-28.508,-11.168],[-29.004,-11.121],[-29.499,-11.073],[-29.994,-11.024],[-30.488,-10.975],[-30.983,-10.925],[-31.477,-10.874],[-31.972,-10.822],[-32.466,-10.769],[-32.96,-10.716],[-32.933,-10.251],[-32.906,-9.786],[-32.879,-9.321],[-32.853,-8.856],[-32.826,-8.391],[-32.8,-7.926],[-33.287,-8.003],[-33.774,-8.08],[-34.261,-8.156],[-34.749,-8.232],[-35.237,-8.307],[-35.725,-8.382],[-36.213,-8.456],[-36.701,-8.529],[-37.19,-8.602],[-37.678,-8.674],[-38.167,-8.745],[-38.656,-8.816],[-39.146,-8.887],[-39.635,-8.956],[-40.125,-9.025],[-40.615,-9.093],[-41.105,-9.161],[-41.595,-9.228],[-42.085,-9.294],[-42.576,-9.36],[-43.067,-9.425],[-43.558,-9.489],[-44.049,-9.553],[-44.54,-9.616],[-45.032,-9.678],[-45.523,-9.74],[-46.015,-9.8],[-46.507,-9.861],[-46.999,-9.92],[-47.492,-9.979],[-47.984,-10.037],[-48.121,-10.471],[-48.258,-10.905],[-48.395,-11.339],[-48.532,-11.772],[-48.67,-12.206],[-48.809,-12.64],[-48.948,-13.073],[-49.407,-13.267],[-49.867,-13.46],[-50.328,-13.652],[-50.79,-13.844],[-51.252,-14.034],[-51.715,-14.224],[-52.179,-14.412],[-52.644,-14.6],[-53.109,-14.787],[-53.575,-14.973],[-54.042,-15.158],[-54.51,-15.342],[-54.508,-15.776],[-54.507,-16.211],[-54.505,-16.645],[-54.503,-17.08],[-54.915,-17.376],[-55.328,-17.67],[-55.742,-17.964],[-56.158,-18.257],[-56.575,-18.55],[-56.993,-18.841],[-57.413,-19.131],[-57.834,-19.421],[-58.257,-19.709],[-58.681,-19.996],[-59.107,-20.283],[-59.535,-20.568],[-59.964,-20.852],[-60.395,-21.135],[-60.827,-21.418],[-61.261,-21.699],[-61.697,-21.978],[-62.134,-22.257],[-62.573,-22.535],[-63.014,-22.811],[-63.457,-23.086],[-63.901,-23.36],[-64.348,-23.633],[-64.796,-23.904],[-65.246,-24.174],[-65.698,-24.443],[-66.152,-24.71],[-66.608,-24.976]]}},{"type":"Feature","properties":{"boundary_type":"subduction","feature_type":"gpml:SubductionZone","polarity":"Left","overriding_plate_id":602,"subducting_plate_id":101,"plate_ids":[101,602],"name":""},"geometry":{"type":"LineString","coordinates":[[-103.778,18.08],[-103.79,17.725],[-103.802,17.371],[-103.814,17.017]]}},{"type":"Feature","properties":{"boundary_type":"subduction","feature_type":"gpml:SubductionZone","polarity":"Left","overriding_plate_id":602,"subducting_plate_id":501,"plate_ids":[501,602],"name":""},"geometry":{"type":"LineString","coordinates":[[-103.814,17.017],[-103.825,16.694],[-103.772,16.204],[-103.718,15.714],[-103.665,15.224],[-103.613,14.734],[-103.56,14.245],[-103.508,13.755],[-103.455,13.265],[-103.404,12.775],[-103.352,12.285],[-103.3,11.795],[-103.249,11.305],[-103.198,10.815],[-103.147,10.325],[-103.096,9.835],[-103.045,9.345],[-102.995,8.855],[-102.944,8.365],[-102.894,7.875],[-102.844,7.385],[-102.794,6.895],[-102.744,6.405],[-102.694,5.915],[-102.644,5.425],[-102.594,4.934],[-102.545,4.444],[-102.495,3.954],[-102.446,3.464],[-102.396,2.974],[-102.245,2.508],[-102.095,2.041],[-101.944,1.575],[-101.793,1.108],[-101.643,0.642],[-101.492,0.175],[-101.342,-0.291],[-101.191,-0.758],[-101.041,-1.224],[-100.89,-1.691],[-100.739,-2.157],[-100.588,-2.623],[-100.437,-3.09],[-100.286,-3.556],[-100.135,-4.023],[-99.984,-4.489],[-99.832,-4.955],[-99.68,-5.422],[-99.528,-5.888],[-99.376,-6.354],[-99.224,-6.82],[-99.071,-7.286],[-98.918,-7.752],[-98.764,-8.218],[-98.61,-8.684],[-98.243,-9.013],[-97.874,-9.34],[-97.505,-9.668],[-97.135,-9.995],[-96.765,-10.321],[-96.394,-10.648],[-96.022,-10.973],[-95.649,-11.299],[-95.275,-11.623],[-94.9,-11.948],[-94.525,-12.272],[-94.148,-12.595],[-93.771,-12.918],[-93.393,-13.24],[-93.013,-13.562],[-92.633,-13.883],[-92.252,-14.204],[-91.869,-14.523],[-91.485,-14.843],[-91.101,-15.161],[-90.715,-15.479],[-90.328,-15.797],[-89.872,-16.004],[-89.415,-16.21],[-88.958,-16.415],[-88.499,-16.62],[-88.039,-16.823],[-87.579,-17.025],[-87.117,-17.226],[-86.655,-17.426],[-86.191,-17.625],[-85.726,-17.823],[-85.261,-18.02],[-84.794,-18.216],[-84.326,-18.41],[-83.858,-18.604],[-83.388,-18.796],[-82.917,-18.987],[-82.445,-19.177],[-81.972,-19.366],[-81.498,-19.553],[-81.022,-19.74],[-80.546,-19.925],[-80.069,-20.108],[-79.59,-20.291],[-79.11,-20.472],[-78.629,-20.652],[-78.147,-20.83],[-77.65,-20.91],[-77.153,-20.988],[-76.654,-21.065],[-76.156,-21.14],[-75.657,-21.214],[-75.157,-21.286],[-74.657,-21.357]]}},{"type":"Feature","properties":{"boundary_type":"subduction","feature_type":"gpml:SubductionZone","polarity":"Left","overriding_plate_id":602,"subducting_plate_id":501,"plate_ids":[501,602],"name":""},"geometry":{"type":"LineString","coordinates":[[-74.657,-21.357],[-74.195,-21.581],[-73.732,-21.804],[-73.268,-22.025],[-72.802,-22.245],[-72.334,-22.463],[-71.865,-22.681],[-71.395,-22.897],[-70.923,-23.111],[-70.45,-23.324],[-69.975,-23.536],[-69.499,-23.746],[-69.021,-23.955],[-68.541,-24.162],[-68.06,-24.368],[-67.578,-24.572],[-67.094,-24.775],[-66.608,-24.976]]}},{"type":"Feature","properties":{"boundary_type":"subduction","feature_type":"gpml:SubductionZone","polarity":"Left","overriding_plate_id":50101,"subducting_plate_id":501,"plate_ids":[501,50101],"name":""},"geometry":{"type":"LineString","coordinates":[[-66.608,-24.976],[-66.119,-25.177],[-65.628,-25.376],[-65.135,-25.573],[-64.641,-25.768],[-64.145,-25.962],[-63.647,-26.154],[-63.148,-26.345],[-62.648,-26.533],[-62.145,-26.72],[-61.641,-26.906],[-61.135,-27.089],[-60.628,-27.271],[-60.119,-27.45],[-59.608,-27.628],[-59.096,-27.804],[-58.582,-27.978],[-58.066,-28.151],[-57.549,-28.321],[-57.03,-28.489],[-56.51,-28.656],[-55.987,-28.82],[-55.464,-28.982],[-54.938,-29.142],[-54.411,-29.301],[-53.882,-29.457],[-53.353,-29.644],[-52.821,-29.829],[-52.287,-30.012],[-51.752,-30.192],[-51.214,-30.371],[-50.675,-30.547],[-50.133,-30.721],[-49.59,-30.892],[-49.044,-31.062],[-48.497,-31.229],[-47.948,-31.394],[-47.397,-31.556],[-46.844,-31.716],[-46.289,-31.874],[-45.732,-32.029],[-45.173,-32.182],[-44.613,-32.333],[-44.05,-32.481],[-43.486,-32.626],[-42.92,-32.769],[-42.352,-32.909],[-41.783,-33.047],[-41.211,-33.182],[-40.638,-33.314],[-40.063,-33.444],[-39.486,-33.572],[-38.908,-33.696],[-38.328,-33.818],[-37.747,-33.937],[-37.163,-34.053],[-36.579,-34.167],[-35.992,-34.278],[-35.405,-34.386],[-34.815,-34.491],[-34.229,-34.566],[-33.641,-34.639],[-33.053,-34.709],[-32.463,-34.776],[-31.873,-34.84],[-31.281,-34.901],[-30.689,-34.959],[-30.096,-35.015],[-29.502,-35.068],[-28.929,-35.152],[-28.354,-35.233],[-27.779,-35.311],[-27.202,-35.387],[-26.624,-35.46],[-26.045,-35.531],[-25.465,-35.598],[-24.884,-35.663],[-24.302,-35.725],[-23.72,-35.784],[-23.136,-35.841],[-22.552,-35.894],[-21.967,-35.945],[-21.381,-35.993]]}},{"type":"Feature","properties":{"boundary_type":"subduction","feature_type":"gpml:SubductionZone","polarity":"Left","overriding_plate_id":701,"subducting_plate_id":501,"plate_ids":[501,701],"name":""},"geometry":{"type":"LineString","coordinates":[[-21.381,-35.993],[-20.803,-36.037],[-20.224,-36.079],[-19.645,-36.118],[-19.065,-36.154],[-18.484,-36.187],[-17.904,-36.217],[-17.322,-36.245],[-16.717,-36.299],[-16.11,-36.349],[-15.503,-36.397],[-14.895,-36.441],[-14.286,-36.482],[-13.677,-36.521],[-13.067,-36.556],[-12.457,-36.588],[-11.846,-36.617],[-11.235,-36.642],[-10.623,-36.665],[-10.011,-36.685],[-9.399,-36.701],[-8.786,-36.714],[-8.173,-36.724],[-7.56,-36.731],[-6.948,-36.735],[-6.335,-36.736],[-5.722,-36.733],[-5.109,-36.728],[-4.496,-36.719],[-3.883,-36.707],[-3.271,-36.692],[-2.659,-36.674],[-2.047,-36.653],[-1.435,-36.628],[-0.824,-36.601],[-0.214,-36.57],[0.396,-36.536],[1.006,-36.499],[1.615,-36.459],[2.223,-36.416],[2.831,-36.37],[3.437,-36.321],[4.043,-36.269],[4.649,-36.213],[5.253,-36.155],[5.856,-36.094],[6.459,-36.029],[7.06,-35.962],[7.661,-35.891],[8.26,-35.818],[8.858,-35.742],[9.455,-35.662],[10.051,-35.58],[10.645,-35.495],[11.239,-35.407],[11.831,-35.316],[12.421,-35.222],[13.01,-35.125],[13.598,-35.025],[14.184,-34.923],[14.769,-34.818],[15.353,-34.71],[15.934,-34.599],[16.515,-34.485],[17.093,-34.369]]}},{"type":"Feature","properties":{"boundary_type":"ridge","feature_type":"gpml:MidOceanRidge","polarity":null,"overriding_plate_id":null,"subducting_plate_id":null,"plate_ids":[701,50101],"name":""},"geometry":{"type":"LineString","coordinates":[[-21.064,-11.772],[-21.239,-12.238],[-21.414,-12.704],[-21.59,-13.17],[-21.767,-13.636],[-21.944,-14.101],[-22.122,-14.567],[-22.301,-15.032],[-22.481,-15.497],[-22.661,-15.962],[-22.842,-16.427],[-23.024,-16.892],[-23.207,-17.356],[-23.391,-17.821],[-23.576,-18.285],[-23.762,-18.749],[-23.949,-19.213],[-24.137,-19.676],[-24.326,-20.14],[-24.516,-20.603],[-24.708,-21.066],[-24.9,-21.529],[-25.094,-21.992],[-25.289,-22.454],[-25.485,-22.916],[-25.683,-23.378],[-25.225,-23.605],[-24.766,-23.831],[-24.306,-24.055],[-23.843,-24.278],[-23.379,-24.5],[-22.914,-24.72],[-22.446,-24.939],[-21.978,-25.157],[-21.507,-25.372],[-21.035,-25.587],[-21.219,-26.029],[-21.404,-26.472],[-21.591,-26.914],[-21.78,-27.356],[-21.97,-27.798],[-22.161,-28.24],[-22.354,-28.681],[-22.549,-29.122],[-22.117,-29.29],[-21.684,-29.457],[-21.25,-29.623],[-20.814,-29.787],[-20.377,-29.95],[-20.449,-30.415],[-20.523,-30.88],[-20.597,-31.345],[-20.672,-31.81],[-20.747,-32.275],[-20.823,-32.74],[-20.9,-33.205],[-20.978,-33.67],[-21.057,-34.134],[-21.137,-34.599],[-21.217,-35.064],[-21.299,-35.528],[-21.381,-35.993]]}},{"type":"Feature","properties":{"boundary_type":"ridge","feature_type":"gpml:MidOceanRidge","polarity":null,"overriding_plate_id":null,"subducting_plate_id":null,"plate_ids":[101,302],"name":""},"geometry":{"type":"LineString","coordinates":[[-140.686,-2.779],[-140.92,-2.354],[-141.154,-1.93],[-141.388,-1.505],[-141.621,-1.081],[-141.855,-0.656],[-142.088,-0.231],[-142.322,0.193],[-142.556,0.618],[-142.789,1.042],[-143.023,1.467],[-143.257,1.892],[-143.49,2.316],[-143.724,2.741],[-143.959,3.165],[-144.193,3.589],[-144.428,4.014],[-144.662,4.438],[-144.897,4.862],[-145.133,5.286],[-145.369,5.71],[-145.605,6.134],[-145.841,6.558],[-146.078,6.982],[-145.705,7.304],[-145.332,7.626],[-144.959,7.948],[-144.584,8.27],[-144.209,8.591],[-143.834,8.912],[-143.458,9.233],[-143.081,9.553],[-142.703,9.872],[-142.325,10.192],[-141.946,10.51],[-141.566,10.829],[-141.185,11.147],[-140.804,11.464],[-140.421,11.781],[-140.038,12.097],[-139.654,12.413],[-139.269,12.729],[-138.883,13.044],[-138.496,13.358],[-138.88,13.631],[-139.265,13.903],[-139.65,14.175],[-140.037,14.446],[-140.425,14.717],[-140.813,14.987],[-140.532,15.397],[-140.249,15.806],[-139.965,16.215],[-139.68,16.623],[-139.394,17.031],[-139.106,17.439],[-138.818,17.846],[-138.528,18.253],[-138.236,18.659],[-137.943,19.065],[-137.649,19.47],[-137.354,19.875],[-137.056,20.28],[-136.757,20.684],[-136.457,21.087],[-136.155,21.49],[-135.851,21.892],[-135.546,22.294],[-135.941,22.468],[-136.337,22.64],[-136.733,22.812],[-137.131,22.983],[-137.53,23.152],[-137.393,23.613],[-137.255,24.073],[-137.116,24.534],[-136.977,24.994],[-136.836,25.454],[-136.694,25.914],[-136.55,26.374],[-136.406,26.833],[-136.261,27.293],[-136.114,27.752],[-135.966,28.211],[-135.817,28.67]]}},{"type":"Feature","properties":{"boundary_type":"ridge","feature_type":"gpml:MidOceanRidge","polarity":null,"overriding_plate_id":null,"subducting_plate_id":null,"plate_ids":[101,501],"name":""},"geometry":{"type":"LineString","coordinates":[[-103.814,17.017],[-104.317,16.974],[-104.82,16.929],[-105.322,16.884],[-105.824,16.837],[-106.326,16.789],[-106.828,16.74],[-107.329,16.69],[-107.83,16.638],[-108.331,16.585],[-108.832,16.531],[-109.332,16.476],[-109.832,16.42],[-110.332,16.362],[-110.831,16.304],[-111.33,16.244],[-111.829,16.183],[-112.327,16.121],[-112.826,16.057],[-113.324,15.993],[-113.821,15.927],[-113.691,15.618],[-113.561,15.309],[-113.431,14.999],[-113.92,14.879],[-114.408,14.758],[-114.896,14.637],[-115.383,14.514],[-115.869,14.39],[-116.355,14.265],[-116.841,14.139],[-117.326,14.012],[-117.81,13.884],[-118.294,13.755],[-118.777,13.625],[-119.26,13.495],[-119.742,13.363],[-120.224,13.231],[-120.705,13.097],[-121.186,12.963],[-121.666,12.828],[-122.146,12.692],[-122.625,12.555],[-123.103,12.417],[-123.582,12.278],[-124.059,12.139],[-124.536,11.999],[-125.013,11.857],[-125.489,11.716],[-125.965,11.573],[-126.44,11.43],[-126.914,11.285],[-127.389,11.14],[-127.862,10.995],[-128.335,10.848],[-128.089,10.522],[-127.842,10.196],[-127.596,9.87],[-127.968,9.538],[-128.34,9.206],[-128.71,8.873],[-129.08,8.541],[-129.45,8.207],[-129.818,7.874],[-130.186,7.54],[-130.554,7.206],[-130.921,6.871],[-131.287,6.537],[-131.653,6.202],[-132.019,5.866],[-132.384,5.531],[-132.748,5.195],[-133.113,4.859],[-133.476,4.523],[-133.84,4.187],[-134.203,3.851],[-134.566,3.514],[-134.929,3.177],[-135.291,2.84],[-135.654,2.503],[-136.016,2.166],[-136.378,1.829],[-136.739,1.492],[-137.101,1.155],[-137.462,0.817],[-137.824,0.48],[-138.185,0.142],[-138.547,-0.195],[-138.908,-0.532],[-139.27,-0.87],[-139.631,-1.207],[-139.993,-1.544],[-140.355,-1.882],[-140.52,-2.33],[-140.686,-2.779]]}},{"type":"Feature","properties":{"boundary_type":"ridge","feature_type":"gpml:MidOceanRidge","polarity":null,"overriding_plate_id":null,"subducting_plate_id":null,"plate_ids":[302,501],"name":""},"geometry":{"type":"LineString","coordinates":[[-140.686,-2.779],[-140.748,-2.946]]}},{"type":"Feature","properties":{"boundary_type":"ridge","feature_type":"gpml:MidOceanRidge","polarity":null,"overriding_plate_id":null,"subducting_plate_id":null,"plate_ids":[302,501],"name":""},"geometry":{"type":"LineString","coordinates":[[-140.748,-2.946],[-140.411,-3.285],[-140.074,-3.624],[-139.736,-3.964],[-139.399,-4.303],[-139.061,-4.641],[-139.478,-4.908],[-139.895,-5.174],[-140.313,-5.439],[-140.731,-5.705],[-141.149,-5.97],[-141.568,-6.235],[-141.987,-6.499],[-142.407,-6.764],[-142.827,-7.027],[-143.248,-7.291],[-143.669,-7.554],[-144.091,-7.817],[-144.513,-8.079],[-144.936,-8.341],[-145.359,-8.602],[-145.783,-8.863],[-146.208,-9.123],[-146.633,-9.383],[-147.058,-9.643],[-147.485,-9.901],[-147.912,-10.16],[-148.34,-10.418],[-148.768,-10.675],[-149.197,-10.931],[-149.627,-11.187],[-150.058,-11.443],[-150.49,-11.698],[-150.922,-11.952],[-151.355,-12.205],[-151.789,-12.458],[-152.224,-12.71],[-152.659,-12.962],[-153.096,-13.212],[-153.56,-13.42],[-154.025,-13.627],[-154.49,-13.834],[-154.957,-14.039],[-155.424,-14.244],[-155.892,-14.447],[-156.361,-14.65]]}},{"type":"Feature","properties":{"boundary_type":"ridge","feature_type":"gpml:MidOceanRidge","polarity":null,"overriding_plate_id":null,"subducting_plate_id":null,"plate_ids":[302,90109],"name":""},"geometry":{"type":"LineString","coordinates":[[-156.361,-14.65],[-156.607,-14.756]]}},{"type":"Feature","properties":{"boundary_type":"subduction","feature_type":"gpml:SubductionZone","polarity":"Left","overriding_plate_id":201,"subducting_plate_id":501,"plate_ids":[201,501],"name":""},"geometry":{"type":"LineString","coordinates":[[108.708,-22.322],[108.849,-22.75],[108.991,-23.178],[109.133,-23.605],[109.276,-24.033],[109.536,-24.442],[109.796,-24.852],[110.059,-25.26],[110.323,-25.668],[110.59,-26.076],[110.858,-26.483],[111.128,-26.89],[111.4,-27.296],[111.673,-27.702],[111.949,-28.107],[112.227,-28.512],[112.508,-28.916],[112.79,-29.319],[113.075,-29.722],[113.361,-30.124],[113.651,-30.526],[113.942,-30.927],[114.236,-31.327],[114.641,-31.687],[115.049,-32.046],[115.46,-32.403],[115.875,-32.759],[116.292,-33.114],[116.714,-33.467],[117.138,-33.819],[117.566,-34.17],[117.998,-34.519],[118.433,-34.866],[118.872,-35.212],[119.315,-35.556],[119.761,-35.898],[120.211,-36.239],[120.666,-36.579],[121.124,-36.916],[121.586,-37.252],[122.053,-37.586],[122.523,-37.918],[122.998,-38.248],[123.478,-38.576]]}},{"type":"Feature","properties":{"boundary_type":"subduction","feature_type":"gpml:SubductionZone","polarity":"Right","overriding_plate_id":701,"subducting_plate_id":801,"plate_ids":[701,801],"name":""},"geometry":{"type":"LineString","coordinates":[[34.625,-18.27],[35.069,-18.407],[35.513,-18.542],[35.958,-18.676]]}},{"type":"Feature","properties":{"boundary_type":"subduction","feature_type":"gpml:SubductionZone","polarity":"Right","overriding_plate_id":501,"subducting_plate_id":801,"plate_ids":[501,801],"name":""},"geometry":{"type":"LineString","coordinates":[[35.958,-18.676],[36.457,-18.825],[36.957,-18.973],[37.458,-19.119],[37.96,-19.264],[38.463,-19.408],[38.967,-19.55],[39.471,-19.691],[39.977,-19.83],[40.483,-19.968],[40.99,-20.105],[41.499,-20.24],[42.008,-20.373],[42.517,-20.506],[43.028,-20.636],[43.54,-20.765],[44.052,-20.893],[44.566,-21.019],[45.08,-21.144],[45.595,-21.267],[46.111,-21.388],[46.628,-21.508],[47.145,-21.626],[47.664,-21.743],[48.183,-21.858],[48.703,-21.972],[49.224,-22.083],[49.746,-22.194],[50.269,-22.302],[50.792,-22.409],[51.316,-22.514],[51.841,-22.617],[52.367,-22.719],[52.893,-22.819],[53.421,-22.917],[53.949,-23.014],[54.478,-23.109],[55.007,-23.202],[55.538,-23.293],[56.069,-23.382],[56.6,-23.47],[57.133,-23.556],[57.666,-23.64],[58.2,-23.722],[58.734,-23.802],[59.269,-23.881],[59.805,-23.957],[60.341,-24.032],[60.878,-24.105],[61.416,-24.176],[61.954,-24.245],[62.493,-24.313],[63.032,-24.378],[63.572,-24.441],[64.113,-24.503],[64.654,-24.563],[65.195,-24.62],[65.737,-24.676],[66.279,-24.73],[66.822,-24.782],[67.366,-24.832],[67.909,-24.879],[68.454,-24.925],[68.998,-24.969],[69.543,-25.011],[70.088,-25.051],[70.634,-25.089],[71.18,-25.125],[71.726,-25.159],[72.276,-25.19],[72.827,-25.219],[73.377,-25.246],[73.928,-25.271],[74.479,-25.293],[75.031,-25.314],[75.582,-25.332],[76.134,-25.349],[76.685,-25.363],[77.237,-25.376],[77.789,-25.386],[78.341,-25.395],[78.893,-25.401],[79.445,-25.405],[79.998,-25.407],[80.55,-25.407],[81.102,-25.405],[81.654,-25.401],[82.206,-25.395],[82.758,-25.387],[83.31,-25.377],[83.862,-25.364],[84.414,-25.35],[84.965,-25.334],[85.517,-25.315],[86.068,-25.295],[86.619,-25.272],[87.17,-25.247],[87.721,-25.221],[88.271,-25.192],[88.821,-25.161],[89.371,-25.129],[89.92,-25.094],[90.469,-25.057],[91.018,-25.018],[91.567,-24.977],[92.115,-24.934],[92.663,-24.89],[93.21,-24.843],[93.757,-24.794],[94.303,-24.743],[94.849,-24.69],[95.395,-24.635],[95.94,-24.579],[96.484,-24.52],[97.028,-24.459],[97.572,-24.397],[98.115,-24.332],[98.657,-24.266],[99.199,-24.197],[99.74,-24.127],[100.281,-24.055],[100.821,-23.981],[101.36,-23.905],[101.899,-23.827],[102.437,-23.747],[102.974,-23.665],[103.511,-23.582],[104.047,-23.497],[104.583,-23.41],[105.117,-23.321],[105.651,-23.23],[106.184,-23.137],[106.686,-22.979],[107.187,-22.819],[107.687,-22.658],[108.185,-22.495],[108.682,-22.33]]}},{"type":"Feature","properties":{"boundary_type":"subduction","feature_type":"gpml:SubductionZone","polarity":"Right","overriding_plate_id":501,"subducting_plate_id":201,"plate_ids":[201,501],"name":""},"geometry":{"type":"LineString","coordinates":[[108.682,-22.33],[108.708,-22.322]]}},{"type":"Feature","properties":{"boundary_type":"ridge","feature_type":"gpml:MidOceanRidge","polarity":null,"overriding_plate_id":null,"subducting_plate_id":null,"plate_ids":[101,801],"name":""},"geometry":{"type":"LineString","coordinates":[[105.867,44.418],[106.444,44.473],[107.022,44.526],[107.602,44.576],[108.182,44.622],[108.304,44.148],[108.424,43.673],[108.542,43.198],[108.658,42.723],[108.773,42.248],[108.886,41.773],[108.997,41.298],[109.107,40.822],[109.215,40.347],[109.321,39.871],[109.426,39.395],[109.53,38.92],[109.632,38.444],[109.733,37.968],[109.832,37.492],[109.931,37.016],[110.028,36.539],[110.124,36.063],[110.219,35.587],[110.312,35.11],[110.405,34.634],[110.496,34.157],[110.587,33.681],[110.676,33.204],[111.255,33.25],[111.835,33.294],[112.415,33.335],[112.995,33.374],[113.577,33.41],[114.158,33.443],[114.74,33.473],[115.323,33.501],[115.905,33.526],[116.488,33.548],[117.072,33.567],[117.655,33.584],[118.239,33.598],[118.823,33.609],[119.407,33.617],[119.992,33.623],[120.576,33.626],[121.16,33.626],[121.744,33.624],[122.329,33.619],[122.913,33.611],[123.497,33.6],[124.081,33.586],[124.664,33.57],[125.248,33.551],[125.831,33.529],[126.414,33.505],[126.996,33.478],[127.578,33.448]]}},{"type":"Feature","properties":{"boundary_type":"ridge","feature_type":"gpml:MidOceanRidge","polarity":null,"overriding_plate_id":null,"subducting_plate_id":null,"plate_ids":[101,201],"name":""},"geometry":{"type":"LineString","coordinates":[[127.578,33.448],[128.125,33.417],[128.672,33.384],[129.218,33.349],[129.764,33.311],[130.309,33.271],[130.854,33.228]]}},{"type":"Feature","properties":{"boundary_type":"transform","feature_type":"gpml:Transform","polarity":null,"overriding_plate_id":null,"subducting_plate_id":null,"plate_ids":[101,90109],"name":""},"geometry":{"type":"LineString","coordinates":[[133.535,41.817],[133.371,41.35],[133.21,40.882],[133.05,40.414],[132.893,39.945],[132.738,39.477]]}},{"type":"Feature","properties":{"boundary_type":"transform","feature_type":"gpml:Transform","polarity":null,"overriding_plate_id":null,"subducting_plate_id":null,"plate_ids":[101,90110],"name":""},"geometry":{"type":"LineString","coordinates":[[132.738,39.477],[132.59,39.021],[132.443,38.565],[132.298,38.109],[132.155,37.653],[132.014,37.197],[131.875,36.74],[131.737,36.283],[131.6,35.827],[131.466,35.369],[131.332,34.912],[131.201,34.455],[131.07,33.998],[130.941,33.54]]}},{"type":"Feature","properties":{"boundary_type":"transform","feature_type":"gpml:Transform","polarity":null,"overriding_plate_id":null,"subducting_plate_id":null,"plate_ids":[101,201],"name":""},"geometry":{"type":"LineString","coordinates":[[130.941,33.54],[130.854,33.228]]}},{"type":"Feature","properties":{"boundary_type":"subduction","feature_type":"gpml:SubductionZone","polarity":"Left","overriding_plate_id":302,"subducting_plate_id":90109,"plate_ids":[302,90109],"name":""},"geometry":{"type":"LineString","coordinates":[[-178.479,24.509],[-178.247,24.11],[-178.017,23.71],[-177.788,23.31],[-177.56,22.91],[-177.334,22.509],[-177.11,22.109],[-176.886,21.707],[-176.689,21.271],[-176.492,20.834],[-176.297,20.397],[-176.103,19.96],[-175.91,19.522],[-175.718,19.085],[-175.527,18.647],[-175.337,18.209],[-175.148,17.77],[-174.96,17.332],[-174.773,16.893],[-174.587,16.455],[-174.401,16.016],[-174.217,15.577],[-174.033,15.137],[-173.795,14.73],[-173.557,14.323],[-173.321,13.916],[-173.085,13.508],[-172.851,13.101],[-172.616,12.693],[-172.383,12.284],[-172.151,11.876],[-171.919,11.467],[-171.688,11.059],[-171.457,10.65],[-171.227,10.24],[-170.998,9.831],[-170.775,9.4],[-170.552,8.968],[-170.33,8.536],[-170.109,8.105],[-169.888,7.673],[-169.667,7.241],[-169.447,6.808],[-169.227,6.376],[-169.008,5.944],[-168.789,5.511],[-168.57,5.079],[-168.352,4.646],[-168.134,4.214],[-167.916,3.781],[-167.698,3.348],[-167.43,2.946],[-167.162,2.543],[-166.895,2.141],[-166.628,1.738],[-166.361,1.335],[-166.093,0.933],[-165.826,0.53],[-165.559,0.127],[-165.292,-0.276],[-165.025,-0.678],[-164.758,-1.081],[-164.491,-1.484],[-164.224,-1.886],[-163.957,-2.289],[-163.689,-2.692],[-163.421,-3.094],[-163.153,-3.496],[-162.885,-3.899],[-162.617,-4.301],[-162.348,-4.703],[-162.079,-5.105],[-161.81,-5.507],[-161.54,-5.909],[-161.27,-6.311],[-161.0,-6.712],[-160.729,-7.114],[-160.458,-7.515],[-160.186,-7.916],[-159.966,-8.345],[-159.747,-8.773],[-159.527,-9.202],[-159.306,-9.63],[-159.085,-10.058],[-158.863,-10.486],[-158.641,-10.914],[-158.418,-11.341],[-158.194,-11.769],[-157.97,-12.196],[-157.745,-12.623],[-157.519,-13.05],[-157.292,-13.477],[-157.064,-13.903],[-156.836,-14.33],[-156.607,-14.756]]}},{"type":"Feature","properties":{"boundary_type":"ridge","feature_type":"gpml:MidOceanRidge","polarity":null,"overriding_plate_id":null,"subducting_plate_id":null,"plate_ids":[90109,90110],"name":""},"geometry":{"type":"LineString","coordinates":[[132.738,39.477],[133.338,39.311],[133.934,39.142],[134.528,38.97],[135.119,38.795],[135.707,38.616],[136.291,38.436],[136.873,38.252],[137.452,38.065],[138.028,37.875],[138.601,37.683],[139.171,37.488],[139.738,37.29],[140.302,37.089],[140.864,36.886],[141.422,36.681],[141.977,36.472],[142.529,36.261],[143.078,36.048],[143.624,35.832],[144.167,35.613],[144.707,35.392],[145.244,35.169],[145.778,34.944],[146.31,34.716],[146.838,34.485],[147.363,34.253],[147.886,34.018],[148.406,33.781],[148.922,33.542],[149.436,33.301],[149.947,33.058],[150.455,32.812],[150.961,32.565],[151.463,32.316],[151.963,32.064],[152.46,31.811],[152.954,31.556],[153.446,31.298],[153.935,31.039],[154.421,30.778],[154.905,30.516],[155.386,30.251],[155.864,29.985],[156.34,29.717],[156.814,29.448],[157.284,29.176],[157.753,28.903],[158.218,28.629],[158.682,28.353],[159.143,28.075],[159.602,27.796],[160.058,27.515],[160.512,27.233],[160.963,26.949],[161.413,26.664],[161.86,26.378],[162.305,26.09],[162.747,25.801],[163.188,25.51],[163.626,25.218],[164.063,24.925],[164.497,24.631],[164.88,24.908],[165.265,25.184],[165.652,25.459],[166.041,25.732],[166.431,26.005],[166.823,26.277],[167.217,26.548],[167.573,26.164],[167.926,25.779],[168.276,25.393],[168.625,25.006],[168.971,24.618],[169.315,24.23],[169.657,23.841],[169.997,23.451],[170.335,23.06],[170.671,22.669],[171.005,22.277],[171.338,21.884],[171.668,21.49],[171.997,21.096],[172.324,20.702],[172.649,20.306],[172.972,19.911],[173.294,19.514],[173.615,19.117],[173.933,18.719],[174.251,18.321],[174.567,17.923],[174.881,17.524],[175.194,17.124],[175.506,16.724],[175.816,16.323],[176.125,15.922],[176.433,15.521],[176.74,15.119],[177.046,14.716],[177.35,14.314],[177.653,13.911],[177.956,13.507],[178.257,13.103],[178.557,12.699],[178.856,12.295],[179.155,11.89],[179.452,11.485],[179.749,11.079],[-179.955,10.673],[179.631,10.405],[179.218,10.135],[178.806,9.865],[178.395,9.595],[177.984,9.324],[177.574,9.053],[177.165,8.781],[176.756,8.509],[176.347,8.237],[175.939,7.963],[175.532,7.69],[175.126,7.416],[175.323,6.957],[175.52,6.498],[175.716,6.039],[175.913,5.58],[176.109,5.121],[176.304,4.662],[176.5,4.202],[176.695,3.743],[176.89,3.284],[177.085,2.824],[177.279,2.365],[177.474,1.905],[177.668,1.446],[177.863,0.986],[178.057,0.527],[178.251,0.067],[178.446,-0.393],[178.64,-0.852],[178.834,-1.312],[179.029,-1.771],[179.223,-2.231],[179.418,-2.69],[179.613,-3.15],[179.807,-3.609],[-179.997,-4.068],[-179.802,-4.528],[-179.606,-4.987],[-179.411,-5.446],[-179.214,-5.905],[-179.018,-6.364],[-178.821,-6.824],[-179.29,-6.956],[-179.76,-7.088],[179.77,-7.22],[179.3,-7.351],[178.83,-7.482],[178.359,-7.612],[178.532,-8.071],[178.705,-8.529],[178.878,-8.988],[179.051,-9.446],[179.226,-9.905],[179.4,-10.363],[179.575,-10.822],[179.751,-11.28],[179.927,-11.738],[-179.896,-12.196],[-179.719,-12.654],[-179.541,-13.111],[-179.362,-13.569],[-179.182,-14.026],[-179.002,-14.484],[-178.821,-14.941],[-178.64,-15.398],[-178.457,-15.855],[-178.274,-16.312],[-178.09,-16.768],[-177.905,-17.225],[-177.719,-17.681],[-177.532,-18.137],[-177.344,-18.593],[-177.155,-19.049],[-176.966,-19.504],[-176.775,-19.96],[-176.582,-20.415],[-176.389,-20.87],[-176.195,-21.324],[-175.999,-21.779],[-175.802,-22.233],[-175.604,-22.687],[-175.405,-23.141],[-175.204,-23.594],[-175.002,-24.048],[-174.798,-24.501],[-174.593,-24.953],[-174.387,-25.406],[-174.178,-25.858],[-173.969,-26.31],[-173.757,-26.761],[-173.544,-27.213],[-173.329,-27.663],[-173.113,-28.114],[-172.894,-28.564],[-172.674,-29.014]]}},{"type":"Feature","properties":{"boundary_type":"ridge","feature_type":"gpml:MidOceanRidge","polarity":null,"overriding_plate_id":null,"subducting_plate_id":null,"plate_ids":[501,90109],"name":""},"geometry":{"type":"LineString","coordinates":[[-172.674,-29.014],[-172.524,-29.318],[-172.373,-29.622]]}},{"type":"Feature","properties":{"boundary_type":"subduction","feature_type":"gpml:SubductionZone","polarity":"Right","overriding_plate_id":201,"subducting_plate_id":90110,"plate_ids":[201,90110],"name":""},"geometry":{"type":"LineString","coordinates":[[130.941,33.54],[131.424,33.249],[131.904,32.957],[132.381,32.662],[132.854,32.366],[133.324,32.068],[133.792,31.769],[134.256,31.467],[134.717,31.164],[135.175,30.86],[135.631,30.554],[136.083,30.246],[136.533,29.937],[136.98,29.626],[137.424,29.313],[137.865,29.0],[138.304,28.684],[138.74,28.368],[139.174,28.05],[139.605,27.73],[140.033,27.41],[140.459,27.088],[140.883,26.764],[141.304,26.44],[141.722,26.114],[142.139,25.787],[142.553,25.459],[142.965,25.13],[143.374,24.799],[143.782,24.468],[144.187,24.135],[144.59,23.801],[144.991,23.467],[145.39,23.131],[145.788,22.794],[146.183,22.457],[146.576,22.118],[146.967,21.778],[147.357,21.438],[147.744,21.096],[148.13,20.754],[148.514,20.411],[148.897,20.067],[149.277,19.722],[149.656,19.376],[150.034,19.03],[150.41,18.683],[150.643,18.244],[150.874,17.805],[151.104,17.365],[151.334,16.925],[151.562,16.485],[151.789,16.045],[152.015,15.605],[152.24,15.164],[152.465,14.723],[152.688,14.282],[152.91,13.84],[153.132,13.399],[153.353,12.957],[153.573,12.515],[153.792,12.073],[154.011,11.63],[154.228,11.188],[154.446,10.745],[154.662,10.303],[154.878,9.86],[155.093,9.417],[155.308,8.973],[155.523,8.53],[155.736,8.087],[155.95,7.643],[156.163,7.199],[156.375,6.756],[156.587,6.312],[156.799,5.868],[157.01,5.424],[157.033,4.941],[157.056,4.458],[157.078,3.975],[157.101,3.492],[157.124,3.009],[157.147,2.526],[157.169,2.043],[157.192,1.559],[157.215,1.076],[157.237,0.593],[157.26,0.11],[157.282,-0.373],[157.305,-0.856],[157.328,-1.339],[157.35,-1.822],[157.373,-2.305],[157.396,-2.788],[157.418,-3.271],[157.441,-3.754],[157.464,-4.237],[157.487,-4.72],[157.509,-5.203],[157.532,-5.686],[157.555,-6.169],[157.578,-6.652],[157.452,-7.136],[157.326,-7.619],[157.199,-8.103],[157.072,-8.586],[156.945,-9.069],[156.817,-9.553],[156.689,-10.036],[156.561,-10.519],[156.432,-11.002],[156.303,-11.485],[156.173,-11.968],[156.043,-12.451],[155.913,-12.934],[155.782,-13.417],[155.65,-13.9],[155.518,-14.383],[155.385,-14.865],[155.252,-15.348],[155.118,-15.83],[154.983,-16.313],[154.848,-16.795],[154.712,-17.277],[154.575,-17.759],[154.438,-18.241],[154.3,-18.723],[154.161,-19.205],[154.021,-19.687],[153.88,-20.169],[153.77,-20.652],[153.659,-21.135],[153.548,-21.618],[153.435,-22.101],[153.322,-22.583],[153.208,-23.066],[153.093,-23.549],[152.977,-24.031],[152.861,-24.514],[152.743,-24.996],[152.625,-25.478],[152.506,-25.961],[152.385,-26.443],[152.264,-26.925],[152.142,-27.407],[152.018,-27.888],[151.894,-28.37],[151.768,-28.852],[151.641,-29.333],[151.513,-29.814],[151.384,-30.295],[151.253,-30.777],[151.121,-31.257],[150.988,-31.738],[150.854,-32.219],[150.718,-32.699],[150.58,-33.18],[150.441,-33.66],[150.3,-34.14]]}},{"type":"Feature","properties":{"boundary_type":"subduction","feature_type":"gpml:SubductionZone","polarity":"Left","overriding_plate_id":201,"subducting_plate_id":801,"plate_ids":[201,801],"name":""},"geometry":{"type":"LineString","coordinates":[[116.747,0.428],[116.35,0.191],[115.953,-0.046],[115.556,-0.284],[115.159,-0.521],[114.762,-0.758],[114.364,-0.995],[113.967,-1.233],[113.57,-1.47],[113.173,-1.707],[112.775,-1.944],[112.377,-2.181],[112.172,-2.613],[111.966,-3.046],[111.76,-3.478],[111.554,-3.911],[111.348,-4.343],[111.141,-4.775],[110.934,-5.208],[110.727,-5.64],[110.52,-6.072],[110.312,-6.504],[110.104,-6.936],[109.895,-7.368],[109.686,-7.799],[109.477,-8.231],[109.267,-8.663],[109.057,-9.094],[108.846,-9.525],[108.635,-9.957],[108.423,-10.388],[108.379,-10.873],[108.334,-11.359],[108.29,-11.844],[108.246,-12.33],[108.201,-12.815],[108.156,-13.301],[108.111,-13.786],[108.066,-14.272],[108.021,-14.757],[107.975,-15.243],[107.929,-15.728],[107.883,-16.214],[107.837,-16.699],[107.855,-17.185],[107.873,-17.67],[107.891,-18.156],[107.909,-18.642],[107.928,-19.127],[107.946,-19.613],[107.965,-20.099],[107.983,-20.584],[108.156,-21.021],[108.331,-21.458],[108.506,-21.894],[108.682,-22.33]]}},{"type":"Feature","properties":{"boundary_type":"transform","feature_type":"gpml:Transform","polarity":null,"overriding_plate_id":null,"subducting_plate_id":null,"plate_ids":[201,801],"name":""},"geometry":{"type":"LineString","coordinates":[[127.578,33.448],[127.302,33.056],[127.028,32.664],[126.757,32.272],[126.488,31.878],[126.221,31.484],[125.957,31.09],[125.695,30.695],[125.435,30.3],[125.177,29.904],[124.899,29.468],[124.624,29.031],[124.351,28.593],[124.08,28.155],[123.811,27.717],[123.545,27.278],[123.281,26.838],[123.018,26.398],[122.758,25.958],[122.5,25.517],[122.244,25.075],[121.989,24.633],[121.736,24.191],[121.485,23.749],[121.236,23.305],[120.988,22.862],[120.742,22.418],[120.498,21.974],[120.255,21.529],[120.013,21.084],[119.773,20.639],[119.535,20.194],[119.297,19.748],[119.141,19.286],[118.985,18.825],[118.83,18.363],[118.676,17.902],[118.523,17.44],[118.37,16.978],[118.218,16.516],[118.067,16.054],[117.917,15.591],[117.767,15.129],[117.618,14.667],[117.47,14.204],[117.322,13.742],[117.175,13.279],[117.028,12.816],[117.006,12.333],[116.983,11.85],[116.96,11.367],[116.938,10.884],[116.916,10.401],[116.893,9.918],[116.871,9.435],[116.849,8.952],[116.827,8.469],[116.805,7.986],[116.783,7.503],[116.761,7.02],[116.739,6.536],[116.717,6.053],[116.695,5.57],[116.673,5.087],[116.652,4.604],[116.63,4.121],[116.608,3.638],[116.628,3.18],[116.648,2.721],[116.668,2.263],[116.687,1.804],[116.707,1.345],[116.727,0.887],[116.747,0.428]]}},{"type":"Feature","properties":{"boundary_type":"ridge","feature_type":"gpml:MidOceanRidge","polarity":null,"overriding_plate_id":null,"subducting_plate_id":null,"plate_ids":[501,90110],"name":""},"geometry":{"type":"LineString","coordinates":[[-172.674,-29.014],[-173.232,-29.005],[-173.791,-28.995],[-174.349,-28.981],[-174.907,-28.966],[-175.464,-28.948],[-176.022,-28.928],[-176.579,-28.905],[-177.136,-28.881],[-177.693,-28.853],[-178.249,-28.824],[-178.805,-28.793],[-179.361,-28.759],[-179.917,-28.723],[179.528,-28.684],[178.974,-28.643],[178.42,-28.601],[177.866,-28.555],[177.313,-28.508],[176.76,-28.458],[176.208,-28.406],[175.656,-28.352],[175.105,-28.296],[174.555,-28.237],[174.005,-28.177],[173.456,-28.114],[172.907,-28.049],[172.359,-27.981],[171.812,-27.912],[171.266,-27.84],[170.72,-27.766],[170.175,-27.69],[169.631,-27.612],[169.088,-27.532],[168.545,-27.45],[168.424,-27.891],[168.302,-28.332],[168.179,-28.773],[168.055,-29.213],[167.93,-29.654],[167.804,-30.094],[167.677,-30.535],[167.549,-30.975],[167.419,-31.415],[166.86,-31.36],[166.302,-31.302],[165.744,-31.242],[165.187,-31.18],[164.631,-31.115],[164.076,-31.048],[163.521,-30.979],[162.967,-30.907],[162.414,-30.833],[161.862,-30.756],[161.311,-30.678],[160.761,-30.596],[160.211,-30.513],[159.663,-30.427],[159.116,-30.339],[158.569,-30.249],[158.024,-30.156],[157.479,-30.061],[156.936,-29.964],[156.394,-29.865],[155.853,-29.763],[155.313,-29.66],[154.774,-29.554],[154.236,-29.446]]}},{"type":"Feature","properties":{"boundary_type":"transform","feature_type":"gpml:Transform","polarity":null,"overriding_plate_id":null,"subducting_plate_id":null,"plate_ids":[501,90110],"name":""},"geometry":{"type":"LineString","coordinates":[[154.236,-29.446],[153.923,-29.841],[153.607,-30.236],[153.289,-30.63],[152.968,-31.024],[152.644,-31.416],[152.318,-31.808],[151.989,-32.199],[151.657,-32.589],[151.323,-32.978],[150.985,-33.366],[150.644,-33.754],[150.3,-34.14]]}},{"type":"Feature","properties":{"boundary_type":"transform","feature_type":"gpml:Transform","polarity":null,"overriding_plate_id":null,"subducting_plate_id":null,"plate_ids":[201,501],"name":""},"geometry":{"type":"LineString","coordinates":[[150.3,-34.14],[149.94,-34.541],[149.575,-34.941],[149.207,-35.339],[148.835,-35.737],[148.46,-36.133],[148.081,-36.529],[147.698,-36.923],[147.311,-37.315],[146.762,-37.51],[146.211,-37.701],[145.657,-37.891],[145.1,-38.077],[144.54,-38.261],[143.978,-38.443],[143.412,-38.621],[142.844,-38.797],[142.273,-38.97],[141.699,-39.14],[141.123,-39.308],[140.543,-39.472],[139.961,-39.634],[139.377,-39.793],[138.728,-39.799],[138.078,-39.802],[137.429,-39.801],[136.78,-39.797],[136.131,-39.789],[135.483,-39.778],[134.834,-39.762],[134.186,-39.744],[133.538,-39.721],[132.891,-39.695],[132.244,-39.665],[131.598,-39.632],[130.952,-39.596],[130.307,-39.555],[129.663,-39.511],[129.02,-39.464],[128.378,-39.413],[127.736,-39.358],[127.122,-39.256],[126.51,-39.151],[125.9,-39.042],[125.291,-38.93],[124.685,-38.815],[124.08,-38.697],[123.478,-38.576]]}},{"type":"Feature","properties":{"boundary_type":"ridge","feature_type":"gpml:MidOceanRidge","polarity":null,"overriding_plate_id":null,"subducting_plate_id":null,"plate_ids":[501,90109],"name":""},"geometry":{"type":"LineString","coordinates":[[-156.361,-14.65],[-156.496,-15.11],[-156.633,-15.57],[-156.769,-16.03],[-156.907,-16.49],[-157.045,-16.95],[-157.183,-17.409],[-157.323,-17.869],[-157.463,-18.328],[-157.604,-18.788],[-157.745,-19.247],[-157.888,-19.706],[-158.031,-20.165],[-158.175,-20.624],[-158.32,-21.083],[-158.466,-21.541],[-158.612,-22.0],[-158.76,-22.458],[-158.909,-22.917],[-159.404,-22.737],[-159.898,-22.557],[-160.39,-22.374],[-160.881,-22.191],[-161.371,-22.005],[-161.859,-21.819],[-162.347,-21.631],[-162.833,-21.441],[-163.317,-21.25],[-163.801,-21.058],[-164.283,-20.864],[-164.764,-20.669],[-165.244,-20.473],[-165.722,-20.275],[-165.992,-20.687],[-166.263,-21.099],[-166.536,-21.51],[-166.81,-21.921],[-167.086,-22.331],[-167.364,-22.741],[-167.643,-23.15],[-167.924,-23.559],[-168.207,-23.967],[-168.491,-24.375],[-168.777,-24.782],[-169.065,-25.189],[-169.356,-25.595],[-169.648,-26.0],[-169.942,-26.405],[-170.238,-26.81],[-170.536,-27.213],[-170.837,-27.616],[-171.139,-28.019],[-171.444,-28.421],[-171.752,-28.822],[-172.061,-29.222],[-172.373,-29.622]]}},{"type":"Feature","properties":{"boundary_type":"ridge","feature_type":"gpml:MidOceanRidge","polarity":null,"overriding_plate_id":null,"subducting_plate_id":null,"plate_ids":[101,602],"name":""},"geometry":{"type":"LineString","coordinates":[[-68.81,37.735],[-69.33,37.564],[-69.847,37.39],[-70.362,37.214],[-70.874,37.036],[-71.384,36.855],[-71.891,36.673],[-72.397,36.488],[-72.899,36.301],[-73.399,36.112],[-73.182,35.662],[-72.967,35.211],[-72.754,34.76],[-72.544,34.309],[-72.336,33.857],[-72.13,33.405],[-71.926,32.952],[-71.725,32.5],[-71.525,32.047],[-71.327,31.593],[-71.132,31.14],[-70.938,30.686],[-70.746,30.231],[-70.555,29.777],[-70.367,29.322],[-70.18,28.867],[-69.995,28.412],[-69.811,27.956],[-69.629,27.5],[-70.13,27.315],[-70.63,27.127],[-71.129,26.938],[-71.625,26.748],[-72.12,26.555],[-72.613,26.361],[-72.382,25.913],[-72.153,25.466],[-71.925,25.018],[-71.699,24.57],[-71.474,24.121],[-71.252,23.672],[-71.03,23.223],[-70.81,22.773],[-70.592,22.323],[-70.375,21.873],[-70.159,21.423],[-69.945,20.972],[-70.419,20.788],[-70.893,20.603],[-71.365,20.416],[-71.836,20.228],[-72.307,20.039],[-72.775,19.849],[-73.243,19.657],[-73.71,19.465],[-74.175,19.271],[-74.64,19.076],[-75.103,18.879],[-75.566,18.682],[-76.027,18.483],[-76.487,18.284],[-76.946,18.083],[-77.404,17.881],[-77.629,18.271],[-77.854,18.661],[-78.081,19.05],[-78.309,19.439],[-78.538,19.828],[-78.768,20.217],[-79.0,20.605],[-79.232,20.993],[-79.717,20.786],[-80.2,20.578],[-80.682,20.368],[-81.163,20.158],[-81.642,19.945],[-82.12,19.732],[-82.597,19.517],[-83.072,19.301],[-83.547,19.084],[-84.02,18.865],[-84.491,18.646],[-84.962,18.425],[-85.431,18.203],[-85.899,17.98],[-86.366,17.756],[-86.832,17.53],[-87.297,17.304],[-87.76,17.076],[-88.223,16.848],[-88.684,16.618],[-89.144,16.388],[-89.603,16.156],[-90.061,15.924],[-90.518,15.69],[-90.974,15.456],[-91.429,15.22],[-91.883,14.984],[-92.335,14.747],[-92.787,14.509],[-93.238,14.27],[-93.688,14.03],[-94.137,13.789],[-94.585,13.548],[-95.032,13.306],[-95.478,13.063],[-95.924,12.819],[-96.368,12.574],[-96.812,12.329],[-97.254,12.083],[-97.696,11.836],[-98.138,11.589],[-98.461,11.974],[-98.785,12.359],[-99.11,12.744],[-99.436,13.128],[-99.762,13.512],[-100.09,13.895],[-100.42,14.278],[-100.75,14.661],[-101.081,15.042],[-101.414,15.424],[-101.747,15.805],[-102.082,16.185],[-102.419,16.565],[-102.756,16.945],[-103.095,17.324],[-103.436,17.702],[-103.778,18.08]]}},{"type":"Feature","properties":{"boundary_type":"transform","feature_type":"gpml:Transform","polarity":null,"overriding_plate_id":null,"subducting_plate_id":null,"plate_ids":[701,801],"name":""},"geometry":{"type":"LineString","coordinates":[[57.426,18.801],[57.241,18.342],[57.058,17.884],[56.875,17.425],[56.693,16.967],[56.512,16.508],[56.332,16.049],[56.153,15.589],[55.975,15.13],[55.797,14.67],[55.621,14.211],[55.444,13.751],[55.269,13.291],[55.094,12.831],[54.92,12.371],[54.747,11.91],[54.574,11.45],[54.401,10.99],[54.23,10.529],[54.058,10.068],[53.887,9.608],[53.717,9.147],[53.547,8.686],[53.378,8.225],[53.209,7.764],[53.04,7.303],[52.871,6.841],[52.703,6.38],[52.536,5.919],[52.368,5.458],[52.201,4.996],[52.034,4.535],[51.867,4.073],[51.701,3.612],[51.534,3.15],[51.368,2.689],[51.202,2.227],[51.036,1.765],[50.87,1.304],[50.704,0.842],[50.538,0.38],[50.268,-0.027],[49.998,-0.434],[49.728,-0.842],[49.458,-1.249],[49.187,-1.656],[48.917,-2.063],[48.647,-2.471],[48.376,-2.878],[48.105,-3.285],[47.834,-3.692],[47.563,-4.099],[47.291,-4.505],[47.019,-4.912],[46.747,-5.319],[46.474,-5.725],[46.201,-6.132],[45.928,-6.538],[45.654,-6.944],[45.38,-7.35],[45.105,-7.756],[44.829,-8.161],[44.554,-8.567],[44.277,-8.972],[44.0,-9.377],[43.722,-9.782],[43.444,-10.186],[43.165,-10.59],[42.843,-10.948],[42.521,-11.305],[42.198,-11.662],[41.874,-12.019],[41.549,-12.375],[41.224,-12.731],[40.897,-13.086],[40.57,-13.441],[40.242,-13.796],[39.912,-14.15],[39.582,-14.504],[39.25,-14.857],[38.918,-15.21],[38.584,-15.562],[38.249,-15.914],[37.851,-16.179],[37.452,-16.443],[37.051,-16.706],[36.65,-16.969],[36.247,-17.231],[35.844,-17.492],[35.439,-17.752],[35.033,-18.012],[34.625,-18.27]]}},{"type":"Feature","properties":{"boundary_type":"subduction","feature_type":"gpml:SubductionZone","polarity":"Right","overriding_plate_id":701,"subducting_plate_id":801,"plate_ids":[701,801],"name":""},"geometry":{"type":"LineString","coordinates":[[28.713,36.978],[29.235,36.892],[29.756,36.804],[30.275,36.714],[30.793,36.622],[31.31,36.527],[31.865,36.361],[32.417,36.193],[32.966,36.022],[33.514,35.848],[34.058,35.672],[34.601,35.494],[35.141,35.313],[35.678,35.129],[36.214,34.944],[36.746,34.756],[37.277,34.566],[37.804,34.373],[38.33,34.178],[38.853,33.981],[39.373,33.782],[39.891,33.581],[40.407,33.377],[40.88,33.102],[41.35,32.826],[41.817,32.547],[42.282,32.267],[42.743,31.985],[43.201,31.702],[43.657,31.417],[44.11,31.13],[44.56,30.842],[45.008,30.552],[45.453,30.261],[45.895,29.968],[46.334,29.674],[46.771,29.378],[47.206,29.081],[47.638,28.783],[48.067,28.483],[48.494,28.182],[48.919,27.879],[49.341,27.575],[49.761,27.27],[50.179,26.964],[50.594,26.656],[50.939,26.289],[51.281,25.922],[51.621,25.553],[51.959,25.184],[52.295,24.813],[52.629,24.443],[52.961,24.071],[53.291,23.699],[53.62,23.326],[53.946,22.952],[54.271,22.578],[54.593,22.203],[54.914,21.827],[55.234,21.451],[55.552,21.074],[55.868,20.696],[56.182,20.318],[56.495,19.94],[56.807,19.561],[57.117,19.181],[57.426,18.801]]}},{"type":"Feature","properties":{"boundary_type":"subduction","feature_type":"gpml:SubductionZone","polarity":"Left","overriding_plate_id":701,"subducting_plate_id":501,"plate_ids":[501,701],"name":""},"geometry":{"type":"LineString","coordinates":[[17.093,-34.369],[17.563,-34.077],[18.03,-33.782],[18.493,-33.486],[18.953,-33.188],[19.411,-32.889],[19.865,-32.588],[20.316,-32.285],[20.764,-31.981],[21.209,-31.675],[21.651,-31.367],[22.09,-31.059],[22.526,-30.748],[22.96,-30.436],[23.39,-30.123],[23.818,-29.808],[24.244,-29.492],[24.666,-29.175],[25.087,-28.856],[25.504,-28.536],[25.919,-28.215],[26.331,-27.892],[26.742,-27.569],[27.149,-27.244],[27.554,-26.917],[27.957,-26.59],[28.358,-26.262],[28.74,-25.909],[29.12,-25.556],[29.497,-25.201],[29.873,-24.846],[30.246,-24.489],[30.617,-24.132],[30.986,-23.774],[31.353,-23.415],[31.718,-23.055],[32.081,-22.694],[32.443,-22.332],[32.802,-21.97],[33.159,-21.607],[33.515,-21.243],[33.869,-20.878],[34.221,-20.513],[34.572,-20.147],[34.921,-19.78],[35.268,-19.413],[35.614,-19.045],[35.958,-18.676]]}}]}