{"type":"FeatureCollection","meta":{"model":"Cao2024","reconstruction_time_ma":1485.0,"anchor_plate_id":0,"pygplates_version":"1.0.0","tessellate_degrees":0.5,"polarity_convention":"gpml:subductionPolarity. 'Left'/'Right' names the side of the line, in vertex order, on which the OVERRIDING plate lies. Triangles are drawn on that side.","antimeridian":"Lines are NOT split at +/-180 deg. The renderer works in 3D unit vectors where the dateline is not special; splitting would only add spurious breaks. Do not treat this as RFC 7946 GIS-ready 2D data."},"features":[{"type":"Feature","properties":{"boundary_type":"subduction","feature_type":"gpml:SubductionZone","polarity":"Left","overriding_plate_id":101,"subducting_plate_id":10105,"plate_ids":[101,10105],"name":"eastern Laurentia-greenland-western baltica"},"geometry":{"type":"LineString","coordinates":[[-165.317,28.24],[-165.356,27.896],[-165.267,27.426],[-165.178,26.956],[-165.091,26.486],[-165.004,26.016],[-164.918,25.546],[-164.832,25.076],[-164.747,24.605],[-164.663,24.135],[-164.58,23.665],[-164.497,23.195],[-164.414,22.724],[-164.333,22.254],[-164.251,21.784],[-164.171,21.313],[-164.09,20.843],[-164.011,20.372],[-163.931,19.902],[-163.853,19.431],[-163.792,18.96],[-163.732,18.488],[-163.672,18.017],[-163.612,17.546],[-163.553,17.075],[-163.494,16.603],[-163.435,16.132],[-163.376,15.66],[-163.318,15.189],[-163.26,14.718],[-163.202,14.246],[-163.145,13.775],[-163.088,13.303],[-163.031,12.832],[-162.974,12.36]]}},{"type":"Feature","properties":{"boundary_type":"subduction","feature_type":"gpml:SubductionZone","polarity":"Left","overriding_plate_id":101,"subducting_plate_id":201,"plate_ids":[101,201],"name":"eastern Laurentia-greenland-western baltica"},"geometry":{"type":"LineString","coordinates":[[-162.974,12.36],[-162.92,11.912],[-162.866,11.463],[-162.813,11.014]]}},{"type":"Feature","properties":{"boundary_type":"subduction","feature_type":"gpml:SubductionZone","polarity":"Left","overriding_plate_id":101,"subducting_plate_id":911001,"plate_ids":[101,911001],"name":"eastern Laurentia-greenland-western baltica"},"geometry":{"type":"LineString","coordinates":[[-162.813,11.014],[-162.766,10.619],[-162.719,10.224]]}},{"type":"Feature","properties":{"boundary_type":"subduction","feature_type":"gpml:SubductionZone","polarity":"Left","overriding_plate_id":101,"subducting_plate_id":911001,"plate_ids":[101,911001],"name":"Indo-Antarctica_SZ"},"geometry":{"type":"LineString","coordinates":[[-154.623,-18.352],[-154.591,-18.809],[-154.559,-19.266],[-154.527,-19.723],[-154.494,-20.18],[-154.462,-20.636],[-154.429,-21.093],[-154.396,-21.55],[-154.559,-22.006],[-154.724,-22.462],[-154.889,-22.917],[-155.056,-23.372],[-155.224,-23.827],[-155.392,-24.282],[-155.563,-24.736],[-155.734,-25.191],[-155.907,-25.645],[-156.081,-26.099],[-156.256,-26.553],[-156.433,-27.007],[-156.611,-27.46],[-156.791,-27.913],[-156.994,-28.37],[-157.198,-28.827],[-157.405,-29.283],[-157.613,-29.739],[-157.823,-30.195],[-158.036,-30.65],[-158.25,-31.105],[-158.466,-31.56],[-158.684,-32.014],[-158.905,-32.468],[-159.128,-32.921],[-159.353,-33.375],[-159.467,-33.861],[-159.583,-34.348],[-159.7,-34.834],[-159.819,-35.32],[-159.939,-35.807],[-160.06,-36.293],[-160.183,-36.779],[-160.308,-37.264],[-160.434,-37.75],[-160.562,-38.236],[-160.691,-38.721],[-160.822,-39.206],[-160.956,-39.691],[-161.091,-40.176],[-161.039,-40.672],[-160.987,-41.168],[-160.934,-41.664],[-160.88,-42.161],[-160.825,-42.656],[-160.769,-43.152],[-160.713,-43.648],[-160.655,-44.144],[-160.597,-44.64],[-160.537,-45.136],[-160.477,-45.632],[-160.415,-46.128],[-160.352,-46.623],[-160.296,-46.742]]}},{"type":"Feature","properties":{"boundary_type":"subduction","feature_type":"gpml:SubductionZone","polarity":"Right","overriding_plate_id":101,"subducting_plate_id":90107,"plate_ids":[101,90107],"name":"NorthChina_SZ"},"geometry":{"type":"LineString","coordinates":[[-85.314,23.369],[-85.001,23.202],[-84.689,23.034],[-84.343,22.682],[-83.998,22.329],[-83.655,21.976],[-83.314,21.622],[-82.975,21.267],[-82.638,20.912],[-82.301,20.555],[-81.967,20.199],[-81.823,19.746],[-81.679,19.293],[-81.537,18.84],[-81.395,18.387],[-81.254,17.934],[-81.113,17.481],[-80.974,17.027],[-80.835,16.574],[-80.696,16.12],[-80.558,15.667],[-80.729,15.232],[-80.898,14.797],[-81.067,14.363],[-81.235,13.928],[-81.403,13.493],[-81.57,13.058],[-81.736,12.623],[-81.902,12.187],[-82.067,11.752],[-82.232,11.316],[-82.396,10.881],[-82.56,10.445],[-82.723,10.009],[-83.007,9.618],[-83.291,9.227],[-83.573,8.835],[-83.856,8.444],[-84.137,8.052],[-84.418,7.66],[-84.699,7.267],[-84.979,6.875],[-85.258,6.482],[-85.537,6.089]]}},{"type":"Feature","properties":{"boundary_type":"subduction","feature_type":"gpml:SubductionZone","polarity":"Right","overriding_plate_id":101,"subducting_plate_id":80101,"plate_ids":[101,80101],"name":"SouthAustralia_SZ"},"geometry":{"type":"LineString","coordinates":[[-99.704,52.897],[-99.391,52.548],[-99.032,52.143],[-98.679,51.738],[-98.333,51.331],[-97.993,50.924],[-97.658,50.515],[-97.33,50.106],[-97.007,49.695],[-96.689,49.284],[-96.603,48.794],[-96.518,48.304],[-96.435,47.814],[-96.354,47.324],[-96.274,46.834],[-96.196,46.344],[-96.119,45.853],[-96.043,45.363],[-95.968,44.873],[-95.895,44.382],[-95.823,43.892],[-95.753,43.401],[-95.683,42.911]]}},{"type":"Feature","properties":{"boundary_type":"subduction","feature_type":"gpml:SubductionZone","polarity":"Left","overriding_plate_id":101,"subducting_plate_id":90106,"plate_ids":[101,90106],"name":"Eastern_Laurentia_SZ"},"geometry":{"type":"LineString","coordinates":[[-167.664,66.951],[-168.177,66.643],[-168.508,66.188],[-168.827,65.732],[-169.134,65.275],[-169.432,64.818],[-169.719,64.36],[-169.997,63.902],[-170.266,63.443],[-170.526,62.983],[-170.584,62.538],[-170.641,62.092],[-170.695,61.646]]}},{"type":"Feature","properties":{"boundary_type":"subduction","feature_type":"gpml:SubductionZone","polarity":"Left","overriding_plate_id":101,"subducting_plate_id":10105,"plate_ids":[101,10105],"name":"Eastern_Laurentia_SZ"},"geometry":{"type":"LineString","coordinates":[[-170.695,61.646],[-170.752,61.174],[-170.806,60.702],[-170.859,60.23],[-170.911,59.758],[-170.961,59.286],[-171.009,58.814],[-171.057,58.342],[-171.103,57.87],[-171.148,57.398],[-171.192,56.926],[-171.225,56.432],[-171.258,55.937],[-171.289,55.443],[-171.32,54.948],[-171.35,54.454],[-171.38,53.959],[-171.409,53.465],[-171.437,52.97],[-171.464,52.475],[-171.491,51.981],[-171.517,51.486],[-171.543,50.992],[-171.581,50.53],[-171.619,50.067],[-171.655,49.605],[-171.691,49.143],[-171.727,48.681],[-171.761,48.218],[-171.795,47.756],[-171.829,47.294],[-171.862,46.831],[-171.894,46.369],[-171.926,45.907],[-171.796,45.433],[-171.669,44.959],[-171.544,44.485],[-171.421,44.011],[-171.3,43.536],[-171.181,43.062],[-171.064,42.587],[-170.948,42.112],[-170.835,41.637],[-170.722,41.162],[-170.612,40.687],[-170.397,40.226],[-170.185,39.764],[-169.976,39.302],[-169.769,38.839],[-169.565,38.377],[-169.364,37.913],[-169.165,37.45],[-168.969,36.986],[-168.775,36.522],[-168.584,36.057],[-168.394,35.592],[-168.207,35.127],[-168.022,34.662],[-167.839,34.196],[-167.633,33.74],[-167.43,33.283],[-167.228,32.826],[-167.029,32.369],[-166.831,31.911],[-166.636,31.454],[-166.442,30.995],[-166.25,30.537],[-166.06,30.078],[-165.872,29.619],[-165.685,29.16],[-165.501,28.7],[-165.317,28.24]]}},{"type":"Feature","properties":{"boundary_type":"subduction","feature_type":"gpml:SubductionZone","polarity":"Left","overriding_plate_id":101,"subducting_plate_id":90107,"plate_ids":[101,90107],"name":"South_NorthAustralia_SZ"},"geometry":{"type":"LineString","coordinates":[[-85.314,23.369],[-85.346,23.838],[-85.378,24.308],[-85.411,24.777],[-85.444,25.246],[-85.477,25.715],[-85.51,26.184],[-85.544,26.654],[-85.578,27.123],[-85.612,27.592],[-85.646,28.061],[-85.681,28.531],[-85.716,29.0]]}},{"type":"Feature","properties":{"boundary_type":"subduction","feature_type":"gpml:SubductionZone","polarity":"Left","overriding_plate_id":101,"subducting_plate_id":90106,"plate_ids":[101,90106],"name":"South_NorthAustralia_SZ"},"geometry":{"type":"LineString","coordinates":[[-85.716,29.0],[-85.752,29.479],[-85.789,29.959],[-85.826,30.438],[-85.863,30.918],[-85.901,31.397],[-85.939,31.877],[-85.977,32.356],[-86.016,32.836],[-86.055,33.315]]}},{"type":"Feature","properties":{"boundary_type":"subduction","feature_type":"gpml:SubductionZone","polarity":"Left","overriding_plate_id":101,"subducting_plate_id":80101,"plate_ids":[101,80101],"name":"South_NorthAustralia_SZ"},"geometry":{"type":"LineString","coordinates":[[-86.055,33.315],[-86.086,33.686],[-86.117,34.058],[-86.371,34.494],[-86.627,34.929],[-86.887,35.364],[-87.149,35.798],[-87.414,36.232],[-87.683,36.665],[-87.954,37.097],[-88.228,37.529],[-88.506,37.96],[-88.786,38.391],[-89.07,38.82],[-89.358,39.25],[-89.649,39.678],[-89.944,40.106],[-90.242,40.533],[-90.545,40.959],[-91.1,41.187],[-91.659,41.412],[-92.222,41.635],[-92.789,41.854],[-93.36,42.071],[-93.935,42.286],[-94.514,42.497],[-95.096,42.705],[-95.683,42.911]]}},{"type":"Feature","properties":{"boundary_type":"subduction","feature_type":"gpml:SubductionZone","polarity":"Left","overriding_plate_id":101,"subducting_plate_id":80101,"plate_ids":[101,80101],"name":"NorthwesternMawson_SZ"},"geometry":{"type":"LineString","coordinates":[[-99.704,52.897],[-99.412,53.353],[-99.114,53.808],[-98.81,54.262],[-98.498,54.715],[-98.18,55.167],[-97.821,55.589],[-97.454,56.009],[-97.079,56.429],[-96.695,56.847],[-96.303,57.264],[-95.902,57.68],[-95.492,58.094],[-95.072,58.507]]}},{"type":"Feature","properties":{"boundary_type":"subduction","feature_type":"gpml:SubductionZone","polarity":"Left","overriding_plate_id":101,"subducting_plate_id":90106,"plate_ids":[101,90106],"name":"NorthwesternMawson_SZ"},"geometry":{"type":"LineString","coordinates":[[-95.072,58.507],[-95.039,58.539],[-94.667,58.949],[-94.285,59.358],[-93.894,59.765],[-93.493,60.172],[-93.082,60.577],[-92.661,60.981],[-92.438,61.429],[-92.208,61.877],[-91.972,62.324],[-91.728,62.771],[-91.477,63.217],[-91.218,63.663],[-91.536,64.118],[-91.865,64.572],[-92.205,65.026],[-92.557,65.479],[-92.921,65.931],[-93.816,66.226],[-94.732,66.516],[-95.67,66.8],[-96.629,67.079],[-97.61,67.352],[-98.614,67.619],[-99.64,67.879],[-100.69,68.133],[-101.762,68.38],[-102.975,68.513],[-104.203,68.637],[-105.443,68.752],[-106.696,68.858],[-107.96,68.955],[-109.234,69.042],[-110.519,69.12],[-111.812,69.188],[-113.112,69.246],[-114.419,69.295],[-115.731,69.333],[-117.035,69.46],[-118.354,69.576],[-119.687,69.683],[-121.033,69.78],[-122.39,69.866],[-123.758,69.941],[-125.134,70.006],[-126.519,70.061],[-127.911,70.104],[-129.307,70.137],[-130.707,70.159],[-132.11,70.17],[-133.458,70.241],[-134.815,70.303],[-136.179,70.354],[-137.549,70.395],[-138.925,70.426],[-140.303,70.446],[-141.684,70.455],[-143.065,70.454],[-144.446,70.443],[-145.824,70.421],[-147.198,70.389],[-148.568,70.346],[-149.931,70.293],[-151.275,70.132],[-152.598,69.961],[-153.898,69.78],[-155.176,69.59],[-156.431,69.39],[-157.662,69.182],[-158.869,68.965],[-160.052,68.74],[-161.212,68.507],[-162.347,68.266],[-163.458,68.017],[-164.545,67.761],[-165.608,67.498],[-166.648,67.228],[-167.664,66.951]]}},{"type":"Feature","properties":{"boundary_type":"subduction","feature_type":"gpml:SubductionZone","polarity":"Right","overriding_plate_id":101,"subducting_plate_id":90107,"plate_ids":[101,90107],"name":"SaoFrancisco_SZ"},"geometry":{"type":"LineString","coordinates":[[-71.887,-11.466],[-71.707,-11.88],[-71.527,-12.293],[-71.346,-12.706],[-71.165,-13.119],[-70.983,-13.531],[-70.8,-13.944],[-70.617,-14.357],[-70.433,-14.769],[-70.279,-15.243],[-70.124,-15.718],[-69.968,-16.192],[-69.811,-16.666],[-69.653,-17.14],[-69.495,-17.613],[-69.336,-18.087],[-69.176,-18.561],[-69.015,-19.034],[-68.854,-19.507],[-68.691,-19.98],[-68.527,-20.453],[-68.362,-20.926],[-68.197,-21.399],[-68.03,-21.871],[-67.862,-22.344],[-67.693,-22.816],[-67.523,-23.288],[-67.351,-23.76],[-67.178,-24.231],[-67.004,-24.703],[-66.829,-25.174],[-66.653,-25.645],[-66.474,-26.116],[-66.221,-26.546],[-65.966,-26.976],[-65.708,-27.405],[-65.449,-27.834],[-65.188,-28.262],[-64.924,-28.69],[-64.659,-29.118],[-64.391,-29.545],[-64.121,-29.971],[-63.848,-30.397],[-63.574,-30.822],[-63.296,-31.247],[-63.017,-31.671],[-62.734,-32.094],[-62.449,-32.517],[-62.162,-32.939],[-61.871,-33.36],[-61.578,-33.781],[-61.282,-34.191],[-60.983,-34.599],[-60.682,-35.007],[-60.377,-35.415],[-60.069,-35.821],[-59.758,-36.227],[-59.444,-36.632],[-59.126,-37.036],[-58.805,-37.439],[-58.48,-37.841],[-58.152,-38.243],[-57.821,-38.643],[-57.485,-39.043],[-57.146,-39.441],[-56.803,-39.839],[-56.456,-40.235],[-56.105,-40.631],[-55.849,-41.082],[-55.589,-41.533],[-55.326,-41.983],[-55.058,-42.433],[-54.787,-42.882],[-54.513,-43.33],[-54.233,-43.778],[-53.95,-44.225],[-53.663,-44.671],[-53.371,-45.116],[-53.074,-45.561],[-52.773,-46.005],[-52.467,-46.448],[-52.155,-46.891],[-51.839,-47.332],[-51.517,-47.773],[-51.19,-48.212],[-50.857,-48.651],[-50.518,-49.089],[-50.174,-49.526],[-49.823,-49.961],[-49.465,-50.396],[-49.101,-50.829],[-48.731,-51.262],[-48.623,-51.756],[-48.514,-52.251],[-48.402,-52.745],[-48.287,-53.239],[-48.17,-53.733],[-48.05,-54.227],[-47.927,-54.721],[-47.8,-55.215],[-47.671,-55.708],[-47.539,-56.202],[-47.403,-56.695],[-47.263,-57.188],[-47.12,-57.681],[-46.972,-58.174],[-46.821,-58.667],[-46.665,-59.159],[-46.505,-59.652],[-46.339,-60.144],[-46.169,-60.636],[-45.994,-61.127],[-45.813,-61.619],[-45.626,-62.11],[-45.433,-62.601],[-45.233,-63.091],[-45.491,-63.563],[-45.757,-64.034],[-46.032,-64.505],[-46.316,-64.975],[-46.611,-65.445],[-46.917,-65.914],[-47.234,-66.382],[-47.563,-66.85],[-47.905,-67.317]]}},{"type":"Feature","properties":{"boundary_type":"subduction","feature_type":"gpml:SubductionZone","polarity":"Right","overriding_plate_id":101,"subducting_plate_id":90105,"plate_ids":[101,90105],"name":"SaoFrancisco_SZ"},"geometry":{"type":"LineString","coordinates":[[-47.905,-67.317],[-48.246,-67.764],[-48.6,-68.211],[-48.968,-68.657],[-49.351,-69.102],[-49.75,-69.546],[-50.166,-69.989],[-50.599,-70.431],[-51.053,-70.873],[-51.526,-71.312],[-52.022,-71.751],[-52.541,-72.188],[-53.233,-72.617],[-53.958,-73.043],[-54.719,-73.466],[-55.519,-73.887],[-56.361,-74.304],[-57.247,-74.718],[-58.182,-75.128],[-59.167,-75.535],[-60.209,-75.937],[-61.309,-76.334],[-62.474,-76.726],[-63.708,-77.112],[-65.017,-77.493],[-66.405,-77.866],[-67.88,-78.232],[-69.446,-78.591]]}},{"type":"Feature","properties":{"boundary_type":"subduction","feature_type":"gpml:SubductionZone","polarity":"Right","overriding_plate_id":101,"subducting_plate_id":90105,"plate_ids":[101,90105],"name":""},"geometry":{"type":"LineString","coordinates":[[-69.446,-78.591],[-71.484,-78.889],[-73.629,-79.172],[-75.885,-79.44],[-78.254,-79.691],[-80.735,-79.924],[-83.327,-80.138],[-86.028,-80.331],[-88.831,-80.502],[-91.85,-80.534],[-94.882,-80.539],[-97.908,-80.519],[-100.914,-80.473],[-103.883,-80.401],[-106.801,-80.304],[-109.655,-80.184],[-112.433,-80.04],[-115.128,-79.873],[-117.731,-79.686],[-120.237,-79.478],[-122.643,-79.252],[-124.947,-79.008],[-127.149,-78.747],[-129.249,-78.471],[-131.251,-78.18],[-133.155,-77.876],[-134.966,-77.56],[-136.687,-77.232],[-138.321,-76.894],[-139.874,-76.546],[-141.349,-76.189],[-142.75,-75.823],[-144.081,-75.45],[-145.347,-75.069],[-146.55,-74.682],[-147.695,-74.289],[-148.786,-73.89],[-149.824,-73.486],[-150.814,-73.077],[-151.759,-72.664],[-152.66,-72.246],[-153.521,-71.824],[-154.345,-71.399],[-155.132,-70.97],[-155.886,-70.538],[-156.608,-70.103],[-157.301,-69.665],[-157.966,-69.225],[-158.604,-68.782],[-159.217,-68.337],[-159.806,-67.89],[-160.374,-67.44],[-160.512,-66.945],[-160.645,-66.45],[-160.773,-65.954],[-160.896,-65.458],[-161.015,-64.963],[-161.129,-64.467],[-161.239,-63.971],[-161.346,-63.475],[-161.448,-62.979],[-161.547,-62.483],[-161.643,-61.987],[-161.736,-61.491],[-161.826,-60.994],[-161.914,-60.498],[-161.998,-60.002],[-162.08,-59.505],[-162.16,-59.009],[-162.238,-58.512],[-162.313,-58.016],[-162.386,-57.519],[-162.457,-57.022],[-162.527,-56.526],[-162.397,-56.067],[-162.271,-55.608],[-162.148,-55.148],[-162.027,-54.689],[-161.909,-54.229],[-161.794,-53.77],[-161.681,-53.31],[-161.571,-52.85],[-161.463,-52.39],[-161.357,-51.93]]}},{"type":"Feature","properties":{"boundary_type":"subduction","feature_type":"gpml:SubductionZone","polarity":"Right","overriding_plate_id":101,"subducting_plate_id":911001,"plate_ids":[101,911001],"name":""},"geometry":{"type":"LineString","coordinates":[[-161.357,-51.93],[-161.25,-51.459],[-161.146,-50.988],[-161.045,-50.516],[-160.945,-50.045],[-160.847,-49.573],[-160.751,-49.101],[-160.656,-48.63],[-160.564,-48.158],[-160.473,-47.686],[-160.384,-47.214],[-160.296,-46.742]]}},{"type":"Feature","properties":{"boundary_type":"subduction","feature_type":"gpml:SubductionZone","polarity":"Left","overriding_plate_id":201,"subducting_plate_id":90106,"plate_ids":[201,90106],"name":""},"geometry":{"type":"LineString","coordinates":[[173.507,41.449],[172.903,41.289],[172.303,41.126],[171.705,40.96],[171.111,40.79],[170.52,40.618],[169.931,40.442],[169.346,40.264],[168.764,40.083],[168.185,39.898],[167.609,39.711],[167.036,39.521],[166.466,39.329],[165.9,39.133],[165.337,38.935],[164.777,38.734],[164.22,38.53],[163.666,38.324],[163.115,38.115],[162.568,37.904],[162.023,37.69],[161.473,37.452],[160.926,37.211],[160.383,36.968],[159.843,36.722],[159.306,36.474],[158.773,36.223],[158.244,35.97],[157.718,35.715],[157.195,35.457],[156.676,35.197],[156.159,34.935],[155.647,34.671],[155.137,34.405],[154.631,34.137],[154.128,33.866],[153.628,33.594],[153.131,33.319],[152.638,33.043],[152.147,32.764],[151.66,32.484],[151.175,32.202],[150.694,31.918],[150.216,31.632],[149.74,31.344],[149.267,31.055],[148.798,30.764],[148.331,30.471],[147.867,30.177],[147.406,29.881],[146.947,29.583],[146.491,29.284],[146.038,28.984],[145.588,28.681],[145.14,28.378],[144.694,28.073],[144.252,27.766],[143.811,27.458],[143.373,27.149],[142.938,26.838],[142.505,26.526],[142.074,26.213],[141.646,25.898],[141.22,25.582],[140.796,25.265],[140.374,24.947],[139.955,24.627],[139.537,24.307],[139.122,23.985],[138.79,23.618],[138.46,23.25],[138.132,22.881],[137.806,22.512],[137.482,22.142],[137.159,21.772],[136.838,21.4],[136.518,21.029],[136.2,20.656],[135.884,20.283],[135.569,19.91],[135.256,19.536],[134.944,19.161],[134.633,18.786],[134.324,18.41],[134.017,18.034],[133.71,17.657],[133.405,17.28],[133.101,16.903],[132.798,16.525]]}},{"type":"Feature","properties":{"boundary_type":"subduction","feature_type":"gpml:SubductionZone","polarity":"Left","overriding_plate_id":201,"subducting_plate_id":90105,"plate_ids":[201,90105],"name":""},"geometry":{"type":"LineString","coordinates":[[132.798,16.525],[132.484,16.131],[132.172,15.736],[131.86,15.341],[131.55,14.946],[131.241,14.55],[130.933,14.154],[130.626,13.757],[130.32,13.36],[130.015,12.963],[129.711,12.565],[129.408,12.167],[129.106,11.769],[128.805,11.37],[128.505,10.971],[128.236,10.563],[127.967,10.154],[127.699,9.744],[127.432,9.335],[127.165,8.925],[126.899,8.515],[126.634,8.105],[126.369,7.695],[126.105,7.285],[125.841,6.874],[125.578,6.464],[125.315,6.053],[125.052,5.642],[124.79,5.231],[124.528,4.82],[124.266,4.408],[124.005,3.997],[123.744,3.586],[123.483,3.174],[123.223,2.763],[122.962,2.351],[122.702,1.939],[122.442,1.528],[122.182,1.116],[121.922,0.704],[121.662,0.292],[121.402,-0.119],[121.142,-0.531],[120.883,-0.943],[120.777,-1.422],[120.671,-1.902],[120.564,-2.381],[120.458,-2.861],[120.352,-3.34],[120.246,-3.819],[120.139,-4.299],[120.033,-4.778],[119.926,-5.257],[119.819,-5.737],[119.712,-6.216],[119.604,-6.695],[119.497,-7.174],[119.389,-7.654],[119.281,-8.133],[119.173,-8.612],[119.064,-9.091],[118.956,-9.57],[118.846,-10.049],[118.737,-10.528],[118.627,-11.007],[118.517,-11.486],[118.407,-11.965],[118.296,-12.444],[118.184,-12.923],[118.073,-13.402],[117.96,-13.88],[117.848,-14.359],[117.735,-14.838],[117.621,-15.316],[117.73,-15.794],[117.84,-16.272],[117.95,-16.75],[118.061,-17.228],[118.173,-17.706],[118.285,-18.183],[118.398,-18.661],[118.511,-19.139],[118.625,-19.616],[118.74,-20.093],[118.855,-20.571],[118.971,-21.048],[119.088,-21.525],[119.206,-22.002],[119.324,-22.479],[119.443,-22.956],[119.563,-23.433],[119.684,-23.91],[119.806,-24.387],[119.929,-24.863],[120.052,-25.34],[120.177,-25.816],[120.303,-26.292],[120.43,-26.768],[120.557,-27.244],[120.686,-27.72],[120.816,-28.196],[120.947,-28.672],[121.08,-29.147],[121.213,-29.623],[121.414,-30.084],[121.617,-30.545],[121.821,-31.006],[122.028,-31.466],[122.236,-31.926],[122.447,-32.386],[122.66,-32.845],[122.875,-33.304],[123.092,-33.762],[123.312,-34.221],[123.534,-34.678],[123.758,-35.136],[123.985,-35.593],[124.215,-36.049],[124.447,-36.505],[124.682,-36.961],[124.92,-37.416],[125.161,-37.871],[125.404,-38.325],[125.651,-38.779],[125.901,-39.232],[126.155,-39.684],[126.411,-40.136],[126.671,-40.588],[126.935,-41.039],[127.202,-41.489],[127.473,-41.939],[127.748,-42.388],[128.026,-42.836],[128.309,-43.284],[128.596,-43.731],[128.887,-44.177],[129.183,-44.622],[129.484,-45.067]]}},{"type":"Feature","properties":{"boundary_type":"subduction","feature_type":"gpml:SubductionZone","polarity":"Right","overriding_plate_id":101,"subducting_plate_id":90107,"plate_ids":[101,90107],"name":"Cathaysia_SZ"},"geometry":{"type":"LineString","coordinates":[[-85.537,6.089],[-85.345,5.659],[-85.153,5.228],[-84.961,4.797],[-84.769,4.366],[-84.578,3.935],[-84.387,3.504],[-84.195,3.073],[-84.005,2.642],[-83.814,2.211],[-83.623,1.78],[-83.433,1.349],[-83.242,0.918],[-83.052,0.486],[-82.861,0.055],[-82.671,-0.376],[-82.333,-0.744],[-81.995,-1.112],[-81.658,-1.48],[-81.32,-1.848],[-80.982,-2.216],[-80.643,-2.584],[-80.305,-2.952],[-79.967,-3.319],[-79.628,-3.687],[-79.289,-4.054],[-78.949,-4.421],[-78.609,-4.789],[-78.269,-5.155],[-77.929,-5.522],[-77.588,-5.889],[-77.237,-6.244],[-76.886,-6.599],[-76.534,-6.953],[-76.182,-7.308],[-75.829,-7.662],[-75.476,-8.016],[-75.122,-8.369],[-74.767,-8.722],[-74.412,-9.075],[-74.056,-9.428],[-73.699,-9.78],[-73.341,-10.132],[-72.983,-10.483],[-72.624,-10.834],[-72.264,-11.185],[-71.887,-11.466]]}},{"type":"Feature","properties":{"boundary_type":"ridge","feature_type":"gpml:MidOceanRidge","polarity":null,"overriding_plate_id":null,"subducting_plate_id":null,"plate_ids":[201,911001],"name":""},"geometry":{"type":"LineString","coordinates":[[-162.813,11.014],[-163.079,10.6],[-163.345,10.186],[-163.61,9.772],[-163.875,9.358],[-164.139,8.943],[-164.402,8.529],[-164.665,8.114],[-164.927,7.699],[-165.189,7.283],[-165.45,6.868],[-165.71,6.452],[-165.971,6.037],[-166.231,5.621],[-166.49,5.205],[-166.749,4.789],[-167.008,4.373],[-167.267,3.957],[-167.525,3.54],[-167.783,3.124],[-168.041,2.708],[-168.299,2.291],[-168.556,1.875],[-168.814,1.458],[-169.071,1.042],[-169.328,0.625],[-169.586,0.208],[-169.843,-0.208],[-170.1,-0.625],[-170.357,-1.041],[-170.615,-1.458],[-170.872,-1.875],[-171.13,-2.291],[-171.388,-2.708],[-171.645,-3.124],[-171.903,-3.54],[-172.162,-3.957],[-172.42,-4.373],[-172.679,-4.789],[-172.938,-5.205],[-173.198,-5.621],[-173.458,-6.037],[-173.718,-6.452],[-173.979,-6.868],[-174.24,-7.283],[-174.502,-7.698],[-174.764,-8.114],[-175.027,-8.528],[-174.609,-8.741],[-174.191,-8.954],[-173.772,-9.165],[-173.353,-9.377],[-172.934,-9.588],[-172.514,-9.798],[-172.093,-10.008],[-171.672,-10.217],[-171.25,-10.426],[-170.828,-10.634],[-170.405,-10.842],[-169.981,-11.049],[-170.197,-11.501],[-170.413,-11.953],[-170.63,-12.404],[-170.847,-12.856],[-171.066,-13.307],[-171.285,-13.759],[-171.505,-14.21],[-171.726,-14.66],[-171.947,-15.111],[-172.17,-15.561],[-172.394,-16.011],[-172.619,-16.461],[-172.844,-16.911],[-173.071,-17.36],[-173.299,-17.81],[-173.528,-18.258],[-173.759,-18.707],[-173.99,-19.155],[-174.223,-19.603],[-174.457,-20.051],[-174.693,-20.499],[-174.93,-20.946],[-175.168,-21.393],[-175.407,-21.839],[-175.649,-22.285],[-175.891,-22.731],[-176.136,-23.176],[-176.382,-23.621],[-176.629,-24.066],[-176.879,-24.51],[-177.269,-24.315],[-177.658,-24.119],[-178.046,-23.922],[-178.433,-23.724],[-178.818,-23.525],[-179.09,-23.953],[-179.363,-24.381],[-179.638,-24.809],[-179.915,-25.236],[179.806,-25.663],[179.526,-26.089],[179.243,-26.515],[178.958,-26.94],[178.671,-27.365],[178.381,-27.789],[178.089,-28.212],[177.796,-28.634],[177.499,-29.057],[177.2,-29.478],[176.899,-29.899],[176.595,-30.319],[176.289,-30.738],[175.98,-31.157],[175.668,-31.574],[175.353,-31.991],[175.036,-32.408],[174.715,-32.823],[174.392,-33.238],[174.065,-33.652],[173.736,-34.065],[173.403,-34.477],[173.066,-34.888],[172.727,-35.298],[172.384,-35.707],[171.909,-35.428],[171.437,-35.147],[170.969,-34.864],[170.503,-34.579],[170.041,-34.293],[169.582,-34.004],[169.127,-33.714],[168.674,-33.423],[168.224,-33.13],[167.778,-32.835],[167.334,-32.538],[166.893,-32.24],[166.455,-31.941],[166.093,-32.329],[165.729,-32.715],[165.36,-33.101],[164.989,-33.486],[164.615,-33.869],[164.237,-34.251],[163.855,-34.632],[163.47,-35.012],[163.082,-35.391],[162.69,-35.769],[162.294,-36.145],[161.894,-36.52],[161.49,-36.893],[161.083,-37.265],[160.671,-37.636],[160.255,-38.005],[159.835,-38.373],[159.411,-38.739],[158.983,-39.104],[158.55,-39.467],[158.112,-39.829],[157.67,-40.189],[157.223,-40.547],[156.771,-40.903],[156.315,-41.258],[155.853,-41.611],[155.387,-41.962],[154.915,-42.311],[154.438,-42.658],[153.956,-43.003],[153.468,-43.346],[152.975,-43.687],[152.476,-44.026],[151.971,-44.362],[151.461,-44.697],[150.944,-45.029],[150.422,-45.358],[149.893,-45.686],[149.359,-46.01],[148.818,-46.333],[148.27,-46.653],[147.717,-46.97],[147.156,-47.284],[146.589,-47.596],[146.015,-47.904],[145.435,-48.21],[144.847,-48.513],[144.252,-48.813],[143.651,-49.11],[143.042,-49.404],[142.425,-49.694],[141.802,-49.981]]}},{"type":"Feature","properties":{"boundary_type":"subduction","feature_type":"gpml:SubductionZone","polarity":"Right","overriding_plate_id":911001,"subducting_plate_id":90105,"plate_ids":[90105,911001],"name":""},"geometry":{"type":"LineString","coordinates":[[-161.357,-51.93],[-162.12,-52.098],[-162.89,-52.261],[-163.665,-52.419],[-164.445,-52.571],[-165.231,-52.719],[-166.022,-52.861],[-166.818,-52.998],[-167.62,-53.13],[-168.426,-53.256],[-169.236,-53.377],[-170.051,-53.492],[-170.871,-53.602],[-171.694,-53.706],[-172.522,-53.804],[-173.353,-53.897],[-174.188,-53.983],[-175.027,-54.065],[-175.868,-54.14],[-176.713,-54.209],[-177.56,-54.272],[-178.409,-54.33],[-179.261,-54.381],[179.885,-54.427],[179.029,-54.466],[178.172,-54.499],[177.313,-54.527],[176.454,-54.548],[175.594,-54.563],[174.733,-54.572],[173.872,-54.575],[173.011,-54.572],[172.15,-54.562],[171.29,-54.547],[170.431,-54.525],[169.572,-54.498],[168.715,-54.464],[167.859,-54.424],[167.006,-54.378],[166.154,-54.327],[165.304,-54.269],[164.457,-54.205],[163.613,-54.135],[162.772,-54.06],[161.934,-53.978],[161.099,-53.891],[160.268,-53.798],[159.44,-53.7],[158.617,-53.595],[157.798,-53.485],[156.983,-53.37],[156.173,-53.249],[155.367,-53.122],[154.566,-52.99],[153.77,-52.853],[152.979,-52.71],[152.194,-52.562],[151.414,-52.409],[150.639,-52.251],[149.87,-52.088],[149.107,-51.92],[148.349,-51.747],[147.597,-51.569],[146.851,-51.387],[146.112,-51.199],[145.378,-51.008],[144.65,-50.811],[143.929,-50.61],[143.213,-50.405],[142.504,-50.195],[141.802,-49.981]]}},{"type":"Feature","properties":{"boundary_type":"subduction","feature_type":"gpml:SubductionZone","polarity":"Right","overriding_plate_id":201,"subducting_plate_id":90105,"plate_ids":[201,90105],"name":""},"geometry":{"type":"LineString","coordinates":[[141.802,-49.981],[141.292,-49.822],[140.786,-49.661],[140.283,-49.497],[139.635,-49.279],[138.992,-49.057],[138.356,-48.832],[137.725,-48.603],[137.1,-48.371],[136.48,-48.135],[135.867,-47.896],[135.259,-47.654],[134.656,-47.409],[134.06,-47.161],[133.468,-46.909],[132.883,-46.655],[132.303,-46.397],[131.728,-46.137],[131.159,-45.873],[130.595,-45.607],[130.037,-45.339],[129.484,-45.067]]}},{"type":"Feature","properties":{"boundary_type":"subduction","feature_type":"gpml:SubductionZone","polarity":"Left","overriding_plate_id":101,"subducting_plate_id":911001,"plate_ids":[101,911001],"name":"Baltica_SZ"},"geometry":{"type":"LineString","coordinates":[[-162.719,10.224],[-162.473,9.826],[-162.227,9.428],[-161.983,9.03],[-161.738,8.631],[-161.495,8.233],[-161.251,7.834],[-161.008,7.436],[-160.758,7.04],[-160.507,6.644],[-160.257,6.248],[-160.008,5.852],[-159.759,5.456],[-159.51,5.06],[-159.261,4.664],[-159.013,4.267],[-158.765,3.871],[-158.517,3.474],[-158.38,3.029],[-158.244,2.585],[-158.108,2.14],[-157.971,1.695],[-157.835,1.25],[-157.699,0.806],[-157.563,0.361],[-157.427,-0.084],[-157.29,-0.529],[-157.314,-0.987],[-157.337,-1.445],[-157.36,-1.903],[-157.384,-2.362],[-157.407,-2.82],[-157.43,-3.278],[-157.454,-3.736],[-157.477,-4.195],[-157.501,-4.653],[-157.524,-5.111],[-157.548,-5.569],[-157.571,-6.027],[-157.532,-6.489],[-157.492,-6.95],[-157.452,-7.411],[-157.413,-7.872],[-157.373,-8.333],[-157.333,-8.794],[-157.293,-9.255],[-157.253,-9.716],[-157.213,-10.178],[-157.172,-10.639],[-157.132,-11.1],[-157.091,-11.561],[-156.977,-12.003],[-156.862,-12.445],[-156.746,-12.887],[-156.63,-13.328],[-156.514,-13.77],[-156.398,-14.212],[-156.28,-14.654],[-156.163,-15.095],[-156.045,-15.537],[-155.926,-15.978],[-155.711,-16.374],[-155.495,-16.77],[-155.279,-17.166],[-155.061,-17.561],[-154.842,-17.957],[-154.623,-18.352]]}},{"type":"Feature","properties":{"boundary_type":"subduction","feature_type":"gpml:SubductionZone","polarity":"Left","overriding_plate_id":10105,"subducting_plate_id":90106,"plate_ids":[10105,90106],"name":""},"geometry":{"type":"LineString","coordinates":[[-170.695,61.646],[-171.669,61.493],[-172.634,61.334],[-173.588,61.168],[-174.532,60.996],[-175.466,60.817],[-176.389,60.631],[-177.301,60.44],[-178.203,60.242],[-179.093,60.038],[-179.973,59.828],[179.159,59.612],[178.302,59.391],[177.891,58.948],[177.49,58.505],[177.098,58.06],[176.717,57.614],[176.345,57.166],[175.982,56.718],[175.627,56.269],[175.281,55.818],[174.942,55.367],[174.611,54.915],[174.288,54.462],[173.971,54.008],[173.662,53.553],[173.359,53.098],[173.062,52.641],[172.772,52.184],[172.487,51.727],[172.546,51.238],[172.603,50.748],[172.659,50.259],[172.714,49.77],[172.768,49.281],[172.82,48.791],[172.872,48.302],[172.923,47.813],[172.973,47.323],[173.021,46.834],[173.069,46.344],[173.117,45.855],[173.163,45.366],[173.208,44.876],[173.253,44.387],[173.297,43.897],[173.34,43.408],[173.383,42.918],[173.425,42.428],[173.466,41.939],[173.507,41.449]]}},{"type":"Feature","properties":{"boundary_type":"subduction","feature_type":"gpml:SubductionZone","polarity":"Left","overriding_plate_id":10105,"subducting_plate_id":201,"plate_ids":[201,10105],"name":""},"geometry":{"type":"LineString","coordinates":[[173.507,41.449],[173.515,41.357],[173.855,40.944],[174.192,40.53],[174.524,40.115],[174.853,39.699],[175.177,39.282],[175.498,38.865],[175.815,38.446],[176.128,38.027],[176.438,37.607],[176.744,37.186],[177.047,36.764],[177.346,36.342],[177.643,35.919],[177.936,35.495],[178.226,35.07],[178.513,34.645],[178.797,34.219],[179.158,33.822],[179.516,33.424],[179.87,33.026],[-179.778,32.626],[-179.43,32.225],[-179.085,31.823],[-178.743,31.421],[-178.403,31.017],[-178.067,30.613],[-177.733,30.207],[-177.402,29.801],[-177.074,29.394],[-176.749,28.986],[-176.426,28.578],[-176.105,28.169],[-175.787,27.759],[-175.471,27.348],[-175.158,26.936],[-174.847,26.524],[-174.538,26.111],[-174.231,25.698],[-173.927,25.284],[-173.809,24.81],[-173.692,24.336],[-173.575,23.862],[-173.46,23.387],[-173.345,22.913],[-173.231,22.439],[-173.118,21.964],[-173.006,21.49],[-172.894,21.015],[-172.783,20.54],[-172.673,20.066],[-172.563,19.591],[-172.454,19.116],[-172.346,18.641],[-172.044,18.274],[-171.743,17.906],[-171.443,17.538],[-171.145,17.169],[-170.848,16.8],[-170.552,16.431],[-170.257,16.061],[-169.963,15.691],[-169.67,15.32],[-169.378,14.949],[-169.087,14.578],[-168.613,14.413],[-168.139,14.246],[-167.666,14.079],[-167.194,13.911],[-166.723,13.743],[-166.252,13.573],[-165.781,13.402],[-165.312,13.231],[-164.843,13.058],[-164.375,12.885],[-163.907,12.711],[-163.44,12.536],[-162.974,12.36]]}},{"type":"Feature","properties":{"boundary_type":"subduction","feature_type":"gpml:SubductionZone","polarity":"Right","overriding_plate_id":80101,"subducting_plate_id":90106,"plate_ids":[80101,90106],"name":""},"geometry":{"type":"LineString","coordinates":[[-63.737,64.397],[-63.394,64.235],[-62.712,63.887],[-62.047,63.537],[-61.397,63.183],[-60.764,62.827],[-60.145,62.468],[-59.542,62.106],[-58.952,61.742],[-58.377,61.375],[-57.93,60.937],[-57.495,60.497],[-57.072,60.056],[-56.66,59.614],[-56.259,59.17],[-55.868,58.725],[-55.487,58.279],[-55.115,57.832],[-54.753,57.384],[-54.787,56.933],[-54.821,56.483],[-54.855,56.033],[-54.887,55.582],[-54.919,55.132],[-54.95,54.682],[-54.98,54.231],[-55.01,53.781],[-55.039,53.331],[-55.067,52.88],[-55.225,52.399],[-55.379,51.917],[-55.53,51.436],[-55.678,50.954],[-55.823,50.472],[-55.965,49.99],[-56.104,49.507],[-56.241,49.025],[-56.374,48.542],[-56.506,48.059],[-56.782,47.6],[-57.053,47.14],[-57.32,46.68],[-57.582,46.219],[-57.84,45.757],[-58.094,45.295],[-58.343,44.832],[-58.589,44.368],[-58.984,43.978],[-59.375,43.585],[-59.76,43.192],[-60.141,42.797],[-60.516,42.401],[-60.887,42.004],[-61.253,41.606],[-61.615,41.206],[-61.972,40.805],[-62.334,40.522],[-62.693,40.237],[-63.049,39.952]]}},{"type":"Feature","properties":{"boundary_type":"transform","feature_type":"gpml:Transform","polarity":null,"overriding_plate_id":null,"subducting_plate_id":null,"plate_ids":[80101,90106],"name":""},"geometry":{"type":"LineString","coordinates":[[-95.072,58.507],[-94.285,58.788],[-93.486,59.065],[-92.674,59.336],[-91.849,59.602],[-91.011,59.863],[-90.159,60.119],[-89.295,60.369],[-88.417,60.613],[-87.527,60.851],[-86.622,61.084],[-85.705,61.31],[-84.775,61.53],[-83.831,61.744],[-82.875,61.951],[-81.906,62.151],[-80.924,62.345],[-79.929,62.531],[-78.922,62.711],[-77.903,62.883],[-76.873,63.047],[-75.831,63.204],[-74.778,63.354],[-73.714,63.495],[-72.64,63.629],[-71.556,63.754],[-70.462,63.871],[-69.36,63.98],[-68.25,64.081],[-67.132,64.173],[-66.006,64.256],[-64.875,64.331],[-63.737,64.397]]}},{"type":"Feature","properties":{"boundary_type":"transform","feature_type":"gpml:Transform","polarity":null,"overriding_plate_id":null,"subducting_plate_id":null,"plate_ids":[80101,90106],"name":""},"geometry":{"type":"LineString","coordinates":[[-86.055,33.315],[-85.53,33.532],[-85.002,33.746],[-84.472,33.958],[-83.939,34.168],[-83.404,34.376],[-82.866,34.581],[-82.325,34.784],[-81.782,34.984],[-81.236,35.182],[-80.687,35.378],[-80.135,35.571],[-79.581,35.761],[-79.025,35.949],[-78.465,36.134],[-77.903,36.317],[-77.339,36.497],[-76.772,36.675],[-76.202,36.849],[-75.63,37.021],[-75.055,37.191],[-74.477,37.357],[-73.897,37.521],[-73.315,37.682],[-72.73,37.839],[-72.142,37.994],[-71.552,38.147],[-70.959,38.296],[-70.365,38.442],[-69.767,38.585],[-69.168,38.725],[-68.566,38.862],[-67.961,38.996],[-67.355,39.126],[-66.746,39.254],[-66.135,39.378],[-65.522,39.5],[-64.907,39.618],[-64.29,39.732],[-63.67,39.844],[-63.049,39.952]]}},{"type":"Feature","properties":{"boundary_type":"ridge","feature_type":"gpml:MidOceanRidge","polarity":null,"overriding_plate_id":null,"subducting_plate_id":null,"plate_ids":[90105,90107],"name":""},"geometry":{"type":"LineString","coordinates":[[28.951,18.402],[28.747,17.946],[28.545,17.49],[28.343,17.034],[28.142,16.578],[27.943,16.121],[27.744,15.665],[27.546,15.208],[27.349,14.751],[27.152,14.294],[26.957,13.836],[26.762,13.379],[26.568,12.921],[26.375,12.463],[26.183,12.005],[25.991,11.547],[25.799,11.089],[25.609,10.63],[25.419,10.172],[25.229,9.713],[25.04,9.255],[24.851,8.796],[24.663,8.337],[24.476,7.878],[24.288,7.419],[24.102,6.96],[23.915,6.501],[23.729,6.041],[23.543,5.582],[23.358,5.123],[23.172,4.663],[22.987,4.204],[22.802,3.744],[22.618,3.285],[22.433,2.825],[22.249,2.366],[22.065,1.906],[21.881,1.446],[21.697,0.987],[21.513,0.527],[21.329,0.067],[21.145,-0.393],[21.602,-0.567],[22.059,-0.741],[22.515,-0.916],[22.972,-1.09],[23.429,-1.264],[23.886,-1.438],[24.343,-1.612],[24.8,-1.786],[25.257,-1.96],[25.714,-2.133],[26.172,-2.307],[26.629,-2.48],[27.087,-2.653],[27.545,-2.826],[28.003,-2.999],[28.461,-3.172],[28.919,-3.344],[29.377,-3.516],[29.835,-3.688],[30.294,-3.86],[30.753,-4.032],[31.212,-4.203],[31.671,-4.374],[32.131,-4.545],[32.59,-4.715],[33.05,-4.885],[33.51,-5.055],[33.971,-5.224],[33.853,-5.706],[33.735,-6.188],[33.617,-6.67],[33.499,-7.152],[33.38,-7.633],[33.262,-8.115],[33.142,-8.597],[33.023,-9.078],[32.903,-9.56],[32.783,-10.041],[32.663,-10.523],[32.542,-11.004],[32.421,-11.486],[32.299,-11.967],[32.177,-12.448],[32.055,-12.93],[31.932,-13.411],[31.808,-13.892],[31.684,-14.373],[31.56,-14.854],[31.435,-15.335],[31.309,-15.816],[31.183,-16.297],[31.056,-16.777],[30.928,-17.258],[30.8,-17.739],[30.671,-18.219],[30.542,-18.699],[30.411,-19.18],[30.28,-19.66],[30.148,-20.14],[30.016,-20.62],[29.882,-21.1],[29.748,-21.58],[29.612,-22.059],[29.476,-22.539],[29.339,-23.018],[29.201,-23.498],[29.062,-23.977],[28.922,-24.456],[28.78,-24.935],[28.638,-25.414],[28.495,-25.893],[28.35,-26.371],[28.204,-26.85],[28.057,-27.328],[27.909,-27.806],[27.759,-28.284],[27.608,-28.762],[27.455,-29.239],[27.302,-29.717],[27.146,-30.194],[26.989,-30.671],[26.831,-31.148],[26.671,-31.624],[26.509,-32.101],[26.346,-32.577],[26.181,-33.053],[26.014,-33.529],[25.845,-34.005],[25.675,-34.48],[25.502,-34.955],[25.328,-35.43],[25.151,-35.905],[24.972,-36.379],[24.791,-36.853],[24.608,-37.327],[24.422,-37.801],[24.235,-38.274],[24.044,-38.747],[23.851,-39.219],[23.656,-39.692],[23.457,-40.164],[23.256,-40.635],[23.052,-41.107],[22.845,-41.578],[22.636,-42.048],[22.423,-42.518],[22.206,-42.988],[21.987,-43.457],[21.764,-43.926],[21.537,-44.395],[21.307,-44.863],[21.073,-45.33],[20.835,-45.797],[20.593,-46.264],[20.347,-46.73],[20.097,-47.195],[19.842,-47.66],[19.583,-48.125],[19.319,-48.588],[19.05,-49.052],[18.776,-49.514],[18.497,-49.976],[18.212,-50.437],[17.605,-50.167],[17.005,-49.894],[16.412,-49.618],[15.826,-49.338],[15.246,-49.056],[14.673,-48.771],[14.107,-48.483],[13.546,-48.193],[12.993,-47.899],[12.445,-47.603],[11.904,-47.305],[11.368,-47.004],[10.839,-46.7],[10.316,-46.394],[9.798,-46.086],[9.401,-46.498],[8.997,-46.909],[8.587,-47.318],[8.171,-47.725],[7.749,-48.131],[7.319,-48.536],[6.883,-48.939],[6.439,-49.34],[5.989,-49.739],[5.531,-50.137],[5.065,-50.533],[4.591,-50.927],[4.109,-51.319],[3.619,-51.709],[3.121,-52.097],[2.613,-52.482],[2.097,-52.866],[1.572,-53.247],[1.037,-53.626],[0.492,-54.003],[-0.062,-54.377],[-0.626,-54.748],[-1.201,-55.117],[-1.787,-55.483],[-2.384,-55.846],[-2.991,-56.206],[-3.611,-56.563],[-4.242,-56.918],[-4.885,-57.268],[-5.54,-57.616],[-6.208,-57.96],[-6.889,-58.3],[-7.583,-58.637],[-8.29,-58.97],[-9.011,-59.299],[-9.746,-59.624],[-10.496,-59.945],[-11.26,-60.261],[-12.038,-60.573],[-12.832,-60.88],[-13.641,-61.183],[-14.466,-61.48],[-15.306,-61.773],[-16.163,-62.06],[-17.035,-62.342],[-17.924,-62.619],[-18.83,-62.889],[-19.752,-63.154],[-20.691,-63.413],[-21.647,-63.665],[-22.62,-63.911],[-23.61,-64.15],[-24.617,-64.383],[-25.64,-64.608],[-26.681,-64.826],[-27.738,-65.037],[-28.812,-65.24],[-29.902,-65.436],[-31.008,-65.623],[-32.13,-65.803],[-33.267,-65.974],[-34.42,-66.136],[-35.586,-66.29],[-36.767,-66.435],[-37.961,-66.571],[-39.168,-66.698],[-40.386,-66.815],[-41.616,-66.923],[-42.857,-67.022],[-44.107,-67.11],[-45.365,-67.189],[-46.632,-67.258],[-47.905,-67.317]]}},{"type":"Feature","properties":{"boundary_type":"ridge","feature_type":"gpml:MidOceanRidge","polarity":null,"overriding_plate_id":null,"subducting_plate_id":null,"plate_ids":[90105,90106],"name":""},"geometry":{"type":"LineString","coordinates":[[29.253,18.162],[28.951,18.402]]}},{"type":"Feature","properties":{"boundary_type":"ridge","feature_type":"gpml:MidOceanRidge","polarity":null,"overriding_plate_id":null,"subducting_plate_id":null,"plate_ids":[90106,90107],"name":""},"geometry":{"type":"LineString","coordinates":[[28.951,18.402],[28.548,18.72],[28.143,19.038],[27.737,19.354],[27.329,19.67],[26.919,19.985],[26.508,20.299],[26.095,20.612],[25.681,20.923],[25.265,21.234],[24.847,21.544],[24.427,21.853],[24.005,22.161],[23.582,22.467],[23.156,22.773],[22.729,23.077],[22.3,23.38],[21.869,23.682],[21.436,23.983],[21.001,24.283],[20.564,24.581],[20.124,24.878],[19.683,25.174],[19.239,25.469],[18.794,25.762],[18.346,26.054],[17.896,26.344],[17.443,26.633],[16.988,26.921],[16.531,27.207],[16.072,27.492],[15.61,27.775],[15.146,28.056],[14.68,28.336],[14.211,28.615],[13.739,28.891],[13.265,29.166],[12.789,29.44],[12.31,29.712],[11.828,29.982],[11.343,30.25],[10.857,30.516],[10.367,30.781],[9.875,31.044],[9.379,31.305],[8.882,31.564],[8.381,31.821],[7.878,32.076],[7.372,32.329],[6.863,32.58],[6.351,32.829],[5.836,33.076],[5.319,33.321],[4.798,33.563],[4.275,33.804],[3.748,34.042],[3.219,34.278],[2.687,34.511],[2.152,34.743],[1.614,34.972],[1.072,35.198],[0.528,35.423],[-0.019,35.644],[-0.569,35.863],[-1.123,36.08],[-1.679,36.294],[-2.238,36.506],[-2.801,36.715],[-3.366,36.921],[-3.935,37.125],[-4.506,37.325],[-5.081,37.524],[-5.659,37.719],[-6.239,37.911],[-6.553,37.483],[-6.862,37.055],[-7.168,36.625],[-7.471,36.195],[-7.77,35.764],[-8.066,35.333],[-8.359,34.9],[-8.649,34.467],[-8.936,34.034],[-9.22,33.599],[-9.502,33.164],[-9.78,32.728],[-10.056,32.292],[-10.329,31.855],[-10.599,31.418],[-10.867,30.98],[-11.133,30.541],[-11.396,30.102],[-11.656,29.662],[-11.915,29.222],[-12.171,28.782],[-12.696,28.965],[-13.222,29.146],[-13.751,29.325],[-14.281,29.503],[-14.813,29.678],[-15.347,29.85],[-15.882,30.021],[-16.42,30.19],[-16.959,30.356],[-17.5,30.52],[-18.043,30.682],[-18.588,30.842],[-19.135,30.999],[-19.683,31.154],[-20.233,31.307],[-20.785,31.457],[-21.339,31.605],[-21.894,31.75],[-22.451,31.894],[-23.01,32.034],[-23.571,32.172],[-24.133,32.308],[-24.697,32.442],[-25.263,32.572],[-25.83,32.7],[-26.399,32.826],[-26.969,32.949],[-27.541,33.07],[-28.115,33.187],[-28.69,33.303],[-29.267,33.415],[-29.845,33.525],[-30.424,33.632],[-31.005,33.737],[-31.588,33.838],[-32.172,33.937],[-32.757,34.034],[-33.343,34.127],[-33.931,34.218],[-34.52,34.306],[-35.11,34.391],[-35.701,34.473],[-36.294,34.552],[-36.422,34.078],[-36.549,33.604],[-36.675,33.13],[-36.8,32.656],[-36.923,32.181],[-37.045,31.707],[-37.165,31.232],[-37.285,30.757],[-37.403,30.282],[-37.52,29.807],[-37.636,29.332],[-37.751,28.857],[-38.305,28.962],[-38.86,29.065],[-39.416,29.165],[-39.973,29.263],[-40.532,29.358],[-41.091,29.452],[-41.652,29.543],[-42.213,29.631],[-42.775,29.717],[-43.339,29.801],[-43.903,29.883],[-44.468,29.962],[-45.034,30.038],[-45.601,30.112],[-46.169,30.184],[-46.737,30.254],[-47.307,30.32],[-47.877,30.385],[-48.448,30.447],[-49.019,30.506],[-49.592,30.563],[-50.165,30.617],[-50.738,30.669],[-51.312,30.719],[-51.887,30.766],[-52.462,30.81],[-53.038,30.852],[-53.614,30.891],[-54.191,30.928],[-54.768,30.962],[-55.346,30.993],[-55.923,31.022],[-56.502,31.049],[-57.08,31.072],[-57.659,31.094],[-58.238,31.112],[-58.817,31.128],[-59.397,31.142],[-59.977,31.153],[-60.556,31.161],[-61.136,31.167],[-61.716,31.17],[-62.296,31.17],[-62.876,31.168],[-63.456,31.163],[-64.035,31.156],[-64.615,31.146],[-65.194,31.134],[-65.774,31.118],[-66.353,31.101],[-66.932,31.08],[-67.51,31.058],[-68.089,31.032],[-68.667,31.004],[-69.245,30.974],[-69.822,30.94],[-70.399,30.905],[-70.975,30.866],[-71.551,30.825],[-72.127,30.782],[-72.701,30.736],[-73.276,30.688],[-73.85,30.637],[-74.423,30.583],[-74.995,30.527],[-75.567,30.469],[-76.138,30.408],[-76.709,30.344],[-77.278,30.278],[-77.847,30.21],[-78.415,30.139],[-78.982,30.066],[-79.549,29.99],[-80.114,29.912],[-80.679,29.831],[-81.242,29.748],[-81.805,29.663],[-82.367,29.575],[-82.928,29.485],[-83.487,29.393],[-84.046,29.298],[-84.604,29.201],[-85.16,29.101],[-85.716,29.0]]}},{"type":"Feature","properties":{"boundary_type":"ridge","feature_type":"gpml:MidOceanRidge","polarity":null,"overriding_plate_id":null,"subducting_plate_id":null,"plate_ids":[90105,90106],"name":""},"geometry":{"type":"LineString","coordinates":[[29.253,18.162],[29.772,18.152],[30.291,18.14],[30.81,18.127],[31.329,18.113],[31.848,18.097],[32.367,18.08],[32.886,18.061],[33.404,18.041],[33.922,18.02],[34.441,17.997],[34.959,17.973],[35.477,17.947],[35.995,17.92],[36.512,17.892],[37.03,17.863],[37.547,17.832],[38.064,17.799],[38.581,17.766],[39.098,17.73],[39.614,17.694],[40.131,17.656],[40.647,17.617],[41.163,17.577],[41.678,17.535],[42.194,17.492],[42.709,17.447],[43.224,17.402],[43.738,17.355],[44.253,17.306],[44.767,17.256],[45.281,17.205],[45.794,17.153],[46.308,17.099],[46.82,17.045],[47.333,16.988],[47.845,16.931],[48.357,16.872],[48.869,16.812],[49.38,16.751],[49.891,16.688],[50.402,16.625],[50.913,16.559],[51.423,16.493],[51.932,16.426],[52.441,16.357],[52.95,16.287],[53.459,16.216],[53.967,16.143],[54.475,16.07],[54.982,15.995],[55.489,15.919],[55.996,15.842],[56.502,15.763],[57.008,15.684],[57.514,15.603],[58.019,15.521],[58.523,15.438],[59.028,15.354],[59.532,15.269],[60.035,15.183],[60.538,15.095],[61.041,15.007],[61.543,14.917],[62.045,14.826],[62.06,15.304],[62.076,15.781],[62.091,16.259],[62.107,16.736],[62.123,17.214],[62.138,17.691],[62.154,18.169],[62.17,18.647],[62.186,19.124],[62.202,19.602],[62.219,20.079],[62.235,20.557],[62.251,21.034],[62.268,21.512],[62.794,21.554],[63.32,21.594],[63.847,21.633],[64.374,21.669],[64.901,21.705],[65.429,21.738],[65.957,21.77],[66.484,21.8],[67.013,21.829],[67.541,21.856],[68.07,21.881],[68.598,21.905],[69.127,21.927],[69.656,21.947],[70.186,21.965],[70.715,21.982],[71.244,21.997],[71.774,22.01],[72.304,22.022],[72.833,22.032],[73.363,22.04],[73.893,22.047],[74.423,22.052],[74.953,22.055],[75.483,22.056],[76.013,22.056],[76.543,22.054],[77.073,22.05],[77.603,22.045],[78.132,22.038],[78.662,22.029],[79.192,22.018],[79.722,22.006],[80.251,21.992],[80.781,21.977],[80.96,22.427],[81.141,22.877],[81.323,23.327],[81.506,23.777],[81.691,24.226],[81.877,24.675],[82.064,25.124],[82.253,25.573],[82.443,26.022],[82.634,26.47],[82.827,26.918],[83.022,27.366],[83.218,27.813],[83.415,28.26],[83.615,28.707],[83.816,29.154],[84.019,29.6],[84.59,29.554],[85.16,29.506],[85.73,29.455],[86.3,29.402],[86.869,29.347],[87.437,29.289],[88.004,29.229],[88.571,29.166],[89.137,29.101],[89.703,29.033],[90.267,28.963],[90.831,28.891],[91.394,28.816],[91.957,28.74],[92.518,28.66],[93.079,28.579],[93.638,28.495],[94.197,28.409],[94.755,28.32],[95.312,28.23],[95.868,28.137],[96.423,28.042],[96.977,27.944],[97.53,27.845],[98.082,27.743],[98.633,27.639],[99.183,27.533],[99.731,27.425],[100.279,27.314],[100.826,27.202],[101.371,27.087],[101.916,26.97],[102.459,26.851],[103.001,26.73],[103.542,26.607],[104.082,26.482],[104.62,26.355],[105.158,26.226],[105.694,26.095],[106.229,25.962],[106.762,25.827],[107.295,25.69],[107.826,25.551],[108.356,25.41],[108.885,25.267],[109.413,25.123],[109.939,24.976],[110.464,24.828],[110.988,24.678],[111.51,24.526],[112.032,24.372],[112.551,24.217],[113.07,24.059],[113.588,23.9],[114.104,23.74],[114.619,23.577],[115.132,23.413],[115.644,23.247],[116.155,23.08],[116.665,22.911],[117.174,22.74],[117.681,22.568],[118.187,22.394],[118.691,22.218],[119.195,22.041],[119.697,21.863],[120.198,21.682],[120.697,21.501],[121.196,21.318],[121.693,21.133],[122.189,20.947],[122.683,20.76],[123.177,20.571],[123.669,20.381],[124.16,20.189],[124.65,19.996],[125.138,19.802],[125.626,19.606],[126.112,19.409],[126.597,19.211],[127.081,19.012],[127.563,18.811],[128.045,18.609],[128.525,18.406],[129.004,18.201],[129.482,17.996],[129.959,17.789],[130.435,17.581],[130.91,17.372],[131.384,17.162],[131.856,16.95],[132.328,16.738],[132.798,16.525]]}}]}