{"type":"FeatureCollection","meta":{"model":"Cao2024","reconstruction_time_ma":1715.0,"anchor_plate_id":0,"pygplates_version":"1.0.0","tessellate_degrees":0.5,"polarity_convention":"gpml:subductionPolarity. 'Left'/'Right' names the side of the line, in vertex order, on which the OVERRIDING plate lies. Triangles are drawn on that side.","antimeridian":"Lines are NOT split at +/-180 deg. The renderer works in 3D unit vectors where the dateline is not special; splitting would only add spurious breaks. Do not treat this as RFC 7946 GIS-ready 2D data."},"features":[{"type":"Feature","properties":{"boundary_type":"subduction","feature_type":"gpml:SubductionZone","polarity":"Left","overriding_plate_id":101,"subducting_plate_id":10103,"plate_ids":[101,10103],"name":"eastern Laurentia-greenland-western baltica"},"geometry":{"type":"LineString","coordinates":[[-129.127,69.106],[-130.437,69.038],[-131.739,68.959],[-133.03,68.872],[-134.311,68.774],[-135.58,68.667],[-136.837,68.55],[-138.08,68.424],[-139.308,68.289],[-140.522,68.145],[-141.721,67.993],[-142.841,67.776],[-143.941,67.552],[-145.02,67.321],[-146.078,67.082],[-147.114,66.837],[-148.13,66.585],[-149.126,66.326],[-150.101,66.062],[-151.055,65.791],[-151.99,65.514],[-152.904,65.232],[-153.8,64.945],[-154.676,64.652],[-155.533,64.354],[-156.371,64.051],[-157.192,63.744],[-157.995,63.432]]}},{"type":"Feature","properties":{"boundary_type":"subduction","feature_type":"gpml:SubductionZone","polarity":"Left","overriding_plate_id":101,"subducting_plate_id":90106,"plate_ids":[101,90106],"name":"eastern Laurentia-greenland-western baltica"},"geometry":{"type":"LineString","coordinates":[[-157.995,63.432],[-158.777,63.117],[-159.542,62.797],[-160.291,62.474],[-161.023,62.146],[-161.74,61.815],[-162.441,61.48],[-163.041,61.104],[-163.626,60.725],[-164.197,60.344],[-164.755,59.96],[-165.3,59.574],[-165.833,59.186],[-166.354,58.796],[-166.863,58.403],[-167.361,58.009],[-167.849,57.613],[-168.325,57.215],[-168.792,56.815],[-169.045,56.359],[-169.292,55.903],[-169.533,55.446],[-169.768,54.989],[-169.999,54.532],[-170.224,54.074],[-170.444,53.616],[-170.66,53.157],[-170.871,52.698],[-171.078,52.238],[-171.28,51.778],[-171.479,51.318],[-171.673,50.858],[-171.864,50.397],[-172.05,49.936],[-172.234,49.474],[-172.414,49.013],[-172.59,48.551],[-172.794,48.079],[-172.993,47.607],[-173.189,47.135],[-173.382,46.662],[-173.571,46.189],[-173.757,45.716],[-173.94,45.243],[-174.12,44.769],[-174.297,44.295],[-174.471,43.82],[-174.643,43.346]]}},{"type":"Feature","properties":{"boundary_type":"subduction","feature_type":"gpml:SubductionZone","polarity":"Left","overriding_plate_id":101,"subducting_plate_id":501001,"plate_ids":[101,501001],"name":"eastern Laurentia-greenland-western baltica"},"geometry":{"type":"LineString","coordinates":[[-174.643,43.346],[-174.809,42.877],[-174.973,42.408],[-175.135,41.938],[-175.294,41.469],[-175.451,40.999],[-175.606,40.529],[-175.759,40.059],[-175.909,39.588]]}},{"type":"Feature","properties":{"boundary_type":"subduction","feature_type":"gpml:SubductionZone","polarity":"Left","overriding_plate_id":302,"subducting_plate_id":501,"plate_ids":[302,501],"name":"Baltica_SZ"},"geometry":{"type":"LineString","coordinates":[[-161.657,-4.882],[-161.811,-5.347],[-161.965,-5.811],[-162.12,-6.275],[-162.274,-6.74],[-162.429,-7.204],[-162.584,-7.668],[-162.74,-8.133],[-162.896,-8.597],[-163.052,-9.061]]}},{"type":"Feature","properties":{"boundary_type":"subduction","feature_type":"gpml:SubductionZone","polarity":"Left","overriding_plate_id":101,"subducting_plate_id":501,"plate_ids":[101,501],"name":"Baltica_SZ"},"geometry":{"type":"LineString","coordinates":[[-163.052,-9.061],[-163.19,-9.469],[-163.328,-9.878],[-163.467,-10.287],[-163.606,-10.695],[-163.745,-11.104],[-163.885,-11.512],[-164.119,-11.937],[-164.353,-12.361],[-164.588,-12.785],[-164.824,-13.209],[-165.061,-13.633],[-165.298,-14.056],[-165.537,-14.48],[-165.776,-14.903],[-166.016,-15.325],[-166.257,-15.748],[-166.5,-16.17],[-166.743,-16.592],[-166.987,-17.014],[-167.233,-17.435],[-167.479,-17.856],[-167.727,-18.277],[-167.976,-18.697],[-168.226,-19.117],[-168.478,-19.537],[-168.73,-19.956],[-168.985,-20.375],[-169.24,-20.794],[-169.497,-21.212],[-169.755,-21.63],[-170.015,-22.048],[-170.277,-22.465],[-170.54,-22.881]]}},{"type":"Feature","properties":{"boundary_type":"subduction","feature_type":"gpml:SubductionZone","polarity":"Right","overriding_plate_id":801,"subducting_plate_id":701,"plate_ids":[701,801],"name":"NorthChina_SZ"},"geometry":{"type":"LineString","coordinates":[[-86.47,4.124],[-86.309,3.712],[-86.148,3.299],[-85.987,2.886],[-85.827,2.473],[-85.666,2.061],[-85.634,1.587],[-85.602,1.113],[-85.57,0.639],[-85.537,0.165],[-85.505,-0.309],[-85.473,-0.782],[-85.441,-1.256],[-85.409,-1.73],[-85.576,-2.172],[-85.743,-2.614],[-85.91,-3.057],[-86.077,-3.499],[-86.245,-3.941],[-86.413,-4.383],[-86.581,-4.825],[-86.749,-5.267],[-86.917,-5.708],[-87.086,-6.15],[-87.481,-6.398],[-87.877,-6.645],[-88.273,-6.892],[-88.669,-7.139],[-89.066,-7.385],[-89.464,-7.631],[-89.861,-7.877],[-90.26,-8.122],[-90.659,-8.367],[-91.058,-8.611],[-91.458,-8.855],[-91.858,-9.099],[-92.259,-9.342],[-92.719,-9.473],[-93.179,-9.604],[-93.64,-9.734],[-94.101,-9.863],[-94.563,-9.991],[-95.024,-10.119],[-95.487,-10.247],[-95.949,-10.374],[-96.412,-10.5],[-96.875,-10.625],[-97.339,-10.75],[-97.803,-10.874],[-98.268,-10.997]]}},{"type":"Feature","properties":{"boundary_type":"subduction","feature_type":"gpml:SubductionZone","polarity":"Right","overriding_plate_id":801,"subducting_plate_id":811001,"plate_ids":[801,811001],"name":"SouthAustralia_SZ"},"geometry":{"type":"LineString","coordinates":[[-72.667,31.594],[-72.851,31.228],[-73.059,30.804],[-73.266,30.38],[-73.471,29.955],[-73.674,29.53],[-73.875,29.105],[-74.075,28.68],[-74.273,28.254],[-74.47,27.828],[-74.846,27.457],[-75.22,27.085],[-75.591,26.712],[-75.959,26.338],[-76.325,25.964],[-76.689,25.588],[-77.051,25.212],[-77.41,24.834],[-77.767,24.456],[-78.122,24.077],[-78.475,23.697],[-78.826,23.316],[-79.175,22.935],[-79.605,22.684],[-80.032,22.433],[-80.458,22.18]]}},{"type":"Feature","properties":{"boundary_type":"subduction","feature_type":"gpml:SubductionZone","polarity":"Left","overriding_plate_id":90107,"subducting_plate_id":90106,"plate_ids":[90106,90107],"name":"Wyoming_SZ"},"geometry":{"type":"LineString","coordinates":[[-40.818,60.944],[-41.75,61.12],[-42.691,61.289],[-43.642,61.451],[-44.44,61.748],[-45.252,62.041],[-46.08,62.328],[-46.924,62.611],[-47.784,62.888],[-48.661,63.16],[-49.553,63.427],[-50.463,63.688],[-51.389,63.943],[-52.331,64.192],[-53.291,64.435],[-54.268,64.671],[-55.262,64.901],[-56.272,65.124]]}},{"type":"Feature","properties":{"boundary_type":"subduction","feature_type":"gpml:SubductionZone","polarity":"Left","overriding_plate_id":101,"subducting_plate_id":90106,"plate_ids":[101,90106],"name":"Wyoming_SZ"},"geometry":{"type":"LineString","coordinates":[[-56.272,65.124],[-57.326,65.346],[-58.398,65.56],[-59.487,65.767],[-60.593,65.966],[-61.716,66.156],[-62.856,66.339],[-64.013,66.513],[-65.185,66.678],[-66.372,66.834],[-67.575,66.982],[-68.791,67.12],[-70.021,67.249],[-71.264,67.368],[-72.519,67.478],[-73.784,67.578],[-74.951,67.771],[-76.137,67.955],[-77.341,68.131],[-78.564,68.298],[-79.804,68.456],[-81.061,68.604],[-82.334,68.744],[-83.622,68.873],[-84.925,68.993],[-86.242,69.102],[-87.572,69.201],[-88.913,69.29],[-90.264,69.369]]}},{"type":"Feature","properties":{"boundary_type":"subduction","feature_type":"gpml:SubductionZone","polarity":"Left","overriding_plate_id":101,"subducting_plate_id":10103,"plate_ids":[101,10103],"name":"Wyoming_SZ"},"geometry":{"type":"LineString","coordinates":[[-90.264,69.369],[-91.662,69.439],[-93.068,69.497],[-94.482,69.544],[-95.901,69.58],[-97.324,69.604],[-98.749,69.616],[-100.175,69.617],[-101.601,69.606],[-103.024,69.584],[-104.444,69.55],[-105.858,69.505],[-107.266,69.448],[-108.665,69.38],[-110.018,69.452],[-111.378,69.512],[-112.746,69.562],[-114.119,69.602],[-115.497,69.63],[-116.878,69.648],[-118.26,69.655],[-119.643,69.651],[-121.024,69.636],[-122.403,69.61],[-123.778,69.574],[-125.147,69.526],[-126.51,69.468],[-127.864,69.4],[-128.5,69.254],[-129.127,69.106]]}},{"type":"Feature","properties":{"boundary_type":"subduction","feature_type":"gpml:SubductionZone","polarity":"Left","overriding_plate_id":801,"subducting_plate_id":701,"plate_ids":[701,801],"name":"South_NorthAustralia_SZ"},"geometry":{"type":"LineString","coordinates":[[-86.47,4.124],[-86.176,4.508],[-85.882,4.892],[-85.587,5.275],[-85.293,5.658],[-84.997,6.042],[-84.702,6.425],[-84.406,6.807],[-84.109,7.19],[-83.812,7.573],[-83.515,7.955],[-83.217,8.337],[-82.918,8.719],[-82.619,9.101],[-82.319,9.482],[-82.018,9.863],[-81.717,10.244],[-81.415,10.625]]}},{"type":"Feature","properties":{"boundary_type":"subduction","feature_type":"gpml:SubductionZone","polarity":"Left","overriding_plate_id":801,"subducting_plate_id":811001,"plate_ids":[801,811001],"name":"South_NorthAustralia_SZ"},"geometry":{"type":"LineString","coordinates":[[-81.415,10.625],[-81.13,10.982],[-81.022,11.44],[-80.914,11.898],[-80.805,12.356],[-80.695,12.814],[-80.586,13.271],[-80.475,13.729],[-80.365,14.187],[-80.254,14.644],[-80.142,15.102],[-80.03,15.56],[-79.918,16.017],[-79.805,16.474],[-79.692,16.932],[-79.578,17.389],[-79.663,17.868],[-79.75,18.348],[-79.836,18.827],[-79.924,19.306],[-80.011,19.785],[-80.1,20.264],[-80.188,20.743],[-80.278,21.222],[-80.368,21.701],[-80.458,22.18]]}},{"type":"Feature","properties":{"boundary_type":"subduction","feature_type":"gpml:SubductionZone","polarity":"Left","overriding_plate_id":801,"subducting_plate_id":101,"plate_ids":[101,801],"name":"South_NorthAustralia_SZ"},"geometry":{"type":"LineString","coordinates":[[-56.283,62.832],[-57.244,62.776],[-58.201,62.713],[-59.154,62.643],[-60.102,62.567],[-61.045,62.485],[-61.983,62.396],[-62.915,62.301],[-63.841,62.2],[-64.723,61.921],[-65.589,61.636],[-66.438,61.345],[-67.272,61.05],[-68.09,60.75],[-68.894,60.444],[-69.681,60.134],[-70.455,59.819],[-71.213,59.5],[-71.957,59.177],[-72.688,58.849],[-73.404,58.517],[-74.107,58.182],[-74.797,57.842],[-75.426,57.474],[-76.043,57.102],[-76.648,56.727],[-77.24,56.35],[-77.821,55.97],[-78.391,55.587],[-78.949,55.201],[-79.497,54.813],[-80.034,54.423],[-80.561,54.03],[-81.079,53.635],[-81.586,53.237],[-82.084,52.838],[-82.574,52.437],[-83.054,52.033],[-83.526,51.628],[-83.989,51.221],[-84.38,50.786],[-84.764,50.349],[-85.141,49.912],[-85.511,49.473],[-85.874,49.033],[-86.231,48.592],[-86.582,48.15],[-86.927,47.706],[-87.266,47.262],[-87.599,46.817],[-87.927,46.371],[-88.25,45.924],[-88.567,45.476],[-88.859,45.036],[-89.145,44.595],[-89.427,44.153],[-89.706,43.711],[-89.98,43.269],[-90.25,42.825],[-90.516,42.381],[-90.778,41.936],[-91.037,41.491],[-91.293,41.045],[-91.545,40.599],[-91.793,40.152],[-92.096,39.743],[-92.395,39.334],[-92.69,38.924],[-92.982,38.513],[-93.271,38.101],[-93.556,37.689],[-93.839,37.276],[-94.118,36.863],[-94.394,36.448],[-94.667,36.033],[-95.079,35.673],[-95.487,35.312],[-95.892,34.949],[-96.293,34.585],[-96.69,34.22],[-97.084,33.853],[-97.475,33.485],[-97.862,33.116],[-98.246,32.746],[-98.627,32.374],[-99.005,32.002],[-99.38,31.628],[-99.751,31.253],[-100.106,30.862],[-100.459,30.47],[-100.808,30.078],[-101.155,29.684],[-101.499,29.289],[-101.841,28.894],[-102.179,28.498],[-102.516,28.1],[-102.849,27.702],[-103.181,27.304],[-103.51,26.904],[-103.563,26.43],[-103.617,25.955],[-103.67,25.48],[-103.722,25.006],[-103.774,24.531],[-103.826,24.056],[-103.877,23.581],[-103.928,23.107],[-103.979,22.632],[-104.029,22.157],[-104.079,21.682],[-104.128,21.207],[-104.177,20.732],[-104.226,20.258],[-104.275,19.783],[-104.323,19.308],[-104.262,18.832],[-104.201,18.356],[-104.14,17.88],[-104.08,17.403],[-104.02,16.927],[-103.961,16.451],[-103.901,15.975],[-103.842,15.499],[-103.783,15.023],[-103.725,14.546],[-103.666,14.07],[-103.608,13.594],[-103.551,13.118],[-103.437,12.781],[-103.324,12.444],[-103.211,12.108]]}},{"type":"Feature","properties":{"boundary_type":"subduction","feature_type":"gpml:SubductionZone","polarity":"Left","overriding_plate_id":101,"subducting_plate_id":302,"plate_ids":[101,302],"name":"EasternFennoscandia_SZ"},"geometry":{"type":"LineString","coordinates":[[-174.378,4.05],[-173.923,4.236],[-173.468,4.422],[-173.012,4.607],[-172.556,4.793],[-172.101,4.978],[-171.644,5.162],[-171.188,5.347],[-170.731,5.531],[-170.274,5.714],[-169.864,5.963],[-169.454,6.211],[-169.043,6.459],[-168.632,6.706],[-168.221,6.954],[-167.809,7.2],[-167.397,7.447],[-166.984,7.693],[-166.57,7.938],[-166.157,8.184],[-165.742,8.428],[-165.327,8.673],[-164.912,8.917],[-164.496,9.16],[-164.1,9.45],[-163.704,9.739],[-163.307,10.028],[-162.909,10.316],[-162.511,10.604],[-162.112,10.891],[-161.711,11.178],[-161.311,11.464],[-160.909,11.749],[-160.507,12.034],[-160.146,12.342],[-159.785,12.649],[-159.423,12.956],[-159.06,13.262],[-158.697,13.568],[-158.332,13.874],[-157.966,14.178],[-157.6,14.482],[-157.232,14.786],[-156.863,15.089],[-156.494,15.391],[-156.123,15.693],[-155.867,16.116],[-155.611,16.539],[-155.353,16.961],[-155.095,17.383],[-154.835,17.805]]}},{"type":"Feature","properties":{"boundary_type":"subduction","feature_type":"gpml:SubductionZone","polarity":"Left","overriding_plate_id":801,"subducting_plate_id":811001,"plate_ids":[801,811001],"name":"NorthwesternMawson_SZ"},"geometry":{"type":"LineString","coordinates":[[-72.667,31.594],[-72.119,31.737],[-71.569,31.878],[-71.018,32.016],[-70.465,32.153],[-69.91,32.286],[-69.363,32.385],[-68.814,32.482],[-68.265,32.576],[-67.714,32.668],[-67.162,32.757],[-66.609,32.844],[-66.055,32.928],[-65.5,33.01],[-64.973,33.111],[-64.445,33.211],[-63.915,33.307],[-63.384,33.402],[-62.852,33.494],[-62.319,33.584],[-61.817,33.778],[-61.313,33.971],[-60.806,34.161],[-60.297,34.349],[-59.786,34.534],[-59.273,34.718],[-58.939,35.108],[-58.602,35.496],[-58.261,35.884],[-57.918,36.27],[-57.571,36.656],[-57.529,37.123],[-57.487,37.589],[-57.445,38.056],[-57.402,38.523],[-57.359,38.989],[-57.315,39.456],[-57.27,39.923],[-57.225,40.389],[-57.179,40.856],[-57.286,41.314],[-57.394,41.772],[-57.503,42.23],[-57.615,42.688],[-57.728,43.145],[-57.842,43.603],[-57.959,44.06],[-58.077,44.518],[-58.197,44.975],[-58.319,45.432],[-58.443,45.889],[-58.43,46.365],[-58.417,46.841],[-58.403,47.317],[-58.389,47.792],[-58.375,48.268],[-58.36,48.744],[-58.346,49.22],[-58.331,49.696],[-58.315,50.172],[-58.3,50.648],[-58.284,51.124],[-58.267,51.6],[-58.137,52.047],[-58.005,52.494],[-57.869,52.941],[-57.731,53.387],[-57.59,53.834],[-57.446,54.28],[-57.298,54.727],[-57.147,55.173],[-56.993,55.619],[-56.836,56.064]]}},{"type":"Feature","properties":{"boundary_type":"subduction","feature_type":"gpml:SubductionZone","polarity":"Left","overriding_plate_id":801,"subducting_plate_id":90107,"plate_ids":[801,90107],"name":"NorthwesternMawson_SZ"},"geometry":{"type":"LineString","coordinates":[[-56.836,56.064],[-56.662,56.542],[-56.484,57.021],[-56.302,57.498],[-56.301,57.983],[-56.299,58.468],[-56.297,58.953],[-56.296,59.438],[-56.294,59.923],[-56.292,60.408],[-56.29,60.893],[-56.289,61.378],[-56.287,61.863],[-56.285,62.347],[-56.283,62.832]]}},{"type":"Feature","properties":{"boundary_type":"subduction","feature_type":"gpml:SubductionZone","polarity":"Left","overriding_plate_id":101,"subducting_plate_id":90107,"plate_ids":[101,90107],"name":"NorthwesternMawson_SZ"},"geometry":{"type":"LineString","coordinates":[[-56.283,62.832],[-56.281,63.291],[-56.279,63.749],[-56.276,64.208],[-56.274,64.666],[-56.272,65.124]]}},{"type":"Feature","properties":{"boundary_type":"subduction","feature_type":"gpml:SubductionZone","polarity":"Right","overriding_plate_id":801,"subducting_plate_id":701,"plate_ids":[701,801],"name":"Cathaysia_SZ"},"geometry":{"type":"LineString","coordinates":[[-98.268,-10.997],[-98.317,-11.494],[-98.367,-11.991],[-98.417,-12.487],[-98.468,-12.984],[-98.518,-13.481],[-98.569,-13.978],[-98.62,-14.474],[-98.671,-14.971],[-98.723,-15.468],[-98.774,-15.965],[-98.826,-16.461],[-98.879,-16.958],[-98.931,-17.454],[-98.906,-17.953],[-98.881,-18.452],[-98.855,-18.951],[-98.83,-19.45],[-98.804,-19.949],[-98.778,-20.448],[-98.752,-20.947],[-98.726,-21.446],[-98.699,-21.944],[-98.673,-22.443],[-98.646,-22.942],[-98.619,-23.441],[-98.592,-23.94],[-98.564,-24.439],[-98.537,-24.938],[-98.42,-25.267],[-98.302,-25.595]]}},{"type":"Feature","properties":{"boundary_type":"subduction","feature_type":"gpml:SubductionZone","polarity":"Left","overriding_plate_id":80101,"subducting_plate_id":90107,"plate_ids":[80101,90107],"name":""},"geometry":{"type":"LineString","coordinates":[[-15.685,21.423],[-15.684,21.905],[-15.682,22.388],[-15.681,22.87],[-15.68,23.353],[-15.678,23.835],[-15.677,24.318],[-15.675,24.801],[-15.674,25.283],[-15.672,25.766],[-15.671,26.248],[-15.669,26.731],[-15.668,27.214],[-15.666,27.696],[-15.665,28.179],[-15.721,28.643],[-15.777,29.108],[-15.834,29.572],[-15.891,30.037],[-15.949,30.501],[-16.008,30.966],[-16.067,31.43],[-16.127,31.894],[-16.187,32.359],[-16.248,32.823],[-16.31,33.287],[-16.372,33.751],[-16.435,34.216],[-16.498,34.68],[-16.563,35.144],[-16.836,35.562],[-17.111,35.98],[-17.39,36.398],[-17.671,36.814],[-17.956,37.23],[-18.244,37.645],[-18.535,38.06],[-18.829,38.473],[-19.127,38.886],[-19.428,39.299],[-19.733,39.71],[-20.041,40.121],[-20.353,40.531],[-20.757,40.878],[-21.164,41.224],[-21.575,41.568],[-21.991,41.911],[-22.412,42.253],[-22.837,42.593],[-23.267,42.931],[-23.701,43.267],[-24.141,43.602],[-24.585,43.936],[-25.034,44.267],[-25.488,44.597],[-25.948,44.925],[-26.423,45.258],[-26.904,45.59],[-27.39,45.919],[-27.882,46.246],[-28.381,46.572],[-28.885,46.895],[-29.395,47.215],[-29.911,47.534],[-30.434,47.85],[-30.963,48.163],[-31.499,48.475],[-32.041,48.783],[-32.59,49.089],[-33.146,49.393],[-33.708,49.694],[-34.365,49.931],[-35.027,50.164],[-35.697,50.393],[-36.372,50.618]]}},{"type":"Feature","properties":{"boundary_type":"subduction","feature_type":"gpml:SubductionZone","polarity":"Left","overriding_plate_id":811001,"subducting_plate_id":90107,"plate_ids":[90107,811001],"name":""},"geometry":{"type":"LineString","coordinates":[[-36.372,50.618],[-37.037,50.834],[-37.707,51.046],[-38.384,51.254],[-39.067,51.458],[-39.756,51.658],[-40.451,51.854],[-41.152,52.046],[-41.859,52.234],[-42.571,52.417],[-43.29,52.597],[-44.015,52.771],[-44.745,52.942],[-45.481,53.108],[-46.223,53.269],[-46.97,53.425],[-47.683,53.656],[-48.404,53.882],[-49.132,54.104],[-49.868,54.321],[-50.612,54.534],[-51.363,54.742],[-52.122,54.946],[-52.889,55.145],[-53.664,55.339],[-54.446,55.528],[-55.235,55.712],[-56.032,55.891],[-56.836,56.064]]}},{"type":"Feature","properties":{"boundary_type":"subduction","feature_type":"gpml:SubductionZone","polarity":"Left","overriding_plate_id":201,"subducting_plate_id":501001,"plate_ids":[201,501001],"name":"Amazonia_SZ"},"geometry":{"type":"LineString","coordinates":[[120.222,17.233],[119.954,16.807],[119.687,16.38],[119.421,15.954],[119.157,15.527],[118.894,15.099],[118.631,14.671],[118.37,14.243],[118.11,13.815],[117.85,13.386],[117.592,12.958],[117.334,12.528],[117.078,12.099],[116.822,11.67],[116.567,11.24],[116.312,10.81],[116.059,10.38],[115.806,9.949],[115.554,9.518],[115.302,9.088],[115.051,8.657],[114.801,8.226],[114.551,7.794],[114.302,7.363],[114.053,6.931],[113.804,6.5],[113.557,6.068],[113.309,5.636],[113.062,5.204],[112.815,4.772],[112.568,4.339],[112.322,3.907],[112.076,3.475],[111.83,3.042],[111.585,2.61],[111.339,2.177],[111.094,1.745],[110.849,1.312],[110.604,0.88],[110.359,0.447],[110.114,0.014],[109.869,-0.418],[109.624,-0.851],[109.379,-1.284],[109.133,-1.716],[108.888,-2.149],[108.643,-2.581],[108.397,-3.014],[108.151,-3.446],[108.0,-3.898],[107.849,-4.349],[107.698,-4.8],[107.546,-5.252],[107.395,-5.703],[107.243,-6.154],[107.091,-6.605],[106.938,-7.056],[106.785,-7.507],[106.632,-7.958],[106.479,-8.409],[106.325,-8.86],[106.171,-9.311],[106.016,-9.762],[105.861,-10.213]]}},{"type":"Feature","properties":{"boundary_type":"subduction","feature_type":"gpml:SubductionZone","polarity":"Left","overriding_plate_id":201,"subducting_plate_id":90105,"plate_ids":[201,90105],"name":"Amazonia_SZ"},"geometry":{"type":"LineString","coordinates":[[105.861,-10.213],[105.719,-10.625],[105.577,-11.036],[105.434,-11.448],[105.29,-11.86],[105.147,-12.272],[105.002,-12.684],[104.858,-13.095],[104.842,-13.594],[104.827,-14.093],[104.811,-14.592],[104.795,-15.091],[104.779,-15.59],[104.763,-16.089],[104.747,-16.588],[104.731,-17.087],[104.715,-17.586],[104.699,-18.085],[104.682,-18.584],[104.666,-19.083],[104.649,-19.582],[104.633,-20.081],[104.616,-20.58],[104.599,-21.079],[104.582,-21.578],[104.565,-22.076],[104.711,-22.545],[104.859,-23.013],[105.008,-23.481],[105.157,-23.948],[105.308,-24.416],[105.46,-24.884],[105.613,-25.351],[105.767,-25.818],[105.923,-26.285],[106.079,-26.752],[106.237,-27.219],[106.397,-27.685],[106.557,-28.152],[106.719,-28.618],[106.883,-29.084],[107.048,-29.549],[107.214,-30.015],[107.383,-30.48],[107.552,-30.945],[107.724,-31.41],[108.081,-31.797],[108.442,-32.182],[108.806,-32.567],[109.173,-32.95],[109.543,-33.333],[109.916,-33.714],[110.293,-34.094],[110.673,-34.473],[111.056,-34.851],[111.443,-35.227],[111.834,-35.603],[112.228,-35.977],[112.626,-36.349],[113.028,-36.721],[113.434,-37.091],[113.844,-37.46],[114.258,-37.827],[114.676,-38.193],[115.098,-38.557],[115.524,-38.92],[115.955,-39.281],[116.39,-39.64],[116.83,-39.998],[117.275,-40.355],[117.724,-40.709],[118.178,-41.062],[118.636,-41.413],[119.1,-41.762],[119.569,-42.109],[120.043,-42.454],[120.522,-42.798],[121.007,-43.139],[121.497,-43.478],[121.993,-43.815],[122.494,-44.15],[123.0,-44.483],[123.513,-44.814],[124.032,-45.142],[124.556,-45.468],[125.087,-45.791],[125.623,-46.112],[126.166,-46.43],[126.716,-46.746],[127.272,-47.059],[127.834,-47.369],[128.403,-47.677],[128.979,-47.982],[129.561,-48.283],[130.15,-48.582],[130.747,-48.878],[131.35,-49.171],[131.961,-49.46],[132.579,-49.747],[133.204,-50.029],[133.836,-50.309],[134.476,-50.585],[135.123,-50.858],[135.778,-51.126],[136.441,-51.392],[137.111,-51.653],[137.789,-51.911]]}},{"type":"Feature","properties":{"boundary_type":"subduction","feature_type":"gpml:SubductionZone","polarity":"Left","overriding_plate_id":201,"subducting_plate_id":701,"plate_ids":[201,701],"name":"Amazonia_SZ"},"geometry":{"type":"LineString","coordinates":[[137.789,-51.911],[138.317,-52.107],[138.851,-52.301],[139.389,-52.492],[140.1,-52.667],[140.817,-52.837]]}},{"type":"Feature","properties":{"boundary_type":"transform","feature_type":"gpml:Transform","polarity":null,"overriding_plate_id":null,"subducting_plate_id":null,"plate_ids":[201,501001],"name":""},"geometry":{"type":"LineString","coordinates":[[120.222,17.233],[120.675,16.985],[121.128,16.737],[121.58,16.487],[122.03,16.236],[122.479,15.985],[122.927,15.732],[123.374,15.479],[123.82,15.224],[124.264,14.969],[124.708,14.713],[125.151,14.456],[125.592,14.198],[126.033,13.94],[126.472,13.68],[126.911,13.42],[127.349,13.16],[127.785,12.898],[128.221,12.636],[128.656,12.373],[129.09,12.109],[129.524,11.844],[129.956,11.579],[130.387,11.314],[130.818,11.047],[131.248,10.78],[131.677,10.513],[132.106,10.245],[132.533,9.976],[132.961,9.707],[133.387,9.437],[133.813,9.167],[134.238,8.896],[134.662,8.625],[135.086,8.353],[135.509,8.081],[135.932,7.809],[136.354,7.536],[136.775,7.262],[137.196,6.988],[137.617,6.714],[138.037,6.44],[138.456,6.165],[138.876,5.89],[139.294,5.614],[139.713,5.339],[140.131,5.062],[140.548,4.786],[140.966,4.51],[141.383,4.233],[141.799,3.956],[142.216,3.678],[142.632,3.401],[143.048,3.123],[143.463,2.845],[143.879,2.568],[144.294,2.289],[144.709,2.011],[145.124,1.733],[145.539,1.455],[145.954,1.176],[146.372,0.911],[146.789,0.646],[147.207,0.381],[147.625,0.115],[148.042,-0.15],[148.46,-0.415],[148.878,-0.68],[149.296,-0.945],[149.713,-1.211],[150.131,-1.476],[150.549,-1.741],[150.967,-2.005],[151.386,-2.27],[151.804,-2.535],[152.223,-2.799],[152.642,-3.064],[153.061,-3.328],[153.48,-3.592],[153.899,-3.856],[154.319,-4.119],[154.739,-4.383],[155.159,-4.646],[155.58,-4.909],[156.001,-5.171],[156.422,-5.434],[156.844,-5.696],[157.266,-5.958],[157.688,-6.219],[158.111,-6.48],[158.534,-6.741],[158.958,-7.001],[159.382,-7.261],[159.807,-7.521],[160.232,-7.78],[160.658,-8.039],[161.084,-8.297],[161.511,-8.555],[161.938,-8.813],[162.366,-9.07],[162.795,-9.326],[163.224,-9.582],[163.654,-9.838],[164.085,-10.092],[164.516,-10.347],[164.948,-10.6],[165.381,-10.854],[165.814,-11.106],[166.248,-11.358],[166.683,-11.609],[167.119,-11.86],[167.555,-12.11],[167.993,-12.359],[168.431,-12.608],[168.87,-12.856],[169.31,-13.103],[169.75,-13.349],[170.192,-13.595],[170.635,-13.84],[171.078,-14.084],[171.522,-14.327],[171.968,-14.569],[172.414,-14.811],[172.862,-15.052]]}},{"type":"Feature","properties":{"boundary_type":"transform","feature_type":"gpml:Transform","polarity":null,"overriding_plate_id":null,"subducting_plate_id":null,"plate_ids":[201,501],"name":""},"geometry":{"type":"LineString","coordinates":[[172.862,-15.052],[173.303,-15.287],[173.745,-15.523],[174.188,-15.757],[174.632,-15.99],[175.077,-16.222],[175.523,-16.454],[175.971,-16.684],[176.419,-16.914],[176.868,-17.142],[177.319,-17.37],[177.77,-17.596],[178.223,-17.822],[178.677,-18.046],[179.132,-18.27],[179.589,-18.492],[-179.954,-18.713],[-179.495,-18.934],[-179.036,-19.153],[-178.575,-19.37],[-178.112,-19.587],[-177.649,-19.803],[-177.184,-20.017],[-176.718,-20.23],[-176.251,-20.442],[-175.782,-20.652],[-175.312,-20.862],[-174.841,-21.07],[-174.368,-21.277],[-173.894,-21.482],[-173.419,-21.686],[-172.943,-21.889],[-172.465,-22.09],[-171.986,-22.29],[-171.505,-22.489],[-171.023,-22.686],[-170.54,-22.881]]}},{"type":"Feature","properties":{"boundary_type":"transform","feature_type":"gpml:Transform","polarity":null,"overriding_plate_id":null,"subducting_plate_id":null,"plate_ids":[101,201],"name":""},"geometry":{"type":"LineString","coordinates":[[-170.54,-22.881],[-170.044,-23.08],[-169.547,-23.277],[-169.049,-23.472],[-168.549,-23.666],[-168.048,-23.858],[-167.545,-24.049],[-167.041,-24.237],[-166.535,-24.425],[-166.028,-24.61],[-165.519,-24.794]]}},{"type":"Feature","properties":{"boundary_type":"transform","feature_type":"gpml:Transform","polarity":null,"overriding_plate_id":null,"subducting_plate_id":null,"plate_ids":[101,302],"name":""},"geometry":{"type":"LineString","coordinates":[[-154.835,17.805],[-154.358,17.934],[-153.881,18.062],[-153.403,18.189],[-152.924,18.315],[-152.445,18.439],[-151.965,18.563],[-151.511,18.414],[-151.058,18.265],[-150.606,18.114],[-150.155,17.963],[-149.704,17.81],[-149.255,17.657],[-148.806,17.502],[-148.357,17.346],[-147.91,17.19],[-147.575,16.869],[-147.241,16.548],[-146.908,16.226],[-146.577,15.903],[-146.246,15.58],[-145.917,15.257],[-145.588,14.933],[-145.261,14.609],[-144.934,14.284],[-144.608,13.959],[-144.449,13.501],[-144.29,13.044],[-144.131,12.586],[-143.974,12.128],[-143.816,11.67],[-143.66,11.213],[-143.503,10.755],[-143.348,10.297]]}},{"type":"Feature","properties":{"boundary_type":"ridge","feature_type":"gpml:MidOceanRidge","polarity":null,"overriding_plate_id":null,"subducting_plate_id":null,"plate_ids":[101,302],"name":""},"geometry":{"type":"LineString","coordinates":[[-143.348,10.297],[-143.662,9.936],[-143.976,9.575],[-144.29,9.213],[-144.602,8.851],[-144.914,8.489],[-145.226,8.127],[-145.537,7.765],[-145.847,7.402],[-146.157,7.039],[-146.466,6.676],[-146.775,6.313],[-146.413,5.986],[-146.052,5.659],[-145.691,5.332],[-145.331,5.005],[-144.97,4.678],[-144.611,4.35],[-144.251,4.022],[-143.892,3.694],[-144.144,3.263],[-144.395,2.831],[-144.647,2.4],[-144.898,1.968],[-145.149,1.537],[-145.4,1.105],[-145.651,0.674],[-145.902,0.242],[-146.152,-0.19],[-146.403,-0.621],[-146.654,-1.053],[-146.905,-1.484],[-147.156,-1.916],[-147.407,-2.347],[-147.659,-2.779],[-147.91,-3.21],[-148.162,-3.642],[-148.414,-4.073],[-148.666,-4.504],[-148.919,-4.935],[-149.172,-5.366],[-149.425,-5.797],[-149.679,-6.228],[-149.933,-6.659],[-150.187,-7.089],[-150.442,-7.52],[-150.698,-7.95],[-150.954,-8.38],[-151.21,-8.81],[-151.467,-9.24],[-151.725,-9.669],[-151.984,-10.099],[-152.243,-10.528],[-152.503,-10.957],[-152.763,-11.386],[-153.025,-11.814],[-153.287,-12.242],[-153.55,-12.671],[-153.964,-12.417],[-154.377,-12.163],[-154.79,-11.908],[-155.201,-11.653],[-155.612,-11.397],[-156.022,-11.141],[-156.432,-10.884],[-156.841,-10.626],[-157.249,-10.368],[-157.656,-10.109],[-158.063,-9.85],[-158.469,-9.591],[-158.874,-9.331],[-159.182,-9.687],[-159.49,-10.044],[-159.799,-10.4],[-160.108,-10.755],[-160.419,-11.111],[-160.797,-10.819],[-161.174,-10.527],[-161.551,-10.235],[-161.927,-9.942],[-162.303,-9.649],[-162.678,-9.355],[-163.052,-9.061]]}},{"type":"Feature","properties":{"boundary_type":"transform","feature_type":"gpml:Transform","polarity":null,"overriding_plate_id":null,"subducting_plate_id":null,"plate_ids":[101,701],"name":""},"geometry":{"type":"LineString","coordinates":[[-156.218,-24.156],[-155.743,-24.355],[-155.267,-24.552],[-154.789,-24.749],[-154.309,-24.943],[-153.829,-25.136],[-153.346,-25.327],[-152.863,-25.517]]}},{"type":"Feature","properties":{"boundary_type":"transform","feature_type":"gpml:Transform","polarity":null,"overriding_plate_id":null,"subducting_plate_id":null,"plate_ids":[401,701],"name":""},"geometry":{"type":"LineString","coordinates":[[-152.863,-25.517],[-152.46,-25.674],[-152.056,-25.829],[-151.652,-25.983],[-151.246,-26.136],[-150.723,-26.275],[-150.198,-26.412],[-149.673,-26.548],[-149.146,-26.681],[-148.618,-26.812],[-148.089,-26.942],[-147.558,-27.069],[-147.026,-27.195],[-146.493,-27.318],[-145.959,-27.44],[-145.424,-27.559],[-144.888,-27.676],[-144.35,-27.792],[-143.811,-27.905],[-143.272,-28.016],[-142.731,-28.125],[-142.189,-28.232],[-141.646,-28.337],[-141.101,-28.439],[-140.556,-28.539],[-140.01,-28.638],[-139.463,-28.734],[-138.915,-28.828],[-138.365,-28.919],[-137.815,-29.008],[-137.264,-29.096],[-136.712,-29.18],[-136.159,-29.263],[-135.606,-29.343],[-135.051,-29.421],[-134.495,-29.497],[-133.939,-29.57],[-133.382,-29.642],[-132.824,-29.71],[-132.265,-29.777],[-131.696,-29.778],[-131.127,-29.777],[-130.557,-29.773],[-129.988,-29.767],[-129.418,-29.759],[-128.849,-29.748],[-128.28,-29.735],[-127.711,-29.719],[-127.143,-29.701],[-126.574,-29.68],[-126.006,-29.657],[-125.438,-29.632],[-124.87,-29.604],[-124.303,-29.574],[-123.736,-29.541],[-123.169,-29.506],[-122.603,-29.468],[-122.037,-29.428],[-121.472,-29.386],[-120.907,-29.341],[-120.343,-29.294],[-119.779,-29.245],[-119.216,-29.193],[-118.653,-29.139],[-118.091,-29.083],[-117.53,-29.024],[-116.969,-28.963],[-116.409,-28.899],[-115.849,-28.833],[-115.291,-28.765],[-114.733,-28.695],[-114.176,-28.622],[-113.619,-28.547],[-113.064,-28.47]]}},{"type":"Feature","properties":{"boundary_type":"transform","feature_type":"gpml:Transform","polarity":null,"overriding_plate_id":null,"subducting_plate_id":null,"plate_ids":[701,801],"name":""},"geometry":{"type":"LineString","coordinates":[[-113.064,-28.47],[-112.695,-28.418],[-112.15,-28.34],[-111.605,-28.26],[-111.062,-28.178],[-110.519,-28.094],[-109.977,-28.008],[-109.436,-27.919],[-108.896,-27.829],[-108.357,-27.736],[-107.818,-27.642],[-107.281,-27.545],[-106.745,-27.446],[-106.209,-27.345],[-105.675,-27.242],[-105.141,-27.138],[-104.609,-27.031],[-104.077,-26.922],[-103.547,-26.811],[-103.018,-26.698],[-102.489,-26.583],[-101.962,-26.466],[-101.436,-26.348],[-100.911,-26.227],[-100.387,-26.104],[-99.864,-25.98],[-99.342,-25.854],[-98.822,-25.725],[-98.302,-25.595]]}},{"type":"Feature","properties":{"boundary_type":"transform","feature_type":"gpml:Transform","polarity":null,"overriding_plate_id":null,"subducting_plate_id":null,"plate_ids":[101,401],"name":""},"geometry":{"type":"LineString","coordinates":[[-143.309,-4.761],[-142.817,-4.793],[-142.325,-4.825],[-141.833,-4.856],[-141.342,-4.886],[-140.85,-4.917],[-140.358,-4.947],[-139.865,-4.976],[-139.373,-5.005],[-138.881,-5.034],[-138.389,-5.063],[-137.897,-5.091],[-137.405,-5.119],[-136.912,-5.146],[-136.42,-5.173],[-135.927,-5.2],[-135.435,-5.226],[-134.943,-5.252],[-134.45,-5.277],[-133.957,-5.302],[-133.465,-5.327],[-132.972,-5.351],[-132.48,-5.375],[-131.987,-5.399],[-131.494,-5.422],[-131.001,-5.445],[-130.508,-5.467],[-130.016,-5.489],[-129.523,-5.51],[-129.03,-5.531],[-128.537,-5.552],[-128.044,-5.572],[-127.551,-5.592],[-127.058,-5.612],[-126.565,-5.631],[-126.071,-5.649],[-125.578,-5.668],[-125.085,-5.685],[-124.592,-5.703],[-124.099,-5.72],[-123.605,-5.736],[-123.112,-5.752],[-122.619,-5.768],[-122.125,-5.783],[-121.632,-5.798],[-121.138,-5.813],[-120.645,-5.827],[-120.151,-5.84],[-119.658,-5.853],[-119.164,-5.866],[-118.671,-5.878],[-118.177,-5.89],[-117.684,-5.901],[-117.19,-5.912],[-116.697,-5.923],[-116.203,-5.933],[-115.709,-5.943]]}},{"type":"Feature","properties":{"boundary_type":"transform","feature_type":"gpml:Transform","polarity":null,"overriding_plate_id":null,"subducting_plate_id":null,"plate_ids":[101,801],"name":""},"geometry":{"type":"LineString","coordinates":[[-115.709,-5.943],[-115.255,-5.951],[-114.8,-5.959],[-114.346,-5.967],[-113.892,-5.975],[-113.437,-5.982],[-112.983,-5.988],[-112.528,-5.994],[-112.074,-6.0],[-111.619,-6.006]]}},{"type":"Feature","properties":{"boundary_type":"subduction","feature_type":"gpml:SubductionZone","polarity":"Left","overriding_plate_id":401,"subducting_plate_id":101,"plate_ids":[101,401],"name":""},"geometry":{"type":"LineString","coordinates":[[-143.309,-4.761],[-143.608,-5.124],[-143.908,-5.486],[-144.208,-5.848],[-144.509,-6.21],[-144.81,-6.572],[-145.112,-6.933],[-145.413,-7.295],[-145.716,-7.656],[-145.96,-8.083],[-146.206,-8.51],[-146.451,-8.936],[-146.697,-9.363],[-146.944,-9.789],[-147.192,-10.215],[-147.44,-10.641],[-147.689,-11.067],[-147.938,-11.492],[-148.188,-11.917],[-148.342,-12.379],[-148.495,-12.842],[-148.649,-13.303],[-148.804,-13.765],[-148.959,-14.227],[-149.115,-14.689],[-149.272,-15.15],[-149.43,-15.612],[-149.588,-16.073],[-149.746,-16.534],[-149.906,-16.995],[-150.066,-17.456],[-150.228,-17.917],[-150.39,-18.378],[-150.552,-18.839],[-150.716,-19.299],[-150.863,-19.744],[-151.012,-20.189],[-151.161,-20.634],[-151.31,-21.078],[-151.461,-21.523],[-151.613,-21.967],[-151.765,-22.412],[-151.919,-22.856],[-152.073,-23.3],[-152.229,-23.744],[-152.386,-24.187],[-152.544,-24.631],[-152.702,-25.074],[-152.863,-25.517]]}},{"type":"Feature","properties":{"boundary_type":"subduction","feature_type":"gpml:SubductionZone","polarity":"Left","overriding_plate_id":801,"subducting_plate_id":101,"plate_ids":[101,801],"name":""},"geometry":{"type":"LineString","coordinates":[[-103.211,12.108],[-103.515,11.73],[-103.817,11.352],[-104.118,10.973],[-104.419,10.595],[-104.719,10.216],[-105.018,9.837],[-105.317,9.457],[-105.615,9.077],[-105.912,8.697],[-106.209,8.317],[-106.505,7.937],[-106.8,7.556],[-107.096,7.175],[-107.39,6.794],[-107.684,6.413],[-107.859,5.951],[-108.033,5.49],[-108.208,5.028],[-108.382,4.567],[-108.555,4.105],[-108.729,3.643],[-108.902,3.181],[-109.075,2.72],[-109.248,2.258],[-109.421,1.796],[-109.594,1.334],[-109.767,0.872],[-109.94,0.41],[-110.113,-0.052],[-110.285,-0.514],[-110.458,-0.975],[-110.631,-1.437],[-110.804,-1.899],[-110.894,-2.356],[-110.984,-2.812],[-111.075,-3.268],[-111.165,-3.724],[-111.256,-4.181],[-111.347,-4.637],[-111.437,-5.093],[-111.528,-5.55],[-111.619,-6.006]]}},{"type":"Feature","properties":{"boundary_type":"ridge","feature_type":"gpml:MidOceanRidge","polarity":null,"overriding_plate_id":null,"subducting_plate_id":null,"plate_ids":[401,801],"name":""},"geometry":{"type":"LineString","coordinates":[[-113.064,-28.47],[-113.128,-27.99],[-113.192,-27.51],[-113.256,-27.031],[-113.319,-26.551],[-113.381,-26.071],[-113.443,-25.591],[-113.505,-25.111],[-113.566,-24.631],[-113.626,-24.151],[-113.686,-23.671],[-113.746,-23.191],[-113.805,-22.711],[-113.864,-22.231],[-113.922,-21.751],[-113.98,-21.271],[-114.038,-20.79],[-114.095,-20.31],[-114.152,-19.83],[-114.208,-19.35],[-114.265,-18.87],[-114.32,-18.389],[-114.376,-17.909],[-114.431,-17.429],[-114.486,-16.949],[-114.541,-16.468],[-114.595,-15.988],[-115.052,-16.003],[-115.508,-16.016],[-115.964,-16.029],[-115.951,-15.549],[-115.939,-15.068],[-115.926,-14.588],[-115.914,-14.108],[-115.902,-13.627],[-115.889,-13.147],[-115.877,-12.667],[-115.865,-12.187],[-115.853,-11.706],[-115.841,-11.226],[-115.828,-10.746],[-115.816,-10.265],[-115.804,-9.785],[-115.792,-9.305],[-115.78,-8.825],[-115.768,-8.344],[-115.757,-7.864],[-115.745,-7.384],[-115.733,-6.903],[-115.721,-6.423],[-115.709,-5.943]]}},{"type":"Feature","properties":{"boundary_type":"transform","feature_type":"gpml:Transform","polarity":null,"overriding_plate_id":null,"subducting_plate_id":null,"plate_ids":[101,302],"name":""},"geometry":{"type":"LineString","coordinates":[[-174.378,4.05],[-174.094,3.852],[-173.811,3.654],[-173.528,3.456]]}},{"type":"Feature","properties":{"boundary_type":"transform","feature_type":"gpml:Transform","polarity":null,"overriding_plate_id":null,"subducting_plate_id":null,"plate_ids":[302,501],"name":""},"geometry":{"type":"LineString","coordinates":[[-173.528,3.456],[-173.118,3.169],[-172.708,2.881],[-172.299,2.594],[-171.89,2.306],[-171.48,2.019],[-171.071,1.731],[-170.663,1.443],[-170.254,1.155],[-169.845,0.867],[-169.437,0.579],[-169.028,0.291],[-168.619,0.003],[-168.211,-0.285],[-167.802,-0.573],[-167.394,-0.861],[-166.985,-1.149],[-166.576,-1.437],[-166.167,-1.725],[-165.759,-2.013],[-165.349,-2.3],[-164.94,-2.588],[-164.531,-2.875],[-164.121,-3.163],[-163.711,-3.45],[-163.301,-3.737],[-162.89,-4.023],[-162.48,-4.31],[-162.069,-4.596],[-161.657,-4.882]]}},{"type":"Feature","properties":{"boundary_type":"ridge","feature_type":"gpml:MidOceanRidge","polarity":null,"overriding_plate_id":null,"subducting_plate_id":null,"plate_ids":[90106,501001],"name":""},"geometry":{"type":"LineString","coordinates":[[-174.643,43.346],[-175.307,43.454],[-175.974,43.558],[-176.643,43.659],[-177.315,43.755],[-177.988,43.848],[-178.664,43.937],[-179.342,44.021],[179.979,44.102],[179.298,44.179],[178.615,44.251],[177.93,44.32],[177.244,44.384],[176.556,44.444],[175.867,44.5],[175.177,44.552],[174.485,44.6],[173.793,44.644],[173.099,44.683],[172.405,44.718],[171.71,44.749],[171.014,44.776],[170.317,44.799],[169.62,44.817],[168.923,44.831],[168.225,44.841],[167.527,44.846],[166.829,44.848],[166.131,44.845],[165.433,44.838],[164.736,44.826],[164.038,44.811],[163.341,44.791],[162.645,44.766],[161.949,44.738],[161.254,44.706],[160.56,44.669],[159.867,44.628],[159.175,44.583],[158.484,44.533],[157.794,44.48],[157.105,44.422],[156.418,44.36],[155.733,44.294],[155.049,44.224],[154.366,44.15],[154.036,43.743],[153.71,43.334],[153.389,42.925],[153.072,42.515],[152.759,42.104],[152.45,41.692],[152.144,41.279],[151.843,40.866],[151.546,40.452],[151.252,40.037],[150.962,39.621],[150.675,39.204],[150.391,38.787],[150.111,38.369],[149.834,37.951],[149.56,37.532],[148.955,37.644],[148.347,37.754],[147.738,37.86],[147.127,37.963],[146.515,38.063],[145.9,38.16],[145.284,38.254],[144.667,38.344],[144.048,38.431],[143.428,38.515],[142.806,38.595],[142.183,38.673],[141.558,38.747],[140.932,38.817],[140.305,38.884],[139.677,38.948],[139.048,39.009],[138.418,39.066],[137.786,39.12],[137.154,39.17],[136.521,39.217],[135.887,39.261],[135.252,39.301],[134.617,39.337],[133.981,39.37],[133.344,39.4],[132.707,39.426],[132.644,38.935],[132.582,38.444],[132.521,37.953],[132.46,37.462],[132.401,36.971],[132.342,36.48],[132.284,35.989],[132.226,35.497],[132.17,35.006],[132.113,34.515],[132.058,34.024],[132.003,33.532],[131.949,33.041],[131.896,32.55],[131.843,32.058],[131.79,31.567],[131.738,31.075],[131.687,30.584],[131.636,30.093],[131.586,29.601],[131.536,29.11],[131.487,28.618],[130.924,28.601],[130.362,28.582],[129.8,28.56],[129.238,28.536],[128.676,28.51],[128.115,28.481],[127.554,28.45],[126.993,28.417],[126.433,28.381],[125.873,28.344],[125.313,28.303],[124.754,28.261],[124.196,28.216],[123.637,28.17],[123.08,28.12],[122.523,28.069],[121.966,28.015],[121.41,27.959],[120.855,27.901],[120.3,27.841],[119.745,27.778],[119.192,27.713],[118.639,27.646],[118.087,27.577],[117.535,27.506],[116.985,27.432],[116.435,27.357],[115.885,27.279],[115.337,27.199],[114.789,27.117],[114.242,27.032],[113.696,26.946],[113.151,26.858],[112.607,26.767],[112.063,26.674],[111.521,26.58],[110.979,26.483],[110.438,26.384],[109.899,26.283],[109.36,26.181],[108.822,26.076],[108.285,25.969]]}},{"type":"Feature","properties":{"boundary_type":"ridge","feature_type":"gpml:MidOceanRidge","polarity":null,"overriding_plate_id":null,"subducting_plate_id":null,"plate_ids":[90105,501001],"name":""},"geometry":{"type":"LineString","coordinates":[[112.324,25.324],[111.87,25.047],[111.419,24.769],[110.969,24.49],[110.521,24.21],[110.076,23.928],[109.632,23.645],[109.19,23.361],[108.75,23.075],[108.312,22.788],[107.876,22.5],[107.442,22.211],[107.009,21.921],[106.578,21.63],[106.149,21.337],[105.722,21.043],[105.296,20.749],[104.872,20.453],[104.45,20.156],[104.029,19.859],[103.61,19.56],[103.192,19.26],[102.776,18.96],[102.361,18.658],[101.948,18.356],[101.536,18.052],[101.126,17.748],[100.717,17.443],[100.31,17.137],[99.904,16.83],[99.499,16.523],[99.095,16.215],[98.693,15.906],[98.292,15.596],[97.892,15.285],[97.493,14.974],[97.096,14.662],[96.699,14.35],[96.304,14.036],[95.91,13.723],[95.517,13.408],[95.124,13.093],[94.733,12.777],[94.343,12.461],[93.954,12.144],[93.566,11.827],[93.178,11.509],[92.792,11.19],[92.406,10.872],[92.021,10.552],[91.637,10.232],[91.254,9.912],[90.872,9.591],[90.49,9.27],[90.109,8.949],[90.473,8.613],[90.837,8.276],[91.201,7.94],[91.564,7.603],[91.926,7.266],[92.288,6.928],[92.649,6.591],[93.01,6.252],[93.37,5.914],[93.73,5.576],[94.089,5.237],[94.448,4.898],[94.807,4.559],[95.165,4.22],[95.523,3.88],[95.881,3.541],[96.238,3.201],[96.595,2.861],[96.952,2.521],[97.309,2.181],[97.666,1.841],[98.022,1.501],[98.379,1.16],[98.735,0.82],[99.091,0.48],[99.448,0.139],[99.804,-0.201],[100.16,-0.542],[100.516,-0.882],[100.873,-1.222],[101.229,-1.563],[101.585,-1.903],[101.942,-2.243],[102.299,-2.583],[102.656,-2.923],[103.013,-3.263],[103.371,-3.603],[103.104,-3.967],[102.837,-4.331],[102.569,-4.695],[102.302,-5.059],[102.034,-5.423],[101.766,-5.786],[102.078,-6.128],[102.39,-6.47],[102.703,-6.811],[103.017,-7.152],[103.331,-7.493],[103.645,-7.834],[103.96,-8.175],[104.275,-8.515],[104.591,-8.855],[104.908,-9.195],[105.225,-9.534],[105.543,-9.874],[105.861,-10.213]]}},{"type":"Feature","properties":{"boundary_type":"subduction","feature_type":"gpml:SubductionZone","polarity":"Right","overriding_plate_id":701,"subducting_plate_id":90105,"plate_ids":[701,90105],"name":""},"geometry":{"type":"LineString","coordinates":[[37.018,-76.135],[38.918,-76.344],[40.873,-76.538],[42.882,-76.716],[44.942,-76.878],[47.05,-77.023],[49.203,-77.151],[51.394,-77.261],[53.62,-77.353],[55.875,-77.426],[58.152,-77.479],[60.445,-77.514],[62.747,-77.529],[65.051,-77.525],[67.35,-77.501],[69.637,-77.458],[71.905,-77.395],[74.148,-77.314],[76.359,-77.214],[78.533,-77.096],[80.666,-76.96],[82.753,-76.807],[84.791,-76.638],[86.776,-76.453],[88.707,-76.252],[90.581,-76.037],[92.398,-75.808],[94.156,-75.566],[95.856,-75.312],[97.503,-75.054],[99.094,-74.785],[100.631,-74.505],[102.112,-74.215],[103.541,-73.915],[104.919,-73.606],[106.246,-73.289],[107.524,-72.963],[108.755,-72.63],[109.941,-72.289],[111.083,-71.941],[112.183,-71.587],[113.242,-71.227],[114.263,-70.862],[115.246,-70.49],[116.194,-70.114],[117.108,-69.733],[117.99,-69.347],[118.84,-68.957],[119.661,-68.563],[120.453,-68.165],[121.218,-67.763],[121.957,-67.358],[122.672,-66.95],[123.362,-66.538],[124.031,-66.124],[124.677,-65.706],[125.303,-65.286],[125.91,-64.864],[126.497,-64.439],[127.067,-64.012],[127.619,-63.583],[128.155,-63.152],[128.675,-62.718],[129.18,-62.283],[129.671,-61.846],[130.148,-61.408],[130.612,-60.967],[131.063,-60.526],[131.501,-60.082],[131.929,-59.638],[132.345,-59.192],[132.75,-58.744],[133.145,-58.296],[133.53,-57.846],[133.905,-57.395],[134.272,-56.943],[134.629,-56.49],[134.978,-56.036],[135.319,-55.581],[135.653,-55.125],[135.978,-54.668],[136.297,-54.211],[136.608,-53.752],[136.913,-53.293],[137.211,-52.833],[137.503,-52.372],[137.789,-51.911]]}},{"type":"Feature","properties":{"boundary_type":"ridge","feature_type":"gpml:MidOceanRidge","polarity":null,"overriding_plate_id":null,"subducting_plate_id":null,"plate_ids":[90105,90107],"name":""},"geometry":{"type":"LineString","coordinates":[[-12.236,-53.674],[-12.218,-53.984]]}},{"type":"Feature","properties":{"boundary_type":"ridge","feature_type":"gpml:MidOceanRidge","polarity":null,"overriding_plate_id":null,"subducting_plate_id":null,"plate_ids":[701,90105],"name":""},"geometry":{"type":"LineString","coordinates":[[-12.218,-53.984],[-12.189,-54.474],[-12.16,-54.965],[-12.13,-55.455],[-12.099,-55.946],[-12.068,-56.436],[-12.035,-56.927],[-12.002,-57.417],[-11.968,-57.908],[-11.933,-58.398],[-11.896,-58.889],[-11.859,-59.379],[-11.821,-59.87],[-11.782,-60.36],[-11.741,-60.851],[-11.699,-61.341],[-11.656,-61.831],[-11.611,-62.322],[-11.565,-62.812],[-11.517,-63.303],[-11.468,-63.793],[-11.417,-64.283],[-11.364,-64.774],[-11.309,-65.264],[-11.252,-65.754],[-11.193,-66.244],[-11.132,-66.735],[-9.916,-66.731],[-8.702,-66.719],[-7.489,-66.697],[-6.279,-66.666],[-5.072,-66.626],[-4.791,-67.088],[-4.499,-67.549],[-4.195,-68.01],[-3.88,-68.47],[-3.55,-68.93],[-3.207,-69.389],[-2.849,-69.847],[-2.475,-70.305],[-2.084,-70.761],[-1.675,-71.217],[-1.246,-71.672],[-0.797,-72.126],[-0.324,-72.579],[0.173,-73.031],[0.696,-73.481],[2.051,-73.773],[3.454,-74.056],[4.905,-74.33],[6.405,-74.594],[7.955,-74.848],[9.556,-75.09],[11.207,-75.321],[12.909,-75.54],[14.66,-75.747],[16.46,-75.94],[18.308,-76.12],[20.201,-76.285],[22.137,-76.436],[24.114,-76.572],[26.128,-76.691],[28.175,-76.795],[30.252,-76.882],[32.012,-76.713],[33.727,-76.531],[35.396,-76.339],[37.018,-76.135]]}},{"type":"Feature","properties":{"boundary_type":"ridge","feature_type":"gpml:MidOceanRidge","polarity":null,"overriding_plate_id":null,"subducting_plate_id":null,"plate_ids":[90105,501001],"name":""},"geometry":{"type":"LineString","coordinates":[[112.324,25.324],[111.821,25.41],[111.318,25.495],[110.814,25.579],[110.31,25.66],[109.805,25.74],[109.299,25.818],[108.792,25.894],[108.285,25.969]]}},{"type":"Feature","properties":{"boundary_type":"ridge","feature_type":"gpml:MidOceanRidge","polarity":null,"overriding_plate_id":null,"subducting_plate_id":null,"plate_ids":[90105,90106],"name":""},"geometry":{"type":"LineString","coordinates":[[108.285,25.969],[107.746,26.046],[107.206,26.121],[106.665,26.195],[106.124,26.266],[105.582,26.335],[105.039,26.402],[104.496,26.467],[103.952,26.53],[103.408,26.591],[102.863,26.65],[102.318,26.707],[101.771,26.761],[101.225,26.814],[100.678,26.865],[100.13,26.913],[99.582,26.959],[99.034,27.003],[98.485,27.045],[97.936,27.085],[97.386,27.123],[96.836,27.159],[96.286,27.192],[95.735,27.224],[95.184,27.253],[94.633,27.28],[94.081,27.305],[93.53,27.327],[92.978,27.348],[92.426,27.366],[91.873,27.382],[91.321,27.396],[90.768,27.408],[90.216,27.418],[89.663,27.425],[89.11,27.431],[88.557,27.434],[88.004,27.435],[87.451,27.433],[86.898,27.43],[86.346,27.424],[85.793,27.417],[85.24,27.407],[84.688,27.394],[84.135,27.38],[84.163,27.796],[84.192,28.211],[84.22,28.627],[83.652,28.61],[83.084,28.591],[82.516,28.569],[81.948,28.546],[81.381,28.519],[80.814,28.491],[80.247,28.46],[79.681,28.426],[79.115,28.391],[78.549,28.353],[77.984,28.313],[77.419,28.27],[76.854,28.225],[76.291,28.178],[75.727,28.128],[75.164,28.076],[74.602,28.022],[74.04,27.966],[73.479,27.907],[72.919,27.846],[72.359,27.783],[71.8,27.717],[71.241,27.649],[70.684,27.579],[70.127,27.507],[69.57,27.433],[69.015,27.356],[68.46,27.277],[67.906,27.196],[67.353,27.113],[66.8,27.028],[66.249,26.94],[65.698,26.85],[65.149,26.759],[64.6,26.665],[64.052,26.569],[63.954,27.039],[63.856,27.509],[63.757,27.979],[63.656,28.449],[63.555,28.919],[63.453,29.389],[63.351,29.859],[63.247,30.329],[63.142,30.799],[63.036,31.268],[62.459,31.221],[61.882,31.171],[61.306,31.119],[60.731,31.065],[60.156,31.007],[59.582,30.947],[59.009,30.885],[58.437,30.82],[57.865,30.753],[57.294,30.683],[56.724,30.61],[56.155,30.535],[55.587,30.458],[55.019,30.378],[54.453,30.296],[53.887,30.211],[53.323,30.124],[52.76,30.035],[52.197,29.943],[51.636,29.848],[51.076,29.752],[50.516,29.653],[49.958,29.551],[49.401,29.447],[48.845,29.341],[48.291,29.233],[47.737,29.122],[47.185,29.01],[46.634,28.894],[46.084,28.777],[45.536,28.657],[44.989,28.536],[44.443,28.412],[43.898,28.286],[43.354,28.157],[42.812,28.027],[42.271,27.894],[41.732,27.76],[41.194,27.623],[40.657,27.484],[40.122,27.343],[39.588,27.2],[39.055,27.055],[38.524,26.908],[37.994,26.759],[37.465,26.608],[36.938,26.456],[36.413,26.301],[35.888,26.144],[35.366,25.986],[34.844,25.825],[34.324,25.663],[33.806,25.499],[33.288,25.333],[32.773,25.165]]}},{"type":"Feature","properties":{"boundary_type":"subduction","feature_type":"gpml:SubductionZone","polarity":"Right","overriding_plate_id":201,"subducting_plate_id":701,"plate_ids":[201,701],"name":""},"geometry":{"type":"LineString","coordinates":[[-168.176,-24.476],[-168.494,-24.883],[-168.814,-25.29],[-169.136,-25.695],[-169.461,-26.1],[-169.787,-26.505],[-170.116,-26.908],[-170.448,-27.311],[-170.782,-27.713],[-171.118,-28.114],[-171.457,-28.514],[-171.798,-28.914],[-172.142,-29.312],[-172.489,-29.71],[-172.838,-30.107],[-173.191,-30.503],[-173.546,-30.898],[-173.904,-31.292],[-174.265,-31.685],[-174.629,-32.077],[-174.997,-32.468],[-175.367,-32.857],[-175.741,-33.246],[-176.118,-33.634],[-176.499,-34.02],[-176.883,-34.405],[-177.27,-34.789],[-177.661,-35.172],[-178.056,-35.554],[-178.455,-35.934],[-178.857,-36.313],[-179.264,-36.69],[-179.674,-37.066],[179.911,-37.441],[179.493,-37.814],[179.07,-38.186],[178.626,-38.532],[178.178,-38.876],[177.726,-39.218],[177.269,-39.558],[176.808,-39.897],[176.342,-40.234],[175.872,-40.569],[175.397,-40.902],[174.917,-41.233],[174.432,-41.562],[173.943,-41.889],[173.448,-42.213],[172.948,-42.536],[172.443,-42.857],[171.933,-43.175],[171.417,-43.491],[170.896,-43.805],[170.37,-44.116],[169.838,-44.425],[169.3,-44.731],[168.757,-45.035],[168.207,-45.336],[167.653,-45.634],[167.092,-45.93],[166.525,-46.223],[165.952,-46.513],[165.373,-46.801],[164.788,-47.085],[164.196,-47.366],[163.598,-47.644],[162.994,-47.92],[162.384,-48.191],[161.767,-48.46],[161.143,-48.725],[160.513,-48.987],[159.876,-49.246],[159.233,-49.501],[158.547,-49.708],[157.856,-49.911],[157.158,-50.11],[156.455,-50.304],[155.747,-50.495],[155.032,-50.681],[154.312,-50.862],[153.587,-51.039],[152.856,-51.212],[152.12,-51.38],[151.378,-51.543],[150.631,-51.702],[149.878,-51.856],[149.121,-52.005],[148.359,-52.149],[147.592,-52.288],[146.82,-52.423],[146.043,-52.552],[145.301,-52.607],[144.557,-52.657],[143.812,-52.702],[143.065,-52.743],[142.317,-52.779],[141.567,-52.811],[140.817,-52.837]]}},{"type":"Feature","properties":{"boundary_type":"ridge","feature_type":"gpml:MidOceanRidge","polarity":null,"overriding_plate_id":null,"subducting_plate_id":null,"plate_ids":[90106,90107],"name":""},"geometry":{"type":"LineString","coordinates":[[33.007,25.504],[32.666,25.896],[32.322,26.288],[31.976,26.679],[31.627,27.069],[31.276,27.458],[30.923,27.846],[30.567,28.233],[30.209,28.62],[29.847,29.005],[29.484,29.389],[29.117,29.773],[28.747,30.155],[28.375,30.536],[28.0,30.917],[27.622,31.296],[27.24,31.674],[26.856,32.051],[26.468,32.427],[26.077,32.801],[25.683,33.175],[25.286,33.547],[24.885,33.917],[24.481,34.287],[24.073,34.655],[23.661,35.022],[23.246,35.387],[23.68,35.712],[24.118,36.035],[24.559,36.357],[25.004,36.677],[25.453,36.995],[25.905,37.312],[25.52,37.707],[25.13,38.101],[24.737,38.493],[24.338,38.885],[23.936,39.274],[23.529,39.663],[23.117,40.05],[22.701,40.435],[22.28,40.819],[21.854,41.202],[21.423,41.583],[20.987,41.962],[20.546,42.339],[20.099,42.715],[19.647,43.089],[19.19,43.462],[18.726,43.832],[18.257,44.201],[17.783,44.567],[17.302,44.932],[16.815,45.294],[16.321,45.655],[15.822,46.013],[15.316,46.369],[14.803,46.723],[14.283,47.075],[13.757,47.424],[13.224,47.771],[12.683,48.115],[12.135,48.456],[11.58,48.795],[11.018,49.132],[10.447,49.465],[9.869,49.796],[9.283,50.124],[8.689,50.449],[8.087,50.77],[7.476,51.089],[6.857,51.404],[6.23,51.716],[5.593,52.025],[4.948,52.33],[4.295,52.632],[3.632,52.93],[2.96,53.224],[2.278,53.514],[1.588,53.801],[0.888,54.083],[0.178,54.362],[-0.541,54.636],[-1.27,54.905],[-2.009,55.171],[-2.757,55.432],[-3.516,55.688],[-4.284,55.939],[-5.062,56.186],[-5.85,56.428],[-6.648,56.664],[-7.456,56.896],[-8.274,57.122],[-9.102,57.343],[-9.94,57.558],[-10.788,57.768],[-11.645,57.972],[-12.513,58.17],[-13.389,58.362],[-14.276,58.548],[-15.171,58.728],[-16.076,58.902],[-16.989,59.069],[-17.912,59.23],[-18.842,59.384],[-19.782,59.532],[-20.729,59.673],[-21.684,59.806],[-22.647,59.933],[-23.617,60.053],[-24.593,60.166],[-25.576,60.271],[-26.566,60.369],[-27.561,60.46],[-28.561,60.544],[-29.566,60.619],[-30.576,60.688],[-31.59,60.748],[-32.607,60.801],[-33.628,60.846],[-34.651,60.884],[-35.677,60.913],[-36.704,60.935],[-37.732,60.949],[-38.761,60.955],[-39.79,60.954],[-40.818,60.944]]}},{"type":"Feature","properties":{"boundary_type":"ridge","feature_type":"gpml:MidOceanRidge","polarity":null,"overriding_plate_id":null,"subducting_plate_id":null,"plate_ids":[701,90107],"name":""},"geometry":{"type":"LineString","coordinates":[[-12.218,-53.984],[-13.028,-53.98],[-13.838,-53.97],[-14.647,-53.955],[-15.456,-53.934],[-16.264,-53.909],[-17.07,-53.877],[-17.876,-53.84],[-18.679,-53.798],[-19.482,-53.751],[-20.282,-53.698],[-21.08,-53.64],[-21.876,-53.576],[-22.669,-53.508],[-23.459,-53.434],[-24.247,-53.355],[-25.032,-53.27],[-25.814,-53.181],[-26.592,-53.087],[-27.367,-52.987],[-28.138,-52.882],[-28.905,-52.773],[-28.796,-52.282],[-28.689,-51.791],[-28.585,-51.3],[-28.483,-50.809],[-28.383,-50.318],[-28.285,-49.826],[-28.189,-49.335],[-28.095,-48.844],[-28.002,-48.352],[-27.912,-47.86],[-27.823,-47.369],[-27.736,-46.877],[-27.65,-46.385],[-27.566,-45.893],[-27.484,-45.401],[-27.403,-44.909],[-27.323,-44.417],[-27.245,-43.925],[-27.167,-43.433],[-27.091,-42.941],[-27.017,-42.449],[-26.943,-41.956],[-26.871,-41.464],[-26.8,-40.972],[-26.729,-40.479],[-26.66,-39.987],[-26.592,-39.494],[-26.524,-39.002],[-26.458,-38.509],[-26.393,-38.016],[-26.328,-37.524],[-26.264,-37.031],[-26.201,-36.538],[-26.139,-36.045],[-26.078,-35.553],[-26.017,-35.06],[-25.958,-34.567],[-25.898,-34.074],[-25.84,-33.581],[-26.384,-33.435],[-26.927,-33.287],[-27.467,-33.136],[-28.006,-32.983],[-28.542,-32.828],[-29.077,-32.67],[-29.61,-32.51],[-30.141,-32.348],[-30.671,-32.184],[-31.198,-32.017],[-31.723,-31.849],[-32.247,-31.678],[-32.768,-31.505],[-33.288,-31.33],[-33.805,-31.153],[-34.321,-30.974],[-34.835,-30.792],[-35.346,-30.609],[-35.856,-30.424],[-35.644,-29.959],[-35.433,-29.494],[-35.224,-29.029],[-35.018,-28.564],[-34.813,-28.098],[-34.61,-27.632],[-34.408,-27.165],[-34.208,-26.699],[-34.01,-26.232],[-33.814,-25.765],[-33.619,-25.297],[-33.425,-24.829],[-33.233,-24.361],[-33.043,-23.893],[-32.853,-23.425],[-32.666,-22.956],[-32.479,-22.487],[-32.294,-22.018],[-32.109,-21.549],[-31.926,-21.079],[-31.745,-20.61],[-31.564,-20.14],[-31.384,-19.67],[-31.206,-19.199],[-31.028,-18.729],[-30.852,-18.258],[-30.676,-17.787],[-30.502,-17.317],[-30.328,-16.845],[-30.155,-16.374],[-29.983,-15.903],[-29.812,-15.431],[-29.641,-14.96],[-29.471,-14.488],[-29.302,-14.016],[-29.134,-13.544],[-28.966,-13.072],[-28.799,-12.6],[-28.633,-12.128],[-28.467,-11.655],[-28.302,-11.183],[-28.137,-10.71],[-27.973,-10.237],[-27.809,-9.765],[-27.646,-9.292],[-27.483,-8.819],[-27.321,-8.346],[-27.159,-7.873],[-26.997,-7.4],[-26.836,-6.927],[-26.675,-6.453],[-26.514,-5.98],[-26.354,-5.507],[-26.194,-5.033],[-26.034,-4.56],[-25.874,-4.087],[-25.715,-3.613],[-25.556,-3.14],[-25.396,-2.666],[-25.237,-2.193],[-25.078,-1.719],[-24.919,-1.245],[-24.761,-0.772],[-24.602,-0.298],[-24.443,0.175],[-24.284,0.649]]}},{"type":"Feature","properties":{"boundary_type":"ridge","feature_type":"gpml:MidOceanRidge","polarity":null,"overriding_plate_id":null,"subducting_plate_id":null,"plate_ids":[90106,90107],"name":""},"geometry":{"type":"LineString","coordinates":[[33.007,25.504],[32.773,25.165]]}},{"type":"Feature","properties":{"boundary_type":"ridge","feature_type":"gpml:MidOceanRidge","polarity":null,"overriding_plate_id":null,"subducting_plate_id":null,"plate_ids":[90105,90107],"name":""},"geometry":{"type":"LineString","coordinates":[[32.773,25.165],[32.486,24.748],[32.202,24.331],[31.92,23.913],[31.639,23.495],[31.36,23.076],[31.083,22.657],[30.808,22.237],[30.534,21.817],[30.262,21.396],[29.991,20.975],[29.722,20.553],[29.455,20.131],[29.188,19.709],[28.924,19.286],[28.66,18.863],[28.398,18.44],[28.137,18.016],[27.878,17.592],[27.62,17.167],[27.363,16.742],[27.107,16.317],[26.852,15.891],[26.598,15.466],[26.345,15.04],[26.093,14.613],[25.843,14.187],[25.593,13.76],[25.344,13.333],[25.096,12.905],[24.849,12.478],[24.602,12.05],[24.357,11.622],[24.112,11.193],[24.535,10.922],[24.958,10.65],[25.38,10.378],[25.801,10.105],[26.221,9.832],[26.641,9.558],[27.06,9.283],[27.478,9.008],[27.896,8.733],[28.313,8.457],[28.73,8.181],[29.146,7.904],[29.561,7.627],[29.976,7.349],[30.39,7.072],[30.804,6.793],[31.217,6.515],[31.63,6.236],[32.043,5.956],[32.455,5.677],[32.866,5.397],[33.277,5.117],[33.688,4.836],[34.099,4.556],[33.831,4.141],[33.563,3.727],[33.295,3.312],[33.028,2.897],[32.761,2.483],[32.494,2.068],[32.227,1.653],[31.96,1.238],[31.693,0.823],[31.427,0.408],[31.16,-0.007],[30.894,-0.422],[30.627,-0.836],[30.36,-1.251],[30.094,-1.666],[29.827,-2.081],[29.56,-2.496],[29.292,-2.911],[29.025,-3.325],[28.757,-3.74],[28.49,-4.154],[28.221,-4.569],[27.953,-4.983],[27.684,-5.397],[27.415,-5.811],[27.146,-6.225],[26.876,-6.639],[26.605,-7.053],[26.334,-7.467],[26.063,-7.88],[25.791,-8.293],[25.518,-8.706],[25.245,-9.119],[24.971,-9.532],[24.697,-9.944],[24.422,-10.356],[24.146,-10.768],[23.869,-11.18],[23.592,-11.591],[23.314,-12.002],[23.035,-12.413],[22.755,-12.824],[22.474,-13.234],[22.192,-13.644],[21.909,-14.054],[21.625,-14.463],[21.341,-14.872],[21.055,-15.281],[20.768,-15.689],[20.479,-16.097],[20.19,-16.505],[19.899,-16.912],[19.607,-17.319],[19.314,-17.725],[19.02,-18.131],[18.724,-18.536],[18.427,-18.941],[18.128,-19.346],[17.828,-19.75],[17.526,-20.153],[17.223,-20.556],[16.918,-20.958],[16.611,-21.36],[16.303,-21.762],[15.993,-22.162],[15.682,-22.563],[15.368,-22.962],[15.758,-23.277],[16.151,-23.59],[16.545,-23.903],[16.941,-24.214],[17.338,-24.525],[17.738,-24.834],[18.14,-25.143],[18.544,-25.45],[18.95,-25.756],[19.358,-26.061],[19.768,-26.365],[20.181,-26.668],[20.595,-26.969],[21.012,-27.27],[21.431,-27.569],[21.852,-27.866],[22.276,-28.163],[21.906,-28.533],[21.533,-28.901],[21.158,-29.269],[20.78,-29.636],[20.399,-30.001],[20.015,-30.365],[19.629,-30.729],[19.239,-31.091],[18.847,-31.452],[18.451,-31.812],[18.053,-32.17],[17.651,-32.527],[17.246,-32.883],[16.838,-33.238],[16.427,-33.591],[16.012,-33.943],[15.593,-34.294],[15.172,-34.643],[14.746,-34.99],[14.317,-35.336],[13.885,-35.681],[13.448,-36.024],[13.008,-36.365],[12.564,-36.705],[12.116,-37.043],[11.664,-37.38],[11.208,-37.715],[10.748,-38.048],[10.284,-38.379],[9.815,-38.708],[9.342,-39.035],[8.865,-39.361],[8.383,-39.684],[8.745,-40.06],[9.11,-40.434],[9.48,-40.808],[9.854,-41.18],[10.233,-41.551],[10.615,-41.92],[11.002,-42.288],[11.394,-42.655],[11.79,-43.021],[11.294,-43.349],[10.792,-43.675],[10.285,-43.998],[9.772,-44.32],[9.254,-44.639],[8.73,-44.955],[8.2,-45.27],[7.664,-45.581],[7.122,-45.891],[6.575,-46.197],[6.021,-46.501],[5.461,-46.802],[4.894,-47.101],[4.322,-47.397],[3.742,-47.689],[3.157,-47.979],[2.565,-48.266],[1.966,-48.55],[1.36,-48.83],[0.748,-49.108],[0.129,-49.382],[-0.498,-49.653],[-1.131,-49.92],[-1.771,-50.184],[-2.418,-50.444],[-3.072,-50.701],[-3.734,-50.954],[-4.402,-51.203],[-5.078,-51.449],[-5.761,-51.69],[-6.451,-51.928],[-7.149,-52.161],[-7.854,-52.39],[-8.566,-52.615],[-9.285,-52.836],[-10.012,-53.052],[-10.746,-53.264],[-11.487,-53.471],[-12.236,-53.674]]}},{"type":"Feature","properties":{"boundary_type":"subduction","feature_type":"gpml:SubductionZone","polarity":"Left","overriding_plate_id":10103,"subducting_plate_id":90106,"plate_ids":[10103,90106],"name":""},"geometry":{"type":"LineString","coordinates":[[-90.264,69.369],[-90.395,69.843],[-90.531,70.316],[-90.675,70.789],[-90.825,71.263],[-90.982,71.736],[-91.148,72.209],[-91.323,72.682],[-91.507,73.154],[-91.701,73.627],[-91.906,74.099],[-92.124,74.572],[-92.355,75.043],[-92.601,75.515],[-94.138,75.794],[-95.735,76.062],[-97.391,76.32],[-99.108,76.566],[-100.887,76.8],[-102.727,77.022],[-104.628,77.23],[-106.589,77.424],[-108.607,77.603],[-110.682,77.767],[-112.809,77.916],[-114.986,78.047],[-117.207,78.162],[-119.467,78.258],[-121.761,78.337],[-124.083,78.398],[-126.424,78.439],[-128.508,78.209],[-130.511,77.963],[-132.433,77.704],[-134.274,77.433],[-136.038,77.149],[-137.725,76.853],[-139.338,76.548],[-140.879,76.232],[-142.352,75.908],[-143.759,75.574],[-145.103,75.233],[-146.386,74.885],[-147.613,74.529],[-148.786,74.167],[-149.907,73.799],[-150.979,73.425],[-152.005,73.047],[-152.987,72.663],[-153.927,72.274],[-154.829,71.882],[-155.693,71.485],[-156.522,71.085],[-156.706,70.613],[-156.881,70.141],[-157.049,69.669],[-157.209,69.197],[-157.363,68.725],[-157.51,68.252],[-157.651,67.78],[-157.787,67.307],[-157.917,66.834],[-158.042,66.362],[-158.163,65.889],[-158.28,65.415],[-158.392,64.942],[-158.5,64.469],[-158.605,63.996],[-158.297,63.714],[-157.995,63.432]]}},{"type":"Feature","properties":{"boundary_type":"subduction","feature_type":"gpml:SubductionZone","polarity":"Left","overriding_plate_id":101,"subducting_plate_id":501001,"plate_ids":[101,501001],"name":"Baltica_SZ"},"geometry":{"type":"LineString","coordinates":[[-175.909,39.588],[-175.795,39.131],[-175.683,38.673],[-175.572,38.216],[-175.462,37.758],[-175.354,37.3],[-175.247,36.843],[-175.141,36.385],[-175.025,35.927],[-174.911,35.469],[-174.798,35.01],[-174.686,34.552],[-174.576,34.094],[-174.466,33.635],[-174.358,33.177],[-174.251,32.718],[-174.145,32.259],[-174.04,31.801],[-174.008,31.335],[-173.976,30.87],[-173.944,30.405],[-173.912,29.94],[-173.88,29.475],[-173.849,29.01],[-173.818,28.545],[-173.788,28.079],[-173.758,27.614],[-173.728,27.149],[-173.698,26.684],[-173.668,26.219],[-173.61,25.735],[-173.552,25.251],[-173.495,24.767],[-173.438,24.283],[-173.382,23.799],[-173.326,23.315],[-173.27,22.831],[-173.215,22.347],[-173.16,21.863],[-173.105,21.379],[-173.109,20.896],[-173.112,20.414],[-173.115,19.932],[-173.118,19.449],[-173.122,18.967],[-173.125,18.484],[-173.128,18.002],[-173.131,17.52],[-173.134,17.037],[-173.137,16.555],[-173.14,16.072],[-173.143,15.59],[-173.146,15.108],[-173.15,14.625],[-173.18,14.352]]}},{"type":"Feature","properties":{"boundary_type":"subduction","feature_type":"gpml:SubductionZone","polarity":"Left","overriding_plate_id":101,"subducting_plate_id":501,"plate_ids":[101,501],"name":"Baltica_SZ"},"geometry":{"type":"LineString","coordinates":[[-173.18,14.352],[-173.231,13.885],[-173.282,13.418],[-173.332,12.951],[-173.383,12.484],[-173.433,12.018],[-173.484,11.551],[-173.534,11.084],[-173.583,10.617],[-173.633,10.15],[-173.683,9.684],[-173.732,9.217],[-173.782,8.75],[-173.758,8.269],[-173.735,7.787],[-173.712,7.306],[-173.689,6.825],[-173.666,6.344],[-173.643,5.862],[-173.62,5.381],[-173.597,4.9],[-173.574,4.418],[-173.551,3.937],[-173.528,3.456]]}},{"type":"Feature","properties":{"boundary_type":"subduction","feature_type":"gpml:SubductionZone","polarity":"Left","overriding_plate_id":201,"subducting_plate_id":701,"plate_ids":[201,701],"name":""},"geometry":{"type":"LineString","coordinates":[[-168.176,-24.476],[-167.645,-24.543],[-167.115,-24.609],[-166.583,-24.672],[-166.051,-24.734],[-165.519,-24.794]]}},{"type":"Feature","properties":{"boundary_type":"subduction","feature_type":"gpml:SubductionZone","polarity":"Left","overriding_plate_id":101,"subducting_plate_id":701,"plate_ids":[101,701],"name":""},"geometry":{"type":"LineString","coordinates":[[-165.519,-24.794],[-165.007,-24.85],[-164.495,-24.904],[-163.983,-24.956],[-163.47,-25.006],[-162.956,-25.055],[-162.443,-25.102],[-161.928,-25.147],[-161.414,-25.19],[-160.899,-25.232],[-160.384,-25.272],[-159.859,-25.139],[-159.335,-25.004],[-158.813,-24.867],[-158.291,-24.728],[-157.771,-24.588],[-157.252,-24.446],[-156.734,-24.302],[-156.218,-24.156]]}},{"type":"Feature","properties":{"boundary_type":"ridge","feature_type":"gpml:MidOceanRidge","polarity":null,"overriding_plate_id":null,"subducting_plate_id":null,"plate_ids":[80101,811001],"name":""},"geometry":{"type":"LineString","coordinates":[[-61.402,9.988],[-61.08,9.907],[-60.757,9.825]]}},{"type":"Feature","properties":{"boundary_type":"ridge","feature_type":"gpml:MidOceanRidge","polarity":null,"overriding_plate_id":null,"subducting_plate_id":null,"plate_ids":[701,80101],"name":""},"geometry":{"type":"LineString","coordinates":[[-60.757,9.825],[-60.282,9.703],[-59.807,9.581],[-59.332,9.458],[-58.857,9.335],[-58.383,9.211],[-57.909,9.086],[-57.436,8.961],[-56.963,8.835],[-56.49,8.708],[-56.017,8.581],[-55.545,8.453],[-55.073,8.325],[-54.601,8.196],[-54.13,8.067],[-54.287,7.63],[-54.443,7.193],[-54.6,6.756],[-54.756,6.319],[-54.911,5.882],[-55.067,5.445],[-55.222,5.008],[-55.377,4.571],[-54.887,4.517],[-54.396,4.463],[-53.906,4.408],[-53.416,4.353],[-52.926,4.298],[-52.436,4.242],[-51.946,4.186],[-51.456,4.13],[-50.967,4.073],[-50.477,4.016],[-49.987,3.959],[-49.498,3.902],[-49.008,3.844],[-48.519,3.786],[-48.029,3.727],[-47.54,3.669],[-47.051,3.61],[-46.562,3.551],[-46.073,3.491],[-45.584,3.432],[-45.095,3.372],[-44.606,3.312],[-44.117,3.252],[-43.628,3.191],[-43.139,3.13],[-42.651,3.069],[-42.162,3.008],[-41.674,2.946],[-41.185,2.885],[-40.697,2.823],[-40.208,2.76],[-39.72,2.698],[-39.231,2.636],[-38.743,2.573],[-38.255,2.51],[-37.767,2.447],[-37.279,2.384],[-36.791,2.32],[-36.303,2.257],[-35.815,2.193],[-35.327,2.129],[-34.839,2.065],[-34.351,2.001],[-33.863,1.936],[-33.375,1.872],[-32.888,1.807],[-32.4,1.742],[-31.912,1.677],[-31.425,1.612],[-30.937,1.547],[-30.449,1.482],[-29.962,1.417],[-29.474,1.351],[-28.987,1.286],[-28.499,1.22],[-28.012,1.154],[-27.524,1.088],[-27.037,1.022],[-26.55,0.956],[-26.062,0.89]]}},{"type":"Feature","properties":{"boundary_type":"ridge","feature_type":"gpml:MidOceanRidge","polarity":null,"overriding_plate_id":null,"subducting_plate_id":null,"plate_ids":[701,90107],"name":""},"geometry":{"type":"LineString","coordinates":[[-26.062,0.89],[-25.618,0.83],[-25.173,0.77],[-24.729,0.709],[-24.284,0.649]]}},{"type":"Feature","properties":{"boundary_type":"ridge","feature_type":"gpml:MidOceanRidge","polarity":null,"overriding_plate_id":null,"subducting_plate_id":null,"plate_ids":[80101,811001],"name":""},"geometry":{"type":"LineString","coordinates":[[-36.372,50.618],[-36.89,50.252],[-37.4,49.884],[-37.903,49.514],[-38.397,49.142],[-38.885,48.768],[-39.365,48.391],[-39.838,48.013],[-40.304,47.632],[-40.763,47.25],[-41.216,46.866],[-41.663,46.481],[-42.103,46.093],[-42.537,45.704],[-42.964,45.313],[-43.386,44.921],[-43.803,44.527],[-44.213,44.132],[-44.619,43.735],[-45.019,43.337],[-45.413,42.937],[-45.803,42.536],[-46.187,42.134],[-46.567,41.731],[-46.942,41.326],[-47.312,40.92],[-47.678,40.513],[-47.225,40.208],[-46.776,39.902],[-46.331,39.593],[-45.889,39.284],[-45.452,38.972],[-45.019,38.659],[-44.589,38.344],[-44.953,37.935],[-45.312,37.525],[-45.668,37.113],[-46.02,36.701],[-46.368,36.288],[-46.712,35.873],[-47.053,35.458],[-47.391,35.042],[-47.725,34.624],[-48.055,34.206],[-48.382,33.787],[-48.707,33.367],[-49.027,32.947],[-49.345,32.525],[-48.922,32.297],[-48.502,32.067],[-48.083,31.837],[-47.666,31.604],[-47.251,31.371],[-46.839,31.136],[-47.183,30.733],[-47.524,30.329],[-47.862,29.924],[-48.197,29.518],[-48.53,29.111],[-48.86,28.704],[-49.187,28.295],[-49.512,27.886],[-49.835,27.477],[-50.155,27.066],[-50.473,26.655],[-50.788,26.243],[-51.101,25.83],[-51.412,25.417],[-51.721,25.003],[-52.028,24.589],[-52.333,24.173],[-52.636,23.758],[-52.937,23.341],[-53.236,22.924],[-53.533,22.507],[-53.829,22.089],[-54.122,21.67],[-54.414,21.251],[-54.705,20.832],[-54.994,20.412],[-55.281,19.991],[-55.566,19.57],[-55.808,19.156],[-56.048,18.741],[-56.286,18.326],[-56.524,17.91],[-56.761,17.495],[-56.996,17.079],[-57.231,16.663],[-57.464,16.246],[-57.697,15.83],[-57.928,15.413],[-58.159,14.995],[-58.389,14.578],[-58.617,14.16],[-58.845,13.742],[-59.073,13.324],[-59.299,12.906],[-59.564,12.542],[-59.829,12.178],[-60.093,11.814],[-60.356,11.449],[-60.618,11.084],[-60.88,10.719],[-61.141,10.354],[-61.402,9.988]]}},{"type":"Feature","properties":{"boundary_type":"subduction","feature_type":"gpml:SubductionZone","polarity":"Right","overriding_plate_id":80101,"subducting_plate_id":90107,"plate_ids":[80101,90107],"name":""},"geometry":{"type":"LineString","coordinates":[[-15.685,21.423],[-15.818,21.007],[-15.949,20.592],[-16.08,20.176],[-16.21,19.761],[-16.34,19.345],[-16.468,18.93],[-16.69,18.476],[-16.91,18.022],[-17.129,17.568],[-17.347,17.114],[-17.564,16.659],[-17.78,16.204],[-17.995,15.749],[-18.209,15.294],[-18.422,14.839],[-18.634,14.383],[-18.845,13.927],[-19.056,13.471],[-19.266,13.015],[-19.474,12.559],[-19.683,12.102],[-19.89,11.645],[-20.13,11.209],[-20.369,10.773],[-20.607,10.336],[-20.845,9.899],[-21.082,9.462],[-21.318,9.025],[-21.554,8.588],[-21.789,8.15],[-22.024,7.713],[-22.259,7.275],[-22.492,6.837],[-22.726,6.4],[-22.959,5.961],[-23.192,5.523],[-23.424,5.085],[-23.656,4.647],[-23.888,4.208],[-24.16,3.794],[-24.432,3.379],[-24.705,2.965],[-24.976,2.55],[-25.248,2.135],[-25.52,1.72],[-25.791,1.305],[-26.062,0.89]]}},{"type":"Feature","properties":{"boundary_type":"ridge","feature_type":"gpml:MidOceanRidge","polarity":null,"overriding_plate_id":null,"subducting_plate_id":null,"plate_ids":[701,811001],"name":""},"geometry":{"type":"LineString","coordinates":[[-81.415,10.625],[-80.914,10.658],[-80.414,10.69],[-79.913,10.722],[-79.412,10.752],[-78.911,10.782],[-78.41,10.812],[-77.909,10.84],[-77.408,10.867],[-76.906,10.894],[-76.405,10.92],[-75.903,10.945],[-75.402,10.969],[-74.9,10.993],[-74.398,11.016],[-73.896,11.037],[-73.394,11.058],[-72.892,11.079],[-72.39,11.098],[-71.888,11.116],[-71.386,11.134],[-70.884,11.151],[-70.381,11.167],[-70.396,10.791],[-70.41,10.415],[-70.424,10.04],[-70.438,9.664],[-69.954,9.678],[-69.47,9.692],[-68.986,9.705],[-68.503,9.718],[-68.019,9.73],[-67.535,9.741],[-67.051,9.751],[-66.567,9.761],[-66.083,9.77],[-65.599,9.779],[-65.115,9.786],[-64.631,9.793],[-64.146,9.8],[-63.662,9.805],[-63.178,9.81],[-62.694,9.815],[-62.21,9.818],[-61.726,9.821],[-61.242,9.823],[-60.757,9.825]]}},{"type":"Feature","properties":{"boundary_type":"subduction","feature_type":"gpml:SubductionZone","polarity":"Left","overriding_plate_id":501,"subducting_plate_id":501001,"plate_ids":[501,501001],"name":""},"geometry":{"type":"LineString","coordinates":[[-173.18,14.352],[-173.353,13.89],[-173.526,13.428],[-173.698,12.966],[-173.87,12.504],[-174.041,12.042],[-174.211,11.58],[-174.381,11.118],[-174.551,10.655],[-174.719,10.193],[-174.888,9.73],[-175.056,9.267],[-175.223,8.805],[-175.39,8.342],[-175.557,7.879],[-175.723,7.416],[-175.936,6.973],[-176.149,6.53],[-176.362,6.087],[-176.575,5.644],[-176.787,5.201],[-176.998,4.757],[-177.21,4.314],[-177.421,3.871],[-177.632,3.427],[-177.843,2.984],[-178.054,2.54],[-178.264,2.097],[-178.474,1.653],[-178.685,1.21],[-178.895,0.766],[-179.105,0.322],[-179.315,-0.121],[-179.525,-0.565],[-179.736,-1.009],[-179.946,-1.452],[179.844,-1.896],[179.633,-2.339],[179.423,-2.783],[179.212,-3.226],[179.001,-3.67],[178.79,-4.113],[178.579,-4.557],[178.367,-5.0],[178.155,-5.443],[177.943,-5.886],[177.707,-6.324],[177.47,-6.762],[177.233,-7.2],[176.996,-7.638],[176.758,-8.075],[176.52,-8.513],[176.281,-8.95],[176.041,-9.387],[175.801,-9.824],[175.561,-10.261],[175.319,-10.697],[175.077,-11.134],[174.834,-11.57],[174.591,-12.006],[174.346,-12.442],[174.101,-12.877],[173.855,-13.313],[173.608,-13.748],[173.36,-14.183],[173.111,-14.617],[172.862,-15.052]]}}]}