{"type":"FeatureCollection","meta":{"model":"Cao2024","reconstruction_time_ma":420.0,"anchor_plate_id":0,"pygplates_version":"1.0.0","tessellate_degrees":0.5,"polarity_convention":"gpml:subductionPolarity. 'Left'/'Right' names the side of the line, in vertex order, on which the OVERRIDING plate lies. Triangles are drawn on that side.","antimeridian":"Lines are NOT split at +/-180 deg. The renderer works in 3D unit vectors where the dateline is not special; splitting would only add spurious breaks. Do not treat this as RFC 7946 GIS-ready 2D data."},"features":[{"type":"Feature","properties":{"boundary_type":"subduction","feature_type":"gpml:SubductionZone","polarity":"Right","overriding_plate_id":101,"subducting_plate_id":902,"plate_ids":[101,902],"name":"WNAM Transform"},"geometry":{"type":"LineString","coordinates":[[-119.431,-7.864],[-119.345,-7.381],[-119.26,-6.898],[-119.175,-6.414],[-119.09,-5.931],[-119.005,-5.448],[-118.685,-5.109],[-118.365,-4.77],[-118.045,-4.431],[-117.726,-4.091],[-117.407,-3.752],[-117.088,-3.412],[-116.77,-3.073],[-116.452,-2.733],[-116.134,-2.393],[-115.816,-2.053],[-115.498,-1.713],[-115.18,-1.373],[-114.778,-1.104],[-114.377,-0.835],[-113.976,-0.566],[-113.574,-0.297],[-113.173,-0.028],[-112.771,0.241],[-112.37,0.51],[-111.968,0.779],[-111.567,1.048],[-111.165,1.317],[-110.744,1.532],[-110.323,1.746],[-109.901,1.96],[-109.48,2.174],[-109.058,2.388],[-108.636,2.602],[-108.214,2.816],[-107.792,3.029],[-107.37,3.243],[-106.947,3.456],[-106.524,3.669],[-106.102,3.882],[-105.678,4.095],[-105.255,4.307],[-104.934,4.671],[-104.612,5.034],[-104.29,5.397],[-103.967,5.76],[-103.644,6.123],[-103.321,6.486],[-102.997,6.849],[-102.673,7.211],[-102.348,7.573],[-102.023,7.935],[-101.697,8.296],[-101.37,8.658],[-101.043,9.019],[-100.715,9.379],[-100.387,9.74],[-100.057,10.1],[-99.727,10.46],[-99.397,10.819],[-99.065,11.178],[-98.733,11.537],[-98.4,11.895],[-98.065,12.253],[-97.731,12.611],[-97.395,12.968],[-97.058,13.325],[-96.72,13.681],[-96.381,14.037],[-96.041,14.392],[-95.7,14.747],[-95.36,15.101],[-95.02,15.454],[-94.678,15.807],[-94.334,16.159],[-93.99,16.511],[-93.644,16.862],[-93.298,17.212],[-92.949,17.562],[-92.6,17.911],[-92.249,18.26],[-91.897,18.608],[-91.543,18.955],[-91.188,19.302],[-90.831,19.648],[-90.472,19.993],[-90.113,20.338],[-89.751,20.682],[-89.26,20.878],[-88.767,21.072],[-88.273,21.265],[-87.777,21.457],[-87.28,21.648],[-86.782,21.836],[-86.283,22.024],[-85.782,22.209],[-85.28,22.394],[-84.777,22.576],[-84.272,22.757],[-83.766,22.937],[-83.259,23.115],[-82.75,23.291],[-82.24,23.466],[-82.216,23.465]]}},{"type":"Feature","properties":{"boundary_type":"subduction","feature_type":"gpml:SubductionZone","polarity":"Left","overriding_plate_id":401,"subducting_plate_id":9006,"plate_ids":[401,9006],"name":"Subzone consuming palaeo-asian ocean"},"geometry":{"type":"LineString","coordinates":[[13.205,-3.765],[13.656,-3.603],[14.107,-3.44],[14.558,-3.277],[15.009,-3.113],[15.459,-2.95],[15.91,-2.786],[16.36,-2.622],[16.811,-2.458],[17.207,-2.208],[17.604,-1.957],[18.0,-1.707],[18.396,-1.456],[18.792,-1.206],[19.188,-0.955],[19.584,-0.704],[19.98,-0.454],[20.376,-0.203],[20.772,0.048],[21.168,0.299],[21.563,0.549],[21.959,0.8],[22.355,1.051],[22.751,1.301],[23.186,1.491],[23.62,1.681],[24.054,1.87],[24.488,2.059],[24.923,2.248],[25.357,2.437],[25.792,2.626],[26.227,2.815],[26.662,3.004],[27.097,3.192],[27.532,3.38],[27.968,3.568],[28.403,3.756],[28.839,3.944],[29.071,4.355],[29.303,4.766],[29.535,5.177],[29.768,5.588],[30.0,5.999],[30.234,6.41],[30.467,6.821],[30.553,7.272],[30.638,7.724],[30.724,8.175],[30.81,8.627],[30.897,9.078],[30.983,9.53],[31.07,9.981],[31.157,10.432],[31.178,10.904],[31.199,11.375],[31.221,11.846],[31.242,12.317],[31.264,12.788],[31.285,13.259],[31.307,13.73],[31.329,14.201],[31.35,14.672],[31.372,15.143],[31.386,15.616],[31.401,16.088],[31.415,16.561],[31.429,17.033],[31.444,17.506],[31.458,17.978],[31.473,18.451]]}},{"type":"Feature","properties":{"boundary_type":"subduction","feature_type":"gpml:SubductionZone","polarity":"Left","overriding_plate_id":4100,"subducting_plate_id":902,"plate_ids":[902,4100],"name":"Siberia SZ, to accommodate motion"},"geometry":{"type":"LineString","coordinates":[[20.129,41.659],[19.727,42.022],[19.321,42.383],[18.91,42.743],[18.494,43.102],[18.073,43.458],[17.647,43.814],[17.245,44.128],[16.838,44.441],[16.427,44.752],[16.011,45.062],[15.591,45.37],[15.166,45.677],[14.863,46.11],[14.556,46.542],[14.243,46.973],[13.926,47.404]]}},{"type":"Feature","properties":{"boundary_type":"subduction","feature_type":"gpml:SubductionZone","polarity":"Left","overriding_plate_id":101,"subducting_plate_id":701,"plate_ids":[101,701],"name":"Laurussia subduction"},"geometry":{"type":"LineString","coordinates":[[-57.766,-29.01],[-57.664,-29.017],[-57.174,-28.986],[-56.684,-28.952],[-56.195,-28.917],[-55.706,-28.88],[-55.217,-28.841],[-54.737,-28.662],[-54.259,-28.481],[-53.782,-28.298],[-53.307,-28.114],[-52.833,-27.928],[-52.361,-27.74],[-51.853,-27.528],[-51.346,-27.315],[-50.841,-27.1],[-50.338,-26.883],[-49.837,-26.664],[-49.412,-26.4],[-48.989,-26.134],[-48.568,-25.867],[-48.149,-25.599],[-47.731,-25.33],[-47.316,-25.059],[-46.902,-24.788],[-46.531,-24.511],[-46.162,-24.234],[-45.795,-23.956],[-45.429,-23.676],[-45.065,-23.396],[-44.702,-23.116],[-44.341,-22.834],[-43.848,-22.679],[-43.355,-22.523],[-42.864,-22.366],[-42.374,-22.206],[-41.885,-22.046],[-41.4,-22.019],[-40.915,-21.991],[-40.43,-21.962],[-39.945,-21.931],[-39.461,-21.899],[-38.977,-21.866],[-38.493,-21.831],[-38.04,-21.746],[-37.588,-21.659],[-37.137,-21.572],[-36.686,-21.483],[-36.235,-21.393],[-35.786,-21.302],[-35.336,-21.209],[-34.952,-20.944],[-34.57,-20.679],[-34.188,-20.412],[-33.808,-20.145],[-33.429,-19.876],[-33.188,-19.502],[-32.947,-19.128],[-32.708,-18.753],[-32.47,-18.378],[-32.232,-18.002],[-31.996,-17.626],[-31.761,-17.25],[-31.624,-16.774],[-31.488,-16.298],[-31.353,-15.822],[-31.218,-15.345],[-31.084,-14.869],[-30.95,-14.392],[-30.728,-13.969],[-30.507,-13.546],[-30.287,-13.122],[-30.067,-12.698],[-29.848,-12.274],[-29.63,-11.85],[-29.413,-11.426],[-29.142,-11.013],[-28.871,-10.601],[-28.602,-10.188],[-28.333,-9.774],[-28.065,-9.361],[-27.797,-8.947],[-27.53,-8.533],[-27.263,-8.119],[-27.014,-7.74],[-26.765,-7.361],[-26.516,-6.982],[-26.268,-6.602],[-26.02,-6.223],[-25.772,-5.843],[-25.525,-5.463],[-25.278,-5.083],[-25.044,-4.651],[-24.81,-4.218],[-24.576,-3.785],[-24.342,-3.352],[-24.109,-2.919],[-23.876,-2.485],[-23.828,-2.137],[-23.78,-1.788]]}},{"type":"Feature","properties":{"boundary_type":"subduction","feature_type":"gpml:SubductionZone","polarity":"Right","overriding_plate_id":701,"subducting_plate_id":919,"plate_ids":[701,919],"name":"Gondwana subduction zone"},"geometry":{"type":"LineString","coordinates":[[152.245,-45.812],[152.85,-45.951],[153.458,-46.087],[154.068,-46.219],[154.682,-46.349],[155.299,-46.475],[155.918,-46.597],[156.54,-46.717],[157.229,-46.825],[157.921,-46.93],[158.616,-47.03],[159.314,-47.126],[160.013,-47.218],[160.716,-47.305],[161.42,-47.388],[162.127,-47.467],[162.835,-47.542],[163.546,-47.612],[164.168,-47.797],[164.795,-47.978],[165.426,-48.156],[166.062,-48.33],[166.702,-48.501],[167.346,-48.668],[167.994,-48.832],[168.647,-48.992],[169.304,-49.148],[169.964,-49.3],[170.629,-49.449],[171.339,-49.575],[172.052,-49.695],[172.769,-49.812],[173.489,-49.924],[174.213,-50.032],[174.939,-50.135],[175.669,-50.234],[176.402,-50.328],[177.137,-50.417],[177.875,-50.502],[178.604,-50.626],[179.336,-50.745],[-179.928,-50.86],[-179.189,-50.97],[-178.446,-51.076],[-177.7,-51.177],[-176.951,-51.273],[-176.198,-51.364],[-175.579,-51.637],[-174.953,-51.907],[-174.319,-52.173],[-173.677,-52.436],[-173.028,-52.696],[-172.371,-52.951],[-171.706,-53.204],[-171.034,-53.452],[-170.353,-53.697],[-169.796,-54.026],[-169.231,-54.352],[-168.656,-54.676],[-168.072,-54.997],[-167.479,-55.315],[-166.876,-55.63],[-166.263,-55.942],[-165.641,-56.251],[-165.008,-56.557],[-164.365,-56.86],[-163.664,-57.152],[-162.951,-57.44],[-162.227,-57.725],[-161.491,-58.005],[-160.744,-58.281],[-159.986,-58.552],[-159.215,-58.819],[-158.433,-59.082],[-157.639,-59.339],[-156.833,-59.592],[-156.014,-59.839],[-155.184,-60.082],[-154.304,-60.22],[-153.416,-60.353],[-152.521,-60.48],[-151.619,-60.6],[-150.711,-60.715],[-149.797,-60.823],[-148.876,-60.926],[-147.95,-61.021],[-147.018,-61.111],[-146.071,-61.02],[-145.129,-60.922],[-144.194,-60.818],[-143.265,-60.707],[-142.342,-60.59],[-141.427,-60.467],[-140.518,-60.337],[-139.617,-60.201],[-138.723,-60.059],[-137.837,-59.912],[-136.959,-59.758],[-136.09,-59.598],[-135.229,-59.433],[-134.428,-59.166],[-133.641,-58.893],[-132.866,-58.616],[-132.103,-58.334],[-131.352,-58.048],[-130.614,-57.758],[-129.887,-57.463]]}},{"type":"Feature","properties":{"boundary_type":"subduction","feature_type":"gpml:SubductionZone","polarity":"Left","overriding_plate_id":701,"subducting_plate_id":919,"plate_ids":[701,919],"name":"New Zealand SZ (SE eastern Gondwanaland)"},"geometry":{"type":"LineString","coordinates":[[146.944,-39.197],[146.366,-38.998],[146.12,-38.566],[145.876,-38.134],[145.634,-37.702],[145.396,-37.268],[145.161,-36.835],[144.928,-36.401],[144.697,-35.966],[144.47,-35.531],[144.143,-35.112],[143.819,-34.693],[143.498,-34.272],[143.181,-33.851],[142.866,-33.429],[142.555,-33.006],[142.247,-32.582],[141.942,-32.158],[141.639,-31.733],[141.452,-31.283],[141.267,-30.833],[141.084,-30.383],[140.902,-29.933],[140.722,-29.482],[140.543,-29.031],[140.366,-28.58],[140.191,-28.129],[140.017,-27.678],[139.976,-27.218],[139.936,-26.759],[139.896,-26.299],[139.857,-25.84],[139.818,-25.38],[139.779,-24.921],[139.741,-24.461],[139.702,-24.002],[139.664,-23.542],[139.626,-23.083],[139.589,-22.623],[139.468,-22.159],[139.348,-21.694],[139.229,-21.229],[139.11,-20.764],[138.993,-20.3],[138.876,-19.835],[138.759,-19.369],[138.643,-18.904],[138.528,-18.439],[138.414,-17.974],[138.3,-17.508],[138.187,-17.043],[138.074,-16.577],[137.962,-16.112],[137.8,-15.643],[137.638,-15.174],[137.477,-14.705],[137.317,-14.236],[137.158,-13.766],[136.999,-13.297],[136.841,-12.828],[136.683,-12.358],[136.526,-11.888],[136.37,-11.418],[136.214,-10.949],[136.058,-10.479],[135.973,-10.051],[135.889,-9.624],[135.804,-9.196],[135.72,-8.769],[135.636,-8.341],[135.552,-7.914],[135.469,-7.486],[135.188,-7.108],[134.908,-6.731],[134.634,-6.451],[134.361,-6.171],[134.087,-5.891]]}},{"type":"Feature","properties":{"boundary_type":"subduction","feature_type":"gpml:SubductionZone","polarity":"Left","overriding_plate_id":701,"subducting_plate_id":919,"plate_ids":[701,919],"name":"West Gondwana (Panthalassa) subduction zone"},"geometry":{"type":"LineString","coordinates":[[152.245,-45.812],[151.649,-45.543],[151.059,-45.271],[150.475,-44.996],[149.896,-44.718],[149.323,-44.437],[148.756,-44.153],[148.193,-43.867],[147.637,-43.577],[147.085,-43.285],[147.068,-42.831],[147.052,-42.377],[147.036,-41.922],[147.02,-41.468],[147.004,-41.014],[146.989,-40.56],[146.974,-40.105],[146.959,-39.651],[146.944,-39.197]]}},{"type":"Feature","properties":{"boundary_type":"subduction","feature_type":"gpml:SubductionZone","polarity":"Right","overriding_plate_id":580,"subducting_plate_id":926,"plate_ids":[580,926],"name":"Kunlun"},"geometry":{"type":"LineString","coordinates":[[66.757,45.959],[67.355,45.992],[67.954,46.021],[68.553,46.047],[69.012,45.691],[69.466,45.332],[69.914,44.972],[70.356,44.61],[70.446,44.191],[70.535,43.772],[70.623,43.353],[70.709,42.933],[70.795,42.514],[70.879,42.094],[71.163,41.666],[71.444,41.236],[71.721,40.806],[71.995,40.376],[72.265,39.944],[72.531,39.512],[72.795,39.08],[72.799,38.646],[72.804,38.213],[72.808,37.78],[72.812,37.346],[72.817,36.913],[72.821,36.48],[72.784,35.989],[72.748,35.499],[72.711,35.008],[72.676,34.517],[72.641,34.027]]}},{"type":"Feature","properties":{"boundary_type":"subduction","feature_type":"gpml:SubductionZone","polarity":"Right","overriding_plate_id":580,"subducting_plate_id":4571,"plate_ids":[580,4571],"name":"Kunlun"},"geometry":{"type":"LineString","coordinates":[[72.641,34.027],[72.606,33.536],[72.411,33.105],[72.218,32.673],[72.026,32.241],[71.837,31.809],[71.649,31.377],[71.463,30.944],[71.279,30.511],[71.062,30.055],[70.848,29.599],[70.635,29.142],[70.424,28.685],[70.378,28.266],[70.333,27.848],[70.287,27.429],[70.242,27.01],[70.198,26.591]]}},{"type":"Feature","properties":{"boundary_type":"subduction","feature_type":"gpml:SubductionZone","polarity":"Right","overriding_plate_id":580,"subducting_plate_id":9006,"plate_ids":[580,9006],"name":"Kunlun"},"geometry":{"type":"LineString","coordinates":[[70.198,26.591],[70.149,26.128],[70.129,25.663],[70.11,25.197],[70.09,24.732],[70.071,24.266],[70.052,23.801],[70.033,23.335],[70.014,22.87],[70.055,22.379],[70.095,21.888],[70.135,21.396],[70.175,20.905],[70.215,20.414],[70.161,19.996],[70.107,19.579],[70.053,19.161],[70.0,18.744],[69.947,18.326],[69.613,18.001],[69.28,17.675],[68.949,17.349],[68.618,17.022],[68.295,16.819],[67.973,16.615],[67.651,16.411],[67.365,16.01],[67.079,15.608],[66.794,15.206],[66.511,14.804],[66.467,14.764]]}},{"type":"Feature","properties":{"boundary_type":"subduction","feature_type":"gpml:SubductionZone","polarity":"Left","overriding_plate_id":401,"subducting_plate_id":459,"plate_ids":[401,459],"name":"Southwest 'Greater Siberia' subduction zone"},"geometry":{"type":"LineString","coordinates":[[27.445,18.512],[27.463,18.969],[27.481,19.426],[27.498,19.883],[27.516,20.34],[27.534,20.797],[27.553,21.254],[27.571,21.711],[27.589,22.168],[27.477,22.609],[27.364,23.051],[27.251,23.492],[27.136,23.933],[27.021,24.373],[26.905,24.814],[26.788,25.255]]}},{"type":"Feature","properties":{"boundary_type":"subduction","feature_type":"gpml:SubductionZone","polarity":"Left","overriding_plate_id":401,"subducting_plate_id":926,"plate_ids":[401,926],"name":"Southwest 'Greater Siberia' subduction zone"},"geometry":{"type":"LineString","coordinates":[[26.788,25.255],[26.687,25.635],[26.585,26.014],[26.482,26.394],[26.119,26.751],[25.755,27.107],[25.388,27.462],[25.018,27.816],[24.646,28.169],[24.272,28.521],[23.895,28.872],[23.516,29.222],[23.134,29.571],[22.749,29.919],[22.329,30.226],[21.907,30.531],[21.482,30.835],[21.054,31.138],[20.624,31.439],[20.19,31.739],[19.754,32.038],[19.315,32.335],[18.874,32.63],[18.328,32.822],[17.78,33.012],[17.23,33.2]]}},{"type":"Feature","properties":{"boundary_type":"subduction","feature_type":"gpml:SubductionZone","polarity":"Left","overriding_plate_id":401,"subducting_plate_id":902,"plate_ids":[401,902],"name":"Southwest 'Greater Siberia' subduction zone"},"geometry":{"type":"LineString","coordinates":[[17.23,33.2],[16.696,33.378],[16.16,33.555],[15.622,33.729],[15.081,33.901],[14.539,34.07],[13.994,34.237]]}},{"type":"Feature","properties":{"boundary_type":"subduction","feature_type":"gpml:SubductionZone","polarity":"Left","overriding_plate_id":401,"subducting_plate_id":701,"plate_ids":[401,701],"name":"Tagil subduction zone"},"geometry":{"type":"LineString","coordinates":[[-22.641,-1.118],[-22.235,-1.339],[-21.829,-1.559],[-21.423,-1.78],[-21.017,-2.0],[-20.67,-2.276],[-20.323,-2.552],[-19.976,-2.828],[-19.628,-3.104],[-19.281,-3.38],[-18.823,-3.567],[-18.365,-3.754],[-17.906,-3.941],[-17.448,-4.128],[-16.989,-4.315],[-16.53,-4.501],[-16.071,-4.687],[-15.598,-4.805],[-15.126,-4.922],[-14.653,-5.039],[-14.18,-5.156],[-13.707,-5.272],[-13.233,-5.388],[-12.76,-5.504],[-12.286,-5.619],[-11.812,-5.734],[-11.338,-5.848],[-10.864,-5.962],[-10.39,-6.076],[-9.915,-6.189],[-9.454,-6.228],[-8.993,-6.267],[-8.532,-6.306],[-8.07,-6.344],[-7.609,-6.381],[-7.148,-6.419],[-6.686,-6.455],[-6.225,-6.492],[-5.763,-6.528],[-5.302,-6.563],[-4.84,-6.599],[-4.378,-6.633],[-4.014,-6.58],[-3.65,-6.526],[-3.286,-6.472]]}},{"type":"Feature","properties":{"boundary_type":"subduction","feature_type":"gpml:SubductionZone","polarity":"Left","overriding_plate_id":401,"subducting_plate_id":9006,"plate_ids":[401,9006],"name":"Tagil subduction zone"},"geometry":{"type":"LineString","coordinates":[[-3.286,-6.472],[-2.839,-6.406],[-2.393,-6.339],[-1.946,-6.272],[-1.5,-6.204],[-1.053,-6.136],[-0.607,-6.067],[-0.161,-5.999],[0.285,-5.929],[0.757,-5.867],[1.228,-5.804],[1.699,-5.741],[2.171,-5.678],[2.642,-5.614],[3.113,-5.549],[3.584,-5.485],[4.054,-5.42],[4.525,-5.354],[4.996,-5.288],[5.489,-5.21],[5.982,-5.131],[6.474,-5.052],[6.967,-4.972],[7.46,-4.892],[7.952,-4.811],[8.445,-4.731],[8.937,-4.65],[9.429,-4.568],[9.901,-4.469],[10.374,-4.369],[10.846,-4.269],[11.318,-4.169],[11.79,-4.069],[12.261,-3.968],[12.733,-3.867],[13.205,-3.765]]}},{"type":"Feature","properties":{"boundary_type":"subduction","feature_type":"gpml:SubductionZone","polarity":"Right","overriding_plate_id":701,"subducting_plate_id":501,"plate_ids":[501,701],"name":"Oblique subduction zone along NE Gondwana"},"geometry":{"type":"LineString","coordinates":[[73.565,-24.384],[74.086,-24.347],[74.606,-24.309],[75.126,-24.268],[75.646,-24.226],[76.165,-24.182],[76.684,-24.136],[77.202,-24.088],[77.721,-24.039],[78.238,-23.988],[78.756,-23.935],[79.237,-23.793],[79.717,-23.649],[80.195,-23.504],[80.673,-23.358],[81.15,-23.21],[81.626,-23.06],[82.1,-22.909],[82.58,-22.702],[83.057,-22.493],[83.533,-22.283],[84.008,-22.072],[84.482,-21.859],[84.954,-21.645],[85.424,-21.43],[85.863,-21.222],[86.3,-21.014],[86.736,-20.804],[87.171,-20.593],[87.604,-20.381],[88.037,-20.168],[88.468,-19.954],[88.898,-19.738],[89.283,-19.633],[89.668,-19.527],[90.053,-19.42],[90.437,-19.313]]}},{"type":"Feature","properties":{"boundary_type":"subduction","feature_type":"gpml:SubductionZone","polarity":"Right","overriding_plate_id":459,"subducting_plate_id":926,"plate_ids":[459,926],"name":"Chu Yili SZ"},"geometry":{"type":"LineString","coordinates":[[26.788,25.255],[27.183,25.465],[27.662,25.687],[28.143,25.907],[28.625,26.126],[29.11,26.343],[29.596,26.558],[30.084,26.771],[30.573,26.983],[30.958,27.318],[31.345,27.652],[31.735,27.984],[32.126,28.316],[32.521,28.646],[32.981,28.677],[33.442,28.707],[33.903,28.735],[34.365,28.761],[34.812,28.875],[35.261,28.987],[35.711,29.098],[36.235,29.175],[36.76,29.249],[37.286,29.321],[37.812,29.392],[38.339,29.46],[38.782,29.53],[39.226,29.599],[39.671,29.667],[40.116,29.733],[40.593,29.746],[41.071,29.758],[41.548,29.768],[42.026,29.776],[42.496,29.828],[42.967,29.878],[43.438,29.927],[43.91,29.974],[44.382,30.019],[44.786,30.172],[45.191,30.324],[45.597,30.474],[46.005,30.623],[46.467,30.868],[46.931,31.11],[47.397,31.351],[47.859,31.582],[48.324,31.811],[48.791,32.038],[49.26,32.264],[49.731,32.488]]}},{"type":"Feature","properties":{"boundary_type":"subduction","feature_type":"gpml:SubductionZone","polarity":"Left","overriding_plate_id":902,"subducting_plate_id":919,"plate_ids":[902,919],"name":"East Laurentia (Rheic)  subduction zone"},"geometry":{"type":"LineString","coordinates":[[-131.164,-23.471],[-131.129,-23.519]]}},{"type":"Feature","properties":{"boundary_type":"subduction","feature_type":"gpml:SubductionZone","polarity":"Left","overriding_plate_id":101,"subducting_plate_id":919,"plate_ids":[101,919],"name":"East Laurentia (Rheic)  subduction zone"},"geometry":{"type":"LineString","coordinates":[[-131.129,-23.519],[-130.845,-23.91],[-130.558,-24.301],[-130.27,-24.691],[-129.98,-25.081],[-129.688,-25.47],[-129.352,-25.836],[-129.015,-26.202],[-128.675,-26.567],[-128.333,-26.931],[-127.989,-27.295],[-127.642,-27.657],[-127.294,-28.019],[-126.943,-28.38],[-126.589,-28.74],[-126.233,-29.099],[-125.875,-29.457],[-125.514,-29.814],[-125.15,-30.17],[-124.784,-30.525],[-124.416,-30.879],[-124.044,-31.232],[-123.576,-31.397],[-123.107,-31.561],[-122.636,-31.724]]}},{"type":"Feature","properties":{"boundary_type":"subduction","feature_type":"gpml:SubductionZone","polarity":"Left","overriding_plate_id":101,"subducting_plate_id":701,"plate_ids":[101,701],"name":"East Laurentia (Rheic)  subduction zone"},"geometry":{"type":"LineString","coordinates":[[-122.636,-31.724],[-122.093,-31.908],[-121.547,-32.09],[-120.999,-32.27],[-120.449,-32.447],[-119.897,-32.622],[-119.342,-32.795],[-118.786,-32.965],[-118.227,-33.133],[-117.666,-33.298],[-117.104,-33.461],[-116.539,-33.621],[-115.972,-33.778],[-115.402,-33.933],[-114.831,-34.085],[-114.321,-34.294],[-113.809,-34.501],[-113.294,-34.705],[-112.776,-34.908],[-112.256,-35.108],[-111.733,-35.306],[-111.208,-35.501],[-110.681,-35.695],[-110.15,-35.886],[-109.617,-36.074],[-109.082,-36.261],[-108.544,-36.445],[-108.004,-36.626],[-107.461,-36.805],[-106.915,-36.982],[-106.367,-37.156],[-105.817,-37.327],[-105.221,-37.353],[-104.624,-37.376],[-104.027,-37.396],[-103.43,-37.414],[-102.833,-37.428],[-102.236,-37.439],[-101.638,-37.447],[-101.04,-37.452],[-100.443,-37.454],[-99.845,-37.453],[-99.247,-37.449],[-98.649,-37.442],[-98.052,-37.432],[-97.455,-37.419],[-96.874,-37.435],[-96.294,-37.447],[-95.714,-37.457],[-95.133,-37.464],[-94.552,-37.468],[-93.972,-37.469],[-93.391,-37.467],[-92.81,-37.463],[-92.23,-37.456],[-91.649,-37.446],[-91.047,-37.439],[-90.444,-37.43],[-89.842,-37.417],[-89.24,-37.401],[-88.639,-37.383],[-88.037,-37.361],[-87.436,-37.336],[-86.836,-37.308],[-86.236,-37.278],[-85.636,-37.244],[-85.037,-37.207],[-84.458,-37.175],[-83.88,-37.14],[-83.302,-37.103],[-82.725,-37.063],[-82.149,-37.019],[-81.573,-36.974],[-81.029,-36.887],[-80.487,-36.799],[-79.947,-36.708],[-79.407,-36.614],[-78.869,-36.518],[-78.332,-36.42],[-77.797,-36.319],[-77.263,-36.216],[-76.716,-36.045],[-76.171,-35.871],[-75.628,-35.695],[-75.088,-35.517],[-74.551,-35.336],[-74.015,-35.153],[-73.483,-34.968],[-72.952,-34.78],[-72.424,-34.59],[-71.899,-34.398],[-71.376,-34.203],[-70.794,-34.18],[-70.213,-34.154],[-69.632,-34.125],[-69.052,-34.093],[-68.472,-34.059],[-67.892,-34.022],[-67.314,-33.982],[-66.735,-33.94],[-66.158,-33.895],[-65.58,-33.847],[-65.004,-33.796],[-64.428,-33.743],[-63.853,-33.687],[-63.333,-33.587],[-62.814,-33.484],[-62.296,-33.379],[-61.876,-33.089],[-61.459,-32.797],[-61.045,-32.503],[-60.728,-32.128],[-60.413,-31.752],[-60.101,-31.376],[-59.791,-30.998],[-59.484,-30.62],[-59.179,-30.241],[-58.877,-29.861],[-58.504,-29.579],[-58.134,-29.295],[-57.766,-29.01]]}},{"type":"Feature","properties":{"boundary_type":"subduction","feature_type":"gpml:SubductionZone","polarity":"Left","overriding_plate_id":601,"subducting_plate_id":926,"plate_ids":[601,926],"name":"North China-Beishan subduction zone (PAO)"},"geometry":{"type":"LineString","coordinates":[[100.99,35.934],[100.563,36.24],[100.132,36.545],[99.699,36.848],[99.194,37.048],[98.688,37.246],[98.178,37.441],[97.666,37.634],[97.138,37.693],[96.61,37.75],[96.08,37.804],[95.55,37.856],[94.958,37.806],[94.367,37.754],[93.776,37.699],[93.187,37.64],[92.598,37.579],[92.011,37.515],[91.424,37.448],[90.839,37.378],[90.254,37.306],[89.671,37.23],[89.089,37.152],[88.508,37.07],[87.929,36.986],[87.351,36.899],[86.774,36.809],[86.182,36.833],[85.589,36.854],[84.997,36.872],[84.404,36.887],[83.811,36.899],[83.217,36.908],[82.624,36.914],[82.03,36.917],[81.437,36.917],[80.843,36.914],[80.346,37.062],[79.847,37.209],[79.346,37.353],[78.843,37.495],[78.338,37.635]]}},{"type":"Feature","properties":{"boundary_type":"subduction","feature_type":"gpml:SubductionZone","polarity":"Right","overriding_plate_id":580,"subducting_plate_id":9006,"plate_ids":[580,9006],"name":"Dunhuang-Hanshan subduction"},"geometry":{"type":"LineString","coordinates":[[60.276,17.866],[60.249,18.046],[60.089,18.505],[59.928,18.963],[59.766,19.422],[59.603,19.88],[59.439,20.338],[59.274,20.796],[59.109,21.254],[59.063,21.733],[59.016,22.211],[58.97,22.69],[58.923,23.168],[58.875,23.646],[59.007,24.096],[59.14,24.545],[59.274,24.995],[59.408,25.444],[59.544,25.893],[59.681,26.342],[59.819,26.791],[59.616,27.149],[59.411,27.506],[59.206,27.863],[58.998,28.219],[58.79,28.576],[58.649,29.049],[58.507,29.523],[58.364,29.996],[58.335,30.421],[58.306,30.845],[58.277,31.27],[58.247,31.694],[58.217,32.118],[58.174,32.53]]}},{"type":"Feature","properties":{"boundary_type":"subduction","feature_type":"gpml:SubductionZone","polarity":"Right","overriding_plate_id":580,"subducting_plate_id":926,"plate_ids":[580,926],"name":"Dunhuang-Hanshan subduction"},"geometry":{"type":"LineString","coordinates":[[58.174,32.53],[58.137,32.888],[58.099,33.245],[58.061,33.602],[58.017,34.058],[57.972,34.514],[57.928,34.97],[57.882,35.427],[57.837,35.883],[57.79,36.339],[57.896,36.806],[58.002,37.272],[58.11,37.738],[58.219,38.205],[58.422,38.612],[58.626,39.02],[58.833,39.427],[59.042,39.834],[59.291,40.217],[59.542,40.6],[59.796,40.982],[60.053,41.363],[60.349,41.784],[60.65,42.204],[60.954,42.623],[61.267,43.058],[61.583,43.492],[61.905,43.926],[62.231,44.358],[62.562,44.79],[63.126,44.965],[63.694,45.137],[64.266,45.307],[64.84,45.474],[65.475,45.639],[66.114,45.801],[66.757,45.959]]}},{"type":"Feature","properties":{"boundary_type":"subduction","feature_type":"gpml:SubductionZone","polarity":"Left","overriding_plate_id":459,"subducting_plate_id":401,"plate_ids":[401,459],"name":"Central Tianshan Arc"},"geometry":{"type":"LineString","coordinates":[[27.445,18.512],[27.686,18.588],[28.159,18.575],[28.633,18.561],[29.107,18.546],[29.58,18.529],[30.053,18.511],[30.527,18.492],[31.0,18.472],[31.473,18.451]]}},{"type":"Feature","properties":{"boundary_type":"subduction","feature_type":"gpml:SubductionZone","polarity":"Left","overriding_plate_id":459,"subducting_plate_id":9006,"plate_ids":[459,9006],"name":"Central Tianshan Arc"},"geometry":{"type":"LineString","coordinates":[[31.473,18.451],[31.981,18.427],[32.489,18.401],[32.975,18.416],[33.462,18.43],[33.948,18.443],[34.435,18.455],[34.922,18.465],[35.409,18.474],[35.896,18.482],[36.383,18.489],[36.861,18.642],[37.34,18.794],[37.82,18.944],[38.301,19.093],[38.783,19.241],[39.265,19.388],[39.749,19.534],[40.233,19.678],[40.718,19.821],[41.204,19.962],[41.691,20.103],[42.179,20.242],[42.465,20.633],[42.753,21.024],[43.042,21.414],[43.333,21.804],[43.625,22.193],[43.919,22.582],[44.215,22.97],[44.512,23.358],[44.811,23.745],[45.112,24.132],[45.415,24.518],[45.719,24.903],[46.026,25.288],[46.334,25.672],[46.645,26.055],[46.957,26.438],[47.272,26.82],[47.628,27.137],[47.986,27.453],[48.346,27.769],[48.708,28.083],[49.072,28.396],[49.439,28.708],[49.807,29.02],[50.178,29.33],[50.551,29.639],[50.982,29.886],[51.415,30.131],[51.85,30.375],[52.287,30.618],[52.726,30.859],[53.168,31.098],[53.611,31.336],[54.057,31.573],[54.418,31.812],[54.781,32.05],[55.146,32.287]]}},{"type":"Feature","properties":{"boundary_type":"subduction","feature_type":"gpml:SubductionZone","polarity":"Right","overriding_plate_id":602,"subducting_plate_id":701,"plate_ids":[602,701],"name":"Proto Japan"},"geometry":{"type":"LineString","coordinates":[[99.702,19.393],[99.815,18.989],[99.927,18.585],[100.039,18.181],[100.151,17.777],[100.262,17.373],[100.366,16.93],[100.469,16.486],[100.572,16.042],[100.674,15.598],[100.776,15.154],[100.877,14.71],[101.025,14.24],[101.172,13.77],[101.319,13.299],[101.465,12.829],[101.61,12.359],[101.755,11.888],[101.899,11.417],[102.043,10.947],[102.025,10.502],[102.008,10.057],[101.99,9.612],[101.972,9.166],[101.955,8.721],[101.937,8.276],[101.909,7.81],[101.881,7.344],[101.853,6.878],[101.825,6.412],[101.797,5.946],[101.705,5.525],[101.612,5.104],[101.52,4.683],[101.427,4.262],[101.335,3.841],[101.243,3.42],[101.151,2.998],[101.007,2.58],[100.864,2.161],[100.72,1.743],[100.611,1.325],[100.501,0.907],[100.392,0.488],[100.283,0.07],[100.173,-0.348],[100.064,-0.766],[99.93,-1.223],[99.795,-1.68],[99.661,-2.137],[99.526,-2.594],[99.429,-2.856]]}},{"type":"Feature","properties":{"boundary_type":"subduction","feature_type":"gpml:SubductionZone","polarity":"Right","overriding_plate_id":601,"subducting_plate_id":926,"plate_ids":[601,926],"name":"possible korean subduction"},"geometry":{"type":"LineString","coordinates":[[100.99,35.934],[100.902,35.484],[100.815,35.034],[100.729,34.584],[100.644,34.134],[100.56,33.684],[100.477,33.233],[100.395,32.783],[100.313,32.333],[100.233,31.882],[100.153,31.432],[100.209,30.954],[100.264,30.476],[100.319,29.999],[100.373,29.521],[100.427,29.043],[100.48,28.566],[100.533,28.088],[100.585,27.61],[100.637,27.132],[100.749,26.649],[100.859,26.165],[100.969,25.681],[101.078,25.198],[101.186,24.714],[101.293,24.23],[101.399,23.746],[101.721,23.497],[102.042,23.247],[102.362,22.996],[102.68,22.745]]}},{"type":"Feature","properties":{"boundary_type":"subduction","feature_type":"gpml:SubductionZone","polarity":"Right","overriding_plate_id":701,"subducting_plate_id":926,"plate_ids":[701,926],"name":"possible korean subduction"},"geometry":{"type":"LineString","coordinates":[[102.68,22.745],[103.0,22.491],[103.318,22.237],[103.682,21.958],[104.044,21.679],[104.405,21.398],[104.765,21.117],[105.123,20.835],[105.48,20.552],[105.835,20.268],[106.205,19.969]]}},{"type":"Feature","properties":{"boundary_type":"subduction","feature_type":"gpml:SubductionZone","polarity":"Right","overriding_plate_id":701,"subducting_plate_id":926,"plate_ids":[701,926],"name":"SZ along eastern Gondwanaland"},"geometry":{"type":"LineString","coordinates":[[117.034,23.217],[117.312,22.882],[117.588,22.546],[117.864,22.21],[118.137,21.873],[118.41,21.536],[118.681,21.198],[119.013,20.82],[119.343,20.442],[119.671,20.063],[119.997,19.683],[120.322,19.303],[120.646,18.922],[120.968,18.54],[121.289,18.158],[121.608,17.776],[121.926,17.393],[122.242,17.01],[122.44,16.578],[122.637,16.147],[122.833,15.715],[123.029,15.283],[123.223,14.851],[123.417,14.419],[123.61,13.986],[123.802,13.554],[123.994,13.121],[124.185,12.688],[124.375,12.255],[124.565,11.822],[124.754,11.389],[124.942,10.956],[125.13,10.522],[125.318,10.088],[125.468,9.639],[125.617,9.19],[125.766,8.741],[125.915,8.291],[126.063,7.842],[126.211,7.392],[126.359,6.943],[126.507,6.493],[126.654,6.043],[126.801,5.594],[127.008,5.144],[127.215,4.695],[127.422,4.245],[127.629,3.796],[127.835,3.346],[128.041,2.897],[128.247,2.447],[128.453,1.998],[128.659,1.548]]}},{"type":"Feature","properties":{"boundary_type":"subduction","feature_type":"gpml:SubductionZone","polarity":"Right","overriding_plate_id":701,"subducting_plate_id":919,"plate_ids":[701,919],"name":"SZ along eastern Gondwanaland"},"geometry":{"type":"LineString","coordinates":[[128.659,1.548],[128.794,1.252],[128.93,0.956],[129.212,0.556],[129.494,0.156],[129.776,-0.244],[130.059,-0.644],[130.341,-1.043],[130.623,-1.443],[130.906,-1.843],[131.188,-2.243],[131.477,-2.608],[131.766,-2.973],[132.056,-3.338],[132.345,-3.703],[132.635,-4.068],[132.925,-4.433],[133.215,-4.798],[133.505,-5.162],[133.796,-5.527],[134.087,-5.891]]}},{"type":"Feature","properties":{"boundary_type":"ridge","feature_type":"gpml:MidOceanRidge","polarity":null,"overriding_plate_id":null,"subducting_plate_id":null,"plate_ids":[902,919],"name":"Panthalassa"},"geometry":{"type":"LineString","coordinates":[[-174.261,41.393],[-173.724,41.121],[-173.192,40.847],[-172.664,40.57],[-172.14,40.291],[-171.621,40.009],[-171.106,39.726],[-170.595,39.439],[-170.089,39.151],[-169.586,38.861],[-169.088,38.568],[-168.594,38.274],[-168.104,37.977],[-167.618,37.678],[-167.135,37.377],[-166.657,37.075],[-166.182,36.77],[-165.711,36.464],[-165.244,36.155],[-164.781,35.845],[-164.321,35.534],[-163.865,35.22],[-163.412,34.905],[-162.963,34.588],[-162.517,34.269],[-162.074,33.949],[-161.635,33.627],[-161.199,33.304],[-160.767,32.979],[-160.337,32.653],[-159.911,32.325],[-159.487,31.996],[-159.067,31.666],[-158.65,31.334],[-159.039,30.987],[-159.426,30.64],[-159.809,30.291],[-160.19,29.941],[-160.569,29.59],[-160.944,29.238],[-161.317,28.885],[-161.688,28.531],[-162.056,28.176],[-161.622,27.862],[-161.19,27.547],[-160.76,27.231],[-160.333,26.913],[-159.908,26.594],[-159.486,26.274],[-159.066,25.952],[-158.648,25.629],[-158.233,25.305],[-157.819,24.98],[-157.408,24.654],[-156.999,24.327],[-156.593,23.998],[-156.188,23.669],[-155.785,23.338],[-155.385,23.007],[-154.986,22.674],[-154.589,22.341],[-154.194,22.006],[-153.801,21.671],[-153.41,21.334],[-153.02,20.997],[-152.633,20.659],[-152.247,20.32],[-151.863,19.98],[-151.48,19.639],[-151.099,19.298],[-150.72,18.956],[-150.342,18.613],[-149.966,18.269],[-149.591,17.924],[-149.217,17.579],[-148.846,17.233],[-148.475,16.887],[-148.816,16.526],[-149.156,16.166],[-149.494,15.804],[-149.831,15.443],[-150.167,15.08],[-150.502,14.718],[-150.836,14.354],[-151.169,13.991],[-151.5,13.627],[-151.831,13.262],[-152.161,12.897],[-152.489,12.532],[-152.817,12.166],[-153.144,11.799],[-153.47,11.433],[-153.795,11.066],[-154.119,10.699],[-153.754,10.386],[-153.389,10.073],[-153.026,9.76],[-152.663,9.447],[-152.3,9.133],[-151.938,8.818],[-151.577,8.504],[-151.216,8.189],[-150.856,7.873],[-150.497,7.558],[-150.138,7.242],[-149.779,6.926],[-149.421,6.609],[-149.064,6.293],[-148.707,5.976],[-148.35,5.658],[-147.994,5.341],[-147.638,5.023],[-147.952,4.649],[-148.266,4.274],[-148.58,3.9],[-148.894,3.525],[-149.207,3.15],[-149.52,2.775],[-149.833,2.4],[-150.145,2.025],[-150.458,1.649],[-150.77,1.274],[-151.082,0.899],[-151.394,0.524],[-151.707,0.148],[-152.019,-0.227],[-152.331,-0.603],[-152.643,-0.978],[-152.955,-1.353],[-153.268,-1.728],[-153.58,-2.104],[-153.893,-2.479],[-154.206,-2.854],[-153.852,-3.192],[-153.499,-3.53],[-153.145,-3.868],[-152.791,-4.206],[-152.436,-4.544],[-152.082,-4.882],[-151.726,-5.219],[-151.371,-5.556],[-151.015,-5.893],[-150.659,-6.23],[-150.302,-6.567],[-149.945,-6.903],[-149.587,-7.239],[-149.228,-7.575],[-148.87,-7.91],[-148.51,-8.245],[-148.15,-8.58],[-147.789,-8.914],[-147.428,-9.248],[-147.066,-9.582],[-146.703,-9.916],[-146.339,-10.249],[-145.975,-10.581],[-145.61,-10.913],[-145.841,-11.203],[-146.073,-11.493],[-146.305,-11.783],[-145.93,-12.122],[-145.554,-12.461],[-145.177,-12.799],[-144.799,-13.137],[-144.42,-13.474],[-144.04,-13.811],[-143.659,-14.147],[-143.277,-14.482],[-142.893,-14.817],[-142.509,-15.151],[-142.123,-15.485],[-141.736,-15.818],[-141.347,-16.15],[-140.958,-16.481],[-140.567,-16.812],[-140.174,-17.142],[-139.781,-17.471],[-139.386,-17.8],[-138.989,-18.128],[-138.591,-18.454],[-138.191,-18.78],[-137.79,-19.106],[-137.387,-19.43],[-136.983,-19.753],[-136.577,-20.076],[-136.169,-20.397],[-135.76,-20.718],[-135.349,-21.038],[-134.936,-21.356],[-134.522,-21.674],[-134.105,-21.99],[-133.687,-22.306],[-133.266,-22.62],[-132.844,-22.934],[-132.42,-23.246],[-132.18,-22.983],[-131.94,-22.72],[-131.701,-22.457],[-131.414,-22.673],[-131.126,-22.889],[-130.837,-23.104]]}},{"type":"Feature","properties":{"boundary_type":"ridge","feature_type":"gpml:MidOceanRidge","polarity":null,"overriding_plate_id":null,"subducting_plate_id":null,"plate_ids":[902,919],"name":"Panthalassa"},"geometry":{"type":"LineString","coordinates":[[-174.261,41.393],[-174.869,41.197],[-175.474,40.997],[-176.076,40.795],[-176.674,40.589],[-177.268,40.381],[-177.858,40.169],[-178.445,39.954],[-179.027,39.737],[-179.607,39.516],[179.818,39.293],[179.246,39.067]]}},{"type":"Feature","properties":{"boundary_type":"ridge","feature_type":"gpml:MidOceanRidge","polarity":null,"overriding_plate_id":null,"subducting_plate_id":null,"plate_ids":[919,926],"name":"Panthalassa"},"geometry":{"type":"LineString","coordinates":[[179.246,39.067],[178.676,38.837],[178.11,38.605],[177.547,38.37],[176.988,38.132],[176.433,37.891],[175.881,37.648],[175.333,37.403],[174.788,37.155],[174.247,36.904],[173.71,36.651],[173.176,36.396],[172.646,36.138],[172.119,35.878],[171.596,35.616],[171.076,35.351],[170.559,35.084],[170.046,34.815],[169.536,34.544],[169.03,34.271],[168.527,33.995],[168.027,33.718],[167.53,33.439],[167.037,33.157],[166.546,32.874],[166.059,32.589],[165.575,32.302],[165.094,32.013],[164.616,31.722],[164.141,31.43],[163.669,31.136],[163.2,30.84],[162.734,30.542],[162.271,30.243],[161.81,29.942],[161.352,29.64],[160.897,29.336],[160.445,29.03],[159.996,28.723],[159.549,28.415],[159.104,28.105],[158.663,27.794],[158.223,27.481],[157.787,27.167],[157.352,26.851],[156.92,26.534],[156.491,26.216],[156.064,25.897],[155.763,26.301],[155.461,26.703],[155.156,27.106],[154.85,27.507],[154.541,27.908],[154.229,28.309],[153.916,28.708],[153.509,28.363],[153.104,28.016],[152.702,27.668],[152.303,27.319],[151.906,26.969],[151.512,26.618],[151.12,26.266],[150.73,25.912],[150.343,25.558],[149.958,25.202],[149.575,24.846],[149.195,24.489],[148.817,24.13],[148.44,23.771],[148.066,23.411],[147.694,23.05],[147.324,22.688],[146.956,22.325],[146.59,21.962],[146.225,21.597],[145.863,21.232],[145.502,20.866],[145.143,20.499],[144.786,20.132],[144.43,19.764],[144.076,19.395],[143.724,19.025],[143.373,18.655],[143.024,18.284],[142.676,17.913],[142.329,17.541],[141.985,17.168],[141.641,16.795],[141.299,16.421],[140.958,16.046],[140.618,15.671],[140.28,15.296],[139.943,14.92],[139.607,14.544],[139.272,14.167],[138.939,13.789],[138.606,13.411],[138.274,13.033],[137.944,12.654],[137.614,12.275],[137.286,11.896],[136.958,11.516],[136.631,11.136],[136.305,10.755],[135.98,10.374],[135.656,9.993],[135.332,9.611],[135.009,9.229],[134.687,8.847],[134.365,8.465],[134.045,8.082],[133.724,7.699],[133.405,7.316],[133.086,6.933],[132.767,6.549],[132.449,6.165],[132.131,5.781],[131.814,5.397],[131.497,5.013],[131.181,4.628],[130.864,4.243],[130.549,3.859],[130.233,3.474],[129.918,3.089],[129.603,2.704],[129.288,2.318],[128.973,1.933],[128.659,1.548]]}},{"type":"Feature","properties":{"boundary_type":"ridge","feature_type":"gpml:MidOceanRidge","polarity":null,"overriding_plate_id":null,"subducting_plate_id":null,"plate_ids":[701,9006],"name":"Paleotethys MOR"},"geometry":{"type":"LineString","coordinates":[[9.509,-26.572],[9.584,-26.515],[10.103,-26.687],[10.623,-26.856],[11.144,-27.024],[11.667,-27.19],[12.191,-27.354],[12.717,-27.516],[13.245,-27.676],[13.774,-27.834],[14.305,-27.99],[14.837,-28.144],[15.371,-28.296],[15.906,-28.445],[16.442,-28.593],[16.981,-28.739],[17.52,-28.882],[18.062,-29.023],[18.604,-29.163],[19.148,-29.3],[19.694,-29.434],[20.241,-29.567],[20.789,-29.697],[21.339,-29.825],[21.89,-29.951],[22.443,-30.074],[22.997,-30.195],[23.552,-30.314],[24.109,-30.43],[24.667,-30.544],[25.226,-30.656],[25.309,-30.299],[25.391,-29.942],[25.472,-29.585],[26.007,-29.701],[26.544,-29.814],[27.082,-29.926],[27.622,-30.035],[28.162,-30.142],[28.704,-30.247],[29.246,-30.349],[29.79,-30.45],[30.335,-30.548],[30.881,-30.644],[31.428,-30.737],[31.976,-30.828],[32.526,-30.917],[33.076,-31.004],[33.627,-31.088],[34.179,-31.17],[34.732,-31.25],[35.286,-31.327],[35.841,-31.402],[35.917,-31.031],[35.992,-30.66],[36.066,-30.289],[36.14,-29.918],[36.594,-29.961],[37.047,-30.003],[37.18,-29.517],[37.312,-29.031],[37.442,-28.545],[37.572,-28.058],[37.7,-27.572],[37.827,-27.085],[37.952,-26.599],[38.077,-26.112],[38.587,-26.086],[39.096,-26.059],[39.605,-26.03],[40.113,-25.999],[40.622,-25.966],[41.13,-25.932],[41.638,-25.896],[42.145,-25.858],[42.652,-25.818],[43.159,-25.777],[43.665,-25.733],[43.54,-25.273],[43.416,-24.814],[43.293,-24.353],[43.171,-23.893],[43.684,-23.799],[44.196,-23.703],[44.707,-23.605],[45.218,-23.506],[45.727,-23.405],[46.236,-23.302],[46.744,-23.197],[47.251,-23.091],[47.758,-22.984],[48.263,-22.875],[48.768,-22.764],[49.272,-22.651],[49.775,-22.537],[50.278,-22.422],[50.779,-22.305],[51.28,-22.186],[51.78,-22.066],[51.981,-22.426],[52.182,-22.785],[52.385,-23.144],[52.589,-23.503],[53.083,-23.351],[53.575,-23.198],[54.066,-23.044],[54.556,-22.888],[55.045,-22.731],[55.532,-22.572],[56.019,-22.412],[56.504,-22.25],[56.989,-22.087],[57.472,-21.922],[57.954,-21.756],[58.435,-21.588],[58.914,-21.419],[59.393,-21.249],[59.871,-21.078],[60.347,-20.905],[60.823,-20.749],[61.298,-20.591],[61.771,-20.433],[62.244,-20.273],[62.716,-20.112],[63.187,-19.949],[63.657,-19.786],[64.126,-19.621],[64.594,-19.455],[65.061,-19.287],[65.527,-19.119],[65.992,-18.949],[66.456,-18.778],[66.919,-18.606],[67.381,-18.433],[67.843,-18.259],[68.063,-18.629],[68.284,-18.999],[68.507,-19.369],[68.97,-19.184],[69.433,-18.997],[69.894,-18.809],[70.354,-18.621],[70.814,-18.431],[71.272,-18.239],[71.729,-18.047],[72.186,-17.854],[72.641,-17.66],[73.095,-17.464],[73.549,-17.268],[74.001,-17.07],[74.129,-17.461],[74.258,-17.852],[74.387,-18.242],[74.517,-18.633]]}},{"type":"Feature","properties":{"boundary_type":"ridge","feature_type":"gpml:MidOceanRidge","polarity":null,"overriding_plate_id":null,"subducting_plate_id":null,"plate_ids":[601,9006],"name":"Eastern Mianlue spreading"},"geometry":{"type":"LineString","coordinates":[[79.366,17.857],[79.755,17.581],[80.144,17.303],[80.53,17.025],[80.916,16.746],[81.301,16.467],[81.684,16.187],[82.048,16.508],[82.414,16.829],[82.78,17.15],[83.148,17.47],[83.517,17.789],[83.887,18.107],[84.259,18.425],[84.632,18.742],[85.006,19.058],[85.382,19.373],[85.73,19.114],[86.076,18.854],[86.421,18.594],[86.766,18.332],[87.109,18.071],[87.466,18.344],[87.824,18.616],[88.184,18.888],[88.544,19.159],[88.906,19.43],[89.269,19.699],[89.618,19.464],[89.966,19.228],[90.313,18.991],[90.755,19.131],[91.198,19.27],[91.642,19.408],[92.086,19.545],[92.531,19.681],[92.976,19.815],[93.199,19.433]]}},{"type":"Feature","properties":{"boundary_type":"ridge","feature_type":"gpml:MidOceanRidge","polarity":null,"overriding_plate_id":null,"subducting_plate_id":null,"plate_ids":[601,602],"name":"Eastern Mianlue spreading"},"geometry":{"type":"LineString","coordinates":[[93.199,19.433],[93.404,19.08],[93.784,19.316],[94.165,19.551],[94.547,19.785],[94.931,20.018],[95.315,20.251],[95.598,19.885],[95.88,19.518],[96.16,19.151],[96.439,18.784],[96.728,19.059],[97.017,19.333],[97.308,19.606],[97.616,19.277],[97.923,18.948],[98.229,18.618],[98.534,18.288],[98.838,17.957]]}},{"type":"Feature","properties":{"boundary_type":"ridge","feature_type":"gpml:MidOceanRidge","polarity":null,"overriding_plate_id":null,"subducting_plate_id":null,"plate_ids":[601,926],"name":"North China-Kunlun MoR"},"geometry":{"type":"LineString","coordinates":[[78.338,37.635],[77.955,37.247],[77.576,36.858],[77.201,36.468],[76.829,36.077],[76.462,35.685],[76.098,35.292],[75.737,34.897],[75.38,34.502],[75.026,34.105],[74.676,33.707]]}},{"type":"Feature","properties":{"boundary_type":"ridge","feature_type":"gpml:MidOceanRidge","polarity":null,"overriding_plate_id":null,"subducting_plate_id":null,"plate_ids":[601,4571],"name":"North China-Kunlun MoR"},"geometry":{"type":"LineString","coordinates":[[74.676,33.707],[74.607,33.628],[75.145,33.468],[75.682,33.306],[76.216,33.142],[75.884,32.736],[75.555,32.33],[75.229,31.922],[74.906,31.514],[74.586,31.105],[74.269,30.695],[73.954,30.284],[73.642,29.873],[73.332,29.461],[73.025,29.048],[72.72,28.635],[72.418,28.22],[72.118,27.806],[71.82,27.39],[72.22,27.19],[72.619,26.988],[73.016,26.785],[73.412,26.582],[73.806,26.377],[73.547,25.951],[73.29,25.524],[73.034,25.098]]}},{"type":"Feature","properties":{"boundary_type":"ridge","feature_type":"gpml:MidOceanRidge","polarity":null,"overriding_plate_id":null,"subducting_plate_id":null,"plate_ids":[601,9006],"name":"North China-Kunlun MoR"},"geometry":{"type":"LineString","coordinates":[[73.034,25.098],[72.801,24.706],[72.57,24.315],[72.341,23.922],[72.112,23.53],[71.885,23.137]]}},{"type":"Feature","properties":{"boundary_type":"ridge","feature_type":"gpml:MidOceanRidge","polarity":null,"overriding_plate_id":null,"subducting_plate_id":null,"plate_ids":[501,602],"name":"South China-Gondwana MoR"},"geometry":{"type":"LineString","coordinates":[[90.863,-18.504],[90.365,-18.485],[89.868,-18.465],[89.37,-18.443],[88.873,-18.42],[88.376,-18.395],[87.879,-18.37],[87.382,-18.343],[86.886,-18.315],[86.389,-18.285],[85.893,-18.255],[85.397,-18.223],[84.901,-18.189],[84.405,-18.155],[84.457,-17.769],[84.51,-17.382],[84.562,-16.996],[84.043,-16.942],[83.524,-16.887],[83.006,-16.83],[82.488,-16.772],[81.971,-16.713],[81.454,-16.652],[80.937,-16.59],[80.42,-16.527],[79.904,-16.463],[79.388,-16.397],[78.872,-16.33],[78.357,-16.262],[78.433,-15.813],[78.508,-15.364],[78.059,-15.317],[77.609,-15.269],[77.16,-15.22],[76.711,-15.17],[76.262,-15.12],[75.813,-15.068],[75.365,-15.016]]}},{"type":"Feature","properties":{"boundary_type":"ridge","feature_type":"gpml:MidOceanRidge","polarity":null,"overriding_plate_id":null,"subducting_plate_id":null,"plate_ids":[602,9006],"name":"South China-Gondwana MoR"},"geometry":{"type":"LineString","coordinates":[[75.365,-15.016],[74.91,-14.962],[74.456,-14.907],[74.001,-14.851],[73.547,-14.795],[73.093,-14.737],[72.64,-14.679],[72.186,-14.619]]}},{"type":"Feature","properties":{"boundary_type":"ridge","feature_type":"gpml:MidOceanRidge","polarity":null,"overriding_plate_id":null,"subducting_plate_id":null,"plate_ids":[902,4100],"name":"Mongol-Okhotsk ridge"},"geometry":{"type":"LineString","coordinates":[[20.129,41.659],[19.706,41.323],[19.288,40.985],[18.873,40.646],[18.463,40.305],[18.057,39.962],[17.655,39.619],[17.257,39.274],[16.863,38.927],[16.473,38.58],[16.086,38.231],[15.703,37.88],[15.425,38.028],[15.145,38.176],[14.738,37.802],[14.335,37.426],[13.936,37.049],[13.541,36.67],[13.15,36.291],[12.665,36.598],[12.176,36.904],[11.983,36.74]]}},{"type":"Feature","properties":{"boundary_type":"ridge","feature_type":"gpml:MidOceanRidge","polarity":null,"overriding_plate_id":null,"subducting_plate_id":null,"plate_ids":[401,4100],"name":"Mongol-Okhotsk ridge"},"geometry":{"type":"LineString","coordinates":[[11.983,36.74],[11.567,36.384],[11.156,36.026],[10.748,35.666],[10.343,35.306],[9.943,34.944],[9.501,35.215],[9.056,35.484],[8.724,35.159],[8.394,34.833],[8.067,34.506],[7.678,34.786],[7.287,35.066],[6.921,34.681],[6.558,34.295],[6.199,33.908],[5.754,34.187],[5.307,34.465],[4.966,34.19],[4.627,33.915],[4.29,33.639],[4.045,33.831],[3.799,34.023],[3.459,33.716],[3.121,33.407],[2.785,33.098],[2.452,32.787],[2.121,32.476],[1.838,32.699],[1.554,32.921],[1.158,32.56],[0.766,32.199],[0.377,31.836],[-0.009,31.471],[-0.244,31.674],[-0.481,31.877],[-0.848,31.552],[-1.213,31.227],[-1.576,30.9],[-1.936,30.573],[-2.313,30.906],[-2.693,31.239],[-3.085,30.911],[-3.474,30.582],[-3.861,30.252],[-4.245,29.921],[-4.626,29.589],[-4.944,29.886],[-5.263,30.182],[-5.659,29.848],[-6.052,29.513],[-6.442,29.177],[-6.83,28.839],[-7.215,28.5],[-7.597,28.161],[-7.964,28.436],[-8.332,28.711],[-8.704,28.358],[-9.074,28.003],[-9.442,27.648],[-9.807,27.292],[-10.17,26.935],[-10.531,26.577],[-10.889,26.218],[-11.245,25.858],[-11.6,25.497],[-11.951,25.136],[-12.377,25.418],[-12.805,25.699],[-13.235,25.979],[-13.586,25.606],[-13.934,25.232],[-14.28,24.857],[-14.624,24.482],[-14.967,24.106],[-15.307,23.729],[-15.645,23.351],[-15.981,22.973],[-16.315,22.594],[-16.648,22.214],[-16.964,22.565],[-17.283,22.914],[-17.603,23.263],[-17.921,22.944],[-18.239,22.625],[-18.555,22.304],[-18.869,21.983]]}},{"type":"Feature","properties":{"boundary_type":"ridge","feature_type":"gpml:MidOceanRidge","polarity":null,"overriding_plate_id":null,"subducting_plate_id":null,"plate_ids":[902,926],"name":"Panthalassa"},"geometry":{"type":"LineString","coordinates":[[179.246,39.067],[179.006,39.516],[178.763,39.965],[178.517,40.413],[178.268,40.861],[178.015,41.308],[177.759,41.755],[177.499,42.201],[177.235,42.646],[176.968,43.091],[176.697,43.536],[176.421,43.979],[176.142,44.422],[175.858,44.864],[175.57,45.306],[175.278,45.746],[174.981,46.187],[174.678,46.626],[174.372,47.064],[174.059,47.502],[173.742,47.938],[173.419,48.374],[173.091,48.809],[172.757,49.243],[172.417,49.676],[172.071,50.108],[171.719,50.539],[171.36,50.969],[170.995,51.398],[170.321,51.175],[169.655,50.948],[168.994,50.718],[168.341,50.484],[167.693,50.246],[167.053,50.005],[166.66,50.432],[166.26,50.857],[165.854,51.281],[165.439,51.703],[165.017,52.124],[164.586,52.544],[164.148,52.961],[163.701,53.378],[163.245,53.792],[162.78,54.205],[162.305,54.616],[161.821,55.025],[161.327,55.432],[160.823,55.837],[160.308,56.239],[159.782,56.64],[159.245,57.039],[158.697,57.435],[158.136,57.828],[157.563,58.219],[156.977,58.608],[156.378,58.994],[155.766,59.377],[155.14,59.757],[154.499,60.134],[153.844,60.508],[153.173,60.878],[152.487,61.245],[151.784,61.609],[151.065,61.969],[150.329,62.325],[149.575,62.677],[148.804,63.025],[148.014,63.368],[147.204,63.707],[146.376,64.042],[145.527,64.372],[144.658,64.696],[143.768,65.016],[142.856,65.33],[141.923,65.638],[140.967,65.941],[139.989,66.237],[138.988,66.527],[137.964,66.811],[136.916,67.088],[135.843,67.357],[134.747,67.62],[133.627,67.875],[132.482,68.122],[131.312,68.361],[130.119,68.592],[128.9,68.814],[128.249,68.43],[127.619,68.043],[127.009,67.654],[126.42,67.263],[125.849,66.87],[125.297,66.474],[124.131,66.662],[122.948,66.84],[121.748,67.01],[120.532,67.17],[119.3,67.321],[118.052,67.463],[116.791,67.595],[115.515,67.717],[114.227,67.829],[112.927,67.93],[111.616,68.022],[110.296,68.102],[108.966,68.173],[107.629,68.232],[106.286,68.281],[104.938,68.319],[103.586,68.346],[102.231,68.362],[100.875,68.367],[99.519,68.361],[98.165,68.343],[96.813,68.315],[95.465,68.277],[94.123,68.227],[92.786,68.166],[91.458,68.095],[90.138,68.013],[88.828,67.921],[87.529,67.818],[86.243,67.705],[84.968,67.582],[83.708,67.45],[82.462,67.307],[81.232,67.155],[80.017,66.994],[78.818,66.823],[77.637,66.644],[76.473,66.455],[75.327,66.259],[74.199,66.054],[73.089,65.84],[71.998,65.619],[70.926,65.391],[69.873,65.155],[68.838,64.911],[67.822,64.661],[66.825,64.403],[65.847,64.139],[64.888,63.869],[63.947,63.592],[63.024,63.31],[62.12,63.021],[61.233,62.727],[60.364,62.427],[59.512,62.123],[58.678,61.813],[57.86,61.498],[57.059,61.178],[56.274,60.853],[55.505,60.524],[54.751,60.191],[54.013,59.854],[53.289,59.512],[52.581,59.167],[51.886,58.818],[51.205,58.465],[50.538,58.108],[49.885,57.748],[49.244,57.385],[48.616,57.019],[48.0,56.65],[47.396,56.277],[46.803,55.902],[46.223,55.524],[45.653,55.143],[45.094,54.76],[44.546,54.374],[44.007,53.986],[43.479,53.595],[42.961,53.202],[42.452,52.807],[41.952,52.41],[41.461,52.011],[40.979,51.609],[40.505,51.206],[40.04,50.801],[39.582,50.394],[39.132,49.985],[38.49,50.238],[37.842,50.488],[37.186,50.734],[36.523,50.976],[36.036,50.584],[35.558,50.191],[35.086,49.795],[34.623,49.398],[34.167,48.999],[33.718,48.598],[33.277,48.196],[32.842,47.791],[32.414,47.386],[31.993,46.978],[31.577,46.569],[31.169,46.159],[30.766,45.747],[30.369,45.334],[29.978,44.919],[29.592,44.503],[29.212,44.086],[28.838,43.667],[28.468,43.248],[28.104,42.827],[27.744,42.405],[27.39,41.982],[27.04,41.558],[26.694,41.133],[26.353,40.706],[26.016,40.279],[25.684,39.851],[25.356,39.422],[25.032,38.992],[24.711,38.561],[24.395,38.129],[24.082,37.697],[23.773,37.263],[23.467,36.829],[23.165,36.394],[22.866,35.958],[22.571,35.522],[22.278,35.085],[21.989,34.647],[21.703,34.208],[21.42,33.769],[21.14,33.329],[20.862,32.889],[20.334,33.098],[19.803,33.306],[19.27,33.511],[18.734,33.714],[18.196,33.915],[17.656,34.113],[17.441,33.656],[17.23,33.2]]}},{"type":"Feature","properties":{"boundary_type":"ridge","feature_type":"gpml:MidOceanRidge","polarity":null,"overriding_plate_id":null,"subducting_plate_id":null,"plate_ids":[701,9006],"name":"Rheic-Ran ridge"},"geometry":{"type":"LineString","coordinates":[[-3.286,-6.472],[-2.874,-6.753],[-2.461,-7.034],[-2.047,-7.314],[-1.633,-7.594],[-1.218,-7.874],[-0.803,-8.153],[-0.387,-8.432],[-0.098,-8.84],[0.192,-9.248],[0.482,-9.656],[0.774,-10.063],[1.066,-10.47],[1.358,-10.877],[1.652,-11.284],[1.946,-11.69],[2.242,-12.096],[2.532,-12.473],[2.822,-12.849],[3.114,-13.226],[3.407,-13.602],[3.7,-13.977],[3.995,-14.352],[4.29,-14.727],[4.587,-15.102],[4.884,-15.476],[5.091,-15.926],[5.298,-16.376],[5.507,-16.826],[5.716,-17.275],[5.926,-17.725],[6.138,-18.174],[6.35,-18.623],[6.564,-19.071],[6.779,-19.52],[6.995,-19.968],[7.212,-20.416],[7.431,-20.863],[7.65,-21.311],[7.872,-21.758],[7.511,-21.394],[7.151,-21.029],[6.794,-20.663],[6.438,-20.297],[6.084,-19.93],[5.731,-19.562],[5.381,-19.194],[5.031,-18.825],[4.683,-18.455],[4.337,-18.085]]}},{"type":"Feature","properties":{"boundary_type":"transform","feature_type":"gpml:Transform","polarity":null,"overriding_plate_id":null,"subducting_plate_id":null,"plate_ids":[701,919],"name":"transform"},"geometry":{"type":"LineString","coordinates":[[-129.887,-57.463],[-129.774,-56.974],[-129.664,-56.485],[-129.557,-55.996],[-129.452,-55.507],[-129.351,-55.017],[-129.251,-54.528],[-129.154,-54.038],[-129.059,-53.549],[-128.966,-53.059],[-128.876,-52.57],[-128.787,-52.08],[-128.701,-51.59],[-128.616,-51.1],[-128.533,-50.61],[-128.451,-50.12],[-128.372,-49.63],[-128.294,-49.14],[-128.217,-48.65],[-128.142,-48.159],[-128.068,-47.669],[-127.996,-47.179],[-127.925,-46.688],[-127.855,-46.198],[-127.787,-45.708],[-127.719,-45.217],[-127.653,-44.727],[-127.588,-44.236],[-127.524,-43.745],[-127.461,-43.255],[-127.36,-42.781],[-127.261,-42.306],[-127.163,-41.832],[-127.066,-41.358],[-126.971,-40.883],[-126.877,-40.409],[-126.785,-39.934],[-126.693,-39.46],[-126.603,-38.985],[-126.514,-38.51],[-126.235,-38.062],[-125.958,-37.613],[-125.685,-37.163],[-125.415,-36.713],[-125.148,-36.262],[-124.884,-35.811],[-124.624,-35.359],[-124.366,-34.906],[-124.111,-34.453],[-123.859,-33.999],[-123.609,-33.545],[-123.362,-33.09],[-123.118,-32.635],[-122.876,-32.18],[-122.636,-31.724]]}},{"type":"Feature","properties":{"boundary_type":"transform","feature_type":"gpml:Transform","polarity":null,"overriding_plate_id":null,"subducting_plate_id":null,"plate_ids":[902,919],"name":"transform"},"geometry":{"type":"LineString","coordinates":[[-130.837,-23.104],[-131.164,-23.471]]}},{"type":"Feature","properties":{"boundary_type":"transform","feature_type":"gpml:Transform","polarity":null,"overriding_plate_id":null,"subducting_plate_id":null,"plate_ids":[401,701],"name":"transform"},"geometry":{"type":"LineString","coordinates":[[-22.641,-1.118],[-22.861,-1.248],[-23.081,-1.377]]}},{"type":"Feature","properties":{"boundary_type":"transform","feature_type":"gpml:Transform","polarity":null,"overriding_plate_id":null,"subducting_plate_id":null,"plate_ids":[101,701],"name":"transform"},"geometry":{"type":"LineString","coordinates":[[-23.081,-1.377],[-23.431,-1.583],[-23.78,-1.788]]}},{"type":"Feature","properties":{"boundary_type":"transform","feature_type":"gpml:Transform","polarity":null,"overriding_plate_id":null,"subducting_plate_id":null,"plate_ids":[501,701],"name":"transform"},"geometry":{"type":"LineString","coordinates":[[73.565,-24.384],[73.571,-24.299],[73.646,-23.821],[73.72,-23.344],[73.793,-22.867],[73.865,-22.39],[73.938,-21.913],[74.009,-21.435],[74.081,-20.958],[74.152,-20.48],[74.222,-20.003],[74.321,-19.546],[74.419,-19.09],[74.517,-18.633]]}},{"type":"Feature","properties":{"boundary_type":"transform","feature_type":"gpml:Transform","polarity":null,"overriding_plate_id":null,"subducting_plate_id":null,"plate_ids":[501,9006],"name":"transform"},"geometry":{"type":"LineString","coordinates":[[74.517,-18.633],[74.603,-18.227],[74.689,-17.82],[74.775,-17.414],[74.86,-17.008],[74.945,-16.601],[75.051,-16.205],[75.156,-15.809],[75.261,-15.412],[75.365,-15.016]]}},{"type":"Feature","properties":{"boundary_type":"transform","feature_type":"gpml:Transform","polarity":null,"overriding_plate_id":null,"subducting_plate_id":null,"plate_ids":[602,701],"name":"Transform b/w Gondwana and South China plates"},"geometry":{"type":"LineString","coordinates":[[93.421,-9.795],[93.715,-9.415],[94.008,-9.035],[94.301,-8.655],[94.592,-8.274],[94.862,-7.9],[95.131,-7.526],[95.399,-7.152],[95.668,-6.777],[95.935,-6.402],[96.203,-6.028],[96.469,-5.653],[96.736,-5.277],[97.074,-4.975],[97.411,-4.673],[97.748,-4.37],[98.085,-4.068],[98.421,-3.765],[98.757,-3.462],[99.093,-3.159],[99.429,-2.856]]}},{"type":"Feature","properties":{"boundary_type":"transform","feature_type":"gpml:Transform","polarity":null,"overriding_plate_id":null,"subducting_plate_id":null,"plate_ids":[501,701],"name":"Transform"},"geometry":{"type":"LineString","coordinates":[[90.437,-19.313],[90.65,-18.909],[90.863,-18.504]]}},{"type":"Feature","properties":{"boundary_type":"transform","feature_type":"gpml:Transform","polarity":null,"overriding_plate_id":null,"subducting_plate_id":null,"plate_ids":[602,701],"name":"Transform"},"geometry":{"type":"LineString","coordinates":[[90.863,-18.504],[91.072,-18.104],[91.281,-17.703],[91.488,-17.302],[91.598,-16.864],[91.708,-16.426],[91.817,-15.988],[91.925,-15.55],[92.034,-15.112],[92.141,-14.674],[92.249,-14.236],[92.355,-13.798],[92.462,-13.359],[92.585,-12.944],[92.708,-12.529],[92.831,-12.114],[92.953,-11.698],[93.075,-11.283],[93.197,-10.868],[93.318,-10.452],[93.369,-10.123],[93.421,-9.795]]}},{"type":"Feature","properties":{"boundary_type":"transform","feature_type":"gpml:Transform","polarity":null,"overriding_plate_id":null,"subducting_plate_id":null,"plate_ids":[459,926],"name":"North-Tianshan-Tarim transform"},"geometry":{"type":"LineString","coordinates":[[49.731,32.488],[50.282,32.435],[50.832,32.38],[51.381,32.323],[51.93,32.263],[52.477,32.201],[53.025,32.137],[53.571,32.07],[54.095,32.145],[54.62,32.217],[55.146,32.287]]}},{"type":"Feature","properties":{"boundary_type":"transform","feature_type":"gpml:Transform","polarity":null,"overriding_plate_id":null,"subducting_plate_id":null,"plate_ids":[926,9006],"name":"North-Tianshan-Tarim transform"},"geometry":{"type":"LineString","coordinates":[[55.146,32.287],[55.662,32.353],[56.179,32.417],[56.696,32.479],[57.214,32.539],[57.694,32.536],[58.174,32.53]]}},{"type":"Feature","properties":{"boundary_type":"transform","feature_type":"gpml:Transform","polarity":null,"overriding_plate_id":null,"subducting_plate_id":null,"plate_ids":[701,9006],"name":"transform"},"geometry":{"type":"LineString","coordinates":[[9.509,-26.572],[9.514,-26.54],[9.356,-26.15],[9.198,-25.76],[9.042,-25.37],[8.887,-24.98],[8.741,-24.574],[8.597,-24.168],[8.453,-23.762],[8.31,-23.356],[8.169,-22.949],[8.028,-22.543],[7.748,-22.184],[7.47,-21.824],[7.193,-21.463],[6.917,-21.103],[6.643,-20.741],[6.37,-20.38],[5.901,-20.155],[5.434,-19.93],[4.967,-19.703],[4.672,-19.323],[4.378,-18.943],[4.086,-18.563],[3.795,-18.182],[3.505,-17.801],[3.217,-17.419],[2.929,-17.037],[2.643,-16.654],[2.358,-16.271],[2.074,-15.888],[1.791,-15.504],[1.509,-15.12],[1.229,-14.736],[0.949,-14.351],[1.282,-14.727],[1.617,-15.102],[1.952,-15.477],[2.289,-15.851],[2.627,-16.225],[2.966,-16.598],[3.307,-16.971],[3.649,-17.343],[3.992,-17.714],[4.337,-18.085]]}},{"type":"Feature","properties":{"boundary_type":"transform","feature_type":"gpml:Transform","polarity":null,"overriding_plate_id":null,"subducting_plate_id":null,"plate_ids":[601,9006],"name":"North China transform"},"geometry":{"type":"LineString","coordinates":[[79.366,17.857],[79.044,18.122],[78.635,18.425],[78.225,18.727],[77.814,19.028],[77.401,19.328],[76.987,19.627],[76.571,19.925],[76.153,20.223],[75.734,20.519],[75.313,20.814],[74.891,21.108],[74.467,21.401],[74.041,21.694],[73.613,21.985],[73.184,22.275],[72.753,22.563],[72.32,22.851],[71.885,23.137]]}},{"type":"Feature","properties":{"boundary_type":"transform","feature_type":"gpml:Transform","polarity":null,"overriding_plate_id":null,"subducting_plate_id":null,"plate_ids":[601,701],"name":"South China transform"},"geometry":{"type":"LineString","coordinates":[[102.68,22.745],[102.363,22.375],[102.047,22.005],[101.733,21.634],[101.421,21.263],[101.11,20.891],[100.801,20.518],[100.525,20.237],[100.249,19.956],[99.975,19.675],[99.702,19.393]]}},{"type":"Feature","properties":{"boundary_type":"transform","feature_type":"gpml:Transform","polarity":null,"overriding_plate_id":null,"subducting_plate_id":null,"plate_ids":[601,602],"name":"South China transform"},"geometry":{"type":"LineString","coordinates":[[99.702,19.393],[99.672,19.362],[99.604,19.098],[99.536,18.833],[99.389,18.621],[99.241,18.408],[99.039,18.183],[98.838,17.957]]}},{"type":"Feature","properties":{"boundary_type":"transform","feature_type":"gpml:Transform","polarity":null,"overriding_plate_id":null,"subducting_plate_id":null,"plate_ids":[4571,9006],"name":"North China transform"},"geometry":{"type":"LineString","coordinates":[[73.034,25.098],[72.757,25.339],[72.48,25.58],[72.056,25.795],[71.631,26.01],[71.204,26.223],[70.776,26.435],[70.487,26.513],[70.198,26.591]]}},{"type":"Feature","properties":{"boundary_type":"transform","feature_type":"gpml:Transform","polarity":null,"overriding_plate_id":null,"subducting_plate_id":null,"plate_ids":[926,4571],"name":"Kunlun transform"},"geometry":{"type":"LineString","coordinates":[[74.676,33.707],[74.227,33.798],[73.777,33.886],[73.209,33.958],[72.641,34.027]]}},{"type":"Feature","properties":{"boundary_type":"transform","feature_type":"gpml:Transform","polarity":null,"overriding_plate_id":null,"subducting_plate_id":null,"plate_ids":[602,9006],"name":"transform"},"geometry":{"type":"LineString","coordinates":[[72.186,-14.619],[72.317,-14.15],[72.446,-13.68],[72.576,-13.211],[72.704,-12.741],[72.833,-12.272],[72.96,-11.802],[73.088,-11.332],[73.24,-10.908],[73.392,-10.483],[73.543,-10.058],[73.694,-9.634],[73.845,-9.209],[73.995,-8.784],[74.145,-8.359],[74.295,-7.934],[74.444,-7.509],[74.593,-7.084],[74.802,-6.634],[75.011,-6.185],[75.22,-5.736],[75.428,-5.287],[75.635,-4.837],[75.843,-4.388],[76.05,-3.938],[76.257,-3.489],[76.444,-3.08],[76.631,-2.671],[76.817,-2.263],[77.004,-1.854],[77.19,-1.445],[77.377,-1.037],[77.563,-0.628],[77.749,-0.219],[77.936,0.19],[78.175,0.61],[78.415,1.029],[78.655,1.449],[78.895,1.869],[79.135,2.289],[79.375,2.708],[79.615,3.128],[79.855,3.547],[80.109,3.93],[80.363,4.313],[80.618,4.695],[80.872,5.078],[81.127,5.46],[81.382,5.842],[81.638,6.225],[81.894,6.607],[82.15,6.989],[82.407,7.37],[82.664,7.752],[82.951,8.134],[83.238,8.515],[83.526,8.897],[83.814,9.278],[84.103,9.659],[84.393,10.04],[84.683,10.42],[84.974,10.801],[85.266,11.181],[85.558,11.56],[85.852,11.94],[86.146,12.319],[86.441,12.698],[86.737,13.076],[87.034,13.454],[87.387,13.811],[87.74,14.167],[88.095,14.522],[88.451,14.877],[88.809,15.231],[89.167,15.585],[89.527,15.938],[89.888,16.29],[90.25,16.642],[90.614,16.993],[90.979,17.344],[91.345,17.694],[91.713,18.043],[92.082,18.392],[92.453,18.74],[92.825,19.087],[93.199,19.433]]}},{"type":"Feature","properties":{"boundary_type":"transform","feature_type":"gpml:Transform","polarity":null,"overriding_plate_id":null,"subducting_plate_id":null,"plate_ids":[580,9006],"name":"Tarim-Proto-tethys transform"},"geometry":{"type":"LineString","coordinates":[[60.276,17.866],[60.543,17.557],[60.81,17.249],[61.075,16.94],[61.523,16.686],[61.97,16.431],[62.416,16.175],[62.86,15.918],[63.302,15.764],[63.742,15.608],[64.182,15.452],[64.621,15.294],[65.084,15.163],[65.545,15.031],[66.007,14.898],[66.467,14.764]]}},{"type":"Feature","properties":{"boundary_type":"transform","feature_type":"gpml:Transform","polarity":null,"overriding_plate_id":null,"subducting_plate_id":null,"plate_ids":[101,902],"name":"transform"},"geometry":{"type":"LineString","coordinates":[[-131.129,-23.519],[-130.839,-23.165],[-130.55,-22.81],[-130.263,-22.454],[-129.982,-22.027],[-129.703,-21.6],[-129.426,-21.172],[-129.15,-20.743],[-128.876,-20.315],[-128.603,-19.885],[-128.332,-19.456],[-128.063,-19.026],[-127.794,-18.595],[-127.528,-18.164],[-127.262,-17.733],[-126.998,-17.302],[-126.735,-16.87],[-126.473,-16.438],[-126.212,-16.005],[-125.952,-15.572],[-125.694,-15.139],[-125.436,-14.706],[-125.18,-14.272],[-124.924,-13.838],[-124.67,-13.404],[-124.416,-12.969],[-124.164,-12.534],[-123.912,-12.099],[-123.661,-11.664],[-123.304,-11.35],[-122.949,-11.035],[-122.594,-10.719],[-122.24,-10.403],[-121.886,-10.087],[-121.534,-9.771],[-121.182,-9.454],[-120.83,-9.136],[-120.48,-8.819],[-120.13,-8.501],[-119.78,-8.183],[-119.431,-7.864]]}},{"type":"Feature","properties":{"boundary_type":"transform","feature_type":"gpml:Transform","polarity":null,"overriding_plate_id":null,"subducting_plate_id":null,"plate_ids":[401,4100],"name":"Siberia transform"},"geometry":{"type":"LineString","coordinates":[[-22.505,25.518],[-22.132,25.169],[-21.762,24.818],[-21.393,24.467],[-21.027,24.115],[-20.662,23.762],[-20.3,23.408],[-19.939,23.053],[-19.581,22.697],[-19.224,22.341],[-18.869,21.983]]}},{"type":"Feature","properties":{"boundary_type":"transform","feature_type":"gpml:Transform","polarity":null,"overriding_plate_id":null,"subducting_plate_id":null,"plate_ids":[101,401],"name":"baltica transform"},"geometry":{"type":"LineString","coordinates":[[-23.081,-1.377],[-23.172,-0.948],[-23.263,-0.519],[-23.392,-0.099],[-23.52,0.32],[-23.649,0.739],[-23.777,1.158],[-23.906,1.577],[-24.034,1.996],[-24.163,2.415],[-24.292,2.834],[-24.387,3.282],[-24.481,3.73],[-24.576,4.178],[-24.671,4.626],[-24.766,5.073],[-24.861,5.521],[-24.956,5.969],[-25.173,6.371],[-25.39,6.773],[-25.608,7.175],[-25.826,7.577],[-26.045,7.979],[-26.264,8.38],[-26.483,8.782],[-26.703,9.183],[-26.924,9.584],[-27.242,9.973],[-27.562,10.361],[-27.882,10.749],[-28.203,11.137],[-28.525,11.524],[-28.848,11.911],[-29.172,12.298]]}},{"type":"Feature","properties":{"boundary_type":"transform","feature_type":"gpml:Transform","polarity":null,"overriding_plate_id":null,"subducting_plate_id":null,"plate_ids":[401,902],"name":"Siberia-Baltica transform"},"geometry":{"type":"LineString","coordinates":[[-30.264,12.437],[-30.041,12.886],[-29.818,13.334],[-29.594,13.782],[-29.369,14.23],[-29.144,14.678],[-28.841,15.04],[-28.537,15.401],[-28.232,15.762],[-27.926,16.123],[-27.618,16.483],[-27.31,16.843],[-27.0,17.203],[-26.69,17.561],[-26.378,17.92],[-26.065,18.278],[-25.75,18.635],[-25.434,18.992],[-25.253,19.431],[-25.071,19.869],[-24.888,20.308],[-24.704,20.746],[-24.518,21.185],[-24.332,21.623],[-24.144,22.06],[-23.956,22.498],[-23.766,22.935],[-23.575,23.372],[-23.382,23.809],[-23.189,24.246],[-23.166,24.664]]}},{"type":"Feature","properties":{"boundary_type":"transform","feature_type":"gpml:Transform","polarity":null,"overriding_plate_id":null,"subducting_plate_id":null,"plate_ids":[401,902],"name":"Siberia transform"},"geometry":{"type":"LineString","coordinates":[[11.983,36.74],[12.329,36.392],[12.672,36.044],[13.012,35.694],[13.349,35.344],[13.683,34.993],[14.014,34.64],[13.994,34.237]]}},{"type":"Feature","properties":{"boundary_type":"transform","feature_type":"gpml:Transform","polarity":null,"overriding_plate_id":null,"subducting_plate_id":null,"plate_ids":[101,902],"name":"ALX SZ (transform - no convergence)"},"geometry":{"type":"LineString","coordinates":[[-82.216,23.465],[-82.199,23.474],[-81.756,23.573],[-81.313,23.671],[-80.87,23.767],[-80.425,23.862],[-79.914,23.871],[-79.402,23.878],[-78.89,23.884],[-78.378,23.888],[-77.866,23.89],[-77.355,23.89],[-76.843,23.889],[-76.331,23.886],[-75.819,23.881],[-75.307,23.875],[-74.796,23.867],[-74.284,23.857],[-73.753,23.745],[-73.223,23.63],[-72.693,23.514],[-72.165,23.396],[-71.637,23.276],[-71.111,23.154],[-70.585,23.031],[-70.06,22.906],[-69.537,22.779],[-69.014,22.65],[-68.492,22.52],[-67.972,22.388],[-67.452,22.254],[-66.933,22.119],[-66.415,21.982],[-65.896,21.865],[-65.377,21.747],[-64.859,21.626],[-64.342,21.505],[-63.826,21.381],[-63.311,21.256],[-62.796,21.129],[-62.283,21.001],[-61.77,20.872],[-61.258,20.74],[-60.748,20.608],[-60.238,20.473],[-59.773,20.29],[-59.31,20.106],[-58.847,19.921],[-58.386,19.734],[-57.926,19.547],[-57.467,19.358],[-57.009,19.168],[-56.552,18.977],[-56.096,18.784],[-55.641,18.591],[-55.156,18.404],[-54.672,18.215],[-54.189,18.025],[-53.707,17.833],[-53.226,17.641],[-52.747,17.448],[-52.268,17.253],[-51.79,17.057],[-51.313,16.86],[-50.838,16.662],[-50.363,16.463],[-49.889,16.263],[-49.416,16.061],[-48.945,15.859],[-48.498,15.653],[-48.053,15.445],[-47.608,15.237],[-47.164,15.027],[-46.722,14.817],[-46.28,14.606],[-45.839,14.394],[-45.398,14.182],[-44.959,13.968],[-44.52,13.754],[-44.103,13.541],[-43.686,13.326],[-43.27,13.111],[-42.854,12.896],[-42.44,12.68],[-41.954,12.635],[-41.469,12.589],[-40.984,12.542],[-40.498,12.494],[-40.014,12.445],[-39.529,12.396],[-39.045,12.346],[-38.56,12.295],[-38.076,12.243],[-37.592,12.19],[-37.108,12.136],[-36.625,12.082],[-36.237,12.045],[-35.849,12.007],[-35.461,11.969],[-34.99,12.016],[-34.518,12.062],[-34.046,12.107],[-33.573,12.151],[-33.101,12.194],[-32.629,12.237],[-32.156,12.278],[-31.683,12.319],[-31.21,12.36],[-30.737,12.399],[-30.264,12.437]]}},{"type":"Feature","properties":{"boundary_type":"transform","feature_type":"gpml:Transform","polarity":null,"overriding_plate_id":null,"subducting_plate_id":null,"plate_ids":[101,401],"name":"ALX SZ (transform - no convergence)"},"geometry":{"type":"LineString","coordinates":[[-30.264,12.437],[-30.258,12.438],[-29.896,12.392],[-29.534,12.345],[-29.172,12.298]]}},{"type":"Feature","properties":{"boundary_type":"transform","feature_type":"gpml:Transform","polarity":null,"overriding_plate_id":null,"subducting_plate_id":null,"plate_ids":[902,4100],"name":"South Amuria subduction zone (transform - no convergence)"},"geometry":{"type":"LineString","coordinates":[[13.926,47.404],[13.254,47.334],[12.584,47.261],[11.916,47.184],[11.221,47.1],[10.528,47.012],[9.838,46.92],[9.15,46.823],[8.465,46.723],[7.782,46.619],[7.102,46.51],[6.424,46.398],[5.75,46.281],[5.078,46.161],[4.409,46.036],[3.744,45.908],[3.081,45.776],[2.422,45.64],[1.8,45.42],[1.184,45.196],[0.572,44.969],[-0.035,44.738],[-0.637,44.505],[-1.234,44.268],[-1.827,44.028],[-2.414,43.786],[-2.997,43.54],[-3.575,43.291],[-4.148,43.039],[-4.717,42.785],[-5.281,42.528],[-5.84,42.268],[-6.384,41.974],[-6.924,41.678],[-7.459,41.379],[-7.988,41.078],[-8.513,40.774],[-9.033,40.468],[-9.548,40.16],[-10.059,39.849],[-10.565,39.536],[-11.066,39.221],[-11.563,38.904],[-12.056,38.585],[-12.544,38.264],[-12.968,37.904],[-13.388,37.544],[-13.804,37.182],[-14.216,36.818],[-14.624,36.453],[-15.028,36.087],[-15.428,35.72],[-15.81,35.332],[-16.189,34.944],[-16.564,34.554],[-16.935,34.163],[-17.303,33.772],[-17.668,33.379],[-18.029,32.985],[-18.387,32.59],[-18.629,32.171],[-18.868,31.752],[-19.105,31.333],[-19.34,30.913],[-19.573,30.493],[-19.803,30.073],[-20.032,29.652],[-20.259,29.23],[-20.484,28.809],[-20.708,28.387],[-20.929,27.964],[-21.149,27.541],[-21.367,27.118],[-21.583,26.695],[-21.893,26.303],[-22.2,25.911],[-22.505,25.518]]}},{"type":"Feature","properties":{"boundary_type":"transform","feature_type":"gpml:Transform","polarity":null,"overriding_plate_id":null,"subducting_plate_id":null,"plate_ids":[401,902],"name":"South Amuria subduction zone (transform - no convergence)"},"geometry":{"type":"LineString","coordinates":[[-22.505,25.518],[-22.717,25.244],[-22.927,24.97],[-23.137,24.695],[-23.166,24.664]]}},{"type":"Feature","properties":{"boundary_type":"transform","feature_type":"gpml:Transform","polarity":null,"overriding_plate_id":null,"subducting_plate_id":null,"plate_ids":[701,926],"name":"Australia-Proto Tethys Transform"},"geometry":{"type":"LineString","coordinates":[[106.205,19.969],[106.556,20.07],[106.906,20.17],[107.395,20.356],[107.886,20.541],[108.377,20.724],[108.87,20.907],[109.364,21.087],[109.859,21.267],[110.355,21.444],[110.853,21.621],[111.351,21.796],[111.851,21.969],[112.365,22.101],[112.88,22.232],[113.396,22.361],[113.913,22.488],[114.431,22.614],[114.95,22.738],[115.469,22.861],[115.99,22.981],[116.511,23.1],[117.034,23.217]]}}]}