{"type":"FeatureCollection","meta":{"model":"Cao2024","reconstruction_time_ma":945.0,"anchor_plate_id":0,"pygplates_version":"1.0.0","tessellate_degrees":0.5,"polarity_convention":"gpml:subductionPolarity. 'Left'/'Right' names the side of the line, in vertex order, on which the OVERRIDING plate lies. Triangles are drawn on that side.","antimeridian":"Lines are NOT split at +/-180 deg. The renderer works in 3D unit vectors where the dateline is not special; splitting would only add spurious breaks. Do not treat this as RFC 7946 GIS-ready 2D data."},"features":[{"type":"Feature","properties":{"boundary_type":"subduction","feature_type":"gpml:SubductionZone","polarity":"Left","overriding_plate_id":501,"subducting_plate_id":456,"plate_ids":[456,501],"name":"Jiangang SZ"},"geometry":{"type":"LineString","coordinates":[[-104.22,54.271],[-103.486,54.157],[-102.757,54.038],[-102.031,53.915],[-101.31,53.788],[-100.593,53.657],[-99.81,53.564],[-99.03,53.467],[-98.254,53.364],[-97.482,53.257],[-96.929,53.353]]}},{"type":"Feature","properties":{"boundary_type":"subduction","feature_type":"gpml:SubductionZone","polarity":"Left","overriding_plate_id":501,"subducting_plate_id":6024,"plate_ids":[501,6024],"name":"Jiangang SZ"},"geometry":{"type":"LineString","coordinates":[[-96.929,53.353],[-96.161,53.481],[-95.389,53.604],[-94.613,53.722],[-93.833,53.835],[-93.053,53.777],[-92.275,53.715],[-91.5,53.648],[-90.727,53.575],[-89.957,53.498],[-89.238,53.336],[-88.525,53.17],[-87.817,53.0],[-87.245,52.732],[-86.679,52.462],[-86.12,52.189],[-85.568,51.914],[-84.897,51.806],[-84.229,51.694],[-83.564,51.578],[-82.903,51.459],[-82.245,51.335],[-81.525,51.327],[-80.805,51.315],[-80.086,51.298],[-79.367,51.277],[-78.649,51.251],[-77.932,51.221],[-77.216,51.186],[-76.501,51.147],[-75.787,51.104],[-75.115,51.252],[-74.439,51.396],[-73.758,51.537],[-73.073,51.673],[-72.384,51.805],[-71.691,51.934],[-70.995,52.058],[-70.28,51.89],[-69.57,51.717],[-68.866,51.54]]}},{"type":"Feature","properties":{"boundary_type":"subduction","feature_type":"gpml:SubductionZone","polarity":"Left","overriding_plate_id":101,"subducting_plate_id":98041,"plate_ids":[101,98041],"name":"Valhalla Orogeny"},"geometry":{"type":"LineString","coordinates":[[153.43,-16.106],[153.797,-15.906],[154.164,-15.705],[154.53,-15.504],[154.895,-15.301],[155.259,-15.099],[155.51,-14.882],[155.76,-14.665],[155.995,-14.337],[156.23,-14.008],[156.463,-13.679],[156.696,-13.35],[157.021,-13.049],[157.345,-12.748],[157.668,-12.447],[157.99,-12.145],[158.336,-11.861],[158.681,-11.577],[159.025,-11.293],[159.368,-11.009],[159.557,-10.619],[159.745,-10.229],[159.932,-9.839],[160.12,-9.448],[160.415,-9.079],[160.71,-8.71],[160.914,-8.286],[161.116,-7.861],[161.319,-7.436],[161.625,-7.077],[161.93,-6.717],[162.235,-6.357],[162.54,-5.996],[162.655,-5.582],[162.77,-5.168],[162.885,-4.755]]}},{"type":"Feature","properties":{"boundary_type":"subduction","feature_type":"gpml:SubductionZone","polarity":"Left","overriding_plate_id":501,"subducting_plate_id":6024,"plate_ids":[501,6024],"name":"Marwar accretionary zone"},"geometry":{"type":"LineString","coordinates":[[-68.866,51.54],[-68.46,51.142],[-68.06,50.743],[-67.667,50.342],[-67.28,49.939],[-66.9,49.536],[-66.778,49.074],[-66.659,48.612],[-66.542,48.15],[-66.427,47.688],[-66.222,47.263],[-66.02,46.838]]}},{"type":"Feature","properties":{"boundary_type":"subduction","feature_type":"gpml:SubductionZone","polarity":"Left","overriding_plate_id":501,"subducting_plate_id":505,"plate_ids":[501,505],"name":"Marwar accretionary zone"},"geometry":{"type":"LineString","coordinates":[[-66.02,46.838],[-65.807,46.381],[-65.598,45.925],[-65.392,45.467],[-65.189,45.01],[-64.99,44.552],[-64.794,44.094],[-64.6,43.635],[-64.41,43.176],[-64.084,42.773],[-63.763,42.37],[-63.446,41.965],[-63.133,41.56],[-62.823,41.153],[-62.518,40.746],[-62.216,40.338],[-61.918,39.93],[-61.623,39.52],[-61.332,39.11],[-61.018,38.703],[-60.708,38.295],[-60.401,37.886],[-60.098,37.477],[-59.798,37.067],[-59.501,36.656],[-59.207,36.244],[-58.916,35.831],[-58.629,35.418],[-58.344,35.004],[-58.062,34.59],[-57.783,34.175],[-57.507,33.759],[-57.233,33.343],[-56.962,32.926],[-56.693,32.508],[-56.295,32.178],[-55.899,31.847],[-55.506,31.515],[-55.116,31.182],[-54.728,30.847],[-54.344,30.512],[-53.962,30.175],[-53.582,29.837],[-53.205,29.498],[-52.831,29.158]]}},{"type":"Feature","properties":{"boundary_type":"subduction","feature_type":"gpml:SubductionZone","polarity":"Right","overriding_plate_id":701,"subducting_plate_id":715,"plate_ids":[701,715],"name":"Galana arc"},"geometry":{"type":"LineString","coordinates":[[31.278,-7.298],[31.769,-7.249],[32.261,-7.199],[32.752,-7.148]]}},{"type":"Feature","properties":{"boundary_type":"subduction","feature_type":"gpml:SubductionZone","polarity":"Right","overriding_plate_id":701,"subducting_plate_id":5032,"plate_ids":[701,5032],"name":"Galana arc"},"geometry":{"type":"LineString","coordinates":[[32.752,-7.148],[33.224,-7.099],[33.695,-7.05],[34.167,-7.0],[34.638,-6.95],[35.11,-6.899],[35.581,-6.848],[36.052,-6.796],[36.523,-6.744],[36.994,-6.691],[37.465,-6.638],[37.935,-6.584],[38.411,-6.613],[38.888,-6.642],[39.364,-6.671],[39.84,-6.699],[40.317,-6.726],[40.793,-6.753],[41.269,-6.779],[41.746,-6.806],[42.222,-6.831],[42.699,-6.856],[43.176,-6.881],[43.652,-6.905],[44.129,-6.929],[44.591,-7.087],[45.054,-7.244],[45.517,-7.401],[45.98,-7.558],[46.443,-7.714],[46.907,-7.87],[47.371,-8.025],[47.836,-8.179],[48.301,-8.333],[48.766,-8.487],[49.231,-8.64],[49.697,-8.792],[50.164,-8.944],[50.621,-9.143],[51.078,-9.342],[51.536,-9.541],[51.994,-9.739],[52.453,-9.936],[52.912,-10.132],[53.372,-10.328],[53.832,-10.523],[54.294,-10.718],[54.755,-10.912],[55.218,-11.105],[55.68,-11.298],[56.144,-11.489],[56.608,-11.68],[57.073,-11.871],[57.557,-11.917],[58.042,-11.962],[58.527,-12.007],[59.012,-12.051],[59.497,-12.093],[59.982,-12.135],[60.467,-12.177],[60.953,-12.217],[61.439,-12.256],[61.925,-12.295],[62.411,-12.333],[62.897,-12.37],[63.383,-12.406],[63.869,-12.441],[64.356,-12.475],[64.763,-12.729],[65.172,-12.981],[65.581,-13.233],[65.991,-13.485],[66.402,-13.735],[66.814,-13.985],[67.226,-14.234],[67.64,-14.483],[68.054,-14.731],[68.47,-14.978],[68.886,-15.224],[69.304,-15.47],[69.722,-15.715],[70.141,-15.959]]}},{"type":"Feature","properties":{"boundary_type":"subduction","feature_type":"gpml:SubductionZone","polarity":"Right","overriding_plate_id":701,"subducting_plate_id":101,"plate_ids":[101,701],"name":"Galana arc"},"geometry":{"type":"LineString","coordinates":[[70.141,-15.959],[70.584,-16.215],[71.039,-16.205],[71.494,-16.194],[71.949,-16.183]]}},{"type":"Feature","properties":{"boundary_type":"subduction","feature_type":"gpml:SubductionZone","polarity":"Right","overriding_plate_id":456,"subducting_plate_id":580,"plate_ids":[456,580],"name":"Qaidam-Qilian SZ"},"geometry":{"type":"LineString","coordinates":[[-100.26,32.148],[-100.678,32.274],[-101.097,32.399],[-101.518,32.522],[-102.063,32.634],[-102.61,32.743],[-103.158,32.85],[-103.708,32.954],[-104.259,33.056],[-104.811,33.156],[-105.364,33.253],[-105.919,33.347],[-106.474,33.439],[-107.031,33.529],[-107.589,33.616],[-108.148,33.701],[-108.708,33.783],[-109.27,33.863],[-109.834,33.991],[-110.401,34.117],[-110.969,34.241],[-111.539,34.361],[-112.11,34.479],[-112.683,34.595],[-113.257,34.707],[-113.664,35.024],[-114.074,35.34],[-114.487,35.654],[-114.903,35.967],[-115.322,36.278],[-115.745,36.588],[-116.171,36.897],[-116.595,37.252],[-117.023,37.606],[-117.455,37.958],[-117.891,38.309],[-118.332,38.658],[-118.776,39.006],[-119.226,39.351],[-119.679,39.695],[-120.137,40.038],[-120.486,40.408],[-120.839,40.777]]}},{"type":"Feature","properties":{"boundary_type":"subduction","feature_type":"gpml:SubductionZone","polarity":"Right","overriding_plate_id":456,"subducting_plate_id":801,"plate_ids":[456,801],"name":"Qaidam-Qilian SZ"},"geometry":{"type":"LineString","coordinates":[[-120.839,40.777],[-121.104,41.052],[-121.372,41.326],[-121.643,41.6]]}},{"type":"Feature","properties":{"boundary_type":"subduction","feature_type":"gpml:SubductionZone","polarity":"Right","overriding_plate_id":505,"subducting_plate_id":580,"plate_ids":[505,580],"name":"Kunlun SZ"},"geometry":{"type":"LineString","coordinates":[[-91.336,8.803],[-91.56,9.189],[-91.783,9.575],[-92.008,9.961],[-92.233,10.347],[-92.458,10.732],[-92.684,11.118],[-92.911,11.503],[-93.138,11.888],[-93.366,12.273],[-93.489,12.737],[-93.612,13.201],[-93.736,13.665],[-93.86,14.129],[-93.985,14.593],[-94.11,15.056],[-94.236,15.52],[-94.459,15.897],[-94.682,16.274],[-94.907,16.65],[-95.133,17.027],[-95.359,17.403],[-95.586,17.778],[-95.668,18.271],[-95.75,18.764],[-95.833,19.257],[-95.916,19.749],[-95.999,20.242],[-96.084,20.734],[-96.168,21.227],[-96.254,21.719],[-96.278,22.215],[-96.303,22.71],[-96.328,23.206],[-96.353,23.701],[-96.378,24.197],[-96.403,24.692],[-96.429,25.188],[-96.455,25.683],[-96.481,26.179],[-96.649,26.605],[-96.819,27.03],[-96.991,27.456],[-97.163,27.881],[-97.337,28.306],[-97.513,28.731],[-97.689,29.155],[-97.868,29.579],[-98.048,30.003],[-98.229,30.427],[-98.35,30.835],[-98.473,31.243],[-98.596,31.65],[-98.721,32.057],[-98.847,32.464],[-98.974,32.872]]}},{"type":"Feature","properties":{"boundary_type":"subduction","feature_type":"gpml:SubductionZone","polarity":"Right","overriding_plate_id":505,"subducting_plate_id":580,"plate_ids":[505,580],"name":"Chu Yili-North Tianshan"},"geometry":{"type":"LineString","coordinates":[[-83.442,-5.343],[-83.726,-4.953],[-84.009,-4.564],[-84.292,-4.174],[-84.575,-3.785],[-84.858,-3.395],[-85.14,-3.005],[-85.422,-2.615],[-85.704,-2.225],[-85.986,-1.835],[-86.268,-1.484],[-86.549,-1.133],[-86.831,-0.782],[-87.112,-0.431],[-87.393,-0.08],[-87.674,0.272],[-88.015,0.613],[-88.355,0.953],[-88.695,1.294],[-89.036,1.635],[-89.377,1.975],[-89.717,2.316],[-90.058,2.657],[-90.399,2.997],[-90.74,3.337],[-91.082,3.677],[-91.424,4.017],[-91.766,4.357],[-92.108,4.697],[-92.337,5.107],[-92.566,5.517],[-92.795,5.927],[-93.025,6.336],[-93.255,6.746]]}},{"type":"Feature","properties":{"boundary_type":"subduction","feature_type":"gpml:SubductionZone","polarity":"Left","overriding_plate_id":715,"subducting_plate_id":9804,"plate_ids":[715,9804],"name":"Goias Arc"},"geometry":{"type":"LineString","coordinates":[[2.154,-55.511],[2.861,-55.397],[3.636,-55.391],[4.411,-55.38],[5.185,-55.364],[5.958,-55.343],[6.73,-55.317],[7.501,-55.287],[8.271,-55.251],[8.997,-55.313],[9.724,-55.369],[10.454,-55.422],[11.186,-55.47],[11.919,-55.514],[12.654,-55.553],[13.299,-55.819],[13.954,-56.081],[14.617,-56.34],[15.289,-56.595],[15.971,-56.846],[16.661,-57.094],[17.361,-57.338],[18.098,-57.507],[18.841,-57.672],[19.591,-57.833],[20.348,-57.989],[21.112,-58.14],[21.839,-58.343],[22.574,-58.542],[23.317,-58.737],[24.069,-58.927],[24.829,-59.113],[25.583,-59.296],[26.344,-59.474],[27.114,-59.647],[27.891,-59.816],[28.677,-59.981],[29.469,-60.141],[30.26,-60.446],[31.065,-60.747],[31.885,-61.043],[32.72,-61.334],[33.557,-61.596],[34.408,-61.852],[35.272,-62.104],[36.152,-62.35],[37.029,-62.538],[37.918,-62.721],[38.818,-62.898],[39.728,-63.07],[40.65,-63.235],[41.581,-63.394],[42.65,-63.426],[43.722,-63.45],[44.794,-63.465],[45.868,-63.473],[46.942,-63.472],[48.016,-63.464],[49.088,-63.447],[50.159,-63.422],[51.228,-63.39],[52.236,-63.282],[53.235,-63.167],[54.227,-63.045],[55.21,-62.916],[56.184,-62.781],[57.235,-62.707],[58.281,-62.625],[59.32,-62.535],[60.353,-62.438],[61.38,-62.334],[62.399,-62.221],[63.41,-62.102],[64.412,-61.975],[65.407,-61.84],[66.392,-61.699],[67.368,-61.551]]}},{"type":"Feature","properties":{"boundary_type":"subduction","feature_type":"gpml:SubductionZone","polarity":"Left","overriding_plate_id":null,"subducting_plate_id":null,"plate_ids":[715],"name":"Goias Arc"},"geometry":{"type":"LineString","coordinates":[[67.368,-61.551],[68.285,-61.404]]}},{"type":"Feature","properties":{"boundary_type":"subduction","feature_type":"gpml:SubductionZone","polarity":"Right","overriding_plate_id":101,"subducting_plate_id":98041,"plate_ids":[101,98041],"name":"Taimyr SZ"},"geometry":{"type":"LineString","coordinates":[[-153.385,16.531],[-153.314,16.133],[-153.243,15.734],[-153.172,15.335],[-153.102,14.936],[-153.108,14.458],[-153.115,13.979],[-153.121,13.501],[-153.128,13.022],[-153.134,12.544],[-153.141,12.066],[-153.147,11.587],[-153.154,11.109],[-153.16,10.63],[-153.167,10.152],[-153.083,9.776],[-152.999,9.4],[-152.916,9.025],[-152.832,8.649],[-152.958,8.174],[-153.084,7.699],[-153.21,7.224],[-153.335,6.749],[-153.306,6.307],[-153.277,5.866],[-153.248,5.425],[-153.219,4.983],[-153.19,4.542],[-153.162,4.101],[-153.172,3.603],[-153.182,3.105],[-153.193,2.607],[-153.203,2.109],[-153.213,1.611],[-153.224,1.113],[-153.221,0.648],[-153.218,0.183],[-153.216,-0.283],[-153.213,-0.748],[-153.211,-1.213],[-153.208,-1.679],[-153.206,-2.144],[-153.203,-2.609],[-153.201,-3.075],[-153.198,-3.54],[-153.196,-4.005],[-153.193,-4.471],[-153.19,-4.936],[-153.188,-5.401],[-153.213,-5.869],[-153.239,-6.337],[-153.264,-6.805],[-153.29,-7.274],[-153.315,-7.742],[-153.341,-8.21],[-153.367,-8.678],[-153.392,-9.146],[-153.604,-9.589],[-153.815,-10.032],[-154.028,-10.475],[-154.241,-10.918],[-154.455,-11.361],[-154.669,-11.803],[-154.884,-12.245],[-155.1,-12.688],[-155.316,-13.13],[-155.533,-13.571],[-155.752,-14.013],[-155.97,-14.454],[-156.19,-14.896],[-156.411,-15.337],[-156.633,-15.777],[-156.855,-16.218],[-157.079,-16.658],[-157.303,-17.098],[-157.529,-17.538],[-157.756,-17.978],[-158.189,-18.121],[-158.624,-18.263],[-159.058,-18.404],[-159.494,-18.545],[-159.93,-18.684],[-160.367,-18.822],[-160.805,-18.959],[-161.33,-18.959],[-161.854,-18.958],[-162.378,-18.955],[-162.903,-18.95],[-163.427,-18.944],[-163.951,-18.937],[-164.476,-18.928],[-165.0,-18.917],[-165.491,-18.998],[-165.983,-19.078],[-166.475,-19.156],[-166.968,-19.233],[-167.461,-19.309]]}},{"type":"Feature","properties":{"boundary_type":"subduction","feature_type":"gpml:SubductionZone","polarity":"Left","overriding_plate_id":6024,"subducting_plate_id":456,"plate_ids":[456,6024],"name":"Panxi-Hannan Belt"},"geometry":{"type":"LineString","coordinates":[[-98.009,51.015],[-97.573,50.77],[-96.967,50.52],[-96.367,50.267],[-95.774,50.012],[-95.187,49.753],[-94.606,49.491],[-94.032,49.226],[-93.483,48.922],[-92.94,48.614],[-92.404,48.305],[-91.874,47.992],[-91.351,47.678],[-90.834,47.361],[-90.308,47.145],[-89.787,46.926],[-89.27,46.706],[-88.757,46.483],[-88.249,46.257],[-87.745,46.03],[-87.211,45.707],[-86.683,45.382],[-86.162,45.054],[-85.647,44.724],[-85.137,44.392],[-84.651,44.14],[-84.169,43.886],[-83.691,43.63],[-83.218,43.373],[-82.748,43.113],[-82.282,42.851],[-81.67,42.633],[-81.063,42.412],[-80.46,42.187]]}},{"type":"Feature","properties":{"boundary_type":"subduction","feature_type":"gpml:SubductionZone","polarity":"Right","overriding_plate_id":101,"subducting_plate_id":98041,"plate_ids":[101,98041],"name":"Proto Avalonia SZ"},"geometry":{"type":"LineString","coordinates":[[164.333,-24.149],[164.634,-24.557],[164.936,-24.965],[165.241,-25.372],[165.547,-25.778],[165.856,-26.184],[166.129,-26.55],[166.403,-26.916],[166.679,-27.281],[166.956,-27.646],[167.236,-28.01],[167.518,-28.373],[167.817,-28.759],[168.119,-29.145],[168.424,-29.53],[168.73,-29.914],[169.039,-30.297],[169.351,-30.68],[169.664,-31.062],[169.981,-31.443],[170.3,-31.824],[170.472,-32.286],[170.647,-32.748],[170.823,-33.21],[171.001,-33.672],[171.181,-34.134],[171.363,-34.595],[171.546,-35.056],[171.732,-35.517],[171.921,-35.977],[172.111,-36.437],[172.304,-36.897],[172.499,-37.356],[172.696,-37.816],[172.896,-38.274],[173.098,-38.733],[173.303,-39.191],[173.511,-39.649],[173.721,-40.106],[173.935,-40.563],[174.151,-41.02],[174.37,-41.476],[174.464,-41.967],[174.56,-42.457],[174.657,-42.948],[174.756,-43.438],[174.856,-43.929],[174.958,-44.419],[175.062,-44.909],[175.167,-45.4],[175.275,-45.89],[175.384,-46.379],[175.495,-46.869],[175.609,-47.359],[175.724,-47.849],[175.842,-48.338],[175.962,-48.827],[175.855,-49.315],[175.746,-49.802],[175.634,-50.289],[175.52,-50.776],[175.404,-51.263],[175.286,-51.75],[175.165,-52.237],[175.041,-52.723],[174.914,-53.21],[174.785,-53.696],[174.652,-54.182],[174.516,-54.668],[174.377,-55.154],[174.235,-55.639],[174.089,-56.125],[173.939,-56.61],[173.732,-57.083],[173.519,-57.555],[173.3,-58.026],[173.076,-58.497],[172.845,-58.968],[172.608,-59.439],[172.365,-59.909],[172.114,-60.378],[171.856,-60.847],[171.59,-61.316],[171.317,-61.784],[171.035,-62.251],[170.744,-62.718],[170.443,-63.184],[170.133,-63.65],[169.813,-64.115],[169.481,-64.579],[169.139,-65.042],[169.055,-65.105]]}},{"type":"Feature","properties":{"boundary_type":"subduction","feature_type":"gpml:SubductionZone","polarity":"Right","overriding_plate_id":101,"subducting_plate_id":801,"plate_ids":[101,801],"name":"North Qinling SZ"},"geometry":{"type":"LineString","coordinates":[[160.813,17.225],[161.287,17.172],[161.761,17.118],[162.236,17.062],[162.709,17.006],[163.183,16.948],[163.656,16.889],[164.129,16.829],[164.601,16.769],[165.074,16.707],[165.546,16.644],[166.049,16.554],[166.552,16.463],[167.054,16.371],[167.556,16.278],[168.057,16.184],[168.558,16.088],[169.058,15.991],[169.558,15.894],[170.057,15.795],[170.556,15.694],[171.055,15.593],[171.553,15.491],[172.05,15.387],[172.547,15.283],[173.043,15.177],[173.539,15.07],[174.027,15.057],[174.515,15.043],[175.003,15.029],[175.491,15.013],[175.979,14.996],[176.466,14.977],[176.954,14.958],[177.441,14.938],[177.929,14.917],[178.416,14.895],[178.903,14.872],[179.39,14.847],[179.877,14.822],[-179.798,15.204],[-179.472,15.586],[-179.145,15.967],[-178.817,16.347],[-178.487,16.727],[-178.156,17.107],[-177.823,17.486],[-177.49,17.864],[-177.435,18.289],[-177.379,18.714],[-177.323,19.139],[-177.267,19.564]]}},{"type":"Feature","properties":{"boundary_type":"subduction","feature_type":"gpml:SubductionZone","polarity":"Right","overriding_plate_id":101,"subducting_plate_id":801,"plate_ids":[101,801],"name":"North Qinling SZ collision"},"geometry":{"type":"LineString","coordinates":[[178.022,26.251],[177.954,26.643],[177.885,27.035],[177.816,27.428],[177.747,27.82],[177.594,28.284],[177.439,28.748],[177.283,29.212],[177.126,29.676],[176.968,30.139],[176.807,30.602],[176.646,31.065],[176.482,31.528],[176.491,32.018],[176.5,32.508],[176.509,32.998],[176.518,33.488],[176.527,33.979],[176.536,34.469],[176.545,34.959],[176.555,35.449],[176.816,35.876],[177.079,36.302],[177.346,36.728],[177.615,37.153],[177.888,37.578],[178.164,38.002],[178.443,38.425],[178.725,38.848],[179.011,39.27],[179.3,39.691],[179.592,40.112],[-179.96,40.376],[-179.509,40.638],[-179.054,40.899],[-178.595,41.158],[-178.133,41.415],[-177.668,41.67],[-177.198,41.924]]}},{"type":"Feature","properties":{"boundary_type":"subduction","feature_type":"gpml:SubductionZone","polarity":"Right","overriding_plate_id":501,"subducting_plate_id":801,"plate_ids":[501,801],"name":"Eastern Ghats-Rayner-Ruker SZ"},"geometry":{"type":"LineString","coordinates":[[-56.964,59.84],[-56.317,60.059],[-55.661,60.275],[-54.997,60.488],[-54.152,60.683],[-53.297,60.873],[-52.432,61.057],[-51.557,61.235],[-50.673,61.408],[-49.778,61.575],[-48.875,61.736],[-47.961,61.891],[-46.946,61.905],[-45.931,61.911],[-44.915,61.91],[-43.899,61.902],[-42.884,61.886],[-41.871,61.862],[-40.859,61.832],[-39.886,61.724],[-38.92,61.61],[-37.961,61.489],[-37.01,61.362],[-36.067,61.227],[-35.131,61.087],[-34.205,60.94],[-33.287,60.786],[-32.378,60.627],[-31.478,60.461],[-30.587,60.289],[-30.07,59.882],[-29.565,59.472]]}},{"type":"Feature","properties":{"boundary_type":"subduction","feature_type":"gpml:SubductionZone","polarity":"Right","overriding_plate_id":501,"subducting_plate_id":8031,"plate_ids":[501,8031],"name":"Eastern Ghats-Rayner-Ruker SZ"},"geometry":{"type":"LineString","coordinates":[[-29.565,59.472],[-29.099,59.083],[-28.643,58.692],[-28.198,58.3],[-27.762,57.906],[-27.335,57.51],[-26.918,57.114],[-26.51,56.716],[-26.682,56.257],[-26.85,55.799],[-27.013,55.34],[-27.174,54.881],[-27.33,54.421],[-27.483,53.962],[-27.633,53.502],[-27.78,53.042],[-27.923,52.582],[-28.064,52.122],[-28.173,51.645],[-28.281,51.168],[-28.386,50.69],[-28.49,50.213],[-28.591,49.735],[-28.621,49.308],[-28.65,48.881],[-28.678,48.454],[-28.706,48.027],[-28.504,47.645],[-28.305,47.264],[-28.109,46.882],[-27.915,46.5],[-27.725,46.117],[-27.425,45.72],[-27.13,45.322],[-26.839,44.924],[-26.552,44.525],[-26.269,44.125],[-25.989,43.724],[-25.704,43.316],[-25.423,42.907],[-25.146,42.497],[-24.872,42.087],[-24.602,41.676],[-24.214,41.295],[-23.83,40.912],[-23.451,40.528],[-23.076,40.143],[-22.706,39.756],[-22.34,39.369],[-21.977,38.98],[-21.619,38.59],[-21.264,38.199],[-20.914,37.807],[-20.567,37.414],[-20.305,36.988],[-20.046,36.562],[-19.79,36.135],[-19.537,35.707],[-19.286,35.279],[-19.039,34.851],[-18.793,34.422],[-18.55,33.992],[-18.31,33.562],[-18.072,33.132],[-17.836,32.701],[-17.603,32.269],[-17.372,31.837],[-17.143,31.405],[-16.916,30.973],[-16.691,30.54],[-16.468,30.106],[-16.022,29.875],[-15.578,29.642],[-15.136,29.408],[-14.696,29.172],[-14.258,28.935],[-13.822,28.697],[-13.388,28.457],[-12.955,28.216],[-12.525,27.973],[-12.097,27.729]]}},{"type":"Feature","properties":{"boundary_type":"subduction","feature_type":"gpml:SubductionZone","polarity":"Right","overriding_plate_id":501,"subducting_plate_id":715,"plate_ids":[501,715],"name":"Eastern Ghats-Rayner-Ruker SZ"},"geometry":{"type":"LineString","coordinates":[[-12.097,27.729],[-12.016,27.683],[-11.633,27.336],[-11.252,26.988],[-10.873,26.639]]}},{"type":"Feature","properties":{"boundary_type":"subduction","feature_type":"gpml:SubductionZone","polarity":"Left","overriding_plate_id":501,"subducting_plate_id":801,"plate_ids":[501,801],"name":"Coastal domain convergence"},"geometry":{"type":"LineString","coordinates":[[-56.964,59.84],[-57.821,59.737],[-58.672,59.629],[-59.518,59.515],[-60.358,59.395],[-61.192,59.27],[-62.092,59.265],[-62.991,59.254],[-63.89,59.236],[-64.788,59.212],[-65.684,59.182],[-66.579,59.146],[-67.249,59.431],[-67.93,59.712],[-68.623,59.99],[-69.327,60.264],[-70.043,60.534],[-70.771,60.8],[-71.512,61.063],[-72.264,61.321],[-73.215,61.464],[-74.174,61.601],[-75.141,61.731],[-76.116,61.854],[-77.099,61.971],[-78.089,62.08],[-79.087,62.182],[-80.09,62.277],[-81.1,62.364],[-82.116,62.445],[-83.136,62.517],[-84.162,62.583],[-85.224,62.633],[-86.29,62.676],[-87.358,62.71],[-88.429,62.737],[-89.501,62.755],[-90.575,62.765],[-91.648,62.767],[-92.722,62.76],[-93.795,62.746],[-94.866,62.723],[-95.835,62.513],[-96.79,62.297],[-97.731,62.075],[-98.659,61.846],[-99.572,61.611],[-100.471,61.37],[-101.357,61.123],[-102.163,60.818],[-102.954,60.508],[-103.729,60.194],[-104.49,59.876],[-105.236,59.553],[-105.968,59.226],[-106.687,58.895],[-107.391,58.56],[-108.082,58.221],[-108.76,57.879],[-109.425,57.533],[-110.077,57.184],[-110.717,56.831],[-111.345,56.475],[-111.962,56.116],[-112.722,55.906],[-113.474,55.692],[-114.217,55.473]]}},{"type":"Feature","properties":{"boundary_type":"subduction","feature_type":"gpml:SubductionZone","polarity":"Left","overriding_plate_id":501,"subducting_plate_id":801,"plate_ids":[501,801],"name":"Transform connecting SC subduction with Q-Q"},"geometry":{"type":"LineString","coordinates":[[-114.217,55.473],[-113.979,55.033],[-113.746,54.593],[-113.518,54.152],[-113.295,53.711],[-113.076,53.269],[-112.862,52.827],[-112.922,52.44],[-112.98,52.052],[-113.038,51.664],[-113.095,51.277]]}},{"type":"Feature","properties":{"boundary_type":"subduction","feature_type":"gpml:SubductionZone","polarity":"Left","overriding_plate_id":456,"subducting_plate_id":801,"plate_ids":[456,801],"name":"Transform connecting SC subduction with Q-Q"},"geometry":{"type":"LineString","coordinates":[[-113.095,51.277],[-113.156,50.851],[-113.465,50.415],[-113.768,49.979],[-114.066,49.541],[-114.359,49.103],[-114.646,48.665],[-114.929,48.225],[-115.207,47.785],[-115.48,47.344],[-115.748,46.903],[-116.013,46.461],[-116.272,46.018],[-116.528,45.575],[-116.78,45.131],[-117.292,44.787],[-117.799,44.441],[-118.299,44.093],[-118.793,43.743],[-119.282,43.391],[-119.765,43.037],[-120.243,42.68],[-120.715,42.322],[-121.181,41.962],[-121.643,41.6]]}},{"type":"Feature","properties":{"boundary_type":"subduction","feature_type":"gpml:SubductionZone","polarity":"Left","overriding_plate_id":8031,"subducting_plate_id":801,"plate_ids":[801,8031],"name":"Ruker SZ"},"geometry":{"type":"LineString","coordinates":[[-3.701,48.148],[-4.164,48.509],[-4.634,48.868],[-5.11,49.225],[-5.594,49.581],[-6.084,49.934],[-6.582,50.285],[-7.087,50.634],[-7.6,50.981],[-8.12,51.325],[-8.648,51.667],[-9.185,52.007],[-9.729,52.344],[-10.282,52.679],[-10.843,53.011],[-11.413,53.341],[-11.992,53.667],[-12.58,53.991],[-13.078,54.342],[-13.584,54.691],[-14.1,55.037],[-14.624,55.382],[-15.158,55.724],[-15.701,56.063],[-16.254,56.401],[-16.816,56.735],[-17.389,57.068],[-17.972,57.397],[-18.565,57.724],[-19.316,57.985],[-20.078,58.242],[-20.852,58.494],[-21.636,58.742],[-22.431,58.984],[-23.238,59.222],[-24.135,59.276],[-25.035,59.325],[-25.938,59.367],[-26.842,59.402],[-27.749,59.432],[-28.656,59.455],[-29.565,59.472]]}},{"type":"Feature","properties":{"boundary_type":"subduction","feature_type":"gpml:SubductionZone","polarity":"Right","overriding_plate_id":98041,"subducting_plate_id":801,"plate_ids":[801,98041],"name":"Mirovoi-Mawson Sea"},"geometry":{"type":"LineString","coordinates":[[-156.606,21.109],[-156.153,21.344],[-155.698,21.579],[-155.242,21.811],[-154.785,22.043],[-154.326,22.273],[-153.865,22.502],[-153.403,22.73],[-152.94,22.957],[-152.475,23.182],[-152.008,23.405],[-151.643,23.632],[-151.276,23.858],[-150.908,24.083],[-150.539,24.308]]}},{"type":"Feature","properties":{"boundary_type":"subduction","feature_type":"gpml:SubductionZone","polarity":"Right","overriding_plate_id":580,"subducting_plate_id":801,"plate_ids":[580,801],"name":"Mirovoi-Mawson Sea"},"geometry":{"type":"LineString","coordinates":[[-150.539,24.308],[-150.082,24.583],[-149.623,24.857],[-149.161,25.13],[-148.698,25.401],[-148.233,25.671],[-147.765,25.939],[-147.295,26.206],[-146.823,26.471],[-146.349,26.735],[-145.915,27.04],[-145.477,27.345],[-145.038,27.648],[-144.596,27.949],[-144.151,28.249],[-143.704,28.548],[-143.255,28.845],[-142.802,29.141],[-142.348,29.435],[-141.89,29.728],[-141.43,30.019],[-140.968,30.308],[-140.502,30.596],[-140.034,30.882],[-139.563,31.166],[-139.089,31.449],[-138.612,31.73],[-138.133,32.009],[-137.65,32.286],[-137.165,32.562],[-136.676,32.835],[-136.205,33.111],[-135.731,33.385],[-135.255,33.656],[-134.775,33.926],[-134.292,34.195],[-133.806,34.461],[-133.317,34.725],[-132.825,34.987],[-132.33,35.248],[-131.831,35.506],[-131.329,35.762],[-130.824,36.016],[-130.316,36.268],[-129.805,36.518],[-129.29,36.766],[-128.772,37.011],[-128.251,37.254],[-127.761,37.508],[-127.268,37.759],[-126.772,38.009],[-126.272,38.256],[-125.769,38.501],[-125.263,38.744],[-124.753,38.985],[-124.24,39.224],[-123.723,39.46],[-123.203,39.694],[-122.679,39.926],[-122.151,40.155],[-121.62,40.382],[-121.086,40.607],[-120.839,40.777]]}},{"type":"Feature","properties":{"boundary_type":"subduction","feature_type":"gpml:SubductionZone","polarity":"Left","overriding_plate_id":715,"subducting_plate_id":9804,"plate_ids":[715,9804],"name":"Iskel arc"},"geometry":{"type":"LineString","coordinates":[[-26.151,-12.808],[-26.153,-13.298],[-26.154,-13.788],[-26.156,-14.279],[-26.198,-14.771],[-26.24,-15.264],[-26.282,-15.756],[-26.325,-16.249],[-26.368,-16.741],[-26.41,-17.234],[-26.454,-17.726],[-26.493,-18.197],[-26.533,-18.668],[-26.573,-19.138],[-26.614,-19.609],[-26.654,-20.08],[-26.695,-20.55],[-26.736,-21.021],[-26.801,-21.483],[-26.867,-21.946],[-26.933,-22.408],[-27.0,-22.871],[-27.191,-23.299],[-27.384,-23.727],[-27.578,-24.155],[-27.774,-24.583],[-27.971,-25.011],[-28.291,-25.399],[-28.614,-25.786],[-28.939,-26.173],[-29.266,-26.559],[-29.596,-26.944],[-29.927,-27.328],[-30.261,-27.712],[-30.598,-28.095],[-30.936,-28.477],[-31.277,-28.858],[-31.529,-29.287],[-31.783,-29.716],[-32.039,-30.144],[-32.298,-30.572],[-32.558,-30.999],[-32.821,-31.426],[-33.087,-31.852],[-33.355,-32.277],[-33.625,-32.703],[-33.898,-33.127],[-34.174,-33.551],[-34.452,-33.974],[-34.733,-34.397],[-35.017,-34.819],[-35.304,-35.24],[-35.594,-35.66],[-35.887,-36.08],[-36.183,-36.499],[-36.482,-36.918],[-36.785,-37.336],[-37.091,-37.752],[-37.4,-38.169],[-37.536,-38.595],[-37.673,-39.021],[-37.812,-39.448],[-37.953,-39.874],[-38.095,-40.299],[-38.239,-40.725],[-38.385,-41.151],[-38.518,-41.639],[-38.654,-42.128],[-38.792,-42.616],[-38.931,-43.104],[-39.073,-43.592],[-38.771,-43.977],[-38.464,-44.36],[-38.153,-44.743],[-37.839,-45.124],[-37.52,-45.505],[-37.196,-45.885],[-36.675,-46.201],[-36.148,-46.515],[-35.615,-46.826],[-35.075,-47.134],[-34.53,-47.44],[-33.977,-47.744],[-33.419,-48.045],[-32.854,-48.343],[-32.282,-48.638],[-31.704,-48.93],[-31.119,-49.22],[-30.417,-49.172],[-29.717,-49.119],[-29.019,-49.063],[-28.322,-49.003],[-27.719,-48.818],[-27.121,-48.631],[-26.526,-48.441],[-25.937,-48.248],[-25.352,-48.051],[-24.818,-48.135],[-24.283,-48.217],[-23.747,-48.296],[-23.128,-48.514],[-22.504,-48.728],[-21.874,-48.939],[-21.24,-49.147],[-20.6,-49.351],[-19.955,-49.551],[-19.349,-49.753],[-18.738,-49.951],[-18.122,-50.146],[-17.502,-50.337],[-16.877,-50.514],[-16.247,-50.687],[-15.613,-50.857],[-14.974,-51.023],[-14.331,-51.186],[-13.683,-51.345],[-13.031,-51.5],[-12.384,-51.688],[-11.732,-51.871],[-11.075,-52.051],[-10.412,-52.228],[-9.745,-52.4],[-9.097,-52.612],[-8.443,-52.821],[-7.783,-53.026],[-7.117,-53.227],[-6.444,-53.425],[-5.765,-53.618],[-5.08,-53.808],[-4.389,-53.994],[-3.687,-54.18],[-2.978,-54.361],[-2.263,-54.539],[-1.542,-54.712],[-0.814,-54.881],[-0.081,-55.045],[0.658,-55.205],[1.403,-55.36],[2.154,-55.511]]}},{"type":"Feature","properties":{"boundary_type":"subduction","feature_type":"gpml:SubductionZone","polarity":"Left","overriding_plate_id":101,"subducting_plate_id":98041,"plate_ids":[101,98041],"name":"Ribnaya-Panimba SZ"},"geometry":{"type":"LineString","coordinates":[[-153.385,16.531],[-153.62,16.921],[-153.856,17.311],[-154.094,17.7],[-154.332,18.09],[-154.571,18.478],[-154.811,18.867],[-155.052,19.255],[-155.295,19.643],[-155.539,20.031],[-155.893,20.391],[-156.249,20.75],[-156.606,21.109]]}},{"type":"Feature","properties":{"boundary_type":"subduction","feature_type":"gpml:SubductionZone","polarity":"Left","overriding_plate_id":101,"subducting_plate_id":801,"plate_ids":[101,801],"name":"Ribnaya-Panimba SZ"},"geometry":{"type":"LineString","coordinates":[[-156.606,21.109],[-156.82,21.323],[-157.035,21.536],[-157.264,21.812],[-157.494,22.087],[-157.725,22.361],[-158.005,22.616],[-158.286,22.87],[-158.568,23.124],[-158.922,23.458],[-159.278,23.791],[-159.636,24.124],[-159.996,24.455],[-160.358,24.786],[-160.722,25.116],[-161.23,25.272],[-161.739,25.426],[-162.25,25.578],[-162.762,25.729],[-163.276,25.878],[-163.79,26.025],[-164.304,25.905],[-164.816,25.783],[-165.327,25.659],[-165.838,25.534],[-166.347,25.407],[-166.855,25.278],[-167.345,25.118],[-167.834,24.955]]}},{"type":"Feature","properties":{"boundary_type":"ridge","feature_type":"gpml:MidOceanRidge","polarity":null,"overriding_plate_id":null,"subducting_plate_id":null,"plate_ids":[715,8031],"name":"Transform closing Ruker plate"},"geometry":{"type":"LineString","coordinates":[[-12.097,27.729],[-11.934,28.193],[-11.77,28.657],[-11.604,29.12],[-11.437,29.583],[-11.268,30.046],[-11.097,30.509],[-10.925,30.972],[-10.751,31.434],[-10.576,31.896],[-10.399,32.358],[-10.219,32.82],[-10.038,33.281],[-9.856,33.742],[-9.671,34.203],[-9.484,34.663],[-9.295,35.123],[-9.104,35.583],[-8.91,36.043],[-8.715,36.502],[-8.517,36.961],[-8.316,37.42],[-8.114,37.878],[-7.908,38.336],[-7.764,38.739]]}},{"type":"Feature","properties":{"boundary_type":"ridge","feature_type":"gpml:MidOceanRidge","polarity":null,"overriding_plate_id":null,"subducting_plate_id":null,"plate_ids":[801,8031],"name":"Transform closing Ruker plate"},"geometry":{"type":"LineString","coordinates":[[-7.764,38.739],[-7.598,39.199],[-7.43,39.658],[-7.259,40.117],[-7.086,40.576],[-6.91,41.035],[-6.732,41.493],[-6.552,41.952],[-6.369,42.409],[-6.183,42.867],[-5.994,43.324],[-5.803,43.781],[-5.609,44.238],[-5.411,44.694],[-5.211,45.15],[-5.007,45.606],[-4.8,46.061],[-4.589,46.516],[-4.375,46.97],[-4.157,47.424],[-3.936,47.878],[-3.701,48.148]]}},{"type":"Feature","properties":{"boundary_type":"ridge","feature_type":"gpml:MidOceanRidge","polarity":null,"overriding_plate_id":null,"subducting_plate_id":null,"plate_ids":[501,505],"name":"India-SM MoR"},"geometry":{"type":"LineString","coordinates":[[-57.992,6.302],[-57.66,6.16],[-57.329,6.019],[-56.997,5.877]]}},{"type":"Feature","properties":{"boundary_type":"ridge","feature_type":"gpml:MidOceanRidge","polarity":null,"overriding_plate_id":null,"subducting_plate_id":null,"plate_ids":[501,9804],"name":"India-SM MoR"},"geometry":{"type":"LineString","coordinates":[[-56.997,5.877],[-56.555,5.688],[-56.113,5.498],[-55.671,5.308],[-55.229,5.117],[-54.788,4.926],[-54.347,4.735],[-53.906,4.544],[-53.57,4.891],[-53.234,5.238],[-52.898,5.584],[-52.561,5.931],[-52.224,6.277],[-51.783,6.093],[-51.343,5.908],[-50.903,5.722],[-50.464,5.536],[-50.024,5.35],[-49.585,5.164],[-49.146,4.977],[-48.707,4.79],[-48.269,4.603],[-47.831,4.416],[-47.643,4.866],[-47.455,5.316],[-47.267,5.767],[-47.079,6.217],[-46.89,6.667],[-46.701,7.117],[-46.512,7.567],[-46.322,8.017],[-45.889,7.834],[-45.457,7.65],[-45.026,7.465],[-44.594,7.281],[-44.163,7.096],[-43.733,6.91],[-43.302,6.724],[-42.872,6.538],[-42.443,6.351],[-42.013,6.164],[-41.584,5.977],[-41.155,5.789],[-40.959,6.142],[-40.762,6.495],[-40.565,6.848],[-40.368,7.2],[-39.932,7.018],[-39.497,6.835],[-39.061,6.651],[-38.627,6.468],[-38.192,6.284],[-37.758,6.099],[-37.324,5.914],[-36.891,5.729],[-36.457,5.544],[-36.024,5.358],[-35.837,5.745],[-35.65,6.132],[-35.462,6.518],[-35.274,6.905],[-34.866,6.718],[-34.459,6.532],[-34.052,6.345],[-33.645,6.158],[-33.239,5.97],[-32.833,5.782],[-32.427,5.594],[-32.022,5.406],[-31.836,5.822],[-31.649,6.238],[-31.462,6.655],[-31.275,7.071],[-31.088,7.487],[-30.9,7.903],[-30.47,7.741],[-30.039,7.58],[-29.609,7.418],[-29.179,7.255],[-28.994,7.697],[-28.808,8.138],[-28.622,8.579],[-28.435,9.02],[-28.248,9.462],[-28.061,9.902],[-27.873,10.343],[-27.433,10.171],[-26.993,9.999],[-26.554,9.826],[-26.116,9.652],[-25.677,9.478],[-25.24,9.304],[-25.074,9.721],[-24.907,10.138],[-24.741,10.556],[-24.573,10.973],[-24.406,11.39],[-24.237,11.807],[-24.069,12.224],[-23.899,12.641],[-23.73,13.058],[-23.305,12.887],[-22.882,12.715],[-22.459,12.543],[-22.036,12.37],[-21.615,12.196],[-21.193,12.022],[-20.773,11.847],[-20.352,11.671],[-19.933,11.495]]}},{"type":"Feature","properties":{"boundary_type":"ridge","feature_type":"gpml:MidOceanRidge","polarity":null,"overriding_plate_id":null,"subducting_plate_id":null,"plate_ids":[501,715],"name":"India-SM MoR"},"geometry":{"type":"LineString","coordinates":[[-19.933,11.495],[-19.55,11.334],[-19.361,11.755],[-19.172,12.176],[-18.982,12.597],[-18.792,13.017],[-18.6,13.438],[-18.409,13.858],[-17.936,13.716],[-17.464,13.572],[-16.993,13.428],[-16.522,13.283],[-16.051,13.137],[-15.582,12.99]]}},{"type":"Feature","properties":{"boundary_type":"ridge","feature_type":"gpml:MidOceanRidge","polarity":null,"overriding_plate_id":null,"subducting_plate_id":null,"plate_ids":[101,701],"name":"SF-Congo MOR"},"geometry":{"type":"LineString","coordinates":[[68.904,-47.201],[68.221,-47.148],[67.539,-47.091],[66.858,-47.029],[66.797,-47.378],[66.735,-47.726],[66.06,-47.638]]}},{"type":"Feature","properties":{"boundary_type":"ridge","feature_type":"gpml:MidOceanRidge","polarity":null,"overriding_plate_id":null,"subducting_plate_id":null,"plate_ids":[701,715],"name":"SF-Congo MOR"},"geometry":{"type":"LineString","coordinates":[[66.06,-47.638],[65.447,-47.555],[64.835,-47.468],[64.225,-47.378],[63.618,-47.285],[63.012,-47.188],[62.409,-47.089],[62.332,-47.401],[62.255,-47.714],[61.627,-47.621],[61.001,-47.525],[60.377,-47.425],[59.756,-47.322],[59.137,-47.215],[58.521,-47.105],[58.34,-47.526],[58.156,-47.947],[57.969,-48.367],[57.398,-48.226],[56.83,-48.081],[56.266,-47.934],[55.704,-47.784],[55.146,-47.631],[54.942,-47.936],[54.736,-48.24],[54.163,-48.071],[53.593,-47.899],[53.027,-47.725],[52.811,-48.075],[52.592,-48.426],[51.98,-48.25],[51.373,-48.072],[51.127,-48.372],[50.878,-48.672],[50.331,-48.452],[49.789,-48.229],[49.252,-48.003],[48.857,-48.403],[48.455,-48.801],[48.047,-49.198],[47.538,-48.989],[47.033,-48.778],[46.532,-48.565],[46.102,-48.878],[45.665,-49.19],[45.224,-49.5],[44.733,-49.259],[44.247,-49.017],[43.824,-49.252],[43.396,-49.485],[42.964,-49.193],[42.537,-48.9],[41.912,-49.103],[41.283,-49.302],[40.649,-49.498],[40.009,-49.691],[39.703,-49.268],[39.154,-49.368],[38.602,-49.464],[38.048,-49.558],[37.76,-49.098],[37.478,-48.638],[37.361,-48.393]]}},{"type":"Feature","properties":{"boundary_type":"ridge","feature_type":"gpml:MidOceanRidge","polarity":null,"overriding_plate_id":null,"subducting_plate_id":null,"plate_ids":[580,9804],"name":"Mirovoi MOR"},"geometry":{"type":"LineString","coordinates":[[-122.323,-39.912],[-121.683,-39.995],[-121.041,-40.073],[-120.398,-40.148],[-119.754,-40.22],[-119.108,-40.288],[-118.461,-40.352],[-117.813,-40.413],[-117.164,-40.47],[-116.513,-40.523],[-115.862,-40.573],[-115.21,-40.619],[-114.557,-40.662],[-113.903,-40.7],[-113.248,-40.736],[-112.593,-40.767],[-111.937,-40.795],[-111.28,-40.819],[-110.623,-40.839],[-109.966,-40.855],[-109.309,-40.868],[-108.651,-40.877],[-107.993,-40.882],[-107.335,-40.884],[-106.677,-40.882],[-106.019,-40.876],[-105.362,-40.866],[-104.704,-40.853],[-104.047,-40.836],[-103.39,-40.815],[-102.734,-40.79],[-102.078,-40.762],[-101.423,-40.73],[-100.768,-40.694],[-100.114,-40.655],[-99.461,-40.612],[-98.809,-40.565],[-98.158,-40.515],[-97.508,-40.461],[-96.859,-40.403],[-96.211,-40.342],[-95.564,-40.277],[-94.918,-40.208],[-94.274,-40.136],[-93.632,-40.061],[-92.99,-39.981],[-92.351,-39.899],[-91.712,-39.812],[-91.076,-39.723],[-90.441,-39.63],[-89.808,-39.533],[-89.176,-39.433],[-88.547,-39.329],[-88.652,-38.938],[-88.756,-38.547],[-88.859,-38.155],[-88.961,-37.764],[-88.333,-37.709],[-87.705,-37.651],[-87.079,-37.59],[-86.453,-37.526],[-85.829,-37.458],[-85.206,-37.387],[-84.584,-37.313],[-83.963,-37.235],[-83.344,-37.155],[-82.726,-37.071],[-82.109,-36.983],[-81.494,-36.893],[-80.88,-36.799],[-80.268,-36.703],[-79.657,-36.603],[-79.048,-36.5],[-78.44,-36.394],[-77.835,-36.285],[-77.231,-36.173],[-76.628,-36.058],[-76.028,-35.94],[-75.429,-35.819],[-74.832,-35.694],[-74.237,-35.567],[-73.644,-35.438],[-73.053,-35.305],[-72.464,-35.169],[-71.877,-35.031],[-71.292,-34.889],[-71.46,-34.415],[-71.627,-33.94],[-71.792,-33.466],[-71.955,-32.991],[-72.116,-32.515],[-72.276,-32.04],[-72.434,-31.564],[-72.59,-31.089],[-72.745,-30.613],[-72.899,-30.137],[-73.05,-29.66],[-73.201,-29.184],[-72.655,-29.072],[-72.11,-28.959],[-71.567,-28.843],[-71.025,-28.725],[-70.484,-28.605],[-69.944,-28.483],[-69.406,-28.359],[-68.868,-28.233],[-68.332,-28.104],[-67.798,-27.974],[-67.264,-27.841],[-66.732,-27.706],[-66.202,-27.57]]}},{"type":"Feature","properties":{"boundary_type":"ridge","feature_type":"gpml:MidOceanRidge","polarity":null,"overriding_plate_id":null,"subducting_plate_id":null,"plate_ids":[9804,98041],"name":"Mirovoi MOR"},"geometry":{"type":"LineString","coordinates":[[169.055,-65.105],[170.167,-64.976],[171.269,-64.839],[172.359,-64.693],[173.437,-64.54],[174.503,-64.379],[175.556,-64.21],[176.596,-64.033],[177.622,-63.85],[178.636,-63.659],[179.635,-63.461],[-179.38,-63.256],[-178.409,-63.045],[-177.452,-62.827],[-176.509,-62.602],[-175.581,-62.372],[-174.666,-62.135],[-173.767,-61.892],[-172.881,-61.644],[-172.01,-61.39],[-171.153,-61.13],[-170.311,-60.865],[-169.482,-60.595],[-168.667,-60.32],[-167.866,-60.04],[-167.078,-59.755],[-166.304,-59.466],[-165.543,-59.172],[-164.795,-58.874],[-164.06,-58.571],[-163.338,-58.265],[-162.628,-57.954],[-161.931,-57.64],[-161.245,-57.321],[-160.571,-56.999],[-159.909,-56.674],[-159.259,-56.345],[-158.619,-56.012],[-158.082,-56.355],[-157.536,-56.695],[-156.979,-57.032],[-156.413,-57.367],[-155.836,-57.699],[-155.248,-58.029],[-154.65,-58.356],[-154.04,-58.68],[-153.419,-59.001],[-152.786,-59.319],[-152.143,-58.972],[-151.513,-58.622],[-150.896,-58.269],[-150.291,-57.912],[-149.697,-57.553],[-149.116,-57.192],[-148.545,-56.827],[-147.986,-56.46],[-147.438,-56.091],[-146.9,-55.719],[-146.372,-55.345],[-145.854,-54.969],[-145.345,-54.59],[-144.846,-54.21],[-144.357,-53.827],[-143.876,-53.442],[-143.403,-53.056],[-142.94,-52.668],[-142.484,-52.278],[-142.036,-51.886],[-141.596,-51.492],[-140.944,-51.762],[-140.285,-52.027],[-139.617,-52.289],[-138.942,-52.547],[-138.258,-52.801],[-137.567,-53.051],[-136.867,-53.298],[-136.16,-53.54],[-135.445,-53.777],[-134.721,-54.011],[-133.989,-54.24],[-133.539,-53.837],[-133.098,-53.433],[-132.664,-53.027],[-132.239,-52.62],[-131.822,-52.211],[-131.412,-51.8],[-131.01,-51.389],[-130.615,-50.975],[-130.227,-50.561],[-129.845,-50.145],[-129.47,-49.728],[-129.102,-49.31],[-128.74,-48.891],[-128.384,-48.47],[-128.034,-48.049],[-127.689,-47.626],[-127.35,-47.203],[-127.016,-46.778],[-126.688,-46.353],[-126.364,-45.926],[-126.046,-45.499],[-125.732,-45.071]]}},{"type":"Feature","properties":{"boundary_type":"ridge","feature_type":"gpml:MidOceanRidge","polarity":null,"overriding_plate_id":null,"subducting_plate_id":null,"plate_ids":[580,9804],"name":"Mirovoi MOR"},"geometry":{"type":"LineString","coordinates":[[-125.732,-45.071],[-125.426,-44.645],[-125.124,-44.218],[-124.826,-43.791],[-124.532,-43.363],[-124.243,-42.934],[-123.957,-42.504],[-123.676,-42.074],[-123.398,-41.643],[-123.124,-41.211],[-122.853,-40.779],[-122.586,-40.346],[-122.323,-39.912]]}},{"type":"Feature","properties":{"boundary_type":"ridge","feature_type":"gpml:MidOceanRidge","polarity":null,"overriding_plate_id":null,"subducting_plate_id":null,"plate_ids":[101,5032],"name":"Australia-Azania MOR"},"geometry":{"type":"LineString","coordinates":[[78.812,4.347],[78.376,4.593],[77.94,4.838],[77.503,5.083],[77.066,5.328],[76.629,5.572],[76.192,5.817],[75.754,6.06],[75.315,6.304],[74.877,6.547],[74.438,6.79],[74.317,6.49],[74.197,6.19],[73.778,6.446],[73.358,6.701],[72.937,6.956],[72.517,7.211],[72.095,7.465],[71.673,7.719],[71.251,7.972],[70.828,8.225],[70.405,8.477],[69.981,8.729],[69.556,8.981],[69.131,9.232],[68.706,9.483],[68.279,9.733],[67.852,9.982],[67.425,10.231]]}},{"type":"Feature","properties":{"boundary_type":"ridge","feature_type":"gpml:MidOceanRidge","polarity":null,"overriding_plate_id":null,"subducting_plate_id":null,"plate_ids":[801,5032],"name":"Australia-Azania MOR"},"geometry":{"type":"LineString","coordinates":[[67.425,10.231],[66.989,10.484],[66.553,10.736],[66.117,10.987],[65.679,11.238],[65.451,10.887],[65.224,10.537],[64.998,10.186],[64.771,9.835],[64.546,9.484],[64.13,9.738],[63.714,9.992],[63.298,10.245],[62.88,10.497],[62.462,10.749],[62.044,11.0],[61.624,11.251],[61.204,11.501],[60.783,11.751],[60.361,12.0],[59.939,12.248],[59.516,12.496],[59.276,12.113],[59.037,11.73],[58.798,11.347],[58.561,10.964],[58.131,11.198],[57.701,11.432],[57.27,11.665],[56.839,11.897],[56.407,12.128],[55.974,12.359],[55.54,12.589],[55.106,12.819],[54.67,13.048],[54.234,13.276],[53.797,13.503],[53.36,13.729],[52.921,13.955],[52.482,14.18],[52.25,13.836],[52.019,13.491],[51.588,13.752],[51.156,14.012],[50.722,14.271],[50.288,14.529],[49.852,14.787],[49.416,15.044],[48.978,15.3],[48.54,15.555],[48.1,15.809],[47.659,16.062],[47.217,16.315],[46.774,16.566],[46.33,16.817],[45.884,17.066],[45.438,17.315],[44.99,17.563],[44.589,17.281],[44.19,16.999],[43.764,17.256],[43.337,17.512],[42.909,17.767],[42.48,18.021],[42.05,18.274],[41.618,18.527],[41.185,18.778],[40.75,19.028],[40.315,19.278],[39.878,19.526],[39.439,19.773],[39.0,20.019]]}},{"type":"Feature","properties":{"boundary_type":"ridge","feature_type":"gpml:MidOceanRidge","polarity":null,"overriding_plate_id":null,"subducting_plate_id":null,"plate_ids":[715,801],"name":"Afif-Australia MOR"},"geometry":{"type":"LineString","coordinates":[[41.905,23.314],[41.519,23.662],[41.13,24.01],[40.739,24.356],[40.346,24.701],[39.951,25.045],[39.554,25.388],[39.154,25.73],[38.752,26.071],[38.348,26.411],[37.942,26.75],[37.533,27.087],[37.121,27.424],[36.707,27.759],[36.291,28.093],[35.871,28.425],[35.45,28.757],[35.025,29.087],[34.671,28.734],[34.319,28.38],[33.969,28.026],[33.622,27.67],[33.277,27.314],[32.861,27.612],[32.442,27.908],[32.022,28.203],[31.598,28.496],[31.173,28.788],[30.745,29.079],[30.315,29.369],[29.882,29.657],[29.447,29.944],[29.009,30.229],[28.569,30.513],[28.126,30.795],[27.681,31.076],[27.232,31.355],[26.782,31.633],[26.328,31.909],[25.872,32.184],[25.594,31.872],[25.317,31.56],[25.043,31.248],[24.77,30.934],[24.296,31.183],[23.82,31.43],[23.342,31.675],[22.861,31.919],[22.377,32.16],[21.891,32.4],[21.402,32.638],[20.911,32.874],[20.417,33.107],[19.92,33.34],[19.421,33.57],[18.919,33.798],[18.414,34.024],[17.907,34.247],[17.397,34.469],[16.885,34.689],[16.369,34.906],[16.124,34.633],[15.879,34.36],[15.637,34.086],[15.089,34.287],[14.539,34.486],[13.986,34.683],[13.431,34.877],[12.873,35.069],[12.312,35.258],[11.749,35.444],[11.183,35.628],[10.614,35.809],[10.043,35.987],[9.469,36.163],[8.893,36.336],[8.314,36.506],[7.733,36.674],[7.149,36.838],[6.563,37.0],[5.974,37.159],[5.383,37.315],[4.79,37.468],[4.194,37.618],[4.088,37.291],[3.983,36.964],[3.879,36.636],[3.283,36.775],[2.686,36.911],[2.086,37.044],[1.485,37.173],[0.881,37.3],[0.275,37.423],[-0.332,37.544],[-0.942,37.661],[-1.554,37.775],[-2.167,37.886],[-2.782,37.994],[-3.399,38.099],[-4.018,38.2],[-4.638,38.298],[-5.26,38.393],[-5.884,38.484],[-6.509,38.573],[-7.136,38.657],[-7.764,38.739]]}},{"type":"Feature","properties":{"boundary_type":"ridge","feature_type":"gpml:MidOceanRidge","polarity":null,"overriding_plate_id":null,"subducting_plate_id":null,"plate_ids":[580,98041],"name":"Mirovoi MOR"},"geometry":{"type":"LineString","coordinates":[[-125.732,-45.071],[-126.063,-44.636],[-126.389,-44.201],[-126.709,-43.764],[-127.026,-43.327],[-127.337,-42.889],[-127.645,-42.45],[-127.948,-42.01],[-128.246,-41.57],[-128.541,-41.128],[-128.832,-40.686],[-129.119,-40.243],[-129.402,-39.8],[-129.682,-39.356],[-129.958,-38.911],[-130.231,-38.465],[-130.5,-38.019],[-130.766,-37.573],[-131.029,-37.125],[-131.289,-36.677],[-131.546,-36.229],[-131.799,-35.78],[-132.05,-35.331],[-132.299,-34.881],[-132.544,-34.43],[-132.787,-33.979],[-133.027,-33.528],[-133.265,-33.076],[-133.501,-32.623],[-133.734,-32.17],[-133.964,-31.717],[-134.193,-31.264],[-134.419,-30.809],[-134.643,-30.355],[-134.865,-29.9],[-135.085,-29.445],[-135.303,-28.99],[-135.519,-28.534],[-135.734,-28.077],[-135.946,-27.621],[-136.157,-27.164],[-136.366,-26.707],[-136.573,-26.249],[-136.779,-25.791],[-136.983,-25.333],[-137.186,-24.875],[-137.387,-24.416],[-137.587,-23.958],[-137.785,-23.498],[-137.982,-23.039],[-138.177,-22.579],[-138.54,-22.805],[-138.904,-23.031],[-139.269,-23.255],[-139.444,-22.788],[-139.619,-22.321],[-139.792,-21.853],[-139.964,-21.386],[-140.135,-20.918],[-140.305,-20.45],[-140.474,-19.981],[-140.641,-19.513],[-140.808,-19.045],[-140.974,-18.576],[-141.139,-18.107],[-141.303,-17.638],[-141.467,-17.169],[-141.629,-16.7],[-141.791,-16.231],[-141.952,-15.761],[-142.112,-15.292],[-142.272,-14.822],[-142.43,-14.352],[-142.588,-13.883],[-142.746,-13.413],[-142.903,-12.942],[-143.059,-12.472],[-143.215,-12.002],[-143.37,-11.532],[-143.525,-11.061],[-143.679,-10.591],[-143.832,-10.12],[-143.986,-9.65],[-144.138,-9.179],[-143.688,-9.006],[-143.238,-8.832],[-142.788,-8.658],[-142.339,-8.484],[-141.89,-8.309],[-142.046,-7.847],[-142.202,-7.384],[-142.357,-6.922],[-142.513,-6.459],[-142.667,-5.997],[-142.822,-5.534],[-142.976,-5.072],[-143.13,-4.609],[-143.284,-4.147],[-143.438,-3.684],[-143.591,-3.221],[-143.745,-2.759],[-143.898,-2.296],[-144.051,-1.833],[-144.204,-1.37],[-144.357,-0.908],[-144.51,-0.445],[-144.663,0.018],[-144.816,0.481],[-144.969,0.943],[-145.122,1.406],[-145.275,1.869],[-145.429,2.332],[-145.582,2.794],[-145.735,3.257],[-145.889,3.72],[-146.042,4.182],[-146.196,4.645],[-146.35,5.108],[-146.505,5.57],[-146.659,6.033],[-146.814,6.495],[-146.969,6.958],[-146.499,7.028],[-146.03,7.098],[-145.56,7.168],[-145.089,7.238],[-144.619,7.306],[-144.149,7.375],[-144.31,7.834],[-144.471,8.294],[-144.633,8.753],[-144.796,9.213],[-144.958,9.672],[-145.122,10.132],[-145.285,10.591],[-145.449,11.05],[-145.614,11.509],[-145.779,11.968],[-145.945,12.427],[-146.111,12.885],[-146.278,13.344],[-146.446,13.803],[-146.614,14.261],[-146.783,14.719],[-146.953,15.177],[-147.123,15.636],[-147.294,16.093],[-147.466,16.551],[-147.639,17.009],[-147.813,17.466],[-147.987,17.924],[-148.163,18.381],[-148.339,18.838],[-148.516,19.295],[-148.695,19.751],[-148.874,20.208],[-149.054,20.664],[-149.236,21.12],[-149.418,21.576],[-149.602,22.032],[-149.787,22.488],[-149.973,22.943],[-150.161,23.398],[-150.349,23.853],[-150.539,24.308]]}},{"type":"Feature","properties":{"boundary_type":"ridge","feature_type":"gpml:MidOceanRidge","polarity":null,"overriding_plate_id":null,"subducting_plate_id":null,"plate_ids":[505,9804],"name":"Lut-Mirovoi mid-ocean ridge"},"geometry":{"type":"LineString","coordinates":[[-54.992,-5.912],[-55.283,-6.264],[-55.574,-6.617],[-55.865,-6.97],[-56.157,-7.322],[-56.45,-7.674],[-56.743,-8.026],[-56.394,-8.361],[-56.044,-8.694],[-55.694,-9.028],[-55.343,-9.361],[-54.992,-9.694],[-54.639,-10.026],[-54.286,-10.358],[-53.933,-10.69],[-53.578,-11.021],[-53.93,-11.381],[-54.283,-11.74],[-54.636,-12.099],[-54.991,-12.457],[-55.347,-12.814],[-55.703,-13.172],[-56.061,-13.528],[-56.419,-13.884],[-56.779,-14.24],[-57.14,-14.595],[-57.502,-14.95],[-57.866,-15.304],[-58.23,-15.657],[-58.596,-16.01],[-58.963,-16.362],[-59.331,-16.714],[-59.701,-17.065],[-60.072,-17.415],[-60.445,-17.764],[-60.819,-18.113],[-61.194,-18.461],[-61.571,-18.809],[-61.95,-19.155],[-62.33,-19.501],[-62.712,-19.846],[-63.096,-20.19],[-63.481,-20.534],[-63.868,-20.876],[-64.256,-21.218],[-64.647,-21.559],[-65.039,-21.898],[-65.433,-22.237],[-65.829,-22.575],[-66.227,-22.912],[-66.627,-23.248],[-67.029,-23.583],[-67.434,-23.917],[-67.84,-24.25],[-68.248,-24.582]]}},{"type":"Feature","properties":{"boundary_type":"transform","feature_type":"gpml:Transform","polarity":null,"overriding_plate_id":null,"subducting_plate_id":null,"plate_ids":[715,801],"name":"Afif-Azania transform"},"geometry":{"type":"LineString","coordinates":[[41.905,23.314],[41.486,23.015],[41.17,22.642],[40.855,22.269],[40.542,21.896],[40.23,21.521],[39.92,21.147],[39.612,20.771],[39.305,20.395],[39.0,20.019]]}},{"type":"Feature","properties":{"boundary_type":"transform","feature_type":"gpml:Transform","polarity":null,"overriding_plate_id":null,"subducting_plate_id":null,"plate_ids":[715,5032],"name":"Afif-Azania transform"},"geometry":{"type":"LineString","coordinates":[[39.0,20.019],[38.767,19.731],[38.536,19.443],[38.306,19.155],[38.037,18.745],[37.77,18.335],[37.504,17.925],[37.239,17.514],[36.976,17.103],[36.713,16.691],[36.527,16.256],[36.342,15.821],[36.158,15.385],[35.974,14.949],[35.791,14.513],[35.609,14.077],[35.427,13.64],[35.247,13.204],[35.066,12.767],[34.887,12.331],[34.708,11.894],[34.529,11.457],[34.352,11.02],[34.259,10.581],[34.167,10.143],[34.075,9.704],[33.984,9.266],[33.892,8.827],[33.801,8.388],[33.71,7.95],[33.62,7.511],[33.529,7.072],[33.473,6.595],[33.418,6.117],[33.362,5.639],[33.307,5.161],[33.251,4.683],[33.196,4.205],[33.141,3.727],[33.086,3.25],[33.031,2.772],[32.976,2.294],[32.921,1.816],[32.866,1.338],[32.859,0.839],[32.852,0.34],[32.846,-0.159],[32.839,-0.659],[32.832,-1.158],[32.826,-1.657],[32.819,-2.156],[32.812,-2.656],[32.806,-3.155],[32.799,-3.654],[32.792,-4.153],[32.786,-4.652],[32.779,-5.152],[32.772,-5.651],[32.765,-6.15],[32.759,-6.649],[32.752,-7.148]]}},{"type":"Feature","properties":{"boundary_type":"transform","feature_type":"gpml:Transform","polarity":null,"overriding_plate_id":null,"subducting_plate_id":null,"plate_ids":[101,701],"name":"Rodinia-Congo transform"},"geometry":{"type":"LineString","coordinates":[[71.949,-16.183],[71.768,-16.644],[71.586,-17.105],[71.403,-17.566],[71.219,-18.026],[71.035,-18.487],[70.849,-18.947],[70.662,-19.407],[70.474,-19.867],[70.285,-20.327],[70.095,-20.786],[69.904,-21.246],[69.711,-21.705],[69.518,-22.164],[69.323,-22.622],[69.138,-23.088],[68.951,-23.553],[68.764,-24.018],[68.575,-24.482],[68.384,-24.947],[68.192,-25.411],[68.042,-25.842],[67.891,-26.273],[67.738,-26.705],[67.585,-27.136],[67.43,-27.566],[67.274,-27.997],[67.117,-28.427],[67.154,-28.922],[67.191,-29.416],[67.229,-29.91],[67.268,-30.405],[67.306,-30.899],[67.345,-31.393],[67.385,-31.888],[67.425,-32.382],[67.465,-32.876],[67.506,-33.37],[67.547,-33.864],[67.589,-34.359],[67.631,-34.853],[67.674,-35.347],[67.717,-35.841],[67.761,-36.335],[67.805,-36.829],[67.85,-37.324],[67.896,-37.818],[67.942,-38.312],[67.989,-38.806],[68.036,-39.3],[68.084,-39.794],[68.133,-40.288],[68.183,-40.782],[68.233,-41.276],[68.284,-41.77],[68.336,-42.264],[68.389,-42.758],[68.442,-43.251],[68.497,-43.745],[68.552,-44.239],[68.608,-44.733],[68.665,-45.227],[68.723,-45.72],[68.783,-46.214],[68.843,-46.708],[68.904,-47.201]]}},{"type":"Feature","properties":{"boundary_type":"transform","feature_type":"gpml:Transform","polarity":null,"overriding_plate_id":null,"subducting_plate_id":null,"plate_ids":[101,5032],"name":"Azania-Rodinia transform"},"geometry":{"type":"LineString","coordinates":[[78.812,4.347],[78.569,3.978],[78.327,3.608],[78.085,3.238],[77.844,2.868],[77.602,2.498],[77.361,2.128],[77.133,1.689],[76.905,1.25],[76.677,0.811],[76.45,0.371],[76.222,-0.068],[75.994,-0.507],[75.767,-0.946],[75.539,-1.385],[75.311,-1.824],[75.083,-2.263],[74.855,-2.702],[74.627,-3.141],[74.472,-3.597],[74.317,-4.052],[74.162,-4.507],[74.007,-4.963],[73.852,-5.418],[73.696,-5.873],[73.54,-6.328],[73.384,-6.783],[73.228,-7.239],[73.071,-7.694],[72.914,-8.149],[72.756,-8.603],[72.598,-9.058],[72.44,-9.513],[72.282,-9.968],[72.122,-10.422],[71.963,-10.877],[71.803,-11.332],[71.642,-11.786],[71.481,-12.24],[71.319,-12.694],[71.157,-13.149],[70.994,-13.603],[70.831,-14.056],[70.667,-14.51],[70.536,-14.872],[70.405,-15.235],[70.273,-15.597],[70.141,-15.959]]}},{"type":"Feature","properties":{"boundary_type":"transform","feature_type":"gpml:Transform","polarity":null,"overriding_plate_id":null,"subducting_plate_id":null,"plate_ids":[101,801],"name":"Australia-Laurentia transform"},"geometry":{"type":"LineString","coordinates":[[160.813,17.225],[160.364,17.48],[159.915,17.734],[159.464,17.987],[159.012,18.239],[158.558,18.49],[158.103,18.74],[157.647,18.988],[157.19,19.236],[156.731,19.482],[156.271,19.727],[155.809,19.972],[155.346,20.214],[154.881,20.456],[154.415,20.696],[153.922,20.873],[153.428,21.047],[152.932,21.221],[152.435,21.392],[151.938,21.563],[151.439,21.732],[150.938,21.899],[150.437,22.065],[149.934,22.229],[149.431,22.392],[148.926,22.553],[148.42,22.713],[147.913,22.871],[147.404,23.027],[146.895,23.182],[146.384,23.335],[145.892,23.521],[145.399,23.706],[144.905,23.889],[144.409,24.07],[143.912,24.25],[143.413,24.428],[142.913,24.604],[142.412,24.779],[141.909,24.952],[141.405,25.124],[140.899,25.294],[140.392,25.462],[139.884,25.628],[139.374,25.792],[138.863,25.955],[138.35,26.116],[137.836,26.275],[137.32,26.433],[136.804,26.588],[136.285,26.742],[135.747,26.874],[135.207,27.003],[134.666,27.131],[134.124,27.257],[133.581,27.381]]}},{"type":"Feature","properties":{"boundary_type":"transform","feature_type":"gpml:Transform","polarity":null,"overriding_plate_id":null,"subducting_plate_id":null,"plate_ids":[101,98041],"name":"Transform connecting Valhalla with proto-Avalonia"},"geometry":{"type":"LineString","coordinates":[[153.43,-16.106],[153.797,-16.416],[154.166,-16.725],[154.535,-17.034],[154.906,-17.342],[155.278,-17.65],[155.651,-17.956],[156.026,-18.262],[156.401,-18.567],[156.779,-18.872],[157.157,-19.176],[157.537,-19.479],[157.918,-19.781],[158.301,-20.082],[158.721,-20.38],[159.142,-20.676],[159.565,-20.972],[159.99,-21.266],[160.416,-21.559],[160.844,-21.852],[161.274,-22.143],[161.705,-22.433],[162.139,-22.722],[162.574,-23.01],[163.011,-23.296],[163.45,-23.582],[163.89,-23.866],[164.333,-24.149]]}},{"type":"Feature","properties":{"boundary_type":"transform","feature_type":"gpml:Transform","polarity":null,"overriding_plate_id":null,"subducting_plate_id":null,"plate_ids":[501,505],"name":"Transform closing Indian plate"},"geometry":{"type":"LineString","coordinates":[[-52.831,29.158],[-52.936,28.684],[-53.04,28.21],[-53.143,27.736],[-53.245,27.262],[-53.346,26.788],[-53.446,26.313],[-53.546,25.839],[-53.645,25.365],[-53.743,24.89],[-53.84,24.415],[-53.936,23.941],[-54.032,23.466],[-54.127,22.991],[-54.222,22.517],[-54.316,22.042],[-54.409,21.567],[-54.502,21.092],[-54.594,20.617],[-54.685,20.142],[-54.807,19.665],[-54.927,19.189],[-55.047,18.712],[-55.167,18.236],[-55.286,17.759],[-55.404,17.282],[-55.521,16.805],[-55.638,16.328],[-55.755,15.851],[-55.871,15.374],[-55.986,14.897],[-56.101,14.42],[-56.215,13.943],[-56.329,13.466],[-56.442,12.988],[-56.555,12.511],[-56.668,12.034],[-56.78,11.556],[-56.892,11.079],[-57.003,10.601],[-57.114,10.123],[-57.225,9.646],[-57.335,9.168],[-57.445,8.69],[-57.555,8.213],[-57.665,7.735],[-57.774,7.257],[-57.883,6.779],[-57.992,6.302]]}},{"type":"Feature","properties":{"boundary_type":"transform","feature_type":"gpml:Transform","polarity":null,"overriding_plate_id":null,"subducting_plate_id":null,"plate_ids":[701,715],"name":"Transform offset SF-Congo"},"geometry":{"type":"LineString","coordinates":[[37.361,-48.393],[36.699,-48.263],[36.04,-48.128],[35.385,-47.99],[34.733,-47.849],[34.085,-47.703],[33.44,-47.554],[32.799,-47.402],[32.095,-47.277],[31.395,-47.148],[30.698,-47.015],[30.004,-46.877],[29.314,-46.736],[28.628,-46.59],[27.945,-46.44],[27.266,-46.287],[26.591,-46.129],[25.92,-45.967],[25.253,-45.801],[24.59,-45.632],[23.931,-45.458],[23.276,-45.281],[22.625,-45.101],[21.978,-44.916],[21.336,-44.728],[20.697,-44.536],[20.063,-44.341],[19.433,-44.142]]}},{"type":"Feature","properties":{"boundary_type":"transform","feature_type":"gpml:Transform","polarity":null,"overriding_plate_id":null,"subducting_plate_id":null,"plate_ids":[101,98041],"name":"Siberia transform"},"geometry":{"type":"LineString","coordinates":[[-167.461,-19.309],[-167.938,-19.119],[-168.414,-18.927],[-168.889,-18.735],[-169.363,-18.541],[-169.836,-18.346],[-170.307,-18.15],[-170.778,-17.953],[-171.247,-17.754],[-171.716,-17.555],[-172.183,-17.354],[-172.65,-17.153],[-173.115,-16.95],[-173.579,-16.746],[-174.043,-16.541],[-174.505,-16.335],[-174.967,-16.129],[-175.427,-15.921],[-175.887,-15.712],[-176.345,-15.502],[-176.803,-15.291],[-177.26,-15.08],[-177.715,-14.867],[-178.17,-14.654],[-178.624,-14.439],[-179.077,-14.224],[-179.53,-14.008],[-179.981,-13.791],[179.568,-13.573],[179.118,-13.355],[178.669,-13.136],[178.221,-12.915],[177.774,-12.695],[177.327,-12.473],[176.882,-12.251],[176.437,-12.028],[175.992,-11.804],[175.549,-11.579],[175.106,-11.354],[174.664,-11.128],[174.222,-10.902],[173.781,-10.675],[173.341,-10.447],[172.902,-10.219],[172.463,-9.99],[172.022,-9.757],[171.582,-9.523],[171.142,-9.289],[170.703,-9.055],[170.265,-8.819],[169.827,-8.584],[169.39,-8.347],[168.953,-8.111],[168.517,-7.874],[168.081,-7.636],[167.646,-7.398],[167.211,-7.159],[166.776,-6.921],[166.343,-6.681],[165.909,-6.442],[165.476,-6.202],[165.043,-5.961],[164.611,-5.721],[164.179,-5.479],[163.748,-5.238],[163.316,-4.997],[162.885,-4.755]]}},{"type":"Feature","properties":{"boundary_type":"transform","feature_type":"gpml:Transform","polarity":null,"overriding_plate_id":null,"subducting_plate_id":null,"plate_ids":[505,580],"name":"Transform connecting EKL subduction with NTS"},"geometry":{"type":"LineString","coordinates":[[-93.255,6.746],[-92.936,7.089],[-92.617,7.432],[-92.298,7.775],[-91.978,8.118],[-91.657,8.46],[-91.336,8.803]]}},{"type":"Feature","properties":{"boundary_type":"transform","feature_type":"gpml:Transform","polarity":null,"overriding_plate_id":null,"subducting_plate_id":null,"plate_ids":[456,580],"name":"Transform connecting EKL subduction with Q-Q"},"geometry":{"type":"LineString","coordinates":[[-100.26,32.148],[-99.833,32.391],[-99.405,32.632],[-98.974,32.872]]}},{"type":"Feature","properties":{"boundary_type":"transform","feature_type":"gpml:Transform","polarity":null,"overriding_plate_id":null,"subducting_plate_id":null,"plate_ids":[456,505],"name":"Transform connecting EKL subduction with Q-Q"},"geometry":{"type":"LineString","coordinates":[[-98.974,32.872],[-98.485,33.14],[-97.993,33.406],[-97.499,33.671],[-97.001,33.933],[-96.5,34.193],[-95.996,34.452],[-95.489,34.708],[-94.979,34.962],[-94.466,35.214],[-93.949,35.464],[-93.43,35.712],[-92.907,35.957],[-92.381,36.2],[-91.851,36.441],[-91.318,36.68],[-90.783,36.916],[-90.243,37.149],[-89.763,37.434],[-89.279,37.717],[-88.792,37.997],[-88.301,38.276],[-87.806,38.553],[-87.307,38.827],[-86.804,39.099],[-86.298,39.37],[-85.787,39.638],[-85.273,39.903],[-84.754,40.167],[-84.232,40.428],[-83.706,40.687],[-83.175,40.943],[-82.64,41.197],[-82.101,41.448],[-81.559,41.697],[-81.011,41.943],[-80.46,42.187]]}},{"type":"Feature","properties":{"boundary_type":"transform","feature_type":"gpml:Transform","polarity":null,"overriding_plate_id":null,"subducting_plate_id":null,"plate_ids":[505,6024],"name":"Transform connecting EKL subduction with Q-Q"},"geometry":{"type":"LineString","coordinates":[[-80.46,42.187],[-79.881,42.438],[-79.298,42.686],[-78.71,42.931],[-78.117,43.173],[-77.52,43.412],[-76.918,43.647],[-76.312,43.88],[-75.7,44.109],[-75.084,44.335],[-74.463,44.558],[-73.838,44.777],[-73.209,44.969],[-72.575,45.157],[-71.938,45.342],[-71.296,45.523],[-70.651,45.7],[-70.001,45.874],[-69.347,46.044],[-68.69,46.211],[-68.028,46.373],[-67.363,46.532],[-66.693,46.687],[-66.02,46.838]]}},{"type":"Feature","properties":{"boundary_type":"transform","feature_type":"gpml:Transform","polarity":null,"overriding_plate_id":null,"subducting_plate_id":null,"plate_ids":[715,9804],"name":"Transform closing Mirovoi outboard of SM and Iskel"},"geometry":{"type":"LineString","coordinates":[[-19.933,11.495],[-20.048,11.019],[-20.164,10.542],[-20.279,10.065],[-20.394,9.588],[-20.509,9.111],[-20.623,8.634],[-20.737,8.157],[-20.85,7.68],[-20.964,7.202],[-21.077,6.725],[-21.19,6.248],[-21.303,5.771],[-21.415,5.294],[-21.527,4.817],[-21.64,4.339],[-21.752,3.862],[-21.864,3.385],[-21.975,2.907],[-22.087,2.43],[-22.199,1.953],[-22.31,1.475],[-22.457,1.022],[-22.603,0.568],[-22.75,0.114],[-22.896,-0.34],[-23.042,-0.793],[-23.189,-1.247],[-23.335,-1.701],[-23.482,-2.154],[-23.629,-2.608],[-23.775,-3.062],[-23.922,-3.515],[-24.069,-3.969],[-24.216,-4.423],[-24.364,-4.876],[-24.511,-5.33],[-24.595,-5.789],[-24.679,-6.248],[-24.764,-6.708],[-24.848,-7.167],[-24.933,-7.626],[-25.018,-8.085],[-25.103,-8.545],[-25.188,-9.004],[-25.273,-9.463],[-25.359,-9.922],[-25.445,-10.381],[-25.531,-10.841],[-25.617,-11.3],[-25.75,-11.677],[-25.883,-12.054],[-26.017,-12.431],[-26.151,-12.808]]}},{"type":"Feature","properties":{"boundary_type":"transform","feature_type":"gpml:Transform","polarity":null,"overriding_plate_id":null,"subducting_plate_id":null,"plate_ids":[501,715],"name":"Transform closing Indian plate"},"geometry":{"type":"LineString","coordinates":[[-10.873,26.639],[-11.039,26.175],[-11.203,25.71],[-11.366,25.246],[-11.528,24.781],[-11.689,24.317],[-11.849,23.852],[-12.007,23.387],[-12.166,22.973],[-12.324,22.558],[-12.48,22.144],[-12.636,21.729],[-12.791,21.314],[-12.945,20.899],[-13.098,20.484],[-13.25,20.034],[-13.402,19.584],[-13.552,19.133],[-13.702,18.683],[-13.851,18.233],[-13.999,17.782],[-14.147,17.331],[-14.294,16.88],[-14.44,16.429],[-14.585,15.978],[-14.73,15.527],[-14.874,15.076],[-15.018,14.624],[-15.16,14.173],[-15.301,13.779],[-15.442,13.384],[-15.582,12.99]]}},{"type":"Feature","properties":{"boundary_type":"transform","feature_type":"gpml:Transform","polarity":null,"overriding_plate_id":null,"subducting_plate_id":null,"plate_ids":[101],"name":"Araguai transform"},"geometry":{"type":"LineString","coordinates":[[68.363,-61.738],[68.285,-61.404]]}},{"type":"Feature","properties":{"boundary_type":"transform","feature_type":"gpml:Transform","polarity":null,"overriding_plate_id":null,"subducting_plate_id":null,"plate_ids":[101,715],"name":"Araguai transform"},"geometry":{"type":"LineString","coordinates":[[68.285,-61.404],[68.174,-60.913],[68.066,-60.422],[67.962,-59.931],[67.86,-59.44],[67.761,-58.949],[67.666,-58.458],[67.572,-57.966],[67.482,-57.475],[67.393,-56.984],[67.307,-56.492],[67.223,-56.001],[67.142,-55.509],[67.062,-55.018],[66.984,-54.526],[66.908,-54.034],[66.834,-53.542],[66.762,-53.051],[66.691,-52.559],[66.622,-52.067],[66.554,-51.575],[66.488,-51.083],[66.423,-50.591],[66.359,-50.099],[66.297,-49.607],[66.236,-49.115],[66.176,-48.623],[66.118,-48.131],[66.06,-47.638]]}},{"type":"Feature","properties":{"boundary_type":"transform","feature_type":"gpml:Transform","polarity":null,"overriding_plate_id":null,"subducting_plate_id":null,"plate_ids":[505,580],"name":"Transform closing Tarim plate"},"geometry":{"type":"LineString","coordinates":[[-83.442,-5.343],[-83.005,-5.553],[-82.567,-5.763],[-82.129,-5.972],[-81.69,-6.181],[-81.251,-6.39],[-80.812,-6.599],[-80.486,-6.879],[-80.159,-7.159],[-79.833,-7.439],[-79.505,-7.719],[-79.178,-7.998],[-78.85,-8.277],[-78.553,-8.649],[-78.256,-9.021],[-77.958,-9.392],[-77.66,-9.764],[-77.361,-10.135],[-77.061,-10.505],[-76.761,-10.876],[-76.46,-11.246],[-76.217,-11.668],[-75.972,-12.091],[-75.728,-12.513],[-75.482,-12.934],[-75.236,-13.356],[-74.988,-13.777],[-74.74,-14.198],[-74.491,-14.619],[-74.241,-15.04],[-73.99,-15.46],[-73.738,-15.88],[-73.485,-16.3],[-73.23,-16.719],[-72.975,-17.138],[-72.718,-17.557],[-72.461,-17.975],[-72.202,-18.394],[-71.942,-18.811],[-71.68,-19.229],[-71.417,-19.646],[-71.153,-20.062],[-70.888,-20.479],[-70.621,-20.894],[-70.363,-21.306],[-70.104,-21.717],[-69.844,-22.127],[-69.582,-22.537],[-69.318,-22.947],[-69.053,-23.357],[-68.787,-23.765],[-68.518,-24.174],[-68.248,-24.582]]}},{"type":"Feature","properties":{"boundary_type":"transform","feature_type":"gpml:Transform","polarity":null,"overriding_plate_id":null,"subducting_plate_id":null,"plate_ids":[580,9804],"name":"Transform closing Tarim plate"},"geometry":{"type":"LineString","coordinates":[[-68.248,-24.582],[-67.998,-24.957],[-67.746,-25.331],[-67.493,-25.706],[-67.238,-26.079],[-66.981,-26.453],[-66.723,-26.825],[-66.463,-27.198],[-66.202,-27.57]]}},{"type":"Feature","properties":{"boundary_type":"transform","feature_type":"gpml:Transform","polarity":null,"overriding_plate_id":null,"subducting_plate_id":null,"plate_ids":[101,801],"name":"Laurentia-AusAnt transform"},"geometry":{"type":"LineString","coordinates":[[67.425,10.231],[67.687,10.626],[67.951,11.021],[68.215,11.415],[68.48,11.809],[68.745,12.203],[69.012,12.597],[69.279,12.99],[69.547,13.383],[69.816,13.776],[70.086,14.169],[70.357,14.561],[70.628,14.953],[70.912,15.36],[71.197,15.767],[71.483,16.174],[71.77,16.58],[72.059,16.986],[72.348,17.392],[72.639,17.797],[72.932,18.201],[73.225,18.606],[73.521,19.009],[73.817,19.413],[74.164,19.787],[74.513,20.16],[74.863,20.532],[75.215,20.904],[75.569,21.275],[75.924,21.645],[76.282,22.015],[76.641,22.383],[77.002,22.751],[77.365,23.118],[77.73,23.485],[78.097,23.85],[78.466,24.215],[78.838,24.578],[79.211,24.941],[79.587,25.303],[79.965,25.664],[80.345,26.024],[80.727,26.383],[81.112,26.74],[81.5,27.097],[81.889,27.453],[82.282,27.808],[82.774,28.003],[83.268,28.196],[83.763,28.387],[84.261,28.576],[84.76,28.764],[85.261,28.95],[85.764,29.134],[86.268,29.316],[86.774,29.496],[87.283,29.675],[87.793,29.851],[88.304,30.025],[88.818,30.198],[89.333,30.368],[89.85,30.536],[90.369,30.703],[90.89,30.867],[91.412,31.029],[91.937,31.189],[92.463,31.347],[92.97,31.564],[93.481,31.779],[93.993,31.993],[94.508,32.204],[95.026,32.413],[95.546,32.619],[96.068,32.824],[96.592,33.027],[97.119,33.227],[97.649,33.425],[98.18,33.621],[98.715,33.814],[99.251,34.006],[99.79,34.195],[100.332,34.381],[100.876,34.565],[101.422,34.747],[101.97,34.926],[102.521,35.103],[103.075,35.277],[103.631,35.449],[104.189,35.618],[104.777,35.738],[105.367,35.855],[105.958,35.969],[106.551,36.081],[107.146,36.189],[107.743,36.294],[108.341,36.397],[108.94,36.496],[109.542,36.593],[110.144,36.686],[110.748,36.776],[111.354,36.864],[111.961,36.948],[112.569,37.029],[113.164,36.946],[113.757,36.86],[114.349,36.771],[114.94,36.679],[115.529,36.585],[116.117,36.487],[116.703,36.387],[117.288,36.283],[117.871,36.177],[118.453,36.068],[119.033,35.956],[119.611,35.841],[120.188,35.724],[120.763,35.604],[121.336,35.481],[121.908,35.356],[122.477,35.227],[122.954,34.949],[123.428,34.668],[123.898,34.386],[124.365,34.102],[124.83,33.816],[125.291,33.528],[125.749,33.239],[126.203,32.948],[126.655,32.655],[127.104,32.361],[127.55,32.066],[127.994,31.768],[128.434,31.469],[128.871,31.169],[129.306,30.867],[129.738,30.564],[130.168,30.259],[130.594,29.953],[131.018,29.646],[131.391,29.325],[131.762,29.003],[132.13,28.681],[132.496,28.357],[132.86,28.033],[133.222,27.707],[133.581,27.381]]}},{"type":"Feature","properties":{"boundary_type":"transform","feature_type":"gpml:Transform","polarity":null,"overriding_plate_id":null,"subducting_plate_id":null,"plate_ids":[101,801],"name":"Siberia-North Qinling terrane transform"},"geometry":{"type":"LineString","coordinates":[[-167.834,24.955],[-168.033,25.417],[-168.234,25.879],[-168.437,26.34],[-168.641,26.802],[-168.847,27.262],[-169.054,27.723],[-169.264,28.183],[-169.475,28.643],[-169.688,29.102],[-169.902,29.562],[-170.119,30.021],[-170.338,30.479],[-170.559,30.937],[-170.782,31.395],[-171.007,31.852],[-171.235,32.309],[-171.465,32.766],[-171.697,33.222],[-171.931,33.678],[-172.168,34.133],[-172.408,34.588],[-172.65,35.042],[-172.895,35.496],[-173.143,35.949],[-173.394,36.402],[-173.647,36.854],[-173.904,37.306],[-174.163,37.757],[-174.451,38.177],[-174.742,38.597],[-175.036,39.015],[-175.333,39.433],[-175.635,39.85],[-175.94,40.267],[-176.249,40.682],[-176.561,41.097],[-176.878,41.511],[-177.198,41.924]]}},{"type":"Feature","properties":{"boundary_type":"transform","feature_type":"gpml:Transform","polarity":null,"overriding_plate_id":null,"subducting_plate_id":null,"plate_ids":[456,6024],"name":"SC Transform"},"geometry":{"type":"LineString","coordinates":[[-98.009,51.015],[-97.82,51.43],[-97.628,51.845],[-97.432,52.259],[-97.267,52.624],[-97.099,52.988],[-96.929,53.353]]}},{"type":"Feature","properties":{"boundary_type":"transform","feature_type":"gpml:Transform","polarity":null,"overriding_plate_id":null,"subducting_plate_id":null,"plate_ids":[505,9804],"name":"India transform"},"geometry":{"type":"LineString","coordinates":[[-56.997,5.877],[-57.079,5.504],[-57.161,5.132],[-57.243,4.759],[-57.239,4.29],[-57.235,3.821],[-57.231,3.352],[-57.227,2.883],[-57.181,2.436],[-57.134,1.988],[-57.087,1.541],[-57.041,1.094],[-56.994,0.646],[-56.948,0.199],[-56.901,-0.248],[-56.854,-0.696],[-56.808,-1.143],[-56.669,-1.582],[-56.53,-2.021],[-56.391,-2.461],[-56.252,-2.9],[-56.113,-3.339],[-55.974,-3.778],[-55.835,-4.217],[-55.695,-4.656],[-55.556,-5.095],[-55.274,-5.503],[-54.992,-5.912]]}},{"type":"Feature","properties":{"boundary_type":"transform","feature_type":"gpml:Transform","polarity":null,"overriding_plate_id":null,"subducting_plate_id":null,"plate_ids":[101,9804],"name":"Proto Avalonia transform (later SZ)"},"geometry":{"type":"LineString","coordinates":[[169.055,-65.105],[168.465,-65.54],[167.855,-65.973],[167.225,-66.402],[166.573,-66.83],[165.897,-67.254],[165.197,-67.676],[164.472,-68.094],[163.72,-68.509],[162.941,-68.921],[162.131,-69.329],[161.291,-69.733],[160.418,-70.133],[159.511,-70.528],[158.568,-70.919],[157.587,-71.305],[156.567,-71.685],[155.4,-71.893],[154.208,-72.094],[152.99,-72.287],[151.747,-72.473],[150.479,-72.651],[149.186,-72.82],[147.524,-72.755],[145.875,-72.677],[144.243,-72.585],[142.628,-72.48],[141.033,-72.362],[139.459,-72.232],[137.909,-72.089],[136.383,-71.934],[134.883,-71.767],[133.411,-71.589],[131.967,-71.4],[130.551,-71.199],[129.165,-70.989],[127.809,-70.768],[126.483,-70.538],[125.188,-70.298],[123.923,-70.049],[122.689,-69.791],[121.485,-69.525],[120.311,-69.251],[119.166,-68.969],[118.482,-68.821],[117.807,-68.669]]}},{"type":"Feature","properties":{"boundary_type":"transform","feature_type":"gpml:Transform","polarity":null,"overriding_plate_id":null,"subducting_plate_id":null,"plate_ids":[456,501],"name":"Tranform closing SC"},"geometry":{"type":"LineString","coordinates":[[-113.095,51.277],[-112.542,51.605],[-111.981,51.93],[-111.412,52.253],[-110.733,52.516],[-110.045,52.777],[-109.35,53.033],[-108.646,53.284],[-107.933,53.532],[-107.213,53.776],[-106.471,53.906],[-105.725,54.033],[-104.975,54.154],[-104.22,54.271]]}},{"type":"Feature","properties":{"boundary_type":"transform","feature_type":"gpml:Transform","polarity":null,"overriding_plate_id":null,"subducting_plate_id":null,"plate_ids":[101,9804],"name":"Proto Avalonia-Cadomia transform (later SZ)"},"geometry":{"type":"LineString","coordinates":[[117.807,-68.669],[116.437,-68.68],[115.067,-68.68],[113.697,-68.668],[112.329,-68.646],[110.965,-68.612],[109.605,-68.567],[108.251,-68.512],[106.905,-68.446],[105.567,-68.368],[104.239,-68.281],[102.91,-68.223],[101.588,-68.155],[100.274,-68.076],[98.97,-67.988],[97.677,-67.888],[96.395,-67.779],[95.125,-67.66],[93.869,-67.531],[92.627,-67.392],[91.4,-67.244],[90.188,-67.087],[88.992,-66.921],[87.813,-66.745],[86.651,-66.561],[85.506,-66.369],[84.42,-66.15],[83.354,-65.924],[82.306,-65.691],[81.277,-65.451],[80.267,-65.204],[79.275,-64.95],[78.303,-64.69],[77.35,-64.423],[76.415,-64.15],[75.498,-63.872],[74.6,-63.588],[73.719,-63.298],[72.857,-63.003],[72.011,-62.703],[71.183,-62.398],[70.372,-62.088],[69.697,-61.975],[69.027,-61.858],[68.363,-61.738]]}},{"type":"Feature","properties":{"boundary_type":"transform","feature_type":"gpml:Transform","polarity":null,"overriding_plate_id":null,"subducting_plate_id":null,"plate_ids":[9804],"name":"Proto Avalonia-Cadomia transform (later SZ)"},"geometry":{"type":"LineString","coordinates":[[68.363,-61.738],[67.864,-61.645],[67.368,-61.551]]}},{"type":"Feature","properties":{"boundary_type":"transform","feature_type":"gpml:Transform","polarity":null,"overriding_plate_id":null,"subducting_plate_id":null,"plate_ids":[101,801],"name":""},"geometry":{"type":"LineString","coordinates":[[178.022,26.251],[178.331,25.837],[178.638,25.423],[178.942,25.008],[179.245,24.592],[179.545,24.176],[179.844,23.76],[-179.859,23.342],[-179.565,22.925],[-179.271,22.506],[-178.98,22.087],[-178.691,21.668],[-178.403,21.248],[-178.117,20.828],[-177.832,20.407],[-177.549,19.986],[-177.267,19.564]]}},{"type":"Feature","properties":{"boundary_type":"transform","feature_type":"gpml:Transform","polarity":null,"overriding_plate_id":null,"subducting_plate_id":null,"plate_ids":[701,715],"name":"Cong-SM transform"},"geometry":{"type":"LineString","coordinates":[[31.278,-7.298],[31.235,-7.752],[31.192,-8.205],[31.132,-8.7],[31.072,-9.196],[31.012,-9.691],[30.951,-10.186],[30.891,-10.682],[30.83,-11.177],[30.769,-11.672],[30.708,-12.168],[30.647,-12.663],[30.585,-13.158],[30.523,-13.654],[30.461,-14.149],[30.399,-14.644],[30.336,-15.139],[30.273,-15.634],[30.175,-16.106],[30.076,-16.577],[29.977,-17.048],[29.877,-17.52],[29.777,-17.991],[29.676,-18.462],[29.574,-18.933],[29.472,-19.404],[29.37,-19.875],[29.267,-20.346],[29.163,-20.817],[29.058,-21.288],[28.953,-21.758],[28.847,-22.229],[28.741,-22.7],[28.634,-23.17],[28.525,-23.64],[28.371,-24.102],[28.216,-24.564],[28.059,-25.025],[27.901,-25.486],[27.742,-25.947],[27.582,-26.408],[27.42,-26.869],[27.257,-27.33],[27.093,-27.79],[26.927,-28.25],[26.76,-28.71],[26.591,-29.17],[26.421,-29.629],[26.25,-30.088],[26.076,-30.547],[25.901,-31.006],[25.725,-31.465],[25.533,-31.923],[25.34,-32.38],[25.145,-32.838],[24.948,-33.295],[24.748,-33.751],[24.547,-34.207],[24.343,-34.663],[24.137,-35.119],[23.929,-35.574],[23.718,-36.029],[23.505,-36.484],[23.289,-36.938],[23.071,-37.392],[22.85,-37.845],[22.627,-38.298],[22.4,-38.751],[22.171,-39.203],[21.939,-39.654],[21.704,-40.105],[21.465,-40.556],[21.224,-41.006],[20.979,-41.456],[20.73,-41.905],[20.478,-42.354],[20.223,-42.802],[19.963,-43.249],[19.7,-43.696],[19.433,-44.142]]}}]}