{"type":"FeatureCollection","meta":{"model":"Cao2024","reconstruction_time_ma":615.0,"anchor_plate_id":0,"pygplates_version":"1.0.0","tessellate_degrees":0.5,"polarity_convention":"gpml:subductionPolarity. 'Left'/'Right' names the side of the line, in vertex order, on which the OVERRIDING plate lies. Triangles are drawn on that side.","antimeridian":"Lines are NOT split at +/-180 deg. The renderer works in 3D unit vectors where the dateline is not special; splitting would only add spurious breaks. Do not treat this as RFC 7946 GIS-ready 2D data."},"features":[{"type":"Feature","properties":{"boundary_type":"subduction","feature_type":"gpml:SubductionZone","polarity":"Right","overriding_plate_id":5032,"subducting_plate_id":501,"plate_ids":[501,5032],"name":"Mozambique ocean transform"},"geometry":{"type":"LineString","coordinates":[[48.482,-10.95],[48.958,-10.854],[49.434,-10.757],[49.91,-10.659],[50.386,-10.56],[50.861,-10.461],[51.336,-10.361],[51.81,-10.261],[52.285,-10.159],[52.759,-10.057],[53.232,-9.954],[53.706,-9.851],[54.179,-9.747],[54.651,-9.642],[55.124,-9.537],[55.596,-9.431],[56.068,-9.324],[56.54,-9.217],[57.011,-9.109],[57.503,-9.119],[57.996,-9.128],[58.488,-9.136],[58.981,-9.143],[59.474,-9.15],[59.966,-9.156],[60.459,-9.162],[60.952,-9.167],[61.444,-9.171],[61.937,-9.175],[62.43,-9.177],[62.922,-9.18],[63.399,-9.302],[63.876,-9.424],[64.354,-9.545],[64.831,-9.666],[65.31,-9.786],[65.788,-9.905],[66.267,-10.024],[66.746,-10.142],[67.226,-10.259],[67.705,-10.376],[68.186,-10.491],[68.666,-10.606],[69.147,-10.721],[69.629,-10.834],[70.11,-10.947],[70.592,-11.059],[71.075,-11.171],[71.558,-11.281],[72.041,-11.391],[72.524,-11.5],[73.008,-11.608],[73.492,-11.716],[73.977,-11.822],[74.462,-11.928],[74.947,-12.033],[75.445,-12.127],[75.943,-12.219],[76.442,-12.311],[76.941,-12.402],[77.44,-12.492],[77.939,-12.581],[78.439,-12.669],[78.939,-12.756],[79.44,-12.843],[79.941,-12.928],[80.442,-13.012],[80.944,-13.096],[81.446,-13.178],[81.948,-13.26]]}},{"type":"Feature","properties":{"boundary_type":"subduction","feature_type":"gpml:SubductionZone","polarity":"Left","overriding_plate_id":760,"subducting_plate_id":714,"plate_ids":[714,760],"name":"Araguaia Belt"},"geometry":{"type":"LineString","coordinates":[[25.024,-53.654],[25.593,-53.826],[26.166,-53.996],[26.744,-54.163],[27.326,-54.327],[28.085,-54.25],[28.841,-54.167],[29.594,-54.08],[30.399,-54.084],[31.203,-54.083],[32.008,-54.076],[32.812,-54.065],[33.475,-54.236],[34.145,-54.405],[34.819,-54.569],[35.499,-54.73],[36.184,-54.887],[36.875,-55.04],[37.473,-55.336],[38.081,-55.63],[38.697,-55.92],[39.323,-56.207],[39.958,-56.492],[40.603,-56.772]]}},{"type":"Feature","properties":{"boundary_type":"subduction","feature_type":"gpml:SubductionZone","polarity":"Left","overriding_plate_id":206,"subducting_plate_id":714,"plate_ids":[206,714],"name":"Araguaia Belt"},"geometry":{"type":"LineString","coordinates":[[40.603,-56.772],[41.309,-57.072],[41.971,-57.209],[42.638,-57.342],[43.31,-57.472],[43.856,-57.808],[44.411,-58.14],[44.977,-58.471],[45.553,-58.799],[45.907,-59.239],[46.27,-59.678],[46.642,-60.116],[47.024,-60.553],[47.417,-60.989],[48.006,-61.341],[48.607,-61.692],[49.223,-62.039],[49.852,-62.383],[50.496,-62.725],[51.156,-63.064],[52.108,-63.292],[53.076,-63.515],[54.058,-63.73],[55.056,-63.939],[56.068,-64.141],[56.812,-64.361],[57.567,-64.578],[58.018,-64.75],[58.474,-64.92],[59.401,-65.196],[60.025,-65.464],[60.662,-65.73],[61.314,-66.005],[61.471,-66.263],[61.631,-66.52]]}},{"type":"Feature","properties":{"boundary_type":"subduction","feature_type":"gpml:SubductionZone","polarity":"Right","overriding_plate_id":701,"subducting_plate_id":715,"plate_ids":[701,715],"name":"Mozambique Belt"},"geometry":{"type":"LineString","coordinates":[[56.162,-25.694],[56.393,-25.381],[56.622,-25.068],[56.85,-24.754],[57.005,-24.344],[57.159,-23.933],[57.313,-23.521]]}},{"type":"Feature","properties":{"boundary_type":"subduction","feature_type":"gpml:SubductionZone","polarity":"Right","overriding_plate_id":701,"subducting_plate_id":5032,"plate_ids":[701,5032],"name":"Mozambique Belt"},"geometry":{"type":"LineString","coordinates":[[57.313,-23.521],[57.355,-23.408],[57.551,-23.02],[57.747,-22.632],[57.942,-22.243],[58.076,-21.84],[58.209,-21.436],[58.342,-21.033],[58.474,-20.63],[58.606,-20.226],[58.816,-19.949],[59.027,-19.671],[59.236,-19.394],[59.67,-19.45],[60.104,-19.506],[60.539,-19.56],[60.979,-19.826],[61.422,-20.089],[61.865,-20.352],[62.107,-20.688],[62.35,-21.022],[62.594,-21.357],[62.839,-21.691],[63.206,-21.914],[63.575,-22.137],[63.944,-22.358],[64.315,-22.579],[64.687,-22.799],[65.162,-23.018],[65.638,-23.235],[66.116,-23.451],[66.596,-23.666],[67.077,-23.879],[67.467,-23.979],[67.857,-24.077],[68.37,-24.196],[68.883,-24.313],[69.245,-24.394],[69.608,-24.473],[69.972,-24.552],[70.376,-24.636],[70.78,-24.719],[71.186,-24.801],[71.722,-24.797],[72.258,-24.79],[72.733,-24.859],[73.209,-24.926],[73.685,-24.992],[74.162,-25.056],[74.575,-25.224],[74.99,-25.391],[75.405,-25.556],[75.822,-25.721],[76.306,-25.863],[76.791,-26.004],[77.278,-26.143],[77.766,-26.281],[78.241,-26.523],[78.719,-26.764],[79.151,-27.071],[79.586,-27.378],[80.122,-27.474],[80.659,-27.568],[81.095,-27.665],[81.532,-27.762],[81.969,-27.857],[82.408,-27.951],[82.827,-28.041],[83.247,-28.13],[83.667,-28.217],[84.126,-28.182],[84.585,-28.145],[85.044,-28.107],[85.502,-28.067],[85.854,-28.11],[86.207,-28.151]]}},{"type":"Feature","properties":{"boundary_type":"subduction","feature_type":"gpml:SubductionZone","polarity":"Right","overriding_plate_id":715,"subducting_plate_id":5031,"plate_ids":[715,5031],"name":"ANS SZ"},"geometry":{"type":"LineString","coordinates":[[26.724,-16.31],[27.125,-16.424],[27.527,-16.538],[28.011,-16.678],[28.495,-16.816],[28.98,-16.954],[29.466,-17.091],[29.935,-17.218],[30.405,-17.345],[30.875,-17.47],[31.346,-17.595],[31.781,-17.736],[32.215,-17.876],[32.651,-18.015],[33.031,-18.223],[33.412,-18.431],[33.755,-18.547],[34.099,-18.662],[34.444,-18.777],[34.76,-18.969],[35.078,-19.16],[35.396,-19.351],[35.792,-19.55],[36.19,-19.749],[36.588,-19.947],[36.966,-20.042],[37.344,-20.136],[37.723,-20.23],[38.195,-20.399],[38.668,-20.567],[38.98,-20.745],[39.294,-20.922],[39.608,-21.099],[40.116,-21.255],[40.626,-21.409],[41.089,-21.454],[41.553,-21.498],[42.016,-21.541],[42.42,-21.464],[42.824,-21.385],[43.227,-21.306],[43.63,-21.226],[44.022,-21.297],[44.414,-21.367],[44.806,-21.436],[45.312,-21.563],[45.819,-21.688],[46.327,-21.812],[46.746,-21.923],[47.164,-22.033],[47.584,-22.142],[47.987,-22.11],[48.389,-22.077],[48.792,-22.043],[49.187,-22.037],[49.583,-22.03],[49.979,-22.023],[50.399,-21.95],[50.819,-21.876],[51.239,-21.801],[51.659,-21.726],[52.153,-21.889],[52.649,-22.05],[53.145,-22.21],[53.419,-22.331],[53.694,-22.451]]}},{"type":"Feature","properties":{"boundary_type":"subduction","feature_type":"gpml:SubductionZone","polarity":"Right","overriding_plate_id":715,"subducting_plate_id":5032,"plate_ids":[715,5032],"name":"ANS SZ"},"geometry":{"type":"LineString","coordinates":[[53.694,-22.451],[53.938,-22.558],[54.272,-22.718],[54.606,-22.879],[54.941,-23.038],[55.259,-23.232],[55.578,-23.426],[55.898,-23.619],[56.282,-23.57],[56.666,-23.519],[57.049,-23.468],[57.313,-23.521]]}},{"type":"Feature","properties":{"boundary_type":"subduction","feature_type":"gpml:SubductionZone","polarity":"Left","overriding_plate_id":760,"subducting_plate_id":206,"plate_ids":[206,760],"name":"Sergipano SZ (SF and Borb)"},"geometry":{"type":"LineString","coordinates":[[43.161,-56.444],[43.208,-56.415],[43.559,-56.091],[43.904,-55.767],[44.243,-55.442],[44.577,-55.115],[44.791,-54.647],[45.0,-54.178],[45.205,-53.708],[45.446,-53.38],[45.684,-53.051],[45.918,-52.721],[46.236,-52.263],[46.547,-51.805],[46.853,-51.345],[46.874,-50.996],[46.896,-50.647],[46.92,-50.225],[46.943,-49.803],[47.075,-49.399]]}},{"type":"Feature","properties":{"boundary_type":"subduction","feature_type":"gpml:SubductionZone","polarity":"Left","overriding_plate_id":760,"subducting_plate_id":701,"plate_ids":[701,760],"name":"Sergipano SZ (SF and Borb)"},"geometry":{"type":"LineString","coordinates":[[47.075,-49.399],[47.076,-49.398]]}},{"type":"Feature","properties":{"boundary_type":"subduction","feature_type":"gpml:SubductionZone","polarity":"Right","overriding_plate_id":5031,"subducting_plate_id":501,"plate_ids":[501,5031],"name":"ANS formation"},"geometry":{"type":"LineString","coordinates":[[29.782,-13.042],[30.225,-12.876],[30.668,-12.709],[31.11,-12.541],[31.551,-12.373],[31.992,-12.204],[32.432,-12.034],[32.872,-11.864],[33.311,-11.693],[33.749,-11.521],[34.187,-11.349],[34.625,-11.176],[35.012,-11.003],[35.399,-10.83],[35.786,-10.656],[36.172,-10.482],[36.556,-10.347],[36.939,-10.212],[37.435,-10.106],[37.931,-10.0],[38.427,-9.893],[38.802,-9.858],[39.178,-9.822],[39.553,-9.786],[39.989,-9.763],[40.425,-9.74],[40.843,-9.789],[41.261,-9.837],[41.609,-9.943],[41.956,-10.048],[42.318,-10.24],[42.68,-10.431],[43.062,-10.527],[43.444,-10.624],[43.795,-10.568],[44.147,-10.511],[44.498,-10.455],[44.885,-10.408],[45.271,-10.36],[45.658,-10.312],[46.038,-10.288],[46.419,-10.264],[46.812,-10.368],[47.205,-10.471],[47.557,-10.596],[47.91,-10.721],[48.263,-10.845],[48.482,-10.95]]}},{"type":"Feature","properties":{"boundary_type":"subduction","feature_type":"gpml:SubductionZone","polarity":"Right","overriding_plate_id":5031,"subducting_plate_id":5032,"plate_ids":[5031,5032],"name":"ANS formation"},"geometry":{"type":"LineString","coordinates":[[48.482,-10.95],[48.788,-11.097],[49.094,-11.244],[49.4,-11.391],[49.746,-11.548],[50.093,-11.706],[50.44,-11.862],[50.834,-12.101],[51.228,-12.339],[51.468,-12.681],[51.708,-13.023],[51.948,-13.364],[52.145,-13.814],[52.343,-14.264],[52.541,-14.715],[52.741,-15.164],[52.941,-15.614],[53.142,-16.064],[53.344,-16.513],[53.546,-16.962],[53.689,-17.409],[53.833,-17.856],[53.977,-18.302],[54.122,-18.749],[54.268,-19.195]]}},{"type":"Feature","properties":{"boundary_type":"subduction","feature_type":"gpml:SubductionZone","polarity":"Left","overriding_plate_id":701,"subducting_plate_id":77030,"plate_ids":[701,77030],"name":"Damara-Lufilian-Zambezi SZ?"},"geometry":{"type":"LineString","coordinates":[[90.112,-49.407],[90.492,-49.134],[90.869,-48.859],[91.241,-48.583],[91.467,-48.235],[91.691,-47.886],[91.911,-47.537],[92.128,-47.188],[92.149,-46.775],[92.17,-46.362],[92.19,-45.949],[92.211,-45.536],[92.254,-45.086],[92.297,-44.635],[92.339,-44.184],[92.38,-43.733],[92.421,-43.282],[92.461,-42.831],[92.5,-42.38],[92.287,-41.983],[92.076,-41.586],[91.868,-41.188],[91.663,-40.79],[91.459,-40.391],[91.259,-39.992],[91.031,-39.537],[90.807,-39.082],[90.585,-38.626],[90.366,-38.169],[90.15,-37.713],[89.937,-37.255],[89.726,-36.798],[89.518,-36.34],[89.312,-35.882],[88.925,-35.512],[88.542,-35.141],[88.162,-34.768],[87.786,-34.395],[87.413,-34.02],[87.249,-33.548],[87.086,-33.076],[86.926,-32.604],[86.767,-32.131],[86.61,-31.659],[86.454,-31.186],[86.418,-30.753],[86.382,-30.32],[86.347,-29.887],[86.311,-29.454],[86.276,-29.021],[86.241,-28.588]]}},{"type":"Feature","properties":{"boundary_type":"subduction","feature_type":"gpml:SubductionZone","polarity":"Left","overriding_plate_id":701,"subducting_plate_id":5032,"plate_ids":[701,5032],"name":"Damara-Lufilian-Zambezi SZ?"},"geometry":{"type":"LineString","coordinates":[[86.241,-28.588],[86.207,-28.151]]}},{"type":"Feature","properties":{"boundary_type":"subduction","feature_type":"gpml:SubductionZone","polarity":"Right","overriding_plate_id":801,"subducting_plate_id":8011,"plate_ids":[801,8011],"name":"Paterson-Petermann Orogen"},"geometry":{"type":"LineString","coordinates":[[92.787,9.725],[93.126,10.02],[93.465,10.315],[93.806,10.609],[94.147,10.903],[94.488,11.196],[94.83,11.489],[95.173,11.782],[95.528,12.062],[95.884,12.342],[96.24,12.621],[96.597,12.9],[96.955,13.179],[97.313,13.456],[97.673,13.734],[98.162,13.729],[98.65,13.723],[99.139,13.715],[99.628,13.707],[100.117,13.698],[100.606,13.689],[101.095,13.678],[101.524,13.802],[101.953,13.926],[102.384,14.05],[102.834,13.943],[103.283,13.836],[103.732,13.728],[104.181,13.62],[104.629,13.51],[105.08,13.632],[105.532,13.753],[105.984,13.874],[106.436,13.994],[106.889,14.112],[107.342,14.23],[107.795,14.348],[108.25,14.464],[108.642,14.688],[109.035,14.912],[109.429,15.135],[109.823,15.358]]}},{"type":"Feature","properties":{"boundary_type":"subduction","feature_type":"gpml:SubductionZone","polarity":"Right","overriding_plate_id":401,"subducting_plate_id":98044,"plate_ids":[401,98044],"name":"Isakov arc"},"geometry":{"type":"LineString","coordinates":[[-110.628,24.835],[-110.405,24.385],[-110.184,23.934],[-109.964,23.482],[-109.746,23.031],[-109.53,22.579],[-109.314,22.126],[-109.066,21.706],[-108.819,21.285],[-108.574,20.864],[-108.33,20.443],[-108.087,20.021],[-107.846,19.599],[-107.605,19.176],[-107.366,18.754],[-107.129,18.331],[-106.892,17.907],[-106.657,17.484],[-106.422,17.06],[-106.189,16.636],[-105.957,16.211],[-105.725,15.786],[-105.495,15.361],[-105.266,14.936],[-105.037,14.511],[-104.81,14.085],[-104.576,13.687],[-104.343,13.289],[-104.112,12.89]]}},{"type":"Feature","properties":{"boundary_type":"subduction","feature_type":"gpml:SubductionZone","polarity":"Right","overriding_plate_id":401,"subducting_plate_id":3003,"plate_ids":[401,3003],"name":"Isakov arc"},"geometry":{"type":"LineString","coordinates":[[-104.112,12.89],[-104.008,12.712],[-103.957,12.238],[-103.906,11.763],[-103.855,11.289],[-103.804,10.815],[-103.754,10.34],[-103.703,9.866],[-103.653,9.391],[-103.603,8.917],[-103.553,8.442],[-103.437,8.026],[-103.322,7.61],[-103.208,7.194],[-103.093,6.778],[-102.979,6.362],[-102.784,5.991],[-102.59,5.621],[-102.396,5.25],[-102.202,4.879],[-102.008,4.509],[-102.045,4.017],[-102.082,3.526],[-102.118,3.035],[-102.155,2.543],[-102.192,2.052],[-102.228,1.561],[-102.265,1.069],[-102.301,0.578],[-102.338,0.087],[-102.375,-0.404],[-102.411,-0.896],[-102.448,-1.387],[-102.484,-1.878],[-102.725,-2.294],[-102.967,-2.709],[-103.208,-3.124]]}},{"type":"Feature","properties":{"boundary_type":"subduction","feature_type":"gpml:SubductionZone","polarity":"Left","overriding_plate_id":715,"subducting_plate_id":701,"plate_ids":[701,715],"name":"Oubanguides"},"geometry":{"type":"LineString","coordinates":[[38.539,-45.972],[38.748,-45.593],[38.954,-45.213],[39.158,-44.833],[39.358,-44.453],[39.556,-44.072],[39.967,-43.728],[40.372,-43.384],[40.774,-43.037],[41.17,-42.69],[41.563,-42.341],[41.951,-41.991],[42.334,-41.639],[42.51,-41.185],[42.684,-40.73],[42.855,-40.275],[43.024,-39.82],[43.19,-39.364],[43.355,-38.908],[43.517,-38.452],[43.677,-37.996],[43.836,-37.539],[43.992,-37.083],[44.147,-36.626],[44.299,-36.169],[44.45,-35.712],[44.416,-35.27],[44.381,-34.828],[44.348,-34.385],[44.586,-33.943],[44.822,-33.5],[45.056,-33.057],[45.515,-32.826],[45.971,-32.593],[46.425,-32.358],[46.877,-32.121],[47.377,-31.932],[47.875,-31.74],[48.37,-31.547],[48.864,-31.352],[49.331,-31.156],[49.797,-30.959],[50.26,-30.76],[50.721,-30.56],[51.156,-30.291],[51.589,-30.02],[52.019,-29.748],[52.372,-29.499],[52.723,-29.249],[53.072,-28.997],[53.419,-28.745],[53.79,-28.396],[54.157,-28.046],[54.523,-27.695],[54.886,-27.343],[55.246,-26.99],[55.605,-26.636],[55.904,-26.51],[56.203,-26.382]]}},{"type":"Feature","properties":{"boundary_type":"subduction","feature_type":"gpml:SubductionZone","polarity":"Right","overriding_plate_id":715,"subducting_plate_id":98043,"plate_ids":[715,98043],"name":"SM SZ"},"geometry":{"type":"LineString","coordinates":[[14.533,-29.637],[14.744,-29.258],[15.154,-28.947],[15.562,-28.636],[15.968,-28.323],[16.37,-28.01],[16.771,-27.695],[17.169,-27.378],[17.565,-27.061],[17.959,-26.743],[18.351,-26.423],[18.74,-26.103],[19.128,-25.781],[19.513,-25.459],[19.896,-25.135],[20.277,-24.811],[20.656,-24.485],[21.033,-24.159],[21.283,-23.761],[21.531,-23.362],[21.778,-22.964],[22.023,-22.564],[22.266,-22.165],[22.509,-21.765],[22.75,-21.365],[22.855,-21.226]]}},{"type":"Feature","properties":{"boundary_type":"subduction","feature_type":"gpml:SubductionZone","polarity":"Right","overriding_plate_id":715,"subducting_plate_id":501,"plate_ids":[501,715],"name":"SM SZ"},"geometry":{"type":"LineString","coordinates":[[22.855,-21.226],[23.145,-20.843],[23.433,-20.459],[23.721,-20.074],[24.006,-19.689],[24.291,-19.304],[24.574,-18.918],[24.855,-18.532],[25.17,-18.163],[25.483,-17.793],[25.795,-17.423],[26.106,-17.052],[26.415,-16.681],[26.724,-16.31]]}},{"type":"Feature","properties":{"boundary_type":"subduction","feature_type":"gpml:SubductionZone","polarity":"Right","overriding_plate_id":5031,"subducting_plate_id":501,"plate_ids":[501,5031],"name":"SM SZ"},"geometry":{"type":"LineString","coordinates":[[26.724,-16.31],[26.894,-16.104],[27.063,-15.898],[27.525,-15.677],[27.985,-15.454],[28.445,-15.23],[28.903,-15.006],[29.361,-14.78],[29.467,-14.346],[29.572,-13.911],[29.678,-13.477],[29.782,-13.042]]}},{"type":"Feature","properties":{"boundary_type":"subduction","feature_type":"gpml:SubductionZone","polarity":"Left","overriding_plate_id":206,"subducting_plate_id":714,"plate_ids":[206,714],"name":"SZ_Parana_Paraguay Belt"},"geometry":{"type":"LineString","coordinates":[[61.631,-66.52],[61.994,-66.6],[63.237,-66.545],[64.475,-66.48],[65.393,-66.608],[66.32,-66.731],[67.277,-66.979],[68.254,-67.223],[69.04,-67.482],[69.843,-67.738],[70.601,-67.791],[71.363,-67.84],[72.323,-67.825],[73.282,-67.804],[74.348,-68.005],[75.432,-68.199],[76.431,-68.444],[77.451,-68.684],[78.327,-68.879],[79.219,-69.071],[80.119,-69.165],[81.026,-69.256],[81.94,-69.341],[82.913,-69.124],[83.866,-68.902],[84.356,-68.506],[84.829,-68.109],[85.286,-67.711],[85.236,-67.336],[85.188,-66.961]]}},{"type":"Feature","properties":{"boundary_type":"subduction","feature_type":"gpml:SubductionZone","polarity":"Left","overriding_plate_id":206,"subducting_plate_id":77030,"plate_ids":[206,77030],"name":"SZ_Parana_Paraguay Belt"},"geometry":{"type":"LineString","coordinates":[[85.188,-66.961],[85.142,-66.599],[85.098,-66.238],[85.055,-65.877]]}},{"type":"Feature","properties":{"boundary_type":"subduction","feature_type":"gpml:SubductionZone","polarity":"Left","overriding_plate_id":501,"subducting_plate_id":580,"plate_ids":[501,580],"name":"Alxa SZ"},"geometry":{"type":"LineString","coordinates":[[52.835,42.028],[52.536,41.612],[52.24,41.195],[51.949,40.778],[51.923,40.29],[51.897,39.803],[51.872,39.316],[51.847,38.829],[51.822,38.342],[51.797,37.855],[51.773,37.368],[51.75,36.881],[51.726,36.394],[51.766,35.975],[51.806,35.556],[51.845,35.137],[51.884,34.718],[51.923,34.299],[51.961,33.88],[51.88,33.408]]}},{"type":"Feature","properties":{"boundary_type":"subduction","feature_type":"gpml:SubductionZone","polarity":"Left","overriding_plate_id":701,"subducting_plate_id":206,"plate_ids":[206,701],"name":"Aracuai-West Congo-Kaoko SZ"},"geometry":{"type":"LineString","coordinates":[[47.075,-49.399],[47.632,-49.33],[48.187,-49.258],[48.74,-49.184],[49.413,-49.281],[50.088,-49.374],[50.766,-49.463],[51.447,-49.547],[52.129,-49.628],[52.814,-49.705],[53.501,-49.778],[54.047,-50.078],[54.6,-50.376],[55.16,-50.671],[55.698,-50.842],[56.239,-51.011],[56.785,-51.177],[57.312,-51.293],[57.843,-51.408],[58.375,-51.52],[58.91,-51.886],[59.453,-52.249],[59.905,-52.346],[60.358,-52.44],[61.02,-52.454],[61.697,-52.267],[62.369,-52.077],[62.92,-51.847],[63.465,-51.615],[64.005,-51.381],[64.672,-51.292],[65.336,-51.199],[65.998,-51.102],[66.752,-51.115],[67.506,-51.123],[68.265,-51.018],[69.019,-50.908],[69.775,-50.938],[70.532,-50.964],[71.24,-50.882],[71.945,-50.797],[72.648,-50.707],[73.298,-50.523],[73.943,-50.336],[74.583,-50.145],[75.113,-50.139],[75.643,-50.13],[76.172,-50.119],[76.711,-50.09],[77.248,-50.059],[77.785,-50.026],[78.441,-50.099],[79.098,-50.168],[79.758,-50.233],[80.352,-50.247],[80.945,-50.259],[81.54,-50.267],[82.134,-50.273],[82.887,-50.183],[83.638,-50.088],[84.386,-49.988],[85.13,-49.883],[85.706,-49.675],[86.277,-49.463],[86.843,-49.249],[87.405,-49.032],[87.911,-48.811],[88.413,-48.588],[88.91,-48.362],[89.43,-48.231]]}},{"type":"Feature","properties":{"boundary_type":"subduction","feature_type":"gpml:SubductionZone","polarity":"Left","overriding_plate_id":3003,"subducting_plate_id":401,"plate_ids":[401,3003],"name":"Taimyr SZ"},"geometry":{"type":"LineString","coordinates":[[-103.208,-3.124],[-103.572,-3.437],[-103.936,-3.75],[-104.301,-4.063],[-104.665,-4.375],[-105.03,-4.688],[-105.395,-5.0],[-105.761,-5.312],[-106.115,-5.606]]}},{"type":"Feature","properties":{"boundary_type":"subduction","feature_type":"gpml:SubductionZone","polarity":"Left","overriding_plate_id":4012,"subducting_plate_id":401,"plate_ids":[401,4012],"name":"Taimyr SZ"},"geometry":{"type":"LineString","coordinates":[[-106.115,-5.606],[-106.431,-5.868],[-106.747,-6.129],[-107.063,-6.39],[-107.38,-6.651],[-107.696,-6.912],[-108.058,-7.206],[-108.42,-7.5],[-108.783,-7.793],[-109.146,-8.086],[-109.509,-8.379],[-109.873,-8.671],[-110.221,-8.975],[-110.569,-9.279],[-110.918,-9.583],[-111.268,-9.886],[-111.618,-10.189],[-111.969,-10.492],[-112.32,-10.794],[-112.673,-11.096],[-113.056,-11.309],[-113.441,-11.522],[-113.826,-11.735],[-114.211,-11.947],[-114.597,-12.159],[-114.984,-12.37],[-115.371,-12.581],[-115.749,-12.85],[-116.128,-13.119],[-116.508,-13.387],[-116.889,-13.654],[-117.27,-13.921],[-117.652,-14.188],[-118.035,-14.453],[-118.493,-14.543],[-118.95,-14.631],[-119.408,-14.718],[-119.866,-14.805],[-120.325,-14.89],[-120.783,-14.975],[-121.243,-15.059],[-121.681,-15.153],[-122.12,-15.247],[-122.559,-15.341],[-122.999,-15.433],[-123.388,-15.369],[-123.776,-15.304]]}},{"type":"Feature","properties":{"boundary_type":"subduction","feature_type":"gpml:SubductionZone","polarity":"Left","overriding_plate_id":501,"subducting_plate_id":601,"plate_ids":[501,601],"name":"Intraoceanic SZ"},"geometry":{"type":"LineString","coordinates":[[83.46,26.946],[83.268,27.261],[83.074,27.575],[82.88,27.888],[82.599,28.302],[82.317,28.715],[82.032,29.128],[81.745,29.54],[81.456,29.951],[81.164,30.361],[80.87,30.771],[80.573,31.181],[80.274,31.589],[79.972,31.997],[79.667,32.404],[79.464,32.848],[79.259,33.292],[79.053,33.735],[78.843,34.178],[78.632,34.62],[78.418,35.063],[78.202,35.504],[77.984,35.946],[77.763,36.387],[77.54,36.827],[77.314,37.267],[77.086,37.707],[76.875,38.174],[76.662,38.641],[76.446,39.108],[76.228,39.574],[76.006,40.039],[75.781,40.504],[75.553,40.969],[75.322,41.433],[75.088,41.897],[74.85,42.361],[74.609,42.823],[74.364,43.286],[74.197,43.743],[74.028,44.201],[73.856,44.658],[73.682,45.114],[73.504,45.571],[73.324,46.027],[73.141,46.483],[72.954,46.939],[72.765,47.394],[72.572,47.849],[72.376,48.304],[72.176,48.758],[71.972,49.212],[72.164,49.678],[72.36,50.143],[72.56,50.608],[72.764,51.073],[72.972,51.537],[73.184,52.001],[73.4,52.465],[73.622,52.928],[73.848,53.391],[74.078,53.854],[74.315,54.315],[74.458,54.759],[74.605,55.203],[74.755,55.646],[74.909,56.089],[75.066,56.533],[75.068,56.535]]}},{"type":"Feature","properties":{"boundary_type":"subduction","feature_type":"gpml:SubductionZone","polarity":"Right","overriding_plate_id":580,"subducting_plate_id":501,"plate_ids":[501,580],"name":"Tarim Oceanic arc"},"geometry":{"type":"LineString","coordinates":[[49.745,46.353],[50.078,45.952],[50.407,45.55],[50.731,45.147],[51.051,44.743],[51.366,44.339],[51.676,43.933],[51.914,43.553],[52.148,43.173],[52.38,42.791],[52.609,42.41],[52.835,42.028]]}},{"type":"Feature","properties":{"boundary_type":"subduction","feature_type":"gpml:SubductionZone","polarity":"Right","overriding_plate_id":5032,"subducting_plate_id":501,"plate_ids":[501,5032],"name":"East Africa SZ"},"geometry":{"type":"LineString","coordinates":[[81.948,-13.26],[82.3,-13.483],[82.653,-13.707],[83.007,-13.929],[83.361,-14.152],[83.716,-14.373],[84.02,-14.622],[84.324,-14.87],[84.629,-15.118],[84.935,-15.365],[85.326,-15.517],[85.717,-15.668],[86.109,-15.818],[86.501,-15.968],[86.894,-16.117],[87.313,-16.182],[87.733,-16.246],[88.152,-16.31],[88.572,-16.373],[89.041,-16.59],[89.512,-16.806],[89.983,-17.021],[90.456,-17.235],[90.93,-17.448],[91.404,-17.66],[91.742,-18.023],[92.081,-18.386],[92.422,-18.748],[92.764,-19.109],[93.108,-19.47],[93.453,-19.83]]}},{"type":"Feature","properties":{"boundary_type":"subduction","feature_type":"gpml:SubductionZone","polarity":"Right","overriding_plate_id":5032,"subducting_plate_id":801,"plate_ids":[801,5032],"name":"East Africa SZ"},"geometry":{"type":"LineString","coordinates":[[93.453,-19.83],[93.522,-19.902],[93.63,-20.284]]}},{"type":"Feature","properties":{"boundary_type":"subduction","feature_type":"gpml:SubductionZone","polarity":"Right","overriding_plate_id":5032,"subducting_plate_id":77030,"plate_ids":[5032,77030],"name":"East Africa SZ"},"geometry":{"type":"LineString","coordinates":[[93.63,-20.284],[93.755,-20.724],[93.88,-21.164],[94.007,-21.603],[94.134,-22.043],[94.262,-22.482],[94.39,-22.921],[94.52,-23.361],[94.65,-23.8],[94.781,-24.239],[94.683,-24.705],[94.585,-25.171],[94.485,-25.638],[94.385,-26.104]]}},{"type":"Feature","properties":{"boundary_type":"subduction","feature_type":"gpml:SubductionZone","polarity":"Left","overriding_plate_id":98043,"subducting_plate_id":77144,"plate_ids":[77144,98043],"name":"Serouenent Terrane accretion"},"geometry":{"type":"LineString","coordinates":[[11.64,-34.954],[11.884,-35.224],[12.129,-35.493],[12.13,-35.493]]}},{"type":"Feature","properties":{"boundary_type":"subduction","feature_type":"gpml:SubductionZone","polarity":"Left","overriding_plate_id":760,"subducting_plate_id":77144,"plate_ids":[760,77144],"name":"Serouenent Terrane accretion"},"geometry":{"type":"LineString","coordinates":[[12.13,-35.493],[12.515,-35.876],[12.904,-36.258],[13.297,-36.638],[13.694,-37.018],[14.094,-37.395],[14.418,-37.692],[14.744,-37.987],[15.073,-38.282],[15.404,-38.576],[15.642,-38.784],[15.894,-39.155],[16.15,-39.524],[16.408,-39.894],[16.426,-39.923]]}},{"type":"Feature","properties":{"boundary_type":"subduction","feature_type":"gpml:SubductionZone","polarity":"Right","overriding_plate_id":206,"subducting_plate_id":701,"plate_ids":[206,701],"name":"Congo arc"},"geometry":{"type":"LineString","coordinates":[[89.43,-48.231],[89.654,-48.624],[89.881,-49.016],[90.112,-49.407]]}},{"type":"Feature","properties":{"boundary_type":"subduction","feature_type":"gpml:SubductionZone","polarity":"Right","overriding_plate_id":206,"subducting_plate_id":77030,"plate_ids":[206,77030],"name":"Congo arc"},"geometry":{"type":"LineString","coordinates":[[90.112,-49.407],[90.312,-49.742],[90.515,-50.076],[90.722,-50.41],[90.86,-50.829],[91.002,-51.248],[91.146,-51.666],[91.293,-52.084],[91.442,-52.502],[91.594,-52.92],[91.665,-53.404],[91.738,-53.888],[91.812,-54.372],[91.887,-54.855],[91.965,-55.339],[92.045,-55.823],[92.126,-56.306],[92.21,-56.79],[92.177,-57.242],[92.143,-57.695],[92.108,-58.147],[92.072,-58.6],[92.035,-59.052],[91.997,-59.505],[91.959,-59.957],[91.919,-60.41],[91.666,-60.829],[91.407,-61.247],[91.14,-61.665],[90.866,-62.083],[90.585,-62.5],[90.296,-62.917],[89.998,-63.332],[89.359,-63.734],[88.701,-64.133],[88.025,-64.529],[87.328,-64.922],[86.611,-65.311],[85.842,-65.596],[85.055,-65.877]]}},{"type":"Feature","properties":{"boundary_type":"subduction","feature_type":"gpml:SubductionZone","polarity":"Left","overriding_plate_id":606,"subducting_plate_id":8011,"plate_ids":[606,8011],"name":"Lhasa-Australia convergence"},"geometry":{"type":"LineString","coordinates":[[93.055,12.544],[93.41,12.721],[93.766,12.898],[94.122,13.074],[94.37,13.478],[94.618,13.881],[94.867,14.283],[95.117,14.686],[95.368,15.088],[95.62,15.49],[95.873,15.892],[95.992,16.341],[96.111,16.79],[96.23,17.239],[96.351,17.688],[96.472,18.137],[96.593,18.585],[96.715,19.034],[96.838,19.483],[96.961,19.931],[97.067,20.37],[97.173,20.808],[97.279,21.247],[97.386,21.685],[97.494,22.123],[97.603,22.562],[97.712,23.0],[97.708,23.452],[97.704,23.905],[97.7,24.357],[97.695,24.81],[97.691,25.262]]}},{"type":"Feature","properties":{"boundary_type":"subduction","feature_type":"gpml:SubductionZone","polarity":"Left","overriding_plate_id":606,"subducting_plate_id":601,"plate_ids":[601,606],"name":"Lhasa-Australia convergence"},"geometry":{"type":"LineString","coordinates":[[97.691,25.262],[97.688,25.624],[97.684,25.985],[97.681,26.347],[97.432,26.755],[97.182,27.163],[96.93,27.571],[96.676,27.978]]}},{"type":"Feature","properties":{"boundary_type":"subduction","feature_type":"gpml:SubductionZone","polarity":"Right","overriding_plate_id":606,"subducting_plate_id":8011,"plate_ids":[606,8011],"name":"Lhasa-India convergence"},"geometry":{"type":"LineString","coordinates":[[93.055,12.544],[92.773,12.571],[92.49,12.597],[92.363,12.745]]}},{"type":"Feature","properties":{"boundary_type":"subduction","feature_type":"gpml:SubductionZone","polarity":"Right","overriding_plate_id":606,"subducting_plate_id":501,"plate_ids":[501,606],"name":"Lhasa-India convergence"},"geometry":{"type":"LineString","coordinates":[[92.363,12.745],[92.102,13.049],[91.967,13.465],[91.831,13.881],[91.695,14.297],[91.559,14.713],[91.422,15.128],[91.285,15.544],[91.353,16.002],[91.421,16.459],[91.49,16.917],[91.559,17.375],[91.628,17.832],[91.698,18.29],[91.768,18.747],[91.72,19.226],[91.672,19.705],[91.624,20.184],[91.576,20.663],[91.527,21.142],[91.664,21.574],[91.802,22.005],[91.941,22.437]]}},{"type":"Feature","properties":{"boundary_type":"subduction","feature_type":"gpml:SubductionZone","polarity":"Right","overriding_plate_id":606,"subducting_plate_id":601,"plate_ids":[601,606],"name":"Lhasa-India convergence"},"geometry":{"type":"LineString","coordinates":[[91.941,22.437],[92.054,22.787],[92.168,23.137],[92.283,23.487],[92.554,23.872],[92.828,24.257],[93.103,24.641],[93.379,25.025],[93.62,25.466],[93.863,25.907],[94.108,26.347],[94.354,26.787],[94.348,27.052],[94.342,27.317]]}},{"type":"Feature","properties":{"boundary_type":"subduction","feature_type":"gpml:SubductionZone","polarity":"Left","overriding_plate_id":401,"subducting_plate_id":98044,"plate_ids":[401,98044],"name":"offshore oceanic sub zone"},"geometry":{"type":"LineString","coordinates":[[-126.639,24.938],[-127.115,25.152],[-127.592,25.364],[-128.071,25.575],[-128.552,25.784],[-129.034,25.991],[-129.518,26.197],[-130.004,26.401],[-130.491,26.604],[-130.981,26.805],[-131.472,27.004],[-131.964,27.202],[-132.459,27.398],[-132.955,27.592],[-133.453,27.784],[-133.953,27.975],[-134.454,28.163],[-134.957,28.35],[-135.462,28.535],[-135.969,28.719],[-136.478,28.9],[-136.988,29.079]]}},{"type":"Feature","properties":{"boundary_type":"subduction","feature_type":"gpml:SubductionZone","polarity":"Left","overriding_plate_id":101,"subducting_plate_id":98044,"plate_ids":[101,98044],"name":"offshore oceanic sub zone"},"geometry":{"type":"LineString","coordinates":[[-136.988,29.079],[-137.464,29.244],[-137.941,29.407],[-138.42,29.569],[-138.901,29.729],[-139.383,29.887],[-139.866,30.043],[-140.351,30.198],[-140.838,30.351],[-141.326,30.502],[-141.766,30.785],[-142.208,31.068],[-142.653,31.348],[-143.101,31.627],[-143.552,31.905],[-144.005,32.181],[-144.461,32.455],[-144.92,32.728],[-145.381,32.999],[-145.846,33.268],[-146.313,33.536],[-146.783,33.801],[-147.256,34.065],[-147.732,34.327],[-148.211,34.588],[-148.693,34.846],[-149.178,35.103],[-149.666,35.357],[-150.151,35.647],[-150.639,35.935],[-151.131,36.22],[-151.626,36.504],[-152.125,36.786],[-152.628,37.065],[-153.134,37.343],[-153.644,37.618],[-154.158,37.891],[-154.676,38.162],[-155.198,38.43],[-155.723,38.696],[-156.252,38.96],[-156.786,39.221],[-157.323,39.48],[-157.864,39.737],[-158.41,39.99],[-158.959,40.242],[-159.512,40.49],[-160.07,40.737],[-160.631,40.98],[-161.197,41.22],[-161.767,41.458],[-162.341,41.693],[-162.92,41.925],[-163.475,42.185],[-164.034,42.443],[-164.599,42.697],[-165.168,42.949],[-165.741,43.198],[-166.319,43.444],[-166.902,43.687],[-167.49,43.927],[-168.082,44.164],[-168.679,44.398],[-169.281,44.629],[-169.888,44.856],[-170.499,45.081],[-171.115,45.302],[-171.736,45.52],[-172.362,45.734],[-172.993,45.945],[-173.628,46.153],[-174.268,46.356],[-174.913,46.557],[-175.563,46.753],[-176.217,46.946],[-176.876,47.136],[-177.54,47.321],[-178.208,47.503],[-178.881,47.68],[-179.558,47.854],[179.76,48.024],[179.073,48.189],[178.403,48.385],[177.728,48.576],[177.048,48.764],[176.363,48.947],[175.673,49.127],[174.978,49.302],[174.278,49.473],[173.573,49.64],[172.864,49.802],[172.149,49.96],[171.43,50.114],[170.707,50.263],[169.979,50.408],[169.247,50.548],[168.51,50.684],[167.769,50.815],[167.024,50.941],[166.275,51.062],[165.522,51.179],[164.766,51.291],[164.025,51.463],[163.279,51.63],[162.527,51.793],[161.77,51.95],[161.008,52.103],[160.24,52.251],[159.468,52.394],[158.69,52.532],[157.908,52.665],[157.121,52.792],[156.33,52.914],[155.534,53.031],[154.734,53.143],[153.961,53.275],[153.183,53.403],[152.4,53.525],[151.613,53.642],[150.822,53.753],[150.027,53.86],[149.227,53.961],[148.424,54.057],[147.617,54.148],[146.807,54.233],[145.994,54.312],[145.177,54.387],[144.358,54.455],[143.536,54.518],[142.712,54.576],[141.885,54.628],[141.057,54.674],[140.226,54.715],[139.394,54.749],[138.561,54.779],[137.727,54.802],[136.892,54.82],[136.056,54.832],[135.22,54.838],[134.384,54.839],[133.691,54.664],[133.005,54.486],[132.325,54.304],[131.651,54.118],[130.983,53.928],[130.321,53.734]]}},{"type":"Feature","properties":{"boundary_type":"subduction","feature_type":"gpml:SubductionZone","polarity":"Left","overriding_plate_id":101,"subducting_plate_id":601,"plate_ids":[101,601],"name":"offshore oceanic sub zone"},"geometry":{"type":"LineString","coordinates":[[130.321,53.734],[129.58,53.511],[128.846,53.283],[128.12,53.051],[127.402,52.815],[126.692,52.574],[126.022,52.373],[125.358,52.169],[124.7,51.961]]}},{"type":"Feature","properties":{"boundary_type":"subduction","feature_type":"gpml:SubductionZone","polarity":"Right","overriding_plate_id":760,"subducting_plate_id":714,"plate_ids":[714,760],"name":"4.50 dextral fault"},"geometry":{"type":"LineString","coordinates":[[25.024,-53.654],[24.667,-53.255],[24.317,-52.854],[23.973,-52.453],[23.685,-52.001],[23.403,-51.548],[23.127,-51.095],[22.856,-50.641],[22.591,-50.187],[22.33,-49.732],[22.074,-49.276],[21.823,-48.82],[21.577,-48.363],[21.366,-47.913],[21.158,-47.462],[20.954,-47.01]]}},{"type":"Feature","properties":{"boundary_type":"subduction","feature_type":"gpml:SubductionZone","polarity":"Right","overriding_plate_id":714,"subducting_plate_id":3003,"plate_ids":[714,3003],"name":"Avalonian-Cadomian arc"},"geometry":{"type":"LineString","coordinates":[[-45.5,-59.746],[-44.8,-59.468],[-44.112,-59.186],[-43.434,-58.901],[-42.768,-58.612],[-42.113,-58.32],[-41.469,-58.024]]}},{"type":"Feature","properties":{"boundary_type":"subduction","feature_type":"gpml:SubductionZone","polarity":"Right","overriding_plate_id":714,"subducting_plate_id":98043,"plate_ids":[714,98043],"name":"Avalonian-Cadomian arc"},"geometry":{"type":"LineString","coordinates":[[-41.469,-58.024],[-40.768,-57.693],[-40.08,-57.359],[-39.404,-57.02],[-38.741,-56.678],[-38.089,-56.333],[-37.45,-55.984],[-36.822,-55.632],[-36.205,-55.277],[-35.599,-54.919],[-35.003,-54.557],[-34.419,-54.193],[-33.844,-53.826],[-33.28,-53.457],[-32.725,-53.085],[-32.18,-52.71],[-31.644,-52.333],[-31.117,-51.953],[-30.6,-51.571],[-30.09,-51.187],[-29.59,-50.801],[-29.097,-50.413],[-28.612,-50.022],[-28.136,-49.63],[-27.667,-49.235],[-27.205,-48.839],[-26.751,-48.441],[-26.304,-48.041],[-25.863,-47.64],[-25.281,-47.348],[-24.706,-47.054],[-24.137,-46.756],[-23.574,-46.456],[-23.017,-46.153],[-22.467,-45.847],[-21.923,-45.539],[-21.384,-45.228],[-20.851,-44.915],[-20.325,-44.599],[-19.804,-44.281],[-19.288,-43.96],[-18.778,-43.638],[-18.274,-43.312],[-17.775,-42.985],[-17.281,-42.656],[-16.793,-42.324],[-16.309,-41.991],[-15.831,-41.655],[-15.357,-41.318],[-14.889,-40.978],[-14.425,-40.637],[-13.966,-40.294],[-13.512,-39.949],[-13.062,-39.602],[-12.617,-39.254],[-12.176,-38.904],[-11.74,-38.552],[-11.308,-38.199],[-10.88,-37.844],[-10.29,-37.705],[-9.702,-37.563],[-9.116,-37.419],[-8.533,-37.271],[-7.952,-37.121],[-7.373,-36.968],[-6.796,-36.812],[-6.222,-36.653],[-5.651,-36.491],[-5.081,-36.327],[-4.515,-36.16],[-3.95,-35.991],[-3.388,-35.819],[-2.829,-35.644],[-2.272,-35.466],[-1.717,-35.287],[-1.165,-35.104],[-0.615,-34.919],[-0.068,-34.732],[0.477,-34.542],[1.022,-34.434],[1.567,-34.324],[2.11,-34.212],[2.651,-34.097],[3.191,-33.98],[3.729,-33.86],[4.266,-33.738],[4.802,-33.614]]}},{"type":"Feature","properties":{"boundary_type":"subduction","feature_type":"gpml:SubductionZone","polarity":"Left","overriding_plate_id":98043,"subducting_plate_id":714,"plate_ids":[714,98043],"name":"Iforas Granulite Unit SZ"},"geometry":{"type":"LineString","coordinates":[[4.802,-33.614],[5.075,-33.999],[5.35,-34.382],[5.663,-34.754],[5.978,-35.125],[6.296,-35.496],[6.617,-35.865],[6.942,-36.234],[7.269,-36.601],[7.599,-36.968]]}},{"type":"Feature","properties":{"boundary_type":"subduction","feature_type":"gpml:SubductionZone","polarity":"Left","overriding_plate_id":77144,"subducting_plate_id":714,"plate_ids":[714,77144],"name":"Iforas Granulite Unit SZ"},"geometry":{"type":"LineString","coordinates":[[7.599,-36.968],[7.953,-37.356],[8.31,-37.742],[8.671,-38.128],[8.821,-38.524],[8.973,-38.919],[9.126,-39.315],[9.281,-39.711],[9.438,-40.106],[9.753,-40.514],[10.072,-40.922],[10.395,-41.329],[10.721,-41.735],[11.052,-42.14],[11.388,-42.544],[11.727,-42.947],[12.071,-43.35],[12.42,-43.751],[12.773,-44.151],[13.131,-44.549],[13.494,-44.947],[13.862,-45.344],[14.236,-45.739],[14.614,-46.133],[15.079,-46.447],[15.548,-46.759],[16.023,-47.069],[16.504,-47.377],[17.11,-47.638],[17.721,-47.896],[18.339,-48.15]]}},{"type":"Feature","properties":{"boundary_type":"subduction","feature_type":"gpml:SubductionZone","polarity":"Right","overriding_plate_id":4012,"subducting_plate_id":3003,"plate_ids":[3003,4012],"name":"Offshore Timan ocean arc?"},"geometry":{"type":"LineString","coordinates":[[-98.672,-13.423],[-99.074,-13.675],[-99.476,-13.926],[-99.879,-14.176],[-100.283,-14.426],[-100.689,-14.675],[-101.094,-14.923],[-101.501,-15.171],[-101.909,-15.418],[-102.318,-15.664],[-102.728,-15.909],[-103.139,-16.154],[-103.55,-16.397],[-104.012,-16.6],[-104.474,-16.802],[-104.938,-17.003],[-105.402,-17.203],[-105.868,-17.402],[-106.334,-17.6],[-106.606,-18.021],[-106.879,-18.441],[-107.153,-18.862],[-107.428,-19.281],[-107.705,-19.701],[-107.984,-20.119],[-108.264,-20.538],[-108.545,-20.956],[-108.828,-21.373],[-109.113,-21.791],[-109.316,-22.244],[-109.521,-22.698],[-109.728,-23.152],[-109.935,-23.605],[-110.145,-24.058],[-110.355,-24.51],[-110.567,-24.963],[-110.781,-25.415],[-110.996,-25.866],[-111.213,-26.318],[-111.432,-26.769],[-111.652,-27.219],[-111.875,-27.67],[-112.099,-28.12],[-112.325,-28.569],[-112.552,-29.019],[-112.547,-29.207]]}},{"type":"Feature","properties":{"boundary_type":"subduction","feature_type":"gpml:SubductionZone","polarity":"Right","overriding_plate_id":101,"subducting_plate_id":3003,"plate_ids":[101,3003],"name":"Offshore Timan ocean arc?"},"geometry":{"type":"LineString","coordinates":[[-112.547,-29.207],[-112.532,-29.694],[-112.517,-30.182],[-112.502,-30.67],[-112.487,-31.157],[-112.472,-31.645],[-112.456,-32.133],[-112.441,-32.62],[-111.998,-32.919],[-111.553,-33.217],[-111.105,-33.512],[-110.654,-33.806],[-110.199,-34.099],[-109.741,-34.389],[-109.281,-34.678],[-108.743,-34.875],[-108.202,-35.069],[-107.659,-35.26],[-107.113,-35.449],[-106.565,-35.636],[-106.014,-35.82],[-105.46,-36.001],[-104.904,-36.18],[-104.346,-36.357],[-103.785,-36.53],[-103.221,-36.701],[-102.655,-36.87],[-102.109,-37.034],[-101.56,-37.195],[-101.01,-37.353],[-100.456,-37.509],[-99.901,-37.663],[-99.343,-37.814],[-98.783,-37.962],[-98.221,-38.108],[-97.656,-38.25],[-97.09,-38.391],[-96.521,-38.528],[-95.971,-38.689],[-95.419,-38.848],[-94.865,-39.004],[-94.308,-39.157],[-93.749,-39.308],[-93.187,-39.456],[-92.623,-39.601],[-92.057,-39.744],[-91.488,-39.884],[-90.917,-40.021],[-90.344,-40.155],[-89.789,-40.338],[-89.232,-40.518],[-88.671,-40.696],[-88.107,-40.87],[-87.54,-41.043],[-86.971,-41.212],[-86.398,-41.378],[-85.823,-41.542],[-85.244,-41.703],[-84.663,-41.861],[-84.079,-42.015],[-83.492,-42.167],[-82.968,-42.405],[-82.44,-42.641],[-81.909,-42.874],[-81.373,-43.105],[-80.833,-43.334],[-80.289,-43.559],[-79.741,-43.782],[-79.189,-44.003],[-78.655,-44.265],[-78.116,-44.526],[-77.573,-44.783],[-77.025,-45.038],[-76.472,-45.291],[-75.913,-45.54],[-75.35,-45.787],[-74.782,-46.031],[-74.209,-46.273],[-73.631,-46.511],[-73.048,-46.746],[-72.46,-46.979],[-71.867,-47.208],[-71.268,-47.435],[-70.97,-47.787],[-70.667,-48.139],[-70.36,-48.489]]}},{"type":"Feature","properties":{"boundary_type":"ridge","feature_type":"gpml:MidOceanRidge","polarity":null,"overriding_plate_id":null,"subducting_plate_id":null,"plate_ids":[101,4012],"name":"MoR"},"geometry":{"type":"LineString","coordinates":[[-121.781,-24.74],[-121.887,-24.268],[-121.992,-23.797],[-122.097,-23.326],[-122.2,-22.854],[-122.303,-22.383],[-122.406,-21.911],[-122.507,-21.44],[-122.608,-20.968],[-122.709,-20.496],[-122.808,-20.025],[-122.907,-19.553],[-123.006,-19.081],[-123.104,-18.609],[-123.201,-18.137],[-123.298,-17.665],[-123.395,-17.193],[-123.491,-16.721],[-123.586,-16.249],[-123.681,-15.776],[-123.776,-15.304]]}},{"type":"Feature","properties":{"boundary_type":"ridge","feature_type":"gpml:MidOceanRidge","polarity":null,"overriding_plate_id":null,"subducting_plate_id":null,"plate_ids":[101,401],"name":"MoR"},"geometry":{"type":"LineString","coordinates":[[-123.776,-15.304],[-123.87,-14.829],[-123.965,-14.353],[-124.059,-13.878],[-124.152,-13.402],[-124.245,-12.927],[-124.338,-12.451],[-124.431,-11.976],[-124.523,-11.5],[-124.615,-11.024],[-124.706,-10.549],[-124.797,-10.073],[-124.888,-9.597],[-124.979,-9.122],[-125.07,-8.646],[-125.16,-8.17],[-125.25,-7.694],[-125.34,-7.218],[-125.429,-6.743],[-125.519,-6.267],[-125.608,-5.791],[-125.697,-5.315],[-125.787,-4.839],[-125.875,-4.363],[-125.964,-3.887],[-126.053,-3.411],[-126.142,-2.935],[-126.23,-2.459],[-126.319,-1.983],[-126.407,-1.507],[-126.9,-1.54],[-127.394,-1.573],[-127.887,-1.605],[-128.38,-1.637],[-128.874,-1.669],[-129.367,-1.701],[-129.861,-1.733],[-129.909,-1.246],[-129.958,-0.759],[-130.006,-0.272],[-130.055,0.216],[-130.104,0.703],[-130.152,1.19],[-130.201,1.677],[-130.249,2.165],[-130.298,2.652],[-130.347,3.139],[-130.396,3.626],[-130.444,4.114],[-130.493,4.601],[-130.542,5.088],[-130.591,5.575],[-130.64,6.062],[-130.69,6.55],[-130.739,7.037],[-130.788,7.524],[-130.838,8.011],[-130.887,8.498],[-130.937,8.986],[-130.987,9.473],[-131.037,9.96],[-131.087,10.447],[-131.138,10.934],[-131.188,11.421],[-131.239,11.909],[-131.29,12.396],[-131.341,12.883],[-131.392,13.37],[-131.443,13.857],[-131.495,14.344],[-131.547,14.831],[-131.599,15.318],[-131.651,15.805],[-131.704,16.292],[-131.757,16.779],[-131.81,17.266],[-131.863,17.753],[-131.917,18.24],[-131.971,18.727],[-132.025,19.214],[-132.526,19.185],[-133.027,19.155],[-133.527,19.123],[-134.027,19.09],[-134.527,19.055],[-135.027,19.019],[-135.526,18.982],[-135.591,19.463],[-135.656,19.944],[-135.722,20.425],[-135.788,20.906],[-135.855,21.387],[-135.921,21.868],[-135.989,22.349],[-136.057,22.83],[-136.125,23.311],[-136.194,23.792],[-136.263,24.273],[-136.333,24.753],[-136.403,25.234],[-136.474,25.715],[-136.546,26.196],[-136.618,26.676],[-136.69,27.157],[-136.764,27.638],[-136.838,28.118],[-136.912,28.599],[-136.988,29.079]]}},{"type":"Feature","properties":{"boundary_type":"ridge","feature_type":"gpml:MidOceanRidge","polarity":null,"overriding_plate_id":null,"subducting_plate_id":null,"plate_ids":[501,580],"name":"Tarim-Lut MOR"},"geometry":{"type":"LineString","coordinates":[[5.511,19.259],[5.595,18.997],[5.679,18.734],[6.163,18.926],[6.649,19.115],[7.136,19.304],[7.624,19.491],[8.113,19.677],[8.603,19.862],[9.094,20.045],[9.587,20.227],[10.08,20.408],[10.575,20.587],[11.071,20.765],[11.568,20.941],[12.066,21.116],[12.565,21.29],[13.066,21.462],[13.568,21.632],[14.071,21.801],[14.575,21.969],[15.08,22.135],[15.587,22.299],[16.094,22.462],[16.603,22.623],[17.113,22.782],[17.624,22.94],[18.137,23.097],[18.65,23.251],[19.165,23.404],[19.681,23.556],[20.198,23.705],[20.717,23.853],[21.236,23.999],[21.302,24.366],[21.368,24.732],[21.434,25.099],[21.948,25.255],[22.464,25.409],[22.981,25.562],[23.499,25.712],[24.018,25.861],[24.539,26.008],[25.061,26.153],[25.585,26.296],[26.109,26.437],[26.635,26.577],[27.163,26.714],[27.691,26.849],[28.221,26.983],[28.752,27.114],[29.284,27.244],[29.817,27.371],[30.352,27.497],[30.183,27.851],[30.013,28.205],[29.842,28.559],[30.363,28.635],[30.885,28.708],[31.408,28.78],[31.931,28.85],[32.455,28.917],[32.98,28.983],[33.505,29.046],[34.031,29.108],[34.558,29.167],[35.085,29.225],[35.613,29.28],[36.141,29.333],[36.67,29.384],[36.715,29.046],[36.759,28.708],[37.272,28.756],[37.785,28.802],[38.299,28.847],[38.813,28.889],[39.327,28.929],[39.842,28.967],[40.358,29.004],[40.873,29.038]]}},{"type":"Feature","properties":{"boundary_type":"ridge","feature_type":"gpml:MidOceanRidge","polarity":null,"overriding_plate_id":null,"subducting_plate_id":null,"plate_ids":[601,8011],"name":"North China-Australia divergence"},"geometry":{"type":"LineString","coordinates":[[97.691,25.262],[98.097,25.246],[98.502,25.23],[98.908,25.212],[99.206,25.586],[99.505,25.96],[99.807,26.333],[100.11,26.705],[100.415,27.077],[100.859,27.022],[101.302,26.965],[101.745,26.907],[102.001,27.305],[102.259,27.703],[102.518,28.101],[102.78,28.498],[103.043,28.895],[103.309,29.291],[103.576,29.686],[103.846,30.081],[104.118,30.476],[104.392,30.87],[104.966,30.84],[105.54,30.808],[106.113,30.773],[106.317,31.19],[106.523,31.607],[106.732,32.024],[106.942,32.44],[107.153,32.855],[107.367,33.271],[107.583,33.686],[107.801,34.1],[108.399,34.078],[108.997,34.052],[109.594,34.024],[110.19,33.993],[110.787,33.959],[111.382,33.922],[111.978,33.882],[112.572,33.839],[113.166,33.794],[113.76,33.746],[114.352,33.694],[114.944,33.64],[115.536,33.584],[116.126,33.524],[116.716,33.462],[116.769,33.929],[116.824,34.396],[116.878,34.863],[116.934,35.33],[117.52,35.288],[118.105,35.243],[118.689,35.196],[119.273,35.145],[119.856,35.092]]}},{"type":"Feature","properties":{"boundary_type":"ridge","feature_type":"gpml:MidOceanRidge","polarity":null,"overriding_plate_id":null,"subducting_plate_id":null,"plate_ids":[101,601],"name":"North China-Australia divergence"},"geometry":{"type":"LineString","coordinates":[[119.856,35.092],[120.015,35.077]]}},{"type":"Feature","properties":{"boundary_type":"ridge","feature_type":"gpml:MidOceanRidge","polarity":null,"overriding_plate_id":null,"subducting_plate_id":null,"plate_ids":[3003,98043],"name":"Mirovoi MOR"},"geometry":{"type":"LineString","coordinates":[[-63.496,-10.356],[-63.246,-10.245]]}},{"type":"Feature","properties":{"boundary_type":"ridge","feature_type":"gpml:MidOceanRidge","polarity":null,"overriding_plate_id":null,"subducting_plate_id":null,"plate_ids":[98043,98044],"name":"Mirovoi MOR"},"geometry":{"type":"LineString","coordinates":[[-63.246,-10.245],[-62.787,-10.04],[-62.329,-9.834],[-61.871,-9.628],[-61.413,-9.422],[-60.956,-9.215],[-60.5,-9.007],[-60.044,-8.798],[-59.589,-8.59],[-59.134,-8.38],[-58.68,-8.17],[-58.226,-7.96],[-58.309,-7.506],[-58.391,-7.053],[-58.473,-6.599],[-58.556,-6.146],[-58.638,-5.692],[-58.719,-5.239],[-58.257,-5.056],[-57.796,-4.872],[-57.334,-4.689],[-56.873,-4.505],[-56.412,-4.32],[-55.952,-4.135],[-55.491,-3.951],[-55.031,-3.765],[-54.571,-3.58],[-54.111,-3.394],[-53.651,-3.209],[-53.192,-3.022],[-52.732,-2.836],[-52.273,-2.65],[-51.814,-2.463],[-51.355,-2.276],[-50.896,-2.089],[-50.437,-1.902],[-49.979,-1.715],[-49.52,-1.528],[-49.062,-1.341],[-48.603,-1.153],[-48.145,-0.966],[-47.686,-0.778],[-47.228,-0.59],[-46.77,-0.403],[-46.312,-0.215],[-45.854,-0.027],[-45.395,0.161],[-44.937,0.348],[-44.479,0.536],[-44.021,0.724],[-43.562,0.911],[-43.104,1.099],[-42.646,1.286],[-42.187,1.474],[-41.729,1.661],[-41.27,1.848],[-40.811,2.035],[-40.352,2.222],[-39.894,2.409],[-39.434,2.596],[-38.975,2.782],[-39.138,3.247],[-39.3,3.711],[-39.463,4.176],[-39.626,4.641],[-39.79,5.105],[-39.953,5.57],[-39.505,5.795],[-39.056,6.021],[-38.607,6.246],[-38.158,6.47],[-37.708,6.695],[-37.258,6.918],[-36.807,7.142],[-36.356,7.365],[-35.904,7.587],[-35.452,7.809],[-35.0,8.031],[-34.547,8.252],[-34.093,8.473],[-33.639,8.693],[-33.185,8.912],[-32.73,9.131],[-32.274,9.349],[-31.818,9.567],[-31.361,9.784],[-30.903,10.001],[-30.445,10.217],[-29.987,10.432],[-29.527,10.647],[-29.068,10.861],[-28.607,11.074],[-28.146,11.287],[-27.684,11.499],[-27.221,11.71],[-26.758,11.92],[-26.294,12.13],[-25.829,12.339],[-25.363,12.547],[-24.897,12.754],[-24.43,12.961],[-23.962,13.166],[-23.494,13.371],[-23.024,13.575],[-22.554,13.778],[-22.083,13.98],[-21.611,14.182],[-21.138,14.382],[-20.665,14.581],[-20.191,14.78],[-19.715,14.977],[-19.239,15.174],[-18.762,15.369],[-18.284,15.564],[-17.805,15.757],[-17.326,15.949],[-16.845,16.141],[-16.364,16.331],[-15.881,16.52],[-15.591,16.168],[-15.301,15.815],[-15.013,15.462],[-14.726,15.109],[-14.439,14.755],[-13.933,14.85],[-13.427,14.943],[-12.92,15.036],[-12.413,15.127],[-11.905,15.217],[-11.397,15.306],[-10.888,15.393],[-10.379,15.48],[-9.87,15.565],[-9.36,15.65],[-8.85,15.733],[-8.339,15.815],[-7.828,15.895],[-7.317,15.975],[-6.805,16.053],[-6.293,16.13],[-5.78,16.206],[-5.267,16.281],[-4.753,16.354],[-4.239,16.426],[-3.725,16.497],[-3.211,16.567],[-2.696,16.635],[-2.18,16.702],[-1.665,16.768],[-1.149,16.833],[-0.632,16.896],[-0.116,16.958],[0.401,17.018],[0.919,17.078],[1.437,17.136],[1.955,17.193],[2.473,17.248],[2.992,17.302],[3.511,17.355],[4.03,17.406],[4.549,17.456],[5.069,17.505],[5.589,17.552]]}},{"type":"Feature","properties":{"boundary_type":"ridge","feature_type":"gpml:MidOceanRidge","polarity":null,"overriding_plate_id":null,"subducting_plate_id":null,"plate_ids":[3003,98044],"name":"Mirovoi MOR"},"geometry":{"type":"LineString","coordinates":[[-88.803,16.703],[-88.415,16.381],[-88.028,16.058],[-87.642,15.735],[-87.257,15.411],[-86.874,15.086],[-86.492,14.76],[-86.111,14.434],[-85.731,14.108],[-85.352,13.78],[-84.975,13.453],[-84.598,13.124],[-84.222,12.795],[-83.848,12.466],[-83.474,12.136],[-83.101,11.805],[-82.729,11.474],[-82.358,11.143],[-81.988,10.811],[-81.619,10.479],[-81.25,10.146],[-80.882,9.813],[-80.515,9.479],[-80.149,9.145],[-79.783,8.811],[-79.418,8.476],[-79.054,8.141],[-78.69,7.806],[-78.327,7.47],[-77.964,7.134],[-77.602,6.798],[-77.241,6.461],[-76.879,6.125],[-76.519,5.788],[-76.159,5.45],[-75.799,5.113],[-75.439,4.775],[-75.08,4.437],[-74.721,4.099],[-74.363,3.761],[-74.005,3.423],[-73.647,3.085],[-73.289,2.746],[-72.932,2.407],[-72.574,2.069],[-72.217,1.73],[-71.86,1.391],[-71.503,1.052],[-71.883,0.745],[-72.262,0.437],[-72.641,0.13],[-73.021,-0.178],[-73.4,-0.485],[-73.054,-0.824],[-72.707,-1.162],[-72.361,-1.501],[-72.015,-1.839],[-71.668,-2.178],[-71.321,-2.516],[-70.974,-2.854],[-70.627,-3.192],[-70.28,-3.53],[-69.932,-3.868],[-69.584,-4.205],[-69.236,-4.543],[-68.887,-4.88],[-68.538,-5.217],[-68.189,-5.554],[-67.84,-5.891],[-67.489,-6.228],[-67.139,-6.564],[-66.788,-6.9],[-66.436,-7.236],[-66.084,-7.572],[-65.732,-7.907],[-65.379,-8.242],[-65.025,-8.576],[-64.67,-8.911],[-64.315,-9.245],[-63.96,-9.578],[-63.603,-9.912],[-63.246,-10.245]]}},{"type":"Feature","properties":{"boundary_type":"ridge","feature_type":"gpml:MidOceanRidge","polarity":null,"overriding_plate_id":null,"subducting_plate_id":null,"plate_ids":[801,77030],"name":"Aus-DML MoR"},"geometry":{"type":"LineString","coordinates":[[126.119,-28.984],[125.729,-28.658],[125.342,-28.331],[124.957,-28.003],[124.574,-27.674],[124.194,-27.344],[123.816,-27.013],[123.44,-26.68],[123.066,-26.347],[122.695,-26.013],[122.325,-25.678],[121.958,-25.342],[121.593,-25.005],[121.23,-24.667],[120.868,-24.328],[120.509,-23.988],[120.151,-23.648],[119.818,-24.02],[119.483,-24.391],[119.093,-24.064],[118.705,-23.735],[118.319,-23.405],[117.935,-23.074],[117.552,-22.742],[117.172,-22.41],[116.793,-22.076],[116.416,-21.742],[116.041,-21.407],[115.668,-21.071],[115.296,-20.734],[114.926,-20.396],[115.19,-20.136],[115.453,-19.876],[115.067,-19.547],[114.682,-19.216],[114.299,-18.885],[113.917,-18.553],[113.537,-18.22],[113.158,-17.886],[112.781,-17.552],[112.405,-17.217],[112.03,-16.881],[111.657,-16.545],[111.285,-16.208],[110.914,-15.87],[110.663,-16.093],[110.412,-16.316],[110.121,-15.991],[109.832,-15.666],[109.543,-15.341],[109.256,-15.015],[108.969,-14.689],[108.683,-14.362]]}},{"type":"Feature","properties":{"boundary_type":"ridge","feature_type":"gpml:MidOceanRidge","polarity":null,"overriding_plate_id":null,"subducting_plate_id":null,"plate_ids":[3003,98043],"name":"MoR"},"geometry":{"type":"LineString","coordinates":[[-63.496,-10.356],[-63.431,-10.839],[-63.365,-11.322],[-63.3,-11.805],[-63.234,-12.288],[-63.167,-12.771],[-63.101,-13.254],[-63.034,-13.737],[-62.967,-14.22],[-62.9,-14.703],[-62.832,-15.186],[-62.764,-15.669],[-62.696,-16.152],[-62.628,-16.634],[-62.559,-17.117],[-62.114,-17.125],[-61.668,-17.131],[-61.223,-17.137],[-60.777,-17.142],[-60.702,-17.631],[-60.626,-18.121],[-60.55,-18.61],[-60.473,-19.1],[-60.396,-19.589],[-60.319,-20.078],[-60.241,-20.568],[-60.162,-21.057],[-60.083,-21.546],[-60.003,-22.035],[-59.923,-22.524],[-59.842,-23.013],[-59.761,-23.503],[-59.679,-23.992],[-59.597,-24.481],[-59.513,-24.969],[-59.43,-25.458],[-59.345,-25.947],[-59.26,-26.436],[-59.174,-26.925],[-59.087,-27.413],[-59.0,-27.902],[-58.911,-28.391],[-58.822,-28.879],[-58.732,-29.368],[-58.641,-29.856],[-58.154,-29.846],[-57.667,-29.835],[-57.18,-29.821],[-56.693,-29.806],[-56.584,-30.293],[-56.475,-30.78],[-56.364,-31.267],[-56.252,-31.754],[-56.139,-32.24],[-56.024,-32.727],[-55.909,-33.213],[-55.792,-33.699],[-55.674,-34.186],[-55.554,-34.672],[-55.433,-35.158],[-55.311,-35.643],[-55.187,-36.129],[-55.061,-36.615],[-54.934,-37.1],[-54.806,-37.585],[-54.675,-38.071],[-54.543,-38.556],[-54.409,-39.04],[-54.273,-39.525],[-54.136,-40.01],[-53.996,-40.494],[-53.854,-40.978],[-53.711,-41.462],[-53.565,-41.946],[-53.416,-42.43],[-53.266,-42.913],[-53.113,-43.397],[-52.958,-43.88],[-52.8,-44.363],[-52.197,-44.454],[-51.592,-44.543],[-50.985,-44.629],[-50.377,-44.711],[-50.145,-45.179],[-49.909,-45.647],[-49.668,-46.115],[-49.424,-46.582],[-49.176,-47.049],[-48.923,-47.515],[-48.666,-47.98],[-48.404,-48.445],[-48.137,-48.909],[-47.865,-49.373],[-47.588,-49.835],[-47.305,-50.298],[-47.017,-50.759],[-46.724,-51.22],[-46.424,-51.68],[-46.118,-52.14],[-45.806,-52.598],[-45.487,-53.056],[-45.162,-53.513],[-44.829,-53.968],[-44.489,-54.423],[-44.142,-54.877],[-43.786,-55.33],[-43.422,-55.782],[-43.05,-56.233],[-42.669,-56.683],[-42.279,-57.131],[-41.879,-57.578],[-41.469,-58.024]]}},{"type":"Feature","properties":{"boundary_type":"ridge","feature_type":"gpml:MidOceanRidge","polarity":null,"overriding_plate_id":null,"subducting_plate_id":null,"plate_ids":[714,77144],"name":"Hoggar-Borborema divergence"},"geometry":{"type":"LineString","coordinates":[[18.339,-48.15],[18.848,-48.017],[19.355,-47.882],[19.858,-47.744],[19.542,-47.353],[19.735,-47.307]]}},{"type":"Feature","properties":{"boundary_type":"ridge","feature_type":"gpml:MidOceanRidge","polarity":null,"overriding_plate_id":null,"subducting_plate_id":null,"plate_ids":[714,760],"name":"Hoggar-Borborema divergence"},"geometry":{"type":"LineString","coordinates":[[19.735,-47.307],[20.346,-47.16],[20.954,-47.01]]}},{"type":"Feature","properties":{"boundary_type":"ridge","feature_type":"gpml:MidOceanRidge","polarity":null,"overriding_plate_id":null,"subducting_plate_id":null,"plate_ids":[760,760],"name":"Hoggar-Borborema divergence"},"geometry":{"type":"LineString","coordinates":[[20.954,-47.01],[21.52,-46.866],[22.084,-46.719],[22.645,-46.57],[23.202,-46.418],[22.95,-46.072],[23.57,-45.892],[24.186,-45.709],[24.798,-45.523],[25.405,-45.333],[26.009,-45.14],[26.608,-44.944],[26.472,-44.678],[26.337,-44.413],[26.853,-44.227],[27.365,-44.038],[27.874,-43.847],[28.38,-43.654],[28.883,-43.459]]}},{"type":"Feature","properties":{"boundary_type":"ridge","feature_type":"gpml:MidOceanRidge","polarity":null,"overriding_plate_id":null,"subducting_plate_id":null,"plate_ids":[715,760],"name":"Hoggar-Borborema divergence"},"geometry":{"type":"LineString","coordinates":[[28.883,-43.459],[29.372,-43.265]]}},{"type":"Feature","properties":{"boundary_type":"ridge","feature_type":"gpml:MidOceanRidge","polarity":null,"overriding_plate_id":null,"subducting_plate_id":null,"plate_ids":[501,98044],"name":"india closure"},"geometry":{"type":"LineString","coordinates":[[5.051,18.682],[5.281,18.971],[5.511,19.259]]}},{"type":"Feature","properties":{"boundary_type":"ridge","feature_type":"gpml:MidOceanRidge","polarity":null,"overriding_plate_id":null,"subducting_plate_id":null,"plate_ids":[580,98044],"name":"india closure"},"geometry":{"type":"LineString","coordinates":[[5.511,19.259],[5.828,19.654],[6.146,20.049],[6.466,20.443],[6.788,20.836],[7.111,21.229],[7.436,21.621],[7.763,22.013],[8.091,22.404],[8.422,22.794],[8.754,23.183],[9.088,23.572],[9.424,23.96],[9.763,24.347],[10.103,24.734],[10.446,25.12],[10.79,25.505],[11.137,25.889],[11.486,26.272],[11.837,26.655],[12.191,27.037],[12.547,27.417],[12.906,27.797],[13.267,28.176],[13.631,28.554],[13.997,28.931],[14.366,29.307],[14.738,29.682],[15.112,30.056],[15.49,30.429],[15.87,30.801],[16.253,31.171],[16.639,31.541],[17.029,31.909],[17.421,32.276],[17.817,32.642],[17.609,33.02],[17.401,33.398],[17.19,33.775],[16.977,34.152],[16.763,34.529],[17.138,34.914],[17.516,35.299],[17.898,35.682],[18.284,36.064],[18.673,36.445],[19.067,36.825],[19.464,37.203],[19.865,37.58],[20.271,37.955],[20.68,38.329],[21.094,38.702],[21.512,39.073],[21.934,39.443],[22.361,39.811],[22.793,40.178],[23.229,40.543],[23.67,40.906],[24.116,41.268],[24.567,41.627],[25.023,41.986],[25.484,42.342],[25.95,42.696],[26.421,43.049],[26.898,43.399],[27.381,43.748],[27.869,44.094],[28.363,44.439],[28.863,44.781],[29.369,45.121],[29.88,45.458],[30.398,45.794],[30.922,46.127],[31.453,46.458],[31.99,46.786],[32.533,47.111],[33.084,47.434],[33.64,47.755],[34.204,48.072],[34.775,48.387],[35.353,48.699],[35.938,49.008],[36.53,49.314],[37.13,49.617],[37.737,49.917],[38.352,50.214],[38.974,50.507],[39.604,50.797],[40.242,51.084]]}},{"type":"Feature","properties":{"boundary_type":"ridge","feature_type":"gpml:MidOceanRidge","polarity":null,"overriding_plate_id":null,"subducting_plate_id":null,"plate_ids":[501,98044],"name":"india closure"},"geometry":{"type":"LineString","coordinates":[[40.242,51.084],[40.686,51.279],[41.134,51.472],[40.849,51.883],[40.559,52.292],[40.263,52.701],[39.962,53.109],[40.637,53.395],[41.321,53.677],[42.014,53.955],[42.716,54.229],[43.427,54.499],[44.148,54.765],[44.879,55.026],[45.618,55.283],[46.368,55.536],[47.127,55.784],[47.895,56.027],[48.674,56.265],[49.461,56.498],[50.259,56.726],[51.066,56.95],[51.883,57.167],[52.709,57.38],[53.545,57.587],[54.39,57.788],[55.245,57.984],[56.109,58.174],[56.982,58.358],[57.864,58.536],[58.755,58.708],[59.654,58.874],[60.562,59.033],[61.478,59.186],[62.403,59.333],[63.335,59.472],[64.275,59.606],[65.222,59.732],[66.176,59.852],[67.136,59.964],[68.104,60.07],[69.077,60.168],[70.055,60.26],[71.039,60.344],[72.028,60.421],[73.021,60.49]]}},{"type":"Feature","properties":{"boundary_type":"ridge","feature_type":"gpml:MidOceanRidge","polarity":null,"overriding_plate_id":null,"subducting_plate_id":null,"plate_ids":[601,98044],"name":"india closure"},"geometry":{"type":"LineString","coordinates":[[73.021,60.49],[73.978,60.55],[74.939,60.602],[75.396,60.164],[75.842,59.723],[76.276,59.281],[76.699,58.838],[77.111,58.393],[78.052,58.443],[78.996,58.486],[79.941,58.522],[80.888,58.551],[81.837,58.573],[82.786,58.588],[83.736,58.596],[84.687,58.597],[85.637,58.591],[86.587,58.578],[87.536,58.558],[88.483,58.531],[89.429,58.497],[90.373,58.456],[91.315,58.408],[92.253,58.353],[93.189,58.292],[94.121,58.224],[95.05,58.148],[95.974,58.067],[96.895,57.978],[97.81,57.883],[98.72,57.781],[99.625,57.673],[100.525,57.559],[101.419,57.438],[102.306,57.31],[103.188,57.177],[104.063,57.038],[104.931,56.892],[105.792,56.74],[106.647,56.583],[107.494,56.42],[108.334,56.251],[109.166,56.076],[109.99,55.896],[110.807,55.71],[111.616,55.519],[112.417,55.323],[112.815,55.624],[113.218,55.923],[113.628,56.221],[114.044,56.518],[114.853,56.306],[115.653,56.09],[116.444,55.868],[117.226,55.642],[117.999,55.41],[118.763,55.174],[119.517,54.933],[120.263,54.687],[120.999,54.437],[121.727,54.183],[122.37,54.406],[123.021,54.626],[123.678,54.842],[124.342,55.055],[125.013,55.264],[125.692,55.469],[126.377,55.233],[127.055,54.992],[127.724,54.748],[128.385,54.499],[129.039,54.248],[129.684,53.993],[130.321,53.734]]}},{"type":"Feature","properties":{"boundary_type":"ridge","feature_type":"gpml:MidOceanRidge","polarity":null,"overriding_plate_id":null,"subducting_plate_id":null,"plate_ids":[101,77030],"name":"CLB-Laur MoR"},"geometry":{"type":"LineString","coordinates":[[154.86,-38.664],[154.339,-38.398],[153.822,-38.129],[154.175,-37.835],[154.525,-37.54],[154.873,-37.244],[155.218,-36.947],[154.741,-36.668],[154.267,-36.388],[153.797,-36.105],[153.33,-35.82],[152.866,-35.534],[152.405,-35.246],[151.948,-34.956],[151.494,-34.665],[151.044,-34.372],[150.596,-34.077],[150.152,-33.781],[149.71,-33.483],[149.272,-33.183],[148.837,-32.882],[148.404,-32.58],[148.703,-32.201],[149.0,-31.821],[149.294,-31.44],[149.586,-31.059],[149.18,-30.701],[148.778,-30.342],[148.378,-29.981],[147.981,-29.62],[147.587,-29.257],[147.196,-28.893],[146.808,-28.527],[146.422,-28.161],[146.039,-27.794],[145.658,-27.425],[145.28,-27.056],[144.905,-26.686],[144.532,-26.314],[144.161,-25.942],[144.46,-25.558],[144.758,-25.175],[145.053,-24.79],[145.347,-24.405],[145.639,-24.019],[145.93,-23.633],[146.218,-23.246],[146.505,-22.859],[146.79,-22.471],[147.074,-22.083],[146.734,-21.769],[146.395,-21.454],[146.058,-21.138],[145.722,-20.822],[145.387,-20.505],[145.054,-20.187],[144.722,-19.869],[144.392,-19.55],[144.063,-19.231]]}},{"type":"Feature","properties":{"boundary_type":"ridge","feature_type":"gpml:MidOceanRidge","polarity":null,"overriding_plate_id":null,"subducting_plate_id":null,"plate_ids":[801,77030],"name":"CLB-Laur MoR"},"geometry":{"type":"LineString","coordinates":[[144.063,-19.231],[143.757,-18.932],[143.452,-18.633],[143.148,-18.333],[142.846,-18.033]]}},{"type":"Feature","properties":{"boundary_type":"ridge","feature_type":"gpml:MidOceanRidge","polarity":null,"overriding_plate_id":null,"subducting_plate_id":null,"plate_ids":[101,801],"name":"NAC-SAC MOR"},"geometry":{"type":"LineString","coordinates":[[123.177,20.147],[122.805,20.227]]}},{"type":"Feature","properties":{"boundary_type":"ridge","feature_type":"gpml:MidOceanRidge","polarity":null,"overriding_plate_id":null,"subducting_plate_id":null,"plate_ids":[801,8011],"name":"NAC-SAC MOR"},"geometry":{"type":"LineString","coordinates":[[122.805,20.227],[122.38,20.317],[121.955,20.407],[121.53,20.495],[121.385,20.071],[121.241,19.647],[121.098,19.223],[120.955,18.798],[120.813,18.374],[120.329,18.429],[119.844,18.484],[119.359,18.537],[118.874,18.588],[118.389,18.639],[117.903,18.688],[117.417,18.736],[116.93,18.783],[116.444,18.829],[115.957,18.873],[115.47,18.916],[115.256,18.588],[115.043,18.26],[114.831,17.932],[114.62,17.603],[114.218,17.701],[113.816,17.797],[113.413,17.892],[113.009,17.987]]}},{"type":"Feature","properties":{"boundary_type":"ridge","feature_type":"gpml:MidOceanRidge","polarity":null,"overriding_plate_id":null,"subducting_plate_id":null,"plate_ids":[101,801],"name":"Australia-Laurentia spreading"},"geometry":{"type":"LineString","coordinates":[[144.063,-19.231],[144.269,-19.146],[144.661,-18.988],[145.052,-18.829],[145.443,-18.67],[145.832,-18.51],[146.221,-18.349],[146.063,-17.921],[145.905,-17.493],[145.748,-17.064],[145.592,-16.636],[145.436,-16.208],[145.281,-15.779],[145.127,-15.351],[145.59,-15.132],[146.053,-14.912],[146.515,-14.691],[146.975,-14.469],[147.435,-14.246],[147.894,-14.023],[148.352,-13.798],[148.809,-13.573],[149.265,-13.347],[149.721,-13.12],[150.175,-12.892],[150.629,-12.664],[151.082,-12.435],[151.534,-12.205],[151.352,-11.763],[151.171,-11.321],[150.99,-10.879],[150.81,-10.436],[150.578,-10.079],[150.347,-9.721],[150.116,-9.364],[149.886,-9.006],[149.656,-8.648],[150.06,-8.408],[150.463,-8.168],[150.866,-7.927],[151.268,-7.686],[151.67,-7.445],[152.071,-7.203],[152.472,-6.961],[152.873,-6.718],[153.273,-6.475],[153.673,-6.232],[154.072,-5.989],[153.832,-5.597],[153.593,-5.206],[153.354,-4.814],[153.115,-4.422],[152.877,-4.03],[152.639,-3.638],[152.318,-3.288],[151.998,-2.938],[151.678,-2.587],[151.358,-2.237],[151.039,-1.886],[150.719,-1.535],[151.015,-1.189],[151.311,-0.842],[151.607,-0.495],[151.903,-0.148],[152.2,0.199],[152.496,0.545],[152.792,0.892],[153.088,1.239],[152.788,1.576],[152.488,1.913],[152.188,2.25]]}},{"type":"Feature","properties":{"boundary_type":"ridge","feature_type":"gpml:MidOceanRidge","polarity":null,"overriding_plate_id":null,"subducting_plate_id":null,"plate_ids":[101,601],"name":"Proto-Pacific ridge"},"geometry":{"type":"LineString","coordinates":[[120.015,35.077],[120.338,35.49],[120.665,35.902],[120.996,36.312],[121.33,36.722],[121.667,37.131],[122.008,37.539],[122.353,37.946],[122.702,38.352],[123.054,38.757],[123.411,39.161],[123.772,39.564],[124.137,39.966],[124.506,40.366],[124.88,40.766],[125.258,41.164],[125.641,41.561],[126.028,41.956],[125.642,42.349],[125.251,42.741],[124.855,43.131],[124.453,43.52],[124.047,43.908],[123.635,44.294],[123.218,44.679],[123.605,45.089],[123.999,45.497],[124.398,45.904],[124.803,46.31],[125.214,46.714],[125.631,47.117],[126.055,47.518],[126.485,47.917],[126.922,48.315],[127.365,48.712],[127.816,49.106],[128.274,49.499],[127.786,49.857],[127.291,50.214],[126.788,50.568],[126.278,50.919],[125.76,51.269],[125.234,51.616],[124.7,51.961]]}},{"type":"Feature","properties":{"boundary_type":"ridge","feature_type":"gpml:MidOceanRidge","polarity":null,"overriding_plate_id":null,"subducting_plate_id":null,"plate_ids":[101,714],"name":""},"geometry":{"type":"LineString","coordinates":[[146.989,-51.416],[146.825,-51.901],[146.658,-52.385],[146.487,-52.87],[146.313,-53.354],[146.134,-53.838],[145.951,-54.322],[145.764,-54.805],[145.573,-55.289],[145.376,-55.771],[145.175,-56.254],[144.968,-56.736],[144.757,-57.218],[144.539,-57.699],[144.316,-58.18],[144.087,-58.661],[143.851,-59.141],[143.608,-59.621],[143.359,-60.101],[143.102,-60.58],[142.837,-61.058],[142.564,-61.536],[142.283,-62.013],[141.993,-62.49],[141.693,-62.966],[141.384,-63.441],[141.064,-63.916],[140.733,-64.39],[140.39,-64.863],[140.035,-65.336],[139.667,-65.807],[139.286,-66.278],[138.89,-66.747],[138.478,-67.216],[138.051,-67.684],[137.605,-68.15],[137.142,-68.615],[136.634,-69.067],[136.105,-69.518],[135.553,-69.968],[134.976,-70.415],[134.374,-70.861],[133.744,-71.304],[133.085,-71.746],[132.395,-72.185],[131.671,-72.621],[130.911,-73.055],[130.112,-73.485],[129.272,-73.913],[128.387,-74.337],[127.455,-74.757],[126.471,-75.174],[125.432,-75.585],[124.334,-75.992],[123.172,-76.394],[121.941,-76.79],[120.635,-77.18],[122.374,-77.46],[124.189,-77.729],[126.081,-77.985],[128.053,-78.227],[130.105,-78.456],[132.235,-78.669],[134.443,-78.867],[136.726,-79.048],[139.081,-79.212],[141.504,-79.357],[140.483,-79.786],[139.374,-80.211],[138.166,-80.632],[136.846,-81.049],[135.398,-81.461],[133.807,-81.867],[132.05,-82.266],[130.106,-82.657],[127.948,-83.038],[125.544,-83.409],[122.86,-83.767],[119.857,-84.11],[123.774,-84.42],[128.127,-84.701],[132.935,-84.948],[138.195,-85.156],[143.874,-85.321],[149.903,-85.436],[156.17,-85.499],[162.538,-85.508],[168.851,-85.461],[174.964,-85.361],[-179.243,-85.21],[-173.852,-85.015],[-168.908,-84.778],[-164.42,-84.507],[-161.047,-84.871],[-157.175,-85.215],[-152.729,-85.534],[-147.637,-85.822],[-141.846,-86.073],[-135.344,-86.278],[-128.187,-86.431],[-120.524,-86.523],[-112.591,-86.551],[-104.682,-86.513],[-97.085,-86.41],[-90.025,-86.249],[-83.634,-86.036],[-77.956,-85.779],[-72.971,-85.485],[-68.622,-85.162],[-64.834,-84.815],[-61.534,-84.448],[-58.649,-84.064],[-56.119,-83.668],[-53.889,-83.261],[-57.319,-83.026],[-60.515,-82.768],[-63.484,-82.489],[-66.235,-82.192],[-68.78,-81.878],[-71.132,-81.549],[-73.307,-81.208],[-75.318,-80.855],[-77.178,-80.492],[-78.901,-80.12],[-80.499,-79.739],[-78.386,-79.425],[-76.397,-79.098],[-74.524,-78.758],[-72.761,-78.408],[-71.102,-78.047],[-69.539,-77.678],[-68.068,-77.3],[-66.68,-76.914],[-65.372,-76.521],[-64.137,-76.122],[-62.97,-75.717],[-61.867,-75.307],[-60.822,-74.892],[-59.833,-74.472],[-61.108,-74.169],[-62.336,-73.859],[-63.518,-73.543],[-64.657,-73.219],[-65.753,-72.89],[-66.809,-72.555],[-67.826,-72.215],[-68.806,-71.87],[-69.75,-71.52],[-70.661,-71.166],[-71.538,-70.807],[-72.384,-70.444],[-71.246,-70.146],[-70.14,-69.84],[-69.066,-69.528],[-68.024,-69.209],[-67.012,-68.885],[-66.029,-68.554],[-65.075,-68.218],[-64.149,-67.877],[-63.25,-67.53],[-62.377,-67.179],[-61.529,-66.823],[-60.706,-66.463],[-59.906,-66.098],[-59.129,-65.73],[-58.374,-65.357],[-57.64,-64.981],[-56.926,-64.602],[-56.233,-64.219],[-55.558,-63.833],[-54.902,-63.443],[-54.263,-63.051],[-53.641,-62.656],[-53.036,-62.259],[-52.446,-61.859],[-51.872,-61.456],[-51.313,-61.051],[-50.767,-60.644],[-50.235,-60.235],[-49.717,-59.823],[-49.211,-59.41]]}},{"type":"Feature","properties":{"boundary_type":"transform","feature_type":"gpml:Transform","polarity":null,"overriding_plate_id":null,"subducting_plate_id":null,"plate_ids":[760,77144],"name":"4.50 dextral fault"},"geometry":{"type":"LineString","coordinates":[[19.735,-47.307],[19.471,-46.867],[19.21,-46.425],[18.954,-45.984],[18.702,-45.541],[18.454,-45.098],[18.209,-44.655],[17.969,-44.211],[17.732,-43.766],[17.498,-43.321],[17.268,-42.876],[17.041,-42.43],[16.817,-41.983],[16.737,-41.571],[16.658,-41.159],[16.579,-40.747],[16.502,-40.335],[16.426,-39.923]]}},{"type":"Feature","properties":{"boundary_type":"transform","feature_type":"gpml:Transform","polarity":null,"overriding_plate_id":null,"subducting_plate_id":null,"plate_ids":[101,4012],"name":"transform"},"geometry":{"type":"LineString","coordinates":[[-121.781,-24.74],[-121.347,-25.026],[-120.911,-25.31],[-120.472,-25.594],[-120.032,-25.876],[-119.589,-26.157],[-119.145,-26.436],[-118.698,-26.714],[-118.249,-26.991],[-117.798,-27.266],[-117.345,-27.54],[-116.889,-27.812],[-116.431,-28.083],[-115.971,-28.352],[-115.485,-28.479],[-114.998,-28.605],[-114.51,-28.729],[-114.021,-28.851],[-113.531,-28.971],[-113.039,-29.09],[-112.547,-29.207]]}},{"type":"Feature","properties":{"boundary_type":"transform","feature_type":"gpml:Transform","polarity":null,"overriding_plate_id":null,"subducting_plate_id":null,"plate_ids":[101,8011],"name":"NAC transform"},"geometry":{"type":"LineString","coordinates":[[119.856,35.092],[119.984,34.748],[120.111,34.403],[120.237,34.058],[120.417,33.585],[120.595,33.111],[120.771,32.636],[120.945,32.162],[121.117,31.687],[121.288,31.212],[121.457,30.737],[121.624,30.261],[121.79,29.785],[121.954,29.309],[122.116,28.833],[122.229,28.399],[122.34,27.964],[122.45,27.529],[122.559,27.094],[122.668,26.659],[122.776,26.224],[122.883,25.788],[122.989,25.353],[123.095,24.877],[123.201,24.401],[123.306,23.925],[123.248,23.466],[123.191,23.006],[123.134,22.546],[123.077,22.086],[123.021,21.626],[122.964,21.167],[122.909,20.707],[122.805,20.227]]}},{"type":"Feature","properties":{"boundary_type":"transform","feature_type":"gpml:Transform","polarity":null,"overriding_plate_id":null,"subducting_plate_id":null,"plate_ids":[5031,5032],"name":"transform"},"geometry":{"type":"LineString","coordinates":[[54.268,-19.195],[54.247,-19.593],[54.226,-19.992],[54.205,-20.391],[54.184,-20.789],[54.062,-21.205],[53.94,-21.62],[53.818,-22.036],[53.694,-22.451]]}},{"type":"Feature","properties":{"boundary_type":"transform","feature_type":"gpml:Transform","polarity":null,"overriding_plate_id":null,"subducting_plate_id":null,"plate_ids":[701,715],"name":"transform"},"geometry":{"type":"LineString","coordinates":[[56.162,-25.694],[56.183,-26.038],[56.203,-26.382]]}},{"type":"Feature","properties":{"boundary_type":"transform","feature_type":"gpml:Transform","polarity":null,"overriding_plate_id":null,"subducting_plate_id":null,"plate_ids":[715,98043],"name":"8.50 fault?"},"geometry":{"type":"LineString","coordinates":[[14.533,-29.637],[14.72,-30.099],[14.908,-30.562],[15.099,-31.023],[15.291,-31.485],[15.484,-31.946],[15.68,-32.407],[15.83,-32.808],[15.982,-33.208],[16.134,-33.608],[16.289,-34.008],[16.444,-34.407],[16.59,-34.63]]}},{"type":"Feature","properties":{"boundary_type":"transform","feature_type":"gpml:Transform","polarity":null,"overriding_plate_id":null,"subducting_plate_id":null,"plate_ids":[715,760],"name":"8.50 fault?"},"geometry":{"type":"LineString","coordinates":[[16.59,-34.63],[16.84,-35.01],[17.093,-35.39],[17.347,-35.769],[17.605,-36.147],[17.864,-36.525],[18.127,-36.902]]}},{"type":"Feature","properties":{"boundary_type":"transform","feature_type":"gpml:Transform","polarity":null,"overriding_plate_id":null,"subducting_plate_id":null,"plate_ids":[715,760],"name":"Assode-Issalane transform"},"geometry":{"type":"LineString","coordinates":[[29.372,-43.265],[29.106,-43.063],[28.524,-42.876],[27.946,-42.686],[27.372,-42.493],[26.8,-42.298],[26.233,-42.099],[25.74,-41.846],[25.25,-41.59],[24.764,-41.332],[24.283,-41.073],[23.833,-40.75],[23.387,-40.426],[22.945,-40.101],[22.508,-39.773],[22.095,-39.531],[21.684,-39.288],[21.277,-39.044],[20.812,-38.724],[20.351,-38.402],[20.033,-38.177],[19.716,-37.951],[19.315,-37.691],[18.916,-37.429],[18.52,-37.166],[18.127,-36.902]]}},{"type":"Feature","properties":{"boundary_type":"transform","feature_type":"gpml:Transform","polarity":null,"overriding_plate_id":null,"subducting_plate_id":null,"plate_ids":[3003,98044],"name":"Isakov Island arc transform"},"geometry":{"type":"LineString","coordinates":[[-88.803,16.703],[-89.305,16.597],[-89.807,16.489],[-90.308,16.38],[-90.809,16.27],[-91.309,16.159],[-91.808,16.047],[-92.307,15.933],[-92.805,15.819],[-93.303,15.703],[-93.8,15.586],[-94.297,15.468],[-94.793,15.349],[-95.289,15.229],[-95.784,15.108],[-96.278,14.985],[-96.772,14.862],[-97.265,14.738],[-97.758,14.612],[-98.25,14.485],[-98.741,14.358],[-99.232,14.229],[-99.723,14.1],[-100.213,13.969],[-100.702,13.838],[-101.191,13.705],[-101.679,13.572],[-102.166,13.437],[-102.653,13.302],[-103.14,13.166],[-103.626,13.028],[-104.112,12.89]]}},{"type":"Feature","properties":{"boundary_type":"transform","feature_type":"gpml:Transform","polarity":null,"overriding_plate_id":null,"subducting_plate_id":null,"plate_ids":[715,760],"name":"8.50 fault?"},"geometry":{"type":"LineString","coordinates":[[28.883,-43.459],[29.509,-43.611],[30.138,-43.76],[30.771,-43.906],[31.406,-44.048],[32.045,-44.187],[32.686,-44.322],[33.331,-44.454],[33.978,-44.582],[34.628,-44.706],[35.281,-44.826],[35.815,-45.024],[36.353,-45.219],[36.894,-45.411],[37.439,-45.601],[37.987,-45.788],[38.539,-45.972]]}},{"type":"Feature","properties":{"boundary_type":"transform","feature_type":"gpml:Transform","polarity":null,"overriding_plate_id":null,"subducting_plate_id":null,"plate_ids":[701,760],"name":"8.50 fault?"},"geometry":{"type":"LineString","coordinates":[[38.539,-45.972],[39.164,-46.176],[39.793,-46.377],[40.426,-46.574],[41.029,-46.825],[41.637,-47.072],[42.251,-47.317],[42.87,-47.558],[43.495,-47.796],[44.126,-48.031],[44.763,-48.262],[45.405,-48.489],[46.053,-48.713],[46.561,-49.056],[47.076,-49.398]]}},{"type":"Feature","properties":{"boundary_type":"transform","feature_type":"gpml:Transform","polarity":null,"overriding_plate_id":null,"subducting_plate_id":null,"plate_ids":[801,77030],"name":"TOAST-DML compressive(?) transform"},"geometry":{"type":"LineString","coordinates":[[108.683,-14.362],[108.467,-14.491],[108.016,-14.67],[107.564,-14.848],[107.111,-15.026],[106.658,-15.202],[106.204,-15.378],[105.749,-15.552],[105.294,-15.726],[104.882,-15.966],[104.469,-16.205],[104.055,-16.443],[103.64,-16.68],[103.224,-16.916],[102.807,-17.152],[102.389,-17.387],[101.969,-17.62],[101.513,-17.822],[101.056,-18.023],[100.598,-18.223],[100.139,-18.422],[99.679,-18.619],[99.218,-18.815],[98.761,-18.964],[98.303,-19.111],[97.845,-19.257],[97.385,-19.402],[96.925,-19.545],[96.464,-19.688],[96.003,-19.829],[95.54,-19.969],[95.063,-20.05],[94.586,-20.129],[94.108,-20.207],[93.63,-20.284]]}},{"type":"Feature","properties":{"boundary_type":"transform","feature_type":"gpml:Transform","polarity":null,"overriding_plate_id":null,"subducting_plate_id":null,"plate_ids":[501,8011],"name":"India-Australia transform"},"geometry":{"type":"LineString","coordinates":[[92.363,12.745],[92.326,12.497],[92.288,12.249],[92.372,11.828],[92.455,11.408],[92.539,10.987],[92.622,10.566],[92.704,10.146],[92.787,9.725]]}},{"type":"Feature","properties":{"boundary_type":"transform","feature_type":"gpml:Transform","polarity":null,"overriding_plate_id":null,"subducting_plate_id":null,"plate_ids":[501,801],"name":"India-Australia transform"},"geometry":{"type":"LineString","coordinates":[[92.787,9.725],[92.882,9.24],[92.976,8.755],[93.071,8.27],[93.165,7.786],[93.259,7.301],[93.353,6.816],[93.446,6.331],[93.54,5.846],[93.633,5.361],[93.726,4.876],[93.819,4.391],[93.912,3.905],[94.004,3.42],[94.097,2.935],[94.19,2.45],[94.282,1.965],[94.375,1.48],[94.543,1.039],[94.712,0.598],[94.881,0.156],[95.049,-0.285],[95.218,-0.726],[95.387,-1.167],[95.556,-1.608],[95.725,-2.05],[95.894,-2.491],[96.063,-2.932],[96.232,-3.373],[96.401,-3.814],[96.571,-4.255],[96.74,-4.696],[96.711,-5.184],[96.681,-5.672],[96.651,-6.16],[96.621,-6.648],[96.592,-7.136],[96.562,-7.624],[96.532,-8.112],[96.502,-8.6],[96.441,-9.072],[96.381,-9.543],[96.32,-10.014],[96.259,-10.486],[96.199,-10.957],[96.137,-11.429],[96.076,-11.9],[96.014,-12.371],[95.908,-12.811],[95.801,-13.251],[95.693,-13.691],[95.586,-14.13],[95.477,-14.57],[95.369,-15.01],[95.26,-15.449],[95.15,-15.889],[95.04,-16.328],[94.845,-16.767],[94.649,-17.205],[94.452,-17.643],[94.254,-18.081],[94.055,-18.518],[93.856,-18.956],[93.655,-19.393],[93.453,-19.83]]}},{"type":"Feature","properties":{"boundary_type":"transform","feature_type":"gpml:Transform","polarity":null,"overriding_plate_id":null,"subducting_plate_id":null,"plate_ids":[501,98044],"name":"India closure transform"},"geometry":{"type":"LineString","coordinates":[[5.051,18.682],[5.232,18.305],[5.411,17.929],[5.589,17.552]]}},{"type":"Feature","properties":{"boundary_type":"transform","feature_type":"gpml:Transform","polarity":null,"overriding_plate_id":null,"subducting_plate_id":null,"plate_ids":[501,98043],"name":"India closure transform"},"geometry":{"type":"LineString","coordinates":[[5.589,17.552],[5.803,17.098],[6.016,16.644],[6.228,16.19],[6.439,15.735],[6.649,15.281],[6.859,14.826],[7.067,14.371],[7.274,13.915],[7.481,13.46],[7.687,13.004],[7.892,12.548],[8.096,12.092],[8.3,11.636],[8.503,11.18],[8.705,10.724],[8.907,10.267],[9.108,9.811],[9.309,9.354],[9.509,8.897],[9.709,8.44],[9.908,7.983],[10.106,7.526],[10.305,7.068],[10.503,6.611],[10.7,6.154],[10.897,5.696],[11.094,5.239],[11.291,4.781],[11.487,4.323],[11.683,3.866],[11.879,3.408],[12.074,2.95],[12.27,2.492],[12.465,2.034],[12.661,1.576],[12.856,1.118],[13.051,0.661],[13.246,0.203],[13.441,-0.255],[13.636,-0.713],[13.831,-1.171],[14.026,-1.629],[14.222,-2.087],[14.417,-2.545],[14.612,-3.003],[14.808,-3.461],[15.004,-3.918],[15.2,-4.376],[15.396,-4.834],[15.593,-5.291],[15.79,-5.749],[15.987,-6.206],[16.185,-6.664],[16.383,-7.121],[16.581,-7.578],[16.78,-8.035],[16.979,-8.493],[17.178,-8.95],[17.379,-9.406],[17.579,-9.863],[17.781,-10.32],[17.982,-10.776],[18.185,-11.233],[18.388,-11.689],[18.592,-12.145],[18.796,-12.601],[19.001,-13.057],[19.207,-13.512],[19.414,-13.968],[19.621,-14.423],[19.83,-14.878],[20.039,-15.333],[20.249,-15.788],[20.46,-16.242],[20.673,-16.696],[20.886,-17.151],[21.1,-17.604],[21.315,-18.058],[21.531,-18.511],[21.749,-18.965],[21.968,-19.417],[22.187,-19.87],[22.409,-20.322],[22.631,-20.774],[22.855,-21.226]]}},{"type":"Feature","properties":{"boundary_type":"transform","feature_type":"gpml:Transform","polarity":null,"overriding_plate_id":null,"subducting_plate_id":null,"plate_ids":[501,580],"name":"Tarim transform"},"geometry":{"type":"LineString","coordinates":[[40.873,29.038],[41.05,29.421],[41.229,29.804],[41.409,30.186],[41.59,30.569],[42.072,30.81],[42.556,31.049],[43.043,31.286],[43.532,31.522],[44.023,31.756],[44.517,31.988],[45.014,32.218],[45.513,32.445],[46.01,32.633],[46.509,32.819],[47.011,33.003],[47.514,33.185],[48.02,33.365],[48.527,33.543],[49.037,33.719],[49.607,33.662],[50.177,33.603],[50.745,33.541],[51.313,33.476],[51.88,33.408]]}},{"type":"Feature","properties":{"boundary_type":"transform","feature_type":"gpml:Transform","polarity":null,"overriding_plate_id":null,"subducting_plate_id":null,"plate_ids":[5032,77030],"name":"Azania-Kalahari transform"},"geometry":{"type":"LineString","coordinates":[[86.241,-28.588],[86.681,-28.528],[87.12,-28.467],[87.559,-28.404],[88.094,-28.239],[88.627,-28.072],[89.159,-27.903],[89.689,-27.732],[90.218,-27.559],[90.744,-27.384],[91.27,-27.207],[91.793,-27.028],[92.315,-26.847],[92.835,-26.664],[93.353,-26.479],[93.87,-26.292],[94.385,-26.104]]}},{"type":"Feature","properties":{"boundary_type":"transform","feature_type":"gpml:Transform","polarity":null,"overriding_plate_id":null,"subducting_plate_id":null,"plate_ids":[760,98043],"name":"Hoggar Transform"},"geometry":{"type":"LineString","coordinates":[[12.13,-35.493],[12.655,-35.352],[13.178,-35.209],[13.699,-35.064],[14.28,-34.983],[14.859,-34.899],[15.437,-34.812],[16.014,-34.723],[16.59,-34.63]]}},{"type":"Feature","properties":{"boundary_type":"transform","feature_type":"gpml:Transform","polarity":null,"overriding_plate_id":null,"subducting_plate_id":null,"plate_ids":[501,601],"name":"Transform closing Indian plate"},"geometry":{"type":"LineString","coordinates":[[73.021,60.49],[73.32,60.058],[73.611,59.625],[73.895,59.191],[74.172,58.757],[74.442,58.322],[74.705,57.886],[74.829,57.436],[74.95,56.985],[75.068,56.535]]}},{"type":"Feature","properties":{"boundary_type":"transform","feature_type":"gpml:Transform","polarity":null,"overriding_plate_id":null,"subducting_plate_id":null,"plate_ids":[101,77030],"name":"Transbrasiliano Lineament"},"geometry":{"type":"LineString","coordinates":[[154.86,-38.664],[154.725,-39.09],[154.589,-39.515],[154.451,-39.94],[154.31,-40.366],[154.169,-40.79],[154.025,-41.215],[153.88,-41.64],[153.615,-42.092],[153.347,-42.544],[153.075,-42.995],[152.8,-43.446],[152.52,-43.895],[152.235,-44.345],[151.947,-44.793],[151.653,-45.241],[151.355,-45.688],[151.053,-46.134],[150.745,-46.579],[150.433,-47.024],[150.115,-47.467],[149.791,-47.91],[149.462,-48.352],[149.128,-48.793],[148.787,-49.232],[148.44,-49.671],[148.088,-50.109],[147.728,-50.546],[147.362,-50.981],[146.989,-51.416]]}},{"type":"Feature","properties":{"boundary_type":"transform","feature_type":"gpml:Transform","polarity":null,"overriding_plate_id":null,"subducting_plate_id":null,"plate_ids":[714,77030],"name":"Transbrasiliano Lineament"},"geometry":{"type":"LineString","coordinates":[[146.989,-51.416],[146.621,-51.835],[146.246,-52.253],[145.865,-52.669],[145.476,-53.084],[145.079,-53.499],[144.698,-53.913],[144.309,-54.325],[143.912,-54.737],[143.508,-55.147],[143.095,-55.556],[142.673,-55.964],[142.242,-56.37],[141.802,-56.774],[141.352,-57.177],[140.893,-57.578],[140.423,-57.978],[139.942,-58.376],[139.356,-58.752],[138.757,-59.126],[138.145,-59.496],[137.52,-59.864],[136.88,-60.229],[136.226,-60.591],[135.558,-60.949],[134.874,-61.304],[134.175,-61.656],[133.459,-62.004],[132.728,-62.348],[131.979,-62.688],[131.213,-63.024],[130.429,-63.356],[129.583,-63.647],[128.719,-63.933],[127.838,-64.214],[126.938,-64.49],[126.021,-64.759],[125.085,-65.023],[124.131,-65.281],[123.158,-65.533],[122.167,-65.779],[121.156,-66.018],[120.078,-66.183],[118.986,-66.342],[117.881,-66.492],[116.762,-66.635],[115.631,-66.769],[114.488,-66.895],[113.333,-67.013],[112.167,-67.123],[110.991,-67.224],[109.806,-67.316],[108.54,-67.417],[107.263,-67.509],[105.977,-67.59],[104.683,-67.66],[103.381,-67.721],[102.074,-67.771],[100.761,-67.81],[99.445,-67.839],[98.126,-67.858],[96.805,-67.866],[95.596,-67.804],[94.393,-67.734],[93.199,-67.655],[92.012,-67.567],[90.835,-67.47],[89.668,-67.366],[88.512,-67.252],[87.366,-67.131],[86.273,-67.049],[85.188,-66.961]]}},{"type":"Feature","properties":{"boundary_type":"transform","feature_type":"gpml:Transform","polarity":null,"overriding_plate_id":null,"subducting_plate_id":null,"plate_ids":[206,760],"name":"Borborema closure transform"},"geometry":{"type":"LineString","coordinates":[[40.603,-56.772],[41.46,-56.669],[42.313,-56.559],[43.161,-56.444]]}},{"type":"Feature","properties":{"boundary_type":"transform","feature_type":"gpml:Transform","polarity":null,"overriding_plate_id":null,"subducting_plate_id":null,"plate_ids":[3003,4012],"name":"Taimyr Transform"},"geometry":{"type":"LineString","coordinates":[[-106.115,-5.606],[-105.836,-5.882],[-105.557,-6.157],[-105.262,-6.52],[-104.968,-6.883],[-104.673,-7.246],[-104.377,-7.609],[-104.081,-7.971],[-103.785,-8.334],[-103.488,-8.696],[-103.19,-9.058],[-102.892,-9.42],[-102.593,-9.781],[-102.329,-10.059],[-102.065,-10.337],[-101.8,-10.615],[-101.534,-10.892],[-101.25,-11.196],[-100.965,-11.501],[-100.68,-11.805],[-100.394,-12.108],[-100.107,-12.412],[-99.749,-12.665],[-99.391,-12.919],[-99.032,-13.171],[-98.672,-13.423]]}},{"type":"Feature","properties":{"boundary_type":"transform","feature_type":"gpml:Transform","polarity":null,"overriding_plate_id":null,"subducting_plate_id":null,"plate_ids":[801,77030],"name":"Kalahari transform"},"geometry":{"type":"LineString","coordinates":[[126.119,-28.984],[126.58,-28.758],[127.04,-28.53],[127.497,-28.3],[127.952,-28.069],[128.406,-27.836],[128.857,-27.602],[129.307,-27.366],[129.721,-27.07],[130.133,-26.773],[130.542,-26.475],[130.95,-26.175],[131.355,-25.875],[131.759,-25.573],[132.16,-25.27],[132.559,-24.966],[132.967,-24.703],[133.373,-24.439],[133.777,-24.175],[134.18,-23.909],[134.581,-23.642],[134.962,-23.301],[135.342,-22.96],[135.719,-22.618],[136.095,-22.274],[136.468,-21.93],[136.84,-21.586],[137.211,-21.24],[137.652,-21.0],[138.092,-20.758],[138.531,-20.516],[138.969,-20.272],[139.405,-20.027],[139.839,-19.782],[140.273,-19.535],[140.705,-19.287],[141.136,-19.038],[141.565,-18.788],[141.993,-18.538],[142.42,-18.286],[142.846,-18.033]]}},{"type":"Feature","properties":{"boundary_type":"transform","feature_type":"gpml:Transform","polarity":null,"overriding_plate_id":null,"subducting_plate_id":null,"plate_ids":[501,601],"name":"Lhasa-India transform"},"geometry":{"type":"LineString","coordinates":[[83.46,26.946],[83.928,26.696],[84.393,26.444],[84.857,26.191],[85.318,25.937],[85.778,25.681],[86.236,25.423],[86.691,25.164],[87.145,24.904],[87.597,24.642],[88.047,24.379],[88.485,24.168],[88.922,23.956],[89.358,23.743],[89.792,23.528],[90.224,23.312],[90.655,23.095],[91.085,22.877],[91.514,22.657],[91.941,22.437]]}},{"type":"Feature","properties":{"boundary_type":"transform","feature_type":"gpml:Transform","polarity":null,"overriding_plate_id":null,"subducting_plate_id":null,"plate_ids":[601,606],"name":"Lhasa transform"},"geometry":{"type":"LineString","coordinates":[[94.342,27.317],[94.807,27.452],[95.272,27.586],[95.739,27.718],[96.207,27.849],[96.676,27.978]]}},{"type":"Feature","properties":{"boundary_type":"transform","feature_type":"gpml:Transform","polarity":null,"overriding_plate_id":null,"subducting_plate_id":null,"plate_ids":[801,8011],"name":"Paterson-Peterman transform"},"geometry":{"type":"LineString","coordinates":[[113.009,17.987],[112.87,17.553],[112.732,17.119],[112.594,16.685],[112.282,16.313],[111.971,15.941],[111.637,15.725],[111.303,15.509],[110.97,15.292],[110.588,15.315],[110.206,15.337],[109.823,15.358]]}},{"type":"Feature","properties":{"boundary_type":"transform","feature_type":"gpml:Transform","polarity":null,"overriding_plate_id":null,"subducting_plate_id":null,"plate_ids":[101,801],"name":"Australia-Laurentia spreading"},"geometry":{"type":"LineString","coordinates":[[152.188,2.25],[151.775,2.533],[151.362,2.815],[150.949,3.098],[150.535,3.38],[150.122,3.662],[149.708,3.943],[149.293,4.225],[148.879,4.506],[148.464,4.787],[148.049,5.068],[147.633,5.348],[147.217,5.629],[146.801,5.909],[146.384,6.188],[145.967,6.468],[145.549,6.747],[145.131,7.025],[144.713,7.303],[144.293,7.581],[143.874,7.859],[143.453,8.136],[143.033,8.412],[142.611,8.689],[142.189,8.964],[141.766,9.24],[141.343,9.514],[140.919,9.789],[140.494,10.062],[140.069,10.335],[139.643,10.608],[139.216,10.88],[138.788,11.151],[138.359,11.422],[137.93,11.692],[137.5,11.962],[137.069,12.231],[136.637,12.499],[136.204,12.767],[135.77,13.033],[135.335,13.3],[134.9,13.565],[134.463,13.83],[134.026,14.093],[133.587,14.356],[133.147,14.619],[132.707,14.88],[132.265,15.141],[131.822,15.4],[131.378,15.659],[130.933,15.917],[130.487,16.174],[130.039,16.43],[129.591,16.685],[129.141,16.94],[128.69,17.193],[128.238,17.445],[127.784,17.696],[127.33,17.946],[126.874,18.195],[126.416,18.443],[125.958,18.69],[125.498,18.936],[125.037,19.18],[124.574,19.424],[124.11,19.666],[123.644,19.907],[123.177,20.147]]}},{"type":"Feature","properties":{"boundary_type":"transform","feature_type":"gpml:Transform","polarity":null,"overriding_plate_id":null,"subducting_plate_id":null,"plate_ids":[501,580],"name":"Transform closing Tarim plate"},"geometry":{"type":"LineString","coordinates":[[40.242,51.084],[40.716,50.693],[41.183,50.301],[41.641,49.907],[42.101,49.598],[42.555,49.287],[43.003,48.974],[43.446,48.66],[43.883,48.344],[44.315,48.026],[44.741,47.707],[45.381,47.55],[46.016,47.389],[46.647,47.225],[47.275,47.057],[47.899,46.886],[48.518,46.712],[49.134,46.534],[49.745,46.353]]}},{"type":"Feature","properties":{"boundary_type":"transform","feature_type":"gpml:Transform","polarity":null,"overriding_plate_id":null,"subducting_plate_id":null,"plate_ids":[401,98044],"name":"Transform closing Siberia plate"},"geometry":{"type":"LineString","coordinates":[[-126.639,24.938],[-126.132,25.088],[-125.624,25.237],[-125.115,25.384],[-124.605,25.529],[-124.093,25.672],[-123.581,25.814],[-123.067,25.954],[-122.551,26.092],[-122.008,26.086],[-121.465,26.079],[-120.922,26.069],[-120.379,26.058],[-119.836,26.044],[-119.293,26.029],[-118.75,26.011],[-118.208,25.992],[-117.665,25.97],[-117.123,25.946],[-116.582,25.921],[-116.04,25.893],[-115.544,25.805],[-115.049,25.715],[-114.555,25.624],[-114.061,25.531],[-113.568,25.437],[-113.076,25.34],[-112.585,25.243],[-112.094,25.143],[-111.605,25.042],[-111.116,24.939],[-110.628,24.835]]}},{"type":"Feature","properties":{"boundary_type":"transform","feature_type":"gpml:Transform","polarity":null,"overriding_plate_id":null,"subducting_plate_id":null,"plate_ids":[77144,98043],"name":"Hoggar Transform"},"geometry":{"type":"LineString","coordinates":[[11.64,-34.954],[11.544,-34.987],[11.093,-35.183],[10.64,-35.379],[10.184,-35.572],[9.727,-35.764],[9.307,-36.008],[8.884,-36.25],[8.458,-36.491],[8.03,-36.73],[7.599,-36.968]]}},{"type":"Feature","properties":{"boundary_type":"transform","feature_type":"gpml:Transform","polarity":null,"overriding_plate_id":null,"subducting_plate_id":null,"plate_ids":[101,3003],"name":"Baltica transform"},"geometry":{"type":"LineString","coordinates":[[-70.36,-48.489],[-70.256,-48.976],[-70.15,-49.463],[-70.042,-49.95],[-69.931,-50.437],[-69.818,-50.924],[-69.703,-51.411],[-69.585,-51.897],[-69.465,-52.384],[-68.995,-52.768],[-68.517,-53.151],[-68.03,-53.532],[-67.535,-53.911],[-67.031,-54.288],[-66.517,-54.662],[-65.994,-55.035],[-65.46,-55.405],[-64.917,-55.773],[-64.364,-56.138],[-63.8,-56.501],[-63.225,-56.861],[-62.436,-57.059],[-61.638,-57.253],[-60.832,-57.441],[-60.018,-57.625],[-59.195,-57.802],[-58.365,-57.975],[-57.527,-58.142],[-56.68,-58.304],[-55.827,-58.46],[-54.966,-58.61],[-54.097,-58.754],[-53.222,-58.893],[-52.339,-59.025],[-51.45,-59.152],[-50.707,-59.242],[-49.961,-59.328],[-49.211,-59.41]]}},{"type":"Feature","properties":{"boundary_type":"transform","feature_type":"gpml:Transform","polarity":null,"overriding_plate_id":null,"subducting_plate_id":null,"plate_ids":[714,3003],"name":"Baltica transform"},"geometry":{"type":"LineString","coordinates":[[-49.211,-59.41],[-48.29,-59.504],[-47.365,-59.591],[-46.435,-59.672],[-45.5,-59.746]]}}]}