{"type":"FeatureCollection","meta":{"model":"Cao2024","reconstruction_time_ma":675.0,"anchor_plate_id":0,"pygplates_version":"1.0.0","tessellate_degrees":0.5,"polarity_convention":"gpml:subductionPolarity. 'Left'/'Right' names the side of the line, in vertex order, on which the OVERRIDING plate lies. Triangles are drawn on that side.","antimeridian":"Lines are NOT split at +/-180 deg. The renderer works in 3D unit vectors where the dateline is not special; splitting would only add spurious breaks. Do not treat this as RFC 7946 GIS-ready 2D data."},"features":[{"type":"Feature","properties":{"boundary_type":"subduction","feature_type":"gpml:SubductionZone","polarity":"Right","overriding_plate_id":701,"subducting_plate_id":5032,"plate_ids":[701,5032],"name":"Mozambique Belt"},"geometry":{"type":"LineString","coordinates":[[26.739,-27.547],[26.82,-27.071],[26.901,-26.595],[26.981,-26.118],[26.927,-25.647],[26.874,-25.175],[26.822,-24.703],[26.826,-24.274],[26.83,-23.846],[26.834,-23.418],[26.777,-22.999],[26.72,-22.581],[26.664,-22.162],[26.608,-21.743],[26.552,-21.324],[26.626,-20.991],[26.699,-20.657],[26.772,-20.323],[27.195,-20.209],[27.618,-20.095],[28.04,-19.979],[28.558,-20.054],[29.077,-20.127],[29.596,-20.199],[29.961,-20.413],[30.328,-20.627],[30.696,-20.84],[31.065,-21.052],[31.496,-21.116],[31.928,-21.18],[32.36,-21.242],[32.792,-21.304],[33.225,-21.364],[33.75,-21.385],[34.275,-21.404],[34.8,-21.421],[35.325,-21.437],[35.85,-21.451],[36.243,-21.396],[36.636,-21.34],[37.146,-21.257],[37.656,-21.173],[38.014,-21.112],[38.372,-21.049],[38.73,-20.987],[39.126,-20.914],[39.522,-20.84],[39.917,-20.766],[40.391,-20.564],[40.863,-20.362],[41.313,-20.25],[41.763,-20.138],[42.212,-20.024],[42.66,-19.91],[43.097,-19.913],[43.533,-19.916],[43.969,-19.918],[44.405,-19.919],[44.891,-19.876],[45.376,-19.831],[45.861,-19.785],[46.346,-19.738],[46.863,-19.792],[47.381,-19.844],[47.887,-19.975],[48.394,-20.104],[48.9,-20.005],[49.405,-19.904],[49.824,-19.843],[50.242,-19.781],[50.66,-19.718],[51.078,-19.654],[51.477,-19.594],[51.876,-19.533],[52.275,-19.47],[52.657,-19.283],[53.038,-19.094],[53.418,-18.905],[53.797,-18.715],[54.291,-18.593],[54.785,-18.471],[55.278,-18.347],[55.77,-18.222],[56.22,-18.148],[56.669,-18.073],[57.118,-17.997],[57.567,-17.919],[58.015,-17.841]]}},{"type":"Feature","properties":{"boundary_type":"subduction","feature_type":"gpml:SubductionZone","polarity":"Right","overriding_plate_id":98043,"subducting_plate_id":5901,"plate_ids":[5901,98043],"name":"ANS SZ"},"geometry":{"type":"LineString","coordinates":[[-3.284,-24.621],[-2.893,-24.694],[-2.5,-24.765],[-2.18,-24.84]]}},{"type":"Feature","properties":{"boundary_type":"subduction","feature_type":"gpml:SubductionZone","polarity":"Right","overriding_plate_id":715,"subducting_plate_id":5901,"plate_ids":[715,5901],"name":"ANS SZ"},"geometry":{"type":"LineString","coordinates":[[-2.18,-24.84],[-1.82,-24.924],[-1.46,-25.008],[-1.1,-25.09],[-0.684,-25.27],[-0.267,-25.449],[0.103,-25.539],[0.473,-25.628],[0.844,-25.716],[1.193,-25.882],[1.543,-26.048],[1.895,-26.213],[2.329,-26.38],[2.764,-26.546],[3.201,-26.711],[3.606,-26.774],[4.012,-26.837],[4.418,-26.899],[4.93,-27.027],[5.443,-27.154],[5.789,-27.304],[6.136,-27.453],[6.485,-27.601],[7.034,-27.711],[7.584,-27.818],[8.075,-27.821],[8.565,-27.822],[9.055,-27.822],[9.469,-27.707],[9.882,-27.591],[10.294,-27.474],[10.706,-27.355],[11.123,-27.388],[11.54,-27.42],[11.957,-27.45],[12.5,-27.526],[13.044,-27.6],[13.589,-27.671],[14.039,-27.739],[14.489,-27.805],[14.939,-27.87],[15.354,-27.796],[15.769,-27.721],[16.183,-27.645],[16.593,-27.597],[17.004,-27.548],[17.413,-27.498],[17.84,-27.38],[18.266,-27.261],[18.691,-27.141],[19.116,-27.02],[19.649,-27.126],[20.184,-27.231],[20.72,-27.334],[21.153,-27.462],[21.588,-27.589],[21.956,-27.71],[22.324,-27.831],[22.693,-27.95],[23.049,-28.106],[23.406,-28.261],[23.765,-28.415],[24.28,-28.29],[24.794,-28.163]]}},{"type":"Feature","properties":{"boundary_type":"subduction","feature_type":"gpml:SubductionZone","polarity":"Right","overriding_plate_id":715,"subducting_plate_id":5032,"plate_ids":[715,5032],"name":"ANS SZ"},"geometry":{"type":"LineString","coordinates":[[24.794,-28.163],[24.931,-28.129],[25.001,-28.134]]}},{"type":"Feature","properties":{"boundary_type":"subduction","feature_type":"gpml:SubductionZone","polarity":"Right","overriding_plate_id":701,"subducting_plate_id":5032,"plate_ids":[701,5032],"name":"ANS SZ"},"geometry":{"type":"LineString","coordinates":[[25.001,-28.134],[25.425,-28.166],[25.849,-28.197],[26.146,-27.981],[26.443,-27.765],[26.739,-27.547]]}},{"type":"Feature","properties":{"boundary_type":"subduction","feature_type":"gpml:SubductionZone","polarity":"Right","overriding_plate_id":401,"subducting_plate_id":98044,"plate_ids":[401,98044],"name":"SZ"},"geometry":{"type":"LineString","coordinates":[[-178.805,21.224],[-178.47,21.36],[-178.134,21.496],[-177.798,21.631],[-177.29,21.756],[-176.782,21.879],[-176.273,22.001],[-175.763,22.121],[-175.251,22.24],[-174.74,22.357],[-174.227,22.472],[-173.713,22.586],[-173.199,22.698],[-172.683,22.809],[-172.167,22.918],[-171.65,23.025],[-171.133,23.13],[-170.614,23.234],[-170.095,23.336],[-169.574,23.437],[-169.051,23.36],[-168.529,23.281],[-168.007,23.201],[-167.486,23.119],[-166.965,23.036],[-166.446,22.95],[-165.926,22.863],[-165.408,22.775],[-164.89,22.684],[-164.373,22.592],[-163.856,22.499],[-163.341,22.403],[-162.826,22.306],[-162.311,22.208],[-161.798,22.108],[-161.285,22.006],[-160.773,21.902],[-160.261,21.797],[-159.787,21.63],[-159.313,21.461],[-158.841,21.291],[-158.37,21.119],[-157.9,20.946],[-157.431,20.772],[-156.963,20.597],[-156.582,20.25],[-156.202,19.902],[-155.824,19.553],[-155.448,19.204],[-155.073,18.853],[-154.7,18.502],[-154.328,18.151],[-153.958,17.798],[-153.59,17.445],[-153.223,17.091],[-152.857,16.737],[-152.492,16.382],[-152.129,16.026],[-151.767,15.67],[-151.407,15.313],[-151.047,14.955],[-150.914,14.709],[-150.782,14.462]]}},{"type":"Feature","properties":{"boundary_type":"subduction","feature_type":"gpml:SubductionZone","polarity":"Right","overriding_plate_id":401,"subducting_plate_id":3003,"plate_ids":[401,3003],"name":"SZ"},"geometry":{"type":"LineString","coordinates":[[-150.782,14.462],[-150.549,14.028],[-150.318,13.594],[-150.087,13.159],[-149.857,12.725],[-149.68,12.264],[-149.503,11.804],[-149.327,11.343],[-149.152,10.883],[-148.977,10.422],[-148.803,9.961],[-148.629,9.5],[-148.456,9.039],[-148.283,8.578],[-148.111,8.116],[-147.939,7.655],[-147.767,7.194],[-147.596,6.732],[-147.513,6.556]]}},{"type":"Feature","properties":{"boundary_type":"subduction","feature_type":"gpml:SubductionZone","polarity":"Left","overriding_plate_id":77148,"subducting_plate_id":714,"plate_ids":[714,77148],"name":"Dahomenides"},"geometry":{"type":"LineString","coordinates":[[-14.346,-59.267],[-13.572,-59.569],[-12.784,-59.866],[-11.982,-60.159],[-11.188,-60.434],[-10.381,-60.704],[-9.56,-60.97],[-8.726,-61.23],[-7.878,-61.485],[-7.016,-61.734],[-6.14,-61.978],[-5.25,-62.217],[-4.346,-62.45]]}},{"type":"Feature","properties":{"boundary_type":"subduction","feature_type":"gpml:SubductionZone","polarity":"Left","overriding_plate_id":715,"subducting_plate_id":714,"plate_ids":[714,715],"name":"Dahomenides"},"geometry":{"type":"LineString","coordinates":[[-4.346,-62.45],[-3.46,-62.669],[-2.561,-62.882],[-1.65,-63.089],[-0.725,-63.291],[0.212,-63.486],[1.203,-63.658],[2.206,-63.822],[3.221,-63.98],[4.246,-64.13],[5.283,-64.273],[6.33,-64.409],[7.387,-64.537],[8.453,-64.657],[9.529,-64.77],[10.614,-64.875],[11.707,-64.972],[12.807,-65.061],[13.915,-65.142],[14.894,-65.259],[15.881,-65.371],[16.877,-65.476],[17.88,-65.574],[18.891,-65.666],[19.909,-65.751]]}},{"type":"Feature","properties":{"boundary_type":"subduction","feature_type":"gpml:SubductionZone","polarity":"Right","overriding_plate_id":5901,"subducting_plate_id":5031,"plate_ids":[5031,5901],"name":"ANS accretion"},"geometry":{"type":"LineString","coordinates":[[-3.213,-15.296],[-2.76,-15.217],[-2.306,-15.136],[-1.853,-15.055],[-1.401,-14.973],[-0.949,-14.89],[-0.483,-14.843],[-0.017,-14.795],[0.448,-14.747],[0.913,-14.697],[1.378,-14.646],[1.843,-14.595],[2.307,-14.542],[2.669,-14.239],[3.029,-13.935],[3.389,-13.63],[3.748,-13.325],[4.106,-13.02],[4.463,-12.714],[4.816,-12.497],[5.168,-12.28],[5.519,-12.063],[5.931,-12.139],[6.344,-12.214],[6.757,-12.289],[7.17,-12.363],[7.637,-12.27],[8.105,-12.176],[8.572,-12.081],[9.038,-11.985],[9.504,-11.889],[9.906,-11.727],[10.306,-11.565],[10.707,-11.402],[11.057,-11.153],[11.407,-10.905],[11.757,-10.656],[12.217,-10.867],[12.679,-11.078],[13.023,-11.065],[13.367,-11.051],[13.793,-11.021],[14.219,-10.991],[14.644,-10.96],[15.105,-11.018],[15.565,-11.074],[16.025,-11.13],[16.311,-11.437],[16.597,-11.743],[16.884,-12.049],[17.282,-12.298],[17.682,-12.547],[18.082,-12.795],[18.57,-12.882],[19.059,-12.969],[19.548,-13.055],[19.977,-13.014],[20.405,-12.973],[20.833,-12.932],[21.175,-12.908],[21.518,-12.885],[21.86,-12.86]]}},{"type":"Feature","properties":{"boundary_type":"subduction","feature_type":"gpml:SubductionZone","polarity":"Right","overriding_plate_id":5032,"subducting_plate_id":5031,"plate_ids":[5031,5032],"name":"ANS accretion"},"geometry":{"type":"LineString","coordinates":[[21.86,-12.86],[21.95,-12.854]]}},{"type":"Feature","properties":{"boundary_type":"subduction","feature_type":"gpml:SubductionZone","polarity":"Right","overriding_plate_id":5901,"subducting_plate_id":98043,"plate_ids":[5901,98043],"name":"ANS formation"},"geometry":{"type":"LineString","coordinates":[[-3.708,-17.135],[-3.583,-16.675],[-3.459,-16.216],[-3.336,-15.756],[-3.213,-15.296]]}},{"type":"Feature","properties":{"boundary_type":"subduction","feature_type":"gpml:SubductionZone","polarity":"Right","overriding_plate_id":5031,"subducting_plate_id":98043,"plate_ids":[5031,98043],"name":"ANS formation"},"geometry":{"type":"LineString","coordinates":[[-3.213,-15.296],[-3.098,-14.861],[-2.983,-14.427],[-2.868,-13.992],[-2.754,-13.557],[-2.64,-13.122],[-2.527,-12.687],[-2.414,-12.252],[-2.16,-11.876],[-1.907,-11.499],[-1.655,-11.123],[-1.403,-10.746],[-1.152,-10.369],[-0.901,-9.992],[-0.651,-9.615],[-0.402,-9.237],[-0.153,-8.859],[0.095,-8.481]]}},{"type":"Feature","properties":{"boundary_type":"subduction","feature_type":"gpml:SubductionZone","polarity":"Right","overriding_plate_id":5031,"subducting_plate_id":801,"plate_ids":[801,5031],"name":"ANS formation"},"geometry":{"type":"LineString","coordinates":[[0.095,-8.481],[0.321,-8.136],[0.547,-7.791],[0.865,-7.517],[1.182,-7.242],[1.499,-6.967],[1.815,-6.692],[2.141,-6.456],[2.466,-6.219],[2.907,-5.98],[3.348,-5.74],[3.789,-5.499],[4.135,-5.361],[4.481,-5.223],[4.828,-5.085],[5.235,-4.943],[5.643,-4.801],[6.054,-4.733],[6.464,-4.665],[6.766,-4.695],[7.067,-4.725],[7.522,-4.788],[7.976,-4.85],[8.365,-4.84],[8.754,-4.829],[9.072,-4.681],[9.39,-4.532],[9.708,-4.384],[10.062,-4.235],[10.416,-4.086],[10.77,-3.937],[11.125,-3.813],[11.48,-3.689],[11.881,-3.686],[12.282,-3.682],[12.65,-3.71],[13.018,-3.738],[13.386,-3.766],[13.794,-3.844],[14.201,-3.921],[14.609,-3.998],[14.979,-4.062],[15.348,-4.125],[15.718,-4.188],[16.174,-4.053],[16.629,-3.917],[17.106,-3.911],[17.582,-3.905],[18.058,-3.898],[18.535,-3.891],[18.981,-3.988],[19.427,-4.085],[19.873,-4.182],[20.319,-4.278],[20.766,-4.374],[21.212,-4.47],[21.344,-4.524]]}},{"type":"Feature","properties":{"boundary_type":"subduction","feature_type":"gpml:SubductionZone","polarity":"Right","overriding_plate_id":77148,"subducting_plate_id":98043,"plate_ids":[77148,98043],"name":"northern SM SZ?"},"geometry":{"type":"LineString","coordinates":[[-26.371,-41.892],[-25.889,-42.074],[-25.403,-42.254],[-24.915,-42.432],[-24.424,-42.607],[-23.93,-42.781],[-23.335,-42.729],[-22.74,-42.673],[-22.147,-42.615],[-21.587,-42.402],[-21.031,-42.186],[-20.479,-41.967]]}},{"type":"Feature","properties":{"boundary_type":"subduction","feature_type":"gpml:SubductionZone","polarity":"Right","overriding_plate_id":715,"subducting_plate_id":98043,"plate_ids":[715,98043],"name":"northern SM SZ?"},"geometry":{"type":"LineString","coordinates":[[-20.479,-41.967],[-20.066,-41.802],[-19.674,-41.416],[-19.286,-41.028],[-18.903,-40.64],[-18.524,-40.25],[-18.391,-39.851],[-18.259,-39.453],[-18.129,-39.054],[-17.75,-38.781],[-17.375,-38.507],[-17.002,-38.231],[-16.632,-37.954],[-16.145,-37.714],[-15.661,-37.472],[-15.181,-37.229],[-14.703,-36.983],[-14.229,-36.735],[-13.758,-36.486],[-13.25,-36.241],[-12.745,-35.994],[-12.244,-35.744],[-11.745,-35.493],[-11.25,-35.239],[-10.758,-34.984],[-10.269,-34.726],[-9.907,-34.395],[-9.548,-34.063],[-9.192,-33.73],[-8.838,-33.396],[-8.487,-33.061],[-8.139,-32.724],[-7.794,-32.387],[-7.451,-32.049],[-7.178,-31.609],[-6.908,-31.169],[-6.64,-30.728],[-6.375,-30.286],[-6.112,-29.844],[-5.698,-29.498],[-5.288,-29.151],[-4.88,-28.803],[-4.556,-28.464],[-4.235,-28.124],[-3.916,-27.784],[-3.599,-27.443],[-3.284,-27.101],[-3.009,-26.773],[-2.734,-26.446],[-2.462,-26.117],[-2.191,-25.789],[-2.118,-25.508],[-2.045,-25.227],[-2.18,-24.84]]}},{"type":"Feature","properties":{"boundary_type":"subduction","feature_type":"gpml:SubductionZone","polarity":"Left","overriding_plate_id":801,"subducting_plate_id":98044,"plate_ids":[801,98044],"name":"Alxa SZ"},"geometry":{"type":"LineString","coordinates":[[-9.602,62.51],[-9.449,62.044],[-9.3,61.577],[-9.156,61.111],[-9.016,60.644],[-8.88,60.177],[-8.747,59.71],[-8.332,59.31],[-7.927,58.909],[-7.531,58.507],[-7.144,58.103],[-6.766,57.699],[-6.396,57.293],[-6.034,56.886],[-5.68,56.478],[-5.334,56.069],[-5.312,55.58],[-5.29,55.092],[-5.269,54.603],[-5.249,54.114],[-5.229,53.625],[-5.186,53.186],[-5.144,52.747],[-5.102,52.308],[-5.062,51.869],[-5.022,51.429],[-4.983,50.99],[-4.918,50.526],[-4.854,50.062],[-4.792,49.598],[-4.731,49.134],[-4.671,48.669],[-4.612,48.205]]}},{"type":"Feature","properties":{"boundary_type":"subduction","feature_type":"gpml:SubductionZone","polarity":"Left","overriding_plate_id":801,"subducting_plate_id":580,"plate_ids":[580,801],"name":"Alxa SZ"},"geometry":{"type":"LineString","coordinates":[[-4.612,48.205],[-4.561,47.794],[-4.511,47.384],[-4.461,46.973],[-4.107,46.55],[-3.757,46.127],[-3.414,45.702],[-3.075,45.276],[-2.741,44.849],[-2.413,44.422],[-2.089,43.993],[-1.77,43.563],[-1.455,43.133],[-1.13,42.786],[-0.81,42.439],[-0.492,42.091],[-0.178,41.741],[0.132,41.391],[0.439,41.04],[0.662,40.594]]}},{"type":"Feature","properties":{"boundary_type":"subduction","feature_type":"gpml:SubductionZone","polarity":"Right","overriding_plate_id":77148,"subducting_plate_id":715,"plate_ids":[715,77148],"name":"East Saharan Craton - Aouzeguer Terrane SZ"},"geometry":{"type":"LineString","coordinates":[[-20.479,-41.967],[-20.219,-42.398],[-19.956,-42.829],[-19.689,-43.258],[-19.266,-43.635],[-18.838,-44.009],[-18.404,-44.382],[-17.965,-44.753],[-17.52,-45.123],[-17.037,-45.425],[-16.548,-45.725],[-16.055,-46.023],[-15.556,-46.319],[-15.136,-46.568],[-14.712,-46.815],[-14.284,-47.06],[-13.773,-47.197],[-13.26,-47.332],[-12.744,-47.465],[-12.202,-47.675],[-11.655,-47.883],[-11.104,-48.089],[-10.549,-48.292],[-9.971,-48.517],[-9.387,-48.739],[-8.799,-48.958],[-8.205,-49.173],[-7.666,-49.377],[-7.123,-49.579],[-6.575,-49.777],[-6.023,-49.973],[-5.619,-50.158],[-5.212,-50.341],[-4.71,-50.525],[-4.203,-50.707],[-3.693,-50.887],[-3.2,-51.131],[-2.701,-51.372],[-2.197,-51.611],[-1.688,-51.847],[-1.006,-52.041],[-0.317,-52.231],[0.377,-52.417]]}},{"type":"Feature","properties":{"boundary_type":"subduction","feature_type":"gpml:SubductionZone","polarity":"Left","overriding_plate_id":3003,"subducting_plate_id":401,"plate_ids":[401,3003],"name":"Taimyr SZ"},"geometry":{"type":"LineString","coordinates":[[-147.513,6.556],[-147.466,6.137],[-147.418,5.719],[-147.376,5.304],[-147.335,4.888],[-147.293,4.473],[-147.252,4.058],[-147.21,3.643],[-147.169,3.228],[-147.125,2.767],[-147.082,2.305],[-147.038,1.843],[-146.994,1.381],[-146.951,0.919],[-146.907,0.457],[-146.844,0.003],[-146.781,-0.452],[-146.718,-0.906],[-146.655,-1.361],[-146.592,-1.816],[-146.529,-2.27],[-146.466,-2.725],[-146.403,-3.179],[-146.43,-3.612],[-146.457,-4.044],[-146.484,-4.476],[-146.511,-4.908],[-146.538,-5.34],[-146.565,-5.772],[-146.592,-6.204],[-146.563,-6.66],[-146.535,-7.115],[-146.506,-7.571],[-146.478,-8.027],[-146.449,-8.482],[-146.42,-8.938],[-146.392,-9.394],[-146.552,-9.817],[-146.713,-10.239],[-146.875,-10.662],[-147.037,-11.084],[-147.199,-11.507],[-147.362,-11.929],[-147.526,-12.351],[-147.661,-12.74],[-147.796,-13.13]]}},{"type":"Feature","properties":{"boundary_type":"subduction","feature_type":"gpml:SubductionZone","polarity":"Left","overriding_plate_id":22053,"subducting_plate_id":701,"plate_ids":[701,22053],"name":"Goias Arc and Brasilia Belt"},"geometry":{"type":"LineString","coordinates":[[59.371,-60.532],[59.252,-60.765],[58.815,-61.198],[58.365,-61.63],[57.903,-62.061],[57.428,-62.49],[56.529,-62.586],[55.625,-62.677],[54.716,-62.761],[53.802,-62.839],[53.282,-62.993],[52.757,-63.145],[51.977,-63.49],[51.178,-63.83],[50.36,-64.166],[49.468,-64.436],[48.559,-64.7],[47.632,-64.958],[46.687,-65.21],[45.725,-65.457],[44.744,-65.697],[43.745,-65.931]]}},{"type":"Feature","properties":{"boundary_type":"subduction","feature_type":"gpml:SubductionZone","polarity":"Left","overriding_plate_id":714,"subducting_plate_id":701,"plate_ids":[701,714],"name":"Goias Arc and Brasilia Belt"},"geometry":{"type":"LineString","coordinates":[[43.745,-65.931],[42.772,-66.148],[41.783,-66.359],[40.778,-66.564],[39.661,-66.672],[38.534,-66.773],[37.399,-66.865],[36.255,-66.95],[35.104,-67.026],[33.946,-67.093],[32.782,-67.152],[31.612,-67.203],[30.438,-67.245],[29.261,-67.279],[28.201,-67.495],[27.122,-67.705],[26.024,-67.907],[24.907,-68.102],[23.771,-68.289],[22.617,-68.468],[21.384,-68.411],[20.157,-68.346],[18.934,-68.359],[17.71,-68.364],[16.486,-68.36],[15.264,-68.347]]}},{"type":"Feature","properties":{"boundary_type":"subduction","feature_type":"gpml:SubductionZone","polarity":"Right","overriding_plate_id":401,"subducting_plate_id":3003,"plate_ids":[401,3003],"name":"Offshore Timan ocean arc?"},"geometry":{"type":"LineString","coordinates":[[-146.458,-13.238],[-146.449,-13.688],[-146.439,-14.138],[-146.43,-14.588],[-146.42,-15.038],[-146.41,-15.489],[-146.401,-15.939],[-146.391,-16.389],[-146.381,-16.839]]}},{"type":"Feature","properties":{"boundary_type":"subduction","feature_type":"gpml:SubductionZone","polarity":"Right","overriding_plate_id":101,"subducting_plate_id":3003,"plate_ids":[101,3003],"name":"Offshore Timan ocean arc?"},"geometry":{"type":"LineString","coordinates":[[-146.381,-16.839],[-146.378,-16.995],[-146.378,-17.488],[-146.378,-17.98],[-146.378,-18.473],[-146.378,-18.965],[-146.378,-19.458],[-146.379,-19.95],[-146.379,-20.442],[-146.379,-20.935],[-146.379,-21.427],[-146.379,-21.92],[-146.379,-22.412],[-146.38,-22.905],[-146.38,-23.397],[-146.38,-23.89],[-146.212,-24.319],[-146.043,-24.747],[-145.872,-25.176],[-145.7,-25.604],[-145.528,-26.032],[-145.353,-26.46],[-145.178,-26.888],[-145.001,-27.315],[-144.823,-27.743],[-144.643,-28.17],[-144.462,-28.597],[-144.038,-28.892],[-143.611,-29.186],[-143.182,-29.479],[-142.75,-29.771],[-142.316,-30.061],[-141.879,-30.349],[-141.439,-30.636],[-140.997,-30.922],[-140.553,-31.206],[-140.105,-31.489],[-139.655,-31.77],[-139.202,-32.049],[-138.747,-32.327],[-138.24,-32.549],[-137.731,-32.77],[-137.22,-32.988],[-136.706,-33.204],[-136.189,-33.419],[-135.67,-33.631],[-135.148,-33.84],[-134.624,-34.048],[-134.097,-34.253],[-133.568,-34.456],[-133.036,-34.657],[-132.502,-34.856],[-132.061,-35.091],[-131.617,-35.325],[-131.171,-35.558],[-130.722,-35.788],[-130.271,-36.017],[-129.817,-36.245]]}},{"type":"Feature","properties":{"boundary_type":"subduction","feature_type":"gpml:SubductionZone","polarity":"Right","overriding_plate_id":580,"subducting_plate_id":98044,"plate_ids":[580,98044],"name":"Tarim Oceanic arc"},"geometry":{"type":"LineString","coordinates":[[-29.317,35.753],[-28.841,36.05],[-28.361,36.346],[-27.878,36.64],[-27.391,36.932],[-26.9,37.222],[-26.406,37.51],[-25.908,37.796],[-25.384,38.047],[-24.857,38.296],[-24.326,38.542],[-23.792,38.786],[-23.254,39.028],[-22.712,39.266],[-22.166,39.503],[-21.617,39.737],[-21.064,39.968],[-20.508,40.197],[-19.947,40.423],[-19.362,40.589],[-18.774,40.752],[-18.182,40.912],[-17.588,41.069],[-16.992,41.223],[-16.392,41.374],[-15.79,41.522],[-15.184,41.667]]}},{"type":"Feature","properties":{"boundary_type":"subduction","feature_type":"gpml:SubductionZone","polarity":"Left","overriding_plate_id":22053,"subducting_plate_id":701,"plate_ids":[701,22053],"name":"Brasilia Belt"},"geometry":{"type":"LineString","coordinates":[[90.693,-53.22],[90.117,-53.547],[89.533,-53.871],[88.939,-54.192],[88.336,-54.51],[87.724,-54.825],[87.102,-55.06],[86.473,-55.293],[85.836,-55.522],[85.192,-55.747],[84.541,-55.969],[83.759,-56.138],[82.97,-56.301],[82.175,-56.459],[81.373,-56.612],[80.564,-56.76],[79.75,-56.903],[78.929,-57.04],[78.102,-57.172],[77.269,-57.299],[76.456,-57.353],[75.64,-57.403],[74.822,-57.446],[74.002,-57.485],[73.18,-57.518],[72.357,-57.546],[71.788,-57.793],[71.21,-58.037],[70.625,-58.278],[69.934,-58.622],[69.229,-58.962],[68.51,-59.297],[67.777,-59.629],[67.029,-59.957],[66.266,-60.28],[65.488,-60.599],[64.695,-60.913],[63.839,-60.868],[62.985,-60.817],[62.134,-60.76],[61.286,-60.699],[60.442,-60.632],[59.601,-60.559],[59.371,-60.532]]}},{"type":"Feature","properties":{"boundary_type":"subduction","feature_type":"gpml:SubductionZone","polarity":"Left","overriding_plate_id":98046,"subducting_plate_id":98044,"plate_ids":[98044,98046],"name":"Missing-Link subduction"},"geometry":{"type":"LineString","coordinates":[[-177.952,24.885],[-178.466,25.02],[-178.981,25.152],[-179.497,25.283],[179.986,25.412],[179.468,25.54],[178.948,25.665],[178.428,25.789],[177.906,25.91],[177.384,26.03],[176.86,26.148],[176.335,26.265],[175.81,26.379],[175.283,26.491],[174.755,26.601],[174.227,26.71],[173.697,26.816],[173.166,26.921],[172.634,27.023],[172.102,27.124],[171.568,27.222],[171.033,27.319],[170.498,27.413],[169.962,27.505],[169.424,27.596],[168.952,27.817],[168.478,28.036],[168.001,28.254],[167.523,28.47],[167.043,28.684],[166.561,28.897],[166.077,29.108],[165.591,29.317],[165.103,29.524],[164.613,29.73],[164.121,29.934],[163.627,30.136],[163.131,30.336],[162.633,30.534],[162.133,30.731],[161.631,30.925],[161.127,31.118],[160.62,31.308],[160.111,31.534],[159.6,31.758],[159.086,31.98],[158.57,32.2],[158.051,32.418],[157.53,32.633],[157.006,32.847],[156.48,33.058],[155.951,33.267],[155.42,33.474],[154.886,33.678],[154.35,33.88],[153.811,34.08],[153.269,34.277],[152.725,34.473],[152.179,34.665],[151.63,34.855],[151.078,35.043],[150.524,35.228],[149.967,35.411],[149.408,35.591],[148.847,35.769],[148.282,35.943],[147.716,36.116],[147.147,36.285],[146.674,36.6],[146.198,36.913],[145.718,37.224],[145.235,37.533],[144.747,37.84],[144.255,38.144],[143.758,38.447],[143.258,38.748],[142.754,39.047],[142.245,39.343],[141.732,39.637],[141.214,39.929],[140.693,40.219],[140.166,40.506],[139.635,40.791],[139.1,41.073],[138.56,41.353],[138.015,41.63],[137.466,41.905],[136.912,42.177],[136.353,42.446],[135.79,42.713],[135.221,42.977],[134.648,43.238],[134.07,43.496],[133.487,43.751],[132.898,44.003],[132.305,44.253],[131.707,44.499],[131.104,44.741],[130.496,44.981],[129.882,45.218],[129.264,45.451],[128.641,45.681],[128.012,45.907],[127.378,46.13],[126.831,46.406],[126.277,46.68],[125.718,46.951],[125.153,47.219],[124.583,47.484],[124.007,47.747],[123.425,48.007],[122.837,48.263],[122.243,48.517],[121.644,48.767],[121.038,49.015],[120.45,49.283],[119.855,49.548],[119.254,49.81],[118.647,50.069],[118.033,50.325],[117.412,50.577],[116.785,50.826],[116.151,51.072],[115.51,51.314],[114.863,51.553],[114.209,51.788],[113.548,52.02]]}},{"type":"Feature","properties":{"boundary_type":"subduction","feature_type":"gpml:SubductionZone","polarity":"Left","overriding_plate_id":3003,"subducting_plate_id":714,"plate_ids":[714,3003],"name":"Avalonia-Ganderia subduction zone"},"geometry":{"type":"LineString","coordinates":[[-136.118,-46.923],[-135.713,-46.742],[-135.038,-46.696],[-134.365,-46.645],[-133.692,-46.591],[-133.021,-46.533],[-132.352,-46.471],[-131.684,-46.405],[-131.017,-46.335],[-130.342,-46.278],[-129.669,-46.218],[-128.997,-46.153],[-128.326,-46.085],[-127.657,-46.013],[-126.99,-45.937],[-126.325,-45.857],[-125.662,-45.773],[-125.001,-45.686],[-124.342,-45.594],[-123.685,-45.499],[-123.03,-45.4],[-122.354,-45.271],[-121.68,-45.138],[-121.009,-45.001],[-120.342,-44.86],[-119.678,-44.715],[-119.017,-44.567],[-118.36,-44.415],[-117.706,-44.258],[-117.056,-44.099],[-116.409,-43.935],[-115.766,-43.768],[-115.126,-43.597],[-114.49,-43.423],[-113.858,-43.246],[-113.23,-43.064],[-112.605,-42.88],[-111.984,-42.692],[-111.367,-42.5],[-110.753,-42.306],[-110.144,-42.108],[-109.538,-41.907],[-108.936,-41.703],[-108.338,-41.495],[-107.743,-41.285],[-107.153,-41.071],[-106.566,-40.855],[-105.984,-40.636],[-105.383,-40.433],[-104.786,-40.226],[-104.193,-40.017],[-103.603,-39.805],[-103.017,-39.59],[-102.434,-39.372],[-101.856,-39.151],[-101.28,-38.927],[-100.709,-38.7],[-100.141,-38.471],[-99.55,-38.303],[-98.962,-38.132],[-98.377,-37.959],[-97.795,-37.782],[-97.215,-37.603],[-96.638,-37.421],[-96.064,-37.236],[-95.493,-37.048],[-94.925,-36.858],[-94.359,-36.665],[-93.797,-36.469],[-93.251,-36.31],[-92.708,-36.149],[-92.167,-35.985],[-91.628,-35.819],[-91.091,-35.651],[-90.557,-35.48],[-90.025,-35.307],[-89.495,-35.131],[-88.967,-34.954],[-88.442,-34.774],[-87.919,-34.591],[-87.399,-34.407],[-86.88,-34.22],[-86.376,-34.089],[-85.874,-33.956],[-85.373,-33.821],[-84.874,-33.684],[-84.376,-33.544],[-83.88,-33.403],[-83.386,-33.26],[-82.869,-33.158],[-82.355,-33.053],[-81.841,-32.946]]}},{"type":"Feature","properties":{"boundary_type":"subduction","feature_type":"gpml:SubductionZone","polarity":"Left","overriding_plate_id":98043,"subducting_plate_id":714,"plate_ids":[714,98043],"name":"Avalonia-Ganderia subduction zone"},"geometry":{"type":"LineString","coordinates":[[-81.841,-32.946],[-81.269,-32.824],[-80.698,-32.7],[-80.129,-32.573],[-79.562,-32.443],[-78.996,-32.311],[-78.432,-32.176],[-77.87,-32.039],[-77.309,-31.9],[-76.776,-31.836],[-76.244,-31.771],[-75.712,-31.703],[-75.181,-31.633],[-74.651,-31.561],[-74.122,-31.487],[-73.593,-31.411],[-73.066,-31.332],[-72.539,-31.251],[-72.014,-31.168],[-71.489,-31.083],[-70.977,-30.993],[-70.467,-30.9],[-69.957,-30.805],[-69.448,-30.708],[-68.941,-30.61],[-68.434,-30.509],[-67.929,-30.406],[-67.424,-30.302],[-66.857,-30.323],[-66.291,-30.341],[-65.724,-30.357],[-65.156,-30.371],[-64.589,-30.382],[-64.021,-30.391],[-63.454,-30.397],[-62.886,-30.401],[-62.319,-30.402],[-61.751,-30.401],[-61.183,-30.398],[-60.616,-30.392],[-60.048,-30.383],[-59.481,-30.372]]}},{"type":"Feature","properties":{"boundary_type":"subduction","feature_type":"gpml:SubductionZone","polarity":"Left","overriding_plate_id":77148,"subducting_plate_id":77144,"plate_ids":[77144,77148],"name":"Serouenent Terrane accretion"},"geometry":{"type":"LineString","coordinates":[[-32.006,-44.357],[-31.695,-44.58],[-31.381,-44.802],[-30.979,-45.123],[-30.572,-45.442],[-30.161,-45.76],[-29.745,-46.077],[-29.324,-46.392],[-28.713,-46.647],[-28.096,-46.899],[-27.473,-47.148],[-26.826,-47.377],[-26.174,-47.601],[-25.516,-47.822],[-24.852,-48.039],[-24.183,-48.252],[-23.647,-48.416],[-23.108,-48.577],[-22.565,-48.735],[-22.019,-48.891],[-21.628,-49.0],[-21.113,-49.25],[-20.594,-49.497],[-20.069,-49.743],[-19.557,-50.007],[-19.039,-50.268],[-18.6,-50.591],[-18.155,-50.911],[-17.704,-51.23],[-17.246,-51.547]]}},{"type":"Feature","properties":{"boundary_type":"subduction","feature_type":"gpml:SubductionZone","polarity":"Left","overriding_plate_id":77147,"subducting_plate_id":714,"plate_ids":[714,77147],"name":"Iforas Granulite Unit SZ"},"geometry":{"type":"LineString","coordinates":[[-37.325,-51.06],[-36.985,-51.487],[-36.488,-51.853],[-35.982,-52.217],[-35.469,-52.578],[-34.947,-52.937],[-34.416,-53.294],[-33.876,-53.649],[-33.327,-54.001],[-32.769,-54.35],[-32.201,-54.697],[-31.623,-55.041],[-31.036,-55.382],[-30.438,-55.721],[-29.83,-56.056],[-29.211,-56.389]]}},{"type":"Feature","properties":{"boundary_type":"subduction","feature_type":"gpml:SubductionZone","polarity":"Left","overriding_plate_id":77144,"subducting_plate_id":77147,"plate_ids":[77144,77147],"name":"Hoggar assembly"},"geometry":{"type":"LineString","coordinates":[[-36.523,-49.007],[-36.228,-49.368],[-35.928,-49.728],[-35.624,-50.088],[-35.316,-50.446],[-34.955,-50.779],[-34.588,-51.11],[-34.217,-51.44],[-33.84,-51.769],[-33.359,-52.069],[-32.871,-52.368],[-32.377,-52.664],[-31.876,-52.958],[-31.368,-53.25],[-30.869,-53.592],[-30.361,-53.932],[-29.844,-54.27],[-29.319,-54.605],[-28.666,-54.933],[-28.003,-55.257],[-27.329,-55.578],[-27.048,-55.699]]}},{"type":"Feature","properties":{"boundary_type":"subduction","feature_type":"gpml:SubductionZone","polarity":"Left","overriding_plate_id":77144,"subducting_plate_id":714,"plate_ids":[714,77144],"name":"Hoggar assembly"},"geometry":{"type":"LineString","coordinates":[[-27.048,-55.699],[-26.36,-55.991],[-25.661,-56.279],[-24.951,-56.563],[-24.231,-56.842],[-23.654,-57.029],[-23.071,-57.213],[-22.482,-57.395]]}},{"type":"Feature","properties":{"boundary_type":"subduction","feature_type":"gpml:SubductionZone","polarity":"Left","overriding_plate_id":77148,"subducting_plate_id":714,"plate_ids":[714,77148],"name":"Hoggar assembly"},"geometry":{"type":"LineString","coordinates":[[-22.482,-57.395],[-21.682,-57.634],[-20.872,-57.868],[-20.05,-58.097],[-19.219,-58.321],[-18.425,-58.491],[-17.624,-58.657],[-16.815,-58.817],[-15.999,-58.972],[-15.176,-59.122],[-14.346,-59.267]]}},{"type":"Feature","properties":{"boundary_type":"subduction","feature_type":"gpml:SubductionZone","polarity":"Right","overriding_plate_id":98043,"subducting_plate_id":714,"plate_ids":[714,98043],"name":""},"geometry":{"type":"LineString","coordinates":[[-32.311,-44.471],[-32.883,-44.235],[-33.451,-43.996],[-34.014,-43.754],[-34.573,-43.51],[-35.127,-43.262],[-35.677,-43.012],[-36.222,-42.76],[-36.762,-42.505],[-37.299,-42.247],[-37.83,-41.987],[-38.358,-41.724],[-38.881,-41.459],[-39.4,-41.192],[-39.915,-40.922],[-40.435,-40.66],[-40.95,-40.396],[-41.462,-40.129],[-41.97,-39.86],[-42.473,-39.589],[-42.973,-39.315],[-43.469,-39.04],[-43.961,-38.762],[-44.449,-38.482],[-44.933,-38.201],[-45.414,-37.917],[-45.891,-37.632],[-46.364,-37.344],[-46.833,-37.055],[-47.299,-36.764],[-47.762,-36.471],[-48.265,-36.226],[-48.766,-35.979],[-49.263,-35.731],[-49.757,-35.48],[-50.248,-35.227],[-50.736,-34.972],[-51.22,-34.715],[-51.702,-34.457],[-52.181,-34.196],[-52.657,-33.934],[-53.13,-33.67],[-53.6,-33.404],[-54.067,-33.136],[-54.532,-32.866],[-54.993,-32.595],[-55.452,-32.322],[-55.908,-32.048],[-56.361,-31.772],[-56.812,-31.576],[-57.262,-31.379],[-57.709,-31.181],[-58.155,-30.981],[-58.599,-30.78],[-59.041,-30.577],[-59.481,-30.372]]}},{"type":"Feature","properties":{"boundary_type":"ridge","feature_type":"gpml:MidOceanRidge","polarity":null,"overriding_plate_id":null,"subducting_plate_id":null,"plate_ids":[801,98043],"name":"Tarim-Lut MOR"},"geometry":{"type":"LineString","coordinates":[[-17.614,9.275],[-17.559,9.396]]}},{"type":"Feature","properties":{"boundary_type":"ridge","feature_type":"gpml:MidOceanRidge","polarity":null,"overriding_plate_id":null,"subducting_plate_id":null,"plate_ids":[580,801],"name":"Tarim-Lut MOR"},"geometry":{"type":"LineString","coordinates":[[-17.559,9.396],[-17.372,9.808],[-17.184,10.219],[-16.996,10.63],[-16.808,11.041],[-16.618,11.452],[-16.429,11.863],[-16.238,12.273],[-16.047,12.684],[-15.856,13.094],[-15.664,13.504],[-15.905,13.792],[-16.148,14.08],[-16.391,14.367],[-16.196,14.82],[-15.999,15.273],[-15.802,15.725],[-15.604,16.178],[-15.406,16.63],[-15.206,17.082],[-15.005,17.534],[-14.803,17.986],[-14.601,18.437],[-14.397,18.888],[-14.192,19.339],[-13.986,19.79],[-13.778,20.241],[-13.57,20.691],[-13.36,21.141],[-13.149,21.591],[-12.937,22.04],[-13.337,22.143],[-13.738,22.245],[-14.139,22.345],[-13.898,22.752],[-13.655,23.158],[-13.411,23.564],[-13.165,23.97],[-12.918,24.375],[-12.669,24.78],[-12.418,25.185],[-12.166,25.589],[-11.912,25.992],[-11.657,26.395],[-11.399,26.798],[-11.14,27.2],[-10.879,27.602],[-10.546,27.433],[-10.214,27.263],[-9.937,27.683],[-9.657,28.102],[-9.376,28.521],[-9.092,28.939],[-8.806,29.357],[-8.518,29.774],[-8.227,30.19],[-7.934,30.606],[-7.638,31.021],[-8.091,31.212],[-8.545,31.401],[-8.276,31.745],[-8.005,32.089],[-7.732,32.432],[-7.457,32.774],[-7.18,33.116]]}},{"type":"Feature","properties":{"boundary_type":"ridge","feature_type":"gpml:MidOceanRidge","polarity":null,"overriding_plate_id":null,"subducting_plate_id":null,"plate_ids":[701,801],"name":"Aus-Azania MoR"},"geometry":{"type":"LineString","coordinates":[[79.3,-20.429],[79.088,-20.095],[78.878,-19.761],[78.668,-19.426],[79.005,-19.234],[79.341,-19.042],[79.082,-18.636],[78.825,-18.23],[78.569,-17.824],[78.313,-17.417],[78.059,-17.011],[77.806,-16.603],[77.555,-16.196],[77.304,-15.788],[77.054,-15.38],[76.805,-14.972],[76.557,-14.563],[76.31,-14.154],[76.618,-13.943],[76.925,-13.731],[76.67,-13.314],[76.415,-12.897],[76.161,-12.479],[75.909,-12.062],[75.656,-11.644],[75.405,-11.226],[75.155,-10.808],[74.905,-10.39],[74.655,-9.971],[74.407,-9.552],[74.159,-9.133]]}},{"type":"Feature","properties":{"boundary_type":"ridge","feature_type":"gpml:MidOceanRidge","polarity":null,"overriding_plate_id":null,"subducting_plate_id":null,"plate_ids":[801,5032],"name":"Aus-Azania MoR"},"geometry":{"type":"LineString","coordinates":[[74.159,-9.133],[73.958,-8.793],[73.757,-8.452],[73.557,-8.111]]}},{"type":"Feature","properties":{"boundary_type":"ridge","feature_type":"gpml:MidOceanRidge","polarity":null,"overriding_plate_id":null,"subducting_plate_id":null,"plate_ids":[801,5032],"name":"Mawson sea?"},"geometry":{"type":"LineString","coordinates":[[69.711,-9.982],[69.537,-9.617],[69.364,-9.251],[69.191,-8.885],[69.019,-8.52],[68.846,-8.154],[68.5,-8.315],[68.153,-8.476],[67.806,-8.636],[67.458,-8.796],[67.2,-8.378],[66.942,-7.961],[66.684,-7.542],[66.427,-7.124],[66.171,-6.706],[65.914,-6.287],[65.659,-5.869],[65.403,-5.45],[65.148,-5.031],[64.894,-4.612],[64.639,-4.193],[64.385,-3.774],[64.132,-3.354],[63.878,-2.935],[63.625,-2.516],[63.371,-2.096],[63.118,-1.677],[62.865,-1.257],[62.575,-1.432],[62.284,-1.606],[61.993,-1.78],[61.744,-1.385],[61.494,-0.99],[61.244,-0.596],[60.995,-0.201],[60.745,0.193]]}},{"type":"Feature","properties":{"boundary_type":"ridge","feature_type":"gpml:MidOceanRidge","polarity":null,"overriding_plate_id":null,"subducting_plate_id":null,"plate_ids":[101,701],"name":"Laurentia-Kalahari"},"geometry":{"type":"LineString","coordinates":[[114.501,-32.663],[114.037,-32.689],[113.572,-32.714],[113.645,-32.225],[113.716,-31.736],[113.787,-31.247],[113.857,-30.757],[113.926,-30.268],[113.995,-29.779],[114.063,-29.289],[114.13,-28.8],[114.197,-28.311],[114.263,-27.821],[114.328,-27.332],[114.393,-26.842],[114.458,-26.353],[114.521,-25.863],[114.585,-25.374],[114.647,-24.884],[114.71,-24.394],[114.771,-23.905],[114.833,-23.415],[114.467,-23.476],[114.101,-23.536],[114.155,-23.067],[114.209,-22.598],[114.262,-22.128],[114.314,-21.659],[114.367,-21.189],[114.419,-20.72],[114.471,-20.25],[114.522,-19.78],[114.573,-19.311],[114.624,-18.841],[114.674,-18.372],[114.725,-17.902],[114.775,-17.432],[114.824,-16.963],[114.421,-16.897],[114.019,-16.831],[113.616,-16.764],[113.676,-16.287],[113.737,-15.809],[113.796,-15.332],[113.856,-14.855],[113.915,-14.377],[113.464,-14.315],[113.014,-14.252],[113.085,-13.766],[113.155,-13.28],[113.225,-12.794],[113.295,-12.307],[113.365,-11.821],[113.434,-11.335],[113.503,-10.849],[113.572,-10.362],[113.641,-9.876],[113.709,-9.39],[113.778,-8.903],[113.846,-8.417],[113.914,-7.93],[113.981,-7.444],[114.049,-6.958],[114.117,-6.471],[114.184,-5.985],[114.251,-5.498],[114.318,-5.012],[114.385,-4.525],[114.452,-4.039],[114.519,-3.552],[114.586,-3.066],[114.653,-2.579],[114.719,-2.093],[114.786,-1.606],[114.852,-1.12]]}},{"type":"Feature","properties":{"boundary_type":"ridge","feature_type":"gpml:MidOceanRidge","polarity":null,"overriding_plate_id":null,"subducting_plate_id":null,"plate_ids":[101,801],"name":"Laurentia-Kalahari"},"geometry":{"type":"LineString","coordinates":[[114.852,-1.12],[114.908,-0.71],[114.965,-0.301],[114.49,-0.25],[114.016,-0.199],[113.541,-0.149],[113.067,-0.098],[112.593,-0.047],[112.118,0.004],[111.644,0.054]]}},{"type":"Feature","properties":{"boundary_type":"ridge","feature_type":"gpml:MidOceanRidge","polarity":null,"overriding_plate_id":null,"subducting_plate_id":null,"plate_ids":[101,98046],"name":"Laur rift unknown?"},"geometry":{"type":"LineString","coordinates":[[113.785,4.185],[114.235,4.155],[114.686,4.125],[115.136,4.095],[115.587,4.064],[116.037,4.034],[116.487,4.003],[116.938,3.971],[117.388,3.94],[117.838,3.908],[118.288,3.876],[118.386,4.342],[118.484,4.809],[118.581,5.275],[118.679,5.741],[118.777,6.207],[118.876,6.673],[119.289,6.835],[119.702,6.996],[120.115,7.158],[120.529,7.318],[120.943,7.479],[121.358,7.638],[121.772,7.798],[122.187,7.957],[122.306,8.359],[122.425,8.761],[122.544,9.163],[122.664,9.565],[122.784,9.967],[122.904,10.369],[123.408,10.411],[123.912,10.451],[124.416,10.491],[124.92,10.53],[125.424,10.568],[125.929,10.605],[126.434,10.641],[126.938,10.677],[127.443,10.712],[127.948,10.746],[128.453,10.779],[128.959,10.811],[129.464,10.843],[129.969,10.874],[130.475,10.904],[130.98,10.933],[131.486,10.961],[131.992,10.988],[132.498,11.015],[133.004,11.041],[133.51,11.066],[134.016,11.09],[134.522,11.113],[135.029,11.135],[135.535,11.157],[136.042,11.178],[136.548,11.197],[137.055,11.216],[137.562,11.235],[138.068,11.252],[138.575,11.268],[139.082,11.284],[139.589,11.298],[140.096,11.312],[140.603,11.325],[141.11,11.337],[141.617,11.349],[142.124,11.359],[142.631,11.369],[143.139,11.377],[143.646,11.385],[143.636,11.812],[143.627,12.239],[143.617,12.666],[143.607,13.093],[143.597,13.52],[144.098,13.487],[144.599,13.453],[145.099,13.418],[145.599,13.381],[146.1,13.344],[146.6,13.306],[147.099,13.267],[147.599,13.227],[148.098,13.186],[148.598,13.144],[149.097,13.101],[149.596,13.057],[150.095,13.012],[150.593,12.967],[151.092,12.92],[151.59,12.872],[152.088,12.823],[152.586,12.774],[153.083,12.723],[153.581,12.672],[154.078,12.62],[154.575,12.566],[155.072,12.512],[155.569,12.457],[156.065,12.401],[156.561,12.344],[157.057,12.286],[157.553,12.227],[158.048,12.168],[158.544,12.107],[159.039,12.046],[159.534,11.984],[160.028,11.921],[160.174,12.381],[160.321,12.84],[160.468,13.3],[160.615,13.76],[161.126,13.786],[161.637,13.811],[162.148,13.836],[162.659,13.859],[163.17,13.881],[163.681,13.902],[164.193,13.922],[164.704,13.941],[165.216,13.959],[165.727,13.975],[166.239,13.991],[166.751,14.006],[167.262,14.019],[167.774,14.032],[168.286,14.043],[168.798,14.054],[169.31,14.063],[169.822,14.071],[170.334,14.078],[170.847,14.084],[171.359,14.089],[171.871,14.093],[172.383,14.096],[172.895,14.097],[173.407,14.098],[173.92,14.097],[174.432,14.096],[174.468,14.578],[174.504,15.06],[174.541,15.542],[174.577,16.024],[174.614,16.506],[174.651,16.988],[174.688,17.47],[174.726,17.952],[174.763,18.434],[174.801,18.916],[174.839,19.398],[175.339,19.366],[175.838,19.333],[176.337,19.298],[176.836,19.262],[177.335,19.225],[177.833,19.186],[178.331,19.146],[178.829,19.104],[179.327,19.062],[179.824,19.017],[-179.679,18.972],[-179.182,18.925]]}},{"type":"Feature","properties":{"boundary_type":"ridge","feature_type":"gpml:MidOceanRidge","polarity":null,"overriding_plate_id":null,"subducting_plate_id":null,"plate_ids":[801,98044],"name":"Aus rift unknown?"},"geometry":{"type":"LineString","coordinates":[[104.941,59.324],[105.054,58.838],[105.164,58.352],[105.272,57.866],[105.376,57.379],[105.478,56.893],[105.577,56.406],[105.674,55.919],[105.768,55.432],[105.86,54.946],[105.95,54.459],[106.037,53.972],[106.123,53.485],[106.207,52.998],[106.289,52.51],[106.369,52.023],[106.447,51.536],[106.524,51.049],[106.599,50.561],[106.672,50.074],[106.744,49.586],[106.815,49.099]]}},{"type":"Feature","properties":{"boundary_type":"ridge","feature_type":"gpml:MidOceanRidge","polarity":null,"overriding_plate_id":null,"subducting_plate_id":null,"plate_ids":[801,98046],"name":"Aus rift unknown?"},"geometry":{"type":"LineString","coordinates":[[106.815,49.099],[106.858,48.796],[106.9,48.494],[106.301,48.222],[105.709,47.947],[105.122,47.669],[104.542,47.388],[103.968,47.105],[103.4,46.818],[102.839,46.529],[102.283,46.237],[102.444,45.771],[102.602,45.305],[102.757,44.838],[102.91,44.372],[103.061,43.905],[103.209,43.438],[103.355,42.971],[103.499,42.504],[103.64,42.036],[103.78,41.569],[103.918,41.101],[104.053,40.633],[104.187,40.165],[104.319,39.697],[104.449,39.228],[104.577,38.76],[104.704,38.291],[104.829,37.822],[105.345,37.679],[105.859,37.534],[105.908,37.045],[105.956,36.556],[106.003,36.066],[106.05,35.577],[106.097,35.088],[106.142,34.598],[106.188,34.109],[106.232,33.619],[106.277,33.13],[106.32,32.641],[106.364,32.151],[106.406,31.662],[106.449,31.172],[106.491,30.683],[106.532,30.193],[106.573,29.704],[106.614,29.214],[106.654,28.724],[106.694,28.235],[106.734,27.745],[106.773,27.256],[106.812,26.766],[106.85,26.276],[106.889,25.787],[106.927,25.297],[106.964,24.808],[107.001,24.318],[107.038,23.828],[107.075,23.339],[107.112,22.849],[107.148,22.359],[107.184,21.869],[107.219,21.38],[107.255,20.89],[107.29,20.4],[107.325,19.911],[107.36,19.421],[107.394,18.931],[107.429,18.441],[107.463,17.952],[107.497,17.462],[107.531,16.972],[108.029,16.963],[108.528,16.952],[109.026,16.94],[109.525,16.927],[110.023,16.913],[110.521,16.897],[111.019,16.88],[111.517,16.862],[112.015,16.843],[112.513,16.823],[113.011,16.801],[113.508,16.779],[114.006,16.755],[113.972,16.268],[113.938,15.781],[113.904,15.294],[113.87,14.808],[113.836,14.321],[113.803,13.834],[113.77,13.348],[113.737,12.861],[113.704,12.374],[113.671,11.887],[113.638,11.401],[113.605,10.914],[113.573,10.427],[113.541,9.94],[113.508,9.454],[113.476,8.967],[113.444,8.48],[113.412,7.993],[113.38,7.507],[113.348,7.02],[113.316,6.533],[113.284,6.046],[113.252,5.559],[113.221,5.073],[113.189,4.586],[113.157,4.099],[113.126,3.612],[113.094,3.126],[113.063,2.639]]}},{"type":"Feature","properties":{"boundary_type":"ridge","feature_type":"gpml:MidOceanRidge","polarity":null,"overriding_plate_id":null,"subducting_plate_id":null,"plate_ids":[3003,98044],"name":"MOR of unnamed large oceanic plate"},"geometry":{"type":"LineString","coordinates":[[-150.782,14.462],[-150.294,14.314],[-149.806,14.165],[-149.32,14.014],[-148.834,13.863],[-148.348,13.711],[-147.863,13.558],[-147.379,13.404],[-146.896,13.249],[-146.413,13.094],[-145.93,12.937],[-145.449,12.779],[-144.967,12.621],[-144.487,12.462],[-144.007,12.302],[-143.528,12.141],[-143.049,11.979],[-142.571,11.816],[-142.093,11.653],[-141.616,11.489],[-141.14,11.324],[-140.664,11.158],[-140.188,10.991],[-139.713,10.824],[-139.239,10.656],[-138.765,10.488],[-138.292,10.318],[-137.819,10.148],[-137.347,9.977],[-136.875,9.806],[-136.404,9.634],[-135.933,9.461],[-135.463,9.288],[-134.993,9.114],[-134.523,8.94],[-134.054,8.764],[-133.586,8.589],[-133.118,8.412],[-132.65,8.236],[-132.448,8.682],[-132.246,9.129],[-132.043,9.576],[-131.84,10.022],[-131.636,10.468],[-131.432,10.915],[-131.227,11.361],[-131.021,11.807],[-130.814,12.252],[-130.607,12.698],[-130.4,13.143],[-130.191,13.589],[-129.982,14.034],[-129.772,14.479],[-129.561,14.923],[-129.349,15.368],[-128.881,15.166],[-128.414,14.964],[-127.948,14.761],[-127.482,14.557],[-127.018,14.352],[-126.554,14.146],[-126.092,13.939],[-125.63,13.731],[-125.169,13.522],[-124.708,13.313],[-124.249,13.103],[-123.79,12.892],[-123.332,12.68],[-122.875,12.467],[-122.419,12.254],[-121.963,12.039],[-121.508,11.825],[-121.054,11.609],[-120.6,11.393],[-120.147,11.176],[-119.695,10.958],[-119.244,10.739],[-118.793,10.52],[-118.343,10.301],[-117.893,10.08],[-117.444,9.859],[-116.996,9.638],[-116.548,9.416],[-116.101,9.193],[-115.654,8.97],[-115.208,8.746],[-114.763,8.522],[-114.318,8.297],[-113.873,8.072],[-113.429,7.846],[-112.986,7.62],[-112.543,7.393],[-112.1,7.166],[-111.658,6.939],[-111.216,6.711],[-110.775,6.483],[-110.334,6.254],[-109.893,6.025],[-109.453,5.795],[-109.013,5.566],[-108.574,5.336],[-108.135,5.105],[-107.696,4.875],[-107.257,4.644],[-106.819,4.412],[-106.381,4.181],[-105.944,3.949],[-105.506,3.717],[-105.069,3.485],[-104.632,3.253],[-104.195,3.02],[-104.448,2.611],[-104.7,2.201],[-104.953,1.792],[-105.205,1.383],[-105.458,0.973],[-105.71,0.564],[-105.962,0.155],[-106.214,-0.255],[-105.778,-0.49],[-105.342,-0.725],[-104.906,-0.959],[-104.47,-1.194],[-104.033,-1.429],[-103.597,-1.664],[-103.16,-1.898],[-102.724,-2.133],[-102.287,-2.367],[-101.85,-2.601],[-101.413,-2.835],[-100.976,-3.069],[-100.538,-3.303],[-100.101,-3.536],[-99.663,-3.769],[-99.225,-4.002],[-98.786,-4.235],[-98.348,-4.468],[-97.909,-4.7],[-97.47,-4.932],[-97.03,-5.164],[-96.59,-5.395],[-96.15,-5.627],[-95.71,-5.857],[-95.269,-6.088],[-94.828,-6.318],[-94.386,-6.548],[-93.944,-6.777],[-93.502,-7.006],[-93.059,-7.234],[-92.615,-7.463],[-92.171,-7.69],[-91.727,-7.917],[-91.282,-8.144],[-90.837,-8.37],[-90.391,-8.596],[-89.945,-8.821],[-89.498,-9.046],[-89.051,-9.27],[-88.603,-9.494],[-88.154,-9.717],[-87.705,-9.939],[-87.255,-10.161],[-86.805,-10.383],[-86.354,-10.603],[-85.902,-10.823],[-85.45,-11.042],[-84.997,-11.261],[-84.543,-11.479]]}},{"type":"Feature","properties":{"boundary_type":"ridge","feature_type":"gpml:MidOceanRidge","polarity":null,"overriding_plate_id":null,"subducting_plate_id":null,"plate_ids":[98043,98044],"name":"MOR of unnamed large oceanic plate"},"geometry":{"type":"LineString","coordinates":[[-84.282,-13.965],[-83.821,-13.754],[-83.36,-13.541],[-82.901,-13.328],[-82.442,-13.114],[-81.984,-12.9],[-81.527,-12.684],[-81.071,-12.468],[-80.616,-12.251],[-80.161,-12.033],[-79.707,-11.815],[-79.253,-11.596],[-78.801,-11.376],[-78.349,-11.155],[-77.898,-10.934],[-77.447,-10.712],[-76.997,-10.489],[-76.548,-10.266],[-76.099,-10.042],[-75.651,-9.818],[-75.204,-9.593],[-74.757,-9.367],[-74.311,-9.141],[-73.865,-8.914],[-73.42,-8.687],[-72.976,-8.459],[-72.532,-8.231],[-72.088,-8.002],[-71.645,-7.773],[-71.203,-7.543],[-70.761,-7.313],[-70.319,-7.083],[-69.878,-6.852],[-69.437,-6.62],[-68.997,-6.389],[-68.557,-6.157],[-68.117,-5.924],[-67.678,-5.691],[-67.239,-5.458],[-66.801,-5.225],[-66.363,-4.991],[-65.925,-4.757],[-65.487,-4.522],[-65.05,-4.288],[-64.613,-4.053],[-64.177,-3.818],[-63.74,-3.583],[-63.304,-3.347],[-62.868,-3.111],[-62.432,-2.875],[-61.996,-2.639],[-61.561,-2.403],[-61.125,-2.167],[-60.69,-1.93],[-60.255,-1.694],[-59.82,-1.457],[-59.385,-1.22],[-58.95,-0.983],[-58.516,-0.746],[-58.081,-0.51],[-57.646,-0.273],[-57.212,-0.036],[-56.777,0.201],[-56.342,0.438],[-56.057,0.105],[-55.773,-0.228],[-55.488,-0.561],[-55.203,-0.894],[-54.918,-1.227],[-54.446,-1.089],[-53.974,-0.951],[-53.502,-0.813],[-53.03,-0.674],[-52.558,-0.536],[-52.086,-0.398],[-51.614,-0.259],[-51.142,-0.121],[-50.67,0.018],[-50.198,0.156],[-49.726,0.295],[-49.253,0.433],[-48.781,0.571],[-48.309,0.71],[-47.837,0.848],[-47.365,0.986],[-46.893,1.124],[-46.421,1.263],[-45.949,1.401],[-45.476,1.538],[-45.004,1.676],[-44.531,1.814],[-44.059,1.952],[-43.586,2.089],[-43.114,2.226],[-42.641,2.363],[-42.168,2.5],[-41.695,2.637],[-41.222,2.774],[-40.749,2.91],[-40.275,3.047],[-39.802,3.183],[-39.329,3.318],[-38.855,3.454],[-38.381,3.589],[-37.907,3.725],[-37.433,3.859],[-36.959,3.994],[-36.484,4.128],[-36.01,4.262],[-35.535,4.396],[-35.06,4.53],[-34.585,4.663],[-34.347,4.247],[-34.11,3.831],[-33.872,3.414],[-33.635,2.998],[-33.398,2.582],[-33.161,2.166],[-32.697,2.332],[-32.233,2.498],[-31.768,2.664],[-31.304,2.829],[-30.839,2.995],[-30.375,3.16],[-29.91,3.325],[-29.445,3.49],[-28.98,3.654],[-28.514,3.819],[-28.049,3.983],[-27.583,4.147],[-27.117,4.31],[-26.651,4.474],[-26.185,4.637],[-25.718,4.799],[-25.251,4.962],[-24.784,5.124],[-24.317,5.285],[-23.849,5.447],[-23.382,5.608],[-22.914,5.768],[-22.446,5.929],[-21.977,6.088],[-21.508,6.248],[-21.039,6.407],[-20.57,6.566],[-20.1,6.724],[-19.63,6.881],[-19.16,7.039],[-18.689,7.195],[-18.218,7.352],[-17.747,7.508],[-17.275,7.663],[-16.803,7.818],[-16.331,7.972],[-15.858,8.126],[-15.385,8.279]]}},{"type":"Feature","properties":{"boundary_type":"ridge","feature_type":"gpml:MidOceanRidge","polarity":null,"overriding_plate_id":null,"subducting_plate_id":null,"plate_ids":[3003,98044],"name":"Mirovoi MOR"},"geometry":{"type":"LineString","coordinates":[[-84.543,-11.479],[-84.491,-11.976],[-84.439,-12.473],[-84.387,-12.971],[-84.334,-13.468],[-84.282,-13.965]]}},{"type":"Feature","properties":{"boundary_type":"ridge","feature_type":"gpml:MidOceanRidge","polarity":null,"overriding_plate_id":null,"subducting_plate_id":null,"plate_ids":[3003,98043],"name":"Mirovoi MOR"},"geometry":{"type":"LineString","coordinates":[[-84.282,-13.965],[-84.23,-14.451],[-84.178,-14.937],[-84.126,-15.423],[-84.074,-15.909],[-84.021,-16.396],[-83.968,-16.882],[-83.915,-17.368],[-83.861,-17.854],[-83.807,-18.34],[-83.753,-18.826]]}},{"type":"Feature","properties":{"boundary_type":"ridge","feature_type":"gpml:MidOceanRidge","polarity":null,"overriding_plate_id":null,"subducting_plate_id":null,"plate_ids":[3003,98043],"name":"Mirovoi MOR"},"geometry":{"type":"LineString","coordinates":[[-83.753,-18.826],[-83.342,-18.795],[-82.931,-18.763],[-82.519,-18.731],[-82.498,-19.221],[-82.477,-19.711],[-82.456,-20.201],[-82.435,-20.692],[-82.413,-21.182],[-82.391,-21.672],[-82.37,-22.162],[-82.348,-22.653],[-82.325,-23.143],[-82.303,-23.633],[-82.281,-24.123],[-82.258,-24.613],[-82.235,-25.103],[-82.212,-25.594],[-82.189,-26.084],[-82.166,-26.574],[-82.142,-27.064],[-82.118,-27.554],[-82.094,-28.045],[-82.07,-28.535],[-82.045,-29.025],[-82.021,-29.515],[-81.996,-30.005],[-81.971,-30.495],[-81.945,-30.985],[-81.92,-31.476],[-81.894,-31.966],[-81.867,-32.456],[-81.841,-32.946]]}},{"type":"Feature","properties":{"boundary_type":"ridge","feature_type":"gpml:MidOceanRidge","polarity":null,"overriding_plate_id":null,"subducting_plate_id":null,"plate_ids":[101,401],"name":"siberia-Timan small ridge"},"geometry":{"type":"LineString","coordinates":[[-146.381,-16.839],[-146.781,-17.115],[-147.182,-17.389],[-147.584,-17.663],[-147.988,-17.936],[-148.393,-18.208],[-148.799,-18.479],[-149.206,-18.749],[-149.615,-19.019],[-150.025,-19.287],[-150.436,-19.555],[-150.849,-19.821],[-151.263,-20.087],[-151.54,-19.699],[-151.816,-19.312],[-152.09,-18.923],[-152.363,-18.535],[-152.635,-18.145],[-152.905,-17.756],[-153.175,-17.366],[-153.443,-16.976],[-153.71,-16.585],[-154.101,-16.84],[-154.493,-17.094],[-154.886,-17.346],[-155.28,-17.599],[-155.676,-17.85],[-156.072,-18.101],[-156.47,-18.35],[-156.868,-18.599],[-157.268,-18.847],[-157.669,-19.095],[-157.929,-18.704],[-158.187,-18.312],[-158.443,-17.92],[-158.699,-17.528],[-158.954,-17.136],[-159.422,-17.347],[-159.89,-17.558],[-160.36,-17.767],[-160.831,-17.975],[-161.303,-18.182],[-161.777,-18.388],[-162.251,-18.592],[-162.727,-18.796],[-163.203,-18.998],[-163.681,-19.199],[-164.16,-19.399],[-164.64,-19.597],[-165.121,-19.794],[-165.604,-19.99],[-166.088,-20.185],[-166.573,-20.378],[-167.059,-20.57],[-167.546,-20.761],[-168.035,-20.95],[-168.525,-21.138],[-169.016,-21.324],[-169.508,-21.509]]}},{"type":"Feature","properties":{"boundary_type":"ridge","feature_type":"gpml:MidOceanRidge","polarity":null,"overriding_plate_id":null,"subducting_plate_id":null,"plate_ids":[101,22053],"name":"Parana-Rodinia ridge"},"geometry":{"type":"LineString","coordinates":[[96.957,-70.871],[97.235,-70.385],[97.501,-69.897],[97.754,-69.41],[97.996,-68.922],[98.227,-68.434],[98.449,-67.945],[98.661,-67.456],[98.865,-66.967],[99.061,-66.478],[99.249,-65.988],[99.431,-65.498],[99.605,-65.008],[99.773,-64.518],[99.936,-64.028],[100.093,-63.537],[100.244,-63.046],[100.39,-62.556],[100.532,-62.064],[100.669,-61.573],[100.802,-61.082],[100.931,-60.59],[101.056,-60.099],[101.177,-59.607],[101.295,-59.115],[101.41,-58.624],[101.521,-58.132],[101.629,-57.639],[101.734,-57.147],[101.837,-56.655],[101.937,-56.163],[102.034,-55.67],[102.129,-55.178],[102.222,-54.685]]}},{"type":"Feature","properties":{"boundary_type":"ridge","feature_type":"gpml:MidOceanRidge","polarity":null,"overriding_plate_id":null,"subducting_plate_id":null,"plate_ids":[101,701],"name":"Parana-Rodinia ridge"},"geometry":{"type":"LineString","coordinates":[[102.222,-54.685],[102.288,-54.329],[102.352,-53.973],[102.415,-53.617],[103.231,-53.626],[104.047,-53.63],[104.863,-53.628],[104.96,-53.166],[105.055,-52.704],[105.148,-52.241],[105.239,-51.779],[105.328,-51.317],[105.415,-50.854],[105.5,-50.392],[105.584,-49.929],[105.666,-49.466],[105.747,-49.003],[105.826,-48.541],[105.904,-48.078],[105.98,-47.615]]}},{"type":"Feature","properties":{"boundary_type":"ridge","feature_type":"gpml:MidOceanRidge","polarity":null,"overriding_plate_id":null,"subducting_plate_id":null,"plate_ids":[101,714],"name":"Amazonia-WAC ridge"},"geometry":{"type":"LineString","coordinates":[[118.361,-66.653],[119.263,-66.676],[120.166,-66.695],[121.378,-66.778],[122.597,-66.852],[123.824,-66.917],[125.056,-66.972],[126.294,-67.017],[127.536,-67.053],[128.781,-67.079],[130.028,-67.096],[131.276,-67.102],[132.524,-67.099],[133.772,-67.086],[135.018,-67.064],[136.261,-67.032],[137.5,-66.99],[138.735,-66.938],[139.964,-66.877],[141.186,-66.807],[142.401,-66.727],[143.607,-66.637],[144.804,-66.539],[145.992,-66.432],[147.169,-66.315],[148.334,-66.19],[149.488,-66.056],[150.69,-66.125],[151.898,-66.184],[153.112,-66.233],[154.329,-66.273],[155.55,-66.304],[156.774,-66.325],[157.999,-66.336],[159.225,-66.338],[160.45,-66.33],[161.674,-66.312],[162.896,-66.285],[164.115,-66.248],[165.33,-66.202],[166.54,-66.146],[167.745,-66.081],[168.942,-66.006],[170.132,-65.922],[171.314,-65.829],[172.488,-65.727],[173.691,-65.676],[174.889,-65.614],[176.081,-65.544],[177.266,-65.464],[178.444,-65.375],[179.613,-65.277],[-179.227,-65.17],[-178.077,-65.054],[-176.937,-64.929],[-175.808,-64.795],[-174.69,-64.653],[-173.584,-64.503],[-172.491,-64.345],[-171.411,-64.178],[-170.344,-64.004],[-169.29,-63.822],[-168.25,-63.632],[-167.224,-63.435],[-166.213,-63.23],[-165.216,-63.019],[-164.233,-62.801],[-163.162,-62.766],[-162.093,-62.723],[-161.028,-62.673],[-159.966,-62.614],[-158.909,-62.547],[-157.857,-62.472],[-156.811,-62.39],[-155.77,-62.299],[-154.737,-62.201],[-153.71,-62.095],[-152.69,-61.982],[-151.678,-61.861],[-150.675,-61.733],[-149.68,-61.597],[-148.694,-61.454],[-147.717,-61.305],[-146.75,-61.148],[-145.792,-60.985],[-144.844,-60.814],[-143.907,-60.638],[-142.98,-60.454],[-142.064,-60.265],[-142.462,-59.808],[-142.849,-59.35],[-143.226,-58.891],[-143.593,-58.431],[-143.951,-57.97],[-144.299,-57.508],[-144.639,-57.045],[-144.971,-56.581],[-145.294,-56.116],[-145.61,-55.651],[-145.918,-55.184],[-146.219,-54.717],[-146.513,-54.249],[-146.801,-53.781],[-147.082,-53.311],[-147.358,-52.842],[-147.627,-52.371],[-147.89,-51.9],[-148.149,-51.428],[-148.401,-50.956],[-148.649,-50.483],[-148.892,-50.01],[-149.13,-49.536],[-149.364,-49.062],[-149.593,-48.587],[-149.818,-48.112],[-150.038,-47.636],[-150.255,-47.16],[-150.468,-46.684],[-150.677,-46.207],[-150.883,-45.73],[-151.085,-45.252],[-151.284,-44.774],[-151.479,-44.296],[-151.671,-43.818],[-151.86,-43.339],[-152.047,-42.86],[-152.23,-42.38],[-152.411,-41.9],[-151.764,-41.816],[-151.12,-41.728],[-150.477,-41.636],[-149.836,-41.541],[-149.197,-41.442],[-148.56,-41.34],[-147.925,-41.234],[-147.292,-41.125],[-146.661,-41.012],[-146.033,-40.896],[-145.406,-40.776],[-144.782,-40.653],[-144.161,-40.527],[-143.541,-40.397],[-142.924,-40.264],[-142.31,-40.128],[-141.698,-39.989],[-141.088,-39.846],[-140.481,-39.7],[-139.877,-39.551],[-139.275,-39.399],[-138.676,-39.244],[-138.08,-39.086],[-137.486,-38.925],[-136.895,-38.761],[-136.307,-38.593],[-135.721,-38.423],[-135.138,-38.25],[-134.558,-38.074],[-133.981,-37.896],[-133.407,-37.714],[-132.835,-37.53],[-132.267,-37.343],[-131.701,-37.153],[-131.138,-36.961],[-130.578,-36.766],[-130.021,-36.568]]}},{"type":"Feature","properties":{"boundary_type":"transform","feature_type":"gpml:Transform","polarity":null,"overriding_plate_id":null,"subducting_plate_id":null,"plate_ids":[701,714],"name":"Transform?"},"geometry":{"type":"LineString","coordinates":[[15.264,-68.347],[15.99,-67.984],[16.694,-67.619],[17.377,-67.251],[18.039,-66.879],[18.681,-66.506],[19.304,-66.129],[19.909,-65.751]]}},{"type":"Feature","properties":{"boundary_type":"transform","feature_type":"gpml:Transform","polarity":null,"overriding_plate_id":null,"subducting_plate_id":null,"plate_ids":[701,715],"name":"Transform?"},"geometry":{"type":"LineString","coordinates":[[19.909,-65.751],[20.488,-65.375],[21.05,-64.997],[21.597,-64.618],[22.089,-64.224],[22.567,-63.829],[23.032,-63.433],[23.484,-63.035],[23.925,-62.636],[24.353,-62.235],[24.464,-61.804],[24.572,-61.373],[24.677,-60.941],[24.779,-60.51],[24.879,-60.078]]}},{"type":"Feature","properties":{"boundary_type":"transform","feature_type":"gpml:Transform","polarity":null,"overriding_plate_id":null,"subducting_plate_id":null,"plate_ids":[5032,5901],"name":"transform"},"geometry":{"type":"LineString","coordinates":[[21.86,-12.86],[21.957,-13.224],[22.054,-13.588],[22.152,-13.952],[22.249,-14.316],[22.356,-14.788],[22.463,-15.26],[22.57,-15.733],[22.678,-16.205],[22.787,-16.677],[22.896,-17.149],[23.005,-17.621],[23.115,-18.093],[23.226,-18.564],[23.338,-19.036],[23.45,-19.508],[23.562,-19.98],[23.676,-20.451],[23.79,-20.923],[23.904,-21.394],[24.02,-21.865],[24.136,-22.337],[24.253,-22.808],[24.371,-23.279],[24.412,-23.767],[24.453,-24.256],[24.494,-24.744],[24.536,-25.233],[24.578,-25.721],[24.621,-26.209],[24.663,-26.698],[24.707,-27.186],[24.75,-27.675],[24.794,-28.163]]}},{"type":"Feature","properties":{"boundary_type":"transform","feature_type":"gpml:Transform","polarity":null,"overriding_plate_id":null,"subducting_plate_id":null,"plate_ids":[801,5031],"name":"transform"},"geometry":{"type":"LineString","coordinates":[[21.344,-4.524],[21.363,-4.978],[21.381,-5.433],[21.399,-5.887],[21.417,-6.342],[21.436,-6.796],[21.454,-7.251],[21.472,-7.705],[21.491,-8.159],[21.509,-8.614],[21.528,-9.068]]}},{"type":"Feature","properties":{"boundary_type":"transform","feature_type":"gpml:Transform","polarity":null,"overriding_plate_id":null,"subducting_plate_id":null,"plate_ids":[5031,5032],"name":"transform"},"geometry":{"type":"LineString","coordinates":[[21.528,-9.068],[21.546,-9.503],[21.564,-9.937],[21.581,-10.372],[21.599,-10.806],[21.669,-11.216],[21.739,-11.626],[21.809,-12.035],[21.88,-12.445],[21.95,-12.854]]}},{"type":"Feature","properties":{"boundary_type":"transform","feature_type":"gpml:Transform","polarity":null,"overriding_plate_id":null,"subducting_plate_id":null,"plate_ids":[5901,98043],"name":"ANS transform"},"geometry":{"type":"LineString","coordinates":[[-3.284,-24.621],[-3.29,-24.131],[-3.295,-23.64],[-3.3,-23.15],[-3.305,-22.659],[-3.31,-22.169],[-3.315,-21.678],[-3.32,-21.187],[-3.325,-20.697],[-3.33,-20.206],[-3.335,-19.716],[-3.398,-19.285],[-3.46,-18.855],[-3.523,-18.425],[-3.585,-17.995],[-3.646,-17.565],[-3.708,-17.135]]}},{"type":"Feature","properties":{"boundary_type":"transform","feature_type":"gpml:Transform","polarity":null,"overriding_plate_id":null,"subducting_plate_id":null,"plate_ids":[98044,98046],"name":"transform"},"geometry":{"type":"LineString","coordinates":[[-177.952,24.885],[-178.062,24.428],[-178.17,23.97],[-178.278,23.513],[-178.385,23.055],[-178.491,22.598],[-178.596,22.14],[-178.701,21.682],[-178.805,21.224]]}},{"type":"Feature","properties":{"boundary_type":"transform","feature_type":"gpml:Transform","polarity":null,"overriding_plate_id":null,"subducting_plate_id":null,"plate_ids":[401,98046],"name":"transform"},"geometry":{"type":"LineString","coordinates":[[-178.805,21.224],[-178.89,20.847],[-178.975,20.469],[-179.06,20.091],[-179.101,19.703],[-179.142,19.314],[-179.182,18.925]]}},{"type":"Feature","properties":{"boundary_type":"transform","feature_type":"gpml:Transform","polarity":null,"overriding_plate_id":null,"subducting_plate_id":null,"plate_ids":[101,401],"name":"transform"},"geometry":{"type":"LineString","coordinates":[[-179.182,18.925],[-179.231,18.45],[-179.281,17.974],[-179.329,17.498],[-179.378,17.023],[-179.426,16.547],[-179.474,16.072],[-179.522,15.596],[-179.57,15.12],[-179.617,14.645],[-179.665,14.169],[-179.712,13.693],[-179.758,13.218],[-179.805,12.742],[-179.8,12.253],[-179.795,11.764],[-179.79,11.275],[-179.784,10.785],[-179.779,10.296],[-179.774,9.807],[-179.769,9.318],[-179.764,8.829],[-179.759,8.34],[-179.754,7.85],[-179.749,7.361],[-179.744,6.872],[-179.739,6.383],[-179.734,5.894],[-179.641,5.427],[-179.548,4.96],[-179.455,4.494],[-179.362,4.027],[-179.269,3.56],[-179.177,3.094],[-179.084,2.627],[-178.992,2.16],[-178.899,1.694],[-178.807,1.227],[-178.715,0.76],[-178.623,0.293],[-178.53,-0.173],[-178.438,-0.64],[-178.346,-1.107],[-178.253,-1.574],[-178.161,-2.04],[-178.069,-2.507],[-177.976,-2.974],[-177.884,-3.44],[-177.742,-3.895],[-177.601,-4.351],[-177.459,-4.806],[-177.318,-5.261],[-177.175,-5.716],[-177.033,-6.17],[-176.891,-6.625],[-176.748,-7.08],[-176.605,-7.535],[-176.462,-7.99],[-176.318,-8.445],[-176.174,-8.899],[-176.029,-9.354],[-175.885,-9.808],[-175.74,-10.263],[-175.594,-10.717],[-175.448,-11.172],[-175.223,-11.612],[-174.998,-12.052],[-174.772,-12.491],[-174.545,-12.931],[-174.317,-13.37],[-174.088,-13.809],[-173.859,-14.248],[-173.628,-14.686],[-173.397,-15.125],[-173.165,-15.563],[-172.932,-16.001],[-172.697,-16.438],[-172.462,-16.876],[-172.226,-17.313],[-171.988,-17.75],[-171.749,-18.186],[-171.474,-18.603],[-171.198,-19.02],[-170.92,-19.436],[-170.64,-19.851],[-170.36,-20.266],[-170.077,-20.681],[-169.793,-21.095],[-169.508,-21.509]]}},{"type":"Feature","properties":{"boundary_type":"transform","feature_type":"gpml:Transform","polarity":null,"overriding_plate_id":null,"subducting_plate_id":null,"plate_ids":[77144,77148],"name":"Hoggar transform"},"geometry":{"type":"LineString","coordinates":[[-17.246,-51.547],[-17.346,-51.993],[-17.447,-52.439],[-17.656,-52.841],[-17.869,-53.243],[-18.085,-53.645],[-18.306,-54.047],[-18.712,-54.401],[-19.124,-54.753],[-19.544,-55.104],[-19.971,-55.454],[-20.406,-55.802],[-20.855,-56.168],[-21.312,-56.532],[-21.778,-56.895],[-22.253,-57.255],[-22.482,-57.395]]}},{"type":"Feature","properties":{"boundary_type":"transform","feature_type":"gpml:Transform","polarity":null,"overriding_plate_id":null,"subducting_plate_id":null,"plate_ids":[714,77147],"name":"Iforas granulitic unit transform"},"geometry":{"type":"LineString","coordinates":[[-29.211,-56.389],[-28.573,-56.199],[-28.047,-56.011],[-27.525,-55.82],[-27.048,-55.699]]}},{"type":"Feature","properties":{"boundary_type":"transform","feature_type":"gpml:Transform","polarity":null,"overriding_plate_id":null,"subducting_plate_id":null,"plate_ids":[401,3003],"name":"Siberia transform"},"geometry":{"type":"LineString","coordinates":[[-147.796,-13.13],[-147.35,-13.166],[-146.904,-13.202],[-146.458,-13.238]]}},{"type":"Feature","properties":{"boundary_type":"transform","feature_type":"gpml:Transform","polarity":null,"overriding_plate_id":null,"subducting_plate_id":null,"plate_ids":[580,801],"name":"Tarim transform"},"geometry":{"type":"LineString","coordinates":[[-7.18,33.116],[-7.229,33.526],[-7.28,33.936],[-6.976,34.344],[-6.669,34.751],[-6.359,35.158],[-6.047,35.564],[-5.73,35.969],[-5.411,36.373],[-5.088,36.776],[-4.762,37.178],[-4.414,37.545],[-4.062,37.91],[-3.706,38.275],[-3.347,38.638],[-2.984,39.0],[-2.617,39.361],[-2.247,39.721],[-1.671,39.901],[-1.092,40.079],[-0.511,40.254],[0.074,40.426],[0.662,40.594]]}},{"type":"Feature","properties":{"boundary_type":"transform","feature_type":"gpml:Transform","polarity":null,"overriding_plate_id":null,"subducting_plate_id":null,"plate_ids":[701,801],"name":"Transform"},"geometry":{"type":"LineString","coordinates":[[79.3,-20.429],[79.699,-20.216],[80.098,-20.002],[80.495,-19.788],[80.891,-19.572],[81.287,-19.356],[81.658,-19.044],[82.028,-18.732],[82.396,-18.419],[82.764,-18.105],[83.13,-17.791],[83.494,-17.476],[83.857,-17.16],[84.22,-16.844],[84.58,-16.527],[84.94,-16.21],[85.299,-15.891],[85.656,-15.573],[86.012,-15.253],[86.368,-14.933],[86.722,-14.613],[87.075,-14.292],[87.534,-14.074],[87.992,-13.856],[88.449,-13.636],[88.905,-13.416],[89.36,-13.195],[89.815,-12.973],[90.268,-12.75],[90.721,-12.526],[91.173,-12.302],[91.624,-12.077],[92.075,-11.851],[92.525,-11.625],[92.974,-11.398],[93.422,-11.17],[93.824,-10.89],[94.226,-10.61],[94.626,-10.33],[95.026,-10.048],[95.426,-9.767],[95.824,-9.485],[96.222,-9.202],[96.619,-8.919],[97.016,-8.636],[97.412,-8.352],[97.808,-8.068],[98.202,-7.783],[98.597,-7.498],[98.991,-7.213],[99.423,-6.967],[99.855,-6.721],[100.286,-6.474],[100.717,-6.227],[101.147,-5.98],[101.578,-5.732],[102.007,-5.484],[102.437,-5.236],[102.866,-4.987],[103.294,-4.738],[103.723,-4.489],[104.151,-4.239],[104.579,-3.99],[104.956,-3.825],[105.333,-3.661],[105.711,-3.496],[106.087,-3.332],[106.464,-3.167],[106.916,-3.064],[107.368,-2.962],[107.819,-2.859],[108.271,-2.756],[108.722,-2.653],[109.174,-2.55],[109.647,-2.431],[110.121,-2.313],[110.594,-2.194],[111.068,-2.075],[111.541,-1.956],[112.014,-1.837],[112.487,-1.718],[112.96,-1.598],[113.434,-1.479],[113.907,-1.359],[114.379,-1.24],[114.852,-1.12]]}},{"type":"Feature","properties":{"boundary_type":"transform","feature_type":"gpml:Transform","polarity":null,"overriding_plate_id":null,"subducting_plate_id":null,"plate_ids":[801,5032],"name":"TOAST-DML compressive(?) transform"},"geometry":{"type":"LineString","coordinates":[[69.711,-9.982],[70.14,-9.776],[70.569,-9.57],[70.997,-9.363],[71.425,-9.156],[71.852,-8.948],[72.279,-8.739],[72.705,-8.53],[73.131,-8.321],[73.557,-8.111]]}},{"type":"Feature","properties":{"boundary_type":"transform","feature_type":"gpml:Transform","polarity":null,"overriding_plate_id":null,"subducting_plate_id":null,"plate_ids":[801,5032],"name":"Mawson sea transform"},"geometry":{"type":"LineString","coordinates":[[21.528,-9.068],[21.85,-8.767],[22.172,-8.465],[22.493,-8.163],[22.814,-7.861],[23.134,-7.558],[23.454,-7.255],[23.773,-6.952],[24.092,-6.649],[24.516,-6.425],[24.94,-6.2],[25.363,-5.975],[25.786,-5.75],[26.209,-5.525],[26.631,-5.299],[27.053,-5.073],[27.475,-4.846],[27.896,-4.62],[28.317,-4.393],[28.738,-4.166],[29.159,-3.939],[29.579,-3.711],[29.999,-3.483],[30.419,-3.255],[30.839,-3.027],[31.259,-2.799],[31.678,-2.57],[32.097,-2.342],[32.582,-2.288],[33.066,-2.234],[33.55,-2.179],[34.034,-2.125],[34.518,-2.07],[35.002,-2.015],[35.486,-1.96],[35.969,-1.905],[36.453,-1.85],[36.937,-1.795],[37.421,-1.739],[37.905,-1.684],[38.388,-1.628],[38.872,-1.572],[39.356,-1.516],[39.84,-1.46],[40.323,-1.404],[40.803,-1.376],[41.282,-1.349],[41.761,-1.321],[42.241,-1.293],[42.72,-1.265],[43.2,-1.237],[43.679,-1.209],[44.158,-1.181],[44.638,-1.153],[45.117,-1.125],[45.596,-1.096],[46.076,-1.068],[46.555,-1.039],[47.034,-1.011],[47.514,-0.982],[47.993,-0.953],[48.472,-0.924],[48.951,-0.895],[49.431,-0.866],[49.91,-0.837],[50.402,-0.791],[50.895,-0.744],[51.388,-0.698],[51.88,-0.651],[52.373,-0.604],[52.865,-0.558],[53.358,-0.511],[53.85,-0.464],[54.343,-0.417],[54.835,-0.37],[55.328,-0.324],[55.82,-0.277],[56.313,-0.23],[56.805,-0.183],[57.298,-0.136],[57.79,-0.089],[58.283,-0.042],[58.775,0.005],[59.268,0.052],[59.76,0.099],[60.253,0.146],[60.745,0.193]]}},{"type":"Feature","properties":{"boundary_type":"transform","feature_type":"gpml:Transform","polarity":null,"overriding_plate_id":null,"subducting_plate_id":null,"plate_ids":[701,5032],"name":"Azania-Kalahari transform"},"geometry":{"type":"LineString","coordinates":[[58.015,-17.841],[58.466,-17.635],[58.915,-17.427],[59.364,-17.219],[59.812,-17.009],[60.258,-16.799],[60.704,-16.588],[61.149,-16.375],[61.592,-16.162],[62.035,-15.948],[62.477,-15.733],[62.918,-15.517],[63.358,-15.3],[63.817,-15.111],[64.275,-14.922],[64.732,-14.731],[65.189,-14.539],[65.645,-14.347],[66.1,-14.153],[66.554,-13.959],[67.007,-13.764],[67.46,-13.568],[67.912,-13.371],[68.363,-13.173],[68.813,-12.975],[69.263,-12.776],[69.712,-12.576],[70.069,-12.291],[70.426,-12.006],[70.781,-11.72],[71.136,-11.434],[71.49,-11.147],[71.843,-10.86],[72.196,-10.573],[72.548,-10.285],[72.9,-9.997],[73.251,-9.708],[73.554,-9.517],[73.856,-9.325],[74.159,-9.133]]}},{"type":"Feature","properties":{"boundary_type":"transform","feature_type":"gpml:Transform","polarity":null,"overriding_plate_id":null,"subducting_plate_id":null,"plate_ids":[801,98043],"name":"India closure transform"},"geometry":{"type":"LineString","coordinates":[[-17.614,9.275],[-17.496,8.843],[-17.378,8.412],[-17.261,7.98],[-17.143,7.548],[-17.026,7.116],[-16.909,6.684],[-16.793,6.252],[-16.676,5.82],[-16.56,5.388],[-16.332,4.973],[-16.105,4.558],[-15.878,4.142],[-15.651,3.727],[-15.424,3.311],[-15.198,2.895],[-14.971,2.48],[-14.745,2.064],[-14.519,1.648],[-14.159,1.363],[-13.799,1.077],[-13.439,0.792],[-13.079,0.506],[-12.719,0.221],[-12.359,-0.065],[-11.999,-0.35],[-11.639,-0.636],[-11.279,-0.921],[-10.919,-1.207],[-10.559,-1.492],[-10.199,-1.778],[-9.798,-2.045],[-9.397,-2.311],[-8.995,-2.578],[-8.594,-2.844],[-8.192,-3.111],[-7.79,-3.377],[-7.388,-3.643],[-6.986,-3.909],[-6.583,-4.174],[-6.18,-4.44],[-5.777,-4.705],[-5.374,-4.97],[-4.97,-5.235],[-4.566,-5.499],[-4.161,-5.764],[-3.757,-6.028],[-3.373,-6.274],[-2.989,-6.521],[-2.605,-6.767],[-2.221,-7.013],[-1.836,-7.259],[-1.451,-7.504],[-1.065,-7.749],[-0.679,-7.993],[-0.292,-8.238],[0.095,-8.481]]}},{"type":"Feature","properties":{"boundary_type":"transform","feature_type":"gpml:Transform","polarity":null,"overriding_plate_id":null,"subducting_plate_id":null,"plate_ids":[801,98044],"name":"Transform"},"geometry":{"type":"LineString","coordinates":[[-9.602,62.51],[-8.654,62.742],[-7.69,62.968],[-6.712,63.187],[-5.719,63.399],[-4.711,63.605],[-3.689,63.803],[-2.653,63.994],[-1.602,64.177],[-0.539,64.353],[0.539,64.521],[1.629,64.681],[2.732,64.833],[3.847,64.976],[4.974,65.111],[6.111,65.238],[7.26,65.356],[8.35,65.554],[9.457,65.745],[10.58,65.927],[11.719,66.101],[12.873,66.266],[14.042,66.423],[15.225,66.571],[16.422,66.71],[17.632,66.839],[18.854,66.96],[20.088,67.071],[21.333,67.172],[22.588,67.263],[23.852,67.345],[25.124,67.417],[26.403,67.478],[27.688,67.53],[28.979,67.571],[30.273,67.602],[31.57,67.622],[32.869,67.633],[34.168,67.633],[35.467,67.622],[36.715,67.752],[37.976,67.872],[39.25,67.983],[40.535,68.084],[41.831,68.174],[43.137,68.254],[44.451,68.325],[45.773,68.384],[47.101,68.433],[48.435,68.472],[49.772,68.5],[51.112,68.517],[52.454,68.524],[53.795,68.52],[55.136,68.505],[56.474,68.479],[57.808,68.443],[59.132,68.39],[60.449,68.326],[61.758,68.252],[63.058,68.168],[64.348,68.074],[65.627,67.97],[66.894,67.856],[68.148,67.732],[69.388,67.599],[70.614,67.456],[71.825,67.304],[73.021,67.143],[74.2,66.974],[75.362,66.795],[76.507,66.609],[77.635,66.414],[78.745,66.211],[79.773,65.968],[80.782,65.719],[81.772,65.463],[82.742,65.201],[83.692,64.932],[84.624,64.658],[85.537,64.378],[86.431,64.092],[87.307,63.801],[88.165,63.505],[89.005,63.204],[89.828,62.898],[90.633,62.587],[91.422,62.272],[92.194,61.952],[92.95,61.628],[93.931,61.491],[94.903,61.346],[95.866,61.194],[96.819,61.036],[97.762,60.871],[98.696,60.699],[99.62,60.521],[100.533,60.337],[101.436,60.146],[102.328,59.949],[103.21,59.747],[104.081,59.538],[104.941,59.324]]}},{"type":"Feature","properties":{"boundary_type":"transform","feature_type":"gpml:Transform","polarity":null,"overriding_plate_id":null,"subducting_plate_id":null,"plate_ids":[98043,98044],"name":"Transform closing Tarim plate"},"geometry":{"type":"LineString","coordinates":[[-15.385,8.279],[-15.819,8.503],[-16.253,8.727],[-16.688,8.951],[-17.124,9.174],[-17.559,9.396]]}},{"type":"Feature","properties":{"boundary_type":"transform","feature_type":"gpml:Transform","polarity":null,"overriding_plate_id":null,"subducting_plate_id":null,"plate_ids":[580,98044],"name":"Transform closing Tarim plate"},"geometry":{"type":"LineString","coordinates":[[-17.559,9.396],[-17.979,9.61],[-18.4,9.823],[-18.82,10.035],[-19.242,10.247],[-19.664,10.459],[-20.025,10.804],[-20.387,11.148],[-20.749,11.492],[-21.113,11.836],[-21.477,12.179],[-21.843,12.522],[-22.209,12.864],[-22.577,13.206],[-22.945,13.547],[-23.315,13.887],[-23.685,14.228],[-24.057,14.567],[-24.43,14.906],[-24.804,15.244],[-25.179,15.582],[-25.556,15.919],[-25.933,16.256],[-26.312,16.591],[-26.693,16.926],[-27.074,17.261],[-27.458,17.594],[-27.842,17.927],[-27.917,18.391],[-27.992,18.854],[-28.067,19.318],[-28.143,19.782],[-28.22,20.245],[-28.297,20.709],[-28.374,21.172],[-28.452,21.635],[-28.53,22.099],[-28.609,22.562],[-28.689,23.025],[-28.768,23.489],[-28.849,23.952],[-28.966,24.427],[-29.084,24.902],[-29.202,25.377],[-29.322,25.852],[-29.442,26.327],[-29.564,26.802],[-29.687,27.276],[-29.81,27.751],[-29.935,28.225],[-30.061,28.699],[-30.188,29.173],[-30.316,29.648],[-30.445,30.121],[-30.356,30.591],[-30.267,31.061],[-30.176,31.53],[-30.085,32.0],[-29.992,32.469],[-29.899,32.938],[-29.804,33.408],[-29.709,33.877],[-29.613,34.346],[-29.515,34.815],[-29.416,35.284],[-29.317,35.753]]}},{"type":"Feature","properties":{"boundary_type":"transform","feature_type":"gpml:Transform","polarity":null,"overriding_plate_id":null,"subducting_plate_id":null,"plate_ids":[580,98044],"name":"Transform closing Tarim plate"},"geometry":{"type":"LineString","coordinates":[[-15.184,41.667],[-14.696,42.006],[-14.203,42.342],[-13.705,42.677],[-13.201,43.01],[-12.691,43.34],[-12.176,43.668],[-11.656,43.994],[-11.129,44.317],[-10.597,44.638],[-10.085,44.974],[-9.566,45.309],[-9.042,45.641],[-8.511,45.971],[-7.974,46.298],[-7.43,46.622],[-6.88,46.944],[-6.323,47.264],[-5.76,47.58],[-5.19,47.894],[-4.612,48.205]]}},{"type":"Feature","properties":{"boundary_type":"transform","feature_type":"gpml:Transform","polarity":null,"overriding_plate_id":null,"subducting_plate_id":null,"plate_ids":[715,77148],"name":"Hoggar transform"},"geometry":{"type":"LineString","coordinates":[[0.377,-52.417],[0.337,-52.771],[0.297,-53.125],[0.256,-53.479],[-0.057,-53.918],[-0.377,-54.356],[-0.703,-54.793],[-1.037,-55.229],[-1.378,-55.665],[-1.726,-56.099],[-1.903,-56.558],[-2.085,-57.016],[-2.271,-57.474],[-2.461,-57.931],[-2.657,-58.388],[-2.857,-58.845],[-3.063,-59.302],[-3.232,-59.752],[-3.405,-60.203],[-3.582,-60.653],[-3.765,-61.102],[-3.953,-61.552],[-4.147,-62.001],[-4.346,-62.45]]}},{"type":"Feature","properties":{"boundary_type":"transform","feature_type":"gpml:Transform","polarity":null,"overriding_plate_id":null,"subducting_plate_id":null,"plate_ids":[701,715],"name":"Congo-SM transform"},"geometry":{"type":"LineString","coordinates":[[25.001,-28.134],[24.984,-28.578],[24.966,-29.021],[24.948,-29.465],[24.931,-29.909],[24.913,-30.352],[24.887,-30.85],[24.862,-31.348],[24.836,-31.846],[24.81,-32.344],[24.784,-32.842],[24.757,-33.34],[24.73,-33.838],[24.703,-34.336],[24.676,-34.834],[24.648,-35.331],[24.62,-35.829],[24.591,-36.327],[24.562,-36.825],[24.533,-37.323],[24.503,-37.821],[24.473,-38.319],[24.442,-38.816],[24.411,-39.314],[24.38,-39.812],[24.348,-40.31],[24.316,-40.808],[24.283,-41.306],[24.25,-41.803],[24.216,-42.301],[24.181,-42.799],[24.147,-43.297],[24.111,-43.794],[24.075,-44.292],[24.038,-44.79],[24.001,-45.288],[23.963,-45.785],[23.924,-46.283],[23.885,-46.781],[23.844,-47.278],[23.803,-47.776],[23.762,-48.274],[23.793,-48.749],[23.826,-49.225],[23.859,-49.7],[23.892,-50.176],[23.927,-50.651],[23.962,-51.127],[23.997,-51.602],[24.034,-52.078],[24.071,-52.553],[24.109,-53.029],[24.148,-53.504],[24.188,-53.98],[24.233,-54.449],[24.28,-54.918],[24.328,-55.388],[24.377,-55.857],[24.427,-56.326],[24.479,-56.795],[24.531,-57.264],[24.586,-57.733],[24.641,-58.202],[24.698,-58.671],[24.757,-59.14],[24.817,-59.609],[24.879,-60.078]]}},{"type":"Feature","properties":{"boundary_type":"transform","feature_type":"gpml:Transform","polarity":null,"overriding_plate_id":null,"subducting_plate_id":null,"plate_ids":[101,801],"name":"Antarctica-Laurentia Transform"},"geometry":{"type":"LineString","coordinates":[[111.644,0.054],[111.88,0.485],[112.117,0.916],[112.353,1.347],[112.589,1.777],[112.826,2.208],[113.063,2.639]]}},{"type":"Feature","properties":{"boundary_type":"transform","feature_type":"gpml:Transform","polarity":null,"overriding_plate_id":null,"subducting_plate_id":null,"plate_ids":[101,98046],"name":"Antarctica-Laurentia Transform"},"geometry":{"type":"LineString","coordinates":[[113.063,2.639],[113.077,2.665],[113.254,3.045],[113.431,3.425],[113.608,3.805],[113.785,4.185]]}},{"type":"Feature","properties":{"boundary_type":"transform","feature_type":"gpml:Transform","polarity":null,"overriding_plate_id":null,"subducting_plate_id":null,"plate_ids":[701,22053],"name":"Parana transform"},"geometry":{"type":"LineString","coordinates":[[102.222,-54.685],[101.577,-54.686],[100.714,-54.653],[99.854,-54.614],[98.995,-54.569],[98.138,-54.518],[97.283,-54.461],[96.431,-54.398],[95.582,-54.329],[94.868,-54.183],[94.159,-54.032],[93.455,-53.878],[92.756,-53.72],[92.063,-53.557],[91.375,-53.391],[90.693,-53.22]]}},{"type":"Feature","properties":{"boundary_type":"transform","feature_type":"gpml:Transform","polarity":null,"overriding_plate_id":null,"subducting_plate_id":null,"plate_ids":[101,701],"name":"Kalahari-Amazonia transform"},"geometry":{"type":"LineString","coordinates":[[105.98,-47.615],[106.403,-47.294],[106.82,-46.972],[107.232,-46.649],[107.639,-46.324],[108.041,-45.998],[108.439,-45.67],[108.831,-45.341],[109.075,-44.896],[109.314,-44.45],[109.55,-44.005],[109.783,-43.558],[110.012,-43.111],[110.237,-42.664],[110.46,-42.216],[110.679,-41.768],[110.929,-41.316],[111.175,-40.862],[111.418,-40.409],[111.658,-39.955],[111.894,-39.5],[112.127,-39.045],[112.358,-38.589],[112.585,-38.133],[112.81,-37.677],[113.032,-37.22],[113.251,-36.763],[113.396,-36.308],[113.54,-35.853],[113.682,-35.398],[113.822,-34.942],[113.961,-34.487],[114.098,-34.031],[114.234,-33.575],[114.368,-33.119],[114.501,-32.663]]}},{"type":"Feature","properties":{"boundary_type":"transform","feature_type":"gpml:Transform","polarity":null,"overriding_plate_id":null,"subducting_plate_id":null,"plate_ids":[98044,98046],"name":"Ocean transform"},"geometry":{"type":"LineString","coordinates":[[113.548,52.02],[112.903,51.727],[112.268,51.43],[111.64,51.13],[111.02,50.827],[110.409,50.52],[109.805,50.211],[109.196,49.994],[108.593,49.775],[107.995,49.553],[107.402,49.327],[106.815,49.099]]}},{"type":"Feature","properties":{"boundary_type":"subduction","feature_type":"gpml:SubductionZone","polarity":"Right","overriding_plate_id":101,"subducting_plate_id":3003,"plate_ids":[101,3003],"name":"Avalonia transform"},"geometry":{"type":"LineString","coordinates":[[-129.817,-36.245],[-130.021,-36.568]]}},{"type":"Feature","properties":{"boundary_type":"subduction","feature_type":"gpml:SubductionZone","polarity":"Right","overriding_plate_id":714,"subducting_plate_id":3003,"plate_ids":[714,3003],"name":"Avalonia transform"},"geometry":{"type":"LineString","coordinates":[[-130.021,-36.568],[-130.276,-36.969],[-130.533,-37.37],[-130.794,-37.77],[-131.057,-38.17],[-131.324,-38.569],[-131.593,-38.967],[-131.865,-39.365],[-132.088,-39.814],[-132.314,-40.262],[-132.543,-40.709],[-132.775,-41.157],[-133.01,-41.604],[-133.249,-42.05],[-133.491,-42.496],[-133.736,-42.941],[-133.985,-43.386],[-134.237,-43.83],[-134.494,-44.274],[-134.754,-44.717],[-135.018,-45.159],[-135.287,-45.601],[-135.559,-46.042],[-135.837,-46.483],[-136.118,-46.923]]}},{"type":"Feature","properties":{"boundary_type":"transform","feature_type":"gpml:Transform","polarity":null,"overriding_plate_id":null,"subducting_plate_id":null,"plate_ids":[714,77147],"name":"Iforas granulitic unit transform"},"geometry":{"type":"LineString","coordinates":[[-37.325,-51.06],[-37.245,-50.687],[-37.166,-50.315],[-37.089,-49.942],[-36.898,-49.631],[-36.709,-49.319],[-36.523,-49.007]]}},{"type":"Feature","properties":{"boundary_type":"transform","feature_type":"gpml:Transform","polarity":null,"overriding_plate_id":null,"subducting_plate_id":null,"plate_ids":[714,77144],"name":"Iforas granulitic unit transform"},"geometry":{"type":"LineString","coordinates":[[-36.523,-49.007],[-36.428,-48.845],[-36.521,-48.377],[-36.612,-47.909],[-36.702,-47.441],[-37.086,-47.079],[-37.464,-46.715],[-37.838,-46.351],[-38.206,-45.985],[-38.57,-45.618],[-38.929,-45.25]]}},{"type":"Feature","properties":{"boundary_type":"transform","feature_type":"gpml:Transform","polarity":null,"overriding_plate_id":null,"subducting_plate_id":null,"plate_ids":[714,22053],"name":"Goias Massif-WAC transform"},"geometry":{"type":"LineString","coordinates":[[43.745,-65.931],[44.574,-66.22],[45.421,-66.504],[46.289,-66.784],[47.176,-67.058],[48.083,-67.328],[49.011,-67.592],[49.959,-67.852],[50.929,-68.105],[52.049,-68.361],[53.194,-68.609],[54.365,-68.849],[55.56,-69.081],[56.781,-69.304],[58.027,-69.519],[59.297,-69.725],[60.592,-69.921],[61.91,-70.108],[63.252,-70.284],[64.617,-70.451],[66.003,-70.607],[67.41,-70.753],[68.837,-70.888],[70.283,-71.011],[71.746,-71.123],[73.225,-71.224],[74.719,-71.313],[76.225,-71.389],[77.737,-71.438],[79.255,-71.475],[80.778,-71.5],[82.304,-71.512],[83.831,-71.512],[85.357,-71.5],[86.88,-71.475],[88.398,-71.439],[89.91,-71.39],[91.413,-71.33],[92.906,-71.257],[94.274,-71.138],[95.625,-71.01],[96.957,-70.871]]}},{"type":"Feature","properties":{"boundary_type":"transform","feature_type":"gpml:Transform","polarity":null,"overriding_plate_id":null,"subducting_plate_id":null,"plate_ids":[101,714],"name":"Goias Massif-WAC transform"},"geometry":{"type":"LineString","coordinates":[[96.957,-70.871],[98.357,-70.714],[99.733,-70.545],[101.087,-70.367],[102.416,-70.178],[103.721,-69.98],[105.0,-69.772],[106.254,-69.556],[107.483,-69.33],[108.685,-69.096],[109.862,-68.854],[111.013,-68.604],[112.138,-68.346],[113.237,-68.081],[114.311,-67.808],[115.36,-67.529],[116.385,-67.243],[117.385,-66.951],[118.361,-66.653]]}},{"type":"Feature","properties":{"boundary_type":"transform","feature_type":"gpml:Transform","polarity":null,"overriding_plate_id":null,"subducting_plate_id":null,"plate_ids":[77148,98043],"name":""},"geometry":{"type":"LineString","coordinates":[[-26.371,-41.892],[-26.876,-42.144],[-27.385,-42.394],[-27.897,-42.641],[-28.414,-42.886],[-28.935,-43.129],[-29.438,-43.339],[-29.945,-43.547],[-30.455,-43.753],[-30.968,-43.957],[-31.485,-44.158],[-32.006,-44.357]]}},{"type":"Feature","properties":{"boundary_type":"transform","feature_type":"gpml:Transform","polarity":null,"overriding_plate_id":null,"subducting_plate_id":null,"plate_ids":[77144,98043],"name":""},"geometry":{"type":"LineString","coordinates":[[-32.006,-44.357],[-32.311,-44.471]]}},{"type":"Feature","properties":{"boundary_type":"transform","feature_type":"gpml:Transform","polarity":null,"overriding_plate_id":null,"subducting_plate_id":null,"plate_ids":[714,77144],"name":""},"geometry":{"type":"LineString","coordinates":[[-32.311,-44.471],[-32.923,-44.698],[-33.539,-44.921],[-34.193,-44.999],[-34.848,-45.073],[-35.504,-45.144],[-36.163,-45.21],[-36.823,-45.273],[-37.484,-45.332],[-37.966,-45.307],[-38.448,-45.279],[-38.929,-45.25]]}}]}