{"type":"FeatureCollection","meta":{"model":"Cao2024","reconstruction_time_ma":1645.0,"anchor_plate_id":0,"pygplates_version":"1.0.0","tessellate_degrees":0.5,"polarity_convention":"gpml:subductionPolarity. 'Left'/'Right' names the side of the line, in vertex order, on which the OVERRIDING plate lies. Triangles are drawn on that side.","antimeridian":"Lines are NOT split at +/-180 deg. The renderer works in 3D unit vectors where the dateline is not special; splitting would only add spurious breaks. Do not treat this as RFC 7946 GIS-ready 2D data."},"features":[{"type":"Feature","properties":{"boundary_type":"subduction","feature_type":"gpml:SubductionZone","polarity":"Left","overriding_plate_id":101,"subducting_plate_id":10104,"plate_ids":[101,10104],"name":"eastern Laurentia-greenland-western baltica"},"geometry":{"type":"LineString","coordinates":[[-163.576,54.047],[-163.954,53.606],[-164.325,53.164],[-164.687,52.721],[-165.043,52.277],[-165.391,51.832],[-165.622,51.405],[-165.85,50.977],[-166.073,50.549],[-166.292,50.121],[-166.507,49.692],[-166.718,49.263],[-166.926,48.833],[-167.13,48.403],[-167.331,47.973]]}},{"type":"Feature","properties":{"boundary_type":"subduction","feature_type":"gpml:SubductionZone","polarity":"Left","overriding_plate_id":101,"subducting_plate_id":90106,"plate_ids":[101,90106],"name":"eastern Laurentia-greenland-western baltica"},"geometry":{"type":"LineString","coordinates":[[-167.331,47.973],[-167.51,47.584],[-167.686,47.194],[-167.859,46.805],[-168.03,46.415],[-168.048,45.956],[-168.066,45.498],[-168.083,45.039],[-168.101,44.58],[-168.118,44.122],[-168.134,43.663],[-168.151,43.204],[-168.167,42.745],[-168.183,42.287]]}},{"type":"Feature","properties":{"boundary_type":"subduction","feature_type":"gpml:SubductionZone","polarity":"Left","overriding_plate_id":101,"subducting_plate_id":803,"plate_ids":[101,803],"name":"eastern Laurentia-greenland-western baltica"},"geometry":{"type":"LineString","coordinates":[[-168.183,42.287],[-168.2,41.793],[-168.217,41.299],[-168.233,40.805],[-168.25,40.312],[-168.266,39.818],[-168.281,39.324],[-168.297,38.83],[-168.312,38.336],[-168.327,37.843],[-168.363,37.355],[-168.399,36.868],[-168.434,36.381],[-168.469,35.894],[-168.504,35.407],[-168.538,34.919],[-168.571,34.432],[-168.604,33.945],[-168.637,33.458],[-168.67,32.97],[-168.702,32.483],[-168.733,31.996],[-168.765,31.509],[-168.796,31.021],[-168.827,30.534],[-168.857,30.047],[-168.887,29.559],[-168.917,29.072],[-168.947,28.585]]}},{"type":"Feature","properties":{"boundary_type":"subduction","feature_type":"gpml:SubductionZone","polarity":"Left","overriding_plate_id":101,"subducting_plate_id":803,"plate_ids":[101,803],"name":"SouthIndia_SZ"},"geometry":{"type":"LineString","coordinates":[[-166.242,-0.123],[-166.002,-0.524],[-165.762,-0.925],[-165.521,-1.326],[-165.281,-1.727],[-165.04,-2.127],[-164.799,-2.528],[-164.559,-2.929],[-164.317,-3.33],[-164.061,-3.716],[-163.804,-4.101],[-163.547,-4.487],[-163.29,-4.872],[-163.032,-5.258],[-162.774,-5.643],[-162.516,-6.028],[-162.258,-6.413],[-161.999,-6.798],[-161.739,-7.183],[-161.479,-7.568],[-161.219,-7.952],[-161.123,-8.415],[-161.026,-8.878],[-160.93,-9.342],[-160.833,-9.805],[-160.735,-10.268],[-160.638,-10.731],[-160.54,-11.194],[-160.442,-11.657],[-160.344,-12.12],[-160.245,-12.583],[-160.146,-13.046],[-160.046,-13.509],[-159.946,-13.972],[-159.846,-14.435],[-159.745,-14.897],[-159.644,-15.36],[-159.72,-15.854],[-159.796,-16.348],[-159.872,-16.843],[-159.948,-17.337],[-160.026,-17.831],[-160.103,-18.325],[-160.181,-18.819],[-160.259,-19.313],[-160.338,-19.807],[-160.418,-20.301],[-160.498,-20.795],[-160.578,-21.289],[-160.805,-21.722],[-161.034,-22.156],[-161.264,-22.589],[-161.495,-23.021],[-161.728,-23.454],[-161.962,-23.886],[-162.198,-24.317],[-162.436,-24.749],[-162.675,-25.18],[-162.916,-25.61],[-163.158,-26.04],[-163.403,-26.47],[-163.598,-26.893],[-163.794,-27.315],[-163.992,-27.737],[-164.191,-28.159],[-164.392,-28.58],[-164.595,-29.002]]}},{"type":"Feature","properties":{"boundary_type":"subduction","feature_type":"gpml:SubductionZone","polarity":"Right","overriding_plate_id":801,"subducting_plate_id":80104,"plate_ids":[801,80104],"name":"NorthChina_SZ"},"geometry":{"type":"LineString","coordinates":[[-83.069,16.871],[-83.064,16.864]]}},{"type":"Feature","properties":{"boundary_type":"subduction","feature_type":"gpml:SubductionZone","polarity":"Right","overriding_plate_id":801,"subducting_plate_id":90107,"plate_ids":[801,90107],"name":"NorthChina_SZ"},"geometry":{"type":"LineString","coordinates":[[-83.064,16.864],[-82.792,16.508],[-82.521,16.152],[-82.251,15.795],[-81.983,15.438],[-81.715,15.08],[-81.559,14.63],[-81.404,14.179],[-81.249,13.729],[-81.096,13.278],[-80.942,12.827],[-80.789,12.376],[-80.637,11.925],[-80.486,11.474],[-80.539,11.004],[-80.592,10.535],[-80.645,10.065],[-80.698,9.595],[-80.75,9.125],[-80.803,8.656],[-80.855,8.186],[-80.907,7.716],[-80.959,7.246],[-81.011,6.777],[-81.332,6.438],[-81.651,6.099],[-81.971,5.761],[-82.29,5.422],[-82.608,5.082],[-82.926,4.743],[-83.244,4.404],[-83.562,4.064],[-83.88,3.724],[-84.197,3.384],[-84.514,3.044],[-84.83,2.704],[-85.147,2.364],[-85.549,2.116],[-85.951,1.867],[-86.353,1.619],[-86.755,1.37],[-87.157,1.122],[-87.558,0.873],[-87.96,0.624],[-88.361,0.375],[-88.763,0.126],[-89.165,-0.122],[-89.566,-0.371],[-89.968,-0.62],[-90.369,-0.869]]}},{"type":"Feature","properties":{"boundary_type":"subduction","feature_type":"gpml:SubductionZone","polarity":"Right","overriding_plate_id":801,"subducting_plate_id":811001,"plate_ids":[801,811001],"name":"SouthAustralia_SZ"},"geometry":{"type":"LineString","coordinates":[[-76.615,46.773],[-76.69,46.379],[-76.773,45.923],[-76.854,45.466],[-76.934,45.009],[-77.012,44.553],[-77.089,44.096],[-77.166,43.639],[-77.241,43.182],[-77.314,42.725],[-77.59,42.319],[-77.862,41.911],[-78.131,41.503],[-78.396,41.094],[-78.658,40.685],[-78.917,40.275]]}},{"type":"Feature","properties":{"boundary_type":"subduction","feature_type":"gpml:SubductionZone","polarity":"Right","overriding_plate_id":801,"subducting_plate_id":80104,"plate_ids":[801,80104],"name":"SouthAustralia_SZ"},"geometry":{"type":"LineString","coordinates":[[-78.917,40.275],[-79.181,39.852],[-79.441,39.428],[-79.698,39.003],[-79.952,38.578],[-80.204,38.153],[-80.452,37.726],[-80.697,37.3],[-80.94,36.873],[-81.33,36.524],[-81.717,36.175],[-82.101,35.824]]}},{"type":"Feature","properties":{"boundary_type":"subduction","feature_type":"gpml:SubductionZone","polarity":"Left","overriding_plate_id":101,"subducting_plate_id":90106,"plate_ids":[101,90106],"name":"Eastern_Laurentia_SZ"},"geometry":{"type":"LineString","coordinates":[[-93.878,81.785],[-97.058,81.723],[-100.181,81.636],[-103.232,81.525],[-106.184,81.369],[-109.025,81.192],[-111.748,80.994],[-114.35,80.777],[-116.829,80.542],[-119.184,80.291],[-121.419,80.024]]}},{"type":"Feature","properties":{"boundary_type":"subduction","feature_type":"gpml:SubductionZone","polarity":"Left","overriding_plate_id":101,"subducting_plate_id":10104,"plate_ids":[101,10104],"name":"Eastern_Laurentia_SZ"},"geometry":{"type":"LineString","coordinates":[[-121.419,80.024],[-123.527,79.745],[-125.522,79.452],[-127.408,79.148],[-129.191,78.833],[-130.876,78.508],[-132.468,78.173],[-133.973,77.831],[-135.396,77.48],[-136.741,77.123],[-138.252,76.774],[-139.686,76.417],[-141.047,76.052],[-142.339,75.679],[-143.567,75.301],[-144.734,74.916],[-145.843,74.525],[-146.899,74.129],[-147.904,73.728],[-148.862,73.323],[-149.776,72.913],[-150.648,72.5],[-151.481,72.083],[-152.277,71.662],[-153.038,71.239],[-153.767,70.812],[-154.465,70.383],[-155.134,69.951],[-155.713,69.521],[-156.268,69.089],[-156.802,68.656],[-157.316,68.221],[-157.81,67.784],[-158.286,67.346],[-158.745,66.907],[-159.188,66.466],[-159.616,66.024],[-160.029,65.581],[-160.428,65.137],[-160.813,64.692],[-161.187,64.245],[-161.548,63.798],[-161.899,63.35],[-162.238,62.902],[-162.567,62.452],[-162.887,62.002],[-162.94,61.505],[-162.991,61.008],[-163.041,60.51],[-163.09,60.013],[-163.137,59.516],[-163.183,59.019],[-163.227,58.522],[-163.27,58.025],[-163.312,57.527],[-163.353,57.03],[-163.392,56.533],[-163.431,56.036],[-163.469,55.539],[-163.506,55.041],[-163.541,54.544],[-163.576,54.047]]}},{"type":"Feature","properties":{"boundary_type":"subduction","feature_type":"gpml:SubductionZone","polarity":"Left","overriding_plate_id":801,"subducting_plate_id":80104,"plate_ids":[801,80104],"name":"South_NorthAustralia_SZ"},"geometry":{"type":"LineString","coordinates":[[-83.069,16.871],[-82.877,17.316],[-82.684,17.76],[-82.49,18.205],[-82.295,18.649],[-82.099,19.093],[-81.902,19.537],[-81.703,19.98],[-81.504,20.424],[-81.304,20.867],[-81.102,21.31],[-80.899,21.752],[-80.695,22.195],[-80.49,22.637],[-80.283,23.078],[-80.075,23.52],[-79.866,23.961],[-79.655,24.402],[-79.442,24.843],[-79.454,25.313],[-79.466,25.783],[-79.478,26.253],[-79.49,26.723],[-79.503,27.193],[-79.515,27.663],[-79.527,28.133],[-79.54,28.603],[-79.553,29.073],[-79.565,29.543],[-79.578,30.013],[-79.591,30.483],[-79.605,30.953],[-79.618,31.423],[-79.855,31.865],[-80.095,32.307],[-80.337,32.748],[-80.581,33.189],[-80.828,33.629],[-81.077,34.069],[-81.329,34.509],[-81.583,34.948],[-81.84,35.386],[-82.101,35.824]]}},{"type":"Feature","properties":{"boundary_type":"subduction","feature_type":"gpml:SubductionZone","polarity":"Left","overriding_plate_id":801,"subducting_plate_id":101,"plate_ids":[101,801],"name":"South_NorthAustralia_SZ"},"geometry":{"type":"LineString","coordinates":[[-82.946,79.636],[-84.75,79.34],[-86.456,79.034],[-88.069,78.719],[-89.594,78.395],[-91.038,78.064],[-92.403,77.727],[-93.696,77.382],[-94.92,77.032],[-95.551,76.555],[-96.139,76.076],[-96.688,75.596],[-97.203,75.114],[-97.686,74.632],[-98.141,74.148],[-98.569,73.664],[-98.973,73.179],[-99.355,72.693],[-99.717,72.206],[-100.06,71.719],[-100.386,71.231],[-100.696,70.743],[-100.991,70.254],[-101.17,69.758],[-101.341,69.263],[-101.504,68.767],[-101.66,68.271],[-101.809,67.775],[-101.952,67.278],[-102.089,66.782],[-102.221,66.286],[-102.348,65.789],[-102.47,65.292],[-102.587,64.796],[-102.7,64.299],[-102.81,63.802],[-102.915,63.305],[-103.017,62.808],[-103.115,62.31],[-103.21,61.813],[-103.202,61.313],[-103.195,60.813],[-103.187,60.314],[-103.18,59.814],[-103.172,59.314],[-103.166,58.814],[-103.159,58.314],[-103.152,57.814],[-103.146,57.315],[-103.14,56.815],[-103.134,56.315],[-103.128,55.815],[-103.122,55.315],[-103.1,54.83],[-103.078,54.345],[-103.057,53.859],[-103.036,53.374],[-103.016,52.889],[-102.996,52.404],[-102.977,51.919],[-102.958,51.433],[-102.939,50.948],[-102.921,50.463],[-102.903,49.978],[-102.886,49.492],[-102.954,49.025],[-103.021,48.557],[-103.087,48.089],[-103.151,47.621],[-103.215,47.153],[-103.277,46.686],[-103.338,46.218],[-103.399,45.75],[-103.458,45.282],[-103.516,44.814],[-103.752,44.352],[-103.984,43.89],[-104.212,43.428],[-104.437,42.965],[-104.658,42.502],[-104.877,42.038],[-105.092,41.574],[-105.304,41.11],[-105.513,40.645],[-105.719,40.18],[-105.922,39.714],[-106.123,39.248],[-106.321,38.782],[-106.495,38.306],[-106.667,37.83],[-106.837,37.353],[-107.005,36.876],[-107.171,36.399],[-107.335,35.921],[-107.497,35.444],[-107.656,34.966],[-107.815,34.488],[-107.971,34.01],[-108.125,33.531],[-107.974,33.071],[-107.825,32.611],[-107.677,32.151],[-107.53,31.69],[-107.385,31.229],[-107.241,30.768],[-107.099,30.307],[-106.958,29.846],[-106.818,29.385],[-106.68,28.923],[-106.543,28.462],[-106.407,28.0],[-106.272,27.538],[-106.138,27.076],[-106.006,26.614],[-105.874,26.151],[-105.635,25.723],[-105.398,25.294],[-105.162,24.864],[-104.928,24.434],[-104.696,24.004],[-104.465,23.574],[-104.235,23.143],[-104.007,22.712],[-103.781,22.28],[-103.556,21.848],[-103.332,21.416],[-103.11,20.984],[-102.889,20.551],[-102.598,20.189],[-102.309,19.826],[-102.022,19.462],[-101.736,19.099],[-101.451,18.734],[-101.167,18.37],[-100.884,18.005],[-100.603,17.639],[-100.322,17.273]]}},{"type":"Feature","properties":{"boundary_type":"subduction","feature_type":"gpml:SubductionZone","polarity":"Left","overriding_plate_id":701,"subducting_plate_id":101,"plate_ids":[101,701],"name":"Siberia_SZ"},"geometry":{"type":"LineString","coordinates":[[-101.392,-1.111],[-101.806,-0.842],[-102.219,-0.573],[-102.632,-0.304],[-103.045,-0.035],[-103.458,0.235],[-103.871,0.504],[-104.284,0.773],[-104.697,1.042],[-105.111,1.311],[-105.524,1.58],[-105.937,1.849],[-106.351,2.117],[-106.765,2.386],[-107.178,2.655],[-107.593,2.923],[-108.007,3.191],[-108.421,3.459],[-108.836,3.727],[-109.251,3.995],[-109.721,4.04],[-110.191,4.084],[-110.661,4.129],[-111.132,4.173],[-111.602,4.216],[-112.072,4.26],[-112.543,4.303],[-113.013,4.346],[-113.484,4.388],[-113.954,4.431],[-114.425,4.473],[-114.896,4.514],[-115.367,4.556],[-115.837,4.597],[-116.31,4.518],[-116.782,4.438],[-117.254,4.359],[-117.727,4.279],[-118.199,4.198],[-118.671,4.118],[-119.143,4.037],[-119.614,3.956],[-120.086,3.874],[-120.558,3.793],[-121.029,3.711],[-121.501,3.628],[-121.972,3.546],[-122.443,3.463],[-122.914,3.38],[-123.385,3.297],[-123.856,3.214],[-124.327,3.13],[-124.788,2.955],[-125.249,2.779],[-125.71,2.604],[-126.171,2.428],[-126.632,2.251],[-127.092,2.075],[-127.553,1.899],[-128.013,1.722],[-128.473,1.546],[-128.933,1.369],[-129.393,1.192],[-129.853,1.015],[-130.313,0.838],[-130.773,0.661],[-131.233,0.484],[-131.693,0.307],[-131.92,-0.132],[-132.148,-0.572],[-132.375,-1.011],[-132.602,-1.451],[-132.83,-1.89],[-133.057,-2.33],[-133.285,-2.769],[-133.513,-3.208],[-133.741,-3.648],[-133.97,-4.087],[-134.198,-4.526],[-134.427,-4.965],[-134.656,-5.404],[-134.886,-5.843],[-135.116,-6.282],[-135.346,-6.721],[-135.577,-7.16],[-135.808,-7.598],[-135.996,-8.041],[-136.185,-8.483],[-136.375,-8.925],[-136.564,-9.368],[-136.755,-9.81],[-136.946,-10.252],[-137.137,-10.694],[-137.329,-11.136],[-137.522,-11.577],[-137.715,-12.019],[-137.908,-12.46],[-138.103,-12.901],[-138.298,-13.343],[-138.494,-13.784],[-138.69,-14.224],[-138.888,-14.665],[-139.086,-15.106],[-139.285,-15.546],[-139.485,-15.986],[-139.685,-16.426],[-139.887,-16.866],[-140.09,-17.305],[-140.293,-17.745],[-140.501,-18.185],[-140.71,-18.624],[-140.92,-19.064],[-141.131,-19.503],[-141.344,-19.942],[-141.557,-20.38],[-141.772,-20.819],[-141.988,-21.257],[-142.205,-21.695],[-142.424,-22.132],[-142.644,-22.57],[-142.865,-23.007],[-143.088,-23.443],[-143.312,-23.88],[-143.538,-24.316],[-143.765,-24.751],[-143.994,-25.187],[-144.225,-25.622],[-144.457,-26.056],[-144.691,-26.491],[-144.927,-26.925],[-145.164,-27.358],[-145.404,-27.791]]}},{"type":"Feature","properties":{"boundary_type":"subduction","feature_type":"gpml:SubductionZone","polarity":"Left","overriding_plate_id":801,"subducting_plate_id":811001,"plate_ids":[801,811001],"name":"NorthwesternMawson_SZ"},"geometry":{"type":"LineString","coordinates":[[-76.615,46.773],[-76.015,47.038],[-75.408,47.299],[-74.796,47.557],[-74.178,47.811],[-73.553,48.063],[-72.921,48.277],[-72.284,48.488],[-71.642,48.695],[-70.994,48.899],[-70.341,49.099],[-69.683,49.296],[-69.02,49.489],[-68.351,49.678],[-67.722,49.878],[-67.087,50.075],[-66.447,50.269],[-65.802,50.459],[-65.152,50.646],[-64.496,50.829],[-63.913,51.107],[-63.322,51.381],[-62.724,51.653],[-62.119,51.922],[-61.507,52.187],[-60.887,52.45],[-60.568,52.885],[-60.242,53.319],[-59.909,53.752],[-59.57,54.184],[-59.223,54.615],[-59.319,55.08],[-59.417,55.544],[-59.517,56.009],[-59.62,56.473],[-59.726,56.937],[-59.834,57.401],[-59.944,57.865],[-60.058,58.329],[-60.175,58.793],[-60.511,59.225],[-60.857,59.656],[-61.211,60.085],[-61.574,60.514],[-61.947,60.942],[-62.331,61.369],[-62.725,61.794],[-63.13,62.219],[-63.546,62.642],[-63.975,63.064],[-64.416,63.485],[-64.658,63.925],[-64.908,64.365],[-65.165,64.805]]}},{"type":"Feature","properties":{"boundary_type":"subduction","feature_type":"gpml:SubductionZone","polarity":"Left","overriding_plate_id":801,"subducting_plate_id":90106,"plate_ids":[801,90106],"name":"NorthwesternMawson_SZ"},"geometry":{"type":"LineString","coordinates":[[-65.165,64.805],[-65.449,65.273],[-65.744,65.741],[-66.05,66.208],[-66.367,66.675],[-66.696,67.141],[-67.038,67.606],[-67.394,68.071],[-67.764,68.535],[-68.15,68.998],[-68.335,69.455],[-68.528,69.912],[-68.73,70.369],[-68.941,70.826],[-69.161,71.283],[-69.393,71.739],[-69.635,72.195],[-69.891,72.65],[-70.159,73.106],[-70.442,73.561],[-70.74,74.015],[-71.056,74.469],[-71.39,74.923],[-72.134,75.369],[-72.924,75.812],[-73.763,76.253],[-74.657,76.69],[-75.61,77.124],[-76.628,77.555],[-77.718,77.981],[-78.886,78.403],[-80.141,78.82],[-81.491,79.231],[-82.946,79.636]]}},{"type":"Feature","properties":{"boundary_type":"subduction","feature_type":"gpml:SubductionZone","polarity":"Left","overriding_plate_id":101,"subducting_plate_id":90106,"plate_ids":[101,90106],"name":"NorthwesternMawson_SZ"},"geometry":{"type":"LineString","coordinates":[[-82.946,79.636],[-84.439,80.016],[-86.048,80.388],[-87.783,80.752],[-89.658,81.107],[-91.685,81.451],[-93.878,81.785]]}},{"type":"Feature","properties":{"boundary_type":"subduction","feature_type":"gpml:SubductionZone","polarity":"Right","overriding_plate_id":801,"subducting_plate_id":90107,"plate_ids":[801,90107],"name":"Cathaysia_SZ"},"geometry":{"type":"LineString","coordinates":[[-90.369,-0.869],[-90.273,-1.359],[-90.177,-1.849],[-90.081,-2.338],[-89.985,-2.828],[-89.889,-3.318],[-89.793,-3.808],[-89.697,-4.298],[-89.6,-4.788],[-89.503,-5.277],[-89.407,-5.767],[-89.31,-6.257],[-89.213,-6.747],[-89.115,-7.237],[-88.946,-7.707],[-88.775,-8.177],[-88.605,-8.647],[-88.434,-9.117],[-88.263,-9.587],[-88.091,-10.057],[-87.918,-10.527],[-87.745,-10.997],[-87.572,-11.466],[-87.398,-11.936],[-87.223,-12.405],[-87.048,-12.874],[-86.872,-13.343],[-86.695,-13.812],[-86.518,-14.281],[-86.293,-14.591],[-86.067,-14.901],[-85.841,-15.211]]}},{"type":"Feature","properties":{"boundary_type":"subduction","feature_type":"gpml:SubductionZone","polarity":"Left","overriding_plate_id":201,"subducting_plate_id":803,"plate_ids":[201,803],"name":"Amazonia_SZ"},"geometry":{"type":"LineString","coordinates":[[134.404,3.856],[134.108,3.452],[133.813,3.049],[133.518,2.645],[133.223,2.241],[132.928,1.838],[132.633,1.434],[132.339,1.03],[132.044,0.626],[131.75,0.222],[131.456,-0.182],[131.161,-0.586],[130.867,-0.989],[130.572,-1.393],[130.278,-1.797],[129.983,-2.201],[129.688,-2.605],[129.393,-3.008],[129.098,-3.412],[128.802,-3.815],[128.506,-4.219],[128.21,-4.622],[127.914,-5.025],[127.617,-5.428],[127.32,-5.831],[127.022,-6.233],[126.724,-6.636],[126.425,-7.038],[126.126,-7.441],[125.827,-7.842],[125.526,-8.244],[125.226,-8.646],[124.924,-9.047],[124.622,-9.448],[124.319,-9.849],[124.015,-10.249]]}},{"type":"Feature","properties":{"boundary_type":"subduction","feature_type":"gpml:SubductionZone","polarity":"Left","overriding_plate_id":201,"subducting_plate_id":90105,"plate_ids":[201,90105],"name":"Amazonia_SZ"},"geometry":{"type":"LineString","coordinates":[[124.015,-10.249],[123.717,-10.642],[123.417,-11.034],[123.117,-11.426],[122.816,-11.818],[122.514,-12.21],[122.212,-12.601],[121.908,-12.991],[121.603,-13.382],[121.298,-13.772],[120.991,-14.162],[120.683,-14.551],[120.375,-14.94],[120.065,-15.328],[119.84,-15.762],[119.614,-16.196],[119.387,-16.629],[119.159,-17.062],[118.93,-17.495],[118.7,-17.927],[118.469,-18.36],[118.237,-18.792],[118.003,-19.223],[117.768,-19.655],[117.532,-20.086],[117.295,-20.517],[117.056,-20.947],[116.816,-21.377],[116.575,-21.807],[116.332,-22.237],[116.087,-22.666],[115.842,-23.094],[115.594,-23.523],[115.345,-23.951],[115.094,-24.378],[114.989,-24.868],[114.883,-25.358],[114.776,-25.848],[114.668,-26.338],[114.56,-26.827],[114.45,-27.317],[114.34,-27.806],[114.228,-28.296],[114.115,-28.785],[114.002,-29.274],[113.887,-29.763],[113.771,-30.252],[113.654,-30.741],[113.536,-31.23],[113.416,-31.719],[113.296,-32.207],[113.173,-32.696],[113.05,-33.184],[113.111,-33.669],[113.172,-34.154],[113.234,-34.638],[113.297,-35.123],[113.361,-35.608],[113.425,-36.092],[113.49,-36.577],[113.556,-37.062],[113.623,-37.546],[113.691,-38.031],[113.759,-38.515],[113.829,-39.0],[113.899,-39.484],[113.971,-39.968],[114.043,-40.453],[114.117,-40.937],[114.191,-41.421],[114.267,-41.905],[114.344,-42.389],[114.422,-42.873],[114.736,-43.313],[115.054,-43.753],[115.377,-44.191],[115.705,-44.628],[116.037,-45.065],[116.375,-45.5],[116.718,-45.935],[117.067,-46.368],[117.421,-46.8],[117.781,-47.231],[118.147,-47.662],[118.518,-48.09],[118.896,-48.518],[119.281,-48.944],[119.672,-49.369],[120.07,-49.793],[120.475,-50.216],[120.887,-50.637],[121.306,-51.056],[121.734,-51.474],[122.169,-51.89],[122.612,-52.305],[123.064,-52.718],[123.524,-53.129],[123.993,-53.539],[124.471,-53.946],[124.959,-54.352],[125.456,-54.756],[125.964,-55.157],[126.481,-55.557],[127.009,-55.954],[127.549,-56.349],[128.099,-56.741],[128.661,-57.131],[129.235,-57.519],[129.821,-57.903],[130.42,-58.285],[131.032,-58.665],[131.657,-59.041],[132.296,-59.414],[132.949,-59.784],[133.617,-60.15],[134.3,-60.514],[134.998,-60.873],[135.712,-61.229],[136.442,-61.581],[137.189,-61.929],[137.953,-62.273],[138.735,-62.613],[139.534,-62.948],[140.352,-63.279],[141.189,-63.605],[142.045,-63.926],[142.921,-64.241],[143.817,-64.552],[144.733,-64.856],[145.67,-65.155],[146.628,-65.448],[147.607,-65.735],[148.609,-66.015],[149.632,-66.289],[150.678,-66.556]]}},{"type":"Feature","properties":{"boundary_type":"transform","feature_type":"gpml:Transform","polarity":null,"overriding_plate_id":null,"subducting_plate_id":null,"plate_ids":[101,801],"name":""},"geometry":{"type":"LineString","coordinates":[[-100.322,17.273],[-100.392,16.786],[-100.461,16.299],[-100.53,15.812],[-100.599,15.324],[-100.667,14.837],[-100.735,14.35],[-100.803,13.862],[-100.87,13.375],[-100.937,12.887],[-101.004,12.4],[-101.071,11.912],[-101.137,11.425],[-101.203,10.938],[-101.269,10.45],[-101.335,9.962],[-101.401,9.475],[-101.466,8.987],[-101.531,8.5],[-101.596,8.012],[-101.661,7.525],[-101.726,7.037],[-101.79,6.55],[-101.855,6.062],[-101.919,5.574],[-101.983,5.087],[-102.047,4.599],[-102.111,4.111],[-102.175,3.624],[-102.239,3.136],[-102.303,2.649],[-102.189,2.179],[-102.075,1.709],[-101.961,1.239],[-101.848,0.769],[-101.734,0.299],[-101.62,-0.171],[-101.506,-0.641],[-101.392,-1.111]]}},{"type":"Feature","properties":{"boundary_type":"transform","feature_type":"gpml:Transform","polarity":null,"overriding_plate_id":null,"subducting_plate_id":null,"plate_ids":[701,801],"name":""},"geometry":{"type":"LineString","coordinates":[[-101.392,-1.111],[-101.277,-1.586],[-101.162,-2.06],[-101.047,-2.535],[-100.932,-3.009],[-100.817,-3.484],[-100.702,-3.958],[-100.586,-4.432],[-100.471,-4.907],[-100.355,-5.381],[-100.239,-5.856],[-100.123,-6.33],[-100.006,-6.804],[-99.89,-7.279],[-99.773,-7.753],[-99.656,-8.227],[-99.538,-8.702],[-99.42,-9.176],[-99.302,-9.65],[-99.184,-10.124],[-99.065,-10.598],[-98.946,-11.072],[-98.827,-11.546],[-98.707,-12.02],[-98.466,-12.453],[-98.224,-12.885],[-97.982,-13.318],[-97.738,-13.75],[-97.494,-14.182],[-97.249,-14.613],[-97.003,-15.045],[-96.755,-15.476],[-96.507,-15.907],[-96.258,-16.337],[-96.007,-16.767],[-95.756,-17.197],[-95.503,-17.627],[-95.249,-18.056],[-94.994,-18.485],[-94.738,-18.914],[-94.48,-19.342],[-94.221,-19.77],[-93.96,-20.198],[-93.698,-20.625],[-93.435,-21.052],[-93.17,-21.478],[-92.903,-21.904],[-92.635,-22.329],[-92.366,-22.755],[-92.094,-23.179],[-91.821,-23.603],[-91.546,-24.027],[-91.269,-24.45],[-90.991,-24.873],[-90.71,-25.295],[-90.428,-25.717],[-90.143,-26.138],[-89.857,-26.558],[-89.568,-26.978],[-89.277,-27.397],[-88.984,-27.816],[-88.689,-28.234],[-88.391,-28.652],[-88.091,-29.068],[-87.789,-29.484],[-87.484,-29.9],[-87.177,-30.315],[-86.867,-30.729],[-86.554,-31.142],[-86.238,-31.554],[-85.92,-31.966],[-85.599,-32.377],[-85.233,-32.721],[-84.864,-33.064],[-84.491,-33.406],[-84.117,-33.747],[-83.739,-34.087]]}},{"type":"Feature","properties":{"boundary_type":"transform","feature_type":"gpml:Transform","polarity":null,"overriding_plate_id":null,"subducting_plate_id":null,"plate_ids":[201,803],"name":""},"geometry":{"type":"LineString","coordinates":[[134.404,3.856],[134.815,3.571],[135.225,3.285],[135.636,3.0],[136.046,2.714],[136.456,2.429],[136.866,2.143],[137.276,1.857],[137.686,1.571],[138.095,1.285],[138.505,0.999],[138.914,0.713],[139.323,0.426],[139.733,0.14],[140.142,-0.146],[140.551,-0.433],[140.961,-0.719],[141.37,-1.005],[141.78,-1.291],[142.189,-1.577],[142.599,-1.863],[143.009,-2.149],[143.419,-2.435],[143.829,-2.721],[144.239,-3.006],[144.65,-3.292],[145.06,-3.577],[145.471,-3.862],[145.883,-4.147],[146.294,-4.432],[146.706,-4.716],[147.119,-5.0],[147.531,-5.284],[147.944,-5.568],[148.358,-5.851],[148.771,-6.134],[149.186,-6.417],[149.6,-6.699],[150.015,-6.981],[150.431,-7.263],[150.847,-7.544],[151.264,-7.825],[151.681,-8.106],[152.099,-8.386],[152.518,-8.665],[152.937,-8.945],[153.357,-9.223],[153.777,-9.502],[154.198,-9.779],[154.62,-10.056],[155.043,-10.333],[155.466,-10.609],[155.89,-10.885],[156.315,-11.16],[156.74,-11.434],[157.167,-11.708],[157.594,-11.981],[158.022,-12.253],[158.451,-12.525],[158.881,-12.796],[159.312,-13.067],[159.746,-13.323],[160.181,-13.578],[160.617,-13.832],[161.054,-14.086],[161.492,-14.339],[161.931,-14.591],[162.371,-14.842],[162.812,-15.092],[163.254,-15.342],[163.697,-15.59],[164.141,-15.838],[164.586,-16.085],[165.032,-16.331],[165.48,-16.576],[165.928,-16.82],[166.378,-17.063],[166.829,-17.305],[167.281,-17.546],[167.734,-17.786],[168.189,-18.025],[168.644,-18.262],[169.101,-18.499],[169.559,-18.735],[170.019,-18.969],[170.48,-19.203],[170.942,-19.435],[171.405,-19.666],[171.87,-19.896],[172.336,-20.125],[172.803,-20.352],[173.272,-20.579],[173.742,-20.804],[174.214,-21.027],[174.687,-21.25],[175.162,-21.471],[175.637,-21.691],[176.115,-21.909],[176.594,-22.126],[177.074,-22.341],[177.556,-22.556],[178.039,-22.768],[178.524,-22.98],[179.01,-23.189],[179.498,-23.398],[179.987,-23.604],[-179.522,-23.81],[-179.03,-24.013],[-178.536,-24.215],[-178.04,-24.416],[-177.543,-24.615],[-177.045,-24.812],[-176.544,-25.008],[-176.042,-25.202],[-175.539,-25.394],[-175.034,-25.584],[-174.527,-25.773],[-174.019,-25.96],[-173.509,-26.145],[-172.998,-26.329],[-172.485,-26.51],[-171.97,-26.69],[-171.454,-26.868],[-170.936,-27.044],[-170.416,-27.218],[-169.895,-27.39],[-169.372,-27.56],[-168.848,-27.729],[-168.322,-27.895],[-167.794,-28.059],[-167.265,-28.221],[-166.734,-28.382],[-166.202,-28.54],[-165.668,-28.696],[-165.132,-28.85],[-164.595,-29.002]]}},{"type":"Feature","properties":{"boundary_type":"transform","feature_type":"gpml:Transform","polarity":null,"overriding_plate_id":null,"subducting_plate_id":null,"plate_ids":[101,201],"name":""},"geometry":{"type":"LineString","coordinates":[[-164.595,-29.002],[-164.065,-29.149],[-163.533,-29.294],[-162.999,-29.438],[-162.464,-29.579],[-161.928,-29.717],[-161.39,-29.854],[-160.851,-29.989],[-160.31,-30.121],[-159.768,-30.251],[-159.224,-30.379],[-158.679,-30.505],[-158.133,-30.628],[-157.585,-30.749],[-157.036,-30.868],[-156.485,-30.984],[-155.933,-31.099],[-155.38,-31.21],[-154.826,-31.32],[-154.27,-31.427],[-153.713,-31.531],[-153.155,-31.633],[-152.595,-31.733],[-152.035,-31.83],[-151.473,-31.925],[-150.91,-32.018],[-150.346,-32.107],[-149.78,-32.195],[-149.214,-32.28],[-148.647,-32.362]]}},{"type":"Feature","properties":{"boundary_type":"transform","feature_type":"gpml:Transform","polarity":null,"overriding_plate_id":null,"subducting_plate_id":null,"plate_ids":[101,701],"name":""},"geometry":{"type":"LineString","coordinates":[[-145.404,-27.791],[-145.687,-28.21],[-145.972,-28.628],[-146.259,-29.045],[-146.549,-29.462],[-146.841,-29.879],[-147.135,-30.294],[-147.433,-30.709],[-147.732,-31.123],[-148.034,-31.537],[-148.339,-31.95],[-148.647,-32.362]]}},{"type":"Feature","properties":{"boundary_type":"transform","feature_type":"gpml:Transform","polarity":null,"overriding_plate_id":null,"subducting_plate_id":null,"plate_ids":[201,701],"name":""},"geometry":{"type":"LineString","coordinates":[[-148.647,-32.362],[-148.862,-32.648],[-149.079,-32.934],[-149.36,-33.372],[-149.643,-33.81],[-149.929,-34.247],[-150.217,-34.684],[-150.509,-35.12],[-150.805,-35.555],[-151.103,-35.99],[-151.405,-36.423],[-151.71,-36.856],[-152.018,-37.289],[-152.33,-37.72],[-152.646,-38.151],[-152.965,-38.58],[-153.289,-39.009],[-153.616,-39.437],[-153.947,-39.864],[-154.283,-40.29],[-154.622,-40.715],[-154.966,-41.139],[-155.315,-41.562],[-155.668,-41.984],[-156.026,-42.405],[-156.388,-42.825],[-156.756,-43.243],[-157.129,-43.66],[-157.506,-44.077],[-157.89,-44.491],[-158.278,-44.905],[-158.673,-45.317],[-159.073,-45.728],[-159.479,-46.137],[-159.891,-46.545],[-160.309,-46.952],[-160.734,-47.357],[-161.165,-47.76],[-161.603,-48.162],[-162.048,-48.562],[-162.5,-48.96],[-162.959,-49.357],[-163.426,-49.751],[-163.9,-50.144],[-164.382,-50.535],[-164.872,-50.923],[-165.371,-51.31],[-165.878,-51.695],[-166.393,-52.077],[-166.918,-52.457],[-167.451,-52.834],[-167.994,-53.21],[-168.546,-53.582],[-169.108,-53.952],[-169.681,-54.32],[-170.263,-54.685],[-170.856,-55.046],[-171.46,-55.405],[-172.075,-55.761],[-172.701,-56.114],[-173.338,-56.463],[-173.959,-56.809],[-174.592,-57.151],[-175.236,-57.49],[-175.893,-57.826],[-176.561,-58.158],[-177.242,-58.486],[-177.936,-58.811],[-178.643,-59.133],[-179.364,-59.45],[179.903,-59.763],[179.155,-60.072],[178.393,-60.377],[177.617,-60.677],[176.827,-60.973],[176.021,-61.264],[175.201,-61.55],[174.366,-61.831],[173.515,-62.107],[172.649,-62.378],[171.768,-62.643],[170.87,-62.903],[169.957,-63.157],[169.028,-63.404],[168.082,-63.646],[167.121,-63.881],[166.144,-64.11],[165.151,-64.333],[164.142,-64.548],[163.117,-64.756],[162.076,-64.958],[161.02,-65.151],[159.949,-65.338]]}},{"type":"Feature","properties":{"boundary_type":"transform","feature_type":"gpml:Transform","polarity":null,"overriding_plate_id":null,"subducting_plate_id":null,"plate_ids":[201,90105],"name":""},"geometry":{"type":"LineString","coordinates":[[159.949,-65.338],[158.84,-65.52],[157.716,-65.694],[156.577,-65.86],[155.424,-66.017],[154.257,-66.165],[153.076,-66.304],[151.883,-66.435],[150.678,-66.556]]}},{"type":"Feature","properties":{"boundary_type":"ridge","feature_type":"gpml:MidOceanRidge","polarity":null,"overriding_plate_id":null,"subducting_plate_id":null,"plate_ids":[803,90106],"name":""},"geometry":{"type":"LineString","coordinates":[[-168.183,42.287],[-168.819,42.432],[-169.458,42.573],[-170.1,42.711],[-170.744,42.845],[-171.391,42.975],[-172.041,43.102],[-172.694,43.226],[-173.349,43.345],[-174.007,43.461],[-174.667,43.573],[-175.33,43.681],[-175.995,43.785],[-176.663,43.885],[-177.332,43.982],[-178.004,44.075],[-178.678,44.163],[-179.353,44.248],[179.969,44.329],[179.29,44.405],[178.608,44.478],[177.966,44.299],[177.328,44.116],[176.694,43.929],[176.064,43.739],[175.438,43.546],[174.816,43.349],[174.198,43.149],[173.584,42.946],[172.975,42.739],[172.369,42.529],[171.767,42.316],[171.17,42.1],[170.576,41.881],[169.987,41.658],[169.402,41.433],[168.82,41.205],[168.243,40.974],[167.67,40.74],[167.267,40.353],[166.869,39.965],[166.475,39.575],[166.085,39.184],[165.7,38.792],[165.319,38.398],[164.942,38.003],[164.569,37.607],[164.2,37.21],[163.835,36.812],[163.474,36.413],[163.116,36.012],[162.762,35.611],[162.412,35.208],[161.805,35.205],[161.198,35.199],[160.592,35.19],[159.985,35.177],[159.379,35.162],[158.773,35.144],[158.167,35.123],[157.561,35.098],[156.956,35.071],[156.352,35.041],[155.747,35.007],[155.144,34.971],[154.541,34.932],[153.938,34.89],[153.336,34.844],[152.735,34.796],[152.135,34.745],[151.535,34.691],[150.936,34.634],[150.338,34.574],[149.741,34.511],[149.145,34.446],[148.549,34.377],[147.955,34.305],[147.362,34.231],[146.769,34.154],[146.765,33.742],[146.76,33.33],[146.756,32.918],[146.752,32.507],[146.747,32.095],[146.197,31.93],[145.649,31.763],[145.103,31.593],[144.559,31.421],[144.016,31.247],[143.476,31.07],[142.938,30.891],[142.402,30.71],[141.868,30.527],[141.336,30.342],[140.806,30.154],[140.278,29.965],[139.752,29.773],[139.228,29.579],[138.706,29.383],[138.186,29.186],[137.668,28.986],[137.152,28.784],[136.638,28.58],[136.126,28.374],[135.616,28.167],[135.108,27.957],[134.602,27.746],[134.098,27.533],[133.596,27.318],[133.096,27.101],[132.598,26.882],[132.101,26.662],[131.607,26.44],[131.115,26.216],[130.624,25.991],[130.136,25.764],[129.649,25.535],[129.164,25.305],[128.681,25.073],[128.2,24.839],[127.72,24.605],[127.243,24.368],[126.767,24.13],[126.293,23.891],[125.821,23.65],[125.35,23.408],[124.881,23.164],[124.414,22.919],[123.949,22.672],[123.485,22.425],[123.023,22.176],[122.562,21.925],[122.104,21.674],[121.646,21.421],[121.191,21.166],[120.737,20.911],[120.284,20.654]]}},{"type":"Feature","properties":{"boundary_type":"ridge","feature_type":"gpml:MidOceanRidge","polarity":null,"overriding_plate_id":null,"subducting_plate_id":null,"plate_ids":[90106,90107],"name":""},"geometry":{"type":"LineString","coordinates":[[13.175,-0.576],[13.001,-0.964],[12.828,-1.351],[12.654,-1.739],[12.481,-2.126],[12.307,-2.513],[12.133,-2.901]]}},{"type":"Feature","properties":{"boundary_type":"ridge","feature_type":"gpml:MidOceanRidge","polarity":null,"overriding_plate_id":null,"subducting_plate_id":null,"plate_ids":[90105,90107],"name":""},"geometry":{"type":"LineString","coordinates":[[12.133,-2.901],[11.929,-3.355],[11.725,-3.809],[11.52,-4.264],[11.315,-4.718],[11.11,-5.172],[10.905,-5.626],[10.699,-6.08],[10.494,-6.534],[10.287,-6.987],[10.08,-7.441],[9.873,-7.895],[9.666,-8.348],[9.458,-8.802],[9.249,-9.255],[9.04,-9.708],[8.83,-10.161],[8.62,-10.614],[8.409,-11.067],[8.197,-11.519],[7.985,-11.972],[7.772,-12.424],[7.558,-12.876],[7.344,-13.328],[7.129,-13.78],[6.913,-14.231],[6.696,-14.683],[6.478,-15.134],[6.259,-15.585],[6.039,-16.036],[5.818,-16.486],[5.597,-16.936],[5.374,-17.386],[5.15,-17.836],[4.925,-18.286],[4.698,-18.735],[4.471,-19.184],[4.242,-19.633],[4.012,-20.081],[3.781,-20.529],[3.548,-20.977],[3.314,-21.425],[3.079,-21.872],[2.842,-22.319],[2.603,-22.765],[2.363,-23.211],[2.121,-23.657],[1.878,-24.103],[1.633,-24.548],[1.386,-24.992],[1.138,-25.436],[0.887,-25.88],[0.635,-26.324],[0.951,-26.735],[1.269,-27.146],[1.59,-27.556],[1.913,-27.965],[2.238,-28.373],[2.566,-28.781],[2.897,-29.188],[3.23,-29.594],[3.566,-29.999],[3.905,-30.404],[4.246,-30.807],[4.59,-31.21],[4.938,-31.612],[5.288,-32.012],[5.641,-32.412],[5.998,-32.811],[6.358,-33.209],[6.721,-33.605],[7.087,-34.001],[7.457,-34.396],[7.83,-34.789],[8.207,-35.181],[8.587,-35.572],[8.972,-35.962],[9.36,-36.351],[9.752,-36.738],[10.147,-37.124],[10.547,-37.509],[10.951,-37.892],[11.36,-38.274],[11.772,-38.655],[12.189,-39.034],[12.611,-39.412],[13.037,-39.788],[13.468,-40.162],[13.903,-40.535],[14.344,-40.906],[14.789,-41.276],[15.239,-41.644],[15.695,-42.01],[16.156,-42.374],[16.622,-42.736],[17.094,-43.097],[17.571,-43.455],[18.054,-43.811],[18.542,-44.166],[19.037,-44.518],[19.537,-44.868],[20.044,-45.216],[20.557,-45.562],[21.076,-45.905],[21.602,-46.246],[22.134,-46.584],[22.673,-46.92],[23.219,-47.254],[23.771,-47.585],[24.331,-47.913],[24.897,-48.238],[25.471,-48.561],[26.052,-48.88],[26.641,-49.197],[27.237,-49.511],[26.755,-49.897],[26.266,-50.281],[25.768,-50.662],[25.262,-51.042],[24.748,-51.419],[24.225,-51.795],[23.694,-52.167],[23.154,-52.538],[22.604,-52.906],[22.045,-53.271],[21.477,-53.634],[20.899,-53.993],[20.31,-54.35],[19.712,-54.705],[19.103,-55.056],[18.483,-55.404],[17.852,-55.749],[17.21,-56.09],[16.557,-56.428],[15.891,-56.763],[15.214,-57.094],[14.525,-57.422],[13.824,-57.745],[13.11,-58.065],[12.383,-58.38],[11.643,-58.692],[10.89,-58.999],[10.123,-59.301],[9.343,-59.599],[8.549,-59.893],[7.741,-60.181],[6.918,-60.464],[6.082,-60.743],[5.231,-61.016],[4.365,-61.283],[3.484,-61.545],[2.589,-61.801],[1.679,-62.051],[0.753,-62.296],[-0.187,-62.533],[-1.142,-62.765],[-2.112,-62.99],[-3.096,-63.208],[-4.096,-63.419],[-5.11,-63.623],[-6.138,-63.82],[-7.181,-64.01],[-8.237,-64.192],[-9.308,-64.366],[-10.391,-64.532],[-11.488,-64.69],[-12.597,-64.84],[-13.718,-64.982],[-14.851,-65.115],[-15.995,-65.24],[-17.149,-65.356],[-18.313,-65.462],[-19.487,-65.56],[-20.668,-65.649],[-21.858,-65.729],[-23.054,-65.799],[-24.256,-65.86],[-25.464,-65.911],[-26.676,-65.953],[-27.892,-65.985],[-29.11,-66.008],[-30.33,-66.021],[-31.551,-66.024],[-32.771,-66.018],[-33.991,-66.002],[-35.208,-65.977],[-36.423,-65.942],[-37.634,-65.897],[-38.84,-65.843],[-40.041,-65.779],[-41.235,-65.706],[-42.422,-65.624],[-43.602,-65.532],[-44.772,-65.432],[-45.933,-65.322],[-47.085,-65.204],[-48.225,-65.077],[-49.355,-64.941],[-50.472,-64.797],[-51.578,-64.645],[-52.671,-64.484],[-53.75,-64.315],[-54.817,-64.139],[-55.869,-63.955]]}},{"type":"Feature","properties":{"boundary_type":"ridge","feature_type":"gpml:MidOceanRidge","polarity":null,"overriding_plate_id":null,"subducting_plate_id":null,"plate_ids":[803,90105],"name":""},"geometry":{"type":"LineString","coordinates":[[122.32,19.42],[122.079,18.995],[121.839,18.57],[121.6,18.144],[121.363,17.718],[121.126,17.291],[120.891,16.865],[120.657,16.438],[120.424,16.011],[120.191,15.584],[119.96,15.156],[119.73,14.728],[119.5,14.3],[119.272,13.872],[119.044,13.443],[118.817,13.015],[118.591,12.586],[118.366,12.157],[118.141,11.727],[117.917,11.298],[117.694,10.868],[117.471,10.439],[117.249,10.009],[117.028,9.579],[117.463,9.335],[117.897,9.091],[118.331,8.847],[118.765,8.602],[119.197,8.357],[119.63,8.111],[120.061,7.865],[120.493,7.618],[120.923,7.371],[121.354,7.123],[121.783,6.875],[122.213,6.627],[122.641,6.378],[123.07,6.129],[123.498,5.88],[123.926,5.63],[124.353,5.38],[124.78,5.129],[125.207,4.879],[125.633,4.628],[126.059,4.377],[126.485,4.125],[126.249,3.731],[126.013,3.337],[125.777,2.942],[125.542,2.548],[125.307,2.153],[125.071,1.759],[124.836,1.364],[124.601,0.97],[124.366,0.575],[124.132,0.18],[124.51,-0.085],[124.889,-0.35],[125.268,-0.615],[125.647,-0.88],[126.026,-1.145],[126.405,-1.41],[126.784,-1.674],[127.163,-1.939],[127.542,-2.204],[127.299,-2.641],[127.056,-3.078],[126.813,-3.514],[126.57,-3.951],[126.326,-4.388],[126.082,-4.824],[125.838,-5.261],[125.593,-5.697],[125.348,-6.134],[125.103,-6.57],[124.857,-7.006],[124.611,-7.442],[124.364,-7.878],[124.117,-8.313],[123.869,-8.749],[123.621,-9.184],[123.372,-9.619],[123.693,-9.934],[124.015,-10.249]]}},{"type":"Feature","properties":{"boundary_type":"ridge","feature_type":"gpml:MidOceanRidge","polarity":null,"overriding_plate_id":null,"subducting_plate_id":null,"plate_ids":[90105,90107],"name":""},"geometry":{"type":"LineString","coordinates":[[-55.869,-63.955],[-56.025,-64.443],[-56.186,-64.931],[-56.354,-65.419],[-56.527,-65.906],[-56.707,-66.394],[-56.895,-66.881],[-57.09,-67.368],[-57.293,-67.854],[-57.505,-68.341],[-57.726,-68.827],[-57.958,-69.313],[-58.199,-69.798]]}},{"type":"Feature","properties":{"boundary_type":"ridge","feature_type":"gpml:MidOceanRidge","polarity":null,"overriding_plate_id":null,"subducting_plate_id":null,"plate_ids":[701,90105],"name":""},"geometry":{"type":"LineString","coordinates":[[-58.199,-69.798],[-58.454,-70.288],[-58.722,-70.777],[-59.003,-71.265],[-59.299,-71.753],[-59.61,-72.241],[-59.939,-72.728],[-60.285,-73.214],[-60.652,-73.7],[-61.041,-74.186],[-61.454,-74.67],[-61.893,-75.154],[-62.36,-75.637],[-62.86,-76.118],[-63.395,-76.599],[-63.968,-77.079],[-64.586,-77.557],[-65.251,-78.034],[-65.971,-78.508],[-66.752,-78.982],[-67.602,-79.452],[-68.53,-79.921],[-69.547,-80.386],[-70.667,-80.849],[-71.904,-81.307],[-73.277,-81.761],[-74.808,-82.21],[-76.523,-82.653],[-78.456,-83.088],[-80.644,-83.515],[-83.135,-83.931],[-85.984,-84.334],[-89.258,-84.72],[-93.034,-85.087],[-97.09,-84.755],[-100.65,-84.4],[-103.775,-84.026],[-106.527,-83.637],[-108.958,-83.235],[-111.114,-82.822],[-113.034,-82.4],[-114.751,-81.97],[-116.294,-81.534],[-117.686,-81.093],[-118.947,-80.647],[-120.093,-80.197],[-121.14,-79.743],[-122.098,-79.286],[-124.715,-79.374],[-127.369,-79.44],[-130.05,-79.483],[-132.748,-79.504],[-135.45,-79.502],[-138.146,-79.477],[-140.823,-79.429],[-143.471,-79.359],[-146.079,-79.267],[-148.639,-79.154],[-151.141,-79.02],[-153.58,-78.867],[-155.949,-78.694],[-158.244,-78.503],[-160.462,-78.294],[-162.6,-78.069],[-164.658,-77.829],[-166.635,-77.574],[-168.531,-77.305],[-170.348,-77.023],[-172.088,-76.729],[-173.752,-76.424],[-175.343,-76.108],[-176.864,-75.783],[-178.317,-75.448],[-179.705,-75.105],[178.968,-74.753],[177.7,-74.395],[176.489,-74.029],[175.331,-73.657],[174.223,-73.279],[173.164,-72.895],[172.15,-72.506],[171.178,-72.112],[170.248,-71.713],[169.356,-71.31],[168.501,-70.903],[167.68,-70.492],[166.892,-70.078],[166.135,-69.66],[165.407,-69.239],[164.707,-68.816],[164.034,-68.389],[163.385,-67.96],[162.76,-67.528],[162.157,-67.094],[161.576,-66.658],[161.014,-66.22],[160.472,-65.78],[159.949,-65.338]]}},{"type":"Feature","properties":{"boundary_type":"subduction","feature_type":"gpml:SubductionZone","polarity":"Right","overriding_plate_id":801,"subducting_plate_id":90107,"plate_ids":[801,90107],"name":"SaoFrancisco_SZ"},"geometry":{"type":"LineString","coordinates":[[-85.841,-15.211],[-85.826,-15.708],[-85.811,-16.205],[-85.796,-16.703],[-85.781,-17.2],[-85.766,-17.697],[-85.751,-18.195],[-85.736,-18.692],[-85.721,-19.189],[-85.705,-19.687],[-85.69,-20.184],[-85.674,-20.681],[-85.659,-21.179],[-85.643,-21.676],[-85.627,-22.173],[-85.611,-22.671],[-85.595,-23.168],[-85.579,-23.665],[-85.562,-24.162],[-85.546,-24.66],[-85.529,-25.157],[-85.513,-25.654],[-85.496,-26.152],[-85.479,-26.649],[-85.462,-27.146],[-85.444,-27.643],[-85.33,-28.104],[-85.214,-28.565],[-85.097,-29.026],[-84.98,-29.487],[-84.861,-29.947],[-84.741,-30.408],[-84.62,-30.868],[-84.498,-31.328],[-84.375,-31.788],[-84.25,-32.248],[-84.124,-32.708],[-83.997,-33.168],[-83.868,-33.627],[-83.739,-34.087]]}},{"type":"Feature","properties":{"boundary_type":"subduction","feature_type":"gpml:SubductionZone","polarity":"Right","overriding_plate_id":701,"subducting_plate_id":90107,"plate_ids":[701,90107],"name":"SaoFrancisco_SZ"},"geometry":{"type":"LineString","coordinates":[[-83.739,-34.087],[-83.63,-34.468],[-83.52,-34.849],[-83.409,-35.23],[-83.296,-35.685],[-83.182,-36.14],[-83.066,-36.596],[-82.95,-37.051],[-82.831,-37.506],[-82.712,-37.96],[-82.59,-38.415],[-82.468,-38.87],[-82.343,-39.324],[-82.217,-39.778],[-82.09,-40.232],[-81.96,-40.686],[-81.829,-41.14],[-81.641,-41.605],[-81.449,-42.07],[-81.255,-42.535],[-81.058,-42.999],[-80.858,-43.463],[-80.655,-43.927],[-80.449,-44.39],[-80.24,-44.853],[-80.027,-45.315],[-79.81,-45.777],[-79.59,-46.239],[-79.366,-46.7],[-79.139,-47.16],[-78.907,-47.621],[-78.672,-48.081],[-78.432,-48.54],[-78.187,-48.999],[-77.938,-49.457],[-77.685,-49.915],[-77.426,-50.372],[-77.235,-50.831],[-77.041,-51.289],[-76.842,-51.747],[-76.64,-52.205],[-76.433,-52.663],[-76.222,-53.12],[-76.006,-53.576],[-75.785,-54.033],[-75.56,-54.489],[-75.33,-54.944],[-75.094,-55.399],[-74.853,-55.854],[-74.606,-56.308],[-74.353,-56.762],[-74.094,-57.215],[-73.828,-57.667],[-73.556,-58.119],[-73.193,-58.57],[-72.82,-59.021],[-72.437,-59.47],[-72.044,-59.918],[-71.64,-60.365],[-71.225,-60.81],[-70.799,-61.255],[-70.36,-61.698],[-69.908,-62.139],[-69.443,-62.579],[-68.964,-63.017],[-68.471,-63.454],[-67.962,-63.889],[-67.437,-64.322],[-66.896,-64.753],[-66.337,-65.182],[-65.759,-65.609],[-65.163,-66.034],[-64.562,-66.423],[-63.943,-66.809],[-63.304,-67.193],[-62.645,-67.574],[-61.963,-67.953],[-61.26,-68.328],[-60.533,-68.701],[-59.781,-69.07],[-59.003,-69.436],[-58.199,-69.798]]}},{"type":"Feature","properties":{"boundary_type":"subduction","feature_type":"gpml:SubductionZone","polarity":"Left","overriding_plate_id":101,"subducting_plate_id":803,"plate_ids":[101,803],"name":"Baltica_SZ"},"geometry":{"type":"LineString","coordinates":[[-168.947,28.585],[-168.752,28.152],[-168.558,27.719],[-168.366,27.285],[-168.176,26.851],[-167.987,26.417],[-167.799,25.983],[-167.613,25.549],[-167.418,25.116],[-167.225,24.682],[-167.033,24.249],[-166.843,23.815],[-166.653,23.381],[-166.465,22.947],[-166.279,22.512],[-166.093,22.078],[-165.908,21.643],[-165.725,21.208],[-165.669,20.746],[-165.613,20.284],[-165.557,19.821],[-165.502,19.359],[-165.446,18.897],[-165.392,18.435],[-165.337,17.972],[-165.283,17.51],[-165.229,17.048],[-165.342,16.602],[-165.454,16.156],[-165.565,15.71],[-165.676,15.263],[-165.787,14.817],[-165.897,14.371],[-166.006,13.925],[-166.115,13.478],[-166.224,13.032],[-166.332,12.585],[-166.44,12.139],[-166.548,11.692],[-166.593,11.231],[-166.638,10.771],[-166.683,10.31],[-166.727,9.849],[-166.772,9.389],[-166.816,8.928],[-166.86,8.467],[-166.904,8.006],[-166.948,7.546],[-166.992,7.085],[-167.036,6.624],[-167.08,6.163],[-167.049,5.708],[-167.017,5.253],[-166.986,4.799],[-166.955,4.344],[-166.924,3.889],[-166.893,3.434],[-166.862,2.979],[-166.831,2.524],[-166.8,2.069],[-166.769,1.614],[-166.637,1.18],[-166.506,0.746],[-166.374,0.312],[-166.242,-0.123]]}},{"type":"Feature","properties":{"boundary_type":"ridge","feature_type":"gpml:MidOceanRidge","polarity":null,"overriding_plate_id":null,"subducting_plate_id":null,"plate_ids":[803,90105],"name":""},"geometry":{"type":"LineString","coordinates":[[122.32,19.42],[121.915,19.669],[121.509,19.917],[121.102,20.164],[120.694,20.409],[120.284,20.654]]}},{"type":"Feature","properties":{"boundary_type":"ridge","feature_type":"gpml:MidOceanRidge","polarity":null,"overriding_plate_id":null,"subducting_plate_id":null,"plate_ids":[90105,90106],"name":""},"geometry":{"type":"LineString","coordinates":[[120.284,20.654],[119.841,20.918],[119.396,21.18],[118.949,21.44],[118.501,21.7],[118.051,21.959],[117.6,22.216],[117.147,22.472],[116.692,22.726],[116.236,22.98],[115.778,23.232],[115.318,23.483],[114.857,23.732],[114.393,23.98],[113.928,24.227],[113.461,24.472],[112.993,24.716],[112.522,24.958],[112.05,25.199],[111.575,25.438],[111.099,25.676],[110.621,25.912],[110.141,26.147],[109.659,26.38],[109.176,26.611],[108.69,26.841],[108.202,27.069],[107.712,27.295],[107.221,27.52],[106.727,27.743],[106.231,27.964],[105.733,28.184],[105.233,28.402],[104.732,28.617],[104.228,28.831],[103.722,29.043],[103.214,29.254],[102.703,29.462],[102.191,29.668],[101.677,29.872],[101.16,30.075],[100.642,30.275],[100.121,30.473],[99.599,30.669],[99.074,30.863],[98.547,31.055],[98.018,31.245],[97.486,31.433],[96.953,31.618],[96.417,31.801],[95.88,31.982],[95.34,32.161],[94.798,32.337],[94.639,31.859],[94.48,31.381],[94.324,30.903],[94.169,30.425],[94.015,29.946],[93.863,29.467],[93.713,28.988],[93.563,28.509],[93.416,28.03],[93.269,27.55],[93.124,27.071],[92.98,26.591],[92.837,26.111],[92.695,25.631],[92.555,25.151],[92.415,24.671],[92.277,24.19],[92.139,23.71],[92.003,23.229],[91.868,22.748],[91.733,22.267],[91.6,21.786],[91.071,21.851],[90.542,21.915],[90.012,21.977],[89.481,22.037],[88.95,22.095],[88.419,22.152],[87.888,22.207],[87.355,22.26],[86.823,22.312],[86.29,22.361],[85.757,22.409],[85.223,22.456],[84.689,22.5],[84.155,22.543],[83.62,22.584],[83.086,22.623],[82.55,22.661],[82.015,22.696],[81.479,22.73],[80.943,22.762],[80.407,22.793],[79.87,22.821],[79.333,22.848],[78.797,22.873],[78.259,22.896],[77.722,22.917],[77.185,22.937],[76.647,22.954],[76.109,22.97],[75.571,22.984],[75.033,22.996],[74.495,23.007],[73.957,23.015],[73.419,23.022],[72.881,23.027],[72.343,23.03],[72.362,22.538],[72.381,22.046],[72.399,21.553],[72.418,21.061],[72.437,20.569],[72.455,20.076],[72.474,19.584],[72.492,19.091],[72.51,18.599],[72.528,18.107],[72.546,17.614],[72.034,17.515],[71.523,17.414],[71.013,17.312],[70.503,17.209],[69.994,17.105],[69.485,16.999],[68.977,16.892],[68.469,16.783],[67.962,16.674],[67.456,16.563],[66.95,16.451],[66.445,16.338],[65.94,16.223],[65.436,16.108],[64.933,15.991],[64.43,15.873],[63.928,15.754],[63.426,15.634],[62.925,15.512],[62.424,15.39],[61.924,15.266],[61.425,15.141],[60.926,15.016],[60.428,14.889],[59.931,14.761],[59.434,14.632],[58.937,14.502],[58.442,14.37],[57.946,14.238],[57.452,14.105],[56.958,13.971],[56.464,13.836],[55.971,13.699],[55.479,13.562],[54.987,13.424],[54.496,13.285],[54.005,13.145],[53.515,13.004],[53.026,12.862],[52.537,12.719],[52.049,12.576],[51.561,12.431],[51.073,12.286],[50.587,12.139],[50.101,11.992],[49.615,11.844],[49.13,11.695],[48.645,11.546],[48.161,11.395],[47.677,11.244],[47.194,11.092],[46.712,10.939],[46.23,10.786],[45.748,10.632],[45.895,10.182],[46.042,9.733],[46.188,9.284],[46.334,8.835],[46.479,8.385],[46.624,7.936],[46.769,7.486],[46.914,7.037],[47.058,6.587],[47.202,6.137],[47.346,5.688],[47.489,5.238],[47.633,4.788],[47.144,4.689],[46.655,4.589],[46.167,4.489],[45.679,4.388],[45.19,4.287],[44.702,4.186],[44.214,4.085],[43.726,3.983],[43.239,3.881],[42.751,3.778],[42.264,3.676],[41.776,3.573],[41.289,3.47],[40.802,3.366],[40.315,3.263],[39.828,3.159],[39.341,3.055],[38.854,2.951],[38.368,2.846],[37.881,2.741],[37.395,2.636],[36.908,2.531],[36.422,2.426],[35.936,2.321],[35.449,2.215],[34.963,2.109],[34.477,2.003],[33.991,1.897],[33.505,1.791],[33.019,1.685],[32.534,1.578],[32.048,1.472],[31.562,1.365],[31.077,1.258],[30.591,1.151],[30.105,1.044],[29.62,0.937],[29.134,0.83],[28.649,0.723],[28.163,0.616],[27.678,0.509],[27.192,0.401],[26.707,0.294],[26.221,0.187],[25.736,0.079],[25.251,-0.028],[24.765,-0.136],[24.28,-0.243],[23.794,-0.35],[23.309,-0.457],[22.823,-0.565],[22.338,-0.672],[21.852,-0.779],[21.367,-0.886],[20.881,-0.993],[20.396,-1.1],[19.91,-1.207],[19.425,-1.314],[18.939,-1.421],[18.453,-1.527],[17.967,-1.634],[17.481,-1.74],[16.996,-1.847],[16.51,-1.953],[16.024,-2.059],[15.538,-2.165],[15.051,-2.27],[14.565,-2.376],[14.079,-2.481],[13.592,-2.586],[13.106,-2.691],[12.619,-2.796],[12.133,-2.901]]}},{"type":"Feature","properties":{"boundary_type":"subduction","feature_type":"gpml:SubductionZone","polarity":"Left","overriding_plate_id":10104,"subducting_plate_id":90106,"plate_ids":[10104,90106],"name":""},"geometry":{"type":"LineString","coordinates":[[-121.419,80.024],[-123.766,80.253],[-126.22,80.466],[-128.78,80.66],[-131.443,80.835],[-134.203,80.99],[-137.051,81.124],[-139.979,81.236],[-142.975,81.325],[-146.15,81.306],[-149.302,81.261],[-152.413,81.19],[-155.467,81.094],[-158.448,80.974],[-161.343,80.831],[-164.144,80.665],[-166.842,80.478],[-169.431,80.271],[-171.909,80.045],[-174.274,79.802],[-175.102,79.34],[-175.862,78.876],[-176.561,78.411],[-177.208,77.943],[-177.806,77.474],[-178.362,77.004],[-178.88,76.533],[-179.363,76.061],[-179.816,75.588],[179.76,75.115],[179.362,74.64],[179.179,74.171],[179.007,73.701],[178.844,73.231],[178.69,72.762],[178.543,72.292],[178.404,71.822],[178.272,71.352],[178.146,70.881],[178.026,70.411],[177.911,69.941],[177.802,69.47],[177.697,69.0],[177.652,68.522],[177.608,68.044],[177.567,67.566],[177.527,67.087],[177.488,66.609],[177.451,66.131],[177.416,65.653],[177.382,65.175],[177.349,64.697],[177.317,64.219],[177.286,63.741],[177.256,63.262],[177.227,62.784],[177.199,62.306],[177.495,61.848],[177.783,61.389],[178.062,60.929],[178.333,60.469],[178.597,60.008],[178.853,59.547],[179.103,59.086],[179.345,58.623],[179.582,58.161],[179.812,57.698],[-179.963,57.234],[-179.744,56.771],[-179.338,56.343],[-178.942,55.913],[-178.554,55.483],[-178.174,55.051],[-177.802,54.618],[-177.439,54.184],[-177.083,53.748],[-176.734,53.312],[-176.392,52.875],[-175.907,52.506],[-175.429,52.134],[-174.96,51.761],[-174.499,51.386],[-174.045,51.009],[-173.598,50.631],[-173.158,50.25],[-172.484,50.012],[-171.817,49.77],[-171.156,49.524],[-170.502,49.274],[-169.855,49.021],[-169.214,48.764],[-168.58,48.504],[-167.952,48.24],[-167.331,47.973]]}},{"type":"Feature","properties":{"boundary_type":"subduction","feature_type":"gpml:SubductionZone","polarity":"Right","overriding_plate_id":80104,"subducting_plate_id":811001,"plate_ids":[80104,811001],"name":""},"geometry":{"type":"LineString","coordinates":[[-78.917,40.275],[-78.415,40.108],[-77.916,39.939],[-77.571,39.542],[-77.23,39.143],[-76.893,38.744],[-76.56,38.344],[-76.23,37.942],[-75.904,37.54],[-75.582,37.137],[-75.263,36.733],[-74.947,36.329],[-74.635,35.923],[-74.325,35.517],[-74.019,35.11],[-73.716,34.702],[-73.416,34.293],[-73.119,33.884],[-72.824,33.474],[-72.533,33.063],[-72.513,32.593],[-72.494,32.123],[-72.474,31.653],[-72.455,31.183]]}},{"type":"Feature","properties":{"boundary_type":"subduction","feature_type":"gpml:SubductionZone","polarity":"Right","overriding_plate_id":80104,"subducting_plate_id":90107,"plate_ids":[80104,90107],"name":""},"geometry":{"type":"LineString","coordinates":[[-72.455,31.183],[-72.438,30.743],[-72.42,30.304],[-72.403,29.865],[-72.386,29.426],[-72.369,28.987],[-72.352,28.547],[-72.493,28.102],[-72.633,27.656],[-72.772,27.21],[-72.91,26.764],[-73.047,26.318],[-73.183,25.871],[-73.318,25.425],[-73.452,24.978],[-73.584,24.532],[-73.716,24.085],[-73.858,23.638],[-73.999,23.191],[-74.14,22.744],[-74.279,22.296],[-74.417,21.849],[-74.555,21.402],[-74.692,20.954],[-74.989,20.597],[-75.285,20.24],[-75.58,19.882],[-75.873,19.524],[-76.165,19.165],[-76.456,18.806],[-76.746,18.446],[-77.034,18.086],[-77.428,17.987],[-77.822,17.887],[-78.215,17.786],[-78.627,17.701],[-79.039,17.615],[-79.45,17.528],[-79.861,17.44],[-80.272,17.352],[-80.738,17.273],[-81.204,17.194],[-81.67,17.113],[-82.135,17.031],[-82.599,16.948],[-83.064,16.864]]}},{"type":"Feature","properties":{"boundary_type":"subduction","feature_type":"gpml:SubductionZone","polarity":"Right","overriding_plate_id":80101,"subducting_plate_id":90106,"plate_ids":[80101,90106],"name":""},"geometry":{"type":"LineString","coordinates":[[-24.234,50.968],[-23.921,50.56],[-23.612,50.152],[-23.309,49.743],[-23.011,49.333],[-22.718,48.922],[-22.43,48.51],[-22.269,48.059],[-22.11,47.608],[-21.954,47.156],[-21.801,46.705],[-21.65,46.253],[-21.501,45.8],[-21.355,45.348],[-21.212,44.895],[-21.07,44.443],[-21.092,43.976],[-21.113,43.51],[-21.134,43.044],[-21.154,42.577],[-21.174,42.111]]}},{"type":"Feature","properties":{"boundary_type":"subduction","feature_type":"gpml:SubductionZone","polarity":"Right","overriding_plate_id":80101,"subducting_plate_id":90107,"plate_ids":[80101,90107],"name":""},"geometry":{"type":"LineString","coordinates":[[-21.174,42.111],[-21.19,41.736],[-21.206,41.361],[-21.221,40.985],[-21.502,40.592],[-21.78,40.197],[-22.054,39.802],[-22.325,39.407],[-22.594,39.01],[-22.859,38.613],[-23.121,38.216],[-23.38,37.818],[-23.731,37.423],[-24.077,37.028],[-24.42,36.631],[-24.76,36.233],[-25.096,35.835],[-25.428,35.435],[-25.758,35.035],[-26.084,34.633],[-26.407,34.231],[-26.808,33.908],[-27.206,33.584],[-27.601,33.259],[-27.994,32.932],[-28.383,32.605],[-28.77,32.276],[-29.153,31.946],[-29.534,31.615],[-29.913,31.282],[-30.366,31.008],[-30.816,30.732],[-31.264,30.455],[-31.709,30.176],[-32.152,29.896],[-32.592,29.614],[-33.03,29.331],[-33.465,29.047],[-33.898,28.761],[-34.425,28.628],[-34.95,28.494],[-35.474,28.357],[-35.997,28.219],[-36.518,28.079],[-37.038,27.936],[-37.557,27.792],[-38.074,27.646],[-38.59,27.498],[-39.104,27.348],[-39.617,27.196],[-40.129,27.042],[-40.639,26.887]]}},{"type":"Feature","properties":{"boundary_type":"transform","feature_type":"gpml:Transform","polarity":null,"overriding_plate_id":null,"subducting_plate_id":null,"plate_ids":[90107,811001],"name":""},"geometry":{"type":"LineString","coordinates":[[-72.455,31.183],[-71.895,31.176],[-71.335,31.167],[-70.775,31.155],[-70.215,31.141],[-69.656,31.124],[-69.096,31.105],[-68.537,31.084],[-67.978,31.06],[-67.42,31.034],[-66.861,31.005],[-66.303,30.974],[-65.746,30.941],[-65.189,30.905],[-64.632,30.867]]}},{"type":"Feature","properties":{"boundary_type":"transform","feature_type":"gpml:Transform","polarity":null,"overriding_plate_id":null,"subducting_plate_id":null,"plate_ids":[80101,90107],"name":""},"geometry":{"type":"LineString","coordinates":[[-64.632,30.867],[-64.056,30.825],[-63.48,30.78],[-62.906,30.733],[-62.331,30.684],[-61.758,30.632],[-61.184,30.577],[-60.612,30.52],[-60.04,30.46],[-59.469,30.398],[-58.899,30.333],[-58.329,30.266],[-57.761,30.196],[-57.193,30.124],[-56.626,30.05],[-56.06,29.973],[-55.494,29.894],[-54.93,29.812],[-54.366,29.728],[-53.804,29.641],[-53.242,29.552],[-52.682,29.461],[-52.122,29.368],[-51.564,29.272],[-51.007,29.174],[-50.45,29.073],[-49.895,28.97],[-49.341,28.865],[-48.788,28.758],[-48.236,28.648],[-47.685,28.536],[-47.136,28.422],[-46.588,28.306],[-46.041,28.188],[-45.495,28.067],[-44.95,27.944],[-44.407,27.819],[-43.865,27.692],[-43.324,27.563],[-42.784,27.432],[-42.246,27.299],[-41.709,27.163],[-41.173,27.026],[-40.639,26.887]]}},{"type":"Feature","properties":{"boundary_type":"ridge","feature_type":"gpml:MidOceanRidge","polarity":null,"overriding_plate_id":null,"subducting_plate_id":null,"plate_ids":[80101,811001],"name":""},"geometry":{"type":"LineString","coordinates":[[-47.54,61.654],[-47.804,61.191],[-48.062,60.727],[-48.312,60.263],[-48.554,59.798],[-48.791,59.333],[-49.021,58.868],[-49.244,58.402],[-49.462,57.935],[-49.674,57.469],[-49.881,57.001],[-50.083,56.534],[-50.28,56.066],[-50.472,55.598],[-50.66,55.13],[-50.843,54.661],[-51.022,54.193],[-51.197,53.724],[-51.368,53.254],[-51.536,52.785],[-51.7,52.315],[-51.86,51.845],[-52.017,51.374],[-52.171,50.904],[-52.865,50.949],[-53.559,50.99],[-54.255,51.026],[-54.951,51.059],[-55.649,51.087],[-56.347,51.112],[-57.046,51.132],[-57.745,51.148],[-57.808,50.694],[-57.868,50.241],[-57.928,49.787],[-57.987,49.334],[-58.044,48.88],[-58.101,48.426],[-58.156,47.973],[-58.211,47.519],[-58.265,47.065],[-58.923,47.089],[-59.581,47.109],[-60.24,47.126],[-60.899,47.138],[-61.558,47.147],[-61.676,46.655],[-61.792,46.163],[-61.906,45.671],[-62.018,45.179],[-62.128,44.686],[-62.236,44.194],[-62.342,43.701],[-62.447,43.209],[-62.55,42.716],[-62.651,42.223],[-62.751,41.73],[-62.849,41.237],[-62.946,40.744],[-63.041,40.25],[-63.135,39.757],[-63.227,39.264],[-63.319,38.77],[-63.409,38.277],[-63.498,37.783],[-63.585,37.29],[-63.672,36.796],[-63.757,36.302],[-63.841,35.808],[-63.925,35.314],[-64.007,34.82],[-64.088,34.326],[-64.168,33.832],[-64.248,33.338],[-64.326,32.844],[-64.404,32.35],[-64.481,31.856],[-64.557,31.361],[-64.632,30.867]]}},{"type":"Feature","properties":{"boundary_type":"subduction","feature_type":"gpml:SubductionZone","polarity":"Right","overriding_plate_id":811001,"subducting_plate_id":90106,"plate_ids":[90106,811001],"name":""},"geometry":{"type":"LineString","coordinates":[[-65.165,64.805],[-64.091,64.689],[-63.026,64.567],[-61.971,64.436],[-60.926,64.299],[-59.892,64.153],[-58.868,64.001],[-57.857,63.841],[-56.856,63.675],[-55.868,63.501],[-54.892,63.321],[-53.928,63.134],[-52.977,62.941],[-52.039,62.742],[-51.113,62.536],[-50.2,62.324],[-49.3,62.107],[-48.413,61.883],[-47.54,61.654]]}},{"type":"Feature","properties":{"boundary_type":"subduction","feature_type":"gpml:SubductionZone","polarity":"Right","overriding_plate_id":80101,"subducting_plate_id":90106,"plate_ids":[80101,90106],"name":""},"geometry":{"type":"LineString","coordinates":[[-47.54,61.654],[-46.65,61.412],[-45.774,61.163],[-44.912,60.91],[-44.063,60.65],[-43.228,60.386],[-42.407,60.116],[-41.6,59.842],[-40.805,59.562],[-40.024,59.278],[-39.256,58.989],[-38.501,58.696],[-37.758,58.398],[-37.028,58.096],[-36.311,57.79],[-35.605,57.48],[-34.911,57.166],[-34.23,56.848],[-33.559,56.527],[-32.9,56.202],[-32.252,55.874],[-31.616,55.542],[-30.989,55.208],[-30.374,54.87],[-29.768,54.529],[-29.173,54.184],[-28.587,53.838],[-28.011,53.488],[-27.445,53.135],[-26.888,52.78],[-26.34,52.423],[-25.801,52.062],[-25.27,51.7],[-24.748,51.335],[-24.234,50.968]]}},{"type":"Feature","properties":{"boundary_type":"ridge","feature_type":"gpml:MidOceanRidge","polarity":null,"overriding_plate_id":null,"subducting_plate_id":null,"plate_ids":[90106,90107],"name":""},"geometry":{"type":"LineString","coordinates":[[13.175,-0.576],[12.876,-0.177],[12.577,0.223],[12.278,0.622],[11.978,1.022],[11.679,1.421],[11.38,1.821],[11.08,2.22],[10.781,2.619],[10.481,3.019],[10.181,3.418],[9.881,3.817],[9.58,4.216],[9.279,4.615],[8.978,5.014],[8.676,5.412],[8.374,5.811],[8.072,6.209],[7.769,6.607],[7.466,7.005],[7.162,7.403],[6.857,7.8],[6.552,8.197],[6.247,8.595],[5.94,8.991],[5.488,8.769],[5.037,8.547],[4.586,8.324],[4.136,8.101],[3.686,7.877],[3.236,7.652],[2.787,7.427],[2.339,7.202],[1.891,6.976],[1.443,6.75],[0.996,6.524],[0.549,6.297],[0.103,6.069],[-0.343,5.842],[-0.605,6.26],[-0.868,6.678],[-1.131,7.097],[-1.395,7.515],[-1.659,7.933],[-1.923,8.35],[-2.188,8.768],[-2.454,9.185],[-2.72,9.603],[-2.987,10.02],[-3.255,10.436],[-3.523,10.853],[-3.793,11.269],[-4.062,11.685],[-4.333,12.101],[-4.605,12.517],[-4.877,12.932],[-5.151,13.347],[-5.425,13.762],[-5.7,14.176],[-5.976,14.59],[-6.254,15.004],[-6.532,15.417],[-6.812,15.831],[-7.092,16.243],[-7.374,16.656],[-7.657,17.068],[-7.942,17.479],[-8.227,17.89],[-7.871,18.167],[-7.514,18.443],[-7.155,18.718],[-6.795,18.993],[-6.435,19.267],[-6.691,19.699],[-6.948,20.131],[-7.207,20.562],[-7.468,20.994],[-7.73,21.424],[-7.993,21.855],[-8.258,22.285],[-8.525,22.714],[-8.794,23.143],[-9.064,23.572],[-9.336,24.0],[-9.609,24.428],[-9.885,24.855],[-10.162,25.282],[-10.442,25.708],[-10.723,26.133],[-11.007,26.558],[-11.293,26.983],[-11.58,27.407],[-11.87,27.83],[-12.163,28.253],[-12.457,28.675],[-12.754,29.096],[-13.054,29.517],[-13.356,29.937],[-13.66,30.356],[-13.967,30.775],[-14.277,31.193],[-14.589,31.61],[-14.905,32.027],[-15.223,32.442],[-15.544,32.857],[-15.868,33.271],[-16.196,33.684],[-16.526,34.097],[-16.86,34.508],[-17.197,34.918],[-17.537,35.328],[-17.881,35.737],[-18.228,36.144],[-18.579,36.551],[-18.934,36.956],[-19.292,37.361],[-19.655,37.764],[-20.021,38.166],[-20.391,38.568],[-20.766,38.967],[-21.145,39.366],[-21.528,39.764],[-21.061,40.02],[-20.59,40.274],[-20.116,40.527],[-19.638,40.778],[-20.016,41.113],[-20.398,41.447],[-20.784,41.779],[-21.174,42.111]]}}]}