{"type":"FeatureCollection","meta":{"model":"Cao2024","reconstruction_time_ma":1435.0,"anchor_plate_id":0,"pygplates_version":"1.0.0","tessellate_degrees":0.5,"polarity_convention":"gpml:subductionPolarity. 'Left'/'Right' names the side of the line, in vertex order, on which the OVERRIDING plate lies. Triangles are drawn on that side.","antimeridian":"Lines are NOT split at +/-180 deg. The renderer works in 3D unit vectors where the dateline is not special; splitting would only add spurious breaks. Do not treat this as RFC 7946 GIS-ready 2D data."},"features":[{"type":"Feature","properties":{"boundary_type":"subduction","feature_type":"gpml:SubductionZone","polarity":"Left","overriding_plate_id":101,"subducting_plate_id":911001,"plate_ids":[101,911001],"name":"Indo-Antarctica_SZ"},"geometry":{"type":"LineString","coordinates":[[-152.33,-26.835],[-152.247,-27.287],[-152.163,-27.739],[-152.079,-28.191],[-151.993,-28.643],[-151.908,-29.095],[-151.821,-29.546],[-151.734,-29.998],[-151.856,-30.467],[-151.98,-30.935],[-152.104,-31.403],[-152.23,-31.871],[-152.358,-32.339],[-152.486,-32.807],[-152.616,-33.275],[-152.748,-33.743],[-152.88,-34.21],[-153.015,-34.677],[-153.15,-35.145],[-153.288,-35.612],[-153.427,-36.079],[-153.568,-36.545],[-153.733,-37.018],[-153.901,-37.49],[-154.071,-37.962],[-154.243,-38.434],[-154.417,-38.905],[-154.594,-39.376],[-154.773,-39.847],[-154.955,-40.318],[-155.139,-40.788],[-155.326,-41.258],[-155.515,-41.728],[-155.707,-42.198],[-155.771,-42.691],[-155.835,-43.185],[-155.901,-43.678],[-155.968,-44.172],[-156.036,-44.665],[-156.105,-45.159],[-156.175,-45.652],[-156.246,-46.146],[-156.319,-46.639],[-156.393,-47.132],[-156.469,-47.625],[-156.546,-48.119],[-156.624,-48.612],[-156.704,-49.105],[-156.565,-49.594],[-156.422,-50.083],[-156.277,-50.572],[-156.128,-51.061],[-155.977,-51.549],[-155.822,-52.038],[-155.664,-52.526],[-155.502,-53.014],[-155.336,-53.501],[-155.167,-53.989],[-154.993,-54.476],[-154.816,-54.963],[-154.634,-55.45],[-154.54,-55.562]]}},{"type":"Feature","properties":{"boundary_type":"subduction","feature_type":"gpml:SubductionZone","polarity":"Right","overriding_plate_id":101,"subducting_plate_id":90107,"plate_ids":[101,90107],"name":"NorthChina_SZ"},"geometry":{"type":"LineString","coordinates":[[-89.511,24.573],[-89.166,24.462],[-88.822,24.351],[-88.407,24.064],[-87.994,23.776],[-87.582,23.487],[-87.173,23.197],[-86.765,22.906],[-86.358,22.614],[-85.954,22.321],[-85.551,22.027],[-85.32,21.606],[-85.089,21.185],[-84.861,20.764],[-84.633,20.342],[-84.406,19.92],[-84.181,19.497],[-83.957,19.075],[-83.734,18.652],[-83.512,18.229],[-83.292,17.805],[-83.382,17.349],[-83.471,16.892],[-83.56,16.436],[-83.648,15.979],[-83.736,15.522],[-83.824,15.066],[-83.911,14.609],[-83.998,14.152],[-84.085,13.695],[-84.171,13.239],[-84.257,12.782],[-84.343,12.325],[-84.428,11.868],[-84.641,11.435],[-84.854,11.001],[-85.065,10.568],[-85.277,10.134],[-85.487,9.7],[-85.697,9.266],[-85.907,8.832],[-86.116,8.398],[-86.324,7.963],[-86.532,7.529]]}},{"type":"Feature","properties":{"boundary_type":"subduction","feature_type":"gpml:SubductionZone","polarity":"Right","overriding_plate_id":801,"subducting_plate_id":80101,"plate_ids":[801,80101],"name":"SouthAustralia_SZ"},"geometry":{"type":"LineString","coordinates":[[-108.636,51.188],[-108.318,50.844],[-107.953,50.446],[-107.595,50.048],[-107.242,49.648],[-106.894,49.247],[-106.553,48.845],[-106.217,48.442],[-105.886,48.038],[-105.56,47.633],[-105.458,47.161],[-105.358,46.688],[-105.26,46.216],[-105.163,45.743],[-105.068,45.271],[-104.975,44.798],[-104.883,44.325],[-104.792,43.852],[-104.703,43.379],[-104.616,42.906],[-104.529,42.433],[-104.444,41.96]]}},{"type":"Feature","properties":{"boundary_type":"subduction","feature_type":"gpml:SubductionZone","polarity":"Right","overriding_plate_id":101,"subducting_plate_id":80101,"plate_ids":[101,80101],"name":"SouthAustralia_SZ"},"geometry":{"type":"LineString","coordinates":[[-104.444,41.96],[-104.435,41.908]]}},{"type":"Feature","properties":{"boundary_type":"subduction","feature_type":"gpml:SubductionZone","polarity":"Left","overriding_plate_id":101,"subducting_plate_id":90106,"plate_ids":[101,90106],"name":"Eastern_Laurentia_SZ"},"geometry":{"type":"LineString","coordinates":[[-172.46,56.534],[-172.808,56.109],[-173.148,55.683],[-173.48,55.256],[-173.806,54.828],[-174.125,54.399],[-174.437,53.969],[-174.743,53.539],[-175.042,53.107],[-175.251,52.633],[-175.455,52.159],[-175.654,51.684],[-175.85,51.209],[-176.042,50.733],[-176.229,50.257],[-176.413,49.781],[-176.594,49.305],[-176.771,48.828],[-176.944,48.351],[-177.115,47.874],[-177.282,47.397],[-177.446,46.919],[-177.608,46.441],[-177.719,45.959],[-177.829,45.476],[-177.936,44.993],[-178.042,44.511],[-178.146,44.028],[-178.248,43.545],[-178.349,43.062],[-178.448,42.579],[-178.545,42.095],[-178.641,41.612],[-178.736,41.129],[-178.829,40.645],[-178.921,40.162],[-179.012,39.678],[-179.101,39.194],[-179.189,38.711],[-179.276,38.227],[-179.236,37.759],[-179.196,37.291],[-179.157,36.823],[-179.118,36.355],[-179.079,35.887],[-179.041,35.42],[-179.004,34.952],[-178.967,34.484],[-178.93,34.016],[-178.894,33.548],[-178.858,33.08],[-178.822,32.612],[-178.787,32.144],[-178.752,31.676],[-178.718,31.208],[-178.415,30.787],[-178.114,30.365],[-177.817,29.943],[-177.521,29.52],[-177.228,29.096],[-176.938,28.672],[-176.65,28.247],[-176.364,27.821]]}},{"type":"Feature","properties":{"boundary_type":"subduction","feature_type":"gpml:SubductionZone","polarity":"Left","overriding_plate_id":101,"subducting_plate_id":201,"plate_ids":[101,201],"name":"Eastern_Laurentia_SZ"},"geometry":{"type":"LineString","coordinates":[[-176.364,27.821],[-176.171,27.532],[-175.98,27.242],[-175.628,26.886],[-175.278,26.529],[-174.931,26.171],[-174.586,25.812],[-174.242,25.452],[-173.901,25.092],[-173.562,24.731],[-173.225,24.369],[-172.89,24.006],[-172.556,23.643],[-172.225,23.279],[-171.895,22.914],[-171.536,22.667],[-171.179,22.419],[-170.822,22.17],[-170.467,21.921]]}},{"type":"Feature","properties":{"boundary_type":"subduction","feature_type":"gpml:SubductionZone","polarity":"Left","overriding_plate_id":101,"subducting_plate_id":90107,"plate_ids":[101,90107],"name":"South_NorthAustralia_SZ"},"geometry":{"type":"LineString","coordinates":[[-89.511,24.573],[-89.585,24.836],[-89.659,25.1]]}},{"type":"Feature","properties":{"boundary_type":"subduction","feature_type":"gpml:SubductionZone","polarity":"Left","overriding_plate_id":101,"subducting_plate_id":90106,"plate_ids":[101,90106],"name":"South_NorthAustralia_SZ"},"geometry":{"type":"LineString","coordinates":[[-89.659,25.1],[-89.792,25.566],[-89.926,26.033],[-90.06,26.5],[-90.196,26.966],[-90.333,27.432],[-90.471,27.899],[-90.611,28.365],[-90.751,28.831],[-90.893,29.296],[-91.036,29.762],[-91.181,30.227],[-91.327,30.693],[-91.474,31.158],[-91.623,31.623],[-91.773,32.087]]}},{"type":"Feature","properties":{"boundary_type":"subduction","feature_type":"gpml:SubductionZone","polarity":"Left","overriding_plate_id":101,"subducting_plate_id":80101,"plate_ids":[101,80101],"name":"South_NorthAustralia_SZ"},"geometry":{"type":"LineString","coordinates":[[-91.773,32.087],[-91.927,32.56],[-92.083,33.032],[-92.241,33.503],[-92.4,33.975],[-92.561,34.446],[-92.724,34.917],[-93.086,35.3],[-93.451,35.682],[-93.82,36.062],[-94.192,36.442],[-94.568,36.82],[-94.947,37.197],[-95.33,37.573],[-95.718,37.948],[-96.109,38.321],[-96.504,38.693],[-96.904,39.064],[-97.307,39.433],[-97.715,39.801],[-98.127,40.167],[-98.544,40.532],[-98.965,40.896],[-99.565,41.021],[-100.166,41.143],[-100.769,41.262],[-101.375,41.378],[-101.983,41.49],[-102.593,41.6],[-103.205,41.706],[-103.819,41.809],[-104.435,41.908]]}},{"type":"Feature","properties":{"boundary_type":"subduction","feature_type":"gpml:SubductionZone","polarity":"Left","overriding_plate_id":801,"subducting_plate_id":80101,"plate_ids":[801,80101],"name":"NorthwesternMawson_SZ"},"geometry":{"type":"LineString","coordinates":[[-108.636,51.188],[-108.378,51.648],[-108.114,52.108],[-107.845,52.568],[-107.57,53.026],[-107.289,53.485],[-106.965,53.917],[-106.634,54.348],[-106.296,54.778],[-105.951,55.208],[-105.599,55.636],[-105.239,56.064],[-104.87,56.49],[-104.494,56.915],[-104.137,57.371],[-103.771,57.825]]}},{"type":"Feature","properties":{"boundary_type":"subduction","feature_type":"gpml:SubductionZone","polarity":"Left","overriding_plate_id":801,"subducting_plate_id":90106,"plate_ids":[801,90106],"name":"NorthwesternMawson_SZ"},"geometry":{"type":"LineString","coordinates":[[-103.771,57.825],[-103.444,58.221],[-103.109,58.617],[-102.767,59.011],[-102.416,59.405],[-102.243,59.857],[-102.065,60.309],[-101.882,60.761],[-101.694,61.213],[-101.5,61.664],[-101.3,62.115],[-101.65,62.563],[-102.01,63.009],[-102.382,63.455],[-102.765,63.9],[-103.161,64.343],[-104.037,64.62],[-104.931,64.891],[-105.843,65.156],[-106.774,65.416],[-107.723,65.67],[-108.69,65.918],[-109.676,66.16],[-110.681,66.396],[-111.705,66.625],[-112.845,66.738],[-113.994,66.843],[-115.154,66.939],[-116.322,67.027],[-117.498,67.107],[-118.681,67.178],[-119.871,67.239],[-121.067,67.293],[-122.268,67.337],[-123.472,67.372],[-124.68,67.398],[-125.884,67.513],[-127.1,67.619],[-128.327,67.716],[-129.563,67.804],[-130.808,67.882],[-132.061,67.951],[-133.32,68.01],[-134.586,68.059],[-135.857,68.099],[-137.131,68.129],[-138.408,68.149],[-139.687,68.16],[-140.916,68.232],[-142.152,68.295],[-143.395,68.349],[-144.643,68.393],[-145.895,68.428],[-147.15,68.454],[-148.408,68.471],[-149.668,68.478],[-150.927,68.475],[-152.186,68.463],[-153.443,68.442],[-154.697,68.411],[-155.947,68.371],[-157.112,68.233],[-158.263,68.087],[-159.399,67.933],[-160.52,67.772],[-161.625,67.603],[-162.714,67.426],[-163.786,67.242],[-164.842,67.051],[-165.881,66.853]]}},{"type":"Feature","properties":{"boundary_type":"ridge","feature_type":"gpml:MidOceanRidge","polarity":null,"overriding_plate_id":null,"subducting_plate_id":null,"plate_ids":[101,801],"name":"SouthAustralia-NorthAustralia ridge"},"geometry":{"type":"LineString","coordinates":[[-122.91,36.234],[-122.371,36.291],[-121.832,36.345],[-121.292,36.397],[-120.751,36.447],[-120.209,36.495],[-119.667,36.539],[-119.124,36.582],[-119.025,36.949],[-118.926,37.316],[-118.383,37.486],[-117.838,37.655],[-117.29,37.82],[-116.74,37.983],[-116.188,38.144],[-115.633,38.302],[-115.729,38.675],[-115.827,39.048],[-115.294,39.017],[-114.762,38.984],[-114.23,38.948],[-113.699,38.91],[-113.54,39.251],[-113.379,39.592],[-112.936,39.438],[-112.495,39.284],[-112.056,39.127],[-111.763,39.517],[-111.466,39.907],[-111.165,40.295],[-110.569,40.462],[-109.969,40.626],[-109.367,40.788],[-108.761,40.945],[-108.153,41.1],[-107.542,41.252],[-106.928,41.4],[-106.311,41.545],[-105.691,41.687],[-105.069,41.825],[-104.444,41.96]]}},{"type":"Feature","properties":{"boundary_type":"ridge","feature_type":"gpml:MidOceanRidge","polarity":null,"overriding_plate_id":null,"subducting_plate_id":null,"plate_ids":[101,801],"name":"Laurentia-SouthAustralia ridge"},"geometry":{"type":"LineString","coordinates":[[-122.91,36.234],[-122.989,36.695],[-123.07,37.157],[-123.151,37.619],[-123.233,38.08],[-123.316,38.542],[-123.4,39.003],[-124.0,39.097],[-124.602,39.188],[-125.206,39.276],[-125.811,39.36],[-126.417,39.442],[-127.025,39.52],[-127.634,39.595],[-128.244,39.667],[-128.855,39.736],[-129.468,39.802],[-130.082,39.864],[-130.697,39.923],[-131.313,39.979],[-131.93,40.031],[-132.548,40.081],[-133.167,40.127],[-133.787,40.169],[-134.407,40.209],[-134.446,40.673],[-134.487,41.136],[-134.527,41.6],[-134.568,42.064],[-134.61,42.528],[-134.653,42.992],[-134.696,43.455],[-135.334,43.471],[-135.973,43.484],[-136.612,43.492],[-137.251,43.498],[-137.89,43.499],[-138.529,43.497],[-139.168,43.492],[-139.807,43.483],[-140.445,43.47],[-141.084,43.454],[-141.07,43.929],[-141.057,44.403],[-141.043,44.877],[-141.029,45.352],[-141.015,45.826],[-141.001,46.3],[-140.986,46.774],[-140.971,47.249],[-140.956,47.723],[-140.94,48.197],[-140.925,48.672],[-140.908,49.146],[-140.892,49.62],[-140.875,50.094],[-141.593,50.262],[-142.317,50.426],[-143.045,50.585],[-143.778,50.739],[-144.515,50.889],[-145.258,51.034],[-146.005,51.175],[-146.756,51.31],[-147.512,51.441],[-148.272,51.567],[-149.036,51.688],[-149.805,51.804],[-149.72,52.264],[-149.633,52.725],[-149.545,53.185],[-149.454,53.645],[-149.362,54.105],[-149.268,54.565],[-149.171,55.025],[-149.072,55.485],[-148.971,55.945],[-149.846,56.047],[-150.726,56.142],[-151.61,56.231],[-152.498,56.314],[-153.389,56.39],[-154.284,56.46],[-155.182,56.523],[-156.083,56.58],[-156.987,56.631],[-157.893,56.675],[-158.801,56.712],[-158.719,57.164],[-158.635,57.615],[-158.548,58.067],[-158.46,58.518],[-158.37,58.97],[-158.277,59.421],[-159.129,59.586],[-159.991,59.744],[-160.86,59.897],[-161.737,60.044],[-162.622,60.186],[-163.514,60.321],[-164.414,60.45],[-165.32,60.573],[-166.234,60.69],[-167.154,60.801],[-168.08,60.906],[-169.011,61.004],[-169.949,61.095]]}},{"type":"Feature","properties":{"boundary_type":"subduction","feature_type":"gpml:SubductionZone","polarity":"Right","overriding_plate_id":101,"subducting_plate_id":90107,"plate_ids":[101,90107],"name":"SaoFrancisco_SZ"},"geometry":{"type":"LineString","coordinates":[[-70.167,-7.553],[-69.915,-7.944],[-69.662,-8.335],[-69.409,-8.725],[-69.156,-9.116],[-68.902,-9.506],[-68.647,-9.897],[-68.392,-10.287],[-68.136,-10.676],[-67.906,-11.12],[-67.676,-11.563],[-67.445,-12.006],[-67.213,-12.448],[-66.981,-12.891],[-66.747,-13.333],[-66.513,-13.775],[-66.278,-14.217],[-66.042,-14.659],[-65.805,-15.1],[-65.567,-15.541],[-65.328,-15.982],[-65.088,-16.423],[-64.846,-16.863],[-64.604,-17.303],[-64.361,-17.743],[-64.116,-18.182],[-63.87,-18.621],[-63.623,-19.06],[-63.374,-19.499],[-63.125,-19.937],[-62.873,-20.375],[-62.621,-20.812],[-62.367,-21.249],[-62.048,-21.635],[-61.728,-22.02],[-61.406,-22.405],[-61.082,-22.789],[-60.757,-23.172],[-60.43,-23.555],[-60.1,-23.937],[-59.769,-24.318],[-59.436,-24.699],[-59.101,-25.079],[-58.763,-25.458],[-58.424,-25.836],[-58.082,-26.213],[-57.738,-26.59],[-57.392,-26.966],[-57.044,-27.341],[-56.693,-27.715],[-56.34,-28.088],[-55.986,-28.45],[-55.63,-28.811],[-55.272,-29.171],[-54.911,-29.53],[-54.548,-29.888],[-54.181,-30.245],[-53.813,-30.601],[-53.441,-30.956],[-53.067,-31.31],[-52.69,-31.663],[-52.31,-32.015],[-51.927,-32.365],[-51.541,-32.715],[-51.153,-33.063],[-50.761,-33.41],[-50.366,-33.756],[-49.967,-34.1],[-49.644,-34.512],[-49.317,-34.923],[-48.986,-35.333],[-48.653,-35.743],[-48.315,-36.151],[-47.975,-36.559],[-47.631,-36.965],[-47.283,-37.371],[-46.931,-37.775],[-46.575,-38.178],[-46.216,-38.581],[-45.852,-38.982],[-45.485,-39.382],[-45.113,-39.781],[-44.736,-40.178],[-44.356,-40.575],[-43.97,-40.97],[-43.58,-41.364],[-43.186,-41.756],[-42.786,-42.148],[-42.382,-42.537],[-41.973,-42.926],[-41.558,-43.313],[-41.138,-43.698],[-40.927,-44.173],[-40.713,-44.648],[-40.495,-45.123],[-40.273,-45.597],[-40.048,-46.07],[-39.819,-46.544],[-39.586,-47.016],[-39.349,-47.489],[-39.107,-47.961],[-38.861,-48.432],[-38.61,-48.903],[-38.355,-49.373],[-38.094,-49.842],[-37.829,-50.311],[-37.558,-50.78],[-37.282,-51.248],[-37.0,-51.715],[-36.712,-52.181],[-36.418,-52.647],[-36.118,-53.112],[-35.811,-53.576],[-35.497,-54.039],[-35.177,-54.502],[-34.849,-54.963],[-34.877,-55.463],[-34.905,-55.962],[-34.934,-56.462],[-34.964,-56.962],[-34.995,-57.461],[-35.027,-57.961],[-35.059,-58.46],[-35.093,-58.96],[-35.127,-59.459],[-35.163,-59.958],[-35.199,-60.458],[-35.237,-60.957],[-35.276,-61.457],[-35.316,-61.956],[-35.358,-62.456],[-35.4,-62.955],[-35.445,-63.454],[-35.491,-63.954],[-35.539,-64.453],[-35.682,-64.904],[-35.829,-65.355],[-35.982,-65.806],[-36.141,-66.256],[-36.305,-66.707],[-36.475,-67.157],[-36.652,-67.607]]}},{"type":"Feature","properties":{"boundary_type":"subduction","feature_type":"gpml:SubductionZone","polarity":"Right","overriding_plate_id":101,"subducting_plate_id":90105,"plate_ids":[101,90105],"name":"SaoFrancisco_SZ"},"geometry":{"type":"LineString","coordinates":[[-36.652,-67.607],[-36.845,-68.078],[-37.046,-68.55],[-37.255,-69.021],[-37.474,-69.492],[-37.702,-69.963],[-37.941,-70.433]]}},{"type":"Feature","properties":{"boundary_type":"subduction","feature_type":"gpml:SubductionZone","polarity":"Right","overriding_plate_id":101,"subducting_plate_id":90105,"plate_ids":[101,90105],"name":""},"geometry":{"type":"LineString","coordinates":[[-37.941,-70.433],[-38.439,-70.879],[-38.96,-71.324],[-39.505,-71.768],[-40.077,-72.21],[-40.676,-72.65],[-41.306,-73.088],[-41.968,-73.524],[-42.665,-73.958],[-43.399,-74.389],[-44.174,-74.818],[-44.993,-75.244],[-45.86,-75.668],[-47.222,-76.038],[-48.657,-76.401],[-50.167,-76.755],[-51.759,-77.1],[-53.434,-77.435],[-55.199,-77.759],[-57.056,-78.07],[-59.009,-78.37],[-61.061,-78.655],[-63.215,-78.925],[-65.472,-79.18],[-67.832,-79.417],[-70.296,-79.636],[-72.86,-79.835],[-75.519,-80.014],[-78.269,-80.17],[-81.1,-80.304],[-84.003,-80.414],[-86.965,-80.5],[-89.972,-80.56],[-93.01,-80.594],[-96.06,-80.602],[-99.108,-80.584],[-102.136,-80.54],[-105.128,-80.471],[-108.069,-80.376],[-110.947,-80.257],[-113.748,-80.114],[-116.465,-79.949],[-119.09,-79.763],[-121.616,-79.556],[-124.041,-79.33],[-126.363,-79.086],[-128.581,-78.826],[-130.697,-78.55],[-132.711,-78.259],[-134.628,-77.955],[-136.45,-77.639],[-138.181,-77.311],[-139.824,-76.972],[-141.385,-76.624],[-142.866,-76.266],[-144.273,-75.9],[-145.047,-75.44],[-145.774,-74.978],[-146.459,-74.514],[-147.104,-74.047],[-147.714,-73.579],[-148.291,-73.109],[-148.837,-72.637],[-149.355,-72.165],[-149.848,-71.69],[-150.316,-71.215],[-150.762,-70.739],[-151.187,-70.261],[-151.593,-69.783],[-151.981,-69.303],[-152.352,-68.823],[-152.707,-68.342],[-153.048,-67.86],[-153.375,-67.378],[-153.688,-66.895],[-153.99,-66.411],[-154.28,-65.927],[-154.56,-65.442],[-154.558,-64.949],[-154.557,-64.455],[-154.556,-63.961],[-154.555,-63.467],[-154.554,-62.973],[-154.553,-62.48],[-154.552,-61.986],[-154.55,-61.492],[-154.549,-60.998],[-154.549,-60.504],[-154.548,-60.011],[-154.547,-59.517],[-154.546,-59.023],[-154.545,-58.529],[-154.544,-58.036],[-154.543,-57.542],[-154.542,-57.048],[-154.542,-56.554],[-154.541,-56.06],[-154.54,-55.567]]}},{"type":"Feature","properties":{"boundary_type":"subduction","feature_type":"gpml:SubductionZone","polarity":"Right","overriding_plate_id":101,"subducting_plate_id":911001,"plate_ids":[101,911001],"name":""},"geometry":{"type":"LineString","coordinates":[[-154.54,-55.567],[-154.54,-55.562]]}},{"type":"Feature","properties":{"boundary_type":"subduction","feature_type":"gpml:SubductionZone","polarity":"Left","overriding_plate_id":201,"subducting_plate_id":90106,"plate_ids":[201,90106],"name":""},"geometry":{"type":"LineString","coordinates":[[-176.364,27.821],[-176.897,27.986],[-177.431,28.149],[-177.967,28.31],[-178.504,28.468],[-179.044,28.625],[-179.584,28.779],[179.874,28.932],[179.33,29.082],[178.784,29.23],[178.237,29.375],[177.689,29.519],[177.139,29.66],[176.587,29.799],[176.034,29.935],[175.479,30.07],[174.923,30.202],[174.365,30.331],[173.806,30.459],[173.246,30.583],[172.684,30.706],[172.12,30.826],[171.556,30.943],[170.989,31.059],[170.422,31.171],[169.853,31.281],[169.283,31.389],[168.711,31.494],[168.139,31.597],[167.553,31.611],[166.967,31.622],[166.381,31.631],[165.795,31.637],[165.208,31.641],[164.622,31.641],[164.036,31.639],[163.45,31.635],[162.863,31.627],[162.277,31.617],[161.691,31.605],[161.106,31.589],[160.52,31.571],[159.935,31.551],[159.35,31.528],[158.765,31.502],[158.181,31.473],[157.597,31.442],[157.013,31.408],[156.43,31.371],[155.847,31.332],[155.265,31.29],[154.684,31.246],[154.103,31.198],[153.522,31.149],[152.942,31.096],[152.363,31.042],[151.785,30.984],[151.207,30.924],[150.63,30.861],[150.053,30.796],[149.478,30.729],[148.903,30.658],[148.35,30.558],[147.797,30.456],[147.246,30.351],[146.696,30.244],[146.147,30.134],[145.599,30.023],[145.053,29.909],[144.507,29.793],[143.963,29.674],[143.421,29.553],[142.88,29.431],[142.34,29.306],[141.801,29.178],[141.264,29.049],[140.728,28.918],[140.193,28.784],[139.66,28.648],[139.128,28.511],[138.598,28.371],[138.069,28.229],[137.541,28.085],[137.015,27.939],[136.49,27.791],[135.967,27.641],[135.445,27.489],[134.924,27.336],[134.405,27.18],[133.888,27.022],[133.372,26.863],[132.951,26.557],[132.533,26.251],[132.117,25.943],[131.704,25.634],[131.292,25.323],[130.883,25.012],[130.475,24.699],[130.07,24.386],[129.666,24.071]]}},{"type":"Feature","properties":{"boundary_type":"subduction","feature_type":"gpml:SubductionZone","polarity":"Left","overriding_plate_id":201,"subducting_plate_id":90105,"plate_ids":[201,90105],"name":""},"geometry":{"type":"LineString","coordinates":[[129.666,24.071],[129.257,23.749],[128.849,23.426],[128.444,23.101],[128.04,22.776],[127.639,22.45],[127.239,22.122],[126.841,21.794],[126.445,21.465],[126.05,21.135],[125.658,20.803],[125.267,20.471],[124.878,20.139],[124.49,19.805],[124.105,19.47],[123.72,19.135],[123.338,18.799],[122.956,18.462],[122.577,18.124],[122.199,17.786],[121.822,17.447],[121.446,17.107],[121.262,16.65],[121.079,16.193],[120.896,15.736],[120.715,15.279],[120.534,14.822],[120.354,14.365],[120.174,13.907],[119.996,13.45],[119.818,12.992],[119.641,12.534],[119.464,12.076],[119.288,11.618],[119.112,11.16],[118.937,10.701],[118.763,10.243],[118.589,9.784],[118.416,9.326],[118.243,8.867],[118.07,8.408],[117.898,7.95],[117.726,7.491],[117.555,7.032],[117.384,6.573],[117.213,6.114],[117.043,5.654],[116.872,5.195],[116.703,4.736],[116.533,4.277],[116.363,3.817],[116.194,3.358],[116.087,2.907],[115.98,2.456],[115.873,2.006],[115.766,1.555]]}},{"type":"Feature","properties":{"boundary_type":"subduction","feature_type":"gpml:SubductionZone","polarity":"Right","overriding_plate_id":101,"subducting_plate_id":90107,"plate_ids":[101,90107],"name":"Cathaysia_SZ"},"geometry":{"type":"LineString","coordinates":[[-86.532,7.529],[-86.268,7.137],[-86.004,6.745],[-85.74,6.353],[-85.477,5.961],[-85.215,5.569],[-84.952,5.177],[-84.69,4.784],[-84.428,4.392],[-84.167,3.999],[-83.906,3.606],[-83.645,3.214],[-83.384,2.821],[-83.123,2.428],[-82.863,2.035],[-82.602,1.642],[-82.208,1.336],[-81.813,1.029],[-81.418,0.723],[-81.024,0.417],[-80.629,0.11],[-80.235,-0.196],[-79.84,-0.502],[-79.446,-0.809],[-79.051,-1.115],[-78.657,-1.421],[-78.262,-1.727],[-77.867,-2.033],[-77.472,-2.339],[-77.077,-2.645],[-76.681,-2.951],[-76.278,-3.244],[-75.875,-3.537],[-75.472,-3.829],[-75.068,-4.122],[-74.664,-4.414],[-74.259,-4.706],[-73.855,-4.998],[-73.45,-5.29],[-73.044,-5.581],[-72.639,-5.872],[-72.232,-6.163],[-71.826,-6.453],[-71.418,-6.743],[-71.011,-7.033],[-70.603,-7.322],[-70.167,-7.553]]}},{"type":"Feature","properties":{"boundary_type":"subduction","feature_type":"gpml:SubductionZone","polarity":"Right","overriding_plate_id":101,"subducting_plate_id":90106,"plate_ids":[101,90106],"name":""},"geometry":{"type":"LineString","coordinates":[[-172.46,56.534],[-172.237,56.991],[-172.009,57.448],[-171.776,57.904],[-171.536,58.36],[-171.29,58.815],[-171.037,59.27],[-170.778,59.725],[-170.511,60.178],[-170.237,60.632],[-169.955,61.084],[-169.949,61.095]]}},{"type":"Feature","properties":{"boundary_type":"subduction","feature_type":"gpml:SubductionZone","polarity":"Right","overriding_plate_id":801,"subducting_plate_id":90106,"plate_ids":[801,90106],"name":""},"geometry":{"type":"LineString","coordinates":[[-169.949,61.095],[-169.691,61.542],[-169.425,61.988],[-169.151,62.433],[-168.869,62.878],[-168.578,63.323],[-168.278,63.767],[-167.969,64.21],[-167.649,64.652],[-167.319,65.094],[-166.978,65.535],[-166.625,65.976],[-166.26,66.415],[-165.881,66.853]]}},{"type":"Feature","properties":{"boundary_type":"ridge","feature_type":"gpml:MidOceanRidge","polarity":null,"overriding_plate_id":null,"subducting_plate_id":null,"plate_ids":[201,911001],"name":""},"geometry":{"type":"LineString","coordinates":[[-156.58,-14.136],[-156.956,-14.467],[-157.332,-14.797],[-157.71,-15.127],[-158.089,-15.457],[-158.47,-15.785],[-158.851,-16.113],[-159.234,-16.441],[-159.618,-16.767],[-160.003,-17.093],[-160.39,-17.419],[-160.778,-17.743],[-161.167,-18.067],[-161.558,-18.39],[-161.951,-18.712],[-162.345,-19.033],[-162.74,-19.353],[-163.137,-19.673],[-163.536,-19.992],[-163.185,-20.319],[-162.833,-20.646],[-162.479,-20.972],[-162.123,-21.298],[-161.766,-21.622],[-161.408,-21.946],[-161.048,-22.269],[-160.686,-22.592],[-160.322,-22.913],[-159.957,-23.234],[-159.59,-23.554],[-159.221,-23.873],[-159.587,-24.244],[-159.954,-24.614],[-160.324,-24.983],[-160.696,-25.351],[-161.07,-25.719],[-161.446,-26.085],[-161.825,-26.451],[-162.206,-26.815],[-162.59,-27.179],[-162.976,-27.541],[-163.365,-27.902],[-163.756,-28.263],[-164.15,-28.622],[-164.547,-28.98],[-164.947,-29.336],[-165.349,-29.692],[-165.754,-30.046],[-166.162,-30.399],[-166.573,-30.751],[-166.987,-31.102],[-167.404,-31.451],[-167.824,-31.799],[-168.247,-32.145],[-168.674,-32.49],[-169.104,-32.834],[-169.537,-33.176],[-169.974,-33.516],[-170.414,-33.855],[-170.857,-34.193],[-171.304,-34.529],[-171.623,-34.221],[-171.94,-33.912],[-172.255,-33.602],[-172.568,-33.292],[-172.878,-32.98],[-173.337,-33.293],[-173.8,-33.603],[-174.266,-33.912],[-174.735,-34.22],[-175.208,-34.525],[-175.684,-34.828],[-176.164,-35.13],[-176.647,-35.43],[-177.134,-35.728],[-177.624,-36.024],[-178.118,-36.318],[-178.616,-36.609],[-179.118,-36.899],[-179.623,-37.187],[179.867,-37.472],[179.354,-37.755],[178.837,-38.036],[178.316,-38.315],[177.791,-38.591],[177.262,-38.865],[176.728,-39.137],[176.191,-39.406],[175.65,-39.673],[175.104,-39.937],[174.554,-40.198],[174.0,-40.457],[173.442,-40.714],[172.879,-40.967],[172.312,-41.218],[172.007,-40.8],[171.707,-40.382],[171.41,-39.962],[171.116,-39.542],[170.827,-39.121],[170.54,-38.7],[170.257,-38.278],[169.978,-37.855],[169.701,-37.431],[169.428,-37.007],[169.157,-36.582],[168.89,-36.157],[168.626,-35.731],[168.084,-35.957],[167.539,-36.181],[166.991,-36.403],[166.44,-36.622],[165.885,-36.838],[165.328,-37.052],[164.767,-37.263],[164.204,-37.472],[163.637,-37.677],[163.067,-37.881],[162.494,-38.081],[161.918,-38.278],[161.338,-38.473],[160.756,-38.665],[160.17,-38.854],[159.582,-39.04],[158.99,-39.223],[158.395,-39.403],[157.797,-39.58],[157.196,-39.754],[156.592,-39.925],[155.986,-40.092],[155.376,-40.257],[154.763,-40.418],[154.147,-40.576],[153.529,-40.731],[152.907,-40.882],[152.283,-41.03],[151.656,-41.175],[151.026,-41.316],[150.394,-41.454],[149.758,-41.588],[149.121,-41.719],[148.48,-41.846],[147.837,-41.97],[147.192,-42.09],[146.544,-42.206],[145.894,-42.319]]}},{"type":"Feature","properties":{"boundary_type":"subduction","feature_type":"gpml:SubductionZone","polarity":"Right","overriding_plate_id":911001,"subducting_plate_id":90105,"plate_ids":[90105,911001],"name":""},"geometry":{"type":"LineString","coordinates":[[-154.54,-55.567],[-155.407,-55.62],[-156.277,-55.667],[-157.148,-55.709],[-158.021,-55.744],[-158.895,-55.773],[-159.771,-55.795],[-160.647,-55.812],[-161.524,-55.822],[-162.401,-55.826],[-163.279,-55.824],[-164.156,-55.815],[-165.033,-55.8],[-165.908,-55.779],[-166.783,-55.752],[-167.656,-55.719],[-168.528,-55.679],[-169.398,-55.633],[-170.266,-55.581],[-171.131,-55.523],[-171.993,-55.459],[-172.853,-55.389],[-173.71,-55.313],[-174.563,-55.231],[-175.412,-55.143],[-176.258,-55.049],[-177.099,-54.949],[-177.936,-54.844],[-178.769,-54.732],[-179.597,-54.615],[179.58,-54.493],[178.762,-54.365],[177.949,-54.231],[177.141,-54.092],[176.339,-53.948],[175.543,-53.798],[174.752,-53.643],[173.969,-53.481],[173.192,-53.313],[172.422,-53.141],[171.657,-52.963],[170.899,-52.781],[170.147,-52.594],[169.402,-52.402],[168.663,-52.206],[167.931,-52.005],[167.206,-51.799],[166.487,-51.59],[165.775,-51.375],[165.069,-51.157],[164.37,-50.934],[163.678,-50.707],[162.993,-50.476],[162.314,-50.241],[161.643,-50.003],[160.977,-49.76],[160.319,-49.513],[159.667,-49.263],[159.022,-49.01],[158.383,-48.752],[157.751,-48.491],[157.125,-48.227],[156.506,-47.96],[155.894,-47.689],[155.287,-47.415],[154.687,-47.137],[154.093,-46.857],[153.506,-46.573],[152.924,-46.287],[152.349,-45.998],[151.78,-45.706],[151.216,-45.411],[150.659,-45.113],[150.107,-44.813],[149.561,-44.509],[149.021,-44.204],[148.486,-43.896],[147.957,-43.585],[147.433,-43.272],[146.915,-42.957],[146.402,-42.639],[145.894,-42.319]]}},{"type":"Feature","properties":{"boundary_type":"subduction","feature_type":"gpml:SubductionZone","polarity":"Right","overriding_plate_id":201,"subducting_plate_id":90105,"plate_ids":[201,90105],"name":""},"geometry":{"type":"LineString","coordinates":[[145.894,-42.319],[145.384,-41.992],[144.88,-41.663],[144.38,-41.332],[143.885,-40.998],[143.396,-40.663],[142.911,-40.325],[142.432,-39.986],[141.957,-39.644],[141.486,-39.301],[141.021,-38.955],[140.559,-38.608],[140.103,-38.259],[139.65,-37.908],[139.202,-37.556],[138.758,-37.202],[138.319,-36.846],[137.883,-36.489],[137.452,-36.13],[137.024,-35.769],[136.6,-35.407],[136.18,-35.044],[135.764,-34.679],[135.351,-34.313],[134.942,-33.945],[134.537,-33.576],[134.135,-33.206],[133.736,-32.834],[133.341,-32.461],[132.949,-32.087],[132.56,-31.712],[132.174,-31.336],[131.792,-30.958],[131.412,-30.579],[131.035,-30.199],[130.662,-29.819],[130.291,-29.437],[129.923,-29.054],[129.557,-28.67],[129.194,-28.285],[128.834,-27.899],[128.477,-27.512],[128.122,-27.125],[127.769,-26.736],[127.419,-26.347],[127.071,-25.956],[126.726,-25.565],[126.382,-25.173],[126.041,-24.781],[125.702,-24.387],[125.366,-23.993],[125.031,-23.598],[124.698,-23.203],[124.367,-22.806],[124.039,-22.409],[123.712,-22.011],[123.386,-21.613],[123.063,-21.214],[122.741,-20.815],[122.422,-20.414],[122.103,-20.014],[121.787,-19.612],[121.472,-19.211],[121.158,-18.808],[120.846,-18.405],[120.535,-18.002],[120.226,-17.598],[119.919,-17.193],[119.612,-16.789],[119.307,-16.383],[119.003,-15.978],[118.701,-15.571],[118.399,-15.165]]}},{"type":"Feature","properties":{"boundary_type":"subduction","feature_type":"gpml:SubductionZone","polarity":"Left","overriding_plate_id":101,"subducting_plate_id":201,"plate_ids":[101,201],"name":"Baltica_SZ"},"geometry":{"type":"LineString","coordinates":[[-165.422,4.619],[-165.146,4.228],[-164.871,3.837],[-164.596,3.446],[-164.321,3.056],[-164.047,2.665],[-163.772,2.274],[-163.498,1.883],[-163.224,1.491],[-162.95,1.1],[-162.676,0.709],[-162.402,0.318],[-162.128,-0.073],[-161.854,-0.464],[-161.58,-0.856],[-161.306,-1.247],[-161.032,-1.638],[-160.757,-2.015],[-160.481,-2.393],[-160.205,-2.77],[-159.929,-3.148],[-159.653,-3.525],[-159.377,-3.903],[-159.1,-4.28],[-158.823,-4.657],[-158.546,-5.034],[-158.268,-5.411],[-158.098,-5.844],[-157.927,-6.277],[-157.756,-6.71],[-157.585,-7.143],[-157.413,-7.576],[-157.241,-8.009],[-157.069,-8.441],[-156.896,-8.874],[-156.723,-9.307],[-156.709,-9.79],[-156.695,-10.272],[-156.681,-10.755],[-156.666,-11.238],[-156.652,-11.721],[-156.638,-12.204],[-156.623,-12.687],[-156.609,-13.17],[-156.595,-13.653],[-156.58,-14.136]]}},{"type":"Feature","properties":{"boundary_type":"subduction","feature_type":"gpml:SubductionZone","polarity":"Left","overriding_plate_id":101,"subducting_plate_id":911001,"plate_ids":[101,911001],"name":"Baltica_SZ"},"geometry":{"type":"LineString","coordinates":[[-156.58,-14.136],[-156.57,-14.473],[-156.56,-14.81],[-156.481,-15.267],[-156.401,-15.723],[-156.322,-16.18],[-156.242,-16.636],[-156.161,-17.092],[-156.081,-17.549],[-156.0,-18.005],[-155.918,-18.461],[-155.836,-18.917],[-155.753,-19.374],[-155.671,-19.83],[-155.587,-20.286],[-155.428,-20.717],[-155.268,-21.148],[-155.107,-21.578],[-154.945,-22.009],[-154.782,-22.439],[-154.618,-22.869],[-154.452,-23.299],[-154.286,-23.729],[-154.119,-24.159],[-153.951,-24.588],[-153.685,-24.964],[-153.417,-25.339],[-153.148,-25.714],[-152.877,-26.088],[-152.604,-26.462],[-152.33,-26.835]]}},{"type":"Feature","properties":{"boundary_type":"subduction","feature_type":"gpml:SubductionZone","polarity":"Left","overriding_plate_id":101,"subducting_plate_id":201,"plate_ids":[101,201],"name":"Eastern_Laurentia_SZ"},"geometry":{"type":"LineString","coordinates":[[-170.467,21.921],[-170.154,21.533],[-169.843,21.145],[-169.534,20.756],[-169.226,20.367],[-168.919,19.977],[-168.614,19.587],[-168.311,19.196],[-168.009,18.805],[-167.708,18.413],[-167.409,18.02],[-167.271,17.566],[-167.134,17.112],[-166.997,16.658],[-166.861,16.204],[-166.726,15.749],[-166.592,15.295],[-166.458,14.84],[-166.324,14.386],[-166.191,13.931],[-166.059,13.476],[-165.927,13.021],[-165.795,12.566],[-165.665,12.111],[-165.662,11.644],[-165.659,11.176],[-165.656,10.709],[-165.654,10.242],[-165.651,9.774],[-165.648,9.307],[-165.645,8.839],[-165.643,8.372],[-165.64,7.905],[-165.637,7.437],[-165.635,6.97],[-165.632,6.502],[-165.579,6.031],[-165.527,5.56],[-165.474,5.09],[-165.422,4.619]]}},{"type":"Feature","properties":{"boundary_type":"subduction","feature_type":"gpml:SubductionZone","polarity":"Right","overriding_plate_id":80101,"subducting_plate_id":90106,"plate_ids":[80101,90106],"name":""},"geometry":{"type":"LineString","coordinates":[[-86.374,64.426],[-85.911,64.335],[-84.967,64.131],[-84.037,63.922],[-83.122,63.707],[-82.22,63.485],[-81.332,63.259],[-80.459,63.027],[-79.599,62.789],[-78.753,62.547],[-77.98,62.215],[-77.224,61.878],[-76.485,61.538],[-75.762,61.194],[-75.054,60.846],[-74.362,60.494],[-73.685,60.139],[-73.022,59.78],[-72.374,59.419],[-72.129,58.986],[-71.891,58.552],[-71.658,58.119],[-71.431,57.684],[-71.209,57.25],[-70.992,56.815],[-70.781,56.379],[-70.574,55.944],[-70.371,55.507],[-70.174,55.071],[-70.096,54.582],[-70.021,54.094],[-69.947,53.605],[-69.875,53.116],[-69.805,52.627],[-69.736,52.138],[-69.668,51.65],[-69.602,51.161],[-69.538,50.672],[-69.475,50.183],[-69.571,49.691],[-69.665,49.2],[-69.757,48.708],[-69.848,48.217],[-69.936,47.725],[-70.023,47.233],[-70.109,46.742],[-70.193,46.25],[-70.455,45.802],[-70.712,45.354],[-70.966,44.906],[-71.215,44.456],[-71.461,44.007],[-71.703,43.556],[-71.942,43.106],[-72.177,42.655],[-72.409,42.203],[-72.682,41.864],[-72.952,41.525],[-73.22,41.186]]}},{"type":"Feature","properties":{"boundary_type":"transform","feature_type":"gpml:Transform","polarity":null,"overriding_plate_id":null,"subducting_plate_id":null,"plate_ids":[80101,90106],"name":""},"geometry":{"type":"LineString","coordinates":[[-103.771,57.825],[-103.13,58.168],[-102.476,58.508],[-101.81,58.845],[-101.131,59.178],[-100.439,59.508],[-99.733,59.833],[-99.013,60.155],[-98.279,60.473],[-97.53,60.787],[-96.767,61.096],[-95.989,61.402],[-95.196,61.702],[-94.387,61.998],[-93.562,62.289],[-92.722,62.576],[-91.865,62.857],[-90.992,63.132],[-90.102,63.403],[-89.195,63.667],[-88.272,63.926],[-87.332,64.179],[-86.374,64.426]]}},{"type":"Feature","properties":{"boundary_type":"transform","feature_type":"gpml:Transform","polarity":null,"overriding_plate_id":null,"subducting_plate_id":null,"plate_ids":[80101,90106],"name":""},"geometry":{"type":"LineString","coordinates":[[-91.773,32.087],[-91.302,32.384],[-90.827,32.679],[-90.35,32.972],[-89.869,33.263],[-89.385,33.552],[-88.898,33.84],[-88.407,34.125],[-87.913,34.409],[-87.416,34.69],[-86.915,34.97],[-86.411,35.247],[-85.904,35.522],[-85.393,35.795],[-84.879,36.066],[-84.361,36.335],[-83.839,36.602],[-83.314,36.866],[-82.785,37.128],[-82.253,37.387],[-81.717,37.644],[-81.177,37.899],[-80.633,38.151],[-80.086,38.401],[-79.535,38.648],[-78.98,38.893],[-78.421,39.135],[-77.859,39.374],[-77.293,39.61],[-76.722,39.844],[-76.148,40.075],[-75.57,40.303],[-74.989,40.528],[-74.403,40.75],[-73.813,40.97],[-73.22,41.186]]}},{"type":"Feature","properties":{"boundary_type":"subduction","feature_type":"gpml:SubductionZone","polarity":"Left","overriding_plate_id":201,"subducting_plate_id":90105,"plate_ids":[201,90105],"name":""},"geometry":{"type":"LineString","coordinates":[[115.766,1.555],[115.826,1.059],[115.887,0.563],[115.948,0.068],[116.009,-0.428],[116.069,-0.923],[116.13,-1.419],[116.191,-1.915],[116.252,-2.41],[116.313,-2.906],[116.374,-3.401],[116.435,-3.897],[116.496,-4.393],[116.557,-4.888],[116.618,-5.384],[116.68,-5.879],[116.741,-6.375],[116.803,-6.87],[116.864,-7.366],[116.926,-7.862],[116.988,-8.357],[117.087,-8.844],[117.186,-9.33],[117.285,-9.816],[117.385,-10.303],[117.484,-10.789],[117.584,-11.276],[117.685,-11.762],[117.786,-12.248],[117.887,-12.734],[117.989,-13.22],[118.091,-13.707],[118.193,-14.193],[118.296,-14.679],[118.399,-15.165]]}},{"type":"Feature","properties":{"boundary_type":"ridge","feature_type":"gpml:MidOceanRidge","polarity":null,"overriding_plate_id":null,"subducting_plate_id":null,"plate_ids":[90105,90107],"name":""},"geometry":{"type":"LineString","coordinates":[[34.87,19.909],[34.643,19.462],[34.417,19.015],[34.192,18.568],[33.968,18.12],[33.746,17.672],[33.524,17.224],[33.304,16.776],[33.084,16.327],[32.866,15.878],[32.648,15.429],[32.432,14.98],[32.216,14.531],[32.002,14.081],[31.788,13.631],[31.575,13.181],[31.362,12.731],[31.151,12.28],[30.94,11.83],[30.73,11.379],[30.521,10.928],[30.312,10.478],[30.104,10.026],[29.896,9.575],[29.689,9.124],[29.482,8.672],[29.276,8.221],[29.071,7.769],[28.866,7.317],[28.661,6.865],[28.457,6.414],[28.253,5.961],[28.049,5.509],[27.846,5.057],[27.643,4.605],[27.44,4.153],[27.237,3.7],[27.035,3.248],[26.833,2.795],[26.631,2.343],[26.429,1.89],[26.227,1.438],[26.026,0.985],[25.824,0.533],[25.622,0.08],[25.421,-0.372],[25.219,-0.825],[25.017,-1.277],[24.816,-1.73],[24.614,-2.182],[24.412,-2.635],[24.21,-3.087],[24.008,-3.54],[23.805,-3.992],[23.602,-4.445],[23.399,-4.897],[23.196,-5.349],[22.993,-5.801],[22.789,-6.253],[22.585,-6.705],[22.38,-7.157],[22.175,-7.609],[21.97,-8.061],[21.764,-8.512],[21.557,-8.964],[21.351,-9.415],[21.143,-9.866],[20.935,-10.318],[20.727,-10.769],[20.517,-11.219],[20.308,-11.67],[20.097,-12.121],[20.555,-12.317],[21.014,-12.512],[21.474,-12.706],[21.934,-12.9],[22.395,-13.093],[22.857,-13.285],[23.319,-13.476],[23.782,-13.667],[24.246,-13.856],[24.711,-14.045],[25.177,-14.232],[25.643,-14.419],[26.11,-14.605],[26.578,-14.79],[27.046,-14.974],[27.516,-15.157],[27.986,-15.339],[28.457,-15.52],[28.929,-15.701],[29.401,-15.88],[29.875,-16.058],[30.349,-16.235],[30.825,-16.411],[31.301,-16.586],[31.778,-16.759],[32.255,-16.932],[32.734,-17.104],[33.214,-17.274],[33.09,-17.756],[32.966,-18.238],[32.841,-18.719],[32.715,-19.2],[32.589,-19.682],[32.462,-20.163],[32.334,-20.644],[32.205,-21.125],[32.075,-21.606],[31.945,-22.087],[31.813,-22.568],[31.681,-23.048],[31.548,-23.529],[31.414,-24.009],[31.279,-24.49],[31.142,-24.97],[31.005,-25.45],[30.867,-25.93],[30.727,-26.409],[30.586,-26.889],[30.444,-27.369],[30.301,-27.848],[30.157,-28.327],[30.011,-28.806],[29.864,-29.285],[29.716,-29.764],[29.566,-30.242],[29.414,-30.721],[29.262,-31.199],[29.107,-31.677],[28.951,-32.155],[28.794,-32.633],[28.634,-33.11],[28.473,-33.587],[28.31,-34.064],[28.145,-34.541],[27.979,-35.018],[27.81,-35.494],[27.64,-35.97],[27.467,-36.446],[27.292,-36.922],[27.115,-37.397],[26.936,-37.872],[26.755,-38.347],[26.571,-38.822],[26.384,-39.296],[26.195,-39.77],[26.004,-40.244],[25.809,-40.717],[25.612,-41.19],[25.412,-41.663],[25.21,-42.135],[25.004,-42.607],[24.794,-43.078],[24.582,-43.55],[24.367,-44.02],[24.147,-44.491],[23.925,-44.961],[23.698,-45.43],[23.468,-45.899],[23.234,-46.368],[22.996,-46.836],[22.754,-47.304],[22.507,-47.771],[22.256,-48.237],[22.0,-48.703],[21.74,-49.168],[21.474,-49.633],[21.204,-50.097],[20.928,-50.561],[20.647,-51.024],[20.36,-51.486],[20.067,-51.948],[19.768,-52.408],[19.463,-52.868],[19.151,-53.327],[18.833,-53.786],[18.507,-54.243],[18.174,-54.7],[17.834,-55.155],[17.485,-55.61],[17.129,-56.064],[16.764,-56.516],[16.39,-56.968],[16.007,-57.418],[15.615,-57.868],[15.213,-58.315],[14.8,-58.762],[14.377,-59.207],[13.942,-59.651],[13.496,-60.094],[13.038,-60.535],[12.567,-60.974],[12.083,-61.411],[11.585,-61.847],[10.845,-61.531],[10.12,-61.211],[9.409,-60.887],[8.713,-60.56],[8.031,-60.228],[7.363,-59.894],[6.708,-59.556],[6.067,-59.215],[5.438,-58.871],[4.821,-58.524],[4.217,-58.174],[3.624,-57.821],[3.043,-57.465],[2.473,-57.107],[1.914,-56.747],[1.305,-57.105],[0.683,-57.46],[0.05,-57.811],[-0.596,-58.16],[-1.255,-58.505],[-1.926,-58.847],[-2.611,-59.186],[-3.31,-59.52],[-4.022,-59.851],[-4.749,-60.178],[-5.49,-60.501],[-6.246,-60.819],[-7.018,-61.134],[-7.804,-61.444],[-8.606,-61.749],[-9.425,-62.049],[-10.259,-62.345],[-11.11,-62.635],[-11.977,-62.92],[-12.862,-63.2],[-13.763,-63.474],[-14.682,-63.743],[-15.618,-64.005],[-16.572,-64.261],[-17.543,-64.511],[-18.532,-64.755],[-19.539,-64.991],[-20.564,-65.221],[-21.606,-65.444],[-22.665,-65.659],[-23.743,-65.867],[-24.837,-66.068],[-25.949,-66.26],[-27.077,-66.444],[-28.222,-66.621],[-29.382,-66.788],[-30.559,-66.947],[-31.75,-67.097],[-32.955,-67.239],[-34.175,-67.371],[-35.407,-67.493],[-36.652,-67.607]]}},{"type":"Feature","properties":{"boundary_type":"ridge","feature_type":"gpml:MidOceanRidge","polarity":null,"overriding_plate_id":null,"subducting_plate_id":null,"plate_ids":[90105,90107],"name":""},"geometry":{"type":"LineString","coordinates":[[34.87,19.909],[34.602,20.148]]}},{"type":"Feature","properties":{"boundary_type":"ridge","feature_type":"gpml:MidOceanRidge","polarity":null,"overriding_plate_id":null,"subducting_plate_id":null,"plate_ids":[90106,90107],"name":""},"geometry":{"type":"LineString","coordinates":[[34.602,20.148],[34.216,20.489],[33.828,20.83],[33.439,21.17],[33.048,21.509],[32.655,21.847],[32.26,22.184],[31.863,22.521],[31.464,22.856],[31.063,23.19],[30.661,23.523],[30.256,23.855],[29.849,24.187],[29.44,24.517],[29.029,24.846],[28.615,25.173],[28.2,25.5],[27.782,25.825],[27.362,26.15],[26.94,26.473],[26.515,26.795],[26.088,27.115],[25.658,27.434],[25.226,27.752],[24.791,28.069],[24.354,28.384],[23.914,28.698],[23.471,29.01],[23.026,29.321],[22.578,29.63],[22.128,29.938],[21.674,30.244],[21.218,30.549],[20.759,30.852],[20.297,31.154],[19.832,31.454],[19.364,31.752],[18.893,32.048],[18.419,32.343],[17.942,32.636],[17.462,32.927],[16.978,33.216],[16.492,33.504],[16.002,33.789],[15.509,34.073],[15.012,34.354],[14.513,34.634],[14.01,34.911],[13.503,35.187],[12.993,35.46],[12.48,35.731],[11.963,36.0],[11.443,36.266],[10.919,36.531],[10.391,36.793],[9.86,37.053],[9.325,37.31],[8.787,37.565],[8.245,37.817],[7.699,38.067],[7.15,38.315],[6.596,38.56],[6.039,38.802],[5.479,39.041],[4.914,39.278],[4.346,39.512],[3.773,39.744],[3.197,39.972],[2.617,40.198],[2.034,40.421],[1.446,40.64],[0.855,40.857],[0.259,41.071],[-0.34,41.282],[-0.943,41.489],[-1.55,41.693],[-2.16,41.895],[-2.775,42.092],[-3.393,42.287],[-4.015,42.478],[-4.641,42.666],[-5.271,42.851],[-5.904,43.031],[-6.541,43.209],[-7.182,43.383],[-7.827,43.553],[-8.475,43.72],[-9.126,43.883],[-9.782,44.042],[-10.44,44.197],[-11.102,44.349],[-11.768,44.497],[-12.437,44.641],[-13.109,44.781],[-13.784,44.917],[-14.463,45.049],[-15.144,45.177],[-15.829,45.301],[-16.516,45.421],[-17.207,45.537],[-17.9,45.648],[-18.596,45.755],[-18.834,45.29],[-19.068,44.824],[-19.298,44.358],[-19.525,43.891],[-19.748,43.424],[-19.968,42.956],[-20.185,42.488],[-20.398,42.019],[-20.608,41.551],[-20.815,41.081],[-21.019,40.612],[-21.22,40.142],[-21.419,39.671],[-21.615,39.201],[-21.808,38.73],[-21.999,38.259],[-22.187,37.787],[-22.373,37.315],[-22.556,36.843],[-22.738,36.37],[-22.917,35.898],[-23.515,35.998],[-24.115,36.096],[-24.716,36.191],[-25.318,36.283],[-25.922,36.372],[-26.527,36.458],[-27.134,36.54],[-27.742,36.62],[-28.351,36.696],[-28.961,36.77],[-29.573,36.84],[-30.185,36.907],[-30.799,36.971],[-31.414,37.032],[-32.029,37.09],[-32.646,37.144],[-33.263,37.196],[-33.881,37.244],[-34.5,37.289],[-35.12,37.33],[-35.74,37.369],[-36.361,37.404],[-36.982,37.436],[-37.604,37.464],[-38.227,37.49],[-38.85,37.512],[-39.473,37.531],[-40.096,37.546],[-40.72,37.559],[-41.344,37.568],[-41.968,37.573],[-42.592,37.576],[-43.216,37.575],[-43.84,37.571],[-44.464,37.564],[-45.087,37.553],[-45.711,37.539],[-46.334,37.522],[-46.957,37.501],[-47.58,37.477],[-48.202,37.45],[-48.824,37.42],[-49.445,37.387],[-49.44,36.901],[-49.435,36.415],[-49.43,35.93],[-49.425,35.444],[-49.421,34.958],[-49.416,34.473],[-49.411,33.987],[-49.407,33.501],[-49.402,33.016],[-49.398,32.53],[-49.393,32.044],[-49.389,31.559],[-49.973,31.557],[-50.557,31.553],[-51.141,31.546],[-51.724,31.537],[-52.308,31.525],[-52.891,31.51],[-53.475,31.493],[-54.058,31.473],[-54.641,31.45],[-55.223,31.425],[-55.805,31.397],[-56.387,31.366],[-56.968,31.333],[-57.549,31.297],[-58.13,31.259],[-58.71,31.218],[-59.289,31.174],[-59.868,31.128],[-60.447,31.079],[-61.024,31.028],[-61.601,30.974],[-62.178,30.917],[-62.754,30.858],[-63.329,30.797],[-63.903,30.732],[-64.476,30.666],[-65.049,30.597],[-65.621,30.525],[-66.192,30.451],[-66.762,30.374],[-67.331,30.295],[-67.9,30.213],[-68.467,30.129],[-69.033,30.043],[-69.599,29.954],[-70.163,29.863],[-70.726,29.769],[-71.288,29.673],[-71.85,29.574],[-72.41,29.474],[-72.969,29.37],[-73.526,29.265],[-74.083,29.157],[-74.638,29.047],[-75.192,28.935],[-75.745,28.82],[-76.297,28.703],[-76.848,28.584],[-77.397,28.463],[-77.945,28.339],[-78.492,28.214],[-79.037,28.086],[-79.581,27.956],[-80.124,27.823],[-80.666,27.689],[-81.206,27.553],[-81.744,27.414],[-82.282,27.274],[-82.818,27.131],[-83.353,26.987],[-83.886,26.84],[-84.418,26.691],[-84.948,26.541],[-85.477,26.388],[-86.005,26.234],[-86.531,26.077],[-87.056,25.919],[-87.58,25.759],[-88.102,25.597],[-88.622,25.433],[-89.141,25.267],[-89.659,25.1]]}},{"type":"Feature","properties":{"boundary_type":"ridge","feature_type":"gpml:MidOceanRidge","polarity":null,"overriding_plate_id":null,"subducting_plate_id":null,"plate_ids":[90105,90106],"name":""},"geometry":{"type":"LineString","coordinates":[[34.602,20.148],[35.132,20.167],[35.663,20.184],[36.193,20.2],[36.723,20.214],[37.254,20.226],[37.785,20.237],[38.315,20.246],[38.846,20.254],[39.377,20.26],[39.908,20.265],[40.439,20.268],[40.97,20.269],[41.501,20.269],[42.032,20.267],[42.563,20.264],[43.093,20.258],[43.624,20.252],[44.155,20.244],[44.686,20.234],[45.216,20.222],[45.747,20.209],[46.277,20.195],[46.808,20.178],[47.338,20.161],[47.868,20.141],[48.398,20.12],[48.928,20.098],[49.458,20.074],[49.987,20.048],[50.516,20.021],[51.046,19.992],[51.575,19.961],[52.103,19.929],[52.632,19.896],[53.16,19.861],[53.688,19.824],[54.216,19.786],[54.743,19.746],[55.271,19.705],[55.798,19.662],[56.324,19.617],[56.851,19.571],[57.377,19.524],[57.903,19.475],[58.428,19.424],[58.953,19.372],[59.478,19.319],[60.003,19.264],[60.527,19.207],[61.05,19.149],[61.574,19.09],[62.097,19.029],[62.619,18.967],[63.142,18.903],[63.663,18.837],[64.185,18.771],[64.706,18.702],[65.226,18.633],[65.746,18.562],[66.266,18.489],[66.785,18.415],[67.304,18.34],[67.822,18.263],[68.34,18.185],[68.858,18.105],[69.374,18.024],[69.891,17.942],[70.407,17.858],[70.922,17.773],[71.437,17.687],[71.952,17.599],[72.466,17.51],[72.979,17.42],[73.492,17.328],[74.005,17.235],[74.516,17.141],[75.028,17.046],[75.539,16.949],[76.049,16.851],[76.559,16.751],[77.068,16.651],[77.577,16.549],[77.603,17.026],[77.629,17.503],[77.655,17.98],[77.682,18.457],[77.708,18.935],[77.735,19.412],[77.762,19.889],[77.789,20.366],[77.816,20.843],[77.844,21.32],[77.871,21.797],[77.899,22.274],[77.927,22.751],[77.955,23.228],[78.489,23.259],[79.022,23.289],[79.556,23.316],[80.091,23.342],[80.625,23.366],[81.16,23.388],[81.694,23.408],[82.229,23.426],[82.764,23.443],[83.299,23.457],[83.835,23.47],[84.37,23.481],[84.905,23.49],[85.441,23.498],[85.977,23.503],[86.512,23.507],[87.048,23.509],[87.583,23.509],[88.119,23.507],[88.655,23.504],[89.19,23.498],[89.726,23.491],[90.261,23.482],[90.797,23.471],[91.332,23.458],[91.867,23.444],[92.402,23.427],[92.937,23.409],[93.472,23.389],[94.006,23.367],[94.541,23.344],[95.075,23.318],[95.609,23.291],[96.143,23.262],[96.676,23.231],[96.873,23.676],[97.071,24.12],[97.27,24.565],[97.471,25.009],[97.673,25.453],[97.877,25.896],[98.082,26.339],[98.289,26.782],[98.498,27.225],[98.708,27.667],[98.92,28.109],[99.133,28.551],[99.349,28.992],[99.566,29.433],[99.785,29.874],[100.006,30.314],[100.229,30.754],[100.804,30.691],[101.377,30.626],[101.95,30.558],[102.523,30.487],[103.094,30.414],[103.664,30.338],[104.234,30.26],[104.802,30.18],[105.37,30.097],[105.937,30.012],[106.503,29.924],[107.067,29.834],[107.631,29.741],[108.194,29.646],[108.755,29.549],[109.316,29.449],[109.875,29.347],[110.433,29.243],[110.99,29.136],[111.546,29.027],[112.101,28.916],[112.654,28.802],[113.207,28.686],[113.758,28.568],[114.308,28.448],[114.856,28.325],[115.404,28.201],[115.95,28.074],[116.494,27.945],[117.038,27.814],[117.58,27.681],[118.12,27.545],[118.66,27.408],[119.198,27.268],[119.735,27.127],[120.27,26.983],[120.804,26.838],[121.336,26.69],[121.868,26.54],[122.397,26.389],[122.926,26.235],[123.453,26.08],[123.978,25.923],[124.503,25.763],[125.025,25.602],[125.547,25.439],[126.067,25.274],[126.585,25.108],[127.102,24.939],[127.618,24.769],[128.132,24.597],[128.645,24.424],[129.156,24.248],[129.666,24.071]]}}]}