{"type":"FeatureCollection","meta":{"model":"Cao2024","reconstruction_time_ma":1735.0,"anchor_plate_id":0,"pygplates_version":"1.0.0","tessellate_degrees":0.5,"polarity_convention":"gpml:subductionPolarity. 'Left'/'Right' names the side of the line, in vertex order, on which the OVERRIDING plate lies. Triangles are drawn on that side.","antimeridian":"Lines are NOT split at +/-180 deg. The renderer works in 3D unit vectors where the dateline is not special; splitting would only add spurious breaks. Do not treat this as RFC 7946 GIS-ready 2D data."},"features":[{"type":"Feature","properties":{"boundary_type":"subduction","feature_type":"gpml:SubductionZone","polarity":"Left","overriding_plate_id":101,"subducting_plate_id":10103,"plate_ids":[101,10103],"name":"eastern Laurentia-greenland-western baltica"},"geometry":{"type":"LineString","coordinates":[[-126.916,66.936],[-128.122,66.918],[-129.325,66.892],[-130.526,66.856],[-131.723,66.811],[-132.915,66.758],[-134.101,66.695],[-135.281,66.623],[-136.453,66.543],[-137.618,66.454],[-138.774,66.356],[-139.897,66.19],[-141.004,66.015],[-142.097,65.833],[-143.174,65.643],[-144.234,65.446],[-145.279,65.241],[-146.307,65.029],[-147.319,64.81],[-148.314,64.585],[-149.293,64.352],[-150.255,64.114],[-151.2,63.869],[-152.129,63.618],[-153.042,63.361],[-153.938,63.099],[-154.818,62.831],[-155.682,62.557],[-156.53,62.278],[-157.362,61.995],[-158.179,61.706]]}},{"type":"Feature","properties":{"boundary_type":"subduction","feature_type":"gpml:SubductionZone","polarity":"Left","overriding_plate_id":101,"subducting_plate_id":90106,"plate_ids":[101,90106],"name":"eastern Laurentia-greenland-western baltica"},"geometry":{"type":"LineString","coordinates":[[-158.179,61.706],[-158.882,61.449],[-159.573,61.189],[-160.253,60.925],[-160.925,60.583],[-161.582,60.238],[-162.226,59.89],[-162.856,59.539],[-163.473,59.184],[-164.077,58.827],[-164.669,58.467],[-165.249,58.105],[-165.817,57.74],[-166.374,57.372],[-166.92,57.002],[-167.454,56.63],[-167.787,56.19],[-168.112,55.75],[-168.429,55.308],[-168.74,54.866],[-169.043,54.424],[-169.341,53.98],[-169.632,53.536],[-169.916,53.091],[-170.196,52.645],[-170.469,52.199],[-170.737,51.752],[-171.0,51.305],[-171.258,50.856],[-171.51,50.408],[-171.758,49.959],[-172.002,49.509],[-172.241,49.059],[-172.476,48.608],[-172.731,48.16],[-172.983,47.711]]}},{"type":"Feature","properties":{"boundary_type":"subduction","feature_type":"gpml:SubductionZone","polarity":"Left","overriding_plate_id":101,"subducting_plate_id":501001,"plate_ids":[101,501001],"name":"eastern Laurentia-greenland-western baltica"},"geometry":{"type":"LineString","coordinates":[[-172.983,47.711],[-173.234,47.252],[-173.482,46.793],[-173.725,46.334],[-173.964,45.874],[-174.2,45.413],[-174.431,44.952],[-174.659,44.491],[-174.883,44.029],[-175.104,43.567],[-175.321,43.104],[-175.536,42.641],[-175.747,42.177],[-175.954,41.713],[-176.159,41.249],[-176.361,40.784],[-176.561,40.319],[-176.757,39.854]]}},{"type":"Feature","properties":{"boundary_type":"subduction","feature_type":"gpml:SubductionZone","polarity":"Left","overriding_plate_id":101,"subducting_plate_id":501,"plate_ids":[101,501],"name":"Baltica_SZ"},"geometry":{"type":"LineString","coordinates":[[-165.392,-5.319],[-165.575,-5.783],[-165.758,-6.248],[-165.941,-6.713],[-166.125,-7.177],[-166.309,-7.642],[-166.494,-8.106],[-166.679,-8.57],[-166.865,-9.034],[-167.051,-9.498],[-167.237,-9.962],[-167.424,-10.426],[-167.612,-10.89],[-167.8,-11.354],[-167.989,-11.817],[-168.247,-12.229],[-168.506,-12.641],[-168.766,-13.052],[-169.026,-13.463],[-169.288,-13.874],[-169.55,-14.284],[-169.814,-14.695],[-170.078,-15.105],[-170.344,-15.514],[-170.611,-15.923],[-170.878,-16.332],[-171.147,-16.741],[-171.417,-17.149],[-171.688,-17.557],[-171.96,-17.965],[-172.234,-18.372],[-172.509,-18.779],[-172.785,-19.185],[-173.063,-19.591],[-173.342,-19.997],[-173.622,-20.402],[-173.904,-20.806],[-174.187,-21.211],[-174.472,-21.614],[-174.759,-22.018],[-175.047,-22.42],[-175.337,-22.822]]}},{"type":"Feature","properties":{"boundary_type":"subduction","feature_type":"gpml:SubductionZone","polarity":"Right","overriding_plate_id":801,"subducting_plate_id":701,"plate_ids":[701,801],"name":"NorthChina_SZ"},"geometry":{"type":"LineString","coordinates":[[-87.621,0.317],[-87.49,-0.106],[-87.359,-0.529],[-87.228,-0.952],[-87.097,-1.375],[-86.966,-1.798],[-86.967,-2.273],[-86.968,-2.748],[-86.969,-3.223],[-86.97,-3.698],[-86.971,-4.173],[-86.972,-4.648],[-86.972,-5.123],[-86.973,-5.598],[-87.172,-6.027],[-87.371,-6.456],[-87.57,-6.886],[-87.769,-7.315],[-87.969,-7.744],[-88.169,-8.173],[-88.37,-8.602],[-88.571,-9.03],[-88.773,-9.459],[-88.975,-9.888],[-89.391,-10.106],[-89.808,-10.324],[-90.225,-10.541],[-90.643,-10.758],[-91.062,-10.974],[-91.481,-11.19],[-91.901,-11.405],[-92.321,-11.619],[-92.742,-11.833],[-93.164,-12.046],[-93.586,-12.259],[-94.009,-12.471],[-94.433,-12.682],[-94.908,-12.777],[-95.382,-12.871],[-95.858,-12.964],[-96.333,-13.056],[-96.809,-13.147],[-97.285,-13.238],[-97.762,-13.327],[-98.239,-13.416],[-98.716,-13.504],[-99.194,-13.591],[-99.672,-13.677],[-100.15,-13.762],[-100.629,-13.846]]}},{"type":"Feature","properties":{"boundary_type":"subduction","feature_type":"gpml:SubductionZone","polarity":"Right","overriding_plate_id":801,"subducting_plate_id":811001,"plate_ids":[801,811001],"name":"SouthAustralia_SZ"},"geometry":{"type":"LineString","coordinates":[[-72.315,26.89],[-72.514,26.535],[-72.741,26.122],[-72.967,25.709],[-73.191,25.296],[-73.413,24.882],[-73.634,24.468],[-73.854,24.054],[-74.072,23.64],[-74.289,23.225],[-74.675,22.875],[-75.058,22.524],[-75.44,22.172],[-75.82,21.819],[-76.198,21.466],[-76.574,21.111],[-76.948,20.756],[-77.321,20.4],[-77.692,20.043],[-78.061,19.685],[-78.429,19.327],[-78.795,18.968],[-79.159,18.608],[-79.593,18.384],[-80.025,18.159],[-80.456,17.933]]}},{"type":"Feature","properties":{"boundary_type":"subduction","feature_type":"gpml:SubductionZone","polarity":"Left","overriding_plate_id":201,"subducting_plate_id":701,"plate_ids":[201,701],"name":"Amazonia_SZ"},"geometry":{"type":"LineString","coordinates":[[152.987,-53.847],[153.804,-53.836],[154.62,-53.82],[155.436,-53.799],[156.251,-53.772],[157.065,-53.739],[157.877,-53.701],[158.688,-53.657],[159.496,-53.608],[160.303,-53.553],[161.108,-53.493],[161.91,-53.428],[162.71,-53.357],[163.507,-53.281],[164.301,-53.2],[165.092,-53.113],[165.88,-53.022],[166.665,-52.925],[167.445,-52.822],[168.207,-52.63],[168.962,-52.434],[169.71,-52.232],[170.452,-52.026],[171.186,-51.815],[171.914,-51.599],[172.634,-51.38],[173.348,-51.155],[174.055,-50.927],[174.754,-50.694],[175.447,-50.457],[176.133,-50.216],[176.812,-49.971],[177.483,-49.722],[178.148,-49.469],[178.807,-49.213],[179.458,-48.953],[-179.898,-48.689],[-179.26,-48.421],[-178.629,-48.15],[-178.005,-47.876],[-177.387,-47.598],[-176.776,-47.317],[-176.171,-47.033],[-175.573,-46.746],[-174.981,-46.456],[-174.396,-46.162],[-173.816,-45.866],[-173.243,-45.566],[-172.676,-45.264],[-172.115,-44.96],[-171.56,-44.652],[-171.011,-44.342],[-170.468,-44.029],[-169.93,-43.713],[-169.398,-43.395],[-168.872,-43.075],[-168.351,-42.752],[-167.836,-42.427],[-167.326,-42.1],[-166.821,-41.77],[-166.321,-41.439],[-165.827,-41.105],[-165.337,-40.769],[-164.852,-40.431],[-164.373,-40.091],[-163.898,-39.749],[-163.427,-39.405],[-162.962,-39.059],[-162.501,-38.711],[-162.044,-38.362],[-161.592,-38.011],[-161.144,-37.658],[-160.7,-37.303],[-160.261,-36.947],[-159.825,-36.589],[-159.394,-36.23],[-158.967,-35.869],[-158.543,-35.506],[-158.123,-35.142],[-157.707,-34.777],[-157.295,-34.41],[-156.887,-34.042]]}},{"type":"Feature","properties":{"boundary_type":"subduction","feature_type":"gpml:SubductionZone","polarity":"Left","overriding_plate_id":101,"subducting_plate_id":90107,"plate_ids":[101,90107],"name":"Wyoming_SZ"},"geometry":{"type":"LineString","coordinates":[[-54.709,60.33],[-55.506,60.563],[-56.315,60.791]]}},{"type":"Feature","properties":{"boundary_type":"subduction","feature_type":"gpml:SubductionZone","polarity":"Left","overriding_plate_id":101,"subducting_plate_id":90106,"plate_ids":[101,90106],"name":"Wyoming_SZ"},"geometry":{"type":"LineString","coordinates":[[-56.315,60.791],[-57.174,61.024],[-58.046,61.252],[-58.931,61.474],[-59.828,61.691],[-60.737,61.901],[-61.66,62.106],[-62.594,62.304],[-63.54,62.496],[-64.499,62.681],[-65.469,62.86],[-66.452,63.032],[-67.445,63.197],[-68.45,63.355],[-69.465,63.506],[-70.491,63.65],[-71.528,63.786],[-72.574,63.915],[-73.629,64.036],[-74.693,64.15],[-75.766,64.256],[-76.847,64.353],[-77.935,64.443],[-78.946,64.626],[-79.97,64.802],[-81.007,64.971],[-82.057,65.133],[-83.119,65.287],[-84.194,65.434],[-85.281,65.573],[-86.379,65.704],[-87.488,65.827],[-88.607,65.942]]}},{"type":"Feature","properties":{"boundary_type":"subduction","feature_type":"gpml:SubductionZone","polarity":"Left","overriding_plate_id":101,"subducting_plate_id":10103,"plate_ids":[101,10103],"name":"Wyoming_SZ"},"geometry":{"type":"LineString","coordinates":[[-88.607,65.942],[-89.737,66.049],[-90.877,66.148],[-92.025,66.238],[-93.181,66.32],[-94.345,66.393],[-95.514,66.457],[-96.69,66.513],[-97.87,66.559],[-99.054,66.597],[-100.241,66.626],[-101.431,66.646],[-102.622,66.657],[-103.814,66.658],[-105.005,66.651],[-106.195,66.635],[-107.384,66.61],[-108.569,66.576],[-109.753,66.679],[-110.946,66.774],[-112.147,66.86],[-113.357,66.936],[-114.574,67.003],[-115.797,67.061],[-117.025,67.109],[-118.258,67.148],[-119.495,67.178],[-120.733,67.198],[-121.974,67.208],[-123.215,67.209],[-124.456,67.2],[-125.695,67.181],[-126.308,67.06],[-126.916,66.936]]}},{"type":"Feature","properties":{"boundary_type":"subduction","feature_type":"gpml:SubductionZone","polarity":"Left","overriding_plate_id":801,"subducting_plate_id":701,"plate_ids":[701,801],"name":"South_NorthAustralia_SZ"},"geometry":{"type":"LineString","coordinates":[[-87.621,0.317],[-87.303,0.678],[-86.985,1.038],[-86.666,1.399],[-86.348,1.76],[-86.029,2.121],[-85.711,2.482],[-85.392,2.842],[-85.073,3.203],[-84.753,3.563],[-84.434,3.924],[-84.114,4.284],[-83.794,4.644],[-83.474,5.004],[-83.153,5.364],[-82.832,5.723],[-82.51,6.083],[-82.188,6.442],[-81.865,6.801],[-81.729,7.251],[-81.592,7.701],[-81.455,8.151],[-81.318,8.601],[-81.18,9.051],[-81.042,9.501],[-80.903,9.951],[-80.764,10.401],[-80.625,10.85],[-80.486,11.3],[-80.345,11.75],[-80.205,12.199],[-80.064,12.649],[-79.922,13.098],[-79.971,13.544],[-80.019,13.989]]}},{"type":"Feature","properties":{"boundary_type":"subduction","feature_type":"gpml:SubductionZone","polarity":"Left","overriding_plate_id":801,"subducting_plate_id":811001,"plate_ids":[801,811001],"name":"South_NorthAustralia_SZ"},"geometry":{"type":"LineString","coordinates":[[-80.019,13.989],[-80.073,14.482],[-80.127,14.975],[-80.181,15.468],[-80.236,15.961],[-80.29,16.454],[-80.345,16.947],[-80.401,17.44],[-80.456,17.933]]}},{"type":"Feature","properties":{"boundary_type":"subduction","feature_type":"gpml:SubductionZone","polarity":"Left","overriding_plate_id":801,"subducting_plate_id":101,"plate_ids":[101,801],"name":"South_NorthAustralia_SZ"},"geometry":{"type":"LineString","coordinates":[[-55.019,57.472],[-55.84,57.439],[-56.659,57.4],[-57.476,57.357],[-58.292,57.307],[-59.105,57.253],[-59.916,57.194],[-60.724,57.129],[-61.529,57.059],[-62.322,56.811],[-63.104,56.558],[-63.876,56.3],[-64.638,56.038],[-65.389,55.771],[-66.13,55.499],[-66.861,55.223],[-67.581,54.943],[-68.292,54.658],[-68.992,54.369],[-69.683,54.077],[-70.364,53.78],[-71.035,53.48],[-71.697,53.176],[-72.311,52.84],[-72.916,52.502],[-73.512,52.16],[-74.098,51.815],[-74.676,51.468],[-75.245,51.117],[-75.805,50.764],[-76.357,50.409],[-76.901,50.05],[-77.436,49.69],[-77.964,49.327],[-78.484,48.961],[-78.996,48.593],[-79.501,48.223],[-79.998,47.851],[-80.489,47.477],[-80.972,47.1],[-81.394,46.692],[-81.809,46.282],[-82.218,45.87],[-82.622,45.457],[-83.019,45.043],[-83.41,44.627],[-83.796,44.21],[-84.177,43.792],[-84.552,43.373],[-84.922,42.952],[-85.287,42.53],[-85.647,42.107],[-86.003,41.683],[-86.332,41.265],[-86.658,40.846],[-86.979,40.427],[-87.296,40.006],[-87.61,39.585],[-87.919,39.162],[-88.225,38.739],[-88.527,38.315],[-88.826,37.891],[-89.122,37.465],[-89.414,37.039],[-89.702,36.612],[-90.038,36.228],[-90.37,35.842],[-90.698,35.456],[-91.024,35.068],[-91.346,34.68],[-91.666,34.291],[-91.983,33.901],[-92.296,33.51],[-92.607,33.119],[-92.915,32.727],[-93.35,32.4],[-93.781,32.072],[-94.21,31.742],[-94.635,31.411],[-95.058,31.078],[-95.477,30.744],[-95.893,30.409],[-96.307,30.072],[-96.718,29.734],[-97.126,29.395],[-97.531,29.054],[-97.934,28.713],[-98.334,28.37],[-98.72,28.01],[-99.104,27.649],[-99.485,27.287],[-99.863,26.923],[-100.239,26.559],[-100.613,26.194],[-100.984,25.828],[-101.353,25.461],[-101.72,25.093],[-102.084,24.724],[-102.447,24.354],[-102.549,23.886],[-102.65,23.418],[-102.75,22.95],[-102.85,22.482],[-102.949,22.014],[-103.048,21.546],[-103.146,21.078],[-103.243,20.609],[-103.339,20.141],[-103.436,19.673],[-103.531,19.204],[-103.626,18.735],[-103.72,18.267],[-103.814,17.798],[-103.908,17.33],[-104.001,16.861],[-103.986,16.382],[-103.971,15.902],[-103.957,15.423],[-103.942,14.943],[-103.928,14.464],[-103.913,13.985],[-103.899,13.505],[-103.884,13.026],[-103.87,12.547],[-103.856,12.067],[-103.842,11.588],[-103.828,11.108],[-103.813,10.629],[-103.732,10.284],[-103.65,9.939],[-103.569,9.594]]}},{"type":"Feature","properties":{"boundary_type":"subduction","feature_type":"gpml:SubductionZone","polarity":"Left","overriding_plate_id":801,"subducting_plate_id":811001,"plate_ids":[801,811001],"name":"NorthwesternMawson_SZ"},"geometry":{"type":"LineString","coordinates":[[-72.315,26.89],[-71.783,27.006],[-71.25,27.12],[-70.716,27.231],[-70.181,27.341],[-69.645,27.448],[-69.118,27.522],[-68.591,27.593],[-68.063,27.663],[-67.535,27.73],[-67.006,27.796],[-66.476,27.859],[-65.945,27.92],[-65.414,27.98],[-64.909,28.06],[-64.403,28.138],[-63.896,28.215],[-63.388,28.289],[-62.88,28.362],[-62.371,28.433],[-61.886,28.609],[-61.4,28.784],[-60.913,28.957],[-60.424,29.128],[-59.933,29.298],[-59.44,29.465],[-59.109,29.844],[-58.775,30.222],[-58.438,30.6],[-58.099,30.976],[-57.757,31.352],[-57.699,31.817],[-57.641,32.282],[-57.581,32.747],[-57.522,33.213],[-57.461,33.678],[-57.4,34.143],[-57.338,34.608],[-57.276,35.073],[-57.213,35.538],[-57.291,35.999],[-57.371,36.459],[-57.451,36.92],[-57.533,37.38],[-57.615,37.841],[-57.699,38.301],[-57.783,38.762],[-57.869,39.222],[-57.956,39.682],[-58.044,40.143],[-58.133,40.603],[-58.095,41.078],[-58.056,41.553],[-58.017,42.028],[-57.977,42.503],[-57.937,42.978],[-57.896,43.453],[-57.854,43.928],[-57.812,44.403],[-57.769,44.878],[-57.725,45.353],[-57.68,45.828],[-57.635,46.303],[-57.487,46.754],[-57.336,47.204],[-57.182,47.655],[-57.026,48.105],[-56.867,48.554],[-56.705,49.004],[-56.541,49.454],[-56.373,49.903],[-56.202,50.352],[-56.028,50.8],[-55.85,51.249],[-55.669,51.697],[-55.484,52.145],[-55.447,52.627],[-55.409,53.109],[-55.37,53.591],[-55.33,54.073],[-55.289,54.555],[-55.247,55.038],[-55.204,55.52]]}},{"type":"Feature","properties":{"boundary_type":"subduction","feature_type":"gpml:SubductionZone","polarity":"Left","overriding_plate_id":801,"subducting_plate_id":90107,"plate_ids":[801,90107],"name":"NorthwesternMawson_SZ"},"geometry":{"type":"LineString","coordinates":[[-55.204,55.52],[-55.159,56.008],[-55.114,56.496],[-55.067,56.984],[-55.019,57.472]]}},{"type":"Feature","properties":{"boundary_type":"subduction","feature_type":"gpml:SubductionZone","polarity":"Left","overriding_plate_id":101,"subducting_plate_id":90107,"plate_ids":[101,90107],"name":"NorthwesternMawson_SZ"},"geometry":{"type":"LineString","coordinates":[[-55.019,57.472],[-54.97,57.948],[-54.921,58.425],[-54.87,58.901],[-54.818,59.377],[-54.764,59.853],[-54.709,60.33]]}},{"type":"Feature","properties":{"boundary_type":"subduction","feature_type":"gpml:SubductionZone","polarity":"Left","overriding_plate_id":80101,"subducting_plate_id":90107,"plate_ids":[80101,90107],"name":""},"geometry":{"type":"LineString","coordinates":[[-14.922,18.426],[-14.905,18.908],[-14.887,19.391],[-14.87,19.873],[-14.852,20.355],[-14.834,20.837],[-14.817,21.32],[-14.799,21.802],[-14.781,22.284],[-14.762,22.767],[-14.744,23.249],[-14.726,23.731],[-14.707,24.214],[-14.688,24.696],[-14.669,25.178],[-14.707,25.644],[-14.745,26.11],[-14.783,26.576],[-14.822,27.042],[-14.86,27.508],[-14.9,27.973],[-14.939,28.439],[-14.979,28.905],[-15.019,29.371],[-15.06,29.837],[-15.101,30.302],[-15.142,30.768],[-15.184,31.234],[-15.226,31.7],[-15.268,32.165],[-15.514,32.592],[-15.761,33.017],[-16.011,33.443],[-16.264,33.867],[-16.519,34.292],[-16.777,34.715],[-17.037,35.138],[-17.3,35.561],[-17.566,35.983],[-17.835,36.405],[-18.106,36.825],[-18.381,37.245],[-18.659,37.665],[-19.026,38.025],[-19.398,38.384],[-19.773,38.742],[-20.151,39.098],[-20.534,39.454],[-20.921,39.808],[-21.311,40.16],[-21.706,40.512],[-22.104,40.862],[-22.507,41.211],[-22.915,41.558],[-23.326,41.904],[-23.743,42.248],[-24.173,42.598],[-24.608,42.947],[-25.048,43.294],[-25.493,43.64],[-25.943,43.984],[-26.399,44.326],[-26.86,44.666],[-27.326,45.004],[-27.797,45.34],[-28.275,45.675],[-28.758,46.007],[-29.247,46.337],[-29.742,46.666],[-30.242,46.992],[-30.749,47.315],[-31.286,47.551]]}},{"type":"Feature","properties":{"boundary_type":"subduction","feature_type":"gpml:SubductionZone","polarity":"Left","overriding_plate_id":811001,"subducting_plate_id":90107,"plate_ids":[90107,811001],"name":""},"geometry":{"type":"LineString","coordinates":[[-31.286,47.551],[-31.884,47.808],[-32.488,48.063],[-33.098,48.313],[-33.713,48.561],[-34.335,48.806],[-34.963,49.047],[-35.597,49.284],[-36.237,49.518],[-36.883,49.749],[-37.535,49.976],[-38.193,50.199],[-38.858,50.418],[-39.529,50.634],[-40.205,50.846],[-40.888,51.053],[-41.577,51.257],[-42.272,51.457],[-42.973,51.652],[-43.616,51.915],[-44.267,52.174],[-44.925,52.43],[-45.591,52.681],[-46.265,52.929],[-46.946,53.173],[-47.635,53.414],[-48.332,53.65],[-49.037,53.882],[-49.749,54.11],[-50.469,54.334],[-51.197,54.553],[-51.933,54.768],[-52.677,54.978],[-53.428,55.184],[-54.017,55.299],[-54.609,55.411],[-55.204,55.52]]}},{"type":"Feature","properties":{"boundary_type":"subduction","feature_type":"gpml:SubductionZone","polarity":"Left","overriding_plate_id":201,"subducting_plate_id":501001,"plate_ids":[201,501001],"name":"Amazonia_SZ"},"geometry":{"type":"LineString","coordinates":[[117.069,20.248],[116.787,19.827],[116.507,19.405],[116.228,18.984],[115.951,18.561],[115.675,18.139],[115.4,17.716],[115.126,17.292],[114.854,16.869],[114.583,16.445],[114.314,16.02],[114.045,15.595],[113.778,15.17],[113.511,14.745],[113.246,14.319],[112.981,13.893],[112.718,13.467],[112.456,13.04],[112.194,12.613],[111.933,12.186],[111.674,11.759],[111.414,11.331],[111.156,10.904],[110.899,10.476],[110.642,10.048],[110.386,9.619],[110.13,9.191],[109.875,8.762],[109.621,8.333],[109.367,7.904],[109.114,7.474],[108.862,7.045],[108.609,6.616],[108.358,6.186],[108.106,5.756],[107.855,5.326],[107.604,4.896],[107.354,4.466],[107.104,4.036],[106.854,3.606],[106.605,3.175],[106.356,2.745],[106.106,2.315],[105.857,1.884],[105.608,1.454],[105.36,1.023],[105.111,0.593],[104.862,0.162],[104.614,-0.269],[104.465,-0.705],[104.315,-1.141],[104.166,-1.576],[104.017,-2.012],[103.868,-2.448],[103.718,-2.884],[103.569,-3.32],[103.419,-3.756],[103.269,-4.192],[103.119,-4.628],[102.969,-5.063],[102.819,-5.499]]}},{"type":"Feature","properties":{"boundary_type":"subduction","feature_type":"gpml:SubductionZone","polarity":"Left","overriding_plate_id":201,"subducting_plate_id":90105,"plate_ids":[201,90105],"name":"Amazonia_SZ"},"geometry":{"type":"LineString","coordinates":[[102.819,-5.499],[102.667,-5.939],[102.514,-6.379],[102.362,-6.819],[102.209,-7.259],[102.056,-7.699],[101.902,-8.139],[101.748,-8.579],[101.594,-9.019],[101.44,-9.458],[101.285,-9.898],[101.267,-10.397],[101.249,-10.896],[101.232,-11.395],[101.214,-11.894],[101.196,-12.393],[101.178,-12.891],[101.16,-13.39],[101.142,-13.889],[101.124,-14.388],[101.106,-14.887],[101.087,-15.386],[101.069,-15.885],[101.051,-16.384],[101.032,-16.883],[101.013,-17.381],[100.995,-17.88],[100.976,-18.379],[100.957,-18.878],[101.098,-19.347],[101.24,-19.815],[101.383,-20.284],[101.527,-20.752],[101.672,-21.221],[101.818,-21.689],[101.965,-22.157],[102.112,-22.625],[102.261,-23.093],[102.411,-23.561],[102.561,-24.028],[102.713,-24.495],[102.866,-24.963],[103.02,-25.43],[103.176,-25.897],[103.332,-26.363],[103.49,-26.83],[103.649,-27.296],[103.81,-27.763],[103.972,-28.229],[104.316,-28.62],[104.663,-29.01],[105.013,-29.399],[105.366,-29.787],[105.721,-30.174],[106.079,-30.561],[106.439,-30.946],[106.803,-31.331],[107.17,-31.714],[107.539,-32.096],[107.912,-32.478],[108.288,-32.858],[108.667,-33.237],[109.05,-33.614],[109.436,-33.991],[109.825,-34.366],[110.218,-34.741],[110.614,-35.114],[111.014,-35.485],[111.418,-35.855],[111.826,-36.224],[112.237,-36.592],[112.652,-36.958],[113.072,-37.322],[113.495,-37.686],[113.922,-38.047],[114.354,-38.407],[114.79,-38.766],[115.231,-39.122],[115.676,-39.478],[116.125,-39.831],[116.579,-40.183],[117.038,-40.532],[117.502,-40.881],[117.97,-41.227],[118.444,-41.571],[118.923,-41.913],[119.406,-42.253],[119.895,-42.592],[120.39,-42.928],[120.889,-43.262],[121.394,-43.593],[121.905,-43.923],[122.422,-44.25],[122.944,-44.575],[123.472,-44.897],[124.006,-45.217],[124.546,-45.535],[125.092,-45.85],[125.644,-46.162],[126.203,-46.472],[126.768,-46.778],[127.339,-47.082],[127.917,-47.384],[128.501,-47.682],[129.093,-47.977],[129.691,-48.269],[130.295,-48.558],[130.907,-48.844],[131.526,-49.126],[132.151,-49.406],[132.784,-49.681],[133.424,-49.954],[134.098,-50.157],[134.777,-50.356],[135.461,-50.552],[136.152,-50.743],[136.847,-50.93],[137.549,-51.113],[138.256,-51.292],[138.968,-51.466],[139.686,-51.637],[140.409,-51.802],[141.138,-51.964],[141.871,-52.12],[142.61,-52.273],[143.354,-52.42],[144.103,-52.563],[144.856,-52.701],[145.614,-52.834],[146.377,-52.963],[147.144,-53.086]]}},{"type":"Feature","properties":{"boundary_type":"subduction","feature_type":"gpml:SubductionZone","polarity":"Left","overriding_plate_id":201,"subducting_plate_id":701,"plate_ids":[201,701],"name":"Amazonia_SZ"},"geometry":{"type":"LineString","coordinates":[[147.144,-53.086],[147.863,-53.197],[148.585,-53.303],[149.31,-53.405],[150.039,-53.502],[150.772,-53.595],[151.507,-53.684],[152.246,-53.768],[152.987,-53.847]]}},{"type":"Feature","properties":{"boundary_type":"transform","feature_type":"gpml:Transform","polarity":null,"overriding_plate_id":null,"subducting_plate_id":null,"plate_ids":[201,501001],"name":""},"geometry":{"type":"LineString","coordinates":[[117.069,20.248],[117.525,19.991],[117.98,19.733],[118.434,19.475],[118.886,19.215],[119.336,18.954],[119.786,18.692],[120.233,18.428],[120.68,18.164],[121.125,17.899],[121.569,17.633],[122.011,17.366],[122.452,17.097],[122.892,16.828],[123.331,16.558],[123.768,16.287],[124.205,16.015],[124.64,15.742],[125.074,15.469],[125.506,15.194],[125.938,14.919],[126.368,14.643],[126.798,14.366],[127.226,14.088],[127.653,13.81],[128.08,13.531],[128.505,13.251],[128.929,12.97],[129.352,12.689],[129.775,12.407],[130.196,12.124],[130.617,11.841],[131.037,11.557],[131.456,11.273],[131.874,10.988],[132.291,10.702],[132.707,10.416],[133.123,10.129],[133.538,9.842],[133.952,9.554],[134.366,9.266],[134.778,8.978],[135.191,8.688],[135.602,8.399],[136.013,8.109],[136.423,7.818],[136.833,7.528],[137.242,7.236],[137.651,6.945],[138.059,6.653],[138.467,6.361],[138.874,6.068],[139.281,5.775],[139.687,5.482],[140.093,5.189],[140.499,4.895],[140.904,4.601],[141.309,4.307],[141.714,4.012],[142.118,3.718],[142.522,3.423],[142.931,3.14],[143.34,2.857],[143.748,2.574],[144.157,2.291],[144.565,2.008],[144.973,1.725],[145.381,1.441],[145.789,1.158],[146.197,0.874],[146.604,0.59],[147.012,0.307],[147.42,0.023],[147.827,-0.261],[148.235,-0.544],[148.643,-0.828],[149.051,-1.112],[149.459,-1.395],[149.867,-1.679],[150.275,-1.962],[150.683,-2.245],[151.091,-2.528],[151.5,-2.811],[151.908,-3.094],[152.317,-3.377],[152.727,-3.66],[153.136,-3.942],[153.546,-4.224],[153.956,-4.506],[154.366,-4.788],[154.777,-5.069],[155.188,-5.351],[155.599,-5.632],[156.011,-5.912],[156.424,-6.193],[156.836,-6.473],[157.249,-6.752],[157.663,-7.032],[158.077,-7.311],[158.492,-7.589],[158.907,-7.868],[159.323,-8.146],[159.739,-8.423]]}},{"type":"Feature","properties":{"boundary_type":"transform","feature_type":"gpml:Transform","polarity":null,"overriding_plate_id":null,"subducting_plate_id":null,"plate_ids":[201,501],"name":""},"geometry":{"type":"LineString","coordinates":[[159.739,-8.423],[160.157,-8.701],[160.576,-8.978],[160.996,-9.255],[161.416,-9.532],[161.837,-9.808],[162.259,-10.083],[162.681,-10.358],[163.105,-10.633],[163.529,-10.907],[163.953,-11.18],[164.379,-11.453],[164.805,-11.725],[165.232,-11.996],[165.66,-12.267],[166.089,-12.537],[166.519,-12.806],[166.95,-13.075],[167.381,-13.343],[167.814,-13.61],[168.248,-13.877],[168.682,-14.143],[169.118,-14.408],[169.554,-14.672],[169.992,-14.935],[170.431,-15.198],[170.871,-15.459],[171.312,-15.72],[171.754,-15.98],[172.197,-16.239],[172.641,-16.497],[173.087,-16.754],[173.534,-17.011],[173.982,-17.266],[174.431,-17.52],[174.882,-17.773],[175.333,-18.025],[175.786,-18.277],[176.241,-18.527],[176.697,-18.776],[177.154,-19.023],[177.612,-19.27],[178.072,-19.516],[178.533,-19.76],[178.996,-20.003],[179.46,-20.245],[179.925,-20.486],[-179.608,-20.726],[-179.139,-20.964],[-178.669,-21.201],[-178.198,-21.437],[-177.725,-21.671],[-177.251,-21.904],[-176.774,-22.136],[-176.297,-22.366],[-175.818,-22.595],[-175.337,-22.822]]}},{"type":"Feature","properties":{"boundary_type":"transform","feature_type":"gpml:Transform","polarity":null,"overriding_plate_id":null,"subducting_plate_id":null,"plate_ids":[101,201],"name":""},"geometry":{"type":"LineString","coordinates":[[-175.337,-22.822],[-174.86,-23.046],[-174.381,-23.268],[-173.901,-23.489],[-173.419,-23.708],[-172.935,-23.926],[-172.45,-24.142],[-171.963,-24.357],[-171.475,-24.57],[-170.985,-24.781],[-170.493,-24.991],[-169.999,-25.199],[-169.504,-25.406],[-169.007,-25.611],[-168.509,-25.814],[-168.009,-26.016],[-167.507,-26.216],[-167.003,-26.414],[-166.498,-26.61],[-165.99,-26.805],[-165.482,-26.998],[-164.971,-27.188],[-164.459,-27.377],[-163.945,-27.565],[-163.423,-27.735],[-162.899,-27.904],[-162.374,-28.07],[-161.848,-28.235],[-161.319,-28.397],[-160.79,-28.558],[-160.258,-28.716],[-159.725,-28.873],[-159.19,-29.027],[-158.654,-29.179],[-158.116,-29.329],[-157.577,-29.477],[-157.036,-29.622],[-156.493,-29.766],[-155.949,-29.907],[-155.404,-30.046],[-154.857,-30.182],[-154.308,-30.317],[-153.758,-30.449],[-153.206,-30.579],[-152.653,-30.706],[-152.099,-30.831]]}},{"type":"Feature","properties":{"boundary_type":"subduction","feature_type":"gpml:SubductionZone","polarity":"Right","overriding_plate_id":801,"subducting_plate_id":701,"plate_ids":[701,801],"name":"Cathaysia_SZ"},"geometry":{"type":"LineString","coordinates":[[-100.629,-13.846],[-100.722,-14.337],[-100.817,-14.828],[-100.911,-15.318],[-101.007,-15.809],[-101.102,-16.3],[-101.198,-16.79],[-101.295,-17.281],[-101.392,-17.771],[-101.49,-18.262],[-101.588,-18.752],[-101.687,-19.243],[-101.786,-19.733],[-101.886,-20.223],[-101.908,-20.722],[-101.93,-21.221],[-101.952,-21.72],[-101.974,-22.219],[-101.997,-22.718],[-102.019,-23.217],[-102.042,-23.716],[-102.065,-24.215],[-102.088,-24.714],[-102.112,-25.213],[-102.135,-25.712],[-102.159,-26.211],[-102.183,-26.71],[-102.207,-27.209],[-102.232,-27.708],[-102.113,-28.182],[-101.993,-28.656],[-101.873,-29.129],[-101.751,-29.603]]}},{"type":"Feature","properties":{"boundary_type":"transform","feature_type":"gpml:Transform","polarity":null,"overriding_plate_id":null,"subducting_plate_id":null,"plate_ids":[201,701],"name":""},"geometry":{"type":"LineString","coordinates":[[-156.887,-34.042],[-156.369,-34.198],[-155.85,-34.352],[-155.329,-34.504],[-154.805,-34.653],[-154.28,-34.801],[-153.753,-34.946],[-153.225,-35.088]]}},{"type":"Feature","properties":{"boundary_type":"transform","feature_type":"gpml:Transform","polarity":null,"overriding_plate_id":null,"subducting_plate_id":null,"plate_ids":[401,701],"name":""},"geometry":{"type":"LineString","coordinates":[[-153.225,-35.088],[-152.765,-35.21],[-152.304,-35.33],[-151.841,-35.449],[-151.377,-35.565],[-150.786,-35.657],[-150.193,-35.746],[-149.599,-35.832],[-149.003,-35.915],[-148.406,-35.995],[-147.809,-36.072],[-147.21,-36.146],[-146.61,-36.217],[-146.008,-36.285],[-145.406,-36.35],[-144.803,-36.412],[-144.199,-36.471],[-143.594,-36.527],[-142.988,-36.58],[-142.381,-36.63],[-141.774,-36.676],[-141.166,-36.72],[-140.557,-36.761],[-139.947,-36.798],[-139.337,-36.832],[-138.727,-36.864],[-138.116,-36.892],[-137.504,-36.917],[-136.893,-36.939],[-136.281,-36.957],[-135.668,-36.973],[-135.055,-36.985],[-134.443,-36.994],[-133.83,-37.001],[-133.217,-37.003],[-132.604,-37.003],[-131.991,-37.0],[-131.378,-36.993],[-130.765,-36.984],[-130.152,-36.971],[-129.539,-36.891],[-128.927,-36.808],[-128.316,-36.722],[-127.706,-36.633],[-127.098,-36.541],[-126.491,-36.446],[-125.886,-36.347],[-125.283,-36.246],[-124.681,-36.142],[-124.08,-36.034],[-123.482,-35.924],[-122.885,-35.81],[-122.289,-35.694],[-121.696,-35.575],[-121.104,-35.453],[-120.514,-35.328],[-119.926,-35.2],[-119.34,-35.069],[-118.756,-34.936],[-118.173,-34.799],[-117.593,-34.66],[-117.014,-34.518],[-116.438,-34.374],[-115.863,-34.227],[-115.291,-34.077],[-114.72,-33.924],[-114.152,-33.769],[-113.585,-33.611]]}},{"type":"Feature","properties":{"boundary_type":"transform","feature_type":"gpml:Transform","polarity":null,"overriding_plate_id":null,"subducting_plate_id":null,"plate_ids":[701,801],"name":""},"geometry":{"type":"LineString","coordinates":[[-113.585,-33.611],[-113.063,-33.463],[-112.542,-33.312],[-112.024,-33.16],[-111.506,-33.005],[-110.991,-32.848],[-110.478,-32.689],[-109.966,-32.528],[-109.438,-32.361],[-108.912,-32.191],[-108.387,-32.02],[-107.865,-31.846],[-107.345,-31.67],[-106.826,-31.492],[-106.31,-31.312],[-105.795,-31.13],[-105.283,-30.946],[-104.772,-30.76],[-104.264,-30.572],[-103.757,-30.382],[-103.253,-30.19],[-102.75,-29.996],[-102.25,-29.8],[-101.751,-29.603]]}},{"type":"Feature","properties":{"boundary_type":"transform","feature_type":"gpml:Transform","polarity":null,"overriding_plate_id":null,"subducting_plate_id":null,"plate_ids":[101,401],"name":""},"geometry":{"type":"LineString","coordinates":[[-145.389,-13.532],[-144.88,-13.511],[-144.37,-13.49],[-143.861,-13.467],[-143.352,-13.443],[-142.843,-13.419],[-142.334,-13.393],[-141.825,-13.366],[-141.317,-13.339],[-140.808,-13.31],[-140.3,-13.28],[-139.792,-13.25],[-139.283,-13.218],[-138.775,-13.185],[-138.268,-13.152],[-137.76,-13.117],[-137.252,-13.081],[-136.745,-13.044],[-136.238,-13.007],[-135.73,-12.968],[-135.223,-12.928],[-134.717,-12.888],[-134.21,-12.846],[-133.704,-12.804],[-133.197,-12.76],[-132.691,-12.716],[-132.185,-12.67],[-131.679,-12.624],[-131.174,-12.576],[-130.669,-12.528],[-130.163,-12.479],[-129.658,-12.429],[-129.154,-12.377],[-128.649,-12.325],[-128.145,-12.272],[-127.64,-12.219],[-127.136,-12.164],[-126.633,-12.108],[-126.129,-12.051],[-125.626,-11.994],[-125.123,-11.935],[-124.62,-11.876],[-124.117,-11.816],[-123.614,-11.755],[-123.112,-11.693],[-122.61,-11.63],[-122.108,-11.566],[-121.607,-11.501],[-121.105,-11.436],[-120.604,-11.37],[-120.104,-11.302],[-119.603,-11.234],[-119.102,-11.166],[-118.602,-11.096],[-118.102,-11.025],[-117.603,-10.954]]}},{"type":"Feature","properties":{"boundary_type":"transform","feature_type":"gpml:Transform","polarity":null,"overriding_plate_id":null,"subducting_plate_id":null,"plate_ids":[101,801],"name":""},"geometry":{"type":"LineString","coordinates":[[-117.603,-10.954],[-117.146,-10.888],[-116.689,-10.822],[-116.232,-10.754],[-115.776,-10.686],[-115.319,-10.618],[-114.863,-10.548],[-114.407,-10.478]]}},{"type":"Feature","properties":{"boundary_type":"subduction","feature_type":"gpml:SubductionZone","polarity":"Left","overriding_plate_id":401,"subducting_plate_id":101,"plate_ids":[101,401],"name":""},"geometry":{"type":"LineString","coordinates":[[-145.389,-13.532],[-145.655,-13.923],[-145.922,-14.315],[-146.191,-14.706],[-146.46,-15.097],[-146.73,-15.487],[-147.001,-15.877],[-147.273,-16.267],[-147.547,-16.656],[-147.754,-17.105],[-147.962,-17.554],[-148.172,-18.002],[-148.383,-18.451],[-148.594,-18.899],[-148.807,-19.347],[-149.021,-19.794],[-149.236,-20.241],[-149.452,-20.688],[-149.67,-21.135],[-149.783,-21.609],[-149.896,-22.084],[-150.01,-22.558],[-150.125,-23.032],[-150.241,-23.506],[-150.358,-23.98],[-150.475,-24.453],[-150.594,-24.927],[-150.713,-25.401],[-150.833,-25.874],[-150.955,-26.348],[-151.077,-26.821],[-151.2,-27.294],[-151.324,-27.767],[-151.45,-28.24],[-151.576,-28.713],[-151.679,-29.137],[-151.783,-29.561],[-151.887,-29.984],[-151.992,-30.408],[-152.099,-30.831]]}},{"type":"Feature","properties":{"boundary_type":"subduction","feature_type":"gpml:SubductionZone","polarity":"Left","overriding_plate_id":401,"subducting_plate_id":201,"plate_ids":[201,401],"name":""},"geometry":{"type":"LineString","coordinates":[[-152.099,-30.831],[-152.219,-31.305],[-152.34,-31.778],[-152.462,-32.252],[-152.586,-32.725],[-152.711,-33.198],[-152.837,-33.671],[-152.965,-34.143],[-153.094,-34.616],[-153.225,-35.088]]}},{"type":"Feature","properties":{"boundary_type":"subduction","feature_type":"gpml:SubductionZone","polarity":"Left","overriding_plate_id":801,"subducting_plate_id":101,"plate_ids":[101,801],"name":""},"geometry":{"type":"LineString","coordinates":[[-103.569,9.594],[-103.902,9.244],[-104.235,8.893],[-104.567,8.542],[-104.898,8.191],[-105.229,7.84],[-105.559,7.488],[-105.888,7.137],[-106.218,6.785],[-106.546,6.432],[-106.874,6.08],[-107.202,5.727],[-107.529,5.374],[-107.856,5.021],[-108.183,4.668],[-108.509,4.315],[-108.724,3.871],[-108.939,3.427],[-109.154,2.983],[-109.369,2.538],[-109.583,2.094],[-109.798,1.65],[-110.012,1.206],[-110.226,0.762],[-110.44,0.317],[-110.654,-0.127],[-110.868,-0.571],[-111.082,-1.015],[-111.297,-1.459],[-111.511,-1.904],[-111.725,-2.348],[-111.94,-2.792],[-112.155,-3.236],[-112.369,-3.68],[-112.504,-4.134],[-112.638,-4.587],[-112.773,-5.04],[-112.907,-5.494],[-113.042,-5.947],[-113.178,-6.4],[-113.313,-6.854],[-113.449,-7.307],[-113.585,-7.76],[-113.721,-8.213],[-113.858,-8.666],[-113.994,-9.119],[-114.132,-9.572],[-114.269,-10.025],[-114.407,-10.478]]}},{"type":"Feature","properties":{"boundary_type":"ridge","feature_type":"gpml:MidOceanRidge","polarity":null,"overriding_plate_id":null,"subducting_plate_id":null,"plate_ids":[401,801],"name":""},"geometry":{"type":"LineString","coordinates":[[-113.585,-33.611],[-113.682,-33.128],[-113.777,-32.644],[-113.872,-32.161],[-113.965,-31.677],[-114.057,-31.194],[-114.149,-30.71],[-114.239,-30.226],[-114.329,-29.742],[-114.418,-29.258],[-114.506,-28.774],[-114.593,-28.29],[-114.679,-27.806],[-114.765,-27.322],[-114.85,-26.838],[-114.934,-26.353],[-115.017,-25.869],[-115.1,-25.385],[-115.182,-24.9],[-115.264,-24.416],[-115.344,-23.931],[-115.425,-23.447],[-115.504,-22.962],[-115.583,-22.478],[-115.662,-21.993],[-115.74,-21.508],[-115.817,-21.024],[-115.894,-20.539],[-115.971,-20.054],[-116.047,-19.569],[-116.122,-19.084],[-116.585,-19.115],[-117.048,-19.145],[-117.512,-19.174],[-117.518,-18.69],[-117.523,-18.207],[-117.529,-17.723],[-117.534,-17.24],[-117.539,-16.756],[-117.545,-16.273],[-117.55,-15.789],[-117.556,-15.306],[-117.561,-14.822],[-117.566,-14.339],[-117.571,-13.855],[-117.577,-13.372],[-117.582,-12.888],[-117.587,-12.405],[-117.592,-11.921],[-117.598,-11.438],[-117.603,-10.954]]}},{"type":"Feature","properties":{"boundary_type":"transform","feature_type":"gpml:Transform","polarity":null,"overriding_plate_id":null,"subducting_plate_id":null,"plate_ids":[101,501],"name":""},"geometry":{"type":"LineString","coordinates":[[-176.789,3.657],[-176.395,3.348],[-176.002,3.039],[-175.609,2.729],[-175.216,2.42],[-174.823,2.11],[-174.43,1.8],[-174.038,1.49],[-173.646,1.181],[-173.253,0.871],[-172.861,0.56],[-172.469,0.25],[-172.077,-0.06],[-171.685,-0.37],[-171.293,-0.68],[-170.901,-0.99],[-170.508,-1.3],[-170.116,-1.61],[-169.724,-1.92],[-169.331,-2.229],[-168.938,-2.539],[-168.545,-2.849],[-168.152,-3.158],[-167.759,-3.467],[-167.365,-3.776],[-166.971,-4.085],[-166.577,-4.394],[-166.182,-4.702],[-165.787,-5.011],[-165.392,-5.319]]}},{"type":"Feature","properties":{"boundary_type":"ridge","feature_type":"gpml:MidOceanRidge","polarity":null,"overriding_plate_id":null,"subducting_plate_id":null,"plate_ids":[90106,501001],"name":""},"geometry":{"type":"LineString","coordinates":[[-172.983,47.711],[-173.667,47.885],[-174.356,48.055],[-175.049,48.221],[-175.746,48.383],[-176.448,48.541],[-177.155,48.695],[-177.866,48.844],[-178.58,48.988],[-179.299,49.129],[179.978,49.265],[179.251,49.396],[178.52,49.522],[177.786,49.644],[177.048,49.762],[176.306,49.875],[175.561,49.982],[174.813,50.086],[174.061,50.184],[173.307,50.277],[172.55,50.366],[171.79,50.449],[171.027,50.528],[170.262,50.602],[169.494,50.67],[168.725,50.734],[167.953,50.792],[167.18,50.846],[166.405,50.894],[165.628,50.937],[164.85,50.975],[164.071,51.008],[163.291,51.035],[162.509,51.057],[161.728,51.075],[160.946,51.087],[160.163,51.093],[159.38,51.095],[158.598,51.091],[157.815,51.082],[157.033,51.068],[156.252,51.048],[155.471,51.024],[154.691,50.994],[153.913,50.959],[153.135,50.919],[152.359,50.874],[151.585,50.823],[150.812,50.768],[150.041,50.707],[149.272,50.641],[148.506,50.571],[147.742,50.495],[146.98,50.414],[146.221,50.328],[145.465,50.238],[144.712,50.142],[144.373,49.724],[144.039,49.305],[143.711,48.885],[143.388,48.464],[143.071,48.043],[142.758,47.62],[142.451,47.196],[142.149,46.772],[141.851,46.347],[141.558,45.921],[141.27,45.495],[140.985,45.068],[140.705,44.64],[140.429,44.211],[140.158,43.782],[139.89,43.352],[139.222,43.438],[138.552,43.521],[137.881,43.6],[137.208,43.675],[136.533,43.746],[135.856,43.813],[135.179,43.876],[134.499,43.935],[133.819,43.99],[133.137,44.041],[132.454,44.088],[131.77,44.131],[131.086,44.169],[130.4,44.204],[129.713,44.235],[129.026,44.261],[128.339,44.283],[127.65,44.301],[126.962,44.315],[126.273,44.325],[125.584,44.331],[124.895,44.333],[124.206,44.33],[123.517,44.323],[122.828,44.312],[122.14,44.297],[121.452,44.278],[121.447,43.785],[121.442,43.292],[121.438,42.798],[121.434,42.305],[121.429,41.811],[121.425,41.318],[121.421,40.825],[121.416,40.331],[121.412,39.838],[121.408,39.344],[121.404,38.851],[121.4,38.357],[121.396,37.864],[121.393,37.371],[121.389,36.877],[121.385,36.384],[121.381,35.89],[121.378,35.397],[121.374,34.904],[121.371,34.41],[121.367,33.917],[121.364,33.423],[120.772,33.366],[120.182,33.305],[119.592,33.242],[119.003,33.175],[118.415,33.106],[117.829,33.035],[117.243,32.96],[116.658,32.883],[116.074,32.803],[115.491,32.72],[114.909,32.635],[114.328,32.547],[113.749,32.456],[113.171,32.363],[112.594,32.267],[112.018,32.169],[111.443,32.068],[110.87,31.964],[110.298,31.857],[109.727,31.749],[109.158,31.637],[108.59,31.523],[108.023,31.407],[107.458,31.288],[106.895,31.167],[106.332,31.043],[105.772,30.916],[105.212,30.788],[104.655,30.657],[104.098,30.523],[103.544,30.387],[102.991,30.249],[102.439,30.109],[101.889,29.966],[101.341,29.821],[100.794,29.674],[100.249,29.524],[99.705,29.373],[99.163,29.219],[98.623,29.062],[98.084,28.904],[97.547,28.744],[97.012,28.581],[96.478,28.417],[95.946,28.25],[95.416,28.081],[94.887,27.91],[94.36,27.738],[93.835,27.563],[93.312,27.386],[92.79,27.207],[92.269,27.027],[91.751,26.844],[91.234,26.66],[90.719,26.474],[90.205,26.285],[89.693,26.096],[89.183,25.904]]}},{"type":"Feature","properties":{"boundary_type":"ridge","feature_type":"gpml:MidOceanRidge","polarity":null,"overriding_plate_id":null,"subducting_plate_id":null,"plate_ids":[90105,501001],"name":""},"geometry":{"type":"LineString","coordinates":[[91.849,25.756],[91.424,25.473],[91.0,25.189],[90.579,24.903],[90.159,24.617],[89.742,24.329],[89.326,24.04],[88.912,23.75],[88.5,23.459],[88.09,23.166],[87.681,22.873],[87.275,22.579],[86.87,22.283],[86.467,21.987],[86.065,21.689],[85.665,21.391],[85.267,21.092],[84.87,20.791],[84.475,20.49],[84.082,20.188],[83.69,19.885],[83.3,19.582],[83.676,19.24],[84.05,18.897],[84.424,18.554],[84.795,18.21],[85.165,17.865],[85.534,17.52],[85.901,17.174],[86.267,16.827],[86.632,16.479],[86.995,16.131],[87.357,15.783],[87.718,15.433],[88.078,15.084],[88.436,14.733],[88.794,14.382],[89.15,14.031],[89.505,13.679],[89.859,13.326],[90.212,12.973],[90.564,12.62],[90.915,12.266],[91.265,11.911],[91.614,11.556],[91.962,11.201],[92.309,10.845],[92.656,10.489],[93.002,10.133],[93.347,9.776],[93.691,9.419],[94.034,9.062],[94.377,8.704],[94.719,8.346],[95.061,7.987],[95.402,7.629],[95.742,7.27],[96.082,6.911],[96.422,6.551],[96.133,6.203],[95.845,5.854],[95.558,5.505],[95.271,5.156],[94.984,4.807],[94.697,4.458],[95.01,4.076],[95.323,3.693],[95.636,3.31],[95.949,2.927],[96.261,2.544],[96.573,2.161],[96.885,1.778],[97.197,1.395],[97.508,1.011],[97.82,0.628],[98.132,0.245],[98.443,-0.138],[98.755,-0.522],[99.066,-0.905],[99.378,-1.288],[99.69,-1.671],[100.002,-2.055],[100.314,-2.438],[100.626,-2.821],[100.938,-3.204],[101.251,-3.587],[101.564,-3.969],[101.877,-4.352],[102.191,-4.734],[102.505,-5.117],[102.819,-5.499]]}},{"type":"Feature","properties":{"boundary_type":"subduction","feature_type":"gpml:SubductionZone","polarity":"Right","overriding_plate_id":701,"subducting_plate_id":90105,"plate_ids":[701,90105],"name":""},"geometry":{"type":"LineString","coordinates":[[17.207,-67.202],[17.957,-67.601],[18.733,-67.997],[19.536,-68.389],[20.368,-68.777],[21.228,-69.161],[22.119,-69.54],[23.042,-69.915],[23.998,-70.285],[24.99,-70.649],[26.017,-71.008],[27.083,-71.361],[28.187,-71.708],[29.333,-72.048],[30.52,-72.382],[31.752,-72.708],[33.029,-73.026],[34.352,-73.336],[35.724,-73.637],[37.145,-73.929],[38.616,-74.211],[40.138,-74.483],[41.712,-74.744],[43.339,-74.994],[45.018,-75.232],[46.749,-75.458],[48.531,-75.679],[50.367,-75.887],[52.254,-76.08],[54.192,-76.259],[56.177,-76.422],[58.208,-76.569],[60.279,-76.699],[62.389,-76.813],[64.532,-76.908],[66.702,-76.986],[68.896,-77.046],[71.106,-77.087],[73.327,-77.109],[75.552,-77.113],[77.775,-77.098],[79.99,-77.064],[82.191,-77.012],[84.371,-76.941],[86.525,-76.852],[88.648,-76.746],[90.735,-76.622],[92.782,-76.482],[94.786,-76.325],[96.742,-76.152],[98.65,-75.964],[100.506,-75.762],[102.309,-75.546],[104.059,-75.317],[105.755,-75.074],[107.396,-74.82],[108.983,-74.554],[110.517,-74.278],[111.999,-73.991],[113.428,-73.694],[114.807,-73.388],[116.137,-73.073],[117.419,-72.75],[118.655,-72.419],[119.846,-72.08],[120.994,-71.735],[122.101,-71.383],[123.167,-71.025],[124.195,-70.661],[125.186,-70.291],[126.142,-69.916],[127.064,-69.536],[127.954,-69.152],[128.812,-68.763],[129.641,-68.369],[130.442,-67.972],[131.216,-67.571],[131.963,-67.167],[132.686,-66.759],[133.385,-66.348],[134.062,-65.934],[134.717,-65.517],[135.351,-65.097],[135.966,-64.675],[136.561,-64.25],[137.139,-63.823],[137.699,-63.394],[138.243,-62.962],[138.771,-62.529],[139.284,-62.093],[139.782,-61.656],[140.266,-61.217],[140.737,-60.776],[141.195,-60.334],[141.641,-59.89],[142.075,-59.444],[142.497,-58.998],[142.909,-58.55],[143.311,-58.1],[143.702,-57.65],[144.084,-57.198],[144.457,-56.745],[144.82,-56.291],[145.176,-55.836],[145.523,-55.38],[145.862,-54.923],[146.193,-54.465],[146.517,-54.006],[146.834,-53.547],[147.144,-53.086]]}},{"type":"Feature","properties":{"boundary_type":"ridge","feature_type":"gpml:MidOceanRidge","polarity":null,"overriding_plate_id":null,"subducting_plate_id":null,"plate_ids":[701,90107],"name":""},"geometry":{"type":"LineString","coordinates":[[-8.402,-47.029],[-8.335,-47.516],[-8.267,-48.002],[-8.198,-48.489],[-8.128,-48.976],[-8.056,-49.462],[-7.982,-49.949],[-7.907,-50.436]]}},{"type":"Feature","properties":{"boundary_type":"ridge","feature_type":"gpml:MidOceanRidge","polarity":null,"overriding_plate_id":null,"subducting_plate_id":null,"plate_ids":[701,90105],"name":""},"geometry":{"type":"LineString","coordinates":[[-7.907,-50.436],[-7.832,-50.912],[-7.756,-51.389],[-7.678,-51.866],[-7.598,-52.342],[-7.517,-52.819],[-7.433,-53.295],[-7.348,-53.771],[-7.261,-54.248],[-7.172,-54.724],[-7.081,-55.2],[-6.987,-55.676],[-6.891,-56.152],[-6.793,-56.628],[-5.923,-56.596],[-5.054,-56.558],[-4.187,-56.514],[-3.323,-56.464],[-2.46,-56.407],[-2.235,-56.866],[-2.004,-57.324],[-1.767,-57.782],[-1.524,-58.239],[-1.275,-58.696],[-1.019,-59.152],[-0.756,-59.607],[-0.486,-60.063],[-0.209,-60.517],[0.076,-60.971],[0.37,-61.425],[0.672,-61.877],[0.984,-62.329],[1.305,-62.781],[1.635,-63.231],[2.473,-63.523],[3.329,-63.81],[4.201,-64.092],[5.091,-64.368],[5.999,-64.639],[6.926,-64.904],[7.87,-65.163],[8.833,-65.417],[9.815,-65.664],[10.815,-65.904],[11.834,-66.138],[12.871,-66.365],[13.927,-66.586],[15.002,-66.798],[16.095,-67.004],[17.207,-67.202]]}},{"type":"Feature","properties":{"boundary_type":"ridge","feature_type":"gpml:MidOceanRidge","polarity":null,"overriding_plate_id":null,"subducting_plate_id":null,"plate_ids":[90105,501001],"name":""},"geometry":{"type":"LineString","coordinates":[[91.849,25.756],[91.316,25.79],[90.783,25.821],[90.25,25.851],[89.717,25.878],[89.183,25.904]]}},{"type":"Feature","properties":{"boundary_type":"ridge","feature_type":"gpml:MidOceanRidge","polarity":null,"overriding_plate_id":null,"subducting_plate_id":null,"plate_ids":[90105,90106],"name":""},"geometry":{"type":"LineString","coordinates":[[89.183,25.904],[88.631,25.928],[88.079,25.95],[87.527,25.971],[86.974,25.989],[86.422,26.005],[85.869,26.019],[85.316,26.031],[84.763,26.04],[84.21,26.048],[83.657,26.053],[83.104,26.057],[82.55,26.058],[81.997,26.057],[81.444,26.054],[81.483,26.469],[81.522,26.884],[81.561,27.299],[80.999,27.294],[80.438,27.287],[79.876,27.277],[79.315,27.266],[78.753,27.252],[78.192,27.236],[77.631,27.217],[77.07,27.197],[76.51,27.174],[75.949,27.149],[75.389,27.121],[74.83,27.092],[74.27,27.06],[73.711,27.026],[73.152,26.99],[72.594,26.952],[72.036,26.911],[71.478,26.868],[70.921,26.823],[70.364,26.776],[69.808,26.727],[69.252,26.676],[68.697,26.622],[68.142,26.566],[67.588,26.508],[67.034,26.448],[66.481,26.386],[65.929,26.322],[65.377,26.255],[64.826,26.187],[64.275,26.116],[63.725,26.043],[63.176,25.969],[62.628,25.892],[62.08,25.813],[61.533,25.732],[61.452,26.205],[61.371,26.677],[61.289,27.15],[61.206,27.622],[61.123,28.095],[61.038,28.568],[60.953,29.04],[60.868,29.512],[60.781,29.985],[60.694,30.457],[60.125,30.426],[59.556,30.393],[58.988,30.357],[58.42,30.319],[57.853,30.279],[57.286,30.236],[56.72,30.19],[56.154,30.142],[55.589,30.092],[55.025,30.039],[54.461,29.984],[53.897,29.926],[53.335,29.867],[52.773,29.804],[52.212,29.74],[51.651,29.672],[51.091,29.603],[50.532,29.531],[49.974,29.457],[49.417,29.381],[48.861,29.302],[48.305,29.221],[47.75,29.138],[47.196,29.052],[46.644,28.964],[46.092,28.874],[45.541,28.782],[44.991,28.687],[44.442,28.59],[43.894,28.491],[43.347,28.39],[42.801,28.287],[42.256,28.181],[41.713,28.073],[41.17,27.963],[40.629,27.851],[40.088,27.737],[39.549,27.621],[39.011,27.503],[38.474,27.383],[37.938,27.26],[37.404,27.136],[36.871,27.009],[36.338,26.881],[35.808,26.75],[35.278,26.618],[34.749,26.484],[34.222,26.347],[33.696,26.209],[33.172,26.069],[32.648,25.927],[32.126,25.783],[31.605,25.637]]}},{"type":"Feature","properties":{"boundary_type":"ridge","feature_type":"gpml:MidOceanRidge","polarity":null,"overriding_plate_id":null,"subducting_plate_id":null,"plate_ids":[90106,90107],"name":""},"geometry":{"type":"LineString","coordinates":[[31.942,26.129],[31.612,26.517],[31.28,26.904],[30.945,27.289],[30.609,27.675],[30.27,28.059],[29.928,28.442],[29.584,28.825],[29.237,29.207],[28.888,29.587],[28.537,29.967],[28.182,30.346],[27.825,30.724],[28.26,31.025],[28.699,31.325],[29.14,31.623],[29.584,31.919],[30.03,32.214],[30.48,32.508],[30.149,32.918],[29.815,33.328],[29.478,33.737],[29.138,34.145],[28.795,34.552],[28.448,34.958],[28.098,35.363],[27.744,35.767],[27.386,36.17],[27.025,36.572],[26.66,36.973],[26.291,37.373],[25.919,37.771],[25.542,38.168],[25.161,38.565],[24.776,38.959],[24.386,39.353],[23.993,39.745],[23.594,40.136],[23.191,40.526],[22.784,40.914],[22.371,41.301],[21.954,41.686],[21.531,42.069],[21.104,42.452],[20.671,42.832],[20.233,43.211],[19.79,43.588],[19.34,43.963],[18.886,44.337],[18.425,44.709],[17.958,45.079],[17.486,45.447],[17.007,45.813],[16.522,46.177],[16.03,46.539],[15.532,46.899],[15.027,47.256],[14.515,47.612],[13.997,47.965],[13.471,48.315],[12.938,48.663],[12.397,49.009],[11.849,49.352],[11.294,49.693],[10.73,50.031],[10.159,50.366],[9.579,50.698],[8.991,51.028],[8.395,51.354],[7.791,51.677],[7.177,51.997],[6.555,52.314],[5.924,52.628],[5.284,52.938],[4.635,53.245],[3.976,53.548],[3.308,53.847],[2.631,54.143],[1.943,54.435],[1.246,54.723],[0.539,55.007],[-0.178,55.286],[-0.905,55.562],[-1.642,55.833],[-2.39,56.099],[-3.148,56.361],[-3.916,56.619],[-4.694,56.871],[-5.484,57.119],[-6.283,57.361],[-7.094,57.599],[-7.914,57.831],[-8.746,58.058],[-9.587,58.279],[-10.44,58.495],[-11.302,58.705],[-12.175,58.909],[-13.058,59.107],[-13.952,59.3],[-14.855,59.486],[-15.768,59.665],[-16.691,59.839],[-17.623,60.005],[-18.565,60.165],[-19.515,60.319],[-20.474,60.465],[-21.442,60.605],[-22.418,60.737],[-23.402,60.863],[-24.393,60.981],[-25.392,61.092],[-26.397,61.195],[-27.409,61.291],[-28.427,61.379],[-29.45,61.46],[-30.478,61.533],[-31.511,61.598],[-32.548,61.656],[-33.588,61.705],[-34.632,61.747],[-35.678,61.781],[-36.726,61.806],[-37.776,61.824],[-38.827,61.834],[-39.878,61.835],[-40.928,61.829],[-41.979,61.815],[-43.027,61.792],[-44.074,61.762],[-45.119,61.724],[-46.161,61.677],[-47.2,61.623],[-48.234,61.561],[-49.264,61.492],[-50.29,61.414],[-51.31,61.329],[-52.324,61.236],[-53.332,61.136],[-54.333,61.028],[-55.328,60.913],[-56.315,60.791]]}},{"type":"Feature","properties":{"boundary_type":"ridge","feature_type":"gpml:MidOceanRidge","polarity":null,"overriding_plate_id":null,"subducting_plate_id":null,"plate_ids":[701,90107],"name":""},"geometry":{"type":"LineString","coordinates":[[-8.402,-47.029],[-9.133,-47.02],[-9.864,-47.007],[-10.594,-46.989],[-11.324,-46.967],[-12.053,-46.94],[-12.781,-46.908],[-13.508,-46.872],[-14.234,-46.831],[-14.96,-46.785],[-15.683,-46.735],[-16.406,-46.681],[-17.127,-46.622],[-17.846,-46.558],[-18.563,-46.49],[-19.279,-46.417],[-19.993,-46.34],[-20.704,-46.258],[-21.414,-46.173],[-22.121,-46.082],[-22.826,-45.988],[-23.528,-45.889],[-24.228,-45.785],[-24.15,-45.293],[-24.074,-44.801],[-23.998,-44.308],[-23.925,-43.816],[-23.852,-43.323],[-23.78,-42.831],[-23.71,-42.338],[-23.64,-41.846],[-23.572,-41.353],[-23.505,-40.86],[-23.439,-40.368],[-23.373,-39.875],[-23.309,-39.382],[-23.246,-38.889],[-23.183,-38.396],[-23.121,-37.903],[-23.06,-37.41],[-23.0,-36.917],[-22.941,-36.424],[-22.882,-35.931],[-22.824,-35.438],[-22.767,-34.945],[-22.711,-34.452],[-22.655,-33.959],[-22.6,-33.466],[-22.545,-32.972],[-22.491,-32.479],[-22.438,-31.986],[-22.385,-31.493],[-22.333,-30.999],[-22.281,-30.506],[-22.23,-30.013],[-22.179,-29.519],[-22.129,-29.026],[-22.079,-28.533],[-22.03,-28.039],[-21.981,-27.546],[-21.933,-27.052],[-21.885,-26.559],[-22.394,-26.419],[-22.902,-26.276],[-23.408,-26.132],[-23.913,-25.987],[-24.417,-25.839],[-24.92,-25.69],[-25.421,-25.539],[-25.922,-25.386],[-26.42,-25.232],[-26.918,-25.076],[-27.414,-24.919],[-27.91,-24.759],[-28.403,-24.598],[-28.896,-24.436],[-29.387,-24.272],[-29.877,-24.106],[-30.366,-23.939],[-30.853,-23.77],[-31.339,-23.6],[-31.159,-23.135],[-30.979,-22.669],[-30.801,-22.204],[-30.624,-21.738],[-30.448,-21.272],[-30.274,-20.806],[-30.1,-20.34],[-29.927,-19.874],[-29.756,-19.407],[-29.585,-18.941],[-29.415,-18.474],[-29.247,-18.007],[-29.079,-17.54],[-28.912,-17.072],[-28.746,-16.605],[-28.58,-16.137],[-28.416,-15.67],[-28.252,-15.202],[-28.089,-14.734],[-27.927,-14.266],[-27.765,-13.798],[-27.604,-13.329],[-27.443,-12.861],[-27.283,-12.393],[-27.124,-11.924],[-26.965,-11.455],[-26.807,-10.987],[-26.649,-10.518],[-26.492,-10.049],[-26.336,-9.58],[-26.179,-9.111],[-26.023,-8.642],[-25.868,-8.173],[-25.713,-7.704],[-25.558,-7.234],[-25.403,-6.765],[-25.249,-6.296],[-25.095,-5.826],[-24.941,-5.357],[-24.788,-4.887],[-24.635,-4.418],[-24.482,-3.948],[-24.329,-3.479],[-24.176,-3.009],[-24.024,-2.539],[-23.871,-2.07],[-23.719,-1.6],[-23.566,-1.13],[-23.414,-0.661],[-23.262,-0.191],[-23.11,0.279],[-22.958,0.748],[-22.805,1.218],[-22.653,1.688],[-22.501,2.157],[-22.348,2.627],[-22.195,3.097],[-22.043,3.566],[-21.89,4.036],[-21.737,4.505],[-21.584,4.975],[-21.43,5.444],[-21.276,5.914],[-21.122,6.383]]}},{"type":"Feature","properties":{"boundary_type":"ridge","feature_type":"gpml:MidOceanRidge","polarity":null,"overriding_plate_id":null,"subducting_plate_id":null,"plate_ids":[90106,90107],"name":""},"geometry":{"type":"LineString","coordinates":[[31.942,26.129],[31.773,25.883],[31.605,25.637]]}},{"type":"Feature","properties":{"boundary_type":"ridge","feature_type":"gpml:MidOceanRidge","polarity":null,"overriding_plate_id":null,"subducting_plate_id":null,"plate_ids":[90105,90107],"name":""},"geometry":{"type":"LineString","coordinates":[[31.605,25.637],[31.327,25.227],[31.05,24.816],[30.776,24.405],[30.503,23.993],[30.232,23.58],[29.963,23.168],[29.695,22.754],[29.429,22.341],[29.164,21.926],[28.901,21.512],[28.64,21.097],[28.38,20.681],[28.121,20.266],[27.864,19.85],[27.608,19.433],[27.354,19.016],[27.1,18.599],[26.848,18.181],[26.597,17.763],[26.348,17.345],[26.099,16.927],[25.852,16.508],[25.605,16.089],[25.36,15.669],[25.116,15.25],[24.872,14.83],[25.302,14.559],[25.731,14.287],[26.158,14.014],[26.585,13.741],[27.01,13.467],[27.435,13.192],[27.859,12.917],[28.281,12.641],[28.703,12.364],[29.124,12.086],[29.544,11.808],[29.963,11.53],[30.382,11.25],[30.799,10.971],[31.216,10.69],[31.632,10.409],[32.047,10.128],[32.462,9.846],[32.875,9.563],[33.289,9.28],[33.701,8.996],[34.113,8.712],[34.524,8.428],[34.935,8.143],[34.66,7.732],[34.387,7.32],[34.113,6.908],[33.841,6.496],[33.568,6.083],[33.297,5.671],[33.025,5.258],[32.754,4.846],[32.483,4.433],[32.213,4.02],[31.943,3.607],[31.673,3.194],[31.403,2.781],[31.133,2.368],[30.864,1.954],[30.595,1.541],[30.326,1.128],[30.056,0.714],[29.787,0.301],[29.518,-0.112],[29.249,-0.526],[28.98,-0.939],[28.711,-1.352],[28.442,-1.766],[28.173,-2.179],[27.903,-2.592],[27.634,-3.005],[27.364,-3.418],[27.094,-3.831],[26.823,-4.244],[26.553,-4.657],[26.282,-5.07],[26.01,-5.483],[25.739,-5.895],[25.467,-6.307],[25.194,-6.72],[24.921,-7.132],[24.648,-7.544],[24.374,-7.955],[24.099,-8.367],[23.824,-8.778],[23.548,-9.189],[23.272,-9.6],[22.995,-10.011],[22.717,-10.422],[22.439,-10.832],[22.159,-11.242],[21.879,-11.652],[21.599,-12.061],[21.317,-12.47],[21.034,-12.879],[20.751,-13.288],[20.466,-13.696],[20.181,-14.104],[19.894,-14.512],[19.607,-14.919],[19.318,-15.326],[19.028,-15.733],[18.737,-16.139],[18.445,-16.545],[18.152,-16.95],[17.857,-17.355],[17.561,-17.759],[17.264,-18.163],[16.965,-18.567],[16.665,-18.97],[16.364,-19.373],[16.748,-19.683],[17.134,-19.993],[17.522,-20.302],[17.911,-20.61],[18.301,-20.918],[18.693,-21.224],[19.087,-21.529],[19.483,-21.834],[19.88,-22.137],[20.279,-22.44],[20.679,-22.742],[21.082,-23.042],[21.486,-23.342],[21.892,-23.64],[22.3,-23.938],[22.709,-24.234],[23.121,-24.53],[22.764,-24.9],[22.404,-25.27],[22.043,-25.639],[21.679,-26.007],[21.313,-26.375],[20.944,-26.741],[20.573,-27.106],[20.2,-27.47],[19.824,-27.834],[19.446,-28.196],[19.065,-28.557],[18.682,-28.917],[18.296,-29.276],[17.907,-29.634],[17.515,-29.991],[17.121,-30.347],[16.723,-30.701],[16.323,-31.055],[15.92,-31.406],[15.514,-31.757],[15.104,-32.107],[14.692,-32.455],[14.276,-32.801],[13.857,-33.147],[13.435,-33.491],[13.01,-33.833],[12.581,-34.174],[12.148,-34.514],[11.712,-34.852],[11.273,-35.188],[10.829,-35.523],[10.382,-35.856],[9.932,-36.188],[10.287,-36.557],[10.645,-36.925],[11.007,-37.293],[11.372,-37.659],[11.741,-38.024],[12.114,-38.388],[12.49,-38.75],[12.871,-39.112],[13.255,-39.472],[12.783,-39.814],[12.307,-40.153],[11.826,-40.491],[11.34,-40.827],[10.849,-41.161],[10.353,-41.492],[9.852,-41.822],[9.345,-42.149],[8.834,-42.474],[8.317,-42.797],[7.795,-43.117],[7.267,-43.436],[6.734,-43.751],[6.195,-44.064],[5.651,-44.375],[5.101,-44.683],[4.544,-44.988],[3.982,-45.29],[3.414,-45.59],[2.84,-45.887],[2.26,-46.181],[1.673,-46.472],[1.081,-46.76],[0.481,-47.044],[-0.124,-47.326],[-0.736,-47.605],[-1.354,-47.88],[-1.98,-48.152],[-2.611,-48.42],[-3.249,-48.685],[-3.894,-48.946],[-4.546,-49.204],[-5.205,-49.458],[-5.87,-49.708],[-6.542,-49.955],[-7.221,-50.197],[-7.907,-50.436]]}},{"type":"Feature","properties":{"boundary_type":"subduction","feature_type":"gpml:SubductionZone","polarity":"Left","overriding_plate_id":10103,"subducting_plate_id":90106,"plate_ids":[10103,90106],"name":""},"geometry":{"type":"LineString","coordinates":[[-88.607,65.942],[-88.453,66.389],[-88.293,66.835],[-88.127,67.281],[-87.955,67.727],[-87.776,68.172],[-87.59,68.618],[-87.396,69.063],[-87.195,69.508],[-87.151,70.006],[-87.104,70.504],[-87.056,71.003],[-87.004,71.501],[-86.95,71.999],[-86.893,72.498],[-86.833,72.996],[-86.769,73.494],[-86.702,73.993],[-86.63,74.491],[-86.554,74.989],[-86.472,75.487],[-86.385,75.985],[-86.291,76.483],[-86.191,76.981],[-87.649,77.324],[-89.186,77.659],[-90.806,77.984],[-92.514,78.3],[-94.314,78.604],[-96.209,78.898],[-98.203,79.179],[-100.3,79.446],[-102.501,79.699],[-104.809,79.936],[-107.222,80.157],[-109.741,80.359],[-112.362,80.543],[-115.08,80.706],[-117.888,80.849],[-120.776,80.969],[-123.734,81.065],[-126.563,80.881],[-129.274,80.675],[-131.864,80.45],[-134.331,80.206],[-136.675,79.945],[-138.899,79.669],[-141.005,79.378],[-142.998,79.075],[-144.882,78.758],[-146.662,78.431],[-148.345,78.094],[-149.935,77.746],[-151.437,77.391],[-152.858,77.027],[-154.201,76.656],[-155.473,76.279],[-156.677,75.895],[-157.818,75.506],[-158.9,75.111],[-159.928,74.711],[-160.904,74.308],[-161.831,73.899],[-161.996,73.426],[-162.151,72.953],[-162.298,72.479],[-162.437,72.006],[-162.57,71.532],[-162.696,71.058],[-162.816,70.584],[-162.931,70.111],[-163.041,69.637],[-163.146,69.163],[-163.246,68.688],[-163.342,68.214],[-163.435,67.74],[-163.523,67.266],[-163.608,66.791],[-163.073,66.376],[-162.555,65.959],[-162.054,65.54],[-161.569,65.119],[-161.099,64.697],[-160.644,64.274],[-160.202,63.849],[-159.773,63.423],[-159.357,62.995],[-158.953,62.567],[-158.56,62.137],[-158.179,61.706]]}},{"type":"Feature","properties":{"boundary_type":"subduction","feature_type":"gpml:SubductionZone","polarity":"Left","overriding_plate_id":101,"subducting_plate_id":501001,"plate_ids":[101,501001],"name":"Baltica_SZ"},"geometry":{"type":"LineString","coordinates":[[-176.757,39.854],[-176.685,39.392],[-176.614,38.929],[-176.544,38.467],[-176.474,38.004],[-176.406,37.542],[-176.338,37.079],[-176.272,36.616],[-176.195,36.153],[-176.119,35.69],[-176.043,35.226],[-175.969,34.763],[-175.895,34.3],[-175.823,33.836],[-175.751,33.373],[-175.68,32.909],[-175.609,32.446],[-175.539,31.982],[-175.542,31.516],[-175.545,31.05],[-175.547,30.584],[-175.55,30.118],[-175.552,29.652],[-175.555,29.186],[-175.557,28.72],[-175.56,28.254],[-175.562,27.789],[-175.564,27.323],[-175.567,26.857],[-175.569,26.391],[-175.544,25.905],[-175.519,25.418],[-175.494,24.932],[-175.469,24.446],[-175.445,23.96],[-175.42,23.474],[-175.396,22.987],[-175.372,22.501],[-175.348,22.015],[-175.325,21.529],[-175.352,21.145],[-175.378,20.762],[-175.405,20.379]]}},{"type":"Feature","properties":{"boundary_type":"subduction","feature_type":"gpml:SubductionZone","polarity":"Left","overriding_plate_id":101,"subducting_plate_id":501,"plate_ids":[101,501],"name":"Baltica_SZ"},"geometry":{"type":"LineString","coordinates":[[-175.405,20.379],[-175.437,19.913],[-175.469,19.447],[-175.501,18.981],[-175.533,18.516],[-175.564,18.05],[-175.595,17.584],[-175.626,17.118],[-175.657,16.652],[-175.688,16.186],[-175.719,15.72],[-175.749,15.255],[-175.78,14.789],[-175.862,14.303],[-175.944,13.817],[-176.026,13.331],[-176.107,12.845],[-176.188,12.359],[-176.269,11.873],[-176.349,11.387],[-176.43,10.902],[-176.51,10.416],[-176.589,9.929],[-176.669,9.443],[-176.748,8.957],[-176.752,8.476],[-176.755,7.994],[-176.759,7.512],[-176.763,7.03],[-176.766,6.548],[-176.77,6.066],[-176.774,5.585],[-176.778,5.103],[-176.781,4.621],[-176.785,4.139],[-176.789,3.657]]}},{"type":"Feature","properties":{"boundary_type":"ridge","feature_type":"gpml:MidOceanRidge","polarity":null,"overriding_plate_id":null,"subducting_plate_id":null,"plate_ids":[701,811001],"name":""},"geometry":{"type":"LineString","coordinates":[[-57.722,14.727],[-57.253,14.634],[-56.784,14.54],[-56.316,14.445],[-55.848,14.349],[-55.38,14.252],[-54.913,14.155],[-54.447,14.056]]}},{"type":"Feature","properties":{"boundary_type":"ridge","feature_type":"gpml:MidOceanRidge","polarity":null,"overriding_plate_id":null,"subducting_plate_id":null,"plate_ids":[701,80101],"name":""},"geometry":{"type":"LineString","coordinates":[[-54.447,14.056],[-53.999,13.96],[-53.552,13.864],[-53.105,13.767],[-52.658,13.669],[-52.212,13.57],[-51.766,13.471],[-51.321,13.37],[-50.876,13.269],[-51.017,12.826],[-51.157,12.383],[-51.297,11.941],[-51.437,11.498],[-51.576,11.055],[-51.715,10.612],[-51.853,10.168],[-51.991,9.725],[-51.489,9.691],[-50.988,9.657],[-50.486,9.622],[-49.985,9.585],[-49.483,9.549],[-48.982,9.511],[-48.481,9.473],[-47.98,9.434],[-47.479,9.395],[-46.978,9.354],[-46.478,9.313],[-45.977,9.272],[-45.477,9.229],[-44.977,9.186],[-44.476,9.142],[-43.976,9.098],[-43.476,9.053],[-42.977,9.007],[-42.477,8.96],[-41.977,8.913],[-41.478,8.865],[-40.979,8.817],[-40.48,8.768],[-39.981,8.718],[-39.482,8.668],[-38.983,8.616],[-38.484,8.565],[-37.986,8.512],[-37.488,8.459],[-36.989,8.406],[-36.491,8.351],[-35.994,8.296],[-35.496,8.241],[-34.998,8.185],[-34.501,8.128],[-34.003,8.071],[-33.506,8.013],[-33.009,7.954],[-32.512,7.895],[-32.015,7.835],[-31.519,7.775],[-31.022,7.714],[-30.526,7.653],[-30.03,7.591],[-29.534,7.528],[-29.038,7.465],[-28.542,7.401],[-28.046,7.337],[-27.551,7.272],[-27.055,7.207],[-26.56,7.141],[-26.065,7.075],[-25.57,7.008],[-25.075,6.941],[-24.581,6.873],[-24.086,6.804],[-23.592,6.735],[-23.098,6.666],[-22.604,6.596],[-22.11,6.525],[-21.616,6.455],[-21.122,6.383]]}},{"type":"Feature","properties":{"boundary_type":"ridge","feature_type":"gpml:MidOceanRidge","polarity":null,"overriding_plate_id":null,"subducting_plate_id":null,"plate_ids":[80101,90107],"name":""},"geometry":{"type":"LineString","coordinates":[[-21.122,6.383],[-20.826,6.34]]}},{"type":"Feature","properties":{"boundary_type":"ridge","feature_type":"gpml:MidOceanRidge","polarity":null,"overriding_plate_id":null,"subducting_plate_id":null,"plate_ids":[80101,811001],"name":""},"geometry":{"type":"LineString","coordinates":[[-31.286,47.551],[-31.812,47.205],[-32.331,46.856],[-32.843,46.506],[-33.349,46.152],[-33.848,45.797],[-34.341,45.44],[-34.828,45.08],[-35.308,44.719],[-35.783,44.355],[-36.251,43.99],[-36.714,43.622],[-37.172,43.253],[-37.623,42.882],[-38.07,42.509],[-38.511,42.134],[-38.947,41.758],[-39.377,41.38],[-39.803,41.001],[-40.224,40.62],[-40.64,40.238],[-41.052,39.854],[-41.458,39.468],[-41.861,39.082],[-42.259,38.693],[-42.652,38.304],[-43.042,37.913],[-43.427,37.521],[-43.808,37.128],[-44.186,36.733],[-43.777,36.41],[-43.372,36.086],[-42.97,35.76],[-42.571,35.433],[-42.176,35.104],[-41.783,34.775],[-41.394,34.444],[-41.764,34.049],[-42.131,33.653],[-42.494,33.257],[-42.854,32.859],[-43.21,32.46],[-43.564,32.06],[-43.914,31.659],[-44.262,31.258],[-44.606,30.855],[-44.948,30.452],[-45.287,30.047],[-45.623,29.642],[-45.956,29.236],[-46.287,28.829],[-45.894,28.582],[-45.502,28.335],[-45.113,28.086],[-44.725,27.836],[-44.34,27.586],[-43.956,27.334],[-44.309,26.945],[-44.659,26.556],[-45.007,26.166],[-45.353,25.775],[-45.697,25.384],[-46.038,24.991],[-46.377,24.598],[-46.714,24.204],[-47.049,23.809],[-47.382,23.413],[-47.713,23.017],[-48.042,22.62],[-48.369,22.223],[-48.695,21.825],[-49.018,21.426],[-49.34,21.026],[-49.66,20.626],[-49.978,20.226],[-50.295,19.824],[-50.61,19.423],[-50.923,19.02],[-51.235,18.618],[-51.546,18.214],[-51.855,17.81],[-52.162,17.406],[-52.469,17.001],[-52.774,16.596],[-53.077,16.19],[-53.308,15.835],[-53.537,15.48],[-53.766,15.124],[-53.993,14.768],[-54.22,14.412],[-54.447,14.056]]}},{"type":"Feature","properties":{"boundary_type":"subduction","feature_type":"gpml:SubductionZone","polarity":"Right","overriding_plate_id":80101,"subducting_plate_id":90107,"plate_ids":[80101,90107],"name":""},"geometry":{"type":"LineString","coordinates":[[-14.922,18.426],[-15.065,18.015],[-15.208,17.603],[-15.35,17.192],[-15.492,16.781],[-15.632,16.369],[-15.773,15.957],[-16.005,15.51],[-16.237,15.063],[-16.468,14.616],[-16.697,14.169],[-16.926,13.721],[-17.154,13.273],[-17.381,12.825],[-17.608,12.377],[-17.833,11.928],[-18.058,11.48],[-18.282,11.031],[-18.506,10.582],[-18.728,10.133],[-18.95,9.683],[-19.172,9.234],[-19.393,8.784],[-19.633,8.377],[-19.873,7.97],[-20.112,7.563],[-20.35,7.155],[-20.589,6.748],[-20.826,6.34]]}},{"type":"Feature","properties":{"boundary_type":"ridge","feature_type":"gpml:MidOceanRidge","polarity":null,"overriding_plate_id":null,"subducting_plate_id":null,"plate_ids":[701,811001],"name":""},"geometry":{"type":"LineString","coordinates":[[-80.019,13.989],[-79.525,14.063],[-79.03,14.135],[-78.535,14.206],[-78.039,14.277],[-77.544,14.346],[-77.048,14.415],[-76.551,14.482],[-76.055,14.548],[-75.558,14.614],[-75.061,14.678],[-74.563,14.741],[-74.065,14.803],[-73.567,14.864],[-73.069,14.924],[-72.57,14.983],[-72.071,15.041],[-71.572,15.098],[-71.073,15.153],[-70.573,15.208],[-70.073,15.261],[-69.573,15.313],[-69.073,15.364],[-68.572,15.415],[-68.071,15.464],[-67.57,15.511],[-67.559,15.135],[-67.547,14.76],[-67.536,14.384],[-67.525,14.008],[-67.036,14.053],[-66.548,14.098],[-66.059,14.141],[-65.57,14.184],[-65.08,14.225],[-64.591,14.266],[-64.101,14.306],[-63.611,14.344],[-63.122,14.382],[-62.631,14.418],[-62.141,14.454],[-61.651,14.488],[-61.16,14.522],[-60.669,14.554],[-60.178,14.586],[-59.687,14.616],[-59.196,14.645],[-58.705,14.674],[-58.213,14.701],[-57.722,14.727]]}},{"type":"Feature","properties":{"boundary_type":"subduction","feature_type":"gpml:SubductionZone","polarity":"Left","overriding_plate_id":501,"subducting_plate_id":501001,"plate_ids":[501,501001],"name":""},"geometry":{"type":"LineString","coordinates":[[-175.405,20.379],[-175.66,19.994],[-175.914,19.609],[-176.167,19.223],[-176.418,18.837],[-176.668,18.451],[-176.917,18.064],[-177.165,17.677],[-177.48,17.282],[-177.794,16.886],[-178.106,16.49],[-178.417,16.093],[-178.727,15.696],[-179.036,15.299],[-179.343,14.901],[-179.649,14.502],[-179.955,14.103],[179.741,13.704],[179.438,13.305],[179.136,12.905],[178.835,12.504],[178.535,12.104],[178.235,11.703],[177.937,11.302],[177.602,10.937],[177.268,10.572],[176.935,10.207],[176.602,9.841],[176.27,9.475],[175.939,9.108],[175.609,8.742],[175.279,8.375],[174.95,8.008],[174.621,7.64],[174.293,7.272],[173.966,6.904],[173.639,6.536],[173.313,6.168],[172.987,5.799],[172.661,5.43],[172.336,5.062],[172.011,4.692],[171.687,4.323],[171.362,3.954],[171.039,3.584],[170.715,3.215],[170.392,2.845],[170.069,2.475],[169.746,2.105],[169.423,1.735],[169.1,1.365],[168.777,0.995],[168.455,0.625],[168.132,0.255],[167.8,-0.093],[167.467,-0.441],[167.134,-0.789],[166.801,-1.136],[166.468,-1.484],[166.134,-1.832],[165.801,-2.179],[165.468,-2.527],[165.134,-2.874],[164.8,-3.222],[164.466,-3.569],[164.132,-3.916],[163.797,-4.263],[163.462,-4.61],[163.127,-4.956],[162.791,-5.303],[162.456,-5.649],[162.119,-5.995],[161.782,-6.341],[161.445,-6.687],[161.107,-7.033],[160.769,-7.378],[160.43,-7.723],[160.091,-8.067],[159.751,-8.412],[159.739,-8.423]]}}]}