{"type":"FeatureCollection","meta":{"model":"Cao2024","reconstruction_time_ma":1270.0,"anchor_plate_id":0,"pygplates_version":"1.0.0","tessellate_degrees":0.5,"polarity_convention":"gpml:subductionPolarity. 'Left'/'Right' names the side of the line, in vertex order, on which the OVERRIDING plate lies. Triangles are drawn on that side.","antimeridian":"Lines are NOT split at +/-180 deg. The renderer works in 3D unit vectors where the dateline is not special; splitting would only add spurious breaks. Do not treat this as RFC 7946 GIS-ready 2D data."},"features":[{"type":"Feature","properties":{"boundary_type":"subduction","feature_type":"gpml:SubductionZone","polarity":"Right","overriding_plate_id":801,"subducting_plate_id":90107,"plate_ids":[801,90107],"name":"NorthChina_SZ"},"geometry":{"type":"LineString","coordinates":[[-63.257,41.186],[-62.889,40.801],[-62.525,40.414],[-62.165,40.026],[-61.809,39.637],[-61.458,39.247],[-61.11,38.856],[-60.766,38.464],[-60.426,38.071],[-60.089,37.677],[-60.12,37.213],[-60.151,36.749],[-60.182,36.286],[-60.212,35.822],[-60.242,35.358],[-60.272,34.894],[-60.301,34.43],[-60.33,33.966],[-60.358,33.503],[-60.387,33.039],[-60.415,32.575],[-60.442,32.111],[-60.47,31.647],[-60.563,31.406],[-60.656,31.164]]}},{"type":"Feature","properties":{"boundary_type":"subduction","feature_type":"gpml:SubductionZone","polarity":"Left","overriding_plate_id":101,"subducting_plate_id":90106,"plate_ids":[101,90106],"name":"Eastern_Laurentia_SZ"},"geometry":{"type":"LineString","coordinates":[[169.952,40.663],[169.926,40.187],[169.9,39.712],[169.874,39.236],[169.849,38.76],[169.824,38.284],[169.8,37.808],[169.776,37.332],[169.752,36.857],[169.728,36.381],[169.705,35.905],[169.682,35.429],[169.659,34.953],[169.636,34.477],[169.614,34.001],[169.592,33.526],[169.57,33.05],[169.548,32.574],[169.527,32.098],[169.506,31.622],[169.559,31.134],[169.612,30.645],[169.664,30.157],[169.715,29.668],[169.766,29.18],[169.817,28.691],[169.867,28.202],[169.916,27.714],[169.965,27.225],[170.014,26.737],[170.062,26.248],[170.11,25.759],[170.158,25.271],[170.205,24.782],[170.287,24.299],[170.369,23.816],[170.451,23.333],[170.531,22.851],[170.612,22.368],[170.691,21.885],[170.77,21.402],[170.849,20.919],[170.927,20.435],[171.004,19.952],[171.082,19.469],[171.158,18.986],[171.234,18.503],[171.31,18.019],[171.385,17.536],[171.46,17.053],[171.535,16.57],[171.69,16.167],[171.844,15.765],[171.997,15.362],[172.15,14.959],[172.303,14.557],[172.454,14.154],[172.606,13.751]]}},{"type":"Feature","properties":{"boundary_type":"subduction","feature_type":"gpml:SubductionZone","polarity":"Left","overriding_plate_id":101,"subducting_plate_id":911001,"plate_ids":[101,911001],"name":"Eastern_Laurentia_SZ"},"geometry":{"type":"LineString","coordinates":[[172.606,13.751],[172.763,13.33],[172.92,12.909],[173.076,12.487],[173.232,12.066],[173.388,11.645],[173.543,11.223],[173.697,10.802],[173.851,10.38],[174.005,9.959],[174.353,9.648],[174.701,9.337],[175.048,9.025],[175.394,8.714],[175.74,8.402],[176.085,8.089],[176.43,7.777],[176.774,7.464],[177.118,7.15],[177.461,6.837],[177.868,6.588],[178.274,6.339],[178.68,6.089],[179.085,5.839],[179.49,5.589],[179.895,5.338],[-179.701,5.088],[-179.297,4.837],[-178.893,4.585],[-178.49,4.334],[-178.086,4.082],[-177.683,3.83],[-177.291,3.7],[-176.899,3.569],[-176.506,3.438],[-176.114,3.306]]}},{"type":"Feature","properties":{"boundary_type":"subduction","feature_type":"gpml:SubductionZone","polarity":"Left","overriding_plate_id":801,"subducting_plate_id":90106,"plate_ids":[801,90106],"name":"NorthwesternMawson_SZ"},"geometry":{"type":"LineString","coordinates":[[-84.696,75.231],[-85.017,75.67],[-85.356,76.108],[-85.718,76.546],[-86.103,76.983],[-86.515,77.42],[-88.046,77.752],[-89.66,78.076],[-91.362,78.389],[-93.155,78.693],[-95.044,78.985],[-97.032,79.265],[-99.122,79.531],[-101.318,79.783],[-103.619,80.02],[-106.241,80.13],[-108.915,80.22],[-111.633,80.289],[-114.383,80.336],[-117.154,80.361],[-119.932,80.364],[-122.706,80.345],[-125.462,80.303],[-128.189,80.24],[-130.876,80.155],[-133.511,80.049],[-136.255,80.017],[-138.976,79.963],[-141.662,79.886],[-144.303,79.789],[-146.888,79.67],[-149.411,79.531],[-151.864,79.373],[-154.242,79.197],[-156.541,79.003],[-158.758,78.792],[-160.891,78.566],[-162.94,78.325],[-165.017,78.14],[-167.028,77.94],[-168.973,77.727],[-170.851,77.5],[-172.661,77.261],[-174.404,77.01],[-176.08,76.748],[-177.691,76.475],[-179.239,76.193],[179.275,75.901],[177.849,75.6],[176.481,75.291],[175.169,74.975],[174.209,74.602],[173.294,74.225],[172.421,73.844],[171.587,73.46],[170.79,73.073],[170.028,72.683],[169.298,72.29],[168.599,71.894],[167.929,71.497]]}},{"type":"Feature","properties":{"boundary_type":"subduction","feature_type":"gpml:SubductionZone","polarity":"Right","overriding_plate_id":801,"subducting_plate_id":90106,"plate_ids":[801,90106],"name":"westernWestAustralia_SZ"},"geometry":{"type":"LineString","coordinates":[[-84.696,75.231],[-83.163,74.986],[-81.679,74.731],[-80.243,74.466],[-78.855,74.192],[-77.514,73.91],[-76.218,73.62],[-74.967,73.322],[-73.759,73.017],[-72.593,72.705],[-71.468,72.386],[-70.381,72.061],[-69.333,71.731],[-68.32,71.395],[-67.621,70.97],[-66.951,70.542],[-66.309,70.112],[-65.693,69.68],[-65.101,69.246],[-64.533,68.81],[-63.987,68.372],[-63.462,67.932],[-62.956,67.491],[-62.468,67.048],[-61.998,66.604],[-61.545,66.159]]}},{"type":"Feature","properties":{"boundary_type":"subduction","feature_type":"gpml:SubductionZone","polarity":"Right","overriding_plate_id":801,"subducting_plate_id":90107,"plate_ids":[801,90107],"name":"westernWestAustralia_SZ"},"geometry":{"type":"LineString","coordinates":[[-61.545,66.159],[-61.093,65.697],[-60.657,65.234],[-60.236,64.77],[-59.829,64.304],[-59.436,63.838],[-59.055,63.37],[-58.958,62.886],[-58.865,62.402],[-58.774,61.918],[-58.686,61.433],[-58.601,60.949],[-58.518,60.464],[-58.438,59.98],[-58.36,59.495],[-58.284,59.011],[-58.21,58.526],[-58.139,58.042],[-58.069,57.557],[-58.001,57.072],[-57.935,56.587],[-57.87,56.103],[-57.807,55.618],[-57.746,55.133],[-58.01,54.662],[-58.268,54.191],[-58.52,53.719],[-58.767,53.246],[-59.008,52.773],[-59.244,52.3],[-59.475,51.826],[-59.701,51.351],[-59.922,50.877],[-60.139,50.401],[-60.352,49.926],[-60.561,49.45],[-60.765,48.973],[-60.943,48.488],[-61.117,48.003],[-61.287,47.518],[-61.455,47.032],[-61.619,46.546],[-61.781,46.06],[-61.94,45.573],[-62.096,45.087],[-62.25,44.6],[-62.4,44.113],[-62.549,43.625],[-62.695,43.138],[-62.839,42.65],[-62.98,42.162],[-63.12,41.674],[-63.257,41.186]]}},{"type":"Feature","properties":{"boundary_type":"ridge","feature_type":"gpml:MidOceanRidge","polarity":null,"overriding_plate_id":null,"subducting_plate_id":null,"plate_ids":[101,501],"name":"Baltica-SouthIndia ridge"},"geometry":{"type":"LineString","coordinates":[[-145.222,-37.31],[-144.625,-37.193],[-144.031,-37.073],[-143.439,-36.95],[-142.848,-36.825],[-142.259,-36.696],[-141.673,-36.564],[-141.088,-36.43],[-140.505,-36.293],[-139.925,-36.153],[-139.347,-36.01],[-138.77,-35.864],[-138.196,-35.716],[-137.624,-35.565],[-137.054,-35.411],[-136.487,-35.254],[-135.921,-35.095],[-135.358,-34.934],[-134.797,-34.769],[-134.622,-35.141],[-134.445,-35.512],[-134.267,-35.882],[-134.087,-36.253],[-133.524,-36.071],[-132.963,-35.886],[-132.405,-35.699],[-131.85,-35.509],[-131.297,-35.317],[-130.747,-35.122],[-130.199,-34.924],[-129.654,-34.725],[-129.112,-34.522],[-128.572,-34.318],[-128.036,-34.111],[-127.501,-33.902],[-126.97,-33.69],[-126.441,-33.476],[-125.914,-33.26],[-125.39,-33.042],[-124.869,-32.821],[-124.35,-32.599],[-123.834,-32.374],[-123.321,-32.147],[-122.81,-31.918],[-122.302,-31.688],[-121.796,-31.455],[-121.293,-31.22],[-120.792,-30.983],[-120.293,-30.744],[-119.798,-30.504],[-119.304,-30.261],[-118.813,-30.017],[-118.325,-29.77],[-117.839,-29.523],[-117.355,-29.273],[-116.874,-29.021],[-116.395,-28.768],[-115.918,-28.513],[-115.444,-28.257],[-114.971,-27.999],[-114.502,-27.739],[-114.179,-28.147],[-113.854,-28.554],[-113.527,-28.96],[-113.196,-29.366],[-112.864,-29.771],[-112.364,-29.565],[-111.866,-29.357],[-111.37,-29.148],[-110.876,-28.936],[-110.385,-28.723],[-109.895,-28.508],[-109.407,-28.291],[-108.921,-28.073],[-108.437,-27.853],[-107.956,-27.631],[-107.476,-27.408],[-106.998,-27.182],[-106.522,-26.956],[-106.727,-26.59],[-106.931,-26.224],[-107.134,-25.858],[-107.336,-25.491],[-107.536,-25.124],[-107.028,-24.974],[-106.521,-24.823],[-106.016,-24.669],[-105.511,-24.514],[-105.008,-24.358],[-104.506,-24.199],[-104.006,-24.039],[-103.506,-23.877],[-103.008,-23.714],[-102.511,-23.549],[-102.016,-23.383],[-101.521,-23.215],[-101.028,-23.046],[-100.536,-22.874],[-100.046,-22.702],[-99.556,-22.528],[-99.068,-22.352],[-98.581,-22.175],[-98.095,-21.997],[-97.611,-21.817],[-97.128,-21.636],[-96.645,-21.453],[-96.165,-21.269],[-95.685,-21.084],[-95.207,-20.897],[-94.729,-20.709],[-94.253,-20.52]]}},{"type":"Feature","properties":{"boundary_type":"ridge","feature_type":"gpml:MidOceanRidge","polarity":null,"overriding_plate_id":null,"subducting_plate_id":null,"plate_ids":[101,701],"name":"Congo-Siberia ridge"},"geometry":{"type":"LineString","coordinates":[[-89.094,0.818],[-89.192,0.341],[-89.291,-0.137],[-89.39,-0.615],[-89.489,-1.092],[-89.587,-1.57],[-89.686,-2.048],[-89.785,-2.525],[-89.884,-3.003],[-89.983,-3.481],[-90.082,-3.958],[-90.181,-4.436],[-90.281,-4.913],[-90.38,-5.391],[-90.48,-5.869],[-90.58,-6.346],[-90.68,-6.824],[-90.78,-7.301],[-90.88,-7.779],[-90.981,-8.256],[-91.082,-8.734],[-91.183,-9.211],[-91.284,-9.688],[-91.386,-10.166],[-91.488,-10.643],[-91.59,-11.12],[-91.693,-11.598],[-91.796,-12.075],[-91.9,-12.552],[-92.003,-13.029],[-92.394,-12.967],[-92.785,-12.904],[-93.175,-12.841],[-93.565,-12.777],[-93.629,-13.259],[-93.694,-13.742],[-93.759,-14.225],[-93.824,-14.707],[-93.889,-15.19],[-93.955,-15.673],[-94.021,-16.155],[-94.087,-16.638],[-94.154,-17.12],[-94.221,-17.603],[-94.288,-18.086],[-94.356,-18.568],[-94.424,-19.051]]}},{"type":"Feature","properties":{"boundary_type":"ridge","feature_type":"gpml:MidOceanRidge","polarity":null,"overriding_plate_id":null,"subducting_plate_id":null,"plate_ids":[801,6024],"name":"MOR"},"geometry":{"type":"LineString","coordinates":[[-114.504,25.613],[-114.487,26.099],[-114.47,26.585],[-114.453,27.071],[-114.436,27.557],[-114.418,28.043],[-114.401,28.529],[-114.383,29.015],[-114.365,29.501],[-114.347,29.986],[-114.329,30.472],[-113.775,30.508],[-113.22,30.541],[-112.665,30.572],[-112.109,30.6],[-111.553,30.626],[-110.997,30.65],[-110.441,30.671],[-109.884,30.69],[-109.327,30.707],[-108.77,30.721],[-108.213,30.733],[-107.656,30.742],[-107.098,30.75],[-106.541,30.754],[-105.983,30.757],[-105.426,30.757],[-104.868,30.754],[-104.311,30.749],[-103.753,30.742],[-103.196,30.732],[-102.639,30.72],[-102.082,30.706],[-101.525,30.689],[-101.085,30.988],[-100.643,31.284],[-100.198,31.58],[-99.75,31.873],[-99.447,31.457],[-99.147,31.04],[-98.849,30.622],[-98.554,30.204],[-98.262,29.784],[-97.972,29.365],[-97.684,28.944],[-97.399,28.523],[-97.116,28.102],[-96.633,28.268],[-96.149,28.432],[-95.663,28.594],[-95.175,28.755],[-94.686,28.914],[-94.195,29.071],[-93.703,29.227],[-93.21,29.38],[-92.715,29.532],[-92.219,29.682],[-91.721,29.83],[-91.555,29.36],[-91.391,28.89],[-91.228,28.42],[-91.067,27.949],[-90.907,27.479],[-90.749,27.008],[-90.591,26.537],[-90.436,26.065],[-90.281,25.594],[-90.128,25.122],[-89.975,24.651],[-89.437,24.747],[-88.897,24.841],[-88.356,24.934],[-87.815,25.024],[-87.273,25.113],[-86.73,25.2],[-86.559,24.756],[-86.39,24.313],[-86.221,23.87],[-86.054,23.426],[-85.888,22.982],[-85.723,22.538],[-85.559,22.094],[-85.396,21.649],[-85.234,21.205]]}},{"type":"Feature","properties":{"boundary_type":"subduction","feature_type":"gpml:SubductionZone","polarity":"Left","overriding_plate_id":701,"subducting_plate_id":90107,"plate_ids":[701,90107],"name":"SZ"},"geometry":{"type":"LineString","coordinates":[[-44.053,24.985],[-44.54,25.059],[-45.027,25.131],[-45.515,25.202],[-46.003,25.272],[-46.492,25.339],[-46.982,25.406],[-47.472,25.47],[-47.963,25.628],[-48.457,25.784],[-48.951,25.938],[-49.447,26.091],[-49.943,26.241],[-50.442,26.391],[-50.941,26.538],[-51.442,26.684],[-51.944,26.828],[-52.447,26.97],[-52.952,27.11],[-53.458,27.249],[-53.965,27.385],[-54.473,27.52]]}},{"type":"Feature","properties":{"boundary_type":"subduction","feature_type":"gpml:SubductionZone","polarity":"Left","overriding_plate_id":801,"subducting_plate_id":90107,"plate_ids":[801,90107],"name":"SZ"},"geometry":{"type":"LineString","coordinates":[[-54.473,27.52],[-54.837,27.615],[-55.201,27.71],[-55.566,27.803],[-55.978,28.09],[-56.391,28.376],[-56.807,28.661],[-57.226,28.945],[-57.646,29.227],[-58.069,29.508],[-58.494,29.787],[-58.921,30.065],[-59.351,30.342],[-59.784,30.618],[-60.219,30.892],[-60.656,31.164]]}},{"type":"Feature","properties":{"boundary_type":"subduction","feature_type":"gpml:SubductionZone","polarity":"Right","overriding_plate_id":501,"subducting_plate_id":90105,"plate_ids":[501,90105],"name":""},"geometry":{"type":"LineString","coordinates":[[-112.329,-63.293],[-112.68,-63.197]]}},{"type":"Feature","properties":{"boundary_type":"subduction","feature_type":"gpml:SubductionZone","polarity":"Right","overriding_plate_id":501,"subducting_plate_id":201,"plate_ids":[201,501],"name":""},"geometry":{"type":"LineString","coordinates":[[-112.68,-63.197],[-113.601,-62.939],[-114.504,-62.675],[-115.392,-62.406],[-116.264,-62.131],[-117.12,-61.851],[-117.96,-61.565],[-118.785,-61.274],[-119.595,-60.979],[-120.389,-60.679],[-121.169,-60.374],[-121.934,-60.064],[-122.685,-59.751],[-123.422,-59.433],[-124.145,-59.111],[-124.855,-58.785],[-125.551,-58.455],[-126.234,-58.121],[-126.904,-57.784],[-127.562,-57.444],[-128.208,-57.1],[-128.842,-56.753],[-129.464,-56.402],[-130.075,-56.049],[-130.675,-55.693],[-131.264,-55.334],[-131.78,-54.938],[-132.287,-54.54],[-132.784,-54.14],[-133.271,-53.738],[-133.749,-53.334],[-134.218,-52.929],[-134.679,-52.521],[-135.131,-52.112],[-135.574,-51.701],[-136.01,-51.288],[-136.438,-50.874],[-136.858,-50.459],[-137.271,-50.041],[-137.677,-49.623],[-138.076,-49.203],[-138.468,-48.781],[-138.854,-48.359],[-139.233,-47.935],[-139.606,-47.509],[-139.973,-47.083],[-140.334,-46.655],[-140.69,-46.227],[-141.04,-45.797],[-141.286,-45.361],[-141.529,-44.924],[-141.768,-44.487],[-142.003,-44.05],[-142.235,-43.612],[-142.463,-43.173],[-142.688,-42.734],[-142.91,-42.295]]}},{"type":"Feature","properties":{"boundary_type":"subduction","feature_type":"gpml:SubductionZone","polarity":"Right","overriding_plate_id":501,"subducting_plate_id":911001,"plate_ids":[501,911001],"name":""},"geometry":{"type":"LineString","coordinates":[[-142.91,-42.295],[-143.135,-41.844],[-143.356,-41.392],[-143.575,-40.94],[-143.79,-40.488],[-144.003,-40.035],[-144.212,-39.582],[-144.419,-39.128],[-144.624,-38.674],[-144.826,-38.22],[-145.025,-37.765],[-145.222,-37.31]]}},{"type":"Feature","properties":{"boundary_type":"subduction","feature_type":"gpml:SubductionZone","polarity":"Right","overriding_plate_id":101,"subducting_plate_id":911001,"plate_ids":[101,911001],"name":""},"geometry":{"type":"LineString","coordinates":[[-145.222,-37.31],[-145.422,-36.841],[-145.62,-36.371],[-145.816,-35.901],[-146.009,-35.431],[-146.2,-34.96],[-146.389,-34.489],[-146.576,-34.018],[-146.76,-33.546],[-146.943,-33.075],[-147.124,-32.603],[-147.303,-32.13],[-147.48,-31.658],[-147.655,-31.185],[-147.689,-30.715],[-147.723,-30.245],[-147.757,-29.775],[-147.79,-29.305],[-147.823,-28.834],[-147.856,-28.364],[-147.889,-27.894],[-147.921,-27.424]]}},{"type":"Feature","properties":{"boundary_type":"subduction","feature_type":"gpml:SubductionZone","polarity":"Right","overriding_plate_id":701,"subducting_plate_id":90107,"plate_ids":[701,90107],"name":""},"geometry":{"type":"LineString","coordinates":[[-5.742,-29.228],[-5.883,-29.7],[-6.025,-30.173],[-6.169,-30.645],[-6.315,-31.117],[-6.461,-31.589],[-6.61,-32.06],[-6.759,-32.532],[-6.911,-33.003],[-7.064,-33.474],[-7.218,-33.945],[-7.375,-34.416],[-7.533,-34.886],[-7.693,-35.357],[-7.855,-35.827],[-8.018,-36.297],[-8.184,-36.766],[-8.352,-37.236],[-8.522,-37.705],[-8.694,-38.174],[-8.868,-38.643],[-9.045,-39.111],[-9.224,-39.579],[-9.405,-40.047],[-9.589,-40.515],[-9.775,-40.982],[-9.964,-41.449],[-10.156,-41.916],[-10.351,-42.382],[-10.549,-42.848],[-10.749,-43.314],[-10.953,-43.779],[-11.16,-44.244],[-11.37,-44.709],[-11.584,-45.173],[-11.801,-45.637],[-12.021,-46.1],[-12.246,-46.563],[-12.555,-47.015],[-12.869,-47.466],[-13.189,-47.916],[-13.514,-48.365],[-13.846,-48.814],[-14.183,-49.261],[-14.526,-49.707],[-14.876,-50.153],[-15.232,-50.597],[-15.595,-51.04],[-15.965,-51.482],[-16.342,-51.923],[-16.727,-52.363],[-17.12,-52.801],[-17.52,-53.238],[-17.929,-53.674],[-18.346,-54.108],[-18.772,-54.541],[-19.207,-54.972],[-19.652,-55.401],[-20.106,-55.829],[-20.57,-56.256]]}},{"type":"Feature","properties":{"boundary_type":"subduction","feature_type":"gpml:SubductionZone","polarity":"Right","overriding_plate_id":701,"subducting_plate_id":90105,"plate_ids":[701,90105],"name":""},"geometry":{"type":"LineString","coordinates":[[-20.57,-56.256],[-21.036,-56.672],[-21.513,-57.087],[-22.0,-57.5],[-22.498,-57.911],[-23.008,-58.32],[-23.53,-58.728],[-24.064,-59.132],[-24.61,-59.535],[-25.17,-59.935],[-25.744,-60.333],[-26.332,-60.729],[-26.934,-61.121],[-27.551,-61.511],[-28.184,-61.898],[-28.833,-62.282],[-29.499,-62.664],[-30.182,-63.041],[-30.883,-63.416],[-31.603,-63.787],[-32.341,-64.154],[-33.1,-64.517],[-33.878,-64.877],[-34.678,-65.232],[-35.499,-65.583],[-36.342,-65.929],[-37.209,-66.27],[-38.099,-66.607],[-39.013,-66.938],[-39.953,-67.264],[-40.918,-67.585],[-41.909,-67.899],[-42.928,-68.207],[-43.973,-68.509],[-45.047,-68.805],[-46.149,-69.093],[-47.281,-69.374],[-48.442,-69.647],[-49.632,-69.913],[-50.853,-70.17],[-52.217,-70.318],[-53.6,-70.455],[-55.001,-70.581],[-56.419,-70.697],[-57.852,-70.801],[-59.3,-70.894],[-60.76,-70.976],[-62.232,-71.046],[-63.713,-71.104],[-65.203,-71.151],[-66.698,-71.186],[-68.198,-71.209],[-69.701,-71.219],[-71.204,-71.218],[-72.707,-71.205],[-74.206,-71.18],[-75.7,-71.143],[-77.188,-71.094],[-78.668,-71.033],[-80.138,-70.96],[-81.596,-70.876],[-83.041,-70.781],[-84.471,-70.674],[-85.885,-70.557]]}},{"type":"Feature","properties":{"boundary_type":"subduction","feature_type":"gpml:SubductionZone","polarity":"Right","overriding_plate_id":501,"subducting_plate_id":90105,"plate_ids":[501,90105],"name":""},"geometry":{"type":"LineString","coordinates":[[-85.885,-70.557],[-87.301,-70.427],[-88.697,-70.285],[-90.074,-70.134],[-91.43,-69.972],[-92.764,-69.799],[-94.077,-69.617],[-95.226,-69.357],[-96.347,-69.09],[-97.442,-68.815],[-98.509,-68.534],[-99.549,-68.246],[-100.563,-67.952],[-101.552,-67.652],[-102.516,-67.346],[-103.455,-67.034],[-104.37,-66.717],[-105.261,-66.394],[-106.13,-66.067],[-106.976,-65.735],[-107.801,-65.398],[-108.605,-65.057],[-109.388,-64.712],[-110.152,-64.363],[-110.896,-64.01],[-111.621,-63.653],[-112.329,-63.293]]}},{"type":"Feature","properties":{"boundary_type":"subduction","feature_type":"gpml:SubductionZone","polarity":"Left","overriding_plate_id":701,"subducting_plate_id":90107,"plate_ids":[701,90107],"name":""},"geometry":{"type":"LineString","coordinates":[[-5.742,-29.228],[-5.978,-28.786],[-6.211,-28.343],[-6.443,-27.9],[-6.673,-27.457],[-6.901,-27.014],[-7.128,-26.57],[-7.352,-26.125],[-7.575,-25.681],[-7.796,-25.236],[-8.016,-24.79],[-8.234,-24.345],[-8.451,-23.899],[-8.666,-23.453],[-8.879,-23.006],[-9.091,-22.559],[-9.302,-22.112],[-9.512,-21.665],[-9.72,-21.217],[-9.927,-20.769],[-10.132,-20.321],[-10.337,-19.873],[-10.54,-19.424],[-10.742,-18.975],[-10.944,-18.526],[-11.144,-18.077],[-11.343,-17.627],[-11.541,-17.178],[-11.738,-16.728],[-11.934,-16.278],[-12.129,-15.828],[-12.324,-15.377],[-12.517,-14.927],[-12.71,-14.476],[-12.902,-14.025],[-13.093,-13.574],[-13.284,-13.123],[-13.402,-12.66],[-13.52,-12.197],[-13.638,-11.734],[-13.755,-11.271],[-13.872,-10.807],[-13.989,-10.344],[-14.105,-9.881],[-14.221,-9.417],[-14.336,-8.954],[-14.452,-8.491],[-14.567,-8.027],[-14.681,-7.564],[-14.796,-7.1],[-14.91,-6.637],[-15.024,-6.173],[-15.138,-5.709],[-15.251,-5.246],[-15.365,-4.782],[-15.478,-4.318],[-15.591,-3.855],[-15.921,-3.494],[-16.25,-3.133],[-16.579,-2.771],[-16.908,-2.41],[-17.237,-2.048],[-17.565,-1.687],[-17.894,-1.325],[-18.222,-0.964],[-18.55,-0.602],[-18.878,-0.24],[-19.207,0.121],[-19.535,0.483],[-19.863,0.845],[-20.191,1.206],[-20.52,1.568],[-20.848,1.929],[-21.177,2.291],[-21.505,2.652],[-21.834,3.014],[-22.164,3.375],[-22.493,3.736],[-22.823,4.097],[-23.153,4.458],[-23.483,4.818],[-23.814,5.179],[-24.145,5.539],[-24.525,5.849],[-24.906,6.159],[-25.287,6.468],[-25.668,6.777],[-26.05,7.086],[-26.433,7.394],[-26.816,7.702],[-27.199,8.01],[-27.584,8.317],[-27.969,8.624],[-28.354,8.931],[-28.74,9.237],[-29.127,9.543],[-29.514,9.848],[-29.902,10.153],[-30.291,10.458],[-30.681,10.762],[-31.071,11.065],[-31.463,11.368],[-31.855,11.671],[-32.248,11.973],[-32.642,12.274],[-33.036,12.575],[-33.432,12.876],[-33.829,13.175],[-34.146,13.556],[-34.464,13.935],[-34.784,14.315],[-35.104,14.694],[-35.426,15.072],[-35.749,15.451],[-36.073,15.828],[-36.398,16.205],[-36.725,16.582],[-37.052,16.958],[-37.381,17.334],[-37.712,17.709],[-38.044,18.084],[-38.377,18.458],[-38.711,18.831],[-39.048,19.204],[-39.385,19.576],[-39.724,19.948],[-40.065,20.319],[-40.408,20.689],[-40.752,21.058],[-41.098,21.427],[-41.445,21.795],[-41.795,22.163],[-42.146,22.53],[-42.414,22.882],[-42.684,23.233],[-42.955,23.585],[-43.227,23.935],[-43.501,24.286],[-43.776,24.635],[-44.053,24.985]]}},{"type":"Feature","properties":{"boundary_type":"subduction","feature_type":"gpml:SubductionZone","polarity":"Right","overriding_plate_id":101,"subducting_plate_id":90106,"plate_ids":[101,90106],"name":""},"geometry":{"type":"LineString","coordinates":[[169.952,40.663],[169.921,40.981],[169.896,41.461],[169.87,41.94],[169.844,42.42],[169.818,42.899],[169.791,43.378],[169.764,43.858],[169.736,44.337],[169.708,44.817],[169.679,45.296],[169.65,45.775],[169.62,46.255],[169.59,46.734],[169.559,47.213],[169.528,47.693],[169.496,48.172],[169.463,48.651],[169.43,49.13],[169.397,49.61],[169.362,50.089],[169.327,50.568],[169.291,51.048],[169.255,51.527],[169.258,51.627]]}},{"type":"Feature","properties":{"boundary_type":"subduction","feature_type":"gpml:SubductionZone","polarity":"Right","overriding_plate_id":801,"subducting_plate_id":90106,"plate_ids":[801,90106],"name":""},"geometry":{"type":"LineString","coordinates":[[169.258,51.627],[169.274,52.118],[169.29,52.609],[169.306,53.1],[169.323,53.591],[169.341,54.082],[169.358,54.573],[169.377,55.064],[169.395,55.555],[169.414,56.046],[169.434,56.537],[169.454,57.028],[169.475,57.519],[169.496,58.01]]}},{"type":"Feature","properties":{"boundary_type":"subduction","feature_type":"gpml:SubductionZone","polarity":"Right","overriding_plate_id":801,"subducting_plate_id":90106,"plate_ids":[801,90106],"name":""},"geometry":{"type":"LineString","coordinates":[[169.496,58.01],[169.441,58.482],[169.385,58.954],[169.328,59.426],[169.269,59.898],[169.208,60.369],[169.145,60.841],[169.081,61.313],[169.014,61.784],[168.946,62.256],[168.875,62.728],[168.802,63.199],[168.726,63.671],[168.648,64.142],[168.568,64.613],[168.484,65.085],[168.398,65.556],[168.367,66.051],[168.335,66.546],[168.302,67.041],[168.268,67.536],[168.232,68.031],[168.194,68.527],[168.155,69.022],[168.114,69.517],[168.071,70.012],[168.026,70.507],[167.979,71.002],[167.929,71.497]]}},{"type":"Feature","properties":{"boundary_type":"subduction","feature_type":"gpml:SubductionZone","polarity":"Left","overriding_plate_id":201,"subducting_plate_id":90105,"plate_ids":[201,90105],"name":""},"geometry":{"type":"LineString","coordinates":[[118.78,1.052],[118.502,0.647],[118.224,0.241],[117.946,-0.164],[117.668,-0.569],[117.39,-0.974],[117.112,-1.379],[116.834,-1.785],[116.555,-2.19],[116.277,-2.595],[115.998,-3.0],[115.719,-3.405],[115.44,-3.81],[115.161,-4.214],[114.881,-4.619],[114.601,-5.024],[114.321,-5.428],[114.04,-5.832],[113.759,-6.237],[113.477,-6.641],[113.195,-7.045],[112.913,-7.448],[112.629,-7.852],[112.346,-8.255],[112.062,-8.658],[111.777,-9.061],[111.491,-9.464],[111.205,-9.866],[110.919,-10.269],[110.631,-10.671],[110.343,-11.072],[110.054,-11.474],[109.764,-11.875],[109.473,-12.276],[109.181,-12.676],[108.889,-13.076],[108.595,-13.476],[108.301,-13.876],[108.005,-14.275],[107.709,-14.674],[107.411,-15.072],[107.214,-15.529],[107.015,-15.985],[106.816,-16.441],[106.616,-16.897],[106.415,-17.352],[106.213,-17.808],[106.01,-18.263],[105.806,-18.718],[105.601,-19.173],[105.394,-19.627],[105.187,-20.082],[104.978,-20.536],[104.768,-20.99],[104.557,-21.443],[104.344,-21.896],[104.13,-22.349],[103.915,-22.802],[103.698,-23.255],[103.48,-23.707],[103.26,-24.158],[103.038,-24.61],[102.816,-25.061],[102.591,-25.512],[102.365,-25.963],[102.137,-26.413],[101.907,-26.862],[101.675,-27.312],[101.442,-27.761],[101.206,-28.21],[100.969,-28.658],[100.892,-29.136],[100.814,-29.614],[100.735,-30.092],[100.656,-30.57],[100.576,-31.048],[100.495,-31.526],[100.413,-32.003],[100.331,-32.481],[100.247,-32.959],[100.163,-33.436],[100.077,-33.914],[99.991,-34.391],[99.904,-34.869],[99.815,-35.346],[99.726,-35.824],[99.636,-36.301],[99.544,-36.778],[99.451,-37.255],[99.358,-37.732],[99.263,-38.209],[99.166,-38.686],[99.069,-39.163],[98.97,-39.64],[98.869,-40.116],[98.768,-40.593],[98.664,-41.069],[98.56,-41.546],[98.453,-42.022],[98.499,-42.509],[98.545,-42.997],[98.592,-43.484],[98.64,-43.972],[98.689,-44.459],[98.738,-44.946],[98.788,-45.433],[98.839,-45.921],[98.891,-46.408],[98.944,-46.895],[98.998,-47.382],[99.053,-47.87],[99.109,-48.357],[99.166,-48.844],[99.224,-49.331],[99.284,-49.818],[99.344,-50.305],[99.406,-50.792],[99.469,-51.279],[99.534,-51.766],[99.6,-52.253],[99.667,-52.74],[99.736,-53.227],[99.806,-53.713],[99.878,-54.2],[99.952,-54.687],[100.143,-55.163],[100.338,-55.638],[100.538,-56.114],[100.743,-56.589],[100.953,-57.063],[101.169,-57.538],[101.39,-58.012],[101.618,-58.485],[101.851,-58.958],[102.091,-59.431],[102.338,-59.903],[102.592,-60.375],[102.853,-60.846],[103.123,-61.317],[103.4,-61.787],[103.686,-62.257],[103.981,-62.726],[104.286,-63.194],[104.6,-63.662],[104.926,-64.129],[105.262,-64.595],[105.61,-65.06],[105.97,-65.525],[106.344,-65.989],[106.731,-66.451],[107.133,-66.913],[107.55,-67.374],[107.983,-67.834],[108.435,-68.292],[108.927,-68.751],[109.44,-69.209],[109.975,-69.666],[110.534,-70.12],[111.118,-70.573],[111.728,-71.024],[112.367,-71.473],[113.037,-71.919],[113.739,-72.363],[114.476,-72.805],[115.25,-73.243],[116.065,-73.679],[116.923,-74.111],[117.828,-74.54],[118.783,-74.965],[119.791,-75.385],[120.858,-75.802],[121.988,-76.213],[123.185,-76.618],[124.454,-77.018],[125.803,-77.411],[127.236,-77.797],[128.76,-78.175],[130.382,-78.544],[132.11,-78.904],[133.906,-79.254],[135.821,-79.594],[137.86,-79.921],[140.032,-80.235],[142.343,-80.534],[144.799,-80.817],[147.406,-81.082],[150.164,-81.329],[153.076,-81.554],[156.138,-81.757],[159.344,-81.935],[162.683,-82.087],[166.14,-82.212],[169.696,-82.308],[173.327,-82.374],[177.006,-82.409],[-179.295,-82.414],[-175.608,-82.386],[-171.961,-82.329],[-168.383,-82.241],[-164.897,-82.123],[-161.525,-81.978],[-158.283,-81.807],[-155.182,-81.61],[-152.229,-81.391],[-149.43,-81.15],[-146.783,-80.89],[-144.287,-80.611],[-141.937,-80.316],[-139.729,-80.006],[-137.984,-79.629],[-136.362,-79.243],[-134.852,-78.849],[-133.444,-78.448],[-132.131,-78.04],[-130.903,-77.627],[-129.754,-77.209],[-128.677,-76.787],[-127.665,-76.36],[-126.715,-75.929],[-125.82,-75.494],[-124.976,-75.057],[-124.179,-74.616],[-123.425,-74.173],[-122.712,-73.727],[-122.036,-73.279],[-121.394,-72.829],[-120.784,-72.377],[-120.204,-71.924],[-119.652,-71.468],[-119.124,-71.011],[-118.621,-70.553],[-118.14,-70.094],[-117.68,-69.633],[-117.24,-69.171],[-116.818,-68.707],[-116.413,-68.243],[-116.024,-67.778],[-115.65,-67.312],[-115.291,-66.846],[-114.945,-66.378],[-114.612,-65.91],[-114.291,-65.441],[-113.947,-64.993],[-113.615,-64.545],[-113.293,-64.097],[-112.982,-63.647],[-112.68,-63.197]]}},{"type":"Feature","properties":{"boundary_type":"subduction","feature_type":"gpml:SubductionZone","polarity":"Left","overriding_plate_id":101,"subducting_plate_id":911001,"plate_ids":[101,911001],"name":"Baltica_SZ"},"geometry":{"type":"LineString","coordinates":[[-165.662,-11.362],[-165.259,-11.631],[-164.855,-11.899],[-164.451,-12.166],[-164.045,-12.433],[-163.639,-12.7],[-163.232,-12.965],[-162.825,-13.23],[-162.416,-13.495],[-162.006,-13.759],[-161.596,-14.022],[-161.184,-14.284],[-160.772,-14.546],[-160.358,-14.807],[-159.944,-15.067],[-159.528,-15.326],[-159.112,-15.585],[-158.698,-15.83],[-158.284,-16.074],[-157.868,-16.317],[-157.452,-16.56],[-157.034,-16.801],[-156.616,-17.042],[-156.196,-17.282],[-155.775,-17.521],[-155.353,-17.76],[-154.93,-17.997],[-154.586,-18.328],[-154.24,-18.657],[-153.893,-18.987],[-153.544,-19.315],[-153.195,-19.643],[-152.843,-19.971],[-152.49,-20.297],[-152.136,-20.623],[-151.78,-20.948],[-151.566,-21.361],[-151.351,-21.774],[-151.134,-22.187],[-150.916,-22.599],[-150.697,-23.011],[-150.476,-23.422],[-150.254,-23.834],[-150.031,-24.244],[-149.806,-24.655],[-149.579,-25.065],[-149.351,-25.475],[-149.122,-25.885],[-148.825,-26.271],[-148.525,-26.656],[-148.224,-27.04],[-147.921,-27.424]]}},{"type":"Feature","properties":{"boundary_type":"ridge","feature_type":"gpml:MidOceanRidge","polarity":null,"overriding_plate_id":null,"subducting_plate_id":null,"plate_ids":[101,6024],"name":""},"geometry":{"type":"LineString","coordinates":[[-113.783,25.008],[-114.206,24.717],[-114.628,24.424],[-115.047,24.13],[-115.464,23.835],[-115.88,23.539],[-116.293,23.242],[-116.705,22.944],[-117.115,22.644],[-117.523,22.344],[-117.929,22.042],[-118.334,21.74],[-118.737,21.437],[-119.138,21.132],[-119.537,20.827],[-119.935,20.521],[-120.332,20.214],[-120.119,19.828],[-119.907,19.443],[-119.697,19.057],[-119.487,18.671],[-119.278,18.284],[-119.071,17.898],[-119.453,17.591],[-119.834,17.284],[-120.214,16.976],[-120.593,16.668],[-120.97,16.358],[-121.347,16.048],[-121.722,15.738],[-122.096,15.426],[-122.469,15.114],[-122.841,14.802],[-123.211,14.489],[-123.581,14.175],[-123.338,13.759],[-123.097,13.342],[-122.856,12.926],[-122.615,12.509],[-122.376,12.092],[-122.138,11.675],[-121.9,11.257],[-121.662,10.839],[-121.426,10.422],[-121.19,10.004]]}},{"type":"Feature","properties":{"boundary_type":"ridge","feature_type":"gpml:MidOceanRidge","polarity":null,"overriding_plate_id":null,"subducting_plate_id":null,"plate_ids":[101,801],"name":""},"geometry":{"type":"LineString","coordinates":[[169.258,51.627],[170.054,51.647],[170.851,51.661],[171.649,51.67],[172.446,51.673],[173.244,51.671],[174.041,51.664],[174.839,51.651],[175.635,51.633],[176.431,51.61],[177.226,51.581],[178.02,51.547],[178.812,51.507],[179.603,51.462],[-179.607,51.412],[-178.82,51.356],[-178.034,51.296],[-177.25,51.23],[-176.469,51.158],[-175.691,51.082],[-174.915,51.0],[-174.142,50.914],[-173.371,50.822],[-172.604,50.725],[-171.84,50.623],[-171.08,50.516],[-170.323,50.405],[-169.57,50.288],[-168.82,50.166],[-168.074,50.04],[-167.333,49.909],[-166.595,49.773],[-165.862,49.633],[-165.133,49.488],[-164.408,49.338],[-163.688,49.184],[-162.972,49.026],[-162.261,48.863],[-161.554,48.696],[-161.749,48.251],[-161.941,47.806],[-162.13,47.36],[-162.316,46.915],[-162.498,46.469],[-162.678,46.022],[-162.854,45.576],[-162.183,45.435],[-161.516,45.291],[-160.851,45.142],[-160.191,44.99],[-159.533,44.834],[-158.88,44.675],[-158.23,44.511],[-157.584,44.344],[-156.941,44.174],[-156.302,43.999],[-155.667,43.821],[-155.036,43.64],[-154.408,43.455],[-153.785,43.267],[-153.165,43.076],[-152.549,42.881],[-151.937,42.683],[-151.33,42.481],[-150.726,42.277],[-150.125,42.069],[-149.529,41.858],[-148.937,41.644],[-148.349,41.428],[-147.765,41.208],[-147.184,40.985],[-146.608,40.759],[-146.035,40.531],[-145.467,40.299],[-144.902,40.065],[-144.341,39.828],[-143.784,39.589],[-143.231,39.347],[-142.682,39.102],[-142.137,38.855],[-141.595,38.605],[-141.057,38.352],[-140.523,38.098],[-140.141,38.484],[-139.755,38.87],[-139.365,39.254],[-138.971,39.637],[-138.572,40.018],[-138.169,40.398],[-137.609,40.154],[-137.054,39.906],[-136.502,39.656],[-135.954,39.403],[-135.411,39.148],[-134.871,38.89],[-134.335,38.63],[-133.803,38.367],[-133.275,38.102],[-132.751,37.834],[-132.231,37.564],[-131.714,37.292],[-131.201,37.018],[-130.692,36.742],[-130.186,36.463],[-129.684,36.182],[-129.186,35.899],[-128.691,35.615],[-128.2,35.328],[-127.713,35.039],[-127.228,34.748],[-126.747,34.455],[-126.27,34.161],[-125.796,33.865],[-125.325,33.566],[-124.857,33.266],[-124.393,32.965],[-123.932,32.661],[-123.473,32.356],[-123.018,32.049],[-122.566,31.741],[-122.117,31.431],[-121.671,31.12],[-121.228,30.807],[-120.788,30.492],[-120.351,30.176],[-119.916,29.859],[-119.484,29.54],[-119.055,29.22],[-118.629,28.898],[-118.205,28.575],[-117.784,28.251],[-117.366,27.926],[-116.949,27.599],[-116.536,27.271],[-116.125,26.942],[-115.716,26.611],[-115.31,26.28],[-114.905,25.947],[-114.504,25.613]]}},{"type":"Feature","properties":{"boundary_type":"ridge","feature_type":"gpml:MidOceanRidge","polarity":null,"overriding_plate_id":null,"subducting_plate_id":null,"plate_ids":[101,6024],"name":""},"geometry":{"type":"LineString","coordinates":[[-114.504,25.613],[-114.291,25.435],[-114.078,25.256],[-113.783,25.008]]}},{"type":"Feature","properties":{"boundary_type":"transform","feature_type":"gpml:Transform","polarity":null,"overriding_plate_id":null,"subducting_plate_id":null,"plate_ids":[101,6024],"name":"transform"},"geometry":{"type":"LineString","coordinates":[[-121.19,10.004],[-120.844,10.35],[-120.498,10.697],[-120.15,11.043],[-119.802,11.389],[-119.453,11.734],[-119.103,12.079],[-118.752,12.424],[-118.4,12.768],[-118.047,13.111],[-117.694,13.455],[-117.339,13.797],[-116.983,14.139],[-116.626,14.481],[-116.146,14.66],[-115.666,14.839],[-115.185,15.016],[-114.703,15.193],[-114.22,15.368],[-113.736,15.543],[-113.252,15.716],[-112.766,15.888],[-112.28,16.06],[-111.793,16.23],[-111.305,16.399],[-110.817,16.567],[-110.327,16.733],[-109.837,16.899],[-109.346,17.063],[-108.854,17.227],[-108.361,17.389],[-107.867,17.549],[-107.372,17.709],[-106.877,17.867],[-106.402,17.799],[-105.927,17.73],[-105.453,17.66],[-104.979,17.589],[-104.506,17.517],[-104.033,17.443],[-103.56,17.368],[-103.088,17.293],[-102.616,17.216],[-102.144,17.138],[-101.673,17.059],[-101.184,16.909],[-100.696,16.759],[-100.209,16.607],[-99.723,16.454],[-99.237,16.301],[-98.752,16.146],[-98.268,15.99],[-97.784,15.832],[-97.302,15.674],[-96.82,15.515],[-96.339,15.354],[-95.858,15.193],[-95.379,15.031],[-94.9,14.867],[-94.421,14.703],[-93.944,14.538],[-93.467,14.371],[-92.991,14.204],[-92.629,13.879],[-92.267,13.553],[-91.907,13.227],[-91.548,12.9],[-91.189,12.573],[-90.832,12.245],[-90.475,11.917],[-90.12,11.589],[-89.765,11.26],[-89.411,10.93],[-89.057,10.6],[-88.705,10.27],[-88.353,9.939],[-88.002,9.608],[-87.652,9.277],[-87.302,8.945],[-86.953,8.613],[-86.604,8.281],[-86.256,7.948]]}},{"type":"Feature","properties":{"boundary_type":"ridge","feature_type":"gpml:MidOceanRidge","polarity":null,"overriding_plate_id":null,"subducting_plate_id":null,"plate_ids":[701,6024],"name":""},"geometry":{"type":"LineString","coordinates":[[-83.14,20.592],[-83.267,20.107],[-83.394,19.621],[-83.52,19.136],[-83.645,18.65],[-83.769,18.164],[-83.893,17.678],[-84.016,17.192],[-84.139,16.706],[-84.261,16.22],[-84.382,15.734],[-84.502,15.248],[-84.622,14.762],[-84.742,14.275],[-84.861,13.789],[-84.98,13.303],[-85.098,12.816],[-85.215,12.329],[-85.332,11.843],[-85.449,11.356],[-85.566,10.87],[-85.682,10.383],[-85.797,9.896],[-85.912,9.409],[-86.027,8.922],[-86.142,8.435],[-86.256,7.948]]}},{"type":"Feature","properties":{"boundary_type":"ridge","feature_type":"gpml:MidOceanRidge","polarity":null,"overriding_plate_id":null,"subducting_plate_id":null,"plate_ids":[101,701],"name":""},"geometry":{"type":"LineString","coordinates":[[-86.256,7.948],[-86.37,7.463],[-86.484,6.978],[-86.597,6.492],[-86.71,6.007],[-86.823,5.522],[-86.935,5.036],[-87.048,4.551],[-87.16,4.065],[-87.272,3.58],[-87.384,3.094],[-87.496,2.609],[-87.608,2.123],[-87.72,1.638],[-87.831,1.152],[-87.943,0.667],[-88.327,0.717],[-88.71,0.768],[-89.094,0.818]]}},{"type":"Feature","properties":{"boundary_type":"ridge","feature_type":"gpml:MidOceanRidge","polarity":null,"overriding_plate_id":null,"subducting_plate_id":null,"plate_ids":[801,6024],"name":"MOR"},"geometry":{"type":"LineString","coordinates":[[-85.234,21.205],[-84.814,21.084],[-84.394,20.963],[-83.975,20.84],[-83.557,20.717],[-83.14,20.592]]}},{"type":"Feature","properties":{"boundary_type":"ridge","feature_type":"gpml:MidOceanRidge","polarity":null,"overriding_plate_id":null,"subducting_plate_id":null,"plate_ids":[701,801],"name":"MOR"},"geometry":{"type":"LineString","coordinates":[[-83.14,20.592],[-82.661,20.448],[-82.183,20.302],[-81.706,20.155],[-81.229,20.007],[-80.754,19.858],[-80.279,19.707],[-79.806,19.555],[-79.333,19.401],[-78.861,19.247],[-78.39,19.091],[-77.92,18.934],[-77.802,19.407],[-77.683,19.88],[-77.563,20.353],[-77.443,20.825],[-77.322,21.297],[-77.2,21.77],[-77.077,22.242],[-76.953,22.714],[-76.829,23.186],[-76.704,23.658],[-76.577,24.13],[-76.45,24.602],[-76.322,25.074],[-75.807,24.985],[-75.294,24.895],[-74.781,24.802],[-74.268,24.708],[-73.757,24.613],[-73.246,24.515],[-72.736,24.416],[-72.227,24.315],[-71.719,24.213],[-71.212,24.109],[-70.705,24.003],[-70.199,23.895],[-69.694,23.786],[-69.19,23.675],[-68.692,23.735],[-68.194,23.792],[-67.695,23.849],[-67.196,23.903],[-66.696,23.956],[-66.196,24.008],[-65.695,24.058],[-65.195,24.106],[-64.693,24.152],[-64.192,24.197],[-63.69,24.241],[-63.187,24.282],[-62.688,24.487],[-62.187,24.689],[-61.684,24.891],[-61.18,25.09],[-60.674,25.288],[-60.166,25.484],[-59.657,25.678],[-59.146,25.871],[-58.634,26.062],[-58.119,26.25],[-57.604,26.438],[-57.086,26.623],[-56.567,26.806],[-56.046,26.988],[-55.523,27.167],[-54.999,27.345],[-54.473,27.52]]}},{"type":"Feature","properties":{"boundary_type":"ridge","feature_type":"gpml:MidOceanRidge","polarity":null,"overriding_plate_id":null,"subducting_plate_id":null,"plate_ids":[101,701],"name":""},"geometry":{"type":"LineString","coordinates":[[-94.424,-19.051],[-94.368,-19.54],[-94.311,-20.03],[-94.253,-20.52]]}},{"type":"Feature","properties":{"boundary_type":"ridge","feature_type":"gpml:MidOceanRidge","polarity":null,"overriding_plate_id":null,"subducting_plate_id":null,"plate_ids":[501,701],"name":""},"geometry":{"type":"LineString","coordinates":[[-94.253,-20.52],[-94.196,-21.002],[-94.139,-21.485],[-94.082,-21.967],[-94.024,-22.449],[-93.965,-22.931],[-93.907,-23.414],[-93.847,-23.896],[-93.788,-24.378],[-93.728,-24.86],[-93.667,-25.343],[-93.606,-25.825],[-93.544,-26.307],[-93.482,-26.789],[-93.42,-27.271],[-93.356,-27.753],[-93.293,-28.235],[-93.228,-28.717],[-93.164,-29.199],[-93.098,-29.681],[-93.032,-30.163],[-92.965,-30.645],[-92.898,-31.127],[-92.829,-31.608],[-92.761,-32.09],[-92.691,-32.572],[-92.621,-33.054],[-92.55,-33.535],[-92.478,-34.017],[-92.405,-34.498],[-92.984,-34.566],[-93.564,-34.632],[-94.146,-34.694],[-94.727,-34.754],[-95.31,-34.811],[-95.894,-34.865],[-96.478,-34.916],[-97.063,-34.965],[-96.998,-35.455],[-96.933,-35.945],[-96.866,-36.436],[-96.799,-36.926],[-96.731,-37.416],[-96.662,-37.906],[-96.592,-38.396],[-96.521,-38.886],[-96.45,-39.376],[-96.377,-39.866],[-96.303,-40.356],[-96.228,-40.846],[-96.152,-41.336],[-96.074,-41.825],[-95.996,-42.315],[-95.916,-42.805],[-95.835,-43.294],[-95.753,-43.784],[-95.669,-44.273],[-95.584,-44.763],[-95.498,-45.252],[-95.41,-45.741],[-95.32,-46.23],[-95.229,-46.72],[-95.136,-47.209],[-95.042,-47.698],[-94.945,-48.187],[-94.847,-48.675],[-94.747,-49.164],[-94.645,-49.653],[-94.541,-50.141],[-93.833,-50.112],[-93.126,-50.078],[-92.42,-50.04],[-92.336,-50.531],[-92.252,-51.022],[-92.165,-51.513],[-92.076,-52.004],[-91.986,-52.495],[-91.893,-52.985],[-91.799,-53.476],[-91.702,-53.966],[-91.603,-54.457],[-91.501,-54.947],[-91.397,-55.437],[-91.29,-55.928],[-91.181,-56.418],[-91.068,-56.908],[-90.953,-57.398],[-90.835,-57.887],[-90.713,-58.377],[-90.588,-58.867],[-90.459,-59.356],[-90.326,-59.845],[-90.19,-60.334],[-90.049,-60.823],[-89.904,-61.312],[-89.755,-61.801],[-89.601,-62.29],[-89.441,-62.778],[-89.276,-63.266],[-89.106,-63.754],[-88.929,-64.242],[-88.746,-64.729],[-88.557,-65.217],[-88.36,-65.704],[-88.156,-66.191],[-87.944,-66.677],[-87.723,-67.163],[-87.493,-67.649],[-87.253,-68.135],[-87.004,-68.62],[-86.743,-69.105],[-86.47,-69.589],[-86.184,-70.073],[-85.885,-70.557]]}},{"type":"Feature","properties":{"boundary_type":"subduction","feature_type":"gpml:SubductionZone","polarity":"Left","overriding_plate_id":101,"subducting_plate_id":911001,"plate_ids":[101,911001],"name":"Eastern_Laurentia_SZ"},"geometry":{"type":"LineString","coordinates":[[-176.114,3.306],[-175.714,3.033],[-175.314,2.759],[-174.914,2.485],[-174.514,2.211],[-174.114,1.936],[-173.715,1.662],[-173.315,1.387],[-172.916,1.113],[-172.517,0.838],[-172.117,0.564],[-171.841,0.18],[-171.565,-0.203],[-171.289,-0.587],[-171.013,-0.971],[-170.737,-1.354],[-170.461,-1.738],[-170.184,-2.121],[-169.908,-2.505],[-169.631,-2.888],[-169.354,-3.272],[-169.077,-3.655],[-168.8,-4.038],[-168.522,-4.421],[-168.358,-4.859],[-168.194,-5.297],[-168.029,-5.734],[-167.864,-6.172],[-167.699,-6.61],[-167.533,-7.047],[-167.367,-7.485],[-167.201,-7.922],[-167.034,-8.359],[-166.867,-8.797],[-166.7,-9.234],[-166.532,-9.671],[-166.316,-10.094],[-166.098,-10.517],[-165.88,-10.94],[-165.662,-11.362]]}},{"type":"Feature","properties":{"boundary_type":"ridge","feature_type":"gpml:MidOceanRidge","polarity":null,"overriding_plate_id":null,"subducting_plate_id":null,"plate_ids":[201,911001],"name":""},"geometry":{"type":"LineString","coordinates":[[152.63,5.277],[152.828,4.817],[153.026,4.358],[153.223,3.899],[153.42,3.44],[153.617,2.98],[153.814,2.521],[154.01,2.061],[154.207,1.602],[154.403,1.142],[154.6,0.683],[154.796,0.223],[154.992,-0.236],[155.189,-0.696],[155.385,-1.155],[155.581,-1.615],[155.778,-2.074],[155.974,-2.534],[156.171,-2.993],[156.368,-3.453],[156.565,-3.912],[156.763,-4.371],[156.96,-4.831],[157.158,-5.29],[157.592,-5.114],[158.025,-4.939],[158.458,-4.763],[158.892,-4.586],[159.324,-4.41],[159.757,-4.233],[160.189,-4.056],[160.622,-3.879],[161.054,-3.701],[161.485,-3.523],[161.917,-3.345],[162.349,-3.167],[162.78,-2.989],[163.211,-2.811],[163.435,-3.253],[163.658,-3.695],[163.882,-4.137],[164.107,-4.578],[164.331,-5.02],[164.556,-5.462],[164.781,-5.904],[165.006,-6.345],[165.232,-6.787],[165.458,-7.228],[165.685,-7.669],[165.912,-8.11],[166.14,-8.551],[166.368,-8.992],[166.597,-9.433],[166.826,-9.873],[167.056,-10.314],[167.286,-10.754],[167.518,-11.194],[167.75,-11.634],[167.982,-12.074],[168.216,-12.513],[168.45,-12.953],[168.685,-13.392],[168.921,-13.831],[169.158,-14.269],[169.395,-14.708],[169.634,-15.146],[169.874,-15.584],[170.115,-16.022],[170.356,-16.459],[170.599,-16.896],[170.843,-17.333],[171.088,-17.769],[171.335,-18.206],[171.582,-18.642],[171.831,-19.077],[172.081,-19.512],[172.333,-19.947],[172.586,-20.382],[172.84,-20.816],[173.096,-21.25],[173.353,-21.683],[173.612,-22.116],[173.873,-22.549],[174.135,-22.981],[174.398,-23.413],[174.664,-23.844],[174.931,-24.275],[175.2,-24.705],[175.471,-25.135],[175.744,-25.565],[176.019,-25.994],[176.296,-26.422],[176.575,-26.85],[176.856,-27.277],[177.139,-27.704],[177.425,-28.13],[177.712,-28.556],[178.002,-28.98],[178.295,-29.405],[178.59,-29.828],[178.887,-30.251],[179.187,-30.674],[179.49,-31.095],[179.795,-31.516],[-179.897,-31.936],[-179.586,-32.356],[-179.273,-32.775],[-178.956,-33.192],[-178.636,-33.61],[-178.313,-34.026],[-177.987,-34.441],[-177.658,-34.856],[-177.325,-35.269],[-176.989,-35.682],[-176.65,-36.094],[-176.306,-36.504],[-175.96,-36.914],[-175.609,-37.323],[-175.255,-37.731],[-174.897,-38.137],[-174.534,-38.543],[-174.168,-38.947],[-173.797,-39.351],[-173.423,-39.753],[-173.043,-40.154],[-172.501,-39.875],[-171.964,-39.594],[-171.43,-39.311],[-170.901,-39.026],[-170.377,-38.738],[-169.856,-38.447],[-169.34,-38.155],[-168.828,-37.86],[-168.32,-37.563],[-167.816,-37.263],[-167.381,-37.625],[-166.943,-37.984],[-166.5,-38.342],[-166.053,-38.699],[-165.601,-39.053],[-165.144,-39.406],[-164.684,-39.757],[-164.218,-40.106],[-163.747,-40.454],[-163.272,-40.799],[-162.792,-41.142],[-162.307,-41.484],[-161.816,-41.823],[-161.321,-42.16],[-160.82,-42.495],[-160.313,-42.828],[-159.802,-43.159],[-159.284,-43.487],[-158.761,-43.813],[-158.233,-44.136],[-157.698,-44.457],[-157.158,-44.776],[-156.611,-45.092],[-156.059,-45.405],[-155.501,-45.716],[-154.936,-46.024],[-154.365,-46.329],[-153.787,-46.631],[-153.204,-46.93],[-152.613,-47.227],[-152.016,-47.52],[-151.649,-47.11],[-151.288,-46.7],[-150.932,-46.288],[-150.582,-45.876],[-150.236,-45.462],[-149.896,-45.047],[-149.561,-44.631],[-149.23,-44.215],[-148.904,-43.797],[-148.583,-43.379],[-148.266,-42.959],[-147.953,-42.539],[-147.644,-42.118],[-147.34,-41.696],[-147.039,-41.273],[-146.743,-40.849],[-146.206,-41.063],[-145.665,-41.275],[-145.121,-41.484],[-144.574,-41.691],[-144.023,-41.895],[-143.468,-42.096],[-142.91,-42.295]]}},{"type":"Feature","properties":{"boundary_type":"ridge","feature_type":"gpml:MidOceanRidge","polarity":null,"overriding_plate_id":null,"subducting_plate_id":null,"plate_ids":[90105,90107],"name":""},"geometry":{"type":"LineString","coordinates":[[51.525,18.248],[51.264,18.663],[51.002,19.078],[50.739,19.493],[50.474,19.907]]}},{"type":"Feature","properties":{"boundary_type":"ridge","feature_type":"gpml:MidOceanRidge","polarity":null,"overriding_plate_id":null,"subducting_plate_id":null,"plate_ids":[90106,90107],"name":""},"geometry":{"type":"LineString","coordinates":[[50.474,19.907],[50.203,20.33],[49.93,20.752],[49.656,21.173],[49.38,21.594],[49.102,22.015],[48.823,22.435],[48.542,22.855],[48.259,23.274],[47.974,23.693],[47.688,24.111],[47.4,24.529],[47.11,24.946],[46.818,25.362],[46.523,25.778],[46.227,26.193],[45.929,26.608],[45.628,27.022],[45.326,27.436],[45.021,27.848],[44.713,28.26],[44.404,28.672],[44.092,29.083],[43.777,29.493],[43.46,29.902],[43.14,30.31],[42.818,30.718],[42.492,31.125],[42.164,31.531],[41.834,31.936],[41.5,32.34],[41.163,32.744],[40.823,33.146],[40.48,33.548],[40.134,33.949],[39.785,34.348],[39.432,34.747],[39.076,35.145],[38.716,35.541],[38.353,35.937],[37.986,36.331],[37.615,36.725],[37.241,37.117],[36.862,37.508],[36.48,37.897],[36.093,38.286],[35.703,38.673],[35.308,39.059],[34.909,39.443],[34.505,39.827],[34.097,40.208],[33.685,40.589],[33.267,40.967],[32.845,41.345],[32.418,41.72],[31.986,42.095],[31.549,42.467],[31.106,42.838],[31.639,43.089],[32.175,43.338],[32.716,43.585],[33.262,43.828],[33.812,44.07],[34.366,44.308],[34.925,44.544],[35.488,44.777],[35.13,45.208],[34.765,45.637],[34.395,46.065],[34.02,46.492],[33.638,46.918],[33.25,47.343],[32.856,47.766],[32.456,48.188],[32.049,48.608],[31.635,49.027],[31.214,49.444],[30.786,49.86],[30.35,50.274],[29.907,50.687],[29.456,51.098],[28.997,51.507],[28.53,51.914],[28.054,52.32],[27.569,52.723],[27.075,53.125],[26.572,53.524],[26.06,53.921],[25.538,54.316],[25.005,54.709],[24.462,55.099],[23.909,55.487],[23.344,55.872],[22.768,56.255],[22.181,56.635],[21.582,57.012],[20.97,57.386],[20.346,57.757],[19.709,58.125],[19.059,58.49],[18.395,58.852],[17.717,59.21],[17.025,59.564],[16.319,59.915],[15.597,60.261],[14.86,60.604],[14.107,60.943],[13.339,61.277],[12.553,61.607],[11.751,61.932],[10.932,62.253],[10.095,62.569],[9.241,62.879],[8.368,63.184],[7.477,63.484],[6.568,63.778],[5.639,64.067],[4.691,64.349],[3.724,64.625],[2.737,64.894],[1.73,65.157],[0.703,65.413],[-0.343,65.662],[-1.41,65.904],[-2.496,66.138],[-3.603,66.364],[-4.729,66.582],[-5.875,66.792],[-7.04,66.994],[-8.224,67.187],[-9.427,67.371],[-10.648,67.546],[-11.887,67.712],[-13.143,67.868],[-14.416,68.014],[-15.704,68.151],[-17.006,68.277],[-18.323,68.393],[-19.653,68.499],[-20.994,68.594],[-22.347,68.678],[-23.708,68.751],[-25.079,68.813],[-26.456,68.865],[-27.839,68.905],[-29.226,68.934],[-30.616,68.951],[-32.007,68.957],[-33.399,68.952],[-34.789,68.936],[-36.177,68.908],[-37.56,68.869],[-38.938,68.819],[-40.308,68.757],[-41.671,68.685],[-43.024,68.602],[-44.367,68.508],[-45.698,68.403],[-47.015,68.288],[-48.32,68.163],[-49.609,68.027],[-50.883,67.881],[-52.14,67.726],[-53.381,67.561],[-54.603,67.387],[-55.808,67.204],[-56.994,67.012],[-58.161,66.811],[-59.309,66.602],[-60.437,66.384],[-61.545,66.159]]}},{"type":"Feature","properties":{"boundary_type":"ridge","feature_type":"gpml:MidOceanRidge","polarity":null,"overriding_plate_id":null,"subducting_plate_id":null,"plate_ids":[90105,90107],"name":""},"geometry":{"type":"LineString","coordinates":[[51.525,18.248],[51.384,17.772],[51.245,17.297],[51.106,16.821],[50.967,16.346],[50.829,15.87],[50.692,15.394],[50.556,14.918],[50.42,14.442],[50.285,13.966],[50.15,13.49],[50.016,13.013],[49.882,12.537],[49.749,12.061],[49.616,11.584],[49.484,11.108],[49.352,10.631],[49.221,10.155],[49.09,9.678],[48.959,9.201],[48.829,8.724],[48.699,8.248],[48.57,7.771],[48.44,7.294],[48.311,6.817],[48.182,6.34],[48.054,5.863],[47.925,5.386],[47.797,4.909],[47.669,4.432],[47.541,3.955],[47.414,3.478],[47.286,3.001],[47.159,2.523],[47.032,2.046],[46.904,1.569],[46.777,1.092],[46.65,0.615],[46.523,0.138],[46.396,-0.34],[46.269,-0.817],[46.141,-1.294],[46.014,-1.771],[45.887,-2.248],[45.76,-2.725],[45.632,-3.203],[45.505,-3.68],[45.377,-4.157],[45.249,-4.634],[45.121,-5.111],[44.993,-5.588],[44.864,-6.065],[44.736,-6.542],[44.607,-7.019],[44.478,-7.496],[44.348,-7.973],[44.218,-8.45],[44.088,-8.926],[43.958,-9.403],[43.827,-9.88],[43.696,-10.356],[43.564,-10.833],[43.432,-11.31],[43.3,-11.786],[43.167,-12.262],[43.034,-12.739],[42.9,-13.215],[42.765,-13.691],[42.63,-14.167],[42.495,-14.644],[42.359,-15.12],[42.222,-15.595],[42.085,-16.071],[41.947,-16.547],[41.808,-17.023],[41.669,-17.498],[41.529,-17.974],[41.061,-17.834],[40.593,-17.694],[40.127,-17.552],[39.661,-17.409],[39.196,-17.265],[38.731,-17.12],[38.268,-16.974],[37.805,-16.827],[37.343,-16.679],[36.881,-16.53],[36.634,-16.967],[36.386,-17.403],[36.136,-17.839],[35.885,-18.275],[35.633,-18.71],[35.38,-19.145],[35.125,-19.58],[34.869,-20.015],[34.612,-20.449],[34.353,-20.882],[34.092,-21.316],[33.83,-21.749],[33.567,-22.181],[33.302,-22.613],[33.035,-23.045],[32.766,-23.476],[32.496,-23.907],[32.224,-24.337],[31.95,-24.766],[31.674,-25.196],[31.396,-25.624],[31.116,-26.053],[30.834,-26.48],[30.55,-26.907],[30.264,-27.334],[29.976,-27.76],[29.685,-28.185],[29.392,-28.61],[29.097,-29.034],[28.799,-29.457],[28.499,-29.88],[28.196,-30.302],[27.891,-30.723],[27.583,-31.144],[27.272,-31.564],[26.958,-31.983],[26.642,-32.401],[26.322,-32.819],[26.0,-33.236],[25.674,-33.652],[25.346,-34.067],[25.014,-34.481],[24.678,-34.894],[24.34,-35.306],[23.998,-35.718],[23.652,-36.128],[23.303,-36.537],[22.95,-36.946],[22.593,-37.353],[22.232,-37.759],[21.867,-38.164],[21.499,-38.568],[21.126,-38.971],[20.749,-39.373],[20.367,-39.773],[19.981,-40.172],[19.591,-40.57],[19.195,-40.966],[18.795,-41.362],[18.391,-41.755],[17.981,-42.147],[17.566,-42.538],[17.146,-42.928],[16.72,-43.315],[16.289,-43.701],[15.853,-44.086],[15.411,-44.469],[14.963,-44.85],[14.509,-45.229],[14.049,-45.606],[13.582,-45.982],[13.11,-46.356],[12.63,-46.727],[12.145,-47.097],[11.652,-47.465],[11.153,-47.83],[10.646,-48.193],[10.132,-48.554],[9.611,-48.913],[9.083,-49.269],[8.547,-49.623],[8.002,-49.974],[7.45,-50.323],[6.89,-50.669],[6.322,-51.013],[5.745,-51.353],[5.159,-51.691],[4.565,-52.026],[3.962,-52.357],[3.35,-52.686],[2.728,-53.011],[2.097,-53.334],[1.457,-53.652],[0.806,-53.968],[0.146,-54.279],[-0.524,-54.587],[-1.204,-54.892],[-1.894,-55.192],[-2.595,-55.488],[-3.077,-55.071],[-3.548,-54.651],[-4.01,-54.23],[-4.463,-53.807],[-4.906,-53.382],[-5.341,-52.956],[-5.767,-52.528],[-6.478,-52.767],[-7.196,-53.002],[-7.922,-53.233],[-8.656,-53.459],[-9.398,-53.68],[-10.147,-53.897],[-10.904,-54.109],[-11.669,-54.316],[-12.442,-54.519],[-13.222,-54.716],[-14.009,-54.909],[-14.804,-55.096],[-15.607,-55.278],[-16.417,-55.455],[-17.234,-55.626],[-18.058,-55.792],[-18.888,-55.952],[-19.726,-56.107],[-20.57,-56.256]]}},{"type":"Feature","properties":{"boundary_type":"ridge","feature_type":"gpml:MidOceanRidge","polarity":null,"overriding_plate_id":null,"subducting_plate_id":null,"plate_ids":[90105,90106],"name":""},"geometry":{"type":"LineString","coordinates":[[50.474,19.907],[51.0,19.895],[51.525,19.881],[52.051,19.866],[52.576,19.849],[53.101,19.831],[53.626,19.811],[54.151,19.789],[54.675,19.766],[55.2,19.742],[55.724,19.716],[56.249,19.688],[56.773,19.659],[57.296,19.628],[57.82,19.596],[58.343,19.563],[58.867,19.527],[59.389,19.491],[59.912,19.453],[60.435,19.413],[60.957,19.372],[61.479,19.329],[62.0,19.285],[62.522,19.239],[63.043,19.192],[63.563,19.144],[64.084,19.094],[64.604,19.042],[65.124,18.989],[65.643,18.935],[66.162,18.879],[66.681,18.822],[67.2,18.763],[67.718,18.703],[68.235,18.641],[68.753,18.578],[69.269,18.514],[69.786,18.448],[70.302,18.381],[70.818,18.312],[71.333,18.243],[71.848,18.171],[72.362,18.098],[72.876,18.024],[73.39,17.949],[73.903,17.872],[74.416,17.794],[74.928,17.715],[75.44,17.634],[75.951,17.552],[76.462,17.468],[76.972,17.384],[77.482,17.298],[77.992,17.21],[78.501,17.122],[79.009,17.032],[79.517,16.941],[80.025,16.849],[80.532,16.755],[81.038,16.66],[81.544,16.564],[82.05,16.467],[82.554,16.368],[83.059,16.269],[83.563,16.168],[84.066,16.066],[84.185,16.508],[84.304,16.95],[84.423,17.392],[84.543,17.835],[84.664,18.277],[84.785,18.719],[84.907,19.16],[85.03,19.602],[85.153,20.044],[85.277,20.486],[85.402,20.927],[85.916,20.793],[86.429,20.658],[86.941,20.521],[87.453,20.382],[87.963,20.242],[88.472,20.101],[88.981,19.958],[89.489,19.813],[89.995,19.668],[90.501,19.52],[91.006,19.372],[91.51,19.222],[92.012,19.07],[92.514,18.918],[93.016,18.764],[93.516,18.608],[94.015,18.451],[94.513,18.293],[95.011,18.134],[95.507,17.973],[96.003,17.812],[96.498,17.648],[96.991,17.484],[97.484,17.319],[97.976,17.152],[98.468,16.984],[98.958,16.815],[99.447,16.644],[99.936,16.473],[100.423,16.3],[100.91,16.127],[101.396,15.952],[101.881,15.776],[102.365,15.599],[102.849,15.421],[103.331,15.242],[103.813,15.062],[104.294,14.881],[104.774,14.699],[105.253,14.516],[105.732,14.332],[106.21,14.147],[106.687,13.961],[107.163,13.774],[107.638,13.586],[108.113,13.397],[108.587,13.208],[109.06,13.017],[109.533,12.826],[110.004,12.634],[110.475,12.441],[110.946,12.247],[111.415,12.053],[111.884,11.857],[111.772,11.382],[111.66,10.907],[111.548,10.432],[111.437,9.957],[111.326,9.482],[111.215,9.006],[111.105,8.531],[110.995,8.056],[110.885,7.58],[110.775,7.105],[110.666,6.63],[110.557,6.154],[110.448,5.679],[110.339,5.203],[110.23,4.728],[110.682,4.536],[111.133,4.344],[111.585,4.152],[112.035,3.96],[112.486,3.767],[112.937,3.575],[113.387,3.381],[113.837,3.188],[114.287,2.995],[114.737,2.801],[115.187,2.607],[115.636,2.413],[116.086,2.219],[116.535,2.025],[116.984,1.83],[117.434,1.636],[117.883,1.441],[118.332,1.247],[118.78,1.052]]}},{"type":"Feature","properties":{"boundary_type":"ridge","feature_type":"gpml:MidOceanRidge","polarity":null,"overriding_plate_id":null,"subducting_plate_id":null,"plate_ids":[201,90106],"name":""},"geometry":{"type":"LineString","coordinates":[[118.78,1.052],[119.213,0.864],[119.645,0.677],[120.077,0.489],[120.509,0.301],[120.942,0.113],[121.374,-0.075],[121.806,-0.262],[122.238,-0.45],[122.67,-0.638]]}},{"type":"Feature","properties":{"boundary_type":"ridge","feature_type":"gpml:MidOceanRidge","polarity":null,"overriding_plate_id":null,"subducting_plate_id":null,"plate_ids":[201,90106],"name":""},"geometry":{"type":"LineString","coordinates":[[122.67,-0.638],[123.133,-0.47],[123.595,-0.301],[124.057,-0.133],[124.52,0.035],[124.982,0.203],[125.444,0.372],[125.907,0.54],[126.369,0.708],[126.832,0.876],[127.294,1.044],[127.757,1.212],[128.219,1.38],[128.682,1.548],[129.144,1.716],[129.607,1.883],[130.07,2.051],[130.533,2.218],[130.996,2.385],[131.459,2.552],[131.923,2.719],[132.386,2.886],[132.85,3.053],[133.313,3.219],[133.777,3.385],[134.241,3.551],[134.706,3.717],[135.17,3.882],[135.635,4.047],[136.099,4.212],[136.564,4.377],[137.029,4.541],[137.495,4.705],[137.96,4.869],[138.426,5.032],[138.892,5.195],[139.358,5.358],[139.825,5.52],[140.292,5.682],[140.759,5.844],[141.226,6.005],[141.694,6.166],[142.162,6.327],[142.63,6.487],[143.098,6.646],[143.567,6.805],[144.036,6.964],[144.505,7.122],[144.975,7.28],[145.445,7.438],[145.916,7.594],[146.386,7.751],[146.857,7.906],[147.329,8.062],[147.801,8.216],[148.273,8.371],[148.458,7.945],[148.643,7.52],[148.828,7.095],[149.012,6.669],[149.196,6.244],[149.38,5.818],[149.563,5.393],[149.746,4.967],[149.929,4.541],[150.112,4.116],[150.531,4.31],[150.95,4.504],[151.37,4.697],[151.79,4.891],[152.21,5.084],[152.63,5.277]]}},{"type":"Feature","properties":{"boundary_type":"ridge","feature_type":"gpml:MidOceanRidge","polarity":null,"overriding_plate_id":null,"subducting_plate_id":null,"plate_ids":[90106,911001],"name":""},"geometry":{"type":"LineString","coordinates":[[152.63,5.277],[153.085,5.485],[153.54,5.693],[153.995,5.9],[154.451,6.107],[154.907,6.314],[155.363,6.52],[155.82,6.726],[156.277,6.932],[156.735,7.137],[157.193,7.341],[157.651,7.545],[158.11,7.749],[158.569,7.952],[159.029,8.155],[159.489,8.357],[159.95,8.559],[160.411,8.76],[160.873,8.96],[161.335,9.16],[161.798,9.359],[162.261,9.558],[162.725,9.756],[163.189,9.954],[163.654,10.151],[164.119,10.347],[164.585,10.542],[165.052,10.737],[165.519,10.931],[165.987,11.125],[166.455,11.318],[166.924,11.51],[167.394,11.701],[167.865,11.891],[168.336,12.081],[168.807,12.27],[169.28,12.458],[169.753,12.645],[170.226,12.832],[170.701,13.017],[171.176,13.202],[171.652,13.386],[172.128,13.569],[172.606,13.751]]}}]}