{"type":"FeatureCollection","meta":{"model":"Cao2024","reconstruction_time_ma":1030.0,"anchor_plate_id":0,"pygplates_version":"1.0.0","tessellate_degrees":0.5,"polarity_convention":"gpml:subductionPolarity. 'Left'/'Right' names the side of the line, in vertex order, on which the OVERRIDING plate lies. Triangles are drawn on that side.","antimeridian":"Lines are NOT split at +/-180 deg. The renderer works in 3D unit vectors where the dateline is not special; splitting would only add spurious breaks. Do not treat this as RFC 7946 GIS-ready 2D data."},"features":[{"type":"Feature","properties":{"boundary_type":"subduction","feature_type":"gpml:SubductionZone","polarity":"Left","overriding_plate_id":602,"subducting_plate_id":701,"plate_ids":[602,701],"name":"Coastal domain convergence"},"geometry":{"type":"LineString","coordinates":[[-41.53,20.859],[-41.929,21.006],[-42.328,21.152],[-42.77,21.435],[-43.213,21.717],[-43.658,21.998],[-44.104,22.277],[-44.553,22.555],[-45.003,22.832],[-45.455,23.108],[-45.909,23.382],[-46.087,23.474]]}},{"type":"Feature","properties":{"boundary_type":"subduction","feature_type":"gpml:SubductionZone","polarity":"Left","overriding_plate_id":602,"subducting_plate_id":801,"plate_ids":[602,801],"name":"Coastal domain convergence"},"geometry":{"type":"LineString","coordinates":[[-46.087,23.474],[-46.525,23.701],[-46.965,23.926],[-47.407,24.149],[-47.85,24.372],[-48.295,24.593],[-48.741,24.812],[-49.189,25.031],[-49.599,25.345],[-50.01,25.658],[-50.424,25.969],[-50.84,26.28],[-51.259,26.589],[-51.679,26.897],[-52.102,27.204],[-52.527,27.51],[-52.741,27.967],[-52.955,28.424],[-53.172,28.881],[-53.391,29.337],[-53.612,29.794],[-53.834,30.249],[-54.059,30.705],[-54.286,31.16],[-54.515,31.614],[-54.855,32.012],[-55.198,32.408],[-55.544,32.804],[-55.893,33.199],[-56.245,33.592],[-56.6,33.985],[-56.959,34.377],[-57.321,34.767],[-57.686,35.157],[-58.055,35.545],[-58.428,35.932],[-58.871,36.258],[-59.319,36.582],[-59.77,36.904],[-60.226,37.225],[-60.685,37.544],[-61.148,37.861],[-61.615,38.176],[-62.086,38.489],[-62.561,38.801],[-63.04,39.11],[-63.523,39.418],[-64.011,39.723],[-64.503,40.026],[-65.064,40.228],[-65.628,40.427],[-66.196,40.623],[-66.767,40.816],[-67.341,41.006],[-67.919,41.194],[-68.5,41.378],[-69.084,41.56],[-69.671,41.739],[-70.262,41.914],[-70.856,42.087],[-71.453,42.256],[-72.053,42.423],[-72.658,42.576],[-73.266,42.726],[-73.877,42.873],[-74.491,43.017],[-75.107,43.157],[-75.727,43.294],[-76.349,43.428],[-76.974,43.558],[-77.601,43.685],[-78.232,43.809],[-78.864,43.929],[-79.5,44.045],[-80.137,44.158],[-80.777,44.267],[-81.42,44.373],[-82.065,44.475],[-82.712,44.574],[-82.94,44.582]]}},{"type":"Feature","properties":{"boundary_type":"subduction","feature_type":"gpml:SubductionZone","polarity":"Left","overriding_plate_id":6024,"subducting_plate_id":801,"plate_ids":[801,6024],"name":"Coastal domain convergence"},"geometry":{"type":"LineString","coordinates":[[-82.94,44.582],[-83.635,44.606],[-84.33,44.625],[-85.025,44.639],[-85.721,44.65]]}},{"type":"Feature","properties":{"boundary_type":"transform","feature_type":"gpml:Transform","polarity":null,"overriding_plate_id":null,"subducting_plate_id":null,"plate_ids":[101,801],"name":"Transform_Australia-Laurentia"},"geometry":{"type":"LineString","coordinates":[[157.076,25.573],[156.588,25.764],[156.098,25.953],[155.607,26.141],[155.115,26.327],[154.62,26.511],[154.124,26.694],[153.627,26.875],[153.128,27.054],[152.627,27.231],[152.125,27.407],[151.621,27.581],[151.117,27.783],[150.61,27.984],[150.102,28.184],[149.592,28.381],[149.079,28.576],[148.565,28.77],[148.049,28.961],[147.531,29.15],[147.012,29.338],[146.49,29.523],[145.966,29.707],[145.441,29.888],[144.913,30.067],[144.384,30.245],[143.853,30.42],[143.32,30.592],[142.785,30.763],[142.248,30.932],[141.673,30.986],[141.097,31.039],[140.52,31.089],[139.943,31.136],[139.365,31.18],[138.787,31.222],[138.208,31.262],[137.629,31.299],[137.049,31.333],[136.469,31.365],[135.889,31.394],[135.308,31.42],[134.727,31.444],[134.146,31.465],[133.564,31.484],[132.995,31.565],[132.425,31.645],[131.854,31.721],[131.282,31.796],[130.71,31.867],[130.136,31.936],[129.561,32.003],[128.986,32.067],[128.41,32.128],[127.833,32.187],[127.256,32.243],[126.677,32.296],[126.098,32.347],[125.519,32.395],[124.939,32.441],[124.358,32.484],[123.776,32.524],[123.2,32.542],[122.623,32.557],[122.046,32.569],[121.469,32.579],[120.892,32.587],[120.315,32.591],[119.737,32.593],[119.16,32.593],[118.583,32.589],[118.005,32.583],[117.428,32.575],[116.851,32.564],[116.274,32.55],[115.697,32.533],[115.121,32.514],[114.545,32.493],[113.969,32.468]]}},{"type":"Feature","properties":{"boundary_type":"subduction","feature_type":"gpml:SubductionZone","polarity":"Left","overriding_plate_id":701,"subducting_plate_id":501,"plate_ids":[501,701],"name":"Sao Francisco subduction zone"},"geometry":{"type":"LineString","coordinates":[[9.416,-39.238],[9.805,-39.547],[10.198,-39.855],[10.595,-40.162],[10.995,-40.468],[11.459,-40.751],[11.928,-41.033],[12.401,-41.313],[12.877,-41.591],[13.358,-41.868],[13.843,-42.142],[14.333,-42.414],[14.826,-42.684],[15.324,-42.951],[15.826,-43.217]]}},{"type":"Feature","properties":{"boundary_type":"subduction","feature_type":"gpml:SubductionZone","polarity":"Left","overriding_plate_id":701,"subducting_plate_id":9804,"plate_ids":[701,9804],"name":"Sao Francisco subduction zone"},"geometry":{"type":"LineString","coordinates":[[15.826,-43.217],[16.131,-43.376],[16.437,-43.534],[16.916,-43.785],[17.398,-44.034],[17.885,-44.281],[18.376,-44.526],[18.87,-44.769],[19.369,-45.01],[19.925,-45.236],[20.486,-45.46],[21.051,-45.68],[21.62,-45.898],[22.194,-46.113],[22.758,-46.344],[23.327,-46.572],[23.901,-46.797],[24.479,-47.02],[25.062,-47.239],[25.532,-47.494],[26.007,-47.747],[26.486,-47.997],[26.97,-48.246],[27.459,-48.493],[27.928,-48.784],[28.403,-49.074],[28.883,-49.362],[29.369,-49.648],[29.856,-49.942],[30.348,-50.233],[30.847,-50.523],[31.352,-50.81],[31.986,-51.004],[32.625,-51.195],[33.269,-51.383],[33.919,-51.567],[34.574,-51.748],[35.234,-51.924],[35.9,-52.097],[36.57,-52.267],[37.246,-52.432],[37.929,-52.597],[38.618,-52.758],[39.311,-52.915],[40.01,-53.069],[40.713,-53.218],[41.478,-53.053],[42.237,-52.884],[42.99,-52.71],[43.737,-52.531],[44.478,-52.347],[45.213,-52.159],[45.941,-51.967],[46.664,-51.77],[47.379,-51.568],[48.089,-51.362],[48.792,-51.152],[49.488,-50.938],[50.178,-50.72],[50.862,-50.498],[51.539,-50.271],[52.21,-50.041],[52.874,-49.807],[53.532,-49.569],[54.184,-49.328],[54.829,-49.083]]}},{"type":"Feature","properties":{"boundary_type":"subduction","feature_type":"gpml:SubductionZone","polarity":"Left","overriding_plate_id":701,"subducting_plate_id":501,"plate_ids":[501,701],"name":"Sahara_SZ"},"geometry":{"type":"LineString","coordinates":[[-22.45,-20.572],[-22.074,-20.916],[-21.696,-21.259],[-21.317,-21.601],[-20.935,-21.943],[-20.552,-22.283],[-20.167,-22.623],[-19.78,-22.962],[-19.391,-23.3],[-19.0,-23.636],[-18.608,-23.972],[-18.213,-24.307],[-17.816,-24.641],[-17.416,-24.974],[-17.015,-25.305],[-16.612,-25.636],[-16.206,-25.965],[-15.798,-26.294],[-15.388,-26.621],[-14.975,-26.947],[-14.56,-27.272],[-14.142,-27.595],[-13.722,-27.918],[-13.3,-28.239],[-12.875,-28.558],[-12.447,-28.877],[-12.017,-29.194],[-11.584,-29.509],[-11.149,-29.824],[-10.71,-30.136],[-10.269,-30.448],[-9.825,-30.758],[-9.378,-31.066],[-8.937,-31.353],[-8.493,-31.638],[-8.046,-31.922],[-7.596,-32.205],[-7.143,-32.485],[-6.688,-32.765],[-6.23,-33.042],[-5.768,-33.318],[-5.304,-33.592],[-4.837,-33.864],[-4.367,-34.135],[-3.894,-34.403],[-3.418,-34.67],[-2.939,-34.935],[-2.457,-35.199],[-1.972,-35.46],[-1.483,-35.719],[-0.934,-35.907],[-0.382,-36.092],[0.173,-36.275],[0.73,-36.455],[1.29,-36.633],[1.852,-36.808],[2.417,-36.98],[2.984,-37.149],[3.554,-37.316],[4.127,-37.481],[4.702,-37.642],[5.215,-37.828],[5.731,-38.013],[6.25,-38.195],[6.771,-38.375],[7.295,-38.552],[7.821,-38.727],[8.35,-38.9],[8.881,-39.07],[9.416,-39.238]]}},{"type":"Feature","properties":{"boundary_type":"subduction","feature_type":"gpml:SubductionZone","polarity":"Left","overriding_plate_id":602,"subducting_plate_id":6024,"plate_ids":[602,6024],"name":"Jiangang SZ"},"geometry":{"type":"LineString","coordinates":[[-82.94,44.582],[-82.431,44.253],[-81.929,43.922],[-81.432,43.588],[-80.94,43.253],[-80.454,42.915],[-79.973,42.575],[-79.497,42.233],[-79.026,41.889],[-78.561,41.544],[-78.1,41.196],[-77.644,40.847],[-77.194,40.496],[-76.747,40.143],[-76.306,39.788],[-75.869,39.432],[-75.436,39.074],[-75.008,38.715],[-74.584,38.354],[-74.164,37.991],[-73.749,37.628],[-73.403,37.249],[-73.061,36.87],[-72.722,36.49],[-72.387,36.108],[-72.055,35.726],[-71.726,35.343],[-71.4,34.959],[-71.077,34.574],[-70.757,34.189],[-70.44,33.802],[-70.126,33.415],[-69.815,33.027],[-69.506,32.638],[-69.2,32.248],[-68.959,31.808],[-68.719,31.367],[-68.482,30.926],[-68.248,30.484],[-68.015,30.042],[-67.784,29.6],[-67.556,29.157],[-67.329,28.714],[-67.104,28.27],[-66.881,27.826],[-66.66,27.382],[-66.29,27.044],[-65.922,26.705],[-65.556,26.365],[-65.192,26.024],[-64.83,25.682],[-64.471,25.339],[-64.113,24.996],[-63.757,24.651],[-63.404,24.306],[-63.052,23.96],[-62.702,23.613],[-62.354,23.265],[-62.008,22.917],[-61.526,22.709],[-61.045,22.499],[-60.566,22.288],[-60.088,22.075],[-59.612,21.861],[-59.137,21.646],[-58.663,21.429],[-58.191,21.211],[-57.72,20.992],[-57.251,20.771],[-56.783,20.55],[-56.316,20.327]]}},{"type":"Feature","properties":{"boundary_type":"subduction","feature_type":"gpml:SubductionZone","polarity":"Right","overriding_plate_id":101,"subducting_plate_id":801,"plate_ids":[101,801],"name":"Siberia SZ"},"geometry":{"type":"LineString","coordinates":[[157.076,25.573],[157.602,25.709],[158.129,25.844],[158.658,25.976],[159.187,26.107],[159.718,26.236],[160.25,26.362],[160.784,26.487],[161.318,26.61],[161.853,26.731],[162.39,26.85],[162.901,27.013],[163.414,27.174],[163.928,27.334],[164.443,27.491],[164.96,27.647],[165.479,27.801],[165.999,27.953],[166.52,28.103],[167.043,28.251],[167.567,28.396],[168.093,28.54],[168.62,28.682],[169.149,28.822],[169.679,28.96],[170.21,29.095],[170.773,29.103],[171.336,29.108],[171.899,29.111],[172.462,29.111],[173.025,29.109],[173.588,29.105],[174.15,29.098],[174.713,29.089],[175.276,29.078],[175.838,29.064],[176.401,29.048],[176.963,29.03],[177.525,29.009],[178.087,28.986],[178.617,29.023],[179.148,29.057],[179.68,29.089],[-179.789,29.119],[-179.257,29.147],[-178.725,29.173],[-178.192,29.196],[-177.66,29.218],[-177.127,29.237],[-176.594,29.255],[-176.061,29.27],[-175.527,29.283],[-174.994,29.294],[-174.46,29.303],[-174.033,29.601],[-173.604,29.897],[-173.172,30.192],[-172.737,30.486],[-172.3,30.778],[-171.86,31.069],[-171.418,31.358],[-170.973,31.646],[-170.525,31.932],[-170.074,32.217],[-169.62,32.5],[-169.164,32.781],[-168.705,33.061],[-168.23,33.36],[-167.753,33.657],[-167.272,33.953],[-166.788,34.246],[-166.3,34.538],[-165.809,34.828],[-165.314,35.116],[-164.816,35.402],[-164.315,35.685],[-163.81,35.967],[-163.301,36.246],[-162.789,36.524],[-162.214,36.583],[-161.638,36.64],[-161.061,36.695],[-160.484,36.746],[-159.906,36.794],[-159.327,36.84],[-158.747,36.883],[-158.167,36.923],[-157.586,36.961],[-157.005,36.995],[-156.423,37.027],[-155.841,37.056],[-155.258,37.082],[-154.675,37.105],[-154.088,37.059],[-153.501,37.011],[-152.916,36.96],[-152.331,36.906],[-151.747,36.85],[-151.164,36.79],[-150.582,36.727],[-150.001,36.662],[-149.421,36.594],[-148.842,36.523]]}},{"type":"Feature","properties":{"boundary_type":"ridge","feature_type":"gpml:MidOceanRidge","polarity":null,"overriding_plate_id":null,"subducting_plate_id":null,"plate_ids":[580,9804],"name":"MOR"},"geometry":{"type":"LineString","coordinates":[[-141.325,-44.062],[-140.71,-44.266],[-140.091,-44.467],[-139.468,-44.664],[-138.84,-44.858],[-138.208,-45.048],[-137.572,-45.235],[-136.932,-45.418],[-136.287,-45.597],[-135.639,-45.773],[-134.987,-45.946],[-134.33,-46.114],[-133.67,-46.279],[-133.005,-46.44],[-132.337,-46.597],[-131.665,-46.75],[-130.989,-46.899],[-130.309,-47.044],[-129.626,-47.185],[-128.939,-47.323],[-128.248,-47.455],[-127.555,-47.584],[-126.857,-47.709],[-126.157,-47.829],[-125.453,-47.945],[-124.746,-48.057],[-124.037,-48.164],[-123.324,-48.267],[-122.608,-48.366],[-121.89,-48.46],[-121.169,-48.549],[-120.446,-48.635],[-119.72,-48.715],[-118.992,-48.791],[-118.262,-48.862],[-117.956,-48.418],[-117.655,-47.973],[-117.36,-47.527],[-117.069,-47.081],[-116.784,-46.634],[-116.503,-46.186],[-116.226,-45.737],[-115.954,-45.288],[-115.687,-44.838],[-115.423,-44.387],[-115.164,-43.936],[-114.908,-43.484],[-114.656,-43.032],[-114.408,-42.579],[-114.163,-42.126],[-113.922,-41.672],[-113.685,-41.218],[-113.45,-40.763],[-113.219,-40.307],[-112.991,-39.852],[-112.766,-39.395],[-112.544,-38.939],[-112.324,-38.482],[-112.108,-38.024],[-111.894,-37.566],[-111.682,-37.108],[-111.474,-36.649],[-111.267,-36.19],[-111.064,-35.731],[-110.862,-35.271],[-110.663,-34.811],[-110.466,-34.351],[-110.271,-33.891],[-109.725,-34.088],[-109.177,-34.283],[-108.626,-34.475],[-108.073,-34.665],[-107.517,-34.853],[-106.959,-35.038],[-106.398,-35.22],[-105.835,-35.4],[-105.269,-35.577],[-104.701,-35.751],[-104.13,-35.923],[-103.556,-36.092],[-102.981,-36.258],[-102.403,-36.422],[-101.822,-36.583],[-101.239,-36.741],[-100.654,-36.896],[-100.066,-37.048],[-99.476,-37.197],[-98.883,-37.344],[-98.289,-37.487],[-97.692,-37.627],[-97.093,-37.765],[-96.491,-37.899],[-95.888,-38.03],[-95.282,-38.158],[-94.674,-38.283],[-94.064,-38.405],[-93.453,-38.524],[-92.839,-38.64],[-92.223,-38.752],[-91.605,-38.861],[-90.985,-38.967],[-90.364,-39.069],[-89.741,-39.168],[-89.116,-39.264],[-88.489,-39.357],[-87.861,-39.446],[-87.231,-39.532],[-86.6,-39.614],[-85.967,-39.693],[-85.333,-39.769],[-84.697,-39.841],[-84.06,-39.909],[-83.422,-39.974],[-82.782,-40.036],[-82.142,-40.094],[-81.5,-40.148],[-80.858,-40.199],[-80.214,-40.247],[-79.57,-40.29],[-78.925,-40.331],[-78.279,-40.367],[-77.632,-40.4],[-76.985,-40.43],[-76.338,-40.456],[-75.689,-40.478],[-75.041,-40.497],[-74.392,-40.512],[-73.743,-40.523],[-73.094,-40.531],[-72.444,-40.535],[-71.795,-40.535],[-71.145,-40.532],[-71.168,-40.058],[-71.191,-39.584],[-71.213,-39.11],[-71.235,-38.635],[-71.257,-38.161],[-71.279,-37.687],[-71.3,-37.213],[-71.321,-36.739],[-71.341,-36.265],[-71.362,-35.79],[-71.382,-35.316],[-71.402,-34.842]]}},{"type":"Feature","properties":{"boundary_type":"subduction","feature_type":"gpml:SubductionZone","polarity":"Right","overriding_plate_id":101,"subducting_plate_id":801,"plate_ids":[101,801],"name":"SZ"},"geometry":{"type":"LineString","coordinates":[[-148.842,36.523],[-148.326,36.762],[-147.806,36.999],[-147.283,37.233],[-146.756,37.465],[-146.227,37.695],[-145.694,37.922],[-145.158,38.147],[-144.618,38.369],[-144.075,38.589],[-143.529,38.807],[-142.98,39.022],[-142.427,39.234],[-141.871,39.444],[-141.312,39.651],[-140.749,39.855],[-140.183,40.057],[-139.613,40.255],[-139.041,40.451],[-138.464,40.644],[-137.885,40.835],[-137.302,41.022],[-136.716,41.206],[-136.127,41.388]]}},{"type":"Feature","properties":{"boundary_type":"subduction","feature_type":"gpml:SubductionZone","polarity":"Right","overriding_plate_id":6024,"subducting_plate_id":801,"plate_ids":[801,6024],"name":"SZ"},"geometry":{"type":"LineString","coordinates":[[-136.127,41.388],[-135.597,41.548],[-135.064,41.705],[-134.47,41.896],[-133.872,42.084],[-133.27,42.269],[-132.665,42.45],[-132.056,42.629],[-131.444,42.804],[-130.829,42.976],[-130.21,43.145],[-129.587,43.31],[-128.962,43.472],[-128.333,43.631],[-127.7,43.786],[-127.065,43.937],[-126.426,44.085],[-125.784,44.23],[-125.139,44.37],[-124.491,44.507],[-123.84,44.641],[-123.185,44.771],[-122.528,44.897],[-121.869,45.019],[-121.206,45.137],[-120.541,45.252],[-119.873,45.362],[-119.202,45.469],[-118.514,45.595],[-117.823,45.716],[-117.129,45.833],[-116.432,45.946],[-115.732,46.055],[-115.03,46.159],[-114.325,46.259],[-113.618,46.355],[-112.908,46.446],[-112.195,46.533],[-111.481,46.615],[-110.764,46.693],[-110.046,46.767],[-109.325,46.836],[-108.603,46.9],[-107.879,46.96],[-107.153,47.015],[-106.426,47.066],[-105.698,47.112],[-104.969,47.154],[-104.238,47.191],[-103.506,47.223],[-102.774,47.25],[-102.041,47.273],[-101.307,47.292],[-100.573,47.305],[-99.839,47.314],[-99.104,47.318],[-98.37,47.317],[-97.635,47.312],[-96.901,47.302],[-96.167,47.288],[-95.433,47.268],[-94.701,47.244],[-93.968,47.216],[-93.307,47.04],[-92.65,46.86],[-91.998,46.677],[-91.35,46.49],[-90.706,46.3],[-90.067,46.105],[-89.433,45.908],[-88.803,45.706],[-88.177,45.502],[-87.556,45.294],[-86.94,45.082],[-86.328,44.868],[-85.721,44.65]]}},{"type":"Feature","properties":{"boundary_type":"ridge","feature_type":"gpml:MidOceanRidge","polarity":null,"overriding_plate_id":null,"subducting_plate_id":null,"plate_ids":[580,9804],"name":"MOR"},"geometry":{"type":"LineString","coordinates":[[-71.402,-34.842],[-71.345,-34.859]]}},{"type":"Feature","properties":{"boundary_type":"ridge","feature_type":"gpml:MidOceanRidge","polarity":null,"overriding_plate_id":null,"subducting_plate_id":null,"plate_ids":[501,9804],"name":"MOR"},"geometry":{"type":"LineString","coordinates":[[-71.345,-34.859],[-70.791,-35.027],[-70.236,-35.191],[-69.677,-35.353],[-69.117,-35.512],[-68.555,-35.669],[-67.99,-35.823],[-67.423,-35.975],[-66.854,-36.124],[-66.283,-36.27],[-65.709,-36.413],[-65.134,-36.554],[-64.556,-36.692],[-63.977,-36.827],[-63.395,-36.959],[-62.812,-37.088],[-62.226,-37.215],[-61.638,-37.339],[-61.049,-37.459],[-60.458,-37.577],[-59.865,-37.692],[-59.27,-37.804],[-58.673,-37.913],[-58.074,-38.019],[-57.474,-38.121],[-56.872,-38.221],[-56.979,-38.697],[-57.088,-39.172],[-57.198,-39.648],[-57.309,-40.124],[-57.423,-40.599],[-57.537,-41.074],[-57.654,-41.549],[-57.772,-42.024],[-57.892,-42.499],[-58.013,-42.974],[-58.137,-43.448],[-58.263,-43.923],[-58.39,-44.397],[-58.52,-44.871],[-58.652,-45.346],[-58.786,-45.819],[-58.922,-46.293],[-59.061,-46.767],[-59.202,-47.24],[-59.346,-47.713],[-59.493,-48.186],[-59.642,-48.659],[-59.794,-49.132],[-59.949,-49.604],[-60.106,-50.077],[-60.268,-50.549],[-60.432,-51.02],[-59.717,-51.201],[-58.998,-51.376],[-58.272,-51.548],[-57.541,-51.715],[-56.805,-51.877],[-56.064,-52.034],[-55.317,-52.187],[-54.566,-52.336],[-53.809,-52.479],[-53.047,-52.618],[-52.281,-52.751],[-51.51,-52.88],[-50.735,-53.004],[-49.955,-53.122],[-49.171,-53.236],[-48.383,-53.344],[-47.591,-53.447],[-46.796,-53.545],[-45.996,-53.637],[-45.194,-53.724],[-44.388,-53.806],[-43.579,-53.883],[-42.767,-53.953],[-42.936,-54.418],[-43.108,-54.882],[-43.285,-55.346],[-43.465,-55.809],[-43.65,-56.272],[-43.84,-56.735],[-44.034,-57.198],[-44.233,-57.661],[-44.438,-58.123],[-44.647,-58.584],[-44.863,-59.046],[-45.084,-59.507],[-45.311,-59.968],[-44.32,-59.993],[-43.326,-60.012],[-42.333,-60.023],[-41.338,-60.027],[-40.344,-60.023],[-39.35,-60.011],[-38.357,-59.992],[-37.365,-59.966],[-36.376,-59.932],[-35.388,-59.891],[-34.403,-59.843],[-33.421,-59.787],[-32.443,-59.724],[-31.468,-59.654],[-30.498,-59.576],[-29.532,-59.492],[-28.572,-59.4],[-27.617,-59.301],[-26.667,-59.195],[-25.724,-59.083],[-24.787,-58.963],[-23.857,-58.837],[-22.933,-58.704],[-22.017,-58.565],[-21.108,-58.419],[-20.207,-58.267],[-19.314,-58.109],[-18.429,-57.944],[-17.552,-57.773],[-16.683,-57.597],[-15.823,-57.414],[-14.972,-57.226],[-14.129,-57.032],[-13.295,-56.832],[-12.47,-56.627],[-11.655,-56.416],[-10.848,-56.2],[-10.051,-55.979],[-9.262,-55.753],[-8.483,-55.522],[-7.713,-55.286],[-6.952,-55.045],[-6.201,-54.799],[-5.459,-54.549],[-4.725,-54.295],[-4.001,-54.036],[-3.286,-53.772],[-2.58,-53.505],[-1.883,-53.233],[-1.194,-52.958],[-0.515,-52.678],[0.156,-52.395],[0.819,-52.108],[1.472,-51.817],[2.118,-51.522],[2.755,-51.225],[3.383,-50.923],[4.004,-50.619],[4.617,-50.311],[5.221,-50.0],[5.818,-49.686],[6.407,-49.368],[6.989,-49.048],[7.563,-48.725],[8.13,-48.4],[8.689,-48.071],[9.241,-47.74],[9.787,-47.406],[10.325,-47.069],[10.857,-46.73],[11.382,-46.389],[11.9,-46.045],[12.412,-45.699],[12.918,-45.351],[13.417,-45.001],[13.911,-44.648],[14.398,-44.293],[14.88,-43.936],[15.356,-43.578],[15.826,-43.217]]}},{"type":"Feature","properties":{"boundary_type":"subduction","feature_type":"gpml:SubductionZone","polarity":"Left","overriding_plate_id":101,"subducting_plate_id":701,"plate_ids":[101,701],"name":"inferred SZ"},"geometry":{"type":"LineString","coordinates":[[98.382,-4.042],[98.265,-4.504],[98.148,-4.965],[98.031,-5.427],[97.914,-5.888],[97.797,-6.35],[97.68,-6.811],[97.562,-7.273],[97.444,-7.734],[97.326,-8.196],[97.207,-8.657],[97.089,-9.118],[96.969,-9.579],[96.85,-10.041],[96.773,-10.529],[96.695,-11.017],[96.618,-11.506],[96.54,-11.994],[96.461,-12.482],[96.383,-12.97],[96.304,-13.458],[96.225,-13.947],[96.145,-14.435],[96.065,-14.923],[95.985,-15.411],[95.905,-15.899],[95.824,-16.387],[95.742,-16.875],[95.66,-17.363],[95.578,-17.851],[95.495,-18.339],[95.412,-18.827],[95.328,-19.315],[95.244,-19.802],[95.16,-20.29],[95.074,-20.778],[94.989,-21.265],[94.902,-21.753],[94.815,-22.241],[94.728,-22.728],[94.639,-23.216],[94.551,-23.703],[94.461,-24.19],[94.371,-24.678],[94.318,-25.163],[94.264,-25.648],[94.21,-26.133],[94.155,-26.618],[94.1,-27.103],[94.045,-27.589],[93.989,-28.074],[93.932,-28.559],[93.875,-29.044],[93.818,-29.529],[93.76,-30.013],[93.701,-30.498],[93.642,-30.983],[93.582,-31.468],[93.522,-31.953],[93.46,-32.438],[93.399,-32.923],[93.336,-33.407],[93.273,-33.892],[93.209,-34.377],[93.144,-34.861],[93.079,-35.346],[93.013,-35.831],[92.946,-36.315],[92.878,-36.8],[92.809,-37.284],[92.74,-37.769],[92.669,-38.253],[92.599,-38.748],[92.528,-39.243],[92.456,-39.738],[92.383,-40.233],[92.309,-40.728],[92.234,-41.223],[92.157,-41.718],[92.08,-42.213],[92.001,-42.708],[91.921,-43.203],[91.84,-43.697],[91.757,-44.192],[91.673,-44.687],[91.587,-45.181],[91.5,-45.676]]}},{"type":"Feature","properties":{"boundary_type":"ridge","feature_type":"gpml:MidOceanRidge","polarity":null,"overriding_plate_id":null,"subducting_plate_id":null,"plate_ids":[101,6024],"name":"inferred MOR"},"geometry":{"type":"LineString","coordinates":[[-136.127,41.388],[-136.141,40.898],[-136.154,40.407],[-136.168,39.917],[-136.181,39.427],[-136.194,38.936],[-136.207,38.446],[-136.22,37.956],[-136.232,37.466],[-136.245,36.975],[-136.257,36.485],[-136.269,35.995],[-136.281,35.504],[-136.293,35.014],[-136.304,34.524],[-136.316,34.034],[-136.327,33.543],[-136.338,33.053],[-136.349,32.563],[-136.36,32.072],[-136.371,31.582],[-136.382,31.092],[-136.393,30.601],[-136.403,30.111],[-136.414,29.621],[-136.424,29.13],[-136.434,28.64],[-136.444,28.15],[-136.454,27.66],[-136.464,27.169],[-136.474,26.679],[-136.484,26.189],[-136.494,25.698],[-136.503,25.208],[-136.513,24.718],[-136.522,24.227],[-136.532,23.737],[-136.541,23.247],[-136.55,22.756],[-136.559,22.266],[-136.028,22.282],[-135.497,22.296],[-134.965,22.309],[-134.434,22.32],[-133.902,22.329],[-133.37,22.336],[-132.838,22.342],[-132.307,22.346],[-131.775,22.348],[-131.243,22.348],[-130.711,22.347],[-130.179,22.344],[-129.647,22.339],[-129.116,22.332],[-128.584,22.324],[-128.052,22.314],[-127.521,22.302],[-126.989,22.289],[-126.458,22.274],[-126.45,21.776],[-126.442,21.278],[-126.433,20.781],[-126.425,20.283],[-126.417,19.786],[-126.409,19.288],[-126.401,18.79],[-126.393,18.293],[-126.385,17.795],[-126.378,17.297],[-126.37,16.8],[-126.362,16.302],[-126.354,15.805],[-126.347,15.307],[-126.339,14.809]]}},{"type":"Feature","properties":{"boundary_type":"subduction","feature_type":"gpml:SubductionZone","polarity":"Left","overriding_plate_id":701,"subducting_plate_id":9804,"plate_ids":[701,9804],"name":"SZ"},"geometry":{"type":"LineString","coordinates":[[54.829,-49.083],[55.558,-49.074],[56.287,-49.06],[57.016,-49.042],[57.744,-49.02],[58.472,-48.992],[59.199,-48.961],[59.924,-48.924],[60.649,-48.883],[61.372,-48.838],[62.094,-48.788],[62.814,-48.734],[63.533,-48.675],[64.25,-48.611],[64.965,-48.544],[65.678,-48.471],[66.39,-48.395],[67.098,-48.314],[67.825,-48.289],[68.551,-48.26],[69.275,-48.226],[69.999,-48.187],[70.722,-48.144],[71.443,-48.097],[72.163,-48.045],[72.882,-47.989],[73.599,-47.928],[74.314,-47.862],[75.027,-47.792],[75.707,-47.748],[76.387,-47.699],[77.064,-47.646],[77.741,-47.59],[78.416,-47.529],[79.089,-47.465],[79.761,-47.396],[80.431,-47.324],[81.099,-47.247],[81.765,-47.167],[82.429,-47.083],[83.091,-46.995]]}},{"type":"Feature","properties":{"boundary_type":"subduction","feature_type":"gpml:SubductionZone","polarity":"Left","overriding_plate_id":701,"subducting_plate_id":101,"plate_ids":[101,701],"name":"SZ"},"geometry":{"type":"LineString","coordinates":[[83.091,-46.995],[83.715,-46.909],[84.338,-46.819],[84.958,-46.725],[85.576,-46.628],[86.192,-46.528],[86.865,-46.435],[87.535,-46.338],[88.202,-46.237],[88.867,-46.133],[89.529,-46.024],[90.189,-45.912],[90.846,-45.796],[91.5,-45.676]]}},{"type":"Feature","properties":{"boundary_type":"subduction","feature_type":"gpml:SubductionZone","polarity":"Left","overriding_plate_id":602,"subducting_plate_id":501,"plate_ids":[501,602],"name":"NorthIndia SZ"},"geometry":{"type":"LineString","coordinates":[[-57.387,-1.706],[-57.055,-1.353],[-56.723,-1.0],[-56.391,-0.646],[-56.06,-0.293],[-55.728,0.06],[-55.396,0.413],[-55.065,0.767],[-54.733,1.12],[-54.401,1.473],[-54.069,1.826],[-53.768,2.223],[-53.467,2.619],[-53.166,3.016],[-52.864,3.412],[-52.562,3.809],[-52.26,4.205],[-51.957,4.601],[-51.655,4.997],[-51.351,5.393],[-51.048,5.789],[-50.744,6.185],[-50.439,6.58],[-50.134,6.975],[-49.829,7.37],[-49.523,7.765],[-49.216,8.16],[-48.909,8.554],[-48.601,8.948],[-48.293,9.342],[-47.984,9.736],[-47.674,10.129],[-47.363,10.522],[-47.052,10.915],[-46.739,11.307],[-46.426,11.699],[-46.112,12.091],[-45.797,12.482],[-45.481,12.873],[-45.165,13.264],[-44.979,13.701],[-44.793,14.137],[-44.606,14.574],[-44.418,15.01],[-44.229,15.447],[-44.04,15.883],[-43.85,16.319],[-43.659,16.754],[-43.467,17.19],[-43.274,17.625],[-43.08,18.06],[-42.885,18.495],[-42.69,18.93],[-42.493,19.365],[-42.295,19.799],[-42.096,20.233],[-42.056,20.509],[-42.015,20.785]]}},{"type":"Feature","properties":{"boundary_type":"transform","feature_type":"gpml:Transform","polarity":null,"overriding_plate_id":null,"subducting_plate_id":null,"plate_ids":[101],"name":""},"geometry":{"type":"LineString","coordinates":[[71.787,9.882],[72.078,10.237],[72.369,10.592],[72.662,10.946]]}},{"type":"Feature","properties":{"boundary_type":"transform","feature_type":"gpml:Transform","polarity":null,"overriding_plate_id":null,"subducting_plate_id":null,"plate_ids":[101,801],"name":""},"geometry":{"type":"LineString","coordinates":[[72.662,10.946],[72.963,11.311],[73.265,11.675],[73.568,12.039],[73.872,12.403],[74.177,12.766],[74.482,13.129],[74.789,13.491],[75.096,13.854],[75.404,14.215],[75.714,14.577],[76.024,14.938],[76.335,15.298],[76.648,15.659],[76.961,16.018],[77.276,16.378],[77.628,16.721],[77.981,17.064],[78.335,17.406],[78.691,17.748],[79.048,18.089],[79.407,18.429],[79.766,18.768],[80.128,19.107],[80.491,19.446],[80.855,19.783],[81.221,20.12],[81.588,20.456],[81.957,20.791],[82.328,21.125],[82.701,21.459],[83.075,21.792],[83.45,22.124],[83.828,22.455],[84.207,22.785],[84.589,23.114],[84.972,23.443],[85.357,23.77],[85.744,24.096],[86.224,24.315],[86.705,24.533],[87.188,24.748],[87.673,24.963],[88.159,25.175],[88.647,25.386],[89.137,25.596],[89.628,25.803],[90.121,26.01],[90.616,26.214],[91.113,26.417],[91.612,26.618],[92.112,26.817],[92.614,27.015],[93.117,27.21],[93.623,27.404],[94.13,27.596],[94.639,27.787],[95.15,27.975],[95.662,28.162],[96.176,28.346],[96.693,28.529],[97.21,28.709],[97.73,28.888],[98.251,29.065],[98.775,29.24],[99.318,29.39],[99.863,29.538],[100.41,29.684],[100.958,29.828],[101.508,29.969],[102.06,30.108],[102.612,30.245],[103.167,30.38],[103.723,30.512],[104.28,30.641],[104.839,30.769],[105.4,30.894],[105.962,31.016],[106.525,31.137],[107.09,31.254],[107.656,31.369],[108.223,31.482],[108.792,31.592],[109.362,31.7],[109.934,31.805],[110.507,31.908],[111.081,32.008],[111.656,32.105],[112.232,32.2],[112.81,32.292],[113.389,32.381],[113.969,32.468]]}},{"type":"Feature","properties":{"boundary_type":"ridge","feature_type":"gpml:MidOceanRidge","polarity":null,"overriding_plate_id":null,"subducting_plate_id":null,"plate_ids":[101,580],"name":""},"geometry":{"type":"LineString","coordinates":[[-126.402,14.815],[-126.339,14.809]]}},{"type":"Feature","properties":{"boundary_type":"ridge","feature_type":"gpml:MidOceanRidge","polarity":null,"overriding_plate_id":null,"subducting_plate_id":null,"plate_ids":[580,6024],"name":""},"geometry":{"type":"LineString","coordinates":[[-126.339,14.809],[-125.83,14.767],[-125.322,14.722],[-124.814,14.677],[-124.306,14.631],[-123.798,14.584],[-123.29,14.535],[-122.783,14.486],[-122.276,14.435],[-121.769,14.383],[-121.262,14.33],[-120.756,14.277],[-120.25,14.222],[-119.744,14.166],[-119.238,14.109],[-118.733,14.05],[-118.227,13.991],[-117.722,13.931],[-117.218,13.87],[-116.713,13.807],[-116.209,13.744],[-115.705,13.68],[-115.202,13.614],[-114.699,13.548],[-114.196,13.481],[-113.693,13.412],[-113.191,13.343],[-112.688,13.272],[-112.187,13.201],[-111.685,13.129],[-111.184,13.055],[-110.683,12.981],[-110.182,12.906],[-110.27,12.451],[-110.357,11.995],[-110.444,11.54],[-110.531,11.084],[-110.618,10.629],[-110.125,10.516],[-109.632,10.402],[-109.139,10.287],[-108.647,10.172],[-108.155,10.056],[-107.664,9.939],[-107.173,9.822],[-106.682,9.703],[-106.192,9.584],[-105.702,9.465],[-105.212,9.344],[-104.723,9.223],[-104.234,9.102],[-103.745,8.979],[-103.257,8.857],[-102.769,8.733],[-102.281,8.609],[-101.794,8.484],[-101.307,8.359],[-100.82,8.232],[-100.334,8.106],[-99.848,7.979],[-99.362,7.851],[-99.225,8.281],[-99.089,8.711],[-98.952,9.141],[-98.815,9.571],[-98.677,10.001],[-98.539,10.431],[-98.049,10.299],[-97.559,10.167],[-97.07,10.033],[-96.581,9.899],[-96.092,9.764],[-95.604,9.629],[-95.116,9.493],[-94.629,9.356],[-94.142,9.218],[-93.655,9.08],[-93.169,8.941],[-92.683,8.802],[-92.197,8.662],[-91.712,8.521],[-91.227,8.38],[-90.743,8.238],[-90.259,8.095],[-89.775,7.952],[-89.291,7.809],[-88.808,7.665],[-88.325,7.52],[-87.843,7.375],[-87.361,7.229],[-86.879,7.083],[-86.397,6.936],[-85.916,6.789],[-85.435,6.641],[-84.955,6.493],[-84.474,6.344],[-83.994,6.195],[-83.514,6.046],[-83.035,5.896],[-82.556,5.746],[-82.077,5.595],[-81.598,5.444],[-81.119,5.292],[-80.641,5.141],[-80.163,4.988],[-79.685,4.836],[-79.207,4.683],[-78.73,4.53],[-78.253,4.376],[-77.776,4.222],[-77.299,4.068],[-76.822,3.914],[-76.346,3.759],[-75.869,3.604],[-75.393,3.449],[-74.917,3.294],[-74.441,3.138],[-73.966,2.982],[-73.874,3.383],[-73.782,3.784],[-73.691,4.185],[-73.599,4.586],[-73.507,4.987],[-73.033,4.862],[-72.559,4.736],[-72.086,4.61],[-71.612,4.483],[-71.139,4.357],[-70.666,4.229],[-70.193,4.102],[-69.72,3.974],[-69.247,3.846],[-68.775,3.718],[-68.302,3.59],[-67.83,3.461],[-67.358,3.332],[-66.886,3.203],[-66.414,3.074],[-65.942,2.944],[-65.471,2.814],[-64.999,2.684],[-64.528,2.554],[-64.057,2.424],[-63.585,2.294],[-63.114,2.163],[-62.643,2.032],[-62.172,1.901],[-61.701,1.77],[-61.23,1.639],[-60.759,1.508],[-60.289,1.376],[-59.818,1.245],[-59.347,1.113],[-58.877,0.982],[-58.406,0.85],[-57.936,0.718],[-57.465,0.586],[-56.995,0.455]]}},{"type":"Feature","properties":{"boundary_type":"subduction","feature_type":"gpml:SubductionZone","polarity":"Left","overriding_plate_id":602,"subducting_plate_id":6024,"plate_ids":[602,6024],"name":"N-India SZ"},"geometry":{"type":"LineString","coordinates":[[-56.316,20.327],[-56.251,19.892],[-56.185,19.458],[-56.12,19.024],[-56.055,18.59],[-55.991,18.156],[-55.926,17.722],[-55.863,17.287],[-55.799,16.853],[-55.793,16.365],[-55.787,15.878],[-55.782,15.39],[-55.776,14.902],[-55.77,14.414],[-55.764,13.927],[-55.759,13.439],[-55.753,12.951],[-55.747,12.463],[-55.742,11.976],[-55.736,11.488],[-55.73,11.0],[-55.725,10.512],[-55.719,10.025],[-55.714,9.537],[-55.708,9.049],[-55.703,8.561],[-55.697,8.074],[-55.692,7.586],[-55.779,7.11],[-55.867,6.635],[-55.954,6.16],[-56.042,5.684],[-56.129,5.209],[-56.216,4.734],[-56.303,4.258],[-56.389,3.783],[-56.476,3.307],[-56.563,2.832],[-56.649,2.356],[-56.735,1.881],[-56.822,1.406],[-56.908,0.93],[-56.995,0.455]]}},{"type":"Feature","properties":{"boundary_type":"subduction","feature_type":"gpml:SubductionZone","polarity":"Left","overriding_plate_id":602,"subducting_plate_id":580,"plate_ids":[580,602],"name":"N-India SZ"},"geometry":{"type":"LineString","coordinates":[[-56.995,0.455],[-57.073,0.023],[-57.151,-0.41],[-57.23,-0.842],[-57.308,-1.274],[-57.387,-1.706]]}},{"type":"Feature","properties":{"boundary_type":"subduction","feature_type":"gpml:SubductionZone","polarity":"Left","overriding_plate_id":501,"subducting_plate_id":580,"plate_ids":[501,580],"name":"N-India SZ"},"geometry":{"type":"LineString","coordinates":[[-57.387,-1.706],[-57.476,-2.195],[-57.565,-2.684],[-57.654,-3.173],[-57.743,-3.662],[-57.832,-4.151],[-57.921,-4.64],[-58.011,-5.129],[-58.1,-5.618],[-58.19,-6.107],[-58.28,-6.596],[-58.37,-7.085],[-58.46,-7.574],[-58.551,-8.063],[-58.641,-8.552],[-58.732,-9.041],[-58.824,-9.53],[-59.016,-9.989],[-59.209,-10.447],[-59.402,-10.906],[-59.596,-11.364],[-59.791,-11.823],[-59.986,-12.281],[-60.182,-12.739],[-60.378,-13.197],[-60.576,-13.654],[-60.774,-14.112],[-60.973,-14.569],[-61.173,-15.027],[-61.373,-15.484],[-61.575,-15.94],[-61.777,-16.397],[-61.981,-16.854],[-62.185,-17.31],[-62.39,-17.766],[-62.597,-18.222],[-62.804,-18.678],[-63.013,-19.133],[-63.223,-19.588],[-63.434,-20.043],[-63.646,-20.498],[-63.86,-20.952],[-64.074,-21.406],[-64.291,-21.86],[-64.508,-22.314],[-64.727,-22.767],[-64.947,-23.22],[-65.169,-23.673],[-65.393,-24.125],[-65.618,-24.577],[-65.844,-25.029],[-66.073,-25.48],[-66.303,-25.931],[-66.534,-26.382],[-66.768,-26.832],[-67.003,-27.282],[-67.241,-27.732],[-67.48,-28.181],[-67.721,-28.629],[-67.965,-29.078],[-68.21,-29.525],[-68.458,-29.973],[-68.708,-30.42],[-68.961,-30.866],[-69.215,-31.312],[-69.472,-31.757],[-69.732,-32.202],[-69.994,-32.646],[-70.259,-33.09],[-70.526,-33.533],[-70.796,-33.976],[-71.069,-34.418],[-71.345,-34.859]]}},{"type":"Feature","properties":{"boundary_type":"subduction","feature_type":"gpml:SubductionZone","polarity":"Right","overriding_plate_id":501,"subducting_plate_id":602,"plate_ids":[501,602],"name":""},"geometry":{"type":"LineString","coordinates":[[-42.015,20.785],[-41.53,20.859]]}},{"type":"Feature","properties":{"boundary_type":"subduction","feature_type":"gpml:SubductionZone","polarity":"Right","overriding_plate_id":501,"subducting_plate_id":701,"plate_ids":[501,701],"name":""},"geometry":{"type":"LineString","coordinates":[[-41.53,20.859],[-41.061,20.929],[-40.593,20.997],[-40.123,21.065],[-39.653,21.131],[-39.183,21.195],[-38.679,21.053],[-38.175,20.908],[-37.673,20.763],[-37.171,20.616],[-36.67,20.467],[-36.171,20.317],[-35.672,20.165],[-35.174,20.013],[-34.678,19.858],[-34.182,19.703],[-33.687,19.546],[-33.193,19.387],[-32.7,19.228],[-32.208,19.067],[-31.717,18.905],[-31.227,18.741],[-30.738,18.576],[-30.397,18.216],[-30.058,17.855],[-29.719,17.494],[-29.382,17.132],[-29.047,16.769],[-28.712,16.406],[-28.379,16.042],[-28.047,15.678],[-27.716,15.314],[-27.387,14.948],[-27.058,14.583],[-26.731,14.217],[-26.404,13.85],[-26.079,13.483],[-25.755,13.116],[-25.432,12.748],[-25.109,12.38],[-24.788,12.011],[-24.467,11.643],[-24.147,11.273],[-23.828,10.904],[-23.51,10.534],[-23.193,10.163],[-22.876,9.793],[-22.56,9.422],[-22.245,9.051],[-21.851,8.766],[-21.457,8.48],[-21.064,8.194],[-20.672,7.908],[-20.28,7.621],[-19.889,7.334],[-19.498,7.046],[-19.108,6.758],[-18.718,6.47],[-18.329,6.182],[-17.94,5.893],[-17.551,5.604]]}},{"type":"Feature","properties":{"boundary_type":"ridge","feature_type":"gpml:MidOceanRidge","polarity":null,"overriding_plate_id":null,"subducting_plate_id":null,"plate_ids":[501,701],"name":""},"geometry":{"type":"LineString","coordinates":[[-17.551,5.604],[-18.009,5.568],[-18.466,5.532],[-18.923,5.495],[-18.86,5.008],[-18.796,4.52],[-18.733,4.032],[-18.669,3.545],[-18.606,3.057],[-18.543,2.569],[-18.48,2.082],[-18.417,1.594],[-18.354,1.107],[-18.29,0.619],[-18.227,0.131],[-18.164,-0.356],[-18.101,-0.844],[-18.038,-1.332],[-17.975,-1.819],[-18.465,-1.885],[-18.955,-1.95],[-19.445,-2.016],[-19.935,-2.081],[-20.425,-2.146],[-20.916,-2.21],[-20.905,-2.704],[-20.893,-3.198],[-20.882,-3.691],[-20.871,-4.185],[-20.86,-4.679],[-20.849,-5.173],[-20.838,-5.666],[-20.826,-6.16],[-20.815,-6.654],[-20.804,-7.147],[-20.793,-7.641],[-20.781,-8.135],[-20.77,-8.628],[-20.759,-9.122],[-20.747,-9.616],[-20.736,-10.109],[-20.725,-10.603],[-20.713,-11.097],[-20.702,-11.591],[-20.69,-12.084],[-20.678,-12.578],[-20.667,-13.072],[-20.655,-13.565],[-20.643,-14.059],[-20.632,-14.553],[-20.62,-15.046],[-21.114,-15.107],[-21.608,-15.167],[-22.103,-15.225],[-22.598,-15.282],[-22.585,-15.763],[-22.572,-16.244],[-22.559,-16.725],[-22.545,-17.206],[-22.532,-17.687],[-22.519,-18.168],[-22.505,-18.648],[-22.491,-19.129],[-22.478,-19.61],[-22.464,-20.091],[-22.45,-20.572]]}},{"type":"Feature","properties":{"boundary_type":"ridge","feature_type":"gpml:MidOceanRidge","polarity":null,"overriding_plate_id":null,"subducting_plate_id":null,"plate_ids":[701,801],"name":""},"geometry":{"type":"LineString","coordinates":[[-46.087,23.474],[-45.723,23.833],[-45.358,24.19],[-44.991,24.547],[-44.621,24.903],[-44.249,25.258],[-43.875,25.611],[-43.545,26.01],[-43.212,26.408],[-42.877,26.805],[-42.54,27.202],[-42.2,27.598],[-41.858,27.992],[-41.513,28.386],[-41.165,28.779],[-40.815,29.171],[-40.463,29.563],[-40.107,29.953],[-39.749,30.342],[-39.388,30.731],[-39.024,31.118],[-38.657,31.504],[-38.287,31.89],[-37.914,32.274],[-37.538,32.657],[-37.158,33.039],[-36.776,33.42],[-36.389,33.799],[-36.0,34.178],[-35.607,34.555],[-35.21,34.931],[-34.81,35.305],[-34.406,35.678],[-33.998,36.05],[-33.586,36.421],[-33.17,36.79],[-32.751,37.157],[-32.327,37.524],[-31.899,37.888],[-31.467,38.251],[-31.03,38.613],[-30.59,38.972],[-30.144,39.33],[-29.694,39.687],[-29.24,40.041],[-28.78,40.394],[-28.316,40.745],[-27.847,41.094],[-27.373,41.442],[-26.894,41.787],[-26.409,42.13],[-25.92,42.471],[-25.425,42.81],[-24.924,43.147],[-24.418,43.482],[-23.907,43.814],[-23.389,44.144],[-22.866,44.472],[-22.337,44.797],[-21.802,45.12],[-21.261,45.441],[-20.714,45.758],[-20.161,46.074],[-19.601,46.386],[-19.035,46.696],[-18.462,47.003],[-17.883,47.307],[-17.297,47.608],[-16.705,47.905],[-16.105,48.2],[-15.499,48.492],[-14.885,48.781],[-14.506,48.354],[-14.132,47.925],[-13.765,47.496],[-13.404,47.065],[-13.048,46.634],[-12.698,46.201],[-12.354,45.767],[-12.015,45.332],[-11.681,44.897],[-11.352,44.46],[-11.028,44.022],[-10.709,43.583],[-10.394,43.144],[-10.084,42.704],[-9.778,42.262],[-9.476,41.82],[-9.179,41.378],[-8.886,40.934],[-8.596,40.49],[-8.311,40.045],[-8.029,39.599],[-7.75,39.153],[-7.476,38.706],[-7.204,38.259],[-6.936,37.81],[-6.671,37.362],[-6.41,36.912],[-6.151,36.462],[-5.896,36.012],[-5.643,35.561],[-5.393,35.109],[-5.146,34.657],[-4.901,34.204],[-4.66,33.751],[-4.42,33.298],[-4.184,32.844],[-3.949,32.389],[-3.717,31.935],[-3.487,31.479],[-3.26,31.024],[-3.034,30.568],[-2.811,30.111],[-2.59,29.654],[-2.371,29.197],[-2.153,28.74],[-1.938,28.282],[-1.725,27.823],[-1.513,27.365],[-1.303,26.906],[-0.775,27.064],[-0.246,27.22],[0.284,27.374],[0.816,27.526],[1.349,27.676],[1.884,27.824],[2.421,27.97],[2.958,28.113],[3.498,28.255],[4.038,28.394],[4.58,28.532],[5.124,28.667],[5.668,28.8],[6.215,28.931],[6.762,29.06],[7.311,29.186],[7.861,29.31],[8.413,29.432],[8.966,29.552],[9.52,29.669],[10.076,29.784],[10.632,29.897],[11.19,30.007],[11.75,30.115],[12.31,30.221],[12.872,30.324],[13.435,30.425],[13.999,30.523],[14.564,30.619],[15.13,30.713],[15.697,30.804],[16.266,30.892],[16.835,30.978],[17.405,31.062],[17.977,31.143],[18.549,31.222],[19.122,31.298],[19.697,31.371],[20.272,31.442],[20.848,31.51],[21.424,31.576],[22.002,31.639],[22.58,31.7],[23.159,31.758],[23.739,31.813],[24.319,31.866],[24.901,31.916],[25.482,31.963],[26.065,32.008],[26.647,32.05],[27.231,32.09],[27.815,32.126],[28.399,32.16],[28.984,32.192],[29.569,32.22],[30.154,32.246],[30.74,32.27],[30.754,31.788],[30.768,31.306],[30.782,30.825],[30.796,30.343],[30.81,29.861],[30.823,29.38],[30.837,28.898],[30.85,28.416],[30.863,27.935],[30.876,27.453],[30.889,26.971],[30.902,26.49],[30.915,26.008],[30.928,25.526],[30.94,25.045],[30.953,24.563],[30.965,24.081],[30.977,23.6],[30.989,23.118],[31.001,22.636],[31.013,22.155],[31.025,21.673],[31.037,21.191],[31.049,20.71],[31.061,20.228],[31.072,19.746],[31.591,19.792],[32.11,19.835],[32.629,19.878],[33.148,19.918],[33.668,19.958],[34.188,19.995],[34.708,20.032],[35.229,20.066],[35.749,20.099],[36.27,20.131],[36.791,20.161],[37.313,20.19],[37.834,20.217],[38.356,20.242],[38.878,20.266],[39.4,20.289],[39.922,20.31],[40.444,20.329],[40.966,20.347],[41.489,20.363],[42.011,20.378],[42.534,20.391],[43.057,20.402],[43.58,20.412],[44.103,20.421],[44.626,20.428],[45.149,20.433],[45.672,20.437],[45.648,19.949],[45.625,19.461],[45.601,18.974],[45.578,18.486],[45.555,17.999],[45.532,17.511],[45.509,17.024],[45.487,16.536],[45.464,16.049],[45.442,15.561],[45.419,15.073],[45.397,14.586],[45.375,14.098],[45.353,13.611],[45.331,13.123],[45.309,12.635],[45.287,12.148],[45.266,11.66],[45.244,11.173],[45.751,11.191],[46.258,11.209],[46.765,11.226],[47.272,11.242],[47.779,11.258],[48.286,11.272],[48.793,11.286],[49.3,11.298],[49.807,11.31],[50.315,11.321],[50.822,11.331],[51.329,11.341],[51.837,11.349],[52.344,11.357],[52.851,11.363],[53.359,11.369],[53.866,11.374],[54.374,11.378],[54.881,11.381],[55.389,11.384],[55.896,11.385],[56.404,11.386],[56.911,11.385],[57.419,11.384],[57.926,11.382],[58.434,11.379],[58.941,11.375],[59.449,11.371],[59.956,11.365],[60.464,11.359],[60.971,11.352],[61.478,11.344],[61.986,11.335],[62.493,11.325],[63.0,11.314],[63.508,11.302],[64.015,11.29],[64.522,11.277],[65.029,11.263],[65.536,11.248],[66.043,11.232],[66.55,11.215],[67.057,11.197],[67.564,11.179],[68.07,11.16],[68.577,11.139],[69.084,11.118],[69.59,11.097],[70.097,11.074],[70.603,11.05]]}},{"type":"Feature","properties":{"boundary_type":"ridge","feature_type":"gpml:MidOceanRidge","polarity":null,"overriding_plate_id":null,"subducting_plate_id":null,"plate_ids":[801],"name":""},"geometry":{"type":"LineString","coordinates":[[70.603,11.05],[71.015,11.031],[71.427,11.01],[71.838,10.989],[72.25,10.968],[72.662,10.946]]}},{"type":"Feature","properties":{"boundary_type":"transform","feature_type":"gpml:Transform","polarity":null,"overriding_plate_id":null,"subducting_plate_id":null,"plate_ids":[701],"name":""},"geometry":{"type":"LineString","coordinates":[[70.603,11.05],[70.9,10.759],[71.196,10.467],[71.492,10.175],[71.787,9.882]]}},{"type":"Feature","properties":{"boundary_type":"transform","feature_type":"gpml:Transform","polarity":null,"overriding_plate_id":null,"subducting_plate_id":null,"plate_ids":[101,701],"name":""},"geometry":{"type":"LineString","coordinates":[[71.787,9.882],[72.121,9.551],[72.453,9.22],[72.785,8.888],[73.117,8.556],[73.448,8.224],[73.778,7.891],[74.108,7.558],[74.437,7.225],[74.862,6.971],[75.288,6.716],[75.712,6.461],[76.137,6.205],[76.56,5.949],[76.984,5.693],[77.407,5.436],[77.83,5.179],[78.252,4.922],[78.674,4.665],[79.096,4.407],[79.517,4.149],[79.939,3.891],[80.36,3.633],[80.78,3.375],[81.201,3.116],[81.621,2.857],[82.041,2.598],[82.461,2.339],[82.881,2.08],[83.3,1.82],[83.72,1.561],[84.139,1.301],[84.558,1.042],[85.018,0.862],[85.478,0.683],[85.938,0.503],[86.398,0.324],[86.858,0.144],[87.318,-0.035],[87.778,-0.215],[88.238,-0.394],[88.698,-0.574],[89.158,-0.753],[89.618,-0.932],[90.078,-1.112],[90.538,-1.291],[90.998,-1.47],[91.458,-1.649],[91.919,-1.828],[92.379,-2.007],[92.84,-2.186],[93.3,-2.364],[93.761,-2.543],[94.222,-2.721],[94.683,-2.899],[95.144,-3.077],[95.605,-3.255],[96.067,-3.432],[96.529,-3.609],[96.992,-3.718],[97.455,-3.826],[97.918,-3.935],[98.382,-4.042]]}},{"type":"Feature","properties":{"boundary_type":"ridge","feature_type":"gpml:MidOceanRidge","polarity":null,"overriding_plate_id":null,"subducting_plate_id":null,"plate_ids":[101,302],"name":"MOR-Greenland-Baltica"},"geometry":{"type":"LineString","coordinates":[[149.321,-18.506],[149.833,-18.608],[150.345,-18.708],[150.857,-18.807],[151.371,-18.904],[151.885,-19.0],[152.399,-19.095],[152.914,-19.188],[153.43,-19.279],[153.946,-19.37],[154.463,-19.458],[154.981,-19.546],[155.499,-19.631],[156.017,-19.716],[156.536,-19.799],[157.056,-19.88],[157.576,-19.96],[158.096,-20.038],[158.618,-20.115],[159.139,-20.19],[159.661,-20.264],[160.184,-20.336],[160.707,-20.407],[161.231,-20.476],[161.755,-20.544],[162.279,-20.609],[162.804,-20.674],[163.33,-20.737],[163.856,-20.798],[164.382,-20.857],[164.908,-20.915],[165.436,-20.972],[165.963,-21.026],[166.491,-21.079],[167.019,-21.131],[167.548,-21.181],[168.077,-21.229],[168.606,-21.275],[169.135,-21.32],[169.665,-21.363],[170.196,-21.405],[170.336,-20.975],[170.475,-20.546],[170.614,-20.116],[170.752,-19.686],[170.889,-19.256],[171.025,-18.826],[171.161,-18.396],[171.296,-17.965],[171.787,-18.12],[172.279,-18.273],[172.771,-18.425],[173.265,-18.576],[173.76,-18.726],[174.255,-18.874],[174.751,-19.021],[175.248,-19.166],[175.746,-19.311],[176.245,-19.454],[176.745,-19.595],[177.246,-19.735],[177.747,-19.874],[178.25,-20.011],[178.753,-20.147],[179.257,-20.282],[179.762,-20.415],[-179.732,-20.546],[-179.225,-20.677],[-178.718,-20.805],[-178.209,-20.932],[-177.7,-21.058],[-177.19,-21.182],[-176.679,-21.305],[-176.167,-21.426],[-175.654,-21.545],[-175.141,-21.663],[-174.626,-21.779],[-174.111,-21.894],[-173.595,-22.007],[-173.078,-22.119],[-172.56,-22.229],[-172.042,-22.337],[-171.523,-22.444],[-171.002,-22.549],[-170.482,-22.652],[-169.96,-22.753],[-169.438,-22.853],[-168.914,-22.951],[-168.39,-23.048],[-167.866,-23.143],[-167.34,-23.236],[-166.814,-23.327],[-166.287,-23.416]]}},{"type":"Feature","properties":{"boundary_type":"ridge","feature_type":"gpml:MidOceanRidge","polarity":null,"overriding_plate_id":null,"subducting_plate_id":null,"plate_ids":[302],"name":"MOR-Greenland-Baltica"},"geometry":{"type":"LineString","coordinates":[[-166.287,-23.416],[-165.839,-23.491],[-165.389,-23.564],[-164.94,-23.637],[-164.489,-23.707],[-164.039,-23.777],[-163.587,-23.845]]}},{"type":"Feature","properties":{"boundary_type":"ridge","feature_type":"gpml:MidOceanRidge","polarity":null,"overriding_plate_id":null,"subducting_plate_id":null,"plate_ids":[580],"name":""},"geometry":{"type":"LineString","coordinates":[[-166.359,-22.359],[-165.901,-22.61],[-165.442,-22.86],[-164.981,-23.108],[-164.518,-23.355],[-164.054,-23.601],[-163.587,-23.845]]}},{"type":"Feature","properties":{"boundary_type":"ridge","feature_type":"gpml:MidOceanRidge","polarity":null,"overriding_plate_id":null,"subducting_plate_id":null,"plate_ids":[302,580],"name":""},"geometry":{"type":"LineString","coordinates":[[-163.587,-23.845],[-163.146,-24.075],[-162.702,-24.303],[-162.257,-24.529],[-161.81,-24.755],[-161.362,-24.979],[-160.912,-25.202],[-160.461,-25.423],[-160.007,-25.643],[-159.552,-25.862],[-159.096,-26.079],[-159.368,-26.473],[-159.642,-26.867],[-159.918,-27.259],[-160.196,-27.652],[-160.477,-28.043],[-160.759,-28.434],[-161.043,-28.825],[-161.329,-29.215],[-161.618,-29.604],[-161.908,-29.993],[-162.202,-30.381],[-162.497,-30.769],[-162.795,-31.155],[-162.375,-31.495],[-161.952,-31.833],[-161.526,-32.17],[-161.097,-32.505],[-160.664,-32.839],[-160.229,-33.171],[-159.79,-33.502],[-159.348,-33.832],[-158.902,-34.159],[-158.453,-34.485],[-158.0,-34.81],[-157.544,-35.133],[-157.084,-35.454],[-156.621,-35.773],[-156.153,-36.09],[-155.682,-36.406],[-155.207,-36.72],[-154.729,-37.032],[-154.246,-37.342],[-153.759,-37.65],[-153.269,-37.956],[-152.774,-38.26],[-152.275,-38.561],[-151.772,-38.861],[-151.264,-39.158],[-150.753,-39.454],[-150.237,-39.747],[-149.716,-40.037],[-149.191,-40.326],[-148.662,-40.612],[-148.128,-40.895],[-147.59,-41.176],[-147.047,-41.455],[-146.499,-41.731],[-145.947,-42.004],[-145.39,-42.275],[-144.828,-42.543],[-144.261,-42.808],[-143.689,-43.07],[-143.113,-43.33],[-142.531,-43.586],[-141.945,-43.84],[-141.354,-44.09]]}},{"type":"Feature","properties":{"boundary_type":"transform","feature_type":"gpml:Transform","polarity":null,"overriding_plate_id":null,"subducting_plate_id":null,"plate_ids":[580,9804],"name":""},"geometry":{"type":"LineString","coordinates":[[-141.325,-44.062],[-141.354,-44.09]]}},{"type":"Feature","properties":{"boundary_type":"transform","feature_type":"gpml:Transform","polarity":null,"overriding_plate_id":null,"subducting_plate_id":null,"plate_ids":[302,9804],"name":""},"geometry":{"type":"LineString","coordinates":[[-141.354,-44.09],[-141.745,-44.472],[-142.142,-44.853],[-142.544,-45.232],[-142.952,-45.61],[-143.365,-45.986],[-143.783,-46.361],[-144.208,-46.734],[-144.638,-47.106],[-145.075,-47.476],[-145.517,-47.844],[-145.966,-48.211],[-146.421,-48.576],[-146.883,-48.939],[-147.352,-49.3],[-147.828,-49.659],[-148.31,-50.016],[-148.8,-50.372],[-149.297,-50.725],[-149.838,-51.089],[-150.386,-51.45],[-150.944,-51.809],[-151.51,-52.165],[-152.085,-52.519],[-152.67,-52.869],[-153.264,-53.217],[-153.868,-53.562],[-154.482,-53.903],[-155.106,-54.242],[-155.74,-54.577],[-156.384,-54.908],[-157.04,-55.237],[-157.706,-55.561],[-158.383,-55.883],[-159.071,-56.2],[-159.771,-56.513],[-160.482,-56.823],[-161.205,-57.128],[-161.94,-57.429],[-162.687,-57.726],[-163.447,-58.018],[-164.219,-58.305],[-165.003,-58.588],[-165.8,-58.866],[-166.61,-59.139],[-167.432,-59.407],[-168.268,-59.67],[-169.117,-59.927],[-169.979,-60.179],[-170.854,-60.425],[-171.742,-60.665],[-172.644,-60.9],[-173.527,-61.141],[-174.424,-61.377],[-175.334,-61.607],[-176.258,-61.831],[-177.195,-62.048],[-178.145,-62.259],[-179.109,-62.463],[179.915,-62.661],[178.925,-62.852],[177.923,-63.035],[176.908,-63.212],[175.881,-63.381],[174.843,-63.543],[173.792,-63.697],[172.731,-63.843],[171.659,-63.982],[170.576,-64.112],[169.483,-64.235],[168.381,-64.349],[167.27,-64.455],[166.151,-64.553],[165.025,-64.641]]}},{"type":"Feature","properties":{"boundary_type":"transform","feature_type":"gpml:Transform","polarity":null,"overriding_plate_id":null,"subducting_plate_id":null,"plate_ids":[101,9804],"name":""},"geometry":{"type":"LineString","coordinates":[[83.091,-46.995],[83.441,-47.422],[83.797,-47.848],[84.159,-48.273],[84.527,-48.696],[84.901,-49.119],[85.281,-49.54],[85.668,-49.96],[86.062,-50.378],[86.463,-50.795],[86.872,-51.211],[87.287,-51.625],[87.711,-52.038],[88.142,-52.45],[88.581,-52.859],[89.029,-53.267],[89.485,-53.674],[89.95,-54.078],[90.424,-54.481],[90.908,-54.882],[91.417,-55.277],[91.936,-55.67],[92.466,-56.06],[93.006,-56.449],[93.558,-56.835],[94.121,-57.218],[94.696,-57.599],[95.283,-57.977],[95.882,-58.352],[96.494,-58.725],[97.12,-59.095],[97.759,-59.461],[98.412,-59.825],[99.079,-60.185],[99.761,-60.541],[100.459,-60.894],[101.171,-61.244],[101.9,-61.589],[102.645,-61.931],[103.407,-62.268],[104.186,-62.601],[104.958,-62.927],[105.747,-63.248],[106.555,-63.564],[107.38,-63.876],[108.223,-64.183],[109.086,-64.485],[109.967,-64.782],[110.868,-65.074],[111.788,-65.36],[112.729,-65.64],[113.69,-65.915],[114.671,-66.183],[115.674,-66.445],[116.697,-66.7],[117.741,-66.949],[118.807,-67.19],[119.894,-67.425],[121.045,-67.591],[122.212,-67.749],[123.394,-67.899],[124.591,-68.04],[125.803,-68.172],[127.028,-68.295],[128.266,-68.409],[129.515,-68.514],[130.776,-68.61],[132.048,-68.696],[133.328,-68.772],[134.617,-68.839],[135.913,-68.896],[137.215,-68.943],[138.522,-68.98],[139.832,-68.911],[141.134,-68.832],[142.426,-68.743],[143.708,-68.645],[144.977,-68.537],[146.234,-68.419],[147.477,-68.292],[148.706,-68.156],[149.92,-68.011],[151.119,-67.857],[152.301,-67.694],[153.467,-67.523],[154.616,-67.344],[155.747,-67.156],[156.86,-66.961],[157.955,-66.758],[158.903,-66.512],[159.832,-66.26],[160.743,-66.003],[161.635,-65.741],[162.509,-65.473],[163.365,-65.201],[164.203,-64.923],[165.025,-64.641]]}},{"type":"Feature","properties":{"boundary_type":"transform","feature_type":"gpml:Transform","polarity":null,"overriding_plate_id":null,"subducting_plate_id":null,"plate_ids":[101,302],"name":""},"geometry":{"type":"LineString","coordinates":[[165.025,-64.641],[165.726,-64.392]]}},{"type":"Feature","properties":{"boundary_type":"ridge","feature_type":"gpml:MidOceanRidge","polarity":null,"overriding_plate_id":null,"subducting_plate_id":null,"plate_ids":[101],"name":""},"geometry":{"type":"LineString","coordinates":[[-166.287,-23.416],[-166.311,-23.064],[-166.335,-22.712],[-166.359,-22.359]]}},{"type":"Feature","properties":{"boundary_type":"ridge","feature_type":"gpml:MidOceanRidge","polarity":null,"overriding_plate_id":null,"subducting_plate_id":null,"plate_ids":[101,580],"name":""},"geometry":{"type":"LineString","coordinates":[[-166.359,-22.359],[-166.392,-21.862],[-166.425,-21.365],[-166.458,-20.868],[-166.49,-20.371],[-166.522,-19.873],[-166.554,-19.376],[-166.586,-18.879],[-166.618,-18.382],[-166.65,-17.884],[-166.681,-17.387],[-166.712,-16.89],[-166.743,-16.393],[-166.774,-15.895],[-166.805,-15.398],[-166.835,-14.901],[-166.866,-14.403],[-166.896,-13.906],[-166.926,-13.409],[-166.956,-12.912],[-166.986,-12.414],[-167.016,-11.917],[-167.046,-11.42],[-167.075,-10.922],[-167.105,-10.425],[-167.134,-9.928],[-166.634,-9.861],[-166.135,-9.794],[-165.635,-9.726],[-165.136,-9.657],[-164.637,-9.588],[-164.138,-9.517],[-163.64,-9.447],[-163.141,-9.375],[-162.643,-9.303],[-162.145,-9.23],[-161.647,-9.156],[-161.15,-9.082],[-160.653,-9.007],[-160.155,-8.931],[-159.658,-8.855],[-159.162,-8.778],[-158.665,-8.7],[-158.169,-8.622],[-157.673,-8.543],[-157.177,-8.463],[-156.681,-8.383],[-156.186,-8.302],[-155.69,-8.221],[-155.195,-8.139],[-154.7,-8.056],[-154.206,-7.973],[-153.711,-7.889],[-153.217,-7.805],[-152.723,-7.72],[-152.229,-7.634],[-151.735,-7.548],[-151.242,-7.461],[-150.749,-7.374],[-150.256,-7.287],[-149.763,-7.198],[-149.27,-7.109],[-148.778,-7.02],[-148.285,-6.93],[-147.793,-6.84],[-147.301,-6.749],[-146.809,-6.658],[-146.318,-6.566],[-145.826,-6.474],[-145.335,-6.381],[-144.844,-6.288],[-144.353,-6.194],[-143.863,-6.1],[-143.372,-6.005],[-142.882,-5.91],[-142.392,-5.815],[-141.902,-5.719],[-141.412,-5.623],[-140.922,-5.526],[-140.433,-5.429],[-139.943,-5.332],[-139.454,-5.234],[-138.965,-5.135],[-138.476,-5.037],[-137.987,-4.938],[-137.499,-4.839],[-137.01,-4.739],[-136.522,-4.639],[-136.034,-4.538],[-135.546,-4.438],[-135.058,-4.337],[-134.57,-4.235],[-134.082,-4.134],[-134.131,-3.655],[-134.18,-3.177],[-134.229,-2.699],[-134.278,-2.221],[-134.326,-1.742],[-134.375,-1.264],[-134.424,-0.786],[-134.473,-0.308],[-134.521,0.171],[-134.57,0.649],[-134.619,1.127],[-134.667,1.606],[-134.716,2.084],[-134.765,2.562],[-134.814,3.04],[-134.863,3.519],[-134.912,3.997],[-134.96,4.475],[-135.01,4.953],[-135.059,5.432],[-135.108,5.91],[-135.157,6.388],[-135.206,6.866],[-134.713,6.888],[-134.219,6.909],[-133.725,6.93],[-133.231,6.95],[-132.737,6.969],[-132.243,6.988],[-131.749,7.007],[-131.255,7.025],[-130.761,7.042],[-130.267,7.059],[-129.773,7.076],[-129.278,7.092],[-128.784,7.107],[-128.29,7.122],[-127.796,7.136],[-127.301,7.15],[-126.807,7.164],[-126.782,7.642],[-126.757,8.12],[-126.733,8.598],[-126.708,9.076],[-126.683,9.555],[-126.658,10.033],[-126.633,10.511],[-126.607,10.989],[-126.582,11.467],[-126.557,11.946],[-126.531,12.424],[-126.506,12.902],[-126.48,13.38],[-126.454,13.858],[-126.428,14.337],[-126.402,14.815]]}},{"type":"Feature","properties":{"boundary_type":"subduction","feature_type":"gpml:SubductionZone","polarity":"Left","overriding_plate_id":302,"subducting_plate_id":101,"plate_ids":[101,302],"name":"inferred SZ"},"geometry":{"type":"LineString","coordinates":[[140.668,-19.601],[140.552,-20.03],[140.435,-20.458],[140.374,-20.91],[140.312,-21.361],[140.25,-21.812],[140.187,-22.263],[140.124,-22.714],[140.06,-23.165],[139.996,-23.616],[139.932,-24.067],[139.867,-24.518],[139.802,-24.968],[139.736,-25.419],[139.67,-25.895],[139.604,-26.371],[139.537,-26.846],[139.47,-27.322],[139.402,-27.798],[139.333,-28.273],[139.264,-28.749],[139.194,-29.224],[139.124,-29.699],[139.052,-30.175],[138.981,-30.65],[138.981,-31.113],[138.982,-31.576],[138.982,-32.039],[138.983,-32.501],[138.983,-32.964],[138.984,-33.427],[138.984,-33.89],[138.985,-34.353],[138.985,-34.815],[139.049,-35.295],[139.114,-35.774],[139.18,-36.254],[139.247,-36.733],[139.314,-37.212],[139.382,-37.691],[139.451,-38.171],[139.521,-38.65],[139.592,-39.129],[139.704,-39.61],[139.818,-40.091],[139.933,-40.571],[140.05,-41.052],[140.169,-41.532],[140.29,-42.012],[140.412,-42.493],[140.536,-42.973],[140.663,-43.453],[140.791,-43.932],[141.029,-44.388],[141.271,-44.844],[141.517,-45.299],[141.767,-45.753],[142.021,-46.207],[142.28,-46.661],[142.542,-47.114],[142.809,-47.566],[143.081,-48.017],[143.358,-48.468],[143.639,-48.918],[143.926,-49.368],[144.218,-49.817],[144.516,-50.265],[144.819,-50.712],[145.156,-51.144],[145.499,-51.574],[145.85,-52.004],[146.206,-52.433],[146.57,-52.86],[146.941,-53.286],[147.32,-53.711],[147.706,-54.135],[148.101,-54.558],[148.503,-54.979],[148.914,-55.399],[149.334,-55.818],[149.763,-56.235],[150.202,-56.651],[150.65,-57.065],[151.108,-57.477],[151.685,-57.866],[152.275,-58.252],[152.877,-58.635],[153.493,-59.015],[154.122,-59.392],[154.766,-59.766],[155.424,-60.137],[156.097,-60.505],[156.785,-60.869],[157.489,-61.229],[158.21,-61.586],[158.947,-61.939],[159.701,-62.288],[160.473,-62.633],[161.263,-62.973],[162.071,-63.309],[162.958,-63.588],[163.863,-63.862],[164.785,-64.13],[165.726,-64.392]]}},{"type":"Feature","properties":{"boundary_type":"transform","feature_type":"gpml:Transform","polarity":null,"overriding_plate_id":null,"subducting_plate_id":null,"plate_ids":[101,302],"name":""},"geometry":{"type":"LineString","coordinates":[[140.668,-19.601],[141.144,-19.53],[141.619,-19.457],[142.095,-19.383],[142.57,-19.307],[143.044,-19.231],[143.518,-19.153],[143.991,-19.074],[144.465,-18.994],[144.937,-18.912],[145.409,-18.83],[145.899,-18.794],[146.389,-18.756],[146.878,-18.718],[147.367,-18.678],[147.856,-18.637],[148.344,-18.595],[148.833,-18.551],[149.321,-18.506]]}}]}