{"type":"FeatureCollection","meta":{"model":"Cao2024","reconstruction_time_ma":1320.0,"anchor_plate_id":0,"pygplates_version":"1.0.0","tessellate_degrees":0.5,"polarity_convention":"gpml:subductionPolarity. 'Left'/'Right' names the side of the line, in vertex order, on which the OVERRIDING plate lies. Triangles are drawn on that side.","antimeridian":"Lines are NOT split at +/-180 deg. The renderer works in 3D unit vectors where the dateline is not special; splitting would only add spurious breaks. Do not treat this as RFC 7946 GIS-ready 2D data."},"features":[{"type":"Feature","properties":{"boundary_type":"subduction","feature_type":"gpml:SubductionZone","polarity":"Left","overriding_plate_id":101,"subducting_plate_id":911001,"plate_ids":[101,911001],"name":"Indo-Antarctica_SZ"},"geometry":{"type":"LineString","coordinates":[[-142.398,-29.107],[-142.143,-29.507],[-141.887,-29.908],[-141.629,-30.307],[-141.368,-30.707],[-141.106,-31.105],[-140.841,-31.503],[-140.574,-31.901],[-140.499,-32.377],[-140.423,-32.853],[-140.346,-33.329],[-140.269,-33.805],[-140.191,-34.281],[-140.112,-34.757],[-140.031,-35.233],[-139.95,-35.708],[-139.868,-36.184],[-139.785,-36.66],[-139.701,-37.135],[-139.616,-37.611],[-139.53,-38.086],[-139.443,-38.561],[-139.373,-39.049],[-139.303,-39.537],[-139.232,-40.024],[-139.16,-40.512],[-139.087,-41.0],[-139.013,-41.487],[-138.937,-41.975],[-138.861,-42.462],[-138.783,-42.95],[-138.704,-43.437],[-138.624,-43.924],[-138.542,-44.411],[-138.32,-44.882],[-138.095,-45.351],[-137.866,-45.82],[-137.633,-46.289],[-137.396,-46.758],[-137.154,-47.225],[-136.909,-47.693],[-136.659,-48.159],[-136.404,-48.625],[-136.145,-49.091],[-135.881,-49.556],[-135.612,-50.021],[-135.337,-50.484],[-135.057,-50.947],[-134.612,-51.308],[-134.159,-51.666],[-133.699,-52.023],[-133.232,-52.378],[-132.757,-52.731],[-132.274,-53.082],[-131.783,-53.432],[-131.285,-53.779],[-130.778,-54.124],[-130.262,-54.467],[-129.738,-54.807]]}},{"type":"Feature","properties":{"boundary_type":"subduction","feature_type":"gpml:SubductionZone","polarity":"Left","overriding_plate_id":101,"subducting_plate_id":201,"plate_ids":[101,201],"name":"Indo-Antarctica_SZ"},"geometry":{"type":"LineString","coordinates":[[-129.738,-54.807],[-129.172,-55.166],[-128.597,-55.523],[-128.01,-55.876],[-127.825,-55.945]]}},{"type":"Feature","properties":{"boundary_type":"subduction","feature_type":"gpml:SubductionZone","polarity":"Right","overriding_plate_id":801,"subducting_plate_id":90107,"plate_ids":[801,90107],"name":"NorthChina_SZ"},"geometry":{"type":"LineString","coordinates":[[-66.262,35.256],[-65.91,34.878],[-65.562,34.499],[-65.216,34.119],[-64.874,33.738],[-64.535,33.356],[-64.198,32.973],[-63.865,32.589],[-63.534,32.204],[-63.207,31.819],[-63.219,31.354],[-63.231,30.89],[-63.242,30.426],[-63.254,29.961],[-63.266,29.497],[-63.277,29.033],[-63.289,28.568],[-63.3,28.104],[-63.311,27.64],[-63.322,27.175],[-63.333,26.711],[-63.344,26.247],[-63.355,25.782],[-63.504,25.329],[-63.652,24.876],[-63.799,24.423],[-63.945,23.97],[-64.09,23.517],[-64.234,23.063],[-64.377,22.609],[-64.519,22.156],[-64.66,21.702],[-64.8,21.248],[-64.94,20.794],[-65.078,20.339],[-65.216,19.885]]}},{"type":"Feature","properties":{"boundary_type":"subduction","feature_type":"gpml:SubductionZone","polarity":"Left","overriding_plate_id":101,"subducting_plate_id":90106,"plate_ids":[101,90106],"name":"Eastern_Laurentia_SZ"},"geometry":{"type":"LineString","coordinates":[[171.72,45.053],[171.68,44.587],[171.642,44.121],[171.603,43.654],[171.565,43.188],[171.528,42.722],[171.492,42.256],[171.455,41.79],[171.42,41.324],[171.467,40.835],[171.514,40.345],[171.561,39.856],[171.606,39.367],[171.651,38.877],[171.695,38.388],[171.739,37.899],[171.782,37.409],[171.825,36.92],[171.867,36.431],[171.908,35.941],[171.949,35.452],[171.99,34.962],[172.03,34.473],[172.106,34.006],[172.182,33.539],[172.256,33.071],[172.33,32.604],[172.403,32.137],[172.476,31.669],[172.547,31.202],[172.618,30.735],[172.688,30.267],[172.758,29.8],[172.827,29.332]]}},{"type":"Feature","properties":{"boundary_type":"subduction","feature_type":"gpml:SubductionZone","polarity":"Left","overriding_plate_id":101,"subducting_plate_id":911001,"plate_ids":[101,911001],"name":"Eastern_Laurentia_SZ"},"geometry":{"type":"LineString","coordinates":[[172.827,29.332],[172.891,28.89],[172.955,28.448],[173.019,28.005],[173.082,27.563],[173.144,27.121],[173.206,26.678],[173.268,26.236],[173.437,25.792],[173.605,25.348],[173.772,24.905],[173.938,24.46],[174.102,24.016],[174.266,23.572],[174.428,23.127],[174.589,22.682],[174.749,22.237],[174.908,21.792],[175.066,21.347],[175.224,20.901],[175.38,20.456],[175.535,20.01],[175.69,19.564],[176.043,19.243],[176.396,18.922],[176.747,18.6],[177.097,18.277],[177.445,17.953],[177.793,17.629],[178.139,17.305],[178.483,16.979],[178.827,16.654],[179.169,16.327],[179.579,16.062],[179.988,15.797],[-179.605,15.53],[-179.198,15.263],[-178.792,14.995],[-178.388,14.727],[-177.984,14.457],[-177.582,14.187],[-177.18,13.917],[-176.779,13.645],[-176.38,13.373],[-175.981,13.101],[-175.586,12.949],[-175.193,12.797],[-174.799,12.645],[-174.407,12.491]]}},{"type":"Feature","properties":{"boundary_type":"subduction","feature_type":"gpml:SubductionZone","polarity":"Left","overriding_plate_id":801,"subducting_plate_id":90106,"plate_ids":[801,90106],"name":"NorthwesternMawson_SZ"},"geometry":{"type":"LineString","coordinates":[[-84.008,69.251],[-84.172,69.693],[-84.343,70.135],[-84.521,70.577],[-84.707,71.019],[-84.902,71.46],[-85.869,71.815],[-86.872,72.166],[-87.914,72.511],[-88.996,72.85],[-90.12,73.183],[-91.287,73.51],[-92.501,73.831],[-93.761,74.144],[-95.07,74.449],[-96.65,74.647],[-98.269,74.834],[-99.926,75.008],[-101.62,75.171],[-103.349,75.32],[-105.111,75.457],[-106.905,75.581],[-108.727,75.69],[-110.575,75.786],[-112.445,75.867],[-114.335,75.933],[-116.204,76.082],[-118.111,76.217],[-120.053,76.337],[-122.027,76.442],[-124.028,76.53],[-126.053,76.603],[-128.097,76.659],[-130.156,76.699],[-132.225,76.723],[-134.297,76.729],[-136.37,76.719],[-138.437,76.692],[-140.442,76.722],[-142.454,76.736],[-144.468,76.734],[-146.479,76.716],[-148.483,76.683],[-150.474,76.634],[-152.449,76.569],[-154.403,76.49],[-156.332,76.395],[-158.234,76.286],[-160.104,76.162],[-161.939,76.025],[-163.738,75.874],[-165.435,75.608],[-167.07,75.331],[-168.645,75.043],[-170.16,74.745],[-171.618,74.437],[-173.02,74.119],[-174.368,73.793]]}},{"type":"Feature","properties":{"boundary_type":"subduction","feature_type":"gpml:SubductionZone","polarity":"Right","overriding_plate_id":801,"subducting_plate_id":90106,"plate_ids":[801,90106],"name":"westernWestAustralia_SZ"},"geometry":{"type":"LineString","coordinates":[[-84.008,69.251],[-82.936,68.988],[-81.889,68.718],[-80.868,68.441],[-79.871,68.159],[-78.899,67.871],[-77.951,67.577],[-77.026,67.278],[-76.125,66.974],[-75.246,66.664],[-74.388,66.35],[-73.553,66.031],[-72.737,65.708],[-71.943,65.381],[-71.389,64.973],[-70.852,64.564],[-70.331,64.152],[-69.825,63.739],[-69.334,63.324],[-68.856,62.907]]}},{"type":"Feature","properties":{"boundary_type":"subduction","feature_type":"gpml:SubductionZone","polarity":"Right","overriding_plate_id":801,"subducting_plate_id":90107,"plate_ids":[801,90107],"name":"westernWestAustralia_SZ"},"geometry":{"type":"LineString","coordinates":[[-68.856,62.907],[-68.367,62.466],[-67.893,62.023],[-67.431,61.578],[-66.983,61.132],[-66.548,60.684],[-66.124,60.236],[-65.712,59.785],[-65.311,59.334],[-64.92,58.881],[-64.54,58.427],[-64.169,57.972],[-63.807,57.516],[-63.679,57.035],[-63.553,56.554],[-63.431,56.072],[-63.312,55.591],[-63.196,55.109],[-63.082,54.628],[-62.971,54.146],[-62.863,53.664],[-62.757,53.182],[-62.654,52.7],[-62.552,52.218],[-62.453,51.735],[-62.356,51.253],[-62.261,50.771],[-62.168,50.288],[-62.077,49.805],[-61.988,49.323],[-62.186,48.845],[-62.38,48.368],[-62.57,47.889],[-62.757,47.411],[-62.94,46.932],[-63.121,46.453],[-63.298,45.974],[-63.472,45.494],[-63.643,45.014],[-63.811,44.534],[-63.977,44.054],[-64.14,43.573],[-64.3,43.093],[-64.437,42.604],[-64.571,42.115],[-64.703,41.626],[-64.834,41.137],[-64.962,40.647],[-65.088,40.158],[-65.213,39.668],[-65.336,39.178],[-65.457,38.689],[-65.577,38.199],[-65.695,37.708],[-65.811,37.218],[-65.926,36.728],[-66.039,36.237],[-66.151,35.747],[-66.262,35.256]]}},{"type":"Feature","properties":{"boundary_type":"ridge","feature_type":"gpml:MidOceanRidge","polarity":null,"overriding_plate_id":null,"subducting_plate_id":null,"plate_ids":[101,801],"name":"Cathasyia-Congo ridge"},"geometry":{"type":"LineString","coordinates":[[-94.258,22.12],[-93.954,21.723],[-93.651,21.326],[-93.35,20.929],[-93.05,20.531],[-92.752,20.132],[-92.456,19.733],[-92.161,19.334],[-91.867,18.934],[-91.575,18.533],[-91.285,18.132],[-90.995,17.731],[-90.707,17.329],[-90.42,16.927],[-90.135,16.524],[-89.85,16.122],[-89.567,15.718],[-89.285,15.314],[-89.004,14.91],[-88.724,14.506],[-88.445,14.101],[-88.167,13.696],[-87.889,13.291],[-87.613,12.885],[-87.338,12.479],[-87.064,12.073],[-86.79,11.667],[-86.517,11.26],[-86.113,11.414],[-85.708,11.567],[-85.303,11.719],[-84.897,11.871],[-84.607,11.493],[-84.318,11.113],[-84.029,10.734],[-83.741,10.354],[-83.454,9.974],[-83.168,9.594],[-82.882,9.214],[-82.597,8.833],[-82.313,8.452],[-82.029,8.071],[-81.615,8.28],[-81.201,8.489],[-80.787,8.697],[-80.372,8.905],[-79.957,9.112],[-79.542,9.319],[-79.125,9.525],[-78.709,9.731],[-78.291,9.936],[-78.014,9.521],[-77.737,9.106],[-77.461,8.691],[-77.185,8.275],[-76.91,7.859],[-76.635,7.443],[-76.361,7.027],[-76.088,6.611],[-75.815,6.195],[-75.542,5.778],[-75.27,5.361],[-74.998,4.944],[-74.727,4.528],[-74.455,4.111],[-74.185,3.693],[-73.914,3.276],[-73.643,2.859],[-73.226,3.068],[-72.808,3.276],[-72.39,3.485],[-71.971,3.693],[-71.553,3.901],[-71.134,4.109],[-70.715,4.316],[-70.296,4.524],[-69.876,4.731],[-69.457,4.938],[-69.037,5.144],[-68.617,5.351],[-68.349,4.968],[-68.082,4.584],[-67.814,4.201],[-67.548,3.818],[-67.281,3.434],[-67.015,3.05],[-66.748,2.667],[-66.482,2.283],[-66.216,1.899],[-65.951,1.515],[-65.685,1.132],[-65.419,0.748],[-65.154,0.364],[-64.684,0.527],[-64.214,0.69],[-63.744,0.853],[-63.274,1.016],[-62.804,1.178],[-62.334,1.341],[-61.864,1.504],[-61.393,1.666],[-60.923,1.829],[-60.453,1.991],[-59.982,2.153],[-59.512,2.315],[-59.041,2.477],[-58.57,2.638],[-58.099,2.8],[-57.628,2.961],[-57.157,3.122],[-56.685,3.283],[-56.214,3.444],[-55.742,3.604],[-55.27,3.764],[-54.798,3.924],[-54.326,4.084],[-53.854,4.243],[-53.381,4.403],[-52.909,4.561],[-52.436,4.72],[-51.962,4.878],[-51.489,5.036],[-51.015,5.193],[-50.541,5.351],[-50.067,5.507],[-49.593,5.664],[-49.118,5.82],[-48.643,5.975]]}},{"type":"Feature","properties":{"boundary_type":"subduction","feature_type":"gpml:SubductionZone","polarity":"Right","overriding_plate_id":801,"subducting_plate_id":90107,"plate_ids":[801,90107],"name":"Cathaysia_SZ"},"geometry":{"type":"LineString","coordinates":[[-65.216,19.885],[-64.79,19.587],[-64.366,19.288],[-63.944,18.988],[-63.523,18.688],[-63.103,18.386],[-62.685,18.083],[-62.269,17.78],[-61.854,17.475],[-61.44,17.17],[-61.028,16.864],[-60.617,16.557],[-60.207,16.25],[-59.798,15.941],[-59.348,15.693],[-58.898,15.444],[-58.45,15.194],[-58.002,14.943],[-57.556,14.692],[-57.111,14.439],[-56.667,14.186],[-56.223,13.932],[-55.781,13.677],[-55.34,13.421],[-54.899,13.165],[-54.46,12.908],[-54.021,12.65],[-53.584,12.391],[-53.147,12.132],[-52.829,11.757],[-52.512,11.382],[-52.196,11.007],[-51.881,10.631],[-51.567,10.255],[-51.253,9.879],[-50.94,9.502],[-50.628,9.126],[-50.316,8.748],[-50.005,8.371],[-49.695,7.993],[-49.385,7.616],[-49.076,7.238],[-48.932,6.817],[-48.787,6.396],[-48.643,5.975]]}},{"type":"Feature","properties":{"boundary_type":"subduction","feature_type":"gpml:SubductionZone","polarity":"Right","overriding_plate_id":101,"subducting_plate_id":90107,"plate_ids":[101,90107],"name":"Cathaysia_SZ"},"geometry":{"type":"LineString","coordinates":[[-48.643,5.975],[-48.487,5.517],[-48.33,5.058],[-48.174,4.599],[-48.018,4.14],[-47.862,3.682],[-47.707,3.223],[-47.551,2.764],[-47.396,2.305],[-47.241,1.846],[-47.085,1.387],[-46.93,0.928],[-46.775,0.469],[-46.62,0.01],[-46.465,-0.449],[-46.31,-0.908],[-46.155,-1.367],[-46.0,-1.826],[-45.844,-2.285],[-45.689,-2.744],[-45.534,-3.203],[-45.378,-3.662],[-45.222,-4.12],[-45.066,-4.579],[-44.91,-5.038],[-44.754,-5.497],[-44.597,-5.956],[-44.638,-6.443],[-44.68,-6.931],[-44.722,-7.418],[-44.764,-7.906],[-44.806,-8.393],[-44.848,-8.881],[-44.89,-9.368],[-44.932,-9.856],[-44.974,-10.343],[-45.017,-10.831],[-45.146,-11.305],[-45.275,-11.778],[-45.405,-12.252],[-45.535,-12.726],[-45.666,-13.199],[-45.797,-13.673],[-45.929,-14.146],[-46.061,-14.619],[-46.194,-15.093],[-46.327,-15.566],[-46.461,-16.039],[-46.596,-16.512],[-46.731,-16.985],[-46.867,-17.458],[-47.004,-17.93],[-47.142,-18.403],[-47.28,-18.875],[-47.419,-19.348]]}},{"type":"Feature","properties":{"boundary_type":"transform","feature_type":"gpml:Transform","polarity":null,"overriding_plate_id":null,"subducting_plate_id":null,"plate_ids":[101,6024],"name":"transform"},"geometry":{"type":"LineString","coordinates":[[-123.709,24.668],[-123.278,24.952],[-122.845,25.235],[-122.409,25.517],[-121.972,25.798],[-121.532,26.077],[-121.09,26.355],[-120.646,26.632],[-120.2,26.907],[-119.752,27.181],[-119.302,27.453],[-118.849,27.724],[-118.395,27.994],[-117.938,28.262],[-117.533,28.489],[-117.126,28.716],[-116.718,28.941]]}},{"type":"Feature","properties":{"boundary_type":"transform","feature_type":"gpml:Transform","polarity":null,"overriding_plate_id":null,"subducting_plate_id":null,"plate_ids":[801,6024],"name":"transform"},"geometry":{"type":"LineString","coordinates":[[-116.718,28.941],[-116.236,29.204],[-115.751,29.465],[-115.264,29.724],[-114.775,29.982],[-114.283,30.238],[-113.788,30.492],[-113.291,30.744],[-112.791,30.994],[-112.289,31.242],[-111.784,31.488],[-111.276,31.733],[-110.766,31.975]]}},{"type":"Feature","properties":{"boundary_type":"transform","feature_type":"gpml:Transform","polarity":null,"overriding_plate_id":null,"subducting_plate_id":null,"plate_ids":[101,6024],"name":"transform"},"geometry":{"type":"LineString","coordinates":[[-122.58,9.294],[-122.162,9.577],[-121.744,9.859],[-121.325,10.14],[-120.905,10.421],[-120.485,10.701],[-120.064,10.981],[-119.642,11.261],[-119.219,11.539],[-118.795,11.817],[-118.371,12.095],[-117.945,12.371],[-117.519,12.648],[-117.092,12.923],[-116.664,13.198],[-116.234,13.472],[-115.804,13.745],[-115.373,14.018],[-114.941,14.29],[-114.508,14.561],[-114.074,14.831],[-113.638,15.1],[-113.17,15.299],[-112.701,15.497],[-112.232,15.694],[-111.761,15.89],[-111.289,16.085],[-110.817,16.279],[-110.344,16.472],[-109.869,16.664],[-109.394,16.855],[-108.918,17.045],[-108.44,17.233],[-107.962,17.421],[-107.483,17.607],[-107.003,17.792],[-106.522,17.976],[-106.04,18.159],[-105.556,18.341],[-105.072,18.521],[-104.587,18.7],[-104.101,18.878],[-103.614,19.055],[-103.125,19.23],[-102.636,19.404],[-102.146,19.577],[-101.654,19.749],[-101.162,19.919],[-100.668,20.087],[-100.174,20.255],[-99.678,20.421],[-99.181,20.585],[-98.683,20.748],[-98.184,20.91],[-97.685,21.07],[-97.184,21.229],[-96.681,21.386],[-96.178,21.542],[-95.674,21.696]]}},{"type":"Feature","properties":{"boundary_type":"transform","feature_type":"gpml:Transform","polarity":null,"overriding_plate_id":null,"subducting_plate_id":null,"plate_ids":[101,801],"name":"transform"},"geometry":{"type":"LineString","coordinates":[[-95.674,21.696],[-95.203,21.839],[-94.731,21.98],[-94.258,22.12]]}},{"type":"Feature","properties":{"boundary_type":"subduction","feature_type":"gpml:SubductionZone","polarity":"Left","overriding_plate_id":101,"subducting_plate_id":90105,"plate_ids":[101,90105],"name":"SZ"},"geometry":{"type":"LineString","coordinates":[[-40.161,-49.745],[-40.11,-49.273],[-40.06,-48.801],[-40.011,-48.328],[-39.963,-47.856],[-39.916,-47.384],[-39.869,-46.911]]}},{"type":"Feature","properties":{"boundary_type":"subduction","feature_type":"gpml:SubductionZone","polarity":"Left","overriding_plate_id":101,"subducting_plate_id":90107,"plate_ids":[101,90107],"name":"SZ"},"geometry":{"type":"LineString","coordinates":[[-39.869,-46.911],[-39.822,-46.425],[-39.776,-45.939],[-39.73,-45.452],[-39.686,-44.966],[-39.642,-44.48],[-39.599,-43.993],[-39.556,-43.507],[-39.514,-43.02],[-39.473,-42.534],[-39.433,-42.047],[-39.393,-41.561],[-39.354,-41.074],[-39.315,-40.588],[-39.277,-40.101],[-39.239,-39.615],[-39.202,-39.128],[-39.166,-38.642],[-39.129,-38.155],[-39.094,-37.669],[-39.059,-37.182],[-39.024,-36.696],[-38.99,-36.209],[-38.956,-35.722],[-38.923,-35.236],[-38.89,-34.749],[-38.857,-34.263],[-39.069,-33.803],[-39.28,-33.342],[-39.487,-32.882],[-39.693,-32.421],[-39.897,-31.96],[-40.098,-31.498],[-40.298,-31.036],[-40.496,-30.574],[-40.692,-30.111],[-40.886,-29.649],[-41.078,-29.186],[-41.269,-28.722],[-41.457,-28.259],[-41.645,-27.795],[-41.83,-27.331],[-42.014,-26.866],[-42.197,-26.402],[-42.378,-25.937],[-42.558,-25.472],[-42.736,-25.007],[-42.913,-24.541],[-43.088,-24.076],[-43.432,-23.716],[-43.774,-23.356],[-44.114,-22.995],[-44.452,-22.633],[-44.788,-22.271],[-45.123,-21.908],[-45.455,-21.544],[-45.787,-21.179],[-46.116,-20.814],[-46.444,-20.449],[-46.771,-20.082],[-47.095,-19.715],[-47.419,-19.348]]}},{"type":"Feature","properties":{"boundary_type":"subduction","feature_type":"gpml:SubductionZone","polarity":"Left","overriding_plate_id":911001,"subducting_plate_id":90106,"plate_ids":[90106,911001],"name":""},"geometry":{"type":"LineString","coordinates":[[172.827,29.332],[172.257,29.31],[171.688,29.286],[171.119,29.259],[170.551,29.23],[169.983,29.199],[169.415,29.165],[168.847,29.129],[168.28,29.09],[167.714,29.049],[167.147,29.006],[166.582,28.96],[166.017,28.912],[165.452,28.862],[164.888,28.809],[164.324,28.754],[163.762,28.696],[163.199,28.636],[162.638,28.574],[162.124,28.398],[161.612,28.22],[161.101,28.04],[160.593,27.859],[160.086,27.675],[159.58,27.49],[159.077,27.303],[158.575,27.114],[158.075,26.923],[157.576,26.73],[157.08,26.536],[156.585,26.34]]}},{"type":"Feature","properties":{"boundary_type":"subduction","feature_type":"gpml:SubductionZone","polarity":"Left","overriding_plate_id":201,"subducting_plate_id":90106,"plate_ids":[201,90106],"name":""},"geometry":{"type":"LineString","coordinates":[[156.585,26.34],[156.083,26.139],[155.582,25.936],[155.084,25.732],[154.587,25.525],[154.092,25.317],[153.598,25.108],[153.107,24.897],[152.617,24.684],[152.128,24.469],[151.642,24.253],[151.156,24.036],[150.673,23.817],[150.191,23.596],[149.711,23.374],[149.233,23.151],[148.756,22.926],[148.28,22.7],[147.807,22.472],[147.334,22.243],[146.864,22.012],[146.395,21.781],[145.927,21.547],[145.461,21.313],[144.996,21.077],[144.533,20.84],[144.072,20.602],[143.611,20.363],[143.152,20.122],[142.695,19.88],[142.239,19.637],[141.784,19.393],[141.331,19.148],[140.879,18.902],[140.429,18.654],[139.98,18.406]]}},{"type":"Feature","properties":{"boundary_type":"subduction","feature_type":"gpml:SubductionZone","polarity":"Left","overriding_plate_id":201,"subducting_plate_id":90105,"plate_ids":[201,90105],"name":""},"geometry":{"type":"LineString","coordinates":[[139.98,18.406],[139.532,18.156],[139.085,17.906],[138.64,17.654],[138.196,17.402],[137.754,17.148],[137.312,16.894],[136.872,16.638],[136.433,16.382],[135.995,16.125],[135.558,15.867],[135.122,15.608],[134.688,15.348],[134.254,15.087],[133.822,14.826],[133.39,14.564],[132.96,14.301],[132.53,14.037],[132.102,13.772],[131.675,13.507],[131.248,13.241],[130.823,12.974],[130.398,12.707],[129.974,12.438],[129.551,12.17],[129.129,11.9],[128.708,11.63],[128.288,11.359],[127.868,11.088],[127.45,10.816],[127.032,10.544],[126.614,10.271],[126.198,9.998],[125.782,9.724],[125.367,9.449],[124.952,9.174],[124.538,8.899],[124.125,8.623],[123.712,8.346],[123.3,8.07],[122.889,7.792],[122.478,7.515],[122.068,7.237],[121.658,6.958],[121.248,6.68],[120.839,6.401],[120.431,6.121],[120.023,5.842],[119.615,5.562],[119.208,5.282],[118.801,5.001],[118.394,4.72],[118.131,4.297],[117.868,3.874],[117.605,3.45],[117.342,3.027],[117.08,2.603],[116.818,2.18],[116.555,1.756],[116.293,1.332],[116.032,0.909],[115.77,0.485],[115.508,0.061],[115.246,-0.362],[114.984,-0.786],[114.722,-1.21],[114.46,-1.634],[114.198,-2.057],[113.936,-2.481],[113.674,-2.904],[113.411,-3.328],[113.149,-3.751],[112.885,-4.175],[112.622,-4.598],[112.359,-5.021],[112.095,-5.444],[111.83,-5.867],[111.565,-6.29],[111.3,-6.713],[111.035,-7.135]]}},{"type":"Feature","properties":{"boundary_type":"subduction","feature_type":"gpml:SubductionZone","polarity":"Right","overriding_plate_id":101,"subducting_plate_id":90106,"plate_ids":[101,90106],"name":""},"geometry":{"type":"LineString","coordinates":[[171.72,45.053],[171.647,45.523],[171.573,45.993],[171.497,46.463],[171.42,46.933],[171.342,47.403],[171.262,47.873],[171.181,48.343],[171.098,48.813],[171.014,49.283],[170.928,49.753],[170.823,50.207],[170.717,50.66],[170.608,51.114],[170.497,51.567],[170.384,52.021],[170.268,52.474]]}},{"type":"Feature","properties":{"boundary_type":"subduction","feature_type":"gpml:SubductionZone","polarity":"Right","overriding_plate_id":101,"subducting_plate_id":90106,"plate_ids":[101,90106],"name":""},"geometry":{"type":"LineString","coordinates":[[170.268,52.474],[170.491,52.909],[170.717,53.343],[170.949,53.777],[171.185,54.211],[171.426,54.644],[171.673,55.076],[171.925,55.508],[172.182,55.94],[172.445,56.371],[172.714,56.801],[172.99,57.231],[173.187,57.654]]}},{"type":"Feature","properties":{"boundary_type":"subduction","feature_type":"gpml:SubductionZone","polarity":"Right","overriding_plate_id":801,"subducting_plate_id":90106,"plate_ids":[801,90106],"name":""},"geometry":{"type":"LineString","coordinates":[[173.187,57.654],[173.419,58.138],[173.657,58.621],[173.902,59.104],[174.154,59.586],[174.413,60.068],[174.68,60.55],[174.954,61.03],[175.238,61.511],[175.53,61.99],[175.831,62.469],[176.143,62.947],[176.464,63.425],[176.797,63.902],[177.141,64.378],[177.497,64.853],[177.866,65.328],[178.249,65.801],[178.646,66.273],[179.058,66.745],[179.486,67.215],[179.931,67.684],[-179.74,68.159],[-179.397,68.634],[-179.039,69.108],[-178.665,69.581],[-178.275,70.053],[-177.866,70.525],[-177.437,70.995],[-176.988,71.465],[-176.516,71.933],[-176.021,72.4],[-175.499,72.866],[-174.948,73.33],[-174.368,73.793]]}},{"type":"Feature","properties":{"boundary_type":"subduction","feature_type":"gpml:SubductionZone","polarity":"Left","overriding_plate_id":101,"subducting_plate_id":911001,"plate_ids":[101,911001],"name":"Baltica_SZ"},"geometry":{"type":"LineString","coordinates":[[-165.006,-2.873],[-164.635,-3.174],[-164.264,-3.475],[-163.892,-3.776],[-163.52,-4.077],[-163.148,-4.377],[-162.775,-4.677],[-162.403,-4.977],[-162.029,-5.277],[-161.656,-5.577],[-161.282,-5.876],[-160.908,-6.175],[-160.533,-6.474],[-160.158,-6.773],[-159.782,-7.071],[-159.406,-7.369],[-159.029,-7.667],[-158.655,-7.951],[-158.28,-8.235],[-157.904,-8.518],[-157.528,-8.801],[-157.151,-9.084],[-156.774,-9.366],[-156.396,-9.648],[-156.017,-9.93],[-155.638,-10.211],[-155.258,-10.491],[-154.965,-10.856],[-154.671,-11.221],[-154.376,-11.586],[-154.081,-11.95],[-153.785,-12.314],[-153.488,-12.678],[-153.19,-13.041],[-152.891,-13.404],[-152.591,-13.767],[-152.438,-14.201],[-152.284,-14.635],[-152.13,-15.069],[-151.975,-15.503],[-151.82,-15.936],[-151.663,-16.37],[-151.506,-16.803],[-151.349,-17.237],[-151.19,-17.67],[-151.031,-18.103],[-150.871,-18.536],[-150.71,-18.969],[-150.486,-19.38],[-150.261,-19.791],[-150.034,-20.202],[-149.806,-20.613],[-149.577,-21.023],[-149.347,-21.433],[-149.116,-21.843],[-148.883,-22.253],[-148.649,-22.662],[-148.413,-23.07],[-148.176,-23.479],[-147.937,-23.887],[-147.633,-24.248],[-147.327,-24.609],[-147.019,-24.969],[-146.709,-25.329],[-146.397,-25.688],[-146.083,-26.046],[-145.768,-26.403],[-145.451,-26.76],[-145.131,-27.116],[-144.81,-27.472],[-144.413,-27.747],[-144.014,-28.021],[-143.613,-28.295],[-143.21,-28.566],[-142.805,-28.837],[-142.398,-29.107]]}},{"type":"Feature","properties":{"boundary_type":"ridge","feature_type":"gpml:MidOceanRidge","polarity":null,"overriding_plate_id":null,"subducting_plate_id":null,"plate_ids":[101,801],"name":""},"geometry":{"type":"LineString","coordinates":[[173.187,57.654],[174.119,57.626],[175.048,57.591],[175.976,57.549],[176.902,57.5],[177.825,57.445],[178.745,57.382],[179.661,57.313],[-179.426,57.238],[-178.517,57.156],[-177.612,57.067],[-176.711,56.972],[-175.815,56.87],[-174.925,56.762],[-174.039,56.648],[-173.159,56.528],[-172.285,56.401],[-171.417,56.268],[-170.554,56.129],[-169.699,55.985],[-168.849,55.834],[-168.007,55.677],[-167.171,55.515],[-166.342,55.347],[-165.52,55.174],[-164.706,54.995],[-163.898,54.811],[-163.099,54.621],[-162.307,54.426],[-161.522,54.226],[-160.745,54.021],[-159.976,53.812],[-159.214,53.597],[-158.461,53.377],[-157.715,53.153],[-156.977,52.924],[-156.246,52.69],[-155.524,52.453],[-154.81,52.21],[-155.133,51.792],[-155.45,51.373],[-155.762,50.953],[-156.068,50.532],[-156.369,50.11],[-156.664,49.688],[-156.954,49.265],[-156.275,49.056],[-155.602,48.843],[-154.935,48.626],[-154.273,48.405],[-153.617,48.18],[-152.967,47.952],[-152.322,47.72],[-151.683,47.485],[-151.05,47.246],[-150.423,47.003],[-149.802,46.757],[-149.186,46.508],[-148.576,46.256],[-147.971,46.0],[-147.372,45.741],[-146.779,45.479],[-146.191,45.214],[-145.608,44.946],[-145.031,44.675],[-144.46,44.402],[-143.894,44.125],[-143.333,43.846],[-142.777,43.564],[-142.227,43.279],[-141.681,42.991],[-141.141,42.701],[-140.606,42.409],[-140.076,42.114],[-139.551,41.817],[-139.03,41.517],[-138.515,41.215],[-138.004,40.911],[-137.498,40.604],[-136.996,40.295],[-136.499,39.985],[-136.007,39.672],[-135.519,39.357],[-135.059,39.694],[-134.595,40.029],[-134.127,40.362],[-133.653,40.694],[-133.175,41.023],[-132.692,41.35],[-132.176,41.038],[-131.664,40.723],[-131.157,40.405],[-130.655,40.086],[-130.158,39.764],[-129.665,39.441],[-129.177,39.115],[-128.693,38.787],[-128.214,38.457],[-127.739,38.126],[-127.268,37.792],[-126.802,37.457],[-126.34,37.12],[-125.882,36.781],[-125.428,36.44],[-124.978,36.097],[-124.532,35.753],[-124.09,35.407],[-123.651,35.06],[-123.217,34.711],[-122.786,34.361],[-122.358,34.009],[-121.934,33.655],[-121.514,33.3],[-121.097,32.944],[-120.683,32.586],[-120.273,32.228],[-119.866,31.867],[-119.462,31.506],[-119.061,31.143],[-118.663,30.779],[-118.268,30.413],[-117.876,30.047],[-117.487,29.679],[-117.101,29.311],[-116.718,28.941]]}},{"type":"Feature","properties":{"boundary_type":"ridge","feature_type":"gpml:MidOceanRidge","polarity":null,"overriding_plate_id":null,"subducting_plate_id":null,"plate_ids":[101,6024],"name":"MOR"},"geometry":{"type":"LineString","coordinates":[[-123.709,24.668],[-123.46,24.272],[-123.212,23.875],[-122.965,23.478],[-122.72,23.08],[-122.477,22.682],[-122.235,22.284],[-121.994,21.886],[-122.379,21.55],[-122.762,21.213],[-123.143,20.875],[-123.523,20.537],[-123.901,20.197],[-124.277,19.857],[-124.652,19.516],[-124.386,19.134],[-124.121,18.752],[-123.857,18.369],[-123.595,17.986],[-123.333,17.602],[-123.073,17.218],[-122.814,16.834],[-122.556,16.45],[-122.299,16.065],[-122.043,15.68],[-121.788,15.294],[-122.132,14.979],[-122.476,14.663],[-122.819,14.346],[-123.161,14.029],[-123.502,13.712],[-123.842,13.394],[-124.181,13.075],[-124.519,12.757],[-124.274,12.324],[-124.03,11.892],[-123.786,11.46],[-123.544,11.027],[-123.302,10.594],[-123.061,10.161],[-122.82,9.727],[-122.58,9.294]]}},{"type":"Feature","properties":{"boundary_type":"ridge","feature_type":"gpml:MidOceanRidge","polarity":null,"overriding_plate_id":null,"subducting_plate_id":null,"plate_ids":[801,6024],"name":""},"geometry":{"type":"LineString","coordinates":[[-110.766,31.975],[-110.331,31.747],[-109.898,31.518],[-109.468,31.288],[-109.04,31.056],[-108.613,30.823],[-108.189,30.588],[-107.753,30.316],[-107.319,30.042],[-106.888,29.767],[-106.459,29.491],[-106.032,29.213],[-105.608,28.934],[-105.186,28.653],[-104.789,28.354],[-104.395,28.053],[-104.002,27.75],[-103.612,27.447],[-103.224,27.143],[-102.838,26.837],[-102.454,26.531],[-102.073,26.223],[-101.693,25.915],[-101.315,25.605],[-101.097,25.766],[-100.879,25.927],[-100.51,25.574],[-100.143,25.22],[-99.778,24.865],[-99.415,24.51],[-99.055,24.153],[-98.696,23.796],[-98.339,23.437],[-97.985,23.078],[-97.632,22.718],[-97.412,22.936],[-97.192,23.153],[-96.885,22.863],[-96.581,22.572],[-96.277,22.281],[-95.975,21.989],[-95.674,21.696]]}},{"type":"Feature","properties":{"boundary_type":"subduction","feature_type":"gpml:SubductionZone","polarity":"Left","overriding_plate_id":101,"subducting_plate_id":911001,"plate_ids":[101,911001],"name":"Eastern_Laurentia_SZ"},"geometry":{"type":"LineString","coordinates":[[-174.407,12.491],[-174.014,12.195],[-173.623,11.898],[-173.232,11.601],[-172.842,11.303],[-172.453,11.004],[-172.065,10.705],[-171.678,10.406],[-171.291,10.106],[-170.905,9.805],[-170.52,9.504],[-170.267,9.103],[-170.015,8.701],[-169.764,8.299],[-169.513,7.897],[-169.262,7.495],[-169.012,7.093],[-168.763,6.69],[-168.514,6.288],[-168.265,5.885],[-168.016,5.482],[-167.768,5.079],[-167.521,4.676],[-167.273,4.273],[-167.143,3.824],[-167.013,3.375],[-166.884,2.926],[-166.754,2.477],[-166.625,2.027],[-166.495,1.578],[-166.366,1.129],[-166.237,0.68],[-166.107,0.231],[-165.978,-0.219],[-165.849,-0.668],[-165.719,-1.117],[-165.541,-1.556],[-165.363,-1.995],[-165.185,-2.434],[-165.006,-2.873]]}},{"type":"Feature","properties":{"boundary_type":"ridge","feature_type":"gpml:MidOceanRidge","polarity":null,"overriding_plate_id":null,"subducting_plate_id":null,"plate_ids":[201,911001],"name":""},"geometry":{"type":"LineString","coordinates":[[156.585,26.34],[156.631,25.845],[156.678,25.35],[156.724,24.855],[156.769,24.36],[156.815,23.865],[156.86,23.37],[156.904,22.875],[156.948,22.38],[156.992,21.885],[157.036,21.39],[157.079,20.895],[157.122,20.4],[157.165,19.905],[157.208,19.41],[157.25,18.915],[157.292,18.42],[157.334,17.924],[157.375,17.429],[157.417,16.934],[157.458,16.439],[157.499,15.944],[157.539,15.449],[157.58,14.954],[157.62,14.458],[157.66,13.963],[157.7,13.468],[157.74,12.973],[157.78,12.478],[157.819,11.982],[157.859,11.487],[157.898,10.992],[157.937,10.497],[157.976,10.001],[158.015,9.506],[158.053,9.011],[158.525,9.037],[158.996,9.063],[159.468,9.088],[159.939,9.112],[160.411,9.136],[160.882,9.159],[161.354,9.182],[161.826,9.204],[162.297,9.225],[162.769,9.246],[163.241,9.266],[163.713,9.285],[164.185,9.304],[164.657,9.323],[164.714,8.831],[164.77,8.339],[164.826,7.847],[164.882,7.354],[164.938,6.862],[164.994,6.37],[165.05,5.878],[165.106,5.386],[165.161,4.894],[165.217,4.402],[165.272,3.91],[165.327,3.418],[165.383,2.926],[165.438,2.434],[165.493,1.942],[165.548,1.449],[165.603,0.957],[165.658,0.465],[165.713,-0.027],[165.769,-0.519],[165.824,-1.011],[165.879,-1.503],[165.934,-1.995],[165.989,-2.487],[166.044,-2.979],[166.1,-3.472],[166.155,-3.964],[166.21,-4.456],[166.266,-4.948],[166.321,-5.44],[166.377,-5.932],[166.433,-6.424],[166.489,-6.916],[166.545,-7.408],[166.601,-7.9],[166.657,-8.392],[166.713,-8.884],[166.77,-9.376],[166.826,-9.868],[166.883,-10.36],[166.94,-10.852],[166.998,-11.344],[167.055,-11.836],[167.113,-12.328],[167.17,-12.82],[167.228,-13.312],[167.287,-13.804],[167.345,-14.296],[167.404,-14.788],[167.463,-15.28],[167.523,-15.772],[167.582,-16.263],[167.642,-16.755],[167.702,-17.247],[167.763,-17.739],[167.824,-18.231],[167.885,-18.722],[167.947,-19.214],[168.009,-19.706],[168.071,-20.198],[168.134,-20.689],[168.197,-21.181],[168.261,-21.673],[168.325,-22.164],[168.389,-22.656],[168.454,-23.147],[168.519,-23.639],[168.585,-24.13],[168.652,-24.622],[168.719,-25.113],[168.786,-25.605],[168.854,-26.096],[168.923,-26.587],[168.992,-27.079],[169.062,-27.57],[169.132,-28.061],[169.203,-28.552],[169.275,-29.044],[169.347,-29.535],[169.421,-30.026],[169.494,-30.517],[169.569,-31.008],[169.644,-31.499],[169.721,-31.99],[169.798,-32.481],[169.875,-32.972],[169.954,-33.462],[170.55,-33.415],[171.146,-33.365],[171.741,-33.312],[172.335,-33.257],[172.928,-33.198],[173.521,-33.137],[174.113,-33.073],[174.704,-33.006],[175.293,-32.936],[175.882,-32.864],[176.038,-33.346],[176.196,-33.828],[176.355,-34.309],[176.516,-34.791],[176.679,-35.272],[176.844,-35.753],[177.011,-36.234],[177.18,-36.714],[177.351,-37.195],[177.525,-37.675],[177.7,-38.155],[177.878,-38.634],[178.058,-39.113],[178.241,-39.592],[178.427,-40.071],[178.615,-40.55],[178.805,-41.028],[178.999,-41.505],[179.195,-41.983],[179.394,-42.46],[179.597,-42.937],[179.802,-43.413],[-179.989,-43.889],[-179.777,-44.365],[-179.561,-44.84],[-179.342,-45.315],[-179.119,-45.789],[-178.893,-46.263],[-178.662,-46.737],[-178.427,-47.21],[-178.188,-47.682],[-177.537,-47.491],[-176.891,-47.296],[-176.249,-47.098],[-175.612,-46.896],[-174.98,-46.69],[-174.353,-46.482],[-173.731,-46.269],[-173.113,-46.054],[-172.501,-45.835],[-171.893,-45.612],[-171.29,-45.387],[-170.692,-45.158],[-170.099,-44.927],[-169.51,-44.692],[-168.926,-44.454],[-168.347,-44.214],[-167.998,-44.643],[-167.643,-45.071],[-167.283,-45.497],[-166.917,-45.923],[-166.546,-46.347],[-166.169,-46.771],[-165.786,-47.193],[-165.396,-47.613],[-165.001,-48.033],[-164.599,-48.451],[-164.19,-48.867],[-163.775,-49.282],[-163.352,-49.696],[-162.923,-50.108],[-162.485,-50.518],[-162.04,-50.927],[-161.588,-51.334],[-161.127,-51.739],[-160.658,-52.142],[-160.18,-52.544],[-159.694,-52.943],[-159.198,-53.341],[-158.693,-53.736],[-158.179,-54.129],[-157.654,-54.52],[-157.12,-54.909],[-156.575,-55.295],[-156.02,-55.679],[-155.454,-56.06],[-154.876,-56.439],[-154.287,-56.815],[-153.686,-57.188],[-153.072,-57.558],[-152.446,-57.925],[-151.808,-58.289],[-151.156,-58.65],[-150.49,-59.007],[-149.811,-59.361],[-149.117,-59.711],[-148.409,-60.058],[-147.686,-60.4],[-146.947,-60.739],[-146.193,-61.074],[-145.423,-61.404],[-144.636,-61.73],[-143.833,-62.051],[-143.02,-61.745],[-142.223,-61.434],[-141.441,-61.118],[-140.676,-60.798],[-139.925,-60.474],[-139.19,-60.146],[-138.469,-59.813],[-137.762,-59.477],[-137.069,-59.137],[-136.391,-58.794],[-135.725,-58.447],[-135.073,-58.096],[-134.433,-57.742],[-133.806,-57.386],[-133.19,-57.026],[-132.587,-56.663],[-131.995,-56.297],[-131.415,-55.929],[-130.845,-55.557],[-130.287,-55.184],[-129.738,-54.807]]}},{"type":"Feature","properties":{"boundary_type":"ridge","feature_type":"gpml:MidOceanRidge","polarity":null,"overriding_plate_id":null,"subducting_plate_id":null,"plate_ids":[90105,90107],"name":""},"geometry":{"type":"LineString","coordinates":[[20.663,11.375],[20.465,11.781],[20.267,12.186],[20.068,12.591],[19.869,12.997],[19.668,13.402],[19.467,13.807]]}},{"type":"Feature","properties":{"boundary_type":"ridge","feature_type":"gpml:MidOceanRidge","polarity":null,"overriding_plate_id":null,"subducting_plate_id":null,"plate_ids":[90106,90107],"name":""},"geometry":{"type":"LineString","coordinates":[[19.467,13.807],[19.244,14.256],[19.019,14.704],[18.794,15.153],[18.567,15.601],[18.34,16.05],[18.111,16.498],[17.881,16.945],[17.651,17.393],[17.419,17.84],[17.186,18.287],[16.952,18.733],[16.716,19.18],[16.48,19.626],[16.242,20.071],[16.002,20.517],[15.762,20.962],[15.519,21.407],[15.276,21.851],[15.03,22.295],[14.784,22.739],[14.535,23.182],[14.285,23.625],[14.034,24.067],[13.78,24.509],[13.525,24.951],[13.268,25.392],[13.009,25.833],[12.748,26.273],[12.485,26.713],[12.22,27.152],[11.953,27.591],[11.684,28.029],[11.413,28.467],[11.139,28.904],[10.863,29.341],[10.585,29.777],[10.304,30.212],[10.021,30.647],[9.735,31.081],[9.447,31.515],[9.155,31.948],[8.862,32.38],[8.565,32.812],[8.265,33.243],[7.963,33.673],[7.657,34.102],[7.349,34.531],[7.037,34.959],[6.722,35.386],[6.403,35.812],[6.081,36.238],[5.756,36.662],[5.427,37.086],[5.094,37.509],[4.757,37.93],[4.417,38.351],[4.072,38.771],[3.724,39.19],[3.371,39.608],[3.014,40.024],[2.653,40.44],[2.287,40.854],[1.917,41.267],[1.542,41.68],[1.162,42.09],[0.777,42.5],[0.387,42.908],[-0.008,43.315],[-0.408,43.721],[-0.814,44.125],[-1.226,44.527],[-1.643,44.928],[-2.066,45.328],[-2.495,45.726],[-2.93,46.122],[-3.372,46.517],[-3.82,46.91],[-4.274,47.301],[-4.736,47.691],[-5.204,48.078],[-5.679,48.464],[-6.162,48.847],[-6.652,49.229],[-7.149,49.608],[-7.655,49.986],[-8.168,50.361],[-8.69,50.734],[-9.219,51.104],[-9.758,51.472],[-10.305,51.837],[-10.884,51.503],[-11.454,51.167],[-12.016,50.827],[-12.569,50.485],[-13.115,50.14],[-13.653,49.793],[-14.183,49.444],[-14.706,49.091],[-15.221,48.737],[-15.729,48.38],[-16.23,48.022],[-16.724,47.66],[-17.211,47.297],[-17.704,47.665],[-18.204,48.03],[-18.712,48.393],[-19.226,48.753],[-19.748,49.111],[-20.277,49.467],[-20.814,49.821],[-21.359,50.172],[-21.912,50.52],[-22.473,50.866],[-23.043,51.209],[-23.621,51.549],[-24.208,51.886],[-24.803,52.22],[-25.408,52.552],[-26.021,52.88],[-26.644,53.205],[-27.277,53.526],[-27.919,53.845],[-28.571,54.159],[-29.233,54.47],[-29.905,54.778],[-30.587,55.082],[-31.279,55.382],[-31.982,55.677],[-32.696,55.969],[-33.42,56.257],[-34.156,56.54],[-34.902,56.819],[-35.659,57.094],[-36.428,57.363],[-37.208,57.628],[-37.999,57.889],[-38.802,58.144],[-39.616,58.394],[-40.442,58.639],[-41.279,58.878],[-42.128,59.112],[-42.988,59.34],[-43.86,59.563],[-44.743,59.78],[-45.637,59.99],[-46.543,60.195],[-47.46,60.393],[-48.389,60.585],[-49.328,60.771],[-50.277,60.95],[-51.238,61.122],[-52.208,61.287],[-53.189,61.445],[-54.179,61.596],[-55.179,61.74],[-56.188,61.877],[-57.206,62.006],[-58.232,62.127],[-59.267,62.241],[-60.309,62.347],[-61.357,62.445],[-62.413,62.536],[-63.475,62.618],[-64.542,62.692],[-65.614,62.758],[-66.691,62.816],[-67.772,62.866],[-68.856,62.907]]}},{"type":"Feature","properties":{"boundary_type":"ridge","feature_type":"gpml:MidOceanRidge","polarity":null,"overriding_plate_id":null,"subducting_plate_id":null,"plate_ids":[90105,90106],"name":""},"geometry":{"type":"LineString","coordinates":[[19.467,13.807],[19.98,13.817],[20.492,13.827],[21.004,13.836],[21.516,13.843],[22.028,13.85],[22.54,13.855],[23.053,13.86],[23.565,13.863],[24.077,13.865],[24.59,13.866],[25.102,13.866],[25.614,13.865],[26.127,13.863],[26.639,13.86],[27.151,13.856],[27.663,13.851],[28.176,13.845],[28.688,13.837],[29.2,13.829],[29.712,13.82],[30.224,13.809],[30.736,13.797],[31.248,13.785],[31.76,13.771],[32.272,13.756],[32.784,13.74],[33.296,13.724],[33.807,13.706],[34.319,13.687],[34.83,13.667],[35.342,13.646],[35.853,13.623],[36.364,13.6],[36.875,13.576],[37.386,13.551],[37.897,13.525],[38.408,13.497],[38.919,13.469],[39.429,13.439],[39.939,13.409],[40.45,13.378],[40.96,13.345],[41.47,13.312],[41.98,13.277],[42.489,13.242],[42.999,13.205],[43.508,13.168],[44.018,13.129],[44.527,13.09],[45.036,13.049],[45.544,13.007],[46.053,12.965],[46.561,12.921],[47.069,12.877],[47.577,12.832],[48.085,12.785],[48.593,12.738],[49.1,12.689],[49.608,12.64],[50.115,12.59],[50.622,12.538],[51.128,12.486],[51.635,12.433],[52.141,12.379],[52.647,12.324],[53.153,12.268],[53.659,12.211],[54.164,12.153],[54.669,12.095],[55.174,12.035],[55.679,11.974],[56.183,11.913],[56.688,11.851],[57.192,11.787],[57.695,11.723],[58.199,11.658],[58.702,11.592],[59.205,11.526],[59.708,11.458],[60.211,11.39],[60.272,11.878],[60.334,12.366],[60.396,12.854],[60.459,13.342],[60.521,13.83],[60.584,14.318],[60.647,14.806],[60.71,15.294],[60.774,15.782],[60.838,16.27],[60.902,16.758],[60.967,17.246],[61.032,17.734],[61.097,18.222],[61.163,18.71],[61.229,19.198],[61.296,19.686],[61.362,20.174],[61.43,20.661],[61.497,21.149],[61.566,21.637],[61.634,22.125],[61.703,22.612],[61.773,23.1],[61.843,23.588],[62.388,23.604],[62.934,23.618],[63.479,23.63],[64.025,23.64],[64.571,23.648],[65.117,23.654],[65.662,23.659],[66.208,23.661],[66.754,23.662],[67.3,23.66],[67.846,23.657],[68.392,23.652],[68.938,23.645],[69.483,23.636],[70.029,23.625],[70.574,23.612],[71.12,23.598],[71.665,23.581],[72.21,23.562],[72.755,23.542],[73.3,23.52],[73.845,23.496],[74.389,23.469],[74.933,23.441],[75.477,23.412],[76.021,23.38],[76.564,23.346],[77.107,23.311],[77.65,23.273],[78.193,23.234],[78.735,23.193],[79.277,23.15],[79.818,23.105],[80.359,23.059],[80.9,23.01],[81.441,22.96],[81.98,22.908],[82.52,22.854],[83.059,22.798],[83.598,22.74],[84.136,22.681],[84.674,22.62],[85.211,22.557],[85.748,22.492],[86.284,22.425],[86.819,22.357],[87.355,22.287],[87.889,22.215],[88.423,22.142],[88.957,22.066],[89.49,21.989],[90.022,21.91],[90.554,21.83],[91.085,21.748],[91.615,21.664],[92.145,21.578],[92.675,21.491],[93.203,21.402],[93.731,21.312],[94.259,21.22],[94.785,21.126],[95.311,21.03],[95.43,21.489],[95.549,21.948],[95.669,22.406],[95.79,22.865],[95.912,23.323],[96.035,23.781],[96.158,24.239],[96.283,24.697],[96.408,25.155],[96.534,25.613],[96.662,26.071],[96.79,26.528],[96.919,26.986],[97.049,27.443],[97.181,27.901],[97.313,28.358],[97.447,28.815],[98.009,28.767],[98.571,28.717],[99.133,28.665],[99.693,28.611],[100.254,28.554],[100.813,28.495],[101.372,28.433],[101.93,28.37],[102.488,28.304],[103.045,28.235],[103.601,28.165],[104.156,28.092],[104.711,28.017],[105.265,27.94],[105.818,27.861],[106.37,27.779],[106.922,27.695],[107.472,27.609],[108.022,27.521],[108.571,27.431],[109.119,27.339],[109.666,27.244],[110.212,27.147],[110.757,27.049],[111.301,26.948],[111.844,26.845],[112.386,26.74],[112.927,26.633],[113.467,26.523],[114.006,26.412],[114.544,26.299],[115.081,26.184],[115.617,26.067],[116.152,25.947],[116.686,25.826],[117.218,25.703],[117.75,25.578],[118.28,25.451],[118.809,25.323],[119.337,25.192],[119.864,25.059],[120.39,24.925],[120.915,24.789],[121.438,24.651],[121.961,24.511],[122.482,24.369],[123.002,24.225],[123.521,24.08],[124.038,23.933],[124.555,23.785],[125.07,23.634],[125.584,23.482],[126.097,23.328],[126.609,23.173],[127.119,23.016],[127.629,22.857],[128.137,22.696],[128.644,22.534],[129.15,22.371],[129.654,22.206],[130.157,22.039],[130.66,21.871],[131.161,21.701],[131.66,21.53],[132.159,21.357],[132.656,21.183],[133.153,21.007],[133.648,20.83],[134.142,20.652],[134.634,20.472],[135.126,20.291],[135.616,20.108],[136.106,19.924],[136.594,19.739],[137.081,19.552],[137.567,19.364],[138.052,19.175],[138.535,18.985],[139.018,18.793],[139.499,18.6],[139.98,18.406]]}},{"type":"Feature","properties":{"boundary_type":"subduction","feature_type":"gpml:SubductionZone","polarity":"Left","overriding_plate_id":201,"subducting_plate_id":90105,"plate_ids":[201,90105],"name":""},"geometry":{"type":"LineString","coordinates":[[111.035,-7.135],[111.048,-7.622],[111.062,-8.109],[111.076,-8.596],[111.09,-9.083],[111.104,-9.569],[111.118,-10.056],[111.133,-10.543],[111.147,-11.03],[111.161,-11.517],[111.175,-12.004],[111.19,-12.491],[111.204,-12.978],[111.218,-13.464],[111.233,-13.951],[111.247,-14.438],[111.262,-14.925],[111.277,-15.412],[111.291,-15.899],[111.306,-16.386],[111.321,-16.872],[111.336,-17.359],[111.351,-17.846],[111.366,-18.333],[111.381,-18.82],[111.397,-19.307],[111.412,-19.794],[111.428,-20.28],[111.443,-20.767],[111.459,-21.254],[111.475,-21.741],[111.589,-22.227],[111.704,-22.714],[111.82,-23.2],[111.937,-23.686],[112.055,-24.173],[112.174,-24.659],[112.293,-25.145],[112.414,-25.631],[112.535,-26.116],[112.658,-26.602],[112.781,-27.088],[112.906,-27.573],[113.032,-28.058],[113.159,-28.544],[113.287,-29.029],[113.416,-29.514],[113.547,-29.999],[113.678,-30.483],[113.812,-30.968],[113.946,-31.452],[114.082,-31.937],[114.219,-32.421],[114.358,-32.905],[114.498,-33.389],[114.64,-33.872],[114.784,-34.356],[114.929,-34.839],[115.076,-35.323],[115.225,-35.806],[115.375,-36.288],[115.528,-36.771],[115.682,-37.254],[115.838,-37.736],[115.996,-38.218],[116.157,-38.7],[116.32,-39.181],[116.484,-39.663],[116.652,-40.144],[116.821,-40.625],[116.995,-41.099],[117.171,-41.573],[117.35,-42.047],[117.532,-42.521],[117.716,-42.995],[117.904,-43.468],[118.094,-43.941],[118.287,-44.413],[118.484,-44.885],[118.683,-45.357],[118.886,-45.829],[119.093,-46.3],[119.303,-46.77],[119.517,-47.241],[119.735,-47.711],[119.956,-48.18],[120.182,-48.649],[120.412,-49.118],[120.646,-49.586],[120.885,-50.054],[121.128,-50.521],[121.377,-50.987],[121.63,-51.454],[121.889,-51.919],[122.153,-52.384],[122.423,-52.849],[122.698,-53.312],[122.98,-53.775],[123.268,-54.238],[123.562,-54.7],[123.978,-55.131],[124.402,-55.56],[124.835,-55.988],[125.279,-56.415],[125.732,-56.84],[126.196,-57.263],[126.67,-57.685],[127.156,-58.104],[127.653,-58.522],[128.162,-58.938],[128.683,-59.352],[129.218,-59.763],[129.765,-60.173],[130.327,-60.58],[130.902,-60.985],[131.493,-61.387],[132.099,-61.786],[132.72,-62.183],[133.358,-62.577],[134.014,-62.968],[134.687,-63.356],[135.378,-63.741],[136.088,-64.122],[136.818,-64.499],[137.569,-64.873],[138.34,-65.243],[139.133,-65.609],[139.949,-65.971],[140.788,-66.328],[141.651,-66.681],[142.539,-67.029],[143.452,-67.372],[144.392,-67.709],[145.359,-68.041],[146.354,-68.367],[147.378,-68.687],[148.431,-69.0],[149.514,-69.307],[150.696,-69.586],[151.909,-69.856],[153.154,-70.118],[154.43,-70.372],[155.737,-70.615],[157.075,-70.85],[158.445,-71.074],[159.846,-71.288],[161.277,-71.492],[162.738,-71.685],[164.228,-71.866],[165.746,-72.035],[167.291,-72.193],[168.862,-72.338],[170.457,-72.471],[172.074,-72.59],[173.711,-72.697],[175.368,-72.789],[177.04,-72.869],[178.726,-72.934],[-179.577,-72.986],[-177.871,-73.023],[-176.159,-73.046],[-174.445,-73.055],[-172.729,-73.049],[-171.017,-73.029],[-169.309,-72.995],[-167.61,-72.947],[-165.921,-72.885],[-164.246,-72.808],[-162.586,-72.718],[-160.944,-72.615],[-159.322,-72.498],[-157.722,-72.369],[-156.146,-72.226],[-154.595,-72.071],[-153.071,-71.904],[-151.574,-71.726],[-150.107,-71.536],[-148.669,-71.335],[-147.261,-71.123],[-145.885,-70.901],[-144.539,-70.668],[-143.225,-70.426],[-141.943,-70.175],[-140.691,-69.915],[-139.471,-69.647],[-138.282,-69.37],[-137.123,-69.085],[-135.995,-68.792],[-134.896,-68.493],[-133.826,-68.186],[-132.785,-67.872],[-131.772,-67.553],[-130.786,-67.226],[-129.827,-66.895],[-128.893,-66.557],[-127.985,-66.214],[-127.101,-65.866],[-126.241,-65.513],[-125.404,-65.155],[-124.59,-64.793],[-123.797,-64.426],[-123.026,-64.055],[-122.275,-63.68],[-121.543,-63.301],[-120.831,-62.919],[-120.137,-62.533],[-119.46,-62.144]]}},{"type":"Feature","properties":{"boundary_type":"transform","feature_type":"gpml:Transform","polarity":null,"overriding_plate_id":null,"subducting_plate_id":null,"plate_ids":[101,90105],"name":""},"geometry":{"type":"LineString","coordinates":[[-40.161,-49.745],[-40.466,-50.179],[-40.776,-50.613],[-41.092,-51.045],[-41.413,-51.477],[-41.741,-51.908],[-42.075,-52.338],[-42.416,-52.767],[-42.763,-53.195],[-43.118,-53.621],[-43.48,-54.047],[-43.849,-54.472],[-44.226,-54.896],[-44.611,-55.318],[-45.004,-55.739],[-45.406,-56.159],[-45.817,-56.577],[-46.236,-56.995],[-46.666,-57.41],[-47.105,-57.825],[-47.554,-58.237],[-48.216,-58.595],[-48.892,-58.95],[-49.581,-59.301],[-50.285,-59.648],[-51.004,-59.991],[-51.737,-60.331],[-52.486,-60.666],[-53.25,-60.997],[-54.031,-61.324],[-54.827,-61.646],[-55.641,-61.963],[-56.471,-62.276],[-57.319,-62.583],[-58.184,-62.885],[-59.067,-63.182],[-59.968,-63.473],[-60.887,-63.759],[-61.825,-64.038],[-62.782,-64.311],[-63.758,-64.578],[-64.753,-64.838],[-65.767,-65.092],[-66.8,-65.338],[-67.853,-65.578],[-68.924,-65.81],[-70.015,-66.034],[-71.125,-66.25],[-72.254,-66.459],[-73.401,-66.659],[-74.567,-66.851],[-75.751,-67.033],[-76.952,-67.207],[-78.17,-67.372],[-79.405,-67.528],[-80.655,-67.674],[-81.921,-67.81],[-83.201,-67.937],[-84.494,-68.053],[-85.8,-68.159],[-87.118,-68.255],[-88.445,-68.34],[-89.783,-68.415],[-91.128,-68.479],[-92.448,-68.367],[-93.755,-68.245],[-95.047,-68.112],[-96.323,-67.97],[-97.584,-67.818],[-98.828,-67.656],[-100.054,-67.485],[-101.262,-67.305],[-102.452,-67.116],[-103.623,-66.918],[-104.775,-66.712],[-105.907,-66.497],[-107.02,-66.274],[-108.112,-66.044],[-109.185,-65.806],[-110.238,-65.56],[-111.271,-65.308],[-112.284,-65.048],[-113.277,-64.782],[-114.251,-64.509],[-115.205,-64.23],[-116.14,-63.945],[-116.837,-63.591],[-117.517,-63.234],[-118.181,-62.874],[-118.829,-62.51],[-119.46,-62.144]]}},{"type":"Feature","properties":{"boundary_type":"transform","feature_type":"gpml:Transform","polarity":null,"overriding_plate_id":null,"subducting_plate_id":null,"plate_ids":[101,201],"name":""},"geometry":{"type":"LineString","coordinates":[[-119.46,-62.144],[-120.079,-61.774],[-120.683,-61.401],[-121.272,-61.025],[-121.848,-60.647],[-122.41,-60.266],[-122.96,-59.884],[-123.496,-59.498],[-124.021,-59.111],[-124.534,-58.722],[-125.035,-58.331],[-125.526,-57.937],[-126.006,-57.542],[-126.475,-57.145],[-126.935,-56.747],[-127.385,-56.347],[-127.825,-55.945]]}},{"type":"Feature","properties":{"boundary_type":"ridge","feature_type":"gpml:MidOceanRidge","polarity":null,"overriding_plate_id":null,"subducting_plate_id":null,"plate_ids":[90105,90107],"name":""},"geometry":{"type":"LineString","coordinates":[[20.663,11.375],[20.381,10.965],[20.101,10.555],[19.82,10.145],[19.541,9.734],[19.262,9.323],[18.984,8.912],[18.707,8.501],[18.43,8.089],[18.153,7.677],[17.878,7.265],[17.602,6.853],[17.328,6.441],[17.053,6.029],[16.779,5.616],[16.506,5.204],[16.233,4.791],[15.96,4.378],[15.687,3.965],[15.415,3.552],[15.143,3.139],[14.871,2.726],[14.599,2.313],[14.328,1.899],[14.057,1.486],[13.785,1.073],[13.514,0.659],[13.243,0.246],[12.972,-0.167],[12.701,-0.581],[12.43,-0.994],[12.158,-1.408],[11.887,-1.821],[11.616,-2.234],[11.344,-2.648],[11.072,-3.061],[10.8,-3.474],[10.528,-3.887],[10.256,-4.3],[9.983,-4.713],[9.71,-5.125],[9.436,-5.538],[9.162,-5.951],[8.888,-6.363],[8.613,-6.775],[8.338,-7.187],[8.063,-7.599],[7.786,-8.011],[7.51,-8.422],[7.232,-8.834],[6.954,-9.245],[6.676,-9.656],[6.396,-10.067],[6.116,-10.477],[5.836,-10.887],[5.554,-11.297],[5.272,-11.707],[4.988,-12.116],[4.704,-12.526],[4.419,-12.934],[4.134,-13.343],[3.847,-13.751],[3.559,-14.159],[3.27,-14.567],[2.98,-14.974],[2.689,-15.381],[2.397,-15.787],[2.737,-16.053],[3.079,-16.318],[3.421,-16.583],[3.765,-16.847],[4.109,-17.11],[3.765,-17.486],[3.419,-17.862],[3.072,-18.237],[2.723,-18.612],[2.373,-18.986],[2.021,-19.359],[1.667,-19.732],[1.312,-20.103],[0.955,-20.475],[0.597,-20.845],[0.236,-21.215],[-0.126,-21.584],[-0.49,-21.952],[-0.855,-22.319],[-1.223,-22.685],[-1.593,-23.051],[-1.965,-23.416],[-2.339,-23.78],[-2.715,-24.143],[-3.093,-24.505],[-3.473,-24.866],[-3.855,-25.226],[-4.24,-25.585],[-4.627,-25.943],[-5.016,-26.3],[-5.408,-26.656],[-5.803,-27.011],[-6.199,-27.365],[-6.599,-27.718],[-7.0,-28.069],[-7.405,-28.42],[-7.812,-28.769],[-8.222,-29.117],[-8.635,-29.464],[-9.05,-29.809],[-9.469,-30.153],[-9.89,-30.496],[-10.314,-30.837],[-10.742,-31.178],[-11.172,-31.516],[-11.606,-31.853],[-12.042,-32.189],[-12.482,-32.523],[-12.925,-32.856],[-13.372,-33.187],[-13.822,-33.516],[-14.275,-33.844],[-14.732,-34.17],[-15.192,-34.495],[-15.656,-34.817],[-16.124,-35.138],[-16.595,-35.457],[-17.07,-35.774],[-17.549,-36.09],[-18.031,-36.403],[-18.518,-36.715],[-19.008,-37.024],[-19.503,-37.332],[-20.002,-37.637],[-20.504,-37.94],[-21.011,-38.241],[-21.522,-38.54],[-22.037,-38.837],[-22.557,-39.131],[-23.081,-39.423],[-23.609,-39.713],[-24.142,-40.0],[-24.679,-40.285],[-25.221,-40.568],[-25.767,-40.847],[-26.318,-41.125],[-26.873,-41.399],[-27.434,-41.671],[-27.998,-41.94],[-28.568,-42.206],[-29.143,-42.47],[-29.722,-42.73],[-29.48,-43.068],[-29.235,-43.405],[-28.987,-43.741],[-29.593,-43.955],[-30.203,-44.166],[-30.818,-44.374],[-31.437,-44.578],[-32.06,-44.779],[-32.687,-44.977],[-33.319,-45.171],[-33.956,-45.361],[-34.596,-45.548],[-35.241,-45.732],[-35.889,-45.912],[-36.543,-46.088],[-37.2,-46.26],[-37.861,-46.429],[-38.526,-46.593],[-39.196,-46.754],[-39.869,-46.911]]}}]}