{"type":"FeatureCollection","meta":{"model":"Cao2024","reconstruction_time_ma":1055.0,"anchor_plate_id":0,"pygplates_version":"1.0.0","tessellate_degrees":0.5,"polarity_convention":"gpml:subductionPolarity. 'Left'/'Right' names the side of the line, in vertex order, on which the OVERRIDING plate lies. Triangles are drawn on that side.","antimeridian":"Lines are NOT split at +/-180 deg. The renderer works in 3D unit vectors where the dateline is not special; splitting would only add spurious breaks. Do not treat this as RFC 7946 GIS-ready 2D data."},"features":[{"type":"Feature","properties":{"boundary_type":"transform","feature_type":"gpml:Transform","polarity":null,"overriding_plate_id":null,"subducting_plate_id":null,"plate_ids":[101,801],"name":"Transform_Australia-Laurentia"},"geometry":{"type":"LineString","coordinates":[[160.113,25.574],[159.615,25.744],[159.117,25.912],[158.616,26.079],[158.115,26.244],[157.612,26.408],[157.107,26.569],[156.602,26.729],[156.094,26.887],[155.586,27.043],[155.076,27.198],[154.564,27.35],[154.051,27.532],[153.535,27.711],[153.018,27.889],[152.499,28.065],[151.978,28.238],[151.456,28.41],[150.932,28.58],[150.407,28.748],[149.879,28.913],[149.351,29.077],[148.82,29.239],[148.288,29.398],[147.754,29.556],[147.218,29.711],[146.681,29.864],[146.142,30.015],[145.601,30.164],[145.059,30.31],[144.485,30.342],[143.911,30.371],[143.336,30.397],[142.762,30.421],[142.186,30.443],[141.611,30.462],[141.035,30.478],[140.46,30.492],[139.884,30.503],[139.308,30.512],[138.731,30.518],[138.155,30.522],[137.579,30.523],[137.003,30.522],[136.427,30.518],[135.86,30.578],[135.292,30.636],[134.724,30.691],[134.155,30.743],[133.586,30.793],[133.016,30.841],[132.445,30.886],[131.874,30.928],[131.302,30.968],[130.73,31.006],[130.158,31.041],[129.585,31.073],[129.011,31.103],[128.438,31.131],[127.864,31.155],[127.289,31.178],[126.715,31.198],[126.163,31.195],[125.611,31.191],[125.06,31.184],[124.508,31.175],[123.957,31.163],[123.405,31.149],[122.854,31.133],[122.303,31.115],[121.753,31.094],[121.202,31.07],[120.652,31.045],[120.102,31.017],[119.553,30.986],[119.003,30.954],[118.455,30.919],[117.906,30.882],[117.358,30.842]]}},{"type":"Feature","properties":{"boundary_type":"subduction","feature_type":"gpml:SubductionZone","polarity":"Left","overriding_plate_id":701,"subducting_plate_id":501,"plate_ids":[501,701],"name":"Sao Francisco subduction zone"},"geometry":{"type":"LineString","coordinates":[[6.117,-26.828],[6.454,-27.138],[6.793,-27.447],[7.133,-27.756],[7.476,-28.063],[7.881,-28.355],[8.288,-28.646],[8.698,-28.936],[9.109,-29.225],[9.523,-29.512],[9.94,-29.799],[10.358,-30.083],[10.779,-30.367],[11.203,-30.649],[11.629,-30.93],[12.058,-31.209],[12.453,-31.471],[12.851,-31.733],[13.25,-31.993],[13.652,-32.251],[14.057,-32.509],[14.464,-32.765],[14.918,-33.009],[15.374,-33.252],[15.834,-33.493],[16.295,-33.732],[16.76,-33.969],[17.213,-34.223],[17.67,-34.475],[18.129,-34.726],[18.591,-34.975],[19.055,-35.222],[19.422,-35.499],[19.791,-35.775],[20.162,-36.05],[20.537,-36.324],[20.913,-36.597],[21.268,-36.914],[21.626,-37.23],[21.986,-37.545],[22.35,-37.859],[22.711,-38.181],[23.075,-38.503],[23.443,-38.823],[23.814,-39.141],[24.301,-39.377],[24.791,-39.611],[25.284,-39.843],[25.781,-40.073],[26.28,-40.301],[26.784,-40.526],[27.29,-40.75],[27.8,-40.971],[28.314,-41.189],[28.832,-41.41],[29.354,-41.628],[29.88,-41.843],[30.408,-42.056],[30.941,-42.267],[31.587,-42.175],[32.232,-42.08],[32.875,-41.981],[33.515,-41.878],[34.154,-41.772],[34.79,-41.662],[35.424,-41.548],[36.056,-41.432],[36.686,-41.311],[37.313,-41.188],[37.938,-41.061],[38.56,-40.93],[39.18,-40.797],[39.797,-40.66],[40.412,-40.519],[41.024,-40.376],[41.634,-40.229],[42.241,-40.079],[42.845,-39.926],[43.447,-39.77]]}},{"type":"Feature","properties":{"boundary_type":"subduction","feature_type":"gpml:SubductionZone","polarity":"Left","overriding_plate_id":701,"subducting_plate_id":501,"plate_ids":[501,701],"name":"Sahara_SZ"},"geometry":{"type":"LineString","coordinates":[[-23.075,-10.579],[-22.683,-10.876],[-22.289,-11.174],[-21.895,-11.47],[-21.5,-11.767],[-21.104,-12.062],[-20.708,-12.358],[-20.31,-12.652],[-19.912,-12.946],[-19.512,-13.24],[-19.112,-13.532],[-18.711,-13.825],[-18.308,-14.116],[-17.905,-14.407],[-17.501,-14.697],[-17.095,-14.986],[-16.689,-15.275],[-16.281,-15.563],[-15.872,-15.85],[-15.462,-16.137],[-15.051,-16.422],[-14.638,-16.707],[-14.225,-16.991],[-13.81,-17.275],[-13.394,-17.557],[-12.976,-17.838],[-12.557,-18.119],[-12.137,-18.399],[-11.716,-18.677],[-11.293,-18.955],[-10.868,-19.232],[-10.447,-19.491],[-10.025,-19.75],[-9.601,-20.007],[-9.176,-20.263],[-8.75,-20.518],[-8.322,-20.773],[-7.892,-21.026],[-7.461,-21.278],[-7.029,-21.529],[-6.595,-21.779],[-6.16,-22.027],[-5.723,-22.275],[-5.285,-22.521],[-4.845,-22.767],[-4.403,-23.011],[-3.96,-23.253],[-3.515,-23.495],[-3.021,-23.664],[-2.525,-23.831],[-2.028,-23.997],[-1.53,-24.161],[-1.031,-24.324],[-0.53,-24.484],[-0.028,-24.644],[0.475,-24.801],[0.979,-24.957],[1.485,-25.111],[1.992,-25.264],[2.445,-25.443],[2.899,-25.621],[3.355,-25.798],[3.812,-25.973],[4.27,-26.147],[4.73,-26.32],[5.191,-26.491],[5.653,-26.66],[6.117,-26.828]]}},{"type":"Feature","properties":{"boundary_type":"subduction","feature_type":"gpml:SubductionZone","polarity":"Right","overriding_plate_id":101,"subducting_plate_id":801,"plate_ids":[101,801],"name":"Siberia SZ"},"geometry":{"type":"LineString","coordinates":[[160.113,25.574],[160.631,25.732],[161.151,25.889],[161.672,26.043],[162.195,26.196],[162.719,26.347],[163.244,26.496],[163.771,26.643],[164.299,26.788],[164.828,26.932],[165.359,27.073],[165.862,27.257],[166.367,27.44],[166.873,27.621],[167.381,27.8],[167.891,27.977],[168.402,28.152],[168.915,28.326],[169.43,28.497],[169.946,28.666],[170.464,28.834],[170.984,28.999],[171.505,29.163],[172.028,29.325],[172.552,29.484],[173.079,29.641],[173.644,29.672],[174.209,29.7],[174.774,29.726],[175.34,29.749],[175.906,29.77],[176.472,29.789],[177.039,29.805],[177.606,29.819],[178.172,29.83],[178.739,29.839],[179.306,29.845],[179.873,29.85],[-179.559,29.851],[-178.992,29.85],[-178.46,29.907],[-177.926,29.962],[-177.392,30.015],[-176.858,30.066],[-176.323,30.114],[-175.787,30.161],[-175.251,30.205],[-174.715,30.247],[-174.178,30.287],[-173.641,30.324],[-173.103,30.36],[-172.565,30.393],[-172.026,30.424],[-171.487,30.453],[-171.071,30.766],[-170.651,31.078],[-170.229,31.389],[-169.804,31.698],[-169.376,32.006],[-168.946,32.313],[-168.512,32.618],[-168.075,32.921],[-167.636,33.223],[-167.193,33.524],[-166.748,33.823],[-166.299,34.12],[-165.847,34.416],[-165.381,34.731],[-164.911,35.045],[-164.437,35.357],[-163.96,35.667],[-163.479,35.975],[-162.994,36.281],[-162.506,36.586],[-162.014,36.888],[-161.518,37.188],[-161.017,37.486],[-160.513,37.782],[-160.005,38.076],[-159.422,38.155],[-158.837,38.23],[-158.251,38.302],[-157.664,38.372],[-157.076,38.439],[-156.486,38.502],[-155.896,38.563],[-155.305,38.621],[-154.713,38.676],[-154.12,38.727],[-153.526,38.776],[-152.931,38.822],[-152.336,38.865],[-151.739,38.905],[-151.13,38.876],[-150.521,38.843],[-149.913,38.808],[-149.306,38.77],[-148.699,38.728],[-148.093,38.683],[-147.488,38.636],[-146.883,38.585],[-146.279,38.531],[-145.677,38.473],[-145.075,38.413],[-144.474,38.35],[-143.875,38.284],[-143.276,38.214],[-142.679,38.142],[-142.083,38.066]]}},{"type":"Feature","properties":{"boundary_type":"subduction","feature_type":"gpml:SubductionZone","polarity":"Left","overriding_plate_id":101,"subducting_plate_id":77030,"plate_ids":[101,77030],"name":"inferred SZ"},"geometry":{"type":"LineString","coordinates":[[100.493,-17.764],[100.425,-18.241],[100.356,-18.717],[100.286,-19.193],[100.217,-19.669],[100.146,-20.145],[100.076,-20.621],[100.005,-21.097],[99.933,-21.573],[99.861,-22.048],[99.789,-22.524],[99.716,-23.0],[99.642,-23.476],[99.568,-23.952],[99.494,-24.427],[99.419,-24.903],[99.343,-25.379],[99.267,-25.854],[99.19,-26.33],[99.112,-26.805],[99.07,-27.292],[99.028,-27.778],[98.985,-28.264],[98.941,-28.75],[98.898,-29.236],[98.854,-29.722],[98.809,-30.208],[98.764,-30.694],[98.719,-31.18],[98.673,-31.666],[98.626,-32.152],[98.579,-32.638],[98.532,-33.124],[98.484,-33.61],[98.435,-34.096],[98.386,-34.582],[98.337,-35.067],[98.287,-35.553],[98.236,-36.039],[98.184,-36.525],[98.132,-37.011],[98.079,-37.496],[98.026,-37.982],[97.972,-38.468],[97.917,-38.953],[97.861,-39.439],[97.805,-39.925],[97.748,-40.41],[97.692,-40.9],[97.636,-41.39],[97.579,-41.88],[97.521,-42.369],[97.462,-42.859],[97.402,-43.349],[97.341,-43.838],[97.279,-44.328],[97.216,-44.818],[97.152,-45.307],[97.087,-45.797],[97.021,-46.286],[96.953,-46.776],[96.885,-47.265],[96.815,-47.754],[96.743,-48.244],[96.671,-48.733],[96.597,-49.222],[96.521,-49.711],[96.444,-50.2],[96.365,-50.69],[96.285,-51.179],[96.203,-51.667],[96.119,-52.156],[96.033,-52.645],[95.945,-53.134],[95.856,-53.623],[95.764,-54.111]]}},{"type":"Feature","properties":{"boundary_type":"subduction","feature_type":"gpml:SubductionZone","polarity":"Left","overriding_plate_id":101,"subducting_plate_id":501,"plate_ids":[101,501],"name":"inferred SZ"},"geometry":{"type":"LineString","coordinates":[[95.764,-54.111],[95.679,-54.555],[95.591,-54.999],[95.502,-55.442],[95.411,-55.886],[95.318,-56.329]]}},{"type":"Feature","properties":{"boundary_type":"ridge","feature_type":"gpml:MidOceanRidge","polarity":null,"overriding_plate_id":null,"subducting_plate_id":null,"plate_ids":[701,801],"name":"MOR"},"geometry":{"type":"LineString","coordinates":[[-67.562,34.884],[-66.977,34.993],[-66.391,35.098],[-65.803,35.201],[-65.214,35.301],[-64.623,35.398],[-64.031,35.492],[-63.437,35.583],[-62.842,35.671],[-62.246,35.756],[-61.649,35.839],[-61.05,35.918],[-60.45,35.995],[-59.849,36.068],[-59.247,36.139],[-58.644,36.206],[-58.04,36.27],[-57.435,36.332],[-56.828,36.39],[-56.222,36.445],[-55.614,36.497],[-55.005,36.546],[-54.396,36.592],[-53.786,36.635],[-53.175,36.675],[-52.564,36.712],[-51.952,36.745],[-51.34,36.775],[-50.727,36.803],[-50.114,36.827],[-49.5,36.848],[-48.886,36.865],[-48.272,36.88],[-47.657,36.891],[-47.043,36.9],[-46.428,36.905],[-45.814,36.907],[-45.199,36.906],[-44.584,36.901],[-43.97,36.894],[-43.822,37.343],[-43.673,37.793],[-43.521,38.242],[-43.368,38.691],[-43.213,39.14],[-43.056,39.589],[-42.897,40.038],[-42.736,40.486],[-42.572,40.934],[-42.407,41.382],[-42.239,41.83],[-41.584,41.729],[-40.932,41.624],[-40.282,41.516],[-39.634,41.404],[-38.989,41.289],[-38.346,41.17],[-37.705,41.047],[-37.066,40.921],[-36.43,40.792],[-35.797,40.658],[-35.166,40.522],[-34.537,40.382],[-33.912,40.238],[-33.289,40.092],[-32.668,39.942],[-32.051,39.788],[-31.436,39.632],[-30.824,39.472],[-30.215,39.309],[-29.609,39.143],[-29.005,38.973],[-28.405,38.801],[-27.807,38.625],[-27.212,38.447],[-26.621,38.265],[-26.032,38.081],[-25.446,37.894],[-24.864,37.703],[-24.284,37.51],[-23.707,37.314],[-23.133,37.116],[-22.563,36.914],[-21.995,36.71],[-21.431,36.503],[-20.869,36.294],[-20.31,36.082],[-19.755,35.867],[-19.202,35.65],[-18.653,35.43],[-18.106,35.208],[-17.563,34.983],[-17.022,34.756],[-16.485,34.527],[-15.95,34.295],[-15.419,34.061],[-14.89,33.824],[-14.364,33.586],[-13.841,33.345],[-13.322,33.102],[-12.805,32.857],[-12.29,32.61],[-11.779,32.36],[-11.271,32.109],[-10.765,31.855],[-10.262,31.6],[-9.762,31.343],[-9.264,31.083],[-8.77,30.822],[-8.278,30.559],[-7.788,30.294],[-7.302,30.027],[-6.817,29.759],[-6.336,29.489],[-5.857,29.217],[-5.381,28.943],[-4.907,28.668],[-4.436,28.391],[-3.967,28.112],[-3.5,27.832],[-3.036,27.55],[-2.574,27.267],[-2.115,26.982],[-1.658,26.696],[-1.267,27.035],[-0.874,27.373],[-0.479,27.709],[-0.081,28.045],[0.319,28.379],[0.722,28.712],[1.128,29.044],[1.536,29.375],[1.947,29.705],[2.36,30.033],[2.776,30.36],[3.195,30.685],[3.617,31.01],[4.042,31.333],[4.47,31.654],[4.9,31.974],[5.334,32.293],[5.77,32.61],[6.21,32.925],[6.653,33.239],[7.099,33.552],[7.548,33.863],[8.001,34.172],[8.457,34.479],[8.916,34.785],[9.379,35.089],[9.845,35.392],[10.314,35.692],[10.757,35.349],[11.197,35.004],[11.632,34.657],[12.064,34.309],[12.492,33.96],[12.917,33.609],[13.338,33.256],[13.756,32.902],[14.171,32.547],[14.582,32.191],[14.99,31.833],[15.395,31.474],[15.797,31.113],[16.196,30.751],[16.592,30.388],[16.985,30.024],[17.375,29.659],[17.762,29.293],[18.146,28.925],[18.528,28.557],[18.907,28.187],[19.284,27.816],[19.658,27.445],[20.029,27.072],[20.398,26.698],[20.764,26.324],[21.128,25.948],[21.49,25.572],[21.85,25.195],[22.207,24.816],[22.562,24.437],[22.915,24.058],[23.266,23.677],[23.615,23.295],[23.962,22.913],[24.306,22.53],[24.649,22.147],[24.991,21.762],[25.429,22.05],[25.869,22.336],[26.311,22.621],[26.755,22.905],[27.201,23.187],[27.648,23.469],[28.098,23.749],[28.549,24.028],[29.002,24.305],[29.458,24.581],[29.915,24.856],[30.375,25.129],[30.836,25.401],[31.299,25.671],[31.765,25.94],[32.233,26.208],[32.703,26.474],[33.175,26.738],[33.649,27.001],[34.126,27.262],[34.604,27.522],[35.085,27.78],[35.568,28.036],[36.054,28.291],[36.542,28.543],[37.032,28.795],[37.525,29.044],[38.02,29.291],[38.517,29.537],[39.017,29.781],[39.519,30.023],[40.023,30.263],[40.531,30.501],[41.04,30.737],[41.552,30.971],[42.067,31.203],[42.584,31.433],[43.103,31.661],[43.626,31.887],[44.15,32.111],[44.678,32.332],[45.208,32.552],[45.74,32.769],[46.275,32.984],[46.813,33.196],[47.353,33.406],[47.896,33.614],[48.228,33.206],[48.558,32.798],[48.885,32.388],[49.208,31.978],[49.529,31.566],[49.847,31.154],[50.162,30.742],[50.475,30.328],[50.785,29.914],[51.092,29.499],[51.397,29.083],[51.699,28.667],[51.999,28.25],[52.296,27.832],[52.592,27.414],[52.885,26.995],[53.176,26.575],[53.465,26.155],[53.751,25.734],[54.036,25.313],[54.319,24.891],[54.599,24.469],[54.878,24.046],[55.155,23.623],[55.431,23.199],[55.704,22.775],[55.976,22.35],[56.246,21.925],[56.515,21.499],[56.782,21.073],[57.047,20.646],[57.311,20.219],[57.574,19.792],[57.835,19.364],[58.095,18.936],[58.353,18.508],[58.611,18.079],[58.866,17.65],[59.121,17.221],[59.375,16.791],[59.627,16.361],[59.878,15.931],[60.128,15.5],[60.378,15.069],[60.626,14.638],[60.873,14.206],[61.334,14.405],[61.796,14.602],[62.259,14.798],[62.723,14.994],[63.188,15.189],[63.653,15.382]]}},{"type":"Feature","properties":{"boundary_type":"ridge","feature_type":"gpml:MidOceanRidge","polarity":null,"overriding_plate_id":null,"subducting_plate_id":null,"plate_ids":[801],"name":"MOR"},"geometry":{"type":"LineString","coordinates":[[63.653,15.382],[64.006,15.528],[64.359,15.673]]}},{"type":"Feature","properties":{"boundary_type":"subduction","feature_type":"gpml:SubductionZone","polarity":"Left","overriding_plate_id":701,"subducting_plate_id":501,"plate_ids":[501,701],"name":"SZ"},"geometry":{"type":"LineString","coordinates":[[43.447,-39.77],[44.058,-39.857],[44.672,-39.942],[45.286,-40.023],[45.902,-40.101],[46.52,-40.176],[47.139,-40.247],[47.759,-40.315],[48.381,-40.38],[49.003,-40.441],[49.627,-40.499],[50.251,-40.554],[50.877,-40.605],[51.504,-40.653],[52.131,-40.698],[52.76,-40.739],[53.389,-40.776],[54.018,-40.811],[54.646,-40.904],[55.276,-40.993],[55.907,-41.079],[56.54,-41.162],[57.175,-41.241],[57.811,-41.316],[58.448,-41.388],[59.087,-41.457],[59.727,-41.522],[60.369,-41.584],[61.011,-41.641],[61.661,-41.724],[62.312,-41.803],[62.965,-41.879],[63.619,-41.95],[64.274,-42.018],[64.931,-42.083],[65.59,-42.143],[66.249,-42.2],[66.91,-42.253],[67.572,-42.302],[68.235,-42.347],[68.898,-42.389],[69.563,-42.426]]}},{"type":"Feature","properties":{"boundary_type":"subduction","feature_type":"gpml:SubductionZone","polarity":"Left","overriding_plate_id":701,"subducting_plate_id":77030,"plate_ids":[701,77030],"name":"SZ"},"geometry":{"type":"LineString","coordinates":[[69.563,-42.426],[70.024,-42.45],[70.485,-42.472]]}},{"type":"Feature","properties":{"boundary_type":"subduction","feature_type":"gpml:SubductionZone","polarity":"Left","overriding_plate_id":602,"subducting_plate_id":501,"plate_ids":[501,602],"name":"NorthIndia SZ"},"geometry":{"type":"LineString","coordinates":[[-61.233,-10.686],[-60.853,-10.373],[-60.473,-10.059],[-60.094,-9.745],[-59.715,-9.431],[-59.337,-9.116],[-58.96,-8.801],[-58.584,-8.485],[-58.208,-8.169],[-57.833,-7.853],[-57.458,-7.536],[-57.084,-7.219],[-56.739,-6.858],[-56.395,-6.496],[-56.052,-6.133],[-55.708,-5.771],[-55.366,-5.408],[-55.023,-5.046],[-54.681,-4.682],[-54.34,-4.319],[-53.998,-3.956],[-53.657,-3.592],[-53.317,-3.229],[-52.976,-2.865],[-52.636,-2.501],[-52.296,-2.137],[-51.956,-1.773],[-51.616,-1.409],[-51.277,-1.045],[-50.937,-0.681],[-50.597,-0.317],[-50.258,0.047],[-49.918,0.411],[-49.579,0.776],[-49.239,1.14],[-48.9,1.504],[-48.56,1.868],[-48.22,2.232],[-47.88,2.596],[-47.539,2.959],[-47.199,3.323],[-46.981,3.746],[-46.763,4.169],[-46.545,4.592],[-46.327,5.015],[-46.108,5.438],[-45.89,5.861],[-45.67,6.284],[-45.451,6.706],[-45.231,7.129],[-45.01,7.551],[-44.79,7.974],[-44.568,8.396]]}},{"type":"Feature","properties":{"boundary_type":"subduction","feature_type":"gpml:SubductionZone","polarity":"Left","overriding_plate_id":null,"subducting_plate_id":null,"plate_ids":[501],"name":"NorthIndia SZ"},"geometry":{"type":"LineString","coordinates":[[-44.568,8.396],[-44.438,8.643],[-44.308,8.891]]}},{"type":"Feature","properties":{"boundary_type":"subduction","feature_type":"gpml:SubductionZone","polarity":"Left","overriding_plate_id":6024,"subducting_plate_id":501,"plate_ids":[501,6024],"name":""},"geometry":{"type":"LineString","coordinates":[[-125.646,-21.261],[-125.278,-21.068],[-124.912,-20.874],[-124.546,-20.68],[-124.105,-20.401],[-123.665,-20.122],[-123.227,-19.841],[-122.79,-19.559],[-122.355,-19.276],[-121.922,-18.992],[-121.49,-18.708],[-121.059,-18.422],[-120.63,-18.135],[-120.202,-17.847],[-119.776,-17.558],[-119.351,-17.269],[-118.927,-16.978],[-118.505,-16.687],[-118.084,-16.395],[-117.664,-16.102],[-117.245,-15.808],[-116.828,-15.513],[-116.412,-15.217],[-115.997,-14.921],[-115.583,-14.624],[-115.17,-14.327],[-114.759,-14.028],[-114.348,-13.729],[-113.939,-13.429],[-113.53,-13.129],[-113.123,-12.828],[-112.716,-12.526],[-112.311,-12.224],[-111.906,-11.921],[-111.502,-11.617],[-111.099,-11.313],[-110.697,-11.008],[-110.296,-10.703],[-109.896,-10.398],[-109.496,-10.092],[-109.097,-9.785],[-108.699,-9.478],[-108.302,-9.17],[-107.905,-8.862],[-107.509,-8.554],[-107.114,-8.245],[-106.719,-7.936],[-106.325,-7.626],[-105.931,-7.317],[-105.538,-7.006],[-105.146,-6.696],[-104.754,-6.385],[-104.362,-6.074],[-103.971,-5.762],[-103.722,-5.386],[-103.474,-5.009],[-103.225,-4.632],[-102.977,-4.255],[-102.73,-3.878],[-102.482,-3.501],[-102.235,-3.124]]}},{"type":"Feature","properties":{"boundary_type":"subduction","feature_type":"gpml:SubductionZone","polarity":"Left","overriding_plate_id":6024,"subducting_plate_id":602,"plate_ids":[602,6024],"name":""},"geometry":{"type":"LineString","coordinates":[[-102.235,-3.124],[-101.963,-2.709],[-101.691,-2.294],[-101.42,-1.879],[-101.148,-1.464],[-100.877,-1.049],[-100.605,-0.634],[-100.334,-0.218],[-100.063,0.197],[-99.792,0.612],[-99.52,1.027],[-99.249,1.443],[-98.977,1.858],[-98.706,2.273],[-98.434,2.688],[-98.162,3.103],[-97.89,3.518],[-97.618,3.933],[-97.345,4.347],[-97.072,4.762],[-96.799,5.177],[-96.525,5.591],[-96.251,6.005],[-95.976,6.42],[-95.702,6.834],[-95.426,7.248],[-95.15,7.661],[-94.874,8.075],[-94.597,8.488],[-94.319,8.901],[-94.041,9.314],[-93.762,9.727],[-93.483,10.14],[-93.202,10.552],[-92.921,10.964],[-92.639,11.376],[-92.357,11.787],[-92.073,12.198],[-91.789,12.609],[-91.504,13.02],[-91.217,13.43],[-90.93,13.84],[-90.642,14.25],[-90.353,14.659],[-90.062,15.068],[-89.771,15.477],[-89.564,15.932],[-89.356,16.387],[-89.148,16.842],[-88.938,17.297],[-88.727,17.752],[-88.515,18.206],[-88.303,18.66],[-88.089,19.114],[-87.873,19.568],[-87.657,20.021],[-87.439,20.474],[-87.22,20.927],[-87.0,21.38],[-86.778,21.832],[-86.555,22.284],[-86.331,22.736],[-86.105,23.187],[-85.877,23.638],[-85.648,24.089],[-85.417,24.539],[-85.185,24.989],[-84.951,25.439],[-84.715,25.888],[-84.477,26.337],[-84.238,26.786],[-83.996,27.234],[-83.753,27.681],[-83.508,28.129],[-83.26,28.576],[-83.011,29.022],[-82.759,29.468],[-82.505,29.913],[-82.249,30.358],[-81.99,30.803],[-81.729,31.246],[-81.466,31.69],[-81.2,32.133],[-80.932,32.575],[-80.66,33.017],[-80.386,33.458],[-80.11,33.898],[-79.83,34.338],[-79.548,34.777],[-79.262,35.216],[-78.973,35.654],[-78.682,36.091],[-78.387,36.527],[-78.088,36.963],[-77.786,37.398],[-77.481,37.832],[-77.172,38.266],[-76.859,38.698],[-76.543,39.13]]}},{"type":"Feature","properties":{"boundary_type":"subduction","feature_type":"gpml:SubductionZone","polarity":"Left","overriding_plate_id":602,"subducting_plate_id":501,"plate_ids":[501,602],"name":""},"geometry":{"type":"LineString","coordinates":[[-102.235,-3.124],[-101.752,-3.244],[-101.268,-3.363],[-100.785,-3.482],[-100.301,-3.601],[-99.817,-3.719],[-99.333,-3.837],[-98.849,-3.955],[-98.365,-4.073],[-97.881,-4.19],[-97.396,-4.307],[-96.911,-4.424],[-96.427,-4.541],[-95.942,-4.657],[-95.457,-4.773],[-94.971,-4.888],[-94.486,-5.003],[-94.0,-5.118],[-93.515,-5.232],[-93.029,-5.346],[-92.542,-5.46],[-92.056,-5.573],[-91.57,-5.686],[-91.083,-5.798],[-90.596,-5.91],[-90.109,-6.022],[-89.622,-6.133],[-89.134,-6.244],[-88.647,-6.354],[-88.159,-6.464],[-87.67,-6.573],[-87.182,-6.682],[-86.694,-6.79],[-86.205,-6.898],[-85.716,-7.006],[-85.227,-7.113],[-84.737,-7.219],[-84.248,-7.325],[-83.758,-7.43],[-83.268,-7.535],[-82.777,-7.639],[-82.287,-7.743],[-81.796,-7.846],[-81.305,-7.949],[-80.813,-8.051],[-80.322,-8.152],[-79.83,-8.253],[-79.338,-8.353],[-78.845,-8.453],[-78.353,-8.552],[-77.86,-8.65],[-77.367,-8.748],[-76.874,-8.845],[-76.38,-8.941],[-75.886,-9.037],[-75.392,-9.132],[-74.897,-9.227],[-74.406,-9.32],[-73.913,-9.413],[-73.421,-9.504],[-72.928,-9.596],[-72.435,-9.686],[-71.942,-9.776],[-71.449,-9.865],[-70.955,-9.953],[-70.461,-10.041],[-69.967,-10.128],[-69.472,-10.214],[-68.977,-10.3],[-68.482,-10.384],[-67.987,-10.468],[-67.491,-10.552],[-66.996,-10.634],[-66.515,-10.642],[-66.035,-10.65],[-65.555,-10.657],[-65.075,-10.663],[-64.595,-10.669],[-64.115,-10.673],[-63.635,-10.677],[-63.154,-10.68],[-62.674,-10.683],[-62.194,-10.685],[-61.714,-10.686],[-61.233,-10.686]]}},{"type":"Feature","properties":{"boundary_type":"subduction","feature_type":"gpml:SubductionZone","polarity":"Right","overriding_plate_id":101,"subducting_plate_id":801,"plate_ids":[101,801],"name":""},"geometry":{"type":"LineString","coordinates":[[-142.083,38.066],[-141.498,38.177],[-140.912,38.284],[-140.323,38.388],[-139.734,38.49],[-139.142,38.589],[-138.549,38.684],[-137.954,38.777],[-137.358,38.866],[-136.76,38.953],[-136.161,39.036],[-135.56,39.117],[-134.958,39.194],[-134.355,39.268],[-133.751,39.339],[-133.201,39.42],[-132.65,39.498]]}},{"type":"Feature","properties":{"boundary_type":"subduction","feature_type":"gpml:SubductionZone","polarity":"Right","overriding_plate_id":6024,"subducting_plate_id":801,"plate_ids":[801,6024],"name":""},"geometry":{"type":"LineString","coordinates":[[-132.65,39.498],[-132.037,39.581],[-131.422,39.661],[-130.806,39.738],[-130.189,39.811],[-129.57,39.882],[-128.95,39.949],[-128.329,40.012],[-127.707,40.073],[-127.083,40.13],[-126.459,40.183],[-125.834,40.234],[-125.208,40.281],[-124.581,40.324],[-123.953,40.364],[-123.324,40.401],[-122.695,40.434],[-122.065,40.464],[-121.435,40.491],[-120.807,40.597],[-120.177,40.7],[-119.545,40.799],[-118.911,40.895],[-118.275,40.987],[-117.638,41.076],[-116.999,41.161],[-116.358,41.242],[-115.716,41.321],[-115.072,41.395],[-114.426,41.466],[-113.78,41.533],[-113.132,41.597],[-112.483,41.657],[-111.832,41.714],[-111.181,41.766],[-110.528,41.815],[-109.875,41.861],[-109.22,41.902],[-108.565,41.94],[-107.909,41.975],[-107.253,42.005],[-106.596,42.032],[-105.938,42.055],[-105.28,42.074],[-104.621,42.089],[-103.962,42.101],[-103.304,42.109],[-102.644,42.113],[-101.985,42.113],[-101.326,42.11],[-100.663,42.065],[-100.001,42.016],[-99.34,41.963],[-98.68,41.906],[-98.022,41.846],[-97.365,41.782],[-96.709,41.714],[-96.054,41.642],[-95.401,41.567],[-94.75,41.488],[-94.1,41.405],[-93.452,41.319],[-92.805,41.229],[-92.161,41.136],[-91.518,41.039],[-90.877,40.938],[-90.238,40.834],[-89.601,40.726],[-88.967,40.615],[-88.334,40.5],[-87.704,40.382]]}},{"type":"Feature","properties":{"boundary_type":"ridge","feature_type":"gpml:MidOceanRidge","polarity":null,"overriding_plate_id":null,"subducting_plate_id":null,"plate_ids":[302],"name":""},"geometry":{"type":"LineString","coordinates":[[-164.622,-27.744],[-164.609,-27.27],[-164.595,-26.796],[-164.581,-26.322],[-164.568,-25.848]]}},{"type":"Feature","properties":{"boundary_type":"ridge","feature_type":"gpml:MidOceanRidge","polarity":null,"overriding_plate_id":null,"subducting_plate_id":null,"plate_ids":[302,6024],"name":""},"geometry":{"type":"LineString","coordinates":[[-164.568,-25.848],[-164.554,-25.365],[-164.541,-24.882],[-164.527,-24.399],[-164.514,-23.916],[-164.501,-23.433],[-164.488,-22.95],[-164.475,-22.467],[-164.462,-21.984],[-164.449,-21.501],[-164.436,-21.018],[-164.424,-20.535],[-164.411,-20.052],[-164.399,-19.569],[-164.386,-19.086],[-164.374,-18.603],[-164.361,-18.12],[-164.349,-17.637],[-164.337,-17.154],[-164.325,-16.671]]}},{"type":"Feature","properties":{"boundary_type":"ridge","feature_type":"gpml:MidOceanRidge","polarity":null,"overriding_plate_id":null,"subducting_plate_id":null,"plate_ids":[101,6024],"name":""},"geometry":{"type":"LineString","coordinates":[[-164.325,-16.671],[-164.313,-16.182],[-164.301,-15.693],[-164.289,-15.204],[-164.277,-14.716],[-164.265,-14.227],[-164.253,-13.738],[-164.241,-13.25],[-164.229,-12.761],[-164.217,-12.272],[-164.206,-11.784],[-164.194,-11.295],[-164.182,-10.806],[-164.171,-10.317],[-164.159,-9.829],[-164.148,-9.34],[-164.136,-8.851],[-164.125,-8.363],[-164.113,-7.874],[-164.102,-7.385],[-164.091,-6.897],[-164.079,-6.408],[-164.068,-5.919],[-163.576,-5.973],[-163.084,-6.026],[-162.591,-6.078],[-162.099,-6.13],[-161.607,-6.182],[-161.114,-6.233],[-160.622,-6.284],[-160.129,-6.334],[-159.636,-6.384],[-159.143,-6.433],[-158.65,-6.482],[-158.157,-6.53],[-157.664,-6.578],[-157.171,-6.625],[-156.678,-6.672],[-156.184,-6.719],[-155.691,-6.765],[-155.197,-6.81],[-154.703,-6.855],[-154.209,-6.899],[-153.716,-6.943],[-153.222,-6.987],[-152.727,-7.03],[-152.233,-7.072],[-151.739,-7.114],[-151.245,-7.155],[-150.75,-7.196],[-150.256,-7.236],[-149.761,-7.276],[-149.266,-7.315],[-148.772,-7.354],[-148.277,-7.392],[-147.782,-7.429],[-147.287,-7.467],[-146.792,-7.503],[-146.296,-7.539],[-146.233,-7.044],[-146.171,-6.55],[-146.108,-6.055],[-146.046,-5.56],[-145.983,-5.066],[-145.921,-4.571],[-145.859,-4.077],[-145.797,-3.582],[-145.735,-3.087],[-145.673,-2.593],[-145.611,-2.098],[-145.549,-1.603],[-145.487,-1.109],[-145.425,-0.614],[-145.363,-0.119],[-145.301,0.375],[-145.24,0.87],[-145.178,1.365],[-145.116,1.859],[-145.054,2.354],[-144.992,2.849],[-144.93,3.343],[-144.868,3.838],[-144.377,3.803],[-143.886,3.767],[-143.395,3.732],[-142.904,3.696],[-142.413,3.66],[-141.922,3.623],[-141.431,3.587],[-140.94,3.55],[-140.449,3.513],[-139.959,3.475],[-139.468,3.437],[-138.977,3.4],[-138.486,3.361],[-137.996,3.323],[-137.505,3.284],[-137.015,3.245],[-136.524,3.206],[-136.034,3.167],[-135.543,3.127],[-135.053,3.087],[-134.563,3.047],[-134.072,3.007],[-133.582,2.966],[-133.092,2.925],[-132.602,2.884],[-132.112,2.843],[-131.621,2.802],[-131.131,2.76],[-130.641,2.719],[-130.151,2.677],[-129.661,2.634],[-129.171,2.592],[-128.681,2.549],[-128.192,2.507],[-128.111,2.994],[-128.03,3.481],[-127.948,3.968],[-127.867,4.456],[-127.786,4.943],[-127.704,5.43],[-127.623,5.917],[-127.541,6.404],[-127.459,6.892],[-127.377,7.379],[-127.295,7.866],[-127.213,8.353],[-127.13,8.84],[-127.047,9.327],[-126.964,9.814],[-126.881,10.301],[-126.797,10.788],[-126.713,11.275],[-126.629,11.762],[-126.545,12.249],[-126.46,12.736],[-126.375,13.223],[-126.29,13.71],[-126.204,14.197],[-126.118,14.684],[-126.031,15.17],[-125.944,15.657],[-125.857,16.144],[-125.769,16.631],[-125.681,17.117],[-125.592,17.604],[-125.503,18.09],[-125.414,18.577],[-125.323,19.063],[-125.233,19.55],[-125.142,20.036],[-125.05,20.523],[-124.957,21.009],[-124.864,21.495],[-124.771,21.981],[-124.676,22.468],[-124.582,22.954],[-124.486,23.44],[-124.39,23.926],[-124.293,24.412],[-124.195,24.897],[-124.096,25.383],[-123.997,25.869],[-123.897,26.355],[-123.796,26.84],[-123.694,27.326],[-124.233,27.394],[-124.773,27.461],[-125.314,27.525],[-125.856,27.587],[-126.398,27.647],[-126.94,27.705],[-127.484,27.761],[-128.027,27.815],[-128.572,27.867],[-129.116,27.916],[-129.662,27.964],[-130.207,28.009],[-130.753,28.052],[-131.3,28.093],[-131.847,28.132],[-132.395,28.168],[-132.942,28.203],[-133.49,28.235],[-133.458,28.725],[-133.425,29.215],[-133.392,29.704],[-133.359,30.194],[-133.325,30.684],[-133.292,31.174],[-133.257,31.663],[-133.223,32.153],[-133.187,32.643],[-133.152,33.132],[-133.116,33.622],[-133.08,34.112],[-133.043,34.601],[-133.006,35.091],[-132.969,35.581],[-132.931,36.07],[-132.892,36.56],[-132.853,37.05],[-132.814,37.539],[-132.774,38.029],[-132.733,38.518],[-132.692,39.008],[-132.65,39.498]]}},{"type":"Feature","properties":{"boundary_type":"subduction","feature_type":"gpml:SubductionZone","polarity":"Left","overriding_plate_id":null,"subducting_plate_id":null,"plate_ids":[602],"name":"Coastal domain convergence"},"geometry":{"type":"LineString","coordinates":[[-44.568,8.396],[-44.722,8.62],[-44.875,8.844]]}},{"type":"Feature","properties":{"boundary_type":"subduction","feature_type":"gpml:SubductionZone","polarity":"Left","overriding_plate_id":602,"subducting_plate_id":701,"plate_ids":[602,701],"name":"Coastal domain convergence"},"geometry":{"type":"LineString","coordinates":[[-44.875,8.844],[-45.157,9.256],[-45.44,9.668],[-45.724,10.079],[-46.008,10.49],[-46.293,10.901],[-46.579,11.312],[-46.866,11.723],[-47.153,12.133],[-47.442,12.543],[-47.731,12.952],[-48.021,13.361],[-48.312,13.77],[-48.605,14.179],[-48.898,14.587],[-49.193,14.995],[-49.488,15.402],[-49.75,15.824],[-50.012,16.245],[-50.276,16.666],[-50.54,17.087],[-50.806,17.507],[-51.074,17.927],[-51.342,18.346],[-51.612,18.765],[-51.883,19.184],[-52.155,19.603],[-52.429,20.02],[-52.705,20.438],[-52.981,20.855],[-53.26,21.272],[-53.535,21.675],[-53.812,22.077],[-54.091,22.48],[-54.371,22.881],[-54.653,23.282],[-54.937,23.683],[-55.222,24.083],[-55.51,24.483],[-55.799,24.882],[-56.089,25.28],[-56.382,25.678],[-56.661,26.101],[-56.942,26.523],[-57.225,26.944],[-57.51,27.365],[-57.797,27.785],[-58.087,28.205],[-58.378,28.624],[-58.672,29.043],[-58.969,29.46],[-59.268,29.877],[-59.705,30.169],[-60.145,30.46],[-60.588,30.748],[-61.033,31.036],[-61.481,31.322],[-61.931,31.606],[-62.385,31.888],[-62.841,32.17],[-63.3,32.449],[-63.762,32.727],[-64.226,33.003],[-64.694,33.277],[-65.164,33.549],[-65.638,33.82],[-66.114,34.089],[-66.594,34.356],[-67.077,34.621],[-67.562,34.884]]}},{"type":"Feature","properties":{"boundary_type":"subduction","feature_type":"gpml:SubductionZone","polarity":"Left","overriding_plate_id":602,"subducting_plate_id":801,"plate_ids":[602,801],"name":"Coastal domain convergence"},"geometry":{"type":"LineString","coordinates":[[-67.562,34.884],[-68.063,35.152],[-68.567,35.418],[-69.075,35.681],[-69.586,35.943],[-70.1,36.202],[-70.618,36.459],[-71.139,36.714],[-71.663,36.966],[-72.191,37.217],[-72.723,37.464],[-73.258,37.71],[-73.796,37.953],[-74.338,38.193],[-74.884,38.431],[-75.433,38.667],[-75.986,38.9],[-76.543,39.13]]}},{"type":"Feature","properties":{"boundary_type":"subduction","feature_type":"gpml:SubductionZone","polarity":"Left","overriding_plate_id":6024,"subducting_plate_id":801,"plate_ids":[801,6024],"name":"Coastal domain convergence"},"geometry":{"type":"LineString","coordinates":[[-76.543,39.13],[-77.088,39.351],[-77.637,39.571],[-78.258,39.647],[-78.88,39.719],[-79.504,39.789],[-80.129,39.855],[-80.755,39.917],[-81.383,39.977],[-82.011,40.033],[-82.64,40.085],[-83.271,40.134],[-83.902,40.18],[-84.534,40.222],[-85.166,40.261],[-85.8,40.297],[-86.434,40.328],[-87.069,40.357],[-87.704,40.382]]}},{"type":"Feature","properties":{"boundary_type":"ridge","feature_type":"gpml:MidOceanRidge","polarity":null,"overriding_plate_id":null,"subducting_plate_id":null,"plate_ids":[77030],"name":""},"geometry":{"type":"LineString","coordinates":[[64.588,13.544],[64.543,13.97],[64.497,14.396],[64.451,14.822],[64.405,15.247],[64.359,15.673]]}},{"type":"Feature","properties":{"boundary_type":"ridge","feature_type":"gpml:MidOceanRidge","polarity":null,"overriding_plate_id":null,"subducting_plate_id":null,"plate_ids":[801,77030],"name":""},"geometry":{"type":"LineString","coordinates":[[64.359,15.673],[64.324,15.994],[64.289,16.315],[64.777,16.354],[65.265,16.393],[65.753,16.43],[66.242,16.465],[66.73,16.5],[67.219,16.534],[67.708,16.566],[68.198,16.597],[68.687,16.627],[69.176,16.656],[69.073,17.129],[68.969,17.602],[69.473,17.708],[69.978,17.812],[70.483,17.916],[70.989,18.018],[71.496,18.118],[72.003,18.218],[72.511,18.316],[73.019,18.412],[73.528,18.508],[74.038,18.602],[74.548,18.694],[75.058,18.785],[75.569,18.875],[76.081,18.964],[76.593,19.051],[77.106,19.136],[77.619,19.22],[78.133,19.303],[78.647,19.384],[79.162,19.464],[79.677,19.543],[80.193,19.619],[80.71,19.695],[81.226,19.769],[81.744,19.841],[82.261,19.912],[82.78,19.982],[82.866,20.242],[82.954,20.501],[83.442,20.686],[83.933,20.869],[84.424,21.05],[84.916,21.231],[85.41,21.409],[85.905,21.587],[86.401,21.762],[86.898,21.937],[87.397,22.11],[87.896,22.281],[88.397,22.451],[88.9,22.619],[89.403,22.786],[89.908,22.951],[90.413,23.115],[90.921,23.277],[91.429,23.437],[91.938,23.595],[92.449,23.752],[92.961,23.908],[93.474,24.061],[93.989,24.213],[94.504,24.363],[95.021,24.512],[95.539,24.658],[96.059,24.803],[96.579,24.946],[97.101,25.087],[97.624,25.227],[98.148,25.364],[98.673,25.5],[99.2,25.634],[99.727,25.766],[100.256,25.896],[100.786,26.024],[101.317,26.15],[101.849,26.274],[102.383,26.397],[102.444,26.419]]}},{"type":"Feature","properties":{"boundary_type":"ridge","feature_type":"gpml:MidOceanRidge","polarity":null,"overriding_plate_id":null,"subducting_plate_id":null,"plate_ids":[101,801],"name":""},"geometry":{"type":"LineString","coordinates":[[102.444,26.419],[102.955,26.604],[103.467,26.787],[103.981,26.969],[104.497,27.148],[105.014,27.326],[105.533,27.501],[106.053,27.675],[106.576,27.847],[107.099,28.017],[107.625,28.185],[108.152,28.35],[108.681,28.514],[109.211,28.676],[109.743,28.836],[110.277,28.993],[110.812,29.149],[111.349,29.302],[111.887,29.453],[112.428,29.602],[112.969,29.749],[113.513,29.894],[114.057,30.036],[114.604,30.176],[115.152,30.314],[115.701,30.449],[116.252,30.583],[116.804,30.714],[117.358,30.842]]}},{"type":"Feature","properties":{"boundary_type":"subduction","feature_type":"gpml:SubductionZone","polarity":"Right","overriding_plate_id":null,"subducting_plate_id":null,"plate_ids":[701],"name":""},"geometry":{"type":"LineString","coordinates":[[-44.875,8.844],[-44.592,8.867],[-44.308,8.891]]}},{"type":"Feature","properties":{"boundary_type":"subduction","feature_type":"gpml:SubductionZone","polarity":"Right","overriding_plate_id":501,"subducting_plate_id":701,"plate_ids":[501,701],"name":""},"geometry":{"type":"LineString","coordinates":[[-44.308,8.891],[-43.84,8.928],[-43.371,8.966],[-42.902,9.002],[-42.433,9.038],[-41.963,9.074],[-41.494,9.109],[-41.025,9.143],[-40.555,9.177],[-40.09,9.0],[-39.626,8.823],[-39.162,8.646],[-38.698,8.468],[-38.235,8.289],[-37.772,8.11],[-37.31,7.931],[-36.848,7.751],[-36.386,7.57],[-35.925,7.389],[-35.464,7.207],[-35.004,7.025],[-34.544,6.843],[-34.084,6.66],[-33.625,6.476],[-33.166,6.293],[-32.707,6.109],[-32.397,5.736],[-32.087,5.362],[-31.777,4.989],[-31.468,4.615],[-31.159,4.242],[-30.85,3.868],[-30.541,3.494],[-30.233,3.12],[-29.925,2.746],[-29.617,2.372],[-29.31,1.997],[-29.002,1.623],[-28.695,1.249],[-28.387,0.874],[-28.08,0.5],[-27.773,0.126],[-27.466,-0.249],[-27.159,-0.623],[-26.851,-0.998],[-26.544,-1.372],[-26.237,-1.746],[-25.929,-2.121],[-25.621,-2.495],[-25.314,-2.869],[-25.005,-3.243],[-24.697,-3.617],[-24.311,-3.904],[-23.924,-4.192],[-23.537,-4.478]]}},{"type":"Feature","properties":{"boundary_type":"ridge","feature_type":"gpml:MidOceanRidge","polarity":null,"overriding_plate_id":null,"subducting_plate_id":null,"plate_ids":[501,701],"name":""},"geometry":{"type":"LineString","coordinates":[[-23.537,-4.478],[-23.502,-4.948],[-23.466,-5.417],[-23.431,-5.886],[-23.396,-6.355],[-23.361,-6.825],[-23.325,-7.294],[-23.29,-7.763],[-23.254,-8.232],[-23.219,-8.702],[-23.183,-9.171],[-23.147,-9.64],[-23.111,-10.109],[-23.075,-10.579]]}},{"type":"Feature","properties":{"boundary_type":"ridge","feature_type":"gpml:MidOceanRidge","polarity":null,"overriding_plate_id":null,"subducting_plate_id":null,"plate_ids":[101,302],"name":"MOR-Greenland-Baltica"},"geometry":{"type":"LineString","coordinates":[[154.78,-19.868],[155.307,-19.869],[155.834,-19.87],[156.361,-19.868],[156.887,-19.865],[157.414,-19.861],[157.941,-19.855],[158.468,-19.847],[158.994,-19.838],[159.521,-19.827],[160.047,-19.815],[160.574,-19.802],[161.1,-19.786],[161.626,-19.769],[162.153,-19.751],[162.678,-19.731],[163.204,-19.71],[163.73,-19.687],[164.256,-19.662],[164.781,-19.636],[165.306,-19.609],[165.831,-19.58],[166.356,-19.549],[166.881,-19.517],[167.405,-19.483],[167.929,-19.448],[168.453,-19.412],[168.977,-19.373],[169.5,-19.334],[170.024,-19.293],[170.546,-19.25],[171.069,-19.206],[171.592,-19.16],[172.114,-19.113],[172.635,-19.065],[173.157,-19.015],[173.678,-18.963],[174.199,-18.91],[174.719,-18.856],[175.239,-18.8],[175.759,-18.743],[175.805,-18.296],[175.85,-17.849],[175.895,-17.402],[175.94,-16.955],[175.984,-16.508],[176.029,-16.061],[176.073,-15.614],[176.117,-15.167],[176.627,-15.229],[177.138,-15.29],[177.649,-15.35],[178.16,-15.408],[178.671,-15.465],[179.183,-15.521],[179.695,-15.576],[-179.793,-15.63],[-179.28,-15.683],[-178.767,-15.734],[-178.254,-15.784],[-177.741,-15.833],[-177.227,-15.881],[-176.713,-15.927],[-176.199,-15.973],[-175.685,-16.017],[-175.171,-16.059],[-174.656,-16.101],[-174.141,-16.141],[-173.626,-16.181],[-173.111,-16.219],[-172.595,-16.255],[-172.079,-16.291],[-171.563,-16.325],[-171.047,-16.358],[-170.531,-16.389],[-170.015,-16.42],[-169.498,-16.449],[-168.981,-16.477],[-168.464,-16.504],[-167.947,-16.529],[-167.43,-16.553],[-166.913,-16.576],[-166.396,-16.597],[-165.878,-16.618],[-165.36,-16.636],[-164.843,-16.654],[-164.325,-16.671]]}},{"type":"Feature","properties":{"boundary_type":"ridge","feature_type":"gpml:MidOceanRidge","polarity":null,"overriding_plate_id":null,"subducting_plate_id":null,"plate_ids":[302,501,6024],"name":""},"geometry":{"type":"LineString","coordinates":[[-165.051,-27.697],[-164.622,-27.744]]}},{"type":"Feature","properties":{"boundary_type":"ridge","feature_type":"gpml:MidOceanRidge","polarity":null,"overriding_plate_id":null,"subducting_plate_id":null,"plate_ids":[501,6024],"name":""},"geometry":{"type":"LineString","coordinates":[[-164.622,-27.744],[-164.081,-27.802],[-163.539,-27.858],[-162.996,-27.911],[-162.453,-27.963],[-161.909,-28.012],[-161.364,-28.059],[-160.82,-28.104],[-160.274,-28.147],[-159.729,-28.188],[-159.183,-28.227],[-158.636,-28.263],[-158.09,-28.297],[-157.542,-28.329],[-156.995,-28.359],[-156.447,-28.387],[-155.899,-28.412],[-155.351,-28.436],[-154.802,-28.457],[-154.254,-28.475],[-153.705,-28.492],[-153.156,-28.507],[-152.607,-28.519],[-152.057,-28.529],[-151.508,-28.537],[-150.958,-28.543],[-150.409,-28.546],[-149.859,-28.547],[-149.31,-28.546],[-149.307,-28.05],[-149.305,-27.553],[-149.303,-27.056],[-149.3,-26.56],[-149.298,-26.063],[-149.296,-25.567],[-149.293,-25.07],[-149.291,-24.573],[-149.289,-24.077],[-149.286,-23.58],[-149.284,-23.084],[-149.282,-22.587],[-149.28,-22.09],[-149.278,-21.594],[-149.275,-21.097],[-148.753,-21.143],[-148.231,-21.187],[-147.708,-21.229],[-147.185,-21.27],[-146.661,-21.31],[-146.137,-21.347],[-145.613,-21.383],[-145.089,-21.418],[-144.564,-21.45],[-144.04,-21.482],[-143.515,-21.511],[-142.99,-21.539],[-142.464,-21.565],[-141.939,-21.59],[-141.413,-21.613],[-140.887,-21.634],[-140.361,-21.654],[-139.835,-21.672],[-139.309,-21.688],[-138.782,-21.702],[-138.256,-21.715],[-137.729,-21.727],[-137.202,-21.736],[-136.676,-21.744],[-136.149,-21.751],[-135.977,-21.337],[-135.805,-20.924],[-135.635,-20.51],[-135.466,-20.096],[-135.297,-19.682],[-135.13,-19.268],[-134.963,-18.853],[-134.48,-18.992],[-133.996,-19.129],[-133.511,-19.265],[-133.025,-19.4],[-132.539,-19.534],[-132.052,-19.666],[-131.564,-19.797],[-131.075,-19.926],[-130.585,-20.055],[-130.095,-20.182],[-129.604,-20.307],[-129.112,-20.431],[-128.619,-20.554],[-128.126,-20.675],[-127.631,-20.795],[-127.136,-20.914],[-126.64,-21.031],[-126.143,-21.147],[-125.646,-21.261]]}},{"type":"Feature","properties":{"boundary_type":"ridge","feature_type":"gpml:MidOceanRidge","polarity":null,"overriding_plate_id":null,"subducting_plate_id":null,"plate_ids":[302,501],"name":""},"geometry":{"type":"LineString","coordinates":[[-174.243,-57.607],[-173.855,-57.159],[-173.477,-56.709],[-173.107,-56.259],[-172.746,-55.808],[-172.394,-55.355],[-172.049,-54.901],[-171.712,-54.447],[-171.383,-53.992],[-171.06,-53.535],[-170.745,-53.078],[-170.436,-52.62],[-170.133,-52.162],[-169.837,-51.702],[-169.547,-51.242],[-169.262,-50.781],[-168.983,-50.319],[-168.71,-49.857],[-168.441,-49.394],[-168.178,-48.931],[-167.919,-48.467],[-167.665,-48.002],[-167.416,-47.537],[-167.171,-47.071],[-166.93,-46.605],[-166.694,-46.138],[-166.461,-45.671],[-166.232,-45.203],[-166.007,-44.735],[-165.786,-44.266],[-165.568,-43.797],[-165.353,-43.328],[-165.142,-42.858],[-164.934,-42.388],[-164.729,-41.917],[-164.527,-41.447],[-164.328,-40.975],[-164.132,-40.504],[-163.938,-40.032],[-163.747,-39.56],[-163.559,-39.087],[-163.373,-38.614],[-163.19,-38.141],[-163.009,-37.668],[-162.831,-37.194],[-162.654,-36.72],[-162.48,-36.246],[-162.308,-35.771],[-162.837,-35.644],[-163.364,-35.514],[-163.889,-35.382],[-164.413,-35.247],[-164.935,-35.11],[-165.455,-34.972],[-165.973,-34.83],[-166.49,-34.687],[-167.005,-34.542],[-166.865,-34.086],[-166.727,-33.631],[-166.591,-33.175],[-166.455,-32.719],[-166.321,-32.263],[-166.189,-31.807],[-166.058,-31.351],[-165.928,-30.895],[-165.799,-30.438],[-165.672,-29.982],[-165.545,-29.525],[-165.42,-29.068],[-165.296,-28.611],[-165.173,-28.154],[-165.051,-27.697]]}},{"type":"Feature","properties":{"boundary_type":"ridge","feature_type":"gpml:MidOceanRidge","polarity":null,"overriding_plate_id":null,"subducting_plate_id":null,"plate_ids":[6024],"name":""},"geometry":{"type":"LineString","coordinates":[[-165.051,-27.697],[-164.929,-27.235],[-164.807,-26.773],[-164.687,-26.31],[-164.568,-25.848]]}},{"type":"Feature","properties":{"boundary_type":"subduction","feature_type":"gpml:SubductionZone","polarity":"Left","overriding_plate_id":302,"subducting_plate_id":30204,"plate_ids":[302,30204],"name":"inferred SZ"},"geometry":{"type":"LineString","coordinates":[[150.064,-21.272],[150.182,-21.707],[150.301,-22.142],[150.42,-22.578],[150.54,-23.013],[150.661,-23.447],[150.864,-23.875],[151.069,-24.302],[151.274,-24.728],[151.482,-25.155],[151.69,-25.581],[151.9,-26.006],[152.084,-26.432],[152.269,-26.857],[152.455,-27.282],[152.643,-27.706],[152.638,-28.164],[152.632,-28.622],[152.626,-29.08],[152.621,-29.538],[152.615,-29.995],[152.462,-30.421],[152.308,-30.847],[152.153,-31.273],[151.996,-31.698],[151.837,-32.123],[151.678,-32.548],[151.638,-33.047],[151.597,-33.545],[151.556,-34.044],[151.515,-34.542],[151.473,-35.041],[151.43,-35.54],[151.522,-36.028],[151.614,-36.516],[151.708,-37.004],[151.803,-37.493],[151.899,-37.981]]}},{"type":"Feature","properties":{"boundary_type":"subduction","feature_type":"gpml:SubductionZone","polarity":"Left","overriding_plate_id":302,"subducting_plate_id":101,"plate_ids":[101,302],"name":"inferred SZ"},"geometry":{"type":"LineString","coordinates":[[151.899,-37.981],[151.995,-38.465],[152.093,-38.949],[152.319,-39.4],[152.548,-39.85],[152.779,-40.299],[153.014,-40.748],[153.252,-41.197],[153.493,-41.645],[153.738,-42.093],[153.986,-42.54],[154.238,-42.987],[154.493,-43.433],[154.752,-43.878],[155.015,-44.323],[155.282,-44.767],[155.51,-45.202],[155.742,-45.637],[155.977,-46.071],[156.216,-46.504],[156.458,-46.938],[156.705,-47.37],[156.956,-47.802],[157.211,-48.234],[157.47,-48.664],[157.734,-49.095],[158.002,-49.524],[158.366,-49.919],[158.735,-50.312],[159.111,-50.704],[159.493,-51.095],[159.881,-51.484],[160.276,-51.872],[160.678,-52.259],[161.087,-52.645],[161.503,-53.029],[161.927,-53.411],[162.359,-53.792],[163.099,-54.005],[163.846,-54.213],[164.601,-54.416],[165.364,-54.615],[166.134,-54.809],[166.911,-54.998],[167.695,-55.182],[168.487,-55.361],[169.286,-55.535],[170.091,-55.703],[170.904,-55.867],[171.723,-56.024],[172.549,-56.177],[173.381,-56.323],[174.22,-56.465],[175.065,-56.6],[175.916,-56.73],[176.772,-56.854],[177.665,-56.959],[178.563,-57.058],[179.466,-57.15],[-179.627,-57.236],[-178.716,-57.316],[-177.801,-57.389],[-176.882,-57.455]]}},{"type":"Feature","properties":{"boundary_type":"subduction","feature_type":"gpml:SubductionZone","polarity":"Left","overriding_plate_id":302,"subducting_plate_id":501,"plate_ids":[302,501],"name":"inferred SZ"},"geometry":{"type":"LineString","coordinates":[[-176.882,-57.455],[-176.005,-57.512],[-175.125,-57.562],[-174.243,-57.607]]}},{"type":"Feature","properties":{"boundary_type":"ridge","feature_type":"gpml:MidOceanRidge","polarity":null,"overriding_plate_id":null,"subducting_plate_id":null,"plate_ids":[101,501],"name":""},"geometry":{"type":"LineString","coordinates":[[95.318,-56.329],[94.935,-56.773],[94.542,-57.216],[94.14,-57.658],[93.728,-58.099],[93.306,-58.538],[92.873,-58.975],[92.429,-59.412],[91.973,-59.846],[91.505,-60.279],[91.025,-60.711],[90.532,-61.14],[90.025,-61.568],[89.504,-61.994],[88.968,-62.418],[88.417,-62.839],[87.85,-63.259],[87.266,-63.676],[86.665,-64.091],[86.046,-64.503],[87.005,-64.767],[87.983,-65.024],[88.98,-65.275],[89.996,-65.519],[91.03,-65.756],[92.083,-65.986],[93.156,-66.209],[94.247,-66.425],[95.356,-66.632],[96.484,-66.832],[97.631,-67.023],[98.795,-67.206],[99.976,-67.381],[101.174,-67.546],[102.389,-67.703],[103.62,-67.851],[104.866,-67.989],[106.126,-68.118],[107.4,-68.237],[108.686,-68.346],[109.985,-68.445],[111.294,-68.534],[112.613,-68.613],[113.941,-68.681],[115.276,-68.739],[116.618,-68.786],[117.964,-68.823],[119.315,-68.849],[119.377,-69.317],[119.442,-69.785],[119.51,-70.252],[119.581,-70.72],[119.655,-71.188],[119.733,-71.656],[119.815,-72.123],[119.902,-72.591],[119.992,-73.058],[120.088,-73.526],[120.189,-73.993],[121.972,-73.931],[123.739,-73.854],[125.489,-73.762],[127.218,-73.656],[128.924,-73.537],[130.604,-73.404],[132.258,-73.257],[133.882,-73.098],[135.476,-72.926],[137.037,-72.741],[138.566,-72.545],[140.061,-72.338],[141.521,-72.119],[142.947,-71.89],[144.337,-71.651],[145.692,-71.402],[147.011,-71.143],[148.296,-70.876],[149.546,-70.599],[150.762,-70.315],[151.944,-70.022],[153.093,-69.722],[154.209,-69.415],[155.294,-69.1],[156.347,-68.779],[157.37,-68.452],[158.364,-68.118],[159.329,-67.779],[160.267,-67.434],[161.177,-67.084],[162.061,-66.729],[162.92,-66.369],[163.755,-66.005],[164.565,-65.636],[165.353,-65.263],[166.119,-64.886],[166.864,-64.505],[167.588,-64.12],[168.292,-63.732],[168.977,-63.341],[169.788,-63.623],[170.614,-63.9],[171.458,-64.173],[172.317,-64.441],[173.194,-64.703],[174.087,-64.96],[174.998,-65.212],[175.568,-64.796],[176.121,-64.377],[176.657,-63.956],[177.177,-63.533],[177.682,-63.108],[178.172,-62.682],[178.649,-62.254],[179.112,-61.824],[179.562,-61.393],[-180.0,-60.961],[-179.574,-60.527],[-179.159,-60.091],[-178.755,-59.655],[-178.361,-59.217],[-177.977,-58.778],[-177.603,-58.338],[-177.238,-57.897],[-176.882,-57.455]]}},{"type":"Feature","properties":{"boundary_type":"transform","feature_type":"gpml:Transform","polarity":null,"overriding_plate_id":null,"subducting_plate_id":null,"plate_ids":[101,77030],"name":""},"geometry":{"type":"LineString","coordinates":[[100.493,-17.764],[100.926,-17.497],[101.358,-17.228],[101.789,-16.958],[102.219,-16.688],[102.647,-16.416],[103.074,-16.144],[103.5,-15.871],[103.924,-15.597],[104.348,-15.322],[104.77,-15.046],[105.192,-14.77],[105.612,-14.493],[106.031,-14.215],[106.449,-13.936],[106.866,-13.657],[107.283,-13.377],[107.698,-13.096],[108.112,-12.815],[108.526,-12.533],[108.938,-12.25],[109.35,-11.967],[109.76,-11.683],[110.17,-11.399],[110.579,-11.114],[110.987,-10.828],[111.395,-10.542],[111.802,-10.256],[112.208,-9.969],[112.613,-9.681],[113.028,-9.429],[113.442,-9.176],[113.856,-8.923],[114.269,-8.67],[114.682,-8.416],[115.094,-8.161],[115.506,-7.907],[115.917,-7.652],[116.328,-7.396],[116.738,-7.14],[117.148,-6.884],[117.557,-6.627],[117.966,-6.37],[118.375,-6.113],[118.783,-5.855],[119.19,-5.597],[119.598,-5.339],[120.005,-5.081],[120.411,-4.822],[120.818,-4.563],[121.121,-4.338],[121.424,-4.114]]}},{"type":"Feature","properties":{"boundary_type":"subduction","feature_type":"gpml:SubductionZone","polarity":"Left","overriding_plate_id":101,"subducting_plate_id":77030,"plate_ids":[101,77030],"name":"E-Lau SZ"},"geometry":{"type":"LineString","coordinates":[[102.444,26.419],[102.763,26.15],[103.08,25.88],[103.396,25.61],[103.711,25.339],[104.072,24.962],[104.43,24.585],[104.786,24.207],[105.14,23.828],[105.492,23.448],[105.842,23.068],[106.19,22.686],[106.536,22.304],[106.881,21.922],[107.223,21.538],[107.563,21.154],[107.902,20.769],[108.239,20.384],[108.534,20.006],[108.827,19.629],[109.119,19.25],[109.409,18.872],[109.698,18.493],[109.986,18.113],[110.272,17.733],[110.558,17.353],[110.842,16.972],[111.125,16.591],[111.407,16.21],[111.688,15.828],[111.967,15.445],[112.224,15.042],[112.479,14.638],[112.733,14.234],[112.987,13.83],[113.239,13.426],[113.491,13.021],[113.742,12.616],[113.992,12.211],[114.241,11.805],[114.49,11.4],[114.738,10.994],[114.985,10.588],[115.232,10.181],[115.478,9.775],[115.723,9.368],[115.968,8.962],[116.115,8.524],[116.261,8.086],[116.408,7.649],[116.554,7.211],[116.7,6.773],[116.846,6.335],[116.991,5.897],[117.136,5.459],[117.281,5.022],[117.426,4.584],[117.57,4.146],[117.715,3.708],[117.956,3.27],[118.196,2.833],[118.437,2.396],[118.677,1.959],[118.917,1.522],[119.158,1.084],[119.398,0.647],[119.638,0.21],[119.878,-0.228],[120.118,-0.665],[120.358,-1.102],[120.598,-1.54],[120.838,-1.977],[121.078,-2.414],[121.165,-2.839],[121.251,-3.264],[121.337,-3.689],[121.424,-4.114]]}},{"type":"Feature","properties":{"boundary_type":"subduction","feature_type":"gpml:SubductionZone","polarity":"Left","overriding_plate_id":30204,"subducting_plate_id":101,"plate_ids":[101,30204],"name":""},"geometry":{"type":"LineString","coordinates":[[148.665,-21.785],[148.66,-21.808],[148.53,-22.241],[148.399,-22.675],[148.267,-23.108],[148.104,-23.515],[147.94,-23.923],[147.775,-24.33],[147.609,-24.737],[147.461,-25.166],[147.313,-25.595],[147.163,-26.023],[147.013,-26.452],[146.861,-26.88],[146.708,-27.308],[146.554,-27.736],[146.487,-28.216],[146.419,-28.697],[146.351,-29.178],[146.282,-29.659],[146.212,-30.14],[146.142,-30.62],[146.255,-31.053],[146.369,-31.486],[146.484,-31.919],[146.601,-32.351],[146.718,-32.784],[146.837,-33.216],[146.957,-33.648],[147.257,-34.04],[147.559,-34.432],[147.865,-34.823],[148.173,-35.213],[148.485,-35.602],[148.799,-35.991],[149.117,-36.378],[149.573,-36.65],[150.031,-36.92],[150.493,-37.188],[150.958,-37.454],[151.427,-37.718],[151.899,-37.981]]}},{"type":"Feature","properties":{"boundary_type":"ridge","feature_type":"gpml:MidOceanRidge","polarity":null,"overriding_plate_id":null,"subducting_plate_id":null,"plate_ids":[701],"name":""},"geometry":{"type":"LineString","coordinates":[[63.653,15.382],[63.841,15.015],[64.029,14.648],[64.216,14.28],[64.402,13.912],[64.588,13.544]]}},{"type":"Feature","properties":{"boundary_type":"ridge","feature_type":"gpml:MidOceanRidge","polarity":null,"overriding_plate_id":null,"subducting_plate_id":null,"plate_ids":[701,77030],"name":""},"geometry":{"type":"LineString","coordinates":[[64.588,13.544],[64.809,13.106],[65.029,12.667],[65.248,12.229],[65.466,11.79],[65.684,11.351],[65.901,10.911],[66.117,10.472],[66.333,10.032],[66.548,9.593],[66.762,9.153],[66.976,8.713],[67.19,8.273],[67.403,7.832],[67.616,7.392],[67.828,6.952],[68.04,6.511],[68.251,6.071],[68.462,5.63],[68.673,5.189],[68.883,4.748],[69.093,4.307],[69.303,3.866],[69.513,3.425],[69.723,2.984],[69.932,2.543],[70.141,2.102],[70.35,1.661],[70.559,1.22],[70.768,0.779],[70.977,0.337],[71.186,-0.104],[71.395,-0.545],[71.604,-0.986],[71.813,-1.427],[72.022,-1.868],[71.6,-2.113],[71.179,-2.357],[70.757,-2.602],[70.335,-2.846],[69.913,-3.09],[69.491,-3.334],[69.069,-3.577],[68.646,-3.821],[68.223,-4.064],[67.8,-4.307],[67.377,-4.55],[66.953,-4.792],[66.529,-5.035],[66.105,-5.277],[65.68,-5.518],[65.255,-5.76],[64.83,-6.001],[64.404,-6.242],[63.978,-6.482],[63.552,-6.722],[63.125,-6.962],[62.697,-7.201],[62.27,-7.44],[61.841,-7.679],[61.412,-7.917],[60.983,-8.154],[61.184,-8.613],[61.385,-9.071],[61.587,-9.529],[61.789,-9.987],[61.992,-10.445],[62.196,-10.903],[62.4,-11.36],[62.604,-11.818],[62.81,-12.275],[63.016,-12.732],[63.223,-13.189],[63.431,-13.646],[63.639,-14.103],[63.848,-14.559],[64.059,-15.016],[64.27,-15.472],[64.482,-15.928],[64.695,-16.383],[64.909,-16.839],[65.124,-17.294],[65.34,-17.749],[65.557,-18.204],[65.775,-18.658],[65.995,-19.113],[66.215,-19.567],[66.437,-20.02],[66.661,-20.474],[66.885,-20.927],[67.111,-21.38],[67.338,-21.833],[67.567,-22.285],[67.797,-22.737],[68.029,-23.189],[68.263,-23.64],[68.498,-24.091],[68.734,-24.541],[68.972,-24.992],[69.213,-25.441],[69.454,-25.891],[69.698,-26.34],[69.944,-26.788],[70.191,-27.237],[70.441,-27.684],[70.692,-28.132],[70.946,-28.578],[71.202,-29.025],[71.46,-29.471],[71.721,-29.916],[71.983,-30.361],[72.248,-30.805],[72.516,-31.249],[72.786,-31.692],[73.059,-32.135],[73.334,-32.577],[73.612,-33.018],[73.893,-33.459],[73.379,-33.698],[72.862,-33.934],[72.343,-34.168],[71.82,-34.4],[71.294,-34.63],[70.766,-34.858],[70.235,-35.083],[69.7,-35.306],[69.163,-35.527],[68.623,-35.745],[68.08,-35.961],[67.534,-36.174],[67.728,-36.626],[67.924,-37.078],[68.123,-37.53],[68.324,-37.981],[68.528,-38.432],[68.734,-38.882],[68.943,-39.332],[69.154,-39.782],[69.369,-40.231],[69.586,-40.68],[69.806,-41.129],[70.029,-41.577],[70.255,-42.025],[70.485,-42.472]]}},{"type":"Feature","properties":{"boundary_type":"transform","feature_type":"gpml:Transform","polarity":null,"overriding_plate_id":null,"subducting_plate_id":null,"plate_ids":[101,30204],"name":""},"geometry":{"type":"LineString","coordinates":[[148.665,-21.785],[149.132,-21.615],[149.599,-21.444],[150.064,-21.272]]}},{"type":"Feature","properties":{"boundary_type":"transform","feature_type":"gpml:Transform","polarity":null,"overriding_plate_id":null,"subducting_plate_id":null,"plate_ids":[101,302],"name":""},"geometry":{"type":"LineString","coordinates":[[150.064,-21.272],[150.521,-21.101],[150.976,-20.929],[151.455,-20.801],[151.932,-20.672],[152.409,-20.541],[152.885,-20.409],[153.36,-20.275],[153.834,-20.141],[154.307,-20.005],[154.78,-19.868]]}},{"type":"Feature","properties":{"boundary_type":"ridge","feature_type":"gpml:MidOceanRidge","polarity":null,"overriding_plate_id":null,"subducting_plate_id":null,"plate_ids":[501,77030],"name":""},"geometry":{"type":"LineString","coordinates":[[69.563,-42.426],[69.989,-42.785],[70.421,-43.142],[70.857,-43.498],[71.299,-43.852],[71.746,-44.205],[72.198,-44.555],[72.656,-44.904],[73.12,-45.251],[73.589,-45.596],[74.064,-45.939],[74.544,-46.28],[75.031,-46.619],[75.524,-46.956],[76.023,-47.291],[76.529,-47.623],[76.959,-47.284],[77.384,-46.943],[77.803,-46.601],[78.217,-46.257],[78.626,-45.912],[79.03,-45.566],[79.531,-45.908],[80.039,-46.248],[80.552,-46.586],[81.073,-46.922],[81.599,-47.255],[82.132,-47.586],[82.672,-47.915],[83.219,-48.241],[83.773,-48.564],[84.334,-48.884],[84.902,-49.202],[85.478,-49.517],[86.061,-49.829],[86.651,-50.138],[87.249,-50.444],[87.855,-50.747],[88.469,-51.047],[89.09,-51.343],[89.72,-51.636],[90.358,-51.926],[91.004,-52.212],[91.658,-52.495],[92.321,-52.774],[92.992,-53.049],[93.672,-53.321],[94.361,-53.588],[95.058,-53.852],[95.764,-54.111]]}}]}