{"type":"FeatureCollection","meta":{"model":"Cao2024","reconstruction_time_ma":865.0,"anchor_plate_id":0,"pygplates_version":"1.0.0","tessellate_degrees":0.5,"polarity_convention":"gpml:subductionPolarity. 'Left'/'Right' names the side of the line, in vertex order, on which the OVERRIDING plate lies. Triangles are drawn on that side.","antimeridian":"Lines are NOT split at +/-180 deg. The renderer works in 3D unit vectors where the dateline is not special; splitting would only add spurious breaks. Do not treat this as RFC 7946 GIS-ready 2D data."},"features":[{"type":"Feature","properties":{"boundary_type":"subduction","feature_type":"gpml:SubductionZone","polarity":"Right","overriding_plate_id":101,"subducting_plate_id":98041,"plate_ids":[101,98041],"name":"Proto Avalonia SZ"},"geometry":{"type":"LineString","coordinates":[[-178.2,-46.931],[-177.473,-46.951],[-176.745,-46.966],[-176.017,-46.976],[-175.289,-46.982],[-174.56,-46.983],[-173.832,-46.979],[-173.104,-46.971],[-172.474,-46.998],[-171.844,-47.022],[-171.213,-47.043],[-170.581,-47.06],[-169.95,-47.074],[-169.318,-47.084],[-168.633,-47.212],[-167.945,-47.336],[-167.254,-47.456],[-166.56,-47.572],[-165.862,-47.684],[-165.162,-47.791],[-164.459,-47.894],[-163.753,-47.993],[-163.045,-48.087],[-162.334,-48.178],[-161.62,-48.263],[-160.905,-48.345],[-160.187,-48.421],[-159.525,-48.593],[-158.859,-48.761],[-158.188,-48.925],[-157.513,-49.085],[-156.833,-49.241],[-156.15,-49.393],[-155.462,-49.541],[-154.77,-49.684],[-154.074,-49.824],[-153.374,-49.96],[-152.67,-50.091],[-151.963,-50.218],[-151.251,-50.34],[-150.536,-50.459],[-149.818,-50.573],[-149.096,-50.682],[-148.371,-50.787],[-147.673,-51.021],[-146.969,-51.251],[-146.257,-51.476],[-145.539,-51.697],[-144.813,-51.914],[-144.081,-52.126],[-143.342,-52.333],[-142.596,-52.536],[-141.842,-52.734],[-141.083,-52.928],[-140.316,-53.116],[-139.543,-53.3],[-138.763,-53.478],[-137.977,-53.651],[-137.184,-53.819],[-136.52,-54.115],[-135.847,-54.406],[-135.165,-54.694],[-134.472,-54.978]]}},{"type":"Feature","properties":{"boundary_type":"subduction","feature_type":"gpml:SubductionZone","polarity":"Right","overriding_plate_id":101,"subducting_plate_id":9804,"plate_ids":[101,9804],"name":"Proto Avalonia SZ"},"geometry":{"type":"LineString","coordinates":[[-134.472,-54.978],[-133.799,-55.246],[-133.117,-55.511],[-132.426,-55.771],[-131.726,-56.028],[-131.016,-56.281],[-130.297,-56.53],[-129.569,-56.774],[-128.831,-57.014],[-128.083,-57.25],[-127.327,-57.481],[-126.56,-57.708],[-125.784,-57.93],[-124.928,-58.14],[-124.063,-58.344],[-123.187,-58.543],[-122.302,-58.735],[-121.407,-58.921],[-120.502,-59.101],[-119.588,-59.274],[-118.665,-59.441],[-117.733,-59.602],[-116.792,-59.756],[-115.842,-59.903],[-114.885,-60.043],[-113.919,-60.176],[-112.946,-60.302],[-111.965,-60.421],[-110.977,-60.533],[-110.036,-60.632],[-109.089,-60.725],[-108.137,-60.812],[-107.179,-60.891],[-106.217,-60.964],[-105.251,-61.03],[-104.281,-61.089],[-103.308,-61.14],[-102.332,-61.185],[-101.353,-61.223],[-100.372,-61.254],[-99.389,-61.278],[-98.405,-61.294],[-97.421,-61.304],[-96.436,-61.306],[-95.628,-61.593],[-94.805,-61.875],[-93.967,-62.153],[-93.113,-62.425],[-92.244,-62.692],[-91.36,-62.953],[-90.459,-63.209],[-89.543,-63.459],[-88.791,-63.793],[-88.021,-64.123],[-87.233,-64.449],[-86.426,-64.77],[-85.6,-65.087],[-84.754,-65.4],[-83.888,-65.707],[-83.001,-66.01],[-82.093,-66.307],[-81.163,-66.599],[-80.212,-66.885],[-79.238,-67.165],[-78.242,-67.44],[-77.222,-67.708],[-76.179,-67.969],[-75.113,-68.224],[-74.024,-68.472],[-72.91,-68.712],[-71.974,-68.944],[-71.018,-69.17],[-70.043,-69.391],[-69.048,-69.606]]}},{"type":"Feature","properties":{"boundary_type":"subduction","feature_type":"gpml:SubductionZone","polarity":"Left","overriding_plate_id":980421,"subducting_plate_id":456,"plate_ids":[456,980421],"name":"Jiangang SZ"},"geometry":{"type":"LineString","coordinates":[[-145.375,40.884],[-144.888,41.191],[-144.395,41.495],[-143.898,41.797],[-143.396,42.097],[-142.89,42.395],[-142.379,42.69],[-141.862,42.984],[-141.341,43.275],[-140.815,43.563],[-140.284,43.849],[-139.748,44.133],[-139.272,44.459],[-138.791,44.784],[-138.304,45.107],[-137.812,45.427],[-137.314,45.745],[-136.811,46.061],[-136.302,46.375],[-135.787,46.687],[-135.266,46.996],[-134.739,47.303],[-134.205,47.607],[-133.636,47.884],[-133.061,48.158],[-132.48,48.43],[-131.893,48.698]]}},{"type":"Feature","properties":{"boundary_type":"subduction","feature_type":"gpml:SubductionZone","polarity":"Left","overriding_plate_id":501,"subducting_plate_id":456,"plate_ids":[456,501],"name":"Jiangang SZ"},"geometry":{"type":"LineString","coordinates":[[-131.893,48.698],[-131.375,48.929],[-130.852,49.159],[-130.325,49.385],[-129.793,49.61],[-129.353,49.996],[-128.906,50.38],[-128.452,50.763],[-127.99,51.143],[-127.52,51.522],[-127.043,51.899],[-126.393,52.02],[-125.739,52.137],[-125.081,52.251],[-124.421,52.361],[-123.757,52.467],[-123.09,52.569],[-122.51,52.882],[-121.922,53.192],[-121.325,53.498],[-120.72,53.802],[-120.106,54.103],[-119.483,54.4],[-118.852,54.666],[-118.212,54.928],[-117.565,55.187],[-116.908,55.443],[-116.243,55.695],[-115.57,55.943],[-114.888,56.188],[-114.197,56.429],[-113.364,56.557],[-112.524,56.68],[-111.68,56.796],[-110.83,56.907],[-109.975,57.013],[-109.116,57.112],[-108.252,57.206],[-107.384,57.293],[-106.572,57.245],[-105.763,57.192],[-104.956,57.134],[-104.152,57.071],[-103.351,57.002],[-102.553,56.929],[-101.758,56.85],[-100.862,56.914],[-99.962,56.971],[-99.06,57.023],[-98.156,57.067],[-97.249,57.105],[-96.427,57.203],[-95.6,57.295],[-94.769,57.382],[-93.935,57.464],[-93.097,57.54],[-92.4,57.771],[-91.694,57.998],[-90.979,58.221],[-90.255,58.44],[-89.522,58.655],[-88.803,58.759],[-88.08,58.858],[-87.353,58.954]]}},{"type":"Feature","properties":{"boundary_type":"subduction","feature_type":"gpml:SubductionZone","polarity":"Left","overriding_plate_id":501,"subducting_plate_id":456,"plate_ids":[456,501],"name":"Oman subduction zone"},"geometry":{"type":"LineString","coordinates":[[-85.149,60.35],[-84.527,60.193],[-83.911,60.034],[-83.301,59.871],[-82.641,59.569],[-81.993,59.264],[-81.356,58.956],[-80.731,58.645],[-80.117,58.331],[-79.513,58.014],[-79.011,57.645],[-78.518,57.275],[-78.036,56.902],[-77.562,56.528],[-77.099,56.152],[-76.971,55.671],[-76.847,55.19],[-76.726,54.708],[-76.6,54.254],[-76.477,53.8],[-76.356,53.345],[-76.238,52.89],[-76.123,52.435],[-76.009,51.98],[-75.898,51.525],[-75.405,51.137],[-74.92,50.747],[-74.443,50.356],[-73.973,49.962],[-73.512,49.566],[-73.057,49.169],[-72.61,48.769],[-72.17,48.368],[-71.737,47.966],[-71.311,47.562],[-70.891,47.156],[-70.478,46.749],[-70.071,46.34],[-69.554,46.027],[-69.043,45.711],[-68.538,45.393],[-68.038,45.072],[-67.544,44.75],[-67.056,44.426],[-66.573,44.099],[-65.913,43.962],[-65.257,43.82],[-64.603,43.676],[-63.953,43.527],[-63.306,43.375],[-62.662,43.219],[-62.021,43.059],[-61.384,42.896],[-60.751,42.73],[-60.12,42.56],[-59.568,42.489],[-59.017,42.416]]}},{"type":"Feature","properties":{"boundary_type":"subduction","feature_type":"gpml:SubductionZone","polarity":"Right","overriding_plate_id":456,"subducting_plate_id":9804,"plate_ids":[456,9804],"name":"Chu Yili-North Tianshan SZ"},"geometry":{"type":"LineString","coordinates":[[-63.663,11.719],[-63.974,11.95],[-64.285,12.18],[-64.597,12.41],[-64.91,12.64]]}},{"type":"Feature","properties":{"boundary_type":"subduction","feature_type":"gpml:SubductionZone","polarity":"Right","overriding_plate_id":456,"subducting_plate_id":580,"plate_ids":[456,580],"name":"Chu Yili-North Tianshan SZ"},"geometry":{"type":"LineString","coordinates":[[-64.91,12.64],[-65.295,12.923],[-65.682,13.205],[-66.07,13.486],[-66.459,13.767],[-66.848,14.047],[-67.217,14.343],[-67.587,14.638],[-67.958,14.932],[-68.33,15.226],[-68.703,15.519],[-69.078,15.812],[-69.453,16.103],[-69.829,16.395],[-70.207,16.685],[-70.585,16.975],[-70.965,17.264],[-71.346,17.553],[-71.731,17.813],[-72.117,18.073],[-72.504,18.333],[-72.892,18.591],[-73.282,18.849],[-73.673,19.106],[-74.121,19.335],[-74.571,19.563],[-75.022,19.79],[-75.474,20.016],[-75.928,20.241],[-76.383,20.464],[-76.839,20.687],[-77.297,20.908],[-77.756,21.128],[-78.216,21.346],[-78.678,21.564],[-79.141,21.78],[-79.606,21.995],[-80.002,22.331],[-80.401,22.666],[-80.802,22.999],[-81.205,23.332],[-81.609,23.664],[-82.016,23.995],[-82.334,24.364],[-82.654,24.732],[-82.975,25.099],[-83.299,25.466],[-83.624,25.832],[-83.952,26.197],[-84.281,26.562],[-84.613,26.926],[-84.947,27.289],[-85.283,27.651],[-85.621,28.013],[-85.962,28.373],[-86.367,28.683],[-86.775,28.991],[-87.186,29.298],[-87.598,29.604],[-88.014,29.909],[-88.432,30.212],[-88.852,30.514],[-89.275,30.814],[-89.701,31.113],[-90.13,31.411],[-90.561,31.707],[-90.995,32.002],[-91.431,32.296],[-91.906,32.555],[-92.383,32.812],[-92.863,33.068],[-93.346,33.322],[-93.832,33.574],[-94.32,33.824],[-94.811,34.072],[-95.305,34.318],[-95.802,34.562],[-96.302,34.804],[-96.805,35.044],[-97.311,35.282],[-97.902,35.342],[-98.494,35.399],[-99.087,35.453],[-99.68,35.504],[-100.275,35.552],[-100.87,35.597],[-101.465,35.639],[-102.061,35.678],[-102.658,35.715],[-103.255,35.748],[-103.853,35.779],[-104.451,35.806],[-105.05,35.831],[-105.649,35.852],[-106.248,35.871],[-106.848,35.886],[-107.447,35.899],[-108.047,35.909],[-108.26,35.894]]}},{"type":"Feature","properties":{"boundary_type":"subduction","feature_type":"gpml:SubductionZone","polarity":"Right","overriding_plate_id":9804,"subducting_plate_id":101,"plate_ids":[101,9804],"name":"Iskel arc"},"geometry":{"type":"LineString","coordinates":[[-52.197,7.979],[-51.863,7.66],[-51.53,7.342],[-51.197,7.023],[-51.05,6.588],[-50.903,6.153],[-50.756,5.718],[-50.609,5.283],[-50.462,4.848],[-50.316,4.413],[-50.17,3.978],[-49.994,3.584],[-49.818,3.19],[-49.642,2.796],[-49.466,2.402],[-49.291,2.007],[-49.115,1.613],[-48.967,1.157],[-48.818,0.7],[-48.67,0.244],[-48.521,-0.212],[-48.373,-0.668],[-48.225,-1.125],[-48.076,-1.581],[-47.928,-2.037],[-47.779,-2.493],[-47.63,-2.95],[-47.481,-3.406],[-47.271,-3.785],[-47.061,-4.163],[-46.851,-4.542],[-46.64,-4.92],[-46.429,-5.299],[-46.267,-5.644],[-46.104,-5.988],[-45.942,-6.333],[-45.779,-6.677],[-45.533,-7.009],[-45.286,-7.341],[-45.039,-7.673],[-44.791,-8.005],[-44.543,-8.336],[-44.277,-8.641],[-44.011,-8.946],[-43.744,-9.25],[-43.477,-9.554],[-43.209,-9.858],[-42.934,-10.277],[-42.658,-10.696],[-42.381,-11.115],[-42.103,-11.533],[-41.858,-11.901],[-41.613,-12.268],[-41.367,-12.635],[-41.12,-13.002],[-40.872,-13.368],[-40.851,-13.814],[-40.83,-14.26],[-40.809,-14.705],[-40.788,-15.151],[-40.767,-15.597],[-40.746,-16.042],[-40.596,-16.51],[-40.445,-16.978],[-40.294,-17.445],[-40.142,-17.913],[-39.989,-18.38],[-39.835,-18.847],[-39.681,-19.314],[-39.525,-19.781],[-39.369,-20.248],[-39.211,-20.714],[-39.053,-21.181],[-38.894,-21.647],[-38.733,-22.113],[-38.572,-22.58],[-38.409,-23.045],[-38.131,-23.445],[-37.851,-23.844],[-37.57,-24.243],[-37.287,-24.641],[-37.002,-25.039],[-36.715,-25.436],[-36.426,-25.833],[-36.135,-26.229]]}},{"type":"Feature","properties":{"boundary_type":"subduction","feature_type":"gpml:SubductionZone","polarity":"Left","overriding_plate_id":101,"subducting_plate_id":9804,"plate_ids":[101,9804],"name":"Goias Arc"},"geometry":{"type":"LineString","coordinates":[[-36.135,-26.229],[-35.735,-26.407],[-35.334,-26.585],[-34.931,-26.761],[-34.562,-27.053],[-34.191,-27.344],[-33.819,-27.635],[-33.444,-27.924],[-33.067,-28.212],[-32.688,-28.499],[-32.307,-28.785],[-32.027,-29.124],[-31.745,-29.461],[-31.461,-29.798],[-31.175,-30.134],[-30.887,-30.47],[-30.597,-30.805],[-30.547,-31.254],[-30.496,-31.702],[-30.445,-32.151],[-30.394,-32.599],[-30.342,-33.048],[-30.289,-33.496],[-30.236,-33.945],[-30.104,-34.362],[-29.97,-34.779],[-29.835,-35.195],[-29.698,-35.612],[-29.56,-36.029],[-29.494,-36.459],[-29.427,-36.888],[-29.359,-37.318],[-29.291,-37.748],[-29.221,-38.178],[-29.158,-38.601],[-29.093,-39.025],[-29.028,-39.449],[-28.961,-39.873],[-28.894,-40.296],[-28.826,-40.72],[-28.938,-41.209],[-29.051,-41.699],[-29.166,-42.188],[-29.282,-42.677],[-29.375,-43.15],[-29.469,-43.623],[-29.565,-44.096],[-29.662,-44.569],[-29.697,-45.016],[-29.731,-45.463],[-29.767,-45.91],[-29.803,-46.357],[-29.839,-46.804],[-29.877,-47.251],[-29.717,-47.718],[-29.555,-48.185],[-29.389,-48.652],[-29.221,-49.119],[-29.049,-49.585],[-28.874,-50.051],[-28.695,-50.517],[-28.513,-50.983],[-28.327,-51.448],[-28.037,-51.876],[-27.741,-52.304],[-27.439,-52.731],[-27.131,-53.157],[-26.817,-53.582],[-26.605,-54.053],[-26.388,-54.523],[-26.167,-54.993],[-25.94,-55.463],[-25.708,-55.932],[-25.47,-56.401],[-25.226,-56.869],[-24.976,-57.337],[-24.72,-57.804],[-24.456,-58.271],[-24.186,-58.737]]}},{"type":"Feature","properties":{"boundary_type":"subduction","feature_type":"gpml:SubductionZone","polarity":"Right","overriding_plate_id":101,"subducting_plate_id":980421,"plate_ids":[101,980421],"name":"Taimyr SZ"},"geometry":{"type":"LineString","coordinates":[[-169.389,11.069],[-169.298,10.999],[-168.974,10.642],[-168.65,10.285],[-168.328,9.927],[-168.006,9.569],[-167.684,9.211],[-167.364,8.852],[-167.044,8.493],[-166.724,8.134],[-166.405,7.775],[-166.087,7.415],[-165.798,7.21],[-165.509,7.004]]}},{"type":"Feature","properties":{"boundary_type":"subduction","feature_type":"gpml:SubductionZone","polarity":"Right","overriding_plate_id":4012,"subducting_plate_id":980421,"plate_ids":[4012,980421],"name":"Taimyr SZ"},"geometry":{"type":"LineString","coordinates":[[-165.509,7.004],[-165.168,6.761],[-164.827,6.518],[-164.602,6.081],[-164.377,5.644],[-164.152,5.207],[-163.927,4.77],[-163.611,4.459],[-163.295,4.149],[-162.979,3.839],[-162.663,3.528],[-162.348,3.217],[-162.033,2.907],[-161.71,2.528],[-161.386,2.148],[-161.063,1.769],[-160.74,1.39],[-160.418,1.011],[-160.095,0.632],[-159.785,0.286],[-159.475,-0.06],[-159.165,-0.406],[-158.855,-0.752],[-158.544,-1.097],[-158.234,-1.443],[-157.924,-1.789],[-157.613,-2.134],[-157.303,-2.48],[-156.992,-2.825]]}},{"type":"Feature","properties":{"boundary_type":"subduction","feature_type":"gpml:SubductionZone","polarity":"Right","overriding_plate_id":101,"subducting_plate_id":980421,"plate_ids":[101,980421],"name":"Taimyr SZ"},"geometry":{"type":"LineString","coordinates":[[-156.992,-2.825],[-156.679,-3.173],[-156.366,-3.521],[-156.053,-3.868],[-155.739,-4.216],[-155.449,-4.577],[-155.159,-4.938],[-154.869,-5.3],[-154.578,-5.661],[-154.287,-6.022],[-153.996,-6.383],[-153.704,-6.743]]}},{"type":"Feature","properties":{"boundary_type":"subduction","feature_type":"gpml:SubductionZone","polarity":"Right","overriding_plate_id":101,"subducting_plate_id":98041,"plate_ids":[101,98041],"name":"Taimyr SZ"},"geometry":{"type":"LineString","coordinates":[[-153.704,-6.743],[-153.542,-6.942],[-153.381,-7.141],[-153.238,-7.61],[-153.095,-8.079],[-152.952,-8.548],[-152.808,-9.016],[-152.664,-9.485],[-152.519,-9.954],[-152.374,-10.422],[-152.229,-10.891],[-152.083,-11.359],[-151.937,-11.828],[-151.79,-12.296],[-151.643,-12.764],[-151.495,-13.232],[-151.346,-13.7],[-151.197,-14.168],[-151.048,-14.636],[-150.897,-15.104],[-150.747,-15.571],[-150.595,-16.039],[-150.443,-16.506],[-150.651,-16.894],[-150.86,-17.282],[-151.07,-17.67],[-151.281,-18.057],[-151.493,-18.444],[-151.705,-18.831],[-151.919,-19.218],[-152.297,-19.563],[-152.676,-19.908],[-153.056,-20.251],[-153.439,-20.594],[-153.823,-20.936],[-154.209,-21.277],[-154.597,-21.618],[-154.986,-21.957],[-155.267,-22.319],[-155.549,-22.68],[-155.832,-23.04],[-156.117,-23.4],[-156.403,-23.76],[-156.691,-24.119],[-156.981,-24.477],[-157.273,-24.835],[-157.566,-25.193],[-157.891,-25.536],[-158.218,-25.879],[-158.546,-26.221],[-158.877,-26.562],[-159.21,-26.903],[-159.545,-27.243],[-159.881,-27.582],[-160.22,-27.92],[-160.561,-28.257],[-160.941,-28.567]]}},{"type":"Feature","properties":{"boundary_type":"subduction","feature_type":"gpml:SubductionZone","polarity":"Right","overriding_plate_id":501,"subducting_plate_id":980421,"plate_ids":[501,980421],"name":"oceanic arc outboard of Indo-Antarctica"},"geometry":{"type":"LineString","coordinates":[[157.849,83.599],[154.246,83.8],[150.418,83.975],[146.381,84.122],[142.16,84.238],[137.79,84.322],[133.316,84.373],[128.788,84.389],[124.263,84.37],[119.43,84.381],[114.612,84.353],[109.874,84.285],[105.278,84.18],[100.872,84.038],[96.692,83.864],[92.761,83.659],[89.092,83.426],[85.685,83.169],[82.534,82.889],[79.629,82.589],[76.955,82.273],[74.494,81.941],[72.231,81.595],[70.148,81.238],[67.887,80.907],[65.786,80.564],[63.834,80.209],[62.018,79.844],[60.329,79.47],[58.756,79.087],[57.289,78.697],[55.92,78.3],[54.64,77.897],[53.442,77.488],[52.319,77.075],[51.265,76.657],[50.273,76.235],[49.341,75.809],[48.461,75.379],[47.631,74.947],[46.846,74.512],[46.104,74.074],[45.4,73.634],[44.732,73.191],[44.097,72.747],[43.494,72.3],[42.36,71.968],[41.267,71.63],[40.212,71.285],[39.194,70.935],[38.211,70.58],[37.263,70.219],[36.348,69.854],[35.464,69.484],[34.611,69.109],[33.786,68.731],[32.989,68.348],[32.219,67.962],[31.473,67.573],[30.752,67.18],[30.055,66.784],[29.379,66.385],[28.725,65.984],[28.091,65.579],[27.476,65.172],[26.744,64.783],[26.034,64.39],[25.343,63.994],[24.671,63.595],[24.019,63.192],[23.384,62.787],[22.767,62.379],[22.166,61.968],[21.581,61.555],[21.012,61.139],[20.457,60.721],[19.917,60.301],[19.39,59.879],[18.877,59.454],[18.376,59.028],[17.888,58.6],[17.412,58.17],[16.947,57.738],[16.493,57.304],[16.049,56.869],[15.616,56.433],[15.193,55.994],[14.779,55.555],[14.374,55.114],[13.978,54.672],[13.591,54.228],[13.212,53.784],[12.841,53.338],[12.478,52.891],[12.122,52.443],[11.773,51.994],[11.431,51.544],[11.096,51.093],[10.767,50.641],[10.078,50.417],[9.395,50.189],[8.718,49.957],[8.048,49.721],[7.385,49.482],[6.728,49.239],[6.078,48.992],[5.434,48.741],[4.796,48.487],[4.165,48.229],[3.545,48.036],[2.93,47.839],[2.32,47.64],[1.715,47.437]]}},{"type":"Feature","properties":{"boundary_type":"subduction","feature_type":"gpml:SubductionZone","polarity":"Left","overriding_plate_id":101,"subducting_plate_id":98041,"plate_ids":[101,98041],"name":"Valhalla Orogeny"},"geometry":{"type":"LineString","coordinates":[[165.891,-47.214],[166.201,-46.764],[166.506,-46.312],[166.806,-45.86],[167.102,-45.407],[167.392,-44.953],[167.49,-44.636],[167.587,-44.318],[167.577,-43.919],[167.566,-43.519],[167.556,-43.12],[167.546,-42.72],[167.658,-42.292],[167.768,-41.863],[167.876,-41.434],[167.983,-41.005],[168.128,-40.578],[168.272,-40.151],[168.413,-39.724],[168.553,-39.296],[168.455,-38.871],[168.357,-38.446],[168.261,-38.021],[168.166,-37.596],[168.197,-37.126],[168.228,-36.656],[168.128,-36.194],[168.03,-35.731],[167.932,-35.268],[168.172,-34.813],[168.409,-34.358],[168.644,-33.902],[168.876,-33.446],[169.105,-32.989],[169.333,-32.532],[169.268,-32.075],[169.204,-31.618],[169.141,-31.162]]}},{"type":"Feature","properties":{"boundary_type":"subduction","feature_type":"gpml:SubductionZone","polarity":"Right","overriding_plate_id":101,"subducting_plate_id":9804,"plate_ids":[101,9804],"name":"Proto Avalonia-Cadomia SZ"},"geometry":{"type":"LineString","coordinates":[[-69.048,-69.606],[-67.624,-69.571],[-66.205,-69.524],[-64.794,-69.466],[-63.391,-69.397],[-61.997,-69.316],[-60.615,-69.224],[-59.245,-69.121],[-57.888,-69.007],[-56.547,-68.883],[-55.22,-68.748],[-53.954,-68.566],[-52.708,-68.373],[-51.484,-68.172],[-50.281,-67.962],[-49.101,-67.743],[-47.943,-67.516],[-46.807,-67.281],[-45.694,-67.038],[-44.603,-66.787],[-43.534,-66.529],[-42.487,-66.264],[-41.463,-65.992],[-40.461,-65.713],[-39.48,-65.428],[-38.52,-65.136],[-37.563,-64.862],[-36.626,-64.581],[-35.708,-64.295],[-34.809,-64.003],[-33.929,-63.706],[-33.067,-63.403],[-32.223,-63.096],[-31.398,-62.783],[-30.589,-62.466],[-29.798,-62.144],[-29.023,-61.818],[-28.265,-61.487],[-27.523,-61.152],[-26.797,-60.814],[-26.086,-60.471],[-25.39,-60.125],[-25.079,-59.779],[-24.776,-59.432],[-24.478,-59.085],[-24.186,-58.737]]}},{"type":"Feature","properties":{"boundary_type":"subduction","feature_type":"gpml:SubductionZone","polarity":"Left","overriding_plate_id":606,"subducting_plate_id":980421,"plate_ids":[606,980421],"name":"Lhasa SZ"},"geometry":{"type":"LineString","coordinates":[[150.638,12.254],[150.31,12.497],[149.982,12.739],[149.573,13.008],[149.163,13.276],[148.752,13.544],[148.34,13.811],[147.927,14.077],[147.513,14.343],[147.161,14.662],[146.808,14.98],[146.454,15.298],[146.098,15.615],[145.742,15.932],[145.384,16.248],[144.967,16.433],[144.548,16.617],[144.129,16.801],[143.708,16.983],[143.287,17.165],[142.866,17.345],[142.443,17.525],[142.162,17.835],[141.881,18.144],[141.598,18.453],[141.187,18.699],[140.774,18.943],[140.361,19.187],[139.946,19.429],[139.529,19.671],[139.112,19.912],[138.693,20.152],[138.273,20.39],[137.852,20.628],[137.413,20.79],[136.973,20.951],[136.532,21.111],[136.09,21.27],[135.647,21.428],[135.203,21.584],[134.758,21.74],[134.312,21.894],[133.791,22.015],[133.268,22.135],[132.744,22.254],[132.22,22.37],[131.695,22.485],[131.169,22.598],[130.642,22.71],[130.114,22.82],[129.585,22.928],[129.056,23.034],[128.525,23.139],[127.994,23.241],[127.462,23.342],[126.93,23.441],[126.396,23.539],[125.869,23.553],[125.341,23.566],[124.813,23.577],[124.286,23.587],[123.758,23.594],[123.23,23.6],[122.702,23.604],[122.174,23.606],[121.646,23.606],[121.119,23.605],[120.591,23.602],[120.063,23.597],[119.535,23.59],[119.007,23.581],[118.48,23.571],[117.952,23.559],[117.425,23.545],[116.897,23.529],[116.37,23.512],[115.843,23.493],[115.316,23.472],[114.789,23.449],[114.263,23.424],[113.737,23.398],[113.301,23.326],[112.867,23.253],[112.433,23.179],[111.999,23.104],[111.566,23.027]]}},{"type":"Feature","properties":{"boundary_type":"subduction","feature_type":"gpml:SubductionZone","polarity":"Left","overriding_plate_id":101,"subducting_plate_id":980421,"plate_ids":[101,980421],"name":"North Qinling SZ"},"geometry":{"type":"LineString","coordinates":[[170.346,5.903],[169.862,6.008],[169.377,6.112],[168.893,6.215],[168.408,6.318],[167.923,6.421],[167.438,6.523],[166.953,6.625],[166.468,6.726],[165.982,6.827],[165.496,6.928],[165.01,7.028],[164.524,7.127],[164.038,7.226],[163.551,7.324],[163.064,7.422],[162.577,7.519],[162.09,7.616],[161.608,7.632],[161.127,7.648],[160.646,7.663],[160.165,7.677],[159.684,7.691],[159.203,7.704],[158.721,7.717],[158.24,7.729],[157.759,7.741],[157.277,7.752],[156.796,7.763],[156.315,7.773],[155.833,7.783],[155.352,7.792],[154.87,7.801],[154.389,7.809],[153.907,7.816],[153.451,7.83],[152.995,7.843],[152.539,7.856],[152.082,7.868],[151.626,7.879],[151.17,7.891],[150.713,7.901],[150.257,7.912]]}},{"type":"Feature","properties":{"boundary_type":"subduction","feature_type":"gpml:SubductionZone","polarity":"Left","overriding_plate_id":101,"subducting_plate_id":980421,"plate_ids":[101,980421],"name":"Ribnaya-Panimba SZ"},"geometry":{"type":"LineString","coordinates":[[-170.458,10.2],[-170.481,10.208],[-170.907,10.377],[-171.334,10.546],[-171.762,10.714],[-172.189,10.881],[-172.66,11.025],[-173.13,11.169],[-173.602,11.313],[-174.073,11.455],[-174.546,11.597],[-175.018,11.738],[-175.491,11.878],[-175.965,12.017],[-176.439,12.156],[-176.858,12.188],[-177.277,12.22],[-177.697,12.252],[-178.116,12.283],[-178.536,12.313],[-178.887,12.371],[-179.238,12.429],[-179.59,12.486],[-179.962,12.498],[179.667,12.51],[179.295,12.521],[178.818,12.547],[178.341,12.572],[177.864,12.597],[177.386,12.62],[176.909,12.643],[176.431,12.665],[175.975,12.471],[175.52,12.276],[175.065,12.081],[174.611,11.885],[174.158,11.688],[173.705,11.491],[173.433,11.095],[173.162,10.699],[172.892,10.303],[172.622,9.907],[172.353,9.511],[172.085,9.114],[171.849,8.706],[171.614,8.297],[171.38,7.888],[171.146,7.48],[170.912,7.071],[170.679,6.662],[170.512,6.282],[170.346,5.903]]}},{"type":"Feature","properties":{"boundary_type":"ridge","feature_type":"gpml:MidOceanRidge","polarity":null,"overriding_plate_id":null,"subducting_plate_id":null,"plate_ids":[9804,98041],"name":"Mirovoi MOR"},"geometry":{"type":"LineString","coordinates":[[-105.827,-40.544],[-105.861,-40.499]]}},{"type":"Feature","properties":{"boundary_type":"ridge","feature_type":"gpml:MidOceanRidge","polarity":null,"overriding_plate_id":null,"subducting_plate_id":null,"plate_ids":[580,98041],"name":"Mirovoi MOR"},"geometry":{"type":"LineString","coordinates":[[-105.861,-40.499],[-106.186,-40.069],[-106.507,-39.637],[-106.824,-39.205],[-107.137,-38.771],[-107.446,-38.337],[-107.751,-37.902],[-108.053,-37.467],[-108.352,-37.03],[-108.647,-36.593],[-108.938,-36.155],[-109.227,-35.716],[-109.512,-35.277],[-109.794,-34.837],[-110.073,-34.397],[-110.35,-33.955],[-110.623,-33.513],[-110.894,-33.071],[-111.162,-32.628],[-111.427,-32.184],[-111.689,-31.74],[-111.95,-31.296],[-112.207,-30.85],[-112.463,-30.405],[-112.716,-29.959],[-112.967,-29.512],[-113.215,-29.065],[-113.462,-28.617],[-113.706,-28.169],[-113.948,-27.721],[-114.188,-27.272],[-114.427,-26.823],[-114.663,-26.373],[-114.898,-25.923],[-115.131,-25.472],[-115.362,-25.022],[-115.591,-24.57],[-115.819,-24.119],[-116.045,-23.667],[-116.528,-23.78],[-117.012,-23.891],[-117.496,-24.001],[-117.981,-24.11],[-118.467,-24.217],[-118.954,-24.322],[-119.442,-24.426],[-119.93,-24.528],[-120.42,-24.628],[-120.586,-24.163],[-120.752,-23.698],[-120.916,-23.233],[-121.08,-22.768],[-121.242,-22.302],[-121.403,-21.836],[-121.563,-21.37],[-121.722,-20.904],[-121.88,-20.438],[-122.037,-19.972],[-122.193,-19.505],[-122.349,-19.039],[-122.503,-18.572],[-122.657,-18.105],[-122.809,-17.638],[-122.961,-17.171],[-123.113,-16.704],[-123.263,-16.236],[-123.413,-15.769],[-123.562,-15.301],[-123.71,-14.834],[-123.858,-14.366],[-124.005,-13.898],[-124.152,-13.43],[-124.298,-12.962],[-124.443,-12.494],[-124.588,-12.026],[-124.732,-11.557],[-124.876,-11.089],[-125.02,-10.621],[-125.163,-10.152],[-125.305,-9.684],[-125.447,-9.215],[-125.589,-8.747],[-125.731,-8.278],[-125.872,-7.809],[-126.013,-7.34],[-126.153,-6.872],[-126.293,-6.403],[-126.718,-6.611],[-127.142,-6.82],[-127.568,-7.028],[-127.993,-7.235],[-128.419,-7.443],[-128.845,-7.65],[-129.272,-7.856],[-129.699,-8.062],[-130.126,-8.267],[-130.554,-8.473],[-130.983,-8.677],[-131.412,-8.881],[-131.841,-9.085],[-132.1,-8.661],[-132.358,-8.237],[-132.615,-7.813],[-132.872,-7.389],[-133.129,-6.965]]}},{"type":"Feature","properties":{"boundary_type":"ridge","feature_type":"gpml:MidOceanRidge","polarity":null,"overriding_plate_id":null,"subducting_plate_id":null,"plate_ids":[456,9804],"name":"MoR"},"geometry":{"type":"LineString","coordinates":[[-63.663,11.719],[-63.206,11.906],[-62.747,12.092],[-62.288,12.278],[-61.829,12.462],[-61.368,12.646],[-60.907,12.829],[-60.446,13.012],[-59.983,13.193],[-59.521,13.374],[-59.057,13.553],[-58.592,13.732],[-58.127,13.91],[-57.662,14.088],[-57.195,14.264],[-56.728,14.439],[-56.825,14.879],[-56.922,15.319],[-57.02,15.759],[-56.61,15.925],[-56.2,16.089],[-55.789,16.253],[-55.377,16.416],[-54.964,16.579]]}},{"type":"Feature","properties":{"boundary_type":"ridge","feature_type":"gpml:MidOceanRidge","polarity":null,"overriding_plate_id":null,"subducting_plate_id":null,"plate_ids":[101,456],"name":"MoR"},"geometry":{"type":"LineString","coordinates":[[-54.964,16.579],[-54.535,16.747],[-54.105,16.914],[-53.674,17.08]]}},{"type":"Feature","properties":{"boundary_type":"ridge","feature_type":"gpml:MidOceanRidge","polarity":null,"overriding_plate_id":null,"subducting_plate_id":null,"plate_ids":[101,501],"name":"MoR"},"geometry":{"type":"LineString","coordinates":[[-53.674,17.08],[-53.205,17.259],[-52.736,17.437],[-52.266,17.614],[-51.795,17.789],[-51.323,17.964],[-50.85,18.138],[-50.376,18.31],[-49.901,18.481],[-49.425,18.651],[-48.948,18.82],[-48.47,18.988],[-47.992,19.154],[-47.512,19.319],[-47.032,19.483],[-46.55,19.646],[-46.067,19.807],[-45.584,19.967],[-45.099,20.126],[-44.614,20.283],[-44.127,20.439],[-43.64,20.594],[-43.152,20.747],[-42.662,20.899],[-42.49,20.476],[-42.319,20.053],[-42.149,19.63],[-41.647,19.778],[-41.144,19.926],[-40.641,20.072],[-40.136,20.216],[-39.63,20.359],[-39.123,20.501],[-38.616,20.641],[-38.107,20.779],[-37.598,20.916],[-37.087,21.052],[-36.576,21.186],[-36.064,21.318],[-35.551,21.449],[-35.037,21.579],[-34.522,21.707],[-34.006,21.833],[-33.489,21.957],[-32.971,22.08],[-32.453,22.202],[-31.933,22.321],[-31.413,22.439],[-30.892,22.556],[-30.37,22.67],[-29.847,22.783],[-29.323,22.895],[-28.798,23.004],[-28.273,23.112],[-27.746,23.218],[-27.219,23.323],[-26.691,23.425],[-26.162,23.526],[-25.633,23.625],[-25.102,23.722],[-24.571,23.818],[-24.039,23.911],[-23.506,24.003],[-22.973,24.093],[-22.438,24.181],[-21.903,24.267],[-21.368,24.351],[-20.831,24.434],[-20.294,24.514],[-19.756,24.593],[-19.218,24.67],[-18.679,24.744],[-18.139,24.817],[-17.599,24.888],[-17.058,24.957],[-16.516,25.024],[-15.974,25.089],[-15.431,25.152],[-14.888,25.213],[-14.344,25.272],[-13.8,25.33],[-13.255,25.385],[-12.71,25.438],[-12.164,25.489],[-11.618,25.538],[-11.071,25.585],[-10.524,25.63],[-9.976,25.673],[-9.428,25.714],[-8.88,25.753],[-8.331,25.79],[-7.782,25.824],[-7.233,25.857],[-6.684,25.888],[-6.134,25.916],[-5.584,25.943],[-5.033,25.967],[-4.483,25.989],[-4.493,26.441],[-4.503,26.893],[-4.514,27.345],[-4.524,27.797],[-4.535,28.249],[-4.545,28.701],[-4.556,29.153],[-3.994,29.188],[-3.432,29.222],[-2.87,29.253],[-2.307,29.281],[-1.744,29.307],[-1.18,29.331],[-0.617,29.353],[-0.053,29.372],[0.511,29.389],[1.075,29.403],[1.64,29.415],[2.204,29.425],[2.769,29.432],[3.334,29.437],[3.898,29.439],[4.463,29.439],[5.028,29.437],[5.592,29.432],[6.157,29.425],[6.721,29.416],[7.286,29.404],[7.85,29.39],[8.414,29.373],[8.978,29.354],[9.542,29.333],[10.105,29.309]]}},{"type":"Feature","properties":{"boundary_type":"ridge","feature_type":"gpml:MidOceanRidge","polarity":null,"overriding_plate_id":null,"subducting_plate_id":null,"plate_ids":[101,980421],"name":"MoR"},"geometry":{"type":"LineString","coordinates":[[10.105,29.309],[10.669,29.283],[11.232,29.255],[11.795,29.224],[12.358,29.191],[12.92,29.156],[13.482,29.118],[14.044,29.078],[14.605,29.035],[15.165,28.99],[15.725,28.943],[16.285,28.894],[16.844,28.842],[17.402,28.788],[17.96,28.731],[18.517,28.673],[19.074,28.612],[19.63,28.548],[20.185,28.483],[20.739,28.415],[21.293,28.345],[21.846,28.273],[22.399,28.199],[22.95,28.122],[23.501,28.043],[24.051,27.962],[24.6,27.879],[25.148,27.793],[25.696,27.706],[26.242,27.616],[26.788,27.524],[27.332,27.43],[27.876,27.334],[28.419,27.236],[28.96,27.136],[29.501,27.033],[30.041,26.929],[30.58,26.822]]}},{"type":"Feature","properties":{"boundary_type":"ridge","feature_type":"gpml:MidOceanRidge","polarity":null,"overriding_plate_id":null,"subducting_plate_id":null,"plate_ids":[580,9804],"name":"MoR"},"geometry":{"type":"LineString","coordinates":[[-105.861,-40.499],[-105.397,-40.157],[-104.937,-39.813],[-104.482,-39.467],[-104.031,-39.119],[-103.585,-38.769],[-103.143,-38.418],[-102.705,-38.065],[-102.272,-37.711],[-101.843,-37.355],[-101.417,-36.997],[-100.996,-36.638],[-100.579,-36.278],[-100.165,-35.916],[-99.756,-35.553],[-99.35,-35.188],[-98.947,-34.822],[-98.549,-34.454],[-98.153,-34.086],[-97.762,-33.716],[-97.373,-33.345],[-96.988,-32.972],[-96.606,-32.599],[-96.227,-32.224],[-95.852,-31.848],[-95.479,-31.471],[-95.109,-31.093],[-94.743,-30.714],[-94.379,-30.334],[-94.018,-29.953],[-93.66,-29.571],[-93.304,-29.188],[-92.951,-28.804],[-92.601,-28.42],[-92.254,-28.034],[-91.908,-27.647],[-91.565,-27.26],[-91.225,-26.872],[-90.887,-26.483],[-90.551,-26.093],[-90.218,-25.702],[-89.886,-25.311],[-89.557,-24.919],[-89.23,-24.526],[-88.905,-24.132],[-88.582,-23.738],[-88.26,-23.343],[-87.941,-22.948],[-87.624,-22.552],[-87.308,-22.155],[-86.994,-21.758],[-86.682,-21.36],[-86.372,-20.961],[-86.063,-20.562],[-86.447,-20.316],[-86.829,-20.068],[-87.21,-19.82],[-87.59,-19.571],[-87.969,-19.322],[-87.594,-18.972],[-87.22,-18.621],[-86.849,-18.269],[-86.478,-17.916],[-86.109,-17.563],[-85.742,-17.209],[-85.376,-16.855],[-85.011,-16.5],[-84.648,-16.144],[-84.286,-15.787],[-83.925,-15.431],[-83.566,-15.073],[-83.208,-14.715],[-82.85,-14.356],[-82.494,-13.997],[-82.14,-13.637],[-81.786,-13.277],[-81.433,-12.916],[-81.081,-12.555],[-80.731,-12.193],[-80.381,-11.831],[-80.032,-11.469],[-79.684,-11.106],[-79.337,-10.743],[-78.991,-10.379],[-78.645,-10.015],[-78.301,-9.65],[-77.957,-9.285],[-77.614,-8.92],[-77.271,-8.555],[-77.574,-8.175],[-77.876,-7.794],[-78.178,-7.413],[-78.48,-7.032],[-78.781,-6.651],[-79.081,-6.269],[-79.381,-5.888],[-79.019,-5.541],[-78.657,-5.194],[-78.296,-4.847],[-77.936,-4.499],[-77.575,-4.152],[-77.215,-3.804],[-76.855,-3.456],[-76.496,-3.108],[-76.137,-2.76],[-75.777,-2.412],[-75.419,-2.064],[-75.06,-1.715],[-74.701,-1.367],[-74.343,-1.018],[-73.984,-0.67],[-73.626,-0.321],[-73.268,0.028],[-72.909,0.376],[-72.551,0.725],[-72.192,1.073],[-71.834,1.422],[-71.475,1.77],[-71.117,2.119],[-70.758,2.467],[-70.399,2.815],[-70.039,3.163],[-69.68,3.511],[-69.32,3.859],[-68.96,4.207],[-68.599,4.554],[-68.782,4.967],[-68.966,5.38],[-69.149,5.793],[-69.333,6.205],[-69.517,6.618],[-69.702,7.031],[-69.887,7.443],[-70.072,7.855],[-70.257,8.268],[-69.88,8.583],[-69.502,8.898],[-69.123,9.212],[-68.744,9.526],[-68.364,9.839],[-67.984,10.152],[-67.602,10.465],[-67.22,10.777],[-66.837,11.089],[-66.453,11.4],[-66.069,11.711],[-65.683,12.021],[-65.297,12.331],[-64.91,12.64]]}},{"type":"Feature","properties":{"boundary_type":"ridge","feature_type":"gpml:MidOceanRidge","polarity":null,"overriding_plate_id":null,"subducting_plate_id":null,"plate_ids":[9804,98041],"name":"Mirovoi MOR"},"geometry":{"type":"LineString","coordinates":[[-134.472,-54.978],[-133.886,-54.619],[-133.309,-54.257],[-132.743,-53.893],[-132.186,-53.526],[-131.639,-53.157],[-131.102,-52.785],[-130.573,-52.41],[-130.054,-52.034],[-129.543,-51.655],[-129.041,-51.274],[-128.547,-50.891],[-128.061,-50.505],[-127.583,-50.118],[-127.113,-49.729],[-126.65,-49.338],[-126.194,-48.945],[-125.746,-48.551],[-125.304,-48.154],[-124.87,-47.756],[-124.442,-47.357],[-124.02,-46.956],[-123.605,-46.553],[-123.196,-46.149],[-122.792,-45.743],[-122.395,-45.336],[-122.003,-44.928],[-121.617,-44.518],[-121.236,-44.107],[-120.861,-43.695],[-120.49,-43.282],[-120.125,-42.867],[-119.765,-42.451],[-119.409,-42.034],[-119.058,-41.616],[-118.538,-41.906],[-118.014,-42.193],[-117.484,-42.477],[-116.95,-42.76],[-116.412,-43.039],[-115.868,-43.316],[-115.319,-43.591],[-114.765,-43.863],[-114.207,-44.132],[-113.643,-44.398],[-113.074,-44.662],[-112.5,-44.923],[-111.92,-45.181],[-111.336,-45.436],[-110.746,-45.687],[-110.15,-45.936],[-109.789,-45.528],[-109.433,-45.118],[-109.083,-44.707],[-108.737,-44.295],[-108.396,-43.882],[-108.059,-43.468],[-107.728,-43.053],[-107.4,-42.637],[-107.077,-42.22],[-106.759,-41.803],[-106.444,-41.384],[-106.134,-40.965],[-105.827,-40.544]]}},{"type":"Feature","properties":{"boundary_type":"ridge","feature_type":"gpml:MidOceanRidge","polarity":null,"overriding_plate_id":null,"subducting_plate_id":null,"plate_ids":[101,4012],"name":"Central Taimyr Back arc"},"geometry":{"type":"LineString","coordinates":[[-168.617,5.115],[-168.391,4.752],[-168.165,4.388],[-167.94,4.025],[-167.715,3.661],[-167.49,3.297],[-167.265,2.934],[-167.598,2.714],[-167.351,2.295],[-167.104,1.877],[-166.857,1.458],[-166.61,1.04],[-166.363,0.621],[-166.117,0.202],[-165.87,-0.216],[-165.623,-0.635],[-165.376,-1.054],[-165.13,-1.472],[-164.883,-1.891],[-164.636,-2.31],[-164.389,-2.728],[-164.141,-3.147],[-163.894,-3.565],[-163.646,-3.983],[-163.398,-4.402],[-163.15,-4.82],[-162.901,-5.238],[-162.643,-5.106],[-162.385,-4.973],[-162.192,-5.326],[-162.0,-5.679],[-161.807,-6.032]]}},{"type":"Feature","properties":{"boundary_type":"ridge","feature_type":"gpml:MidOceanRidge","polarity":null,"overriding_plate_id":null,"subducting_plate_id":null,"plate_ids":[456,980421],"name":"Mirovoi MOR"},"geometry":{"type":"LineString","coordinates":[[-145.375,40.884],[-145.112,40.485],[-144.853,40.085],[-144.596,39.685],[-144.342,39.284],[-144.091,38.883],[-144.614,38.607],[-145.133,38.329],[-145.648,38.049],[-146.159,37.767],[-146.666,37.482],[-147.169,37.195],[-147.669,36.907],[-148.164,36.616],[-148.656,36.323],[-149.144,36.028],[-149.629,35.731],[-149.33,35.308],[-149.034,34.884],[-148.741,34.46],[-148.452,34.035],[-148.165,33.609],[-147.88,33.183],[-147.599,32.756],[-147.32,32.328],[-147.044,31.9],[-146.771,31.471],[-146.5,31.042],[-146.231,30.612],[-145.965,30.181],[-145.701,29.75],[-145.44,29.319],[-145.18,28.887],[-144.923,28.454],[-144.668,28.021],[-144.415,27.587],[-144.163,27.154],[-143.914,26.719],[-143.667,26.284],[-143.422,25.849],[-143.178,25.413],[-142.936,24.977],[-142.696,24.541],[-142.457,24.104],[-142.873,23.818],[-143.287,23.531],[-143.699,23.243],[-144.109,22.954],[-143.883,22.5],[-143.658,22.045],[-143.435,21.591],[-143.213,21.135],[-142.993,20.68],[-142.774,20.224],[-142.556,19.768],[-142.339,19.312],[-142.124,18.855],[-141.909,18.399],[-141.696,17.942],[-141.484,17.484],[-141.273,17.027],[-141.063,16.569],[-140.854,16.111],[-140.646,15.653],[-140.439,15.195],[-140.233,14.736],[-140.028,14.278],[-139.824,13.819],[-139.62,13.36],[-139.417,12.901],[-139.215,12.441],[-139.014,11.982],[-138.813,11.522],[-138.613,11.062],[-138.413,10.603],[-138.215,10.143],[-138.016,9.682],[-137.819,9.222],[-137.621,8.762],[-137.425,8.301],[-137.228,7.841],[-137.033,7.38],[-136.837,6.919],[-136.642,6.459],[-136.447,5.998],[-136.253,5.537],[-136.059,5.076],[-135.865,4.615],[-135.672,4.153],[-135.478,3.692],[-135.285,3.231],[-135.092,2.77],[-134.9,2.309],[-134.707,1.847],[-134.514,1.386]]}},{"type":"Feature","properties":{"boundary_type":"ridge","feature_type":"gpml:MidOceanRidge","polarity":null,"overriding_plate_id":null,"subducting_plate_id":null,"plate_ids":[456,98041],"name":"Mirovoi MOR"},"geometry":{"type":"LineString","coordinates":[[-134.514,1.386],[-134.329,0.94],[-134.143,0.495],[-133.957,0.049],[-133.771,-0.396],[-133.585,-0.842],[-133.399,-1.287],[-133.214,-1.733],[-133.028,-2.178],[-132.841,-2.624],[-132.655,-3.069],[-132.469,-3.515],[-132.282,-3.96],[-132.095,-4.406],[-131.908,-4.851],[-131.721,-5.296]]}},{"type":"Feature","properties":{"boundary_type":"ridge","feature_type":"gpml:MidOceanRidge","polarity":null,"overriding_plate_id":null,"subducting_plate_id":null,"plate_ids":[101,980421],"name":"India-Rodinia MOR"},"geometry":{"type":"LineString","coordinates":[[112.019,20.949],[111.516,21.119],[111.013,21.287],[110.508,21.453],[110.001,21.619],[109.494,21.782],[108.986,21.944],[108.476,22.104],[107.965,22.263],[107.453,22.421],[106.94,22.576],[106.426,22.73],[105.911,22.882],[105.394,23.033],[104.877,23.182],[104.358,23.329],[103.838,23.475],[103.317,23.619],[102.795,23.761],[102.271,23.901],[101.747,24.04],[101.221,24.177],[100.694,24.312],[100.167,24.445],[99.638,24.576],[99.108,24.706],[98.576,24.833],[98.044,24.959],[97.511,25.083],[96.976,25.205],[96.441,25.325],[95.904,25.443],[95.367,25.559],[94.828,25.673],[94.289,25.785],[93.748,25.895],[93.206,26.003],[92.664,26.11],[92.12,26.214],[92.026,25.858],[91.933,25.502],[91.841,25.146],[91.305,25.23],[90.768,25.312],[90.23,25.392],[89.692,25.47],[89.153,25.547],[88.613,25.621],[88.073,25.693],[87.532,25.764],[86.99,25.832],[86.448,25.898],[85.905,25.963],[85.361,26.025],[84.817,26.085],[84.273,26.144],[83.727,26.2],[83.182,26.254],[82.636,26.306],[82.089,26.356],[81.542,26.404],[80.995,26.45],[80.447,26.493],[79.898,26.535],[79.349,26.575],[78.8,26.612],[78.251,26.647],[77.701,26.681],[77.151,26.712],[76.601,26.741],[76.05,26.767],[75.499,26.792],[74.948,26.815],[74.397,26.835],[73.845,26.854],[73.293,26.87],[72.741,26.884],[72.732,27.367],[72.722,27.851],[72.712,28.334],[72.16,28.386],[71.607,28.436],[71.054,28.484],[70.5,28.529],[69.946,28.572],[69.391,28.613],[68.836,28.652],[68.28,28.689],[67.724,28.723],[67.168,28.755],[66.612,28.784],[66.055,28.811],[65.497,28.836],[64.94,28.859],[64.382,28.88],[63.825,28.898],[63.266,28.914],[62.708,28.927],[62.15,28.938],[61.591,28.947],[61.033,28.954],[60.474,28.958],[59.916,28.96],[59.357,28.96],[58.798,28.957],[58.24,28.953],[57.681,28.945],[57.123,28.936],[56.565,28.924],[56.6,28.499],[56.636,28.074],[56.671,27.649],[56.11,27.656],[55.548,27.66],[54.987,27.662],[54.425,27.661],[53.864,27.658],[53.302,27.653],[52.741,27.646],[52.18,27.636],[51.619,27.625],[51.058,27.611],[50.497,27.594],[49.936,27.576],[49.375,27.555],[48.815,27.532],[48.255,27.506],[47.695,27.479],[47.136,27.449],[46.577,27.417],[46.018,27.383],[45.459,27.346],[44.901,27.308],[44.344,27.267],[43.786,27.224],[43.23,27.178],[42.673,27.131],[42.117,27.081],[41.562,27.029],[41.007,26.975],[40.907,27.319],[40.806,27.662],[40.264,27.636],[39.723,27.609],[39.182,27.579],[38.641,27.547],[38.101,27.514],[37.561,27.478],[37.021,27.44],[36.482,27.399],[35.943,27.357],[35.404,27.313],[34.866,27.267],[34.329,27.218],[33.792,27.168],[33.255,27.115],[32.719,27.061],[32.183,27.004],[31.648,26.946],[31.114,26.885],[30.58,26.822]]}},{"type":"Feature","properties":{"boundary_type":"ridge","feature_type":"gpml:MidOceanRidge","polarity":null,"overriding_plate_id":null,"subducting_plate_id":null,"plate_ids":[101,606],"name":"Back arc basin"},"geometry":{"type":"LineString","coordinates":[[111.968,21.185],[112.486,21.142],[113.004,21.098],[113.521,21.052],[114.038,21.004],[114.554,20.955],[115.071,20.904],[115.586,20.852],[116.102,20.798],[116.617,20.743],[117.132,20.686],[117.646,20.628],[118.16,20.568],[118.674,20.506],[119.187,20.443],[119.699,20.379],[120.212,20.313],[120.723,20.246],[121.235,20.177],[121.746,20.106],[122.256,20.034],[122.766,19.961],[123.276,19.886],[123.785,19.81],[124.293,19.732],[124.801,19.653],[124.748,19.285],[124.694,18.916],[124.641,18.547],[125.141,18.466],[125.639,18.384],[126.137,18.301],[126.635,18.217],[127.132,18.131],[127.629,18.044],[128.126,17.956],[128.621,17.866],[129.117,17.776],[129.611,17.684],[130.106,17.59],[130.599,17.496],[131.093,17.4],[131.585,17.303],[132.078,17.205],[132.569,17.106],[133.06,17.006],[133.551,16.904],[134.041,16.801],[133.949,16.437],[133.857,16.074],[133.765,15.71],[134.228,15.579],[134.69,15.448],[135.152,15.315],[135.613,15.181],[136.074,15.047],[136.534,14.912],[136.994,14.775],[137.453,14.638],[137.911,14.5],[138.369,14.361],[138.239,13.983],[138.11,13.605],[138.579,13.473],[139.047,13.34],[139.515,13.206],[139.982,13.072],[140.448,12.936],[140.914,12.8],[141.38,12.663],[141.845,12.525],[142.309,12.386],[142.773,12.246],[143.237,12.106],[143.7,11.965],[143.586,11.63],[143.472,11.295],[143.957,11.164],[144.441,11.032],[144.925,10.9],[145.409,10.766],[145.892,10.632],[146.375,10.497],[146.857,10.361],[147.339,10.225],[147.821,10.088],[148.302,9.95],[148.782,9.812],[149.263,9.673],[149.742,9.533],[149.59,9.197],[149.438,8.861],[149.898,8.703],[150.359,8.545]]}},{"type":"Feature","properties":{"boundary_type":"ridge","feature_type":"gpml:MidOceanRidge","polarity":null,"overriding_plate_id":null,"subducting_plate_id":null,"plate_ids":[456,580],"name":"Tarim-Q-Q spreading ridge"},"geometry":{"type":"LineString","coordinates":[[-108.959,27.46],[-109.328,27.09],[-109.696,26.72],[-110.061,26.349],[-110.423,25.977],[-110.784,25.604],[-111.142,25.231],[-111.498,24.856],[-111.852,24.481],[-112.203,24.104],[-112.553,23.727],[-112.901,23.349],[-113.246,22.971],[-113.59,22.591],[-113.932,22.211],[-114.272,21.83],[-114.61,21.449],[-114.946,21.067],[-114.608,20.692],[-114.272,20.317],[-113.938,19.941],[-113.605,19.564],[-113.273,19.187],[-112.944,18.809],[-113.284,18.462],[-113.623,18.114],[-113.961,17.766],[-114.297,17.417],[-114.632,17.067],[-114.966,16.717],[-115.299,16.367],[-115.63,16.016],[-115.96,15.664],[-116.289,15.312],[-116.617,14.96],[-116.944,14.607],[-117.27,14.253],[-117.595,13.899],[-117.919,13.545],[-118.242,13.19],[-117.945,12.917],[-117.648,12.643],[-117.352,12.368],[-117.057,12.094],[-117.386,11.72],[-117.714,11.346],[-118.042,10.972],[-118.369,10.597],[-118.694,10.222],[-119.019,9.846],[-119.344,9.471],[-119.667,9.095],[-119.99,8.718],[-120.312,8.342],[-120.634,7.965],[-120.955,7.588],[-121.276,7.21],[-121.596,6.833],[-121.915,6.455],[-122.234,6.077],[-122.553,5.699],[-122.871,5.321],[-123.188,4.942],[-123.506,4.564],[-123.823,4.185],[-124.14,3.806],[-124.456,3.427],[-124.772,3.048],[-125.088,2.668],[-125.404,2.289],[-125.72,1.91],[-126.035,1.53],[-126.35,1.151],[-126.666,0.771],[-126.981,0.392],[-127.296,0.012],[-127.611,-0.367],[-127.926,-0.747],[-128.242,-1.126],[-128.557,-1.506],[-128.872,-1.885],[-129.188,-2.265],[-129.504,-2.644],[-129.82,-3.023],[-130.136,-3.402],[-130.452,-3.781],[-130.769,-4.16],[-131.086,-4.539],[-131.403,-4.918],[-131.721,-5.296]]}},{"type":"Feature","properties":{"boundary_type":"ridge","feature_type":"gpml:MidOceanRidge","polarity":null,"overriding_plate_id":null,"subducting_plate_id":null,"plate_ids":[580,98041],"name":"Tarim-Q-Q spreading ridge"},"geometry":{"type":"LineString","coordinates":[[-131.721,-5.296],[-132.002,-5.63],[-132.283,-5.964],[-132.565,-6.298],[-132.846,-6.631],[-133.129,-6.965]]}},{"type":"Feature","properties":{"boundary_type":"transform","feature_type":"gpml:Transform","polarity":null,"overriding_plate_id":null,"subducting_plate_id":null,"plate_ids":[101,98041],"name":"Transform connecting Valhalla with proto-Avalonia"},"geometry":{"type":"LineString","coordinates":[[165.891,-47.214],[166.571,-47.26],[167.252,-47.302],[167.934,-47.34],[168.617,-47.373],[169.3,-47.403],[169.985,-47.428],[170.67,-47.45],[171.355,-47.467],[172.041,-47.481],[172.727,-47.49],[173.431,-47.472],[174.134,-47.451],[174.836,-47.425],[175.538,-47.394],[176.238,-47.36],[176.938,-47.321],[177.637,-47.278],[178.334,-47.231],[179.03,-47.179],[179.725,-47.123],[-179.582,-47.064],[-178.89,-46.999],[-178.2,-46.931]]}},{"type":"Feature","properties":{"boundary_type":"transform","feature_type":"gpml:Transform","polarity":null,"overriding_plate_id":null,"subducting_plate_id":null,"plate_ids":[101,9804],"name":"Iskel transform"},"geometry":{"type":"LineString","coordinates":[[-54.964,16.579],[-54.814,16.127],[-54.664,15.675],[-54.514,15.223],[-54.365,14.771],[-54.217,14.319],[-54.07,13.866],[-53.923,13.414],[-53.777,12.961],[-53.631,12.509],[-53.485,12.056],[-53.341,11.603],[-53.196,11.15],[-53.052,10.698],[-52.909,10.245],[-52.766,9.792],[-52.623,9.338],[-52.481,8.885],[-52.339,8.432],[-52.197,7.979]]}},{"type":"Feature","properties":{"boundary_type":"transform","feature_type":"gpml:Transform","polarity":null,"overriding_plate_id":null,"subducting_plate_id":null,"plate_ids":[101,4012],"name":"Taimyr opening"},"geometry":{"type":"LineString","coordinates":[[-168.617,5.115],[-168.446,5.234],[-168.028,5.487],[-167.609,5.741],[-167.19,5.994],[-166.77,6.247],[-166.35,6.5],[-165.93,6.752],[-165.509,7.004]]}},{"type":"Feature","properties":{"boundary_type":"transform","feature_type":"gpml:Transform","polarity":null,"overriding_plate_id":null,"subducting_plate_id":null,"plate_ids":[101,4012],"name":"Taimyr opening"},"geometry":{"type":"LineString","coordinates":[[-161.807,-6.032],[-161.404,-5.766],[-161.002,-5.5],[-160.599,-5.233],[-160.197,-4.967],[-159.796,-4.7],[-159.394,-4.433],[-158.993,-4.165],[-158.593,-3.898],[-158.192,-3.63],[-157.792,-3.362],[-157.392,-3.094],[-156.992,-2.825]]}},{"type":"Feature","properties":{"boundary_type":"transform","feature_type":"gpml:Transform","polarity":null,"overriding_plate_id":null,"subducting_plate_id":null,"plate_ids":[501,980421],"name":"transform"},"geometry":{"type":"LineString","coordinates":[[1.715,47.437],[2.038,47.033],[2.356,46.628],[2.669,46.223],[2.978,45.817],[3.283,45.41],[3.55,44.98],[3.814,44.55],[4.074,44.12],[4.33,43.689],[4.583,43.257],[4.832,42.825],[5.077,42.392],[5.319,41.959],[5.558,41.525],[5.794,41.09],[6.026,40.656],[6.256,40.22],[6.482,39.785],[6.646,39.354],[6.807,38.922],[6.966,38.491],[7.124,38.059],[7.279,37.627],[7.433,37.195],[7.585,36.763],[7.735,36.33],[7.884,35.898],[8.054,35.428],[8.222,34.959],[8.388,34.489],[8.553,34.019],[8.715,33.549],[8.876,33.079],[9.035,32.608],[9.193,32.138],[9.349,31.667],[9.503,31.196],[9.656,30.724],[9.807,30.253],[9.957,29.781],[10.105,29.309]]}},{"type":"Feature","properties":{"boundary_type":"transform","feature_type":"gpml:Transform","polarity":null,"overriding_plate_id":null,"subducting_plate_id":null,"plate_ids":[456,501],"name":"Oman transform"},"geometry":{"type":"LineString","coordinates":[[-59.017,42.416],[-59.035,41.927],[-59.052,41.438],[-59.069,40.949],[-59.085,40.459],[-59.102,39.97],[-59.118,39.481],[-59.134,38.991],[-59.149,38.502],[-59.165,38.013],[-59.18,37.524],[-59.195,37.034],[-59.21,36.545],[-59.225,36.056],[-59.239,35.566],[-59.254,35.077],[-59.268,34.588],[-59.218,34.1],[-59.168,33.612],[-59.119,33.124],[-59.07,32.636],[-59.022,32.147],[-58.975,31.659],[-58.928,31.171],[-58.881,30.683],[-58.835,30.195],[-58.64,29.733],[-58.447,29.271],[-58.255,28.808],[-58.065,28.345],[-57.877,27.882],[-57.69,27.419],[-57.505,26.955],[-57.321,26.492],[-57.139,26.028],[-56.958,25.563],[-56.779,25.099],[-56.601,24.634],[-56.424,24.169],[-56.249,23.704],[-56.075,23.239],[-55.902,22.773],[-55.726,22.341],[-55.551,21.909],[-55.377,21.476],[-55.205,21.044],[-55.033,20.611],[-54.862,20.178],[-54.693,19.745],[-54.524,19.311],[-54.356,18.878],[-54.189,18.444],[-54.022,18.01],[-53.857,17.576],[-53.692,17.142],[-53.674,17.08]]}},{"type":"Feature","properties":{"boundary_type":"transform","feature_type":"gpml:Transform","polarity":null,"overriding_plate_id":null,"subducting_plate_id":null,"plate_ids":[501,980421],"name":"South China transform"},"geometry":{"type":"LineString","coordinates":[[-131.893,48.698],[-132.048,49.187],[-132.206,49.676],[-132.367,50.164],[-132.531,50.653],[-132.699,51.141],[-132.871,51.629],[-133.046,52.117],[-133.225,52.604],[-133.408,53.091],[-133.596,53.578],[-133.787,54.065],[-133.984,54.551],[-134.185,55.037],[-134.391,55.522],[-134.602,56.008],[-134.818,56.493],[-135.04,56.977],[-135.268,57.461],[-135.502,57.945],[-135.743,58.428],[-135.99,58.911],[-136.244,59.393],[-136.505,59.875],[-136.774,60.356],[-137.052,60.837],[-137.337,61.317],[-137.632,61.796],[-137.936,62.275],[-138.249,62.753],[-138.573,63.231],[-138.908,63.707],[-139.254,64.183],[-139.522,64.651],[-139.798,65.119],[-140.085,65.586],[-140.382,66.053],[-140.69,66.519],[-141.009,66.984],[-141.342,67.449],[-141.687,67.913],[-142.047,68.376],[-142.421,68.839],[-142.812,69.3],[-143.219,69.761],[-143.645,70.221],[-144.089,70.679],[-144.555,71.137],[-145.043,71.593],[-145.555,72.048],[-146.093,72.502],[-146.419,72.99],[-146.764,73.478],[-147.129,73.965],[-147.516,74.451],[-147.928,74.937],[-148.367,75.422],[-148.835,75.906],[-149.335,76.389],[-149.872,76.871],[-150.449,77.352],[-151.07,77.831],[-151.742,78.309],[-152.47,78.785],[-153.262,79.26],[-154.793,79.666],[-156.447,80.065],[-158.236,80.454],[-160.174,80.834],[-162.276,81.203],[-164.557,81.559],[-167.032,81.901],[-169.719,82.226],[-172.633,82.534],[-175.786,82.82],[-179.189,83.083],[177.279,83.24],[173.594,83.371],[169.779,83.473],[165.86,83.546],[161.871,83.588],[157.849,83.599]]}},{"type":"Feature","properties":{"boundary_type":"transform","feature_type":"gpml:Transform","polarity":null,"overriding_plate_id":null,"subducting_plate_id":null,"plate_ids":[606,980421],"name":"Lhasa transform"},"geometry":{"type":"LineString","coordinates":[[150.638,12.254],[150.603,11.791],[150.568,11.327],[150.533,10.863],[150.498,10.4],[150.463,9.936],[150.428,9.472],[150.393,9.009],[150.359,8.545]]}},{"type":"Feature","properties":{"boundary_type":"transform","feature_type":"gpml:Transform","polarity":null,"overriding_plate_id":null,"subducting_plate_id":null,"plate_ids":[101,980421],"name":"Lhasa transform"},"geometry":{"type":"LineString","coordinates":[[150.359,8.545],[150.324,8.07],[150.257,7.912]]}},{"type":"Feature","properties":{"boundary_type":"transform","feature_type":"gpml:Transform","polarity":null,"overriding_plate_id":null,"subducting_plate_id":null,"plate_ids":[101,980421],"name":"Taimyr-Sib transform"},"geometry":{"type":"LineString","coordinates":[[-170.458,10.2],[-170.102,10.49],[-169.746,10.78],[-169.389,11.069]]}},{"type":"Feature","properties":{"boundary_type":"transform","feature_type":"gpml:Transform","polarity":null,"overriding_plate_id":null,"subducting_plate_id":null,"plate_ids":[606,980421],"name":"Lhasa transform"},"geometry":{"type":"LineString","coordinates":[[111.566,23.027],[111.668,22.567],[111.768,22.106],[111.869,21.646],[111.968,21.185]]}},{"type":"Feature","properties":{"boundary_type":"transform","feature_type":"gpml:Transform","polarity":null,"overriding_plate_id":null,"subducting_plate_id":null,"plate_ids":[101,980421],"name":"Lhasa transform"},"geometry":{"type":"LineString","coordinates":[[111.968,21.185],[112.019,20.949]]}},{"type":"Feature","properties":{"boundary_type":"transform","feature_type":"gpml:Transform","polarity":null,"overriding_plate_id":null,"subducting_plate_id":null,"plate_ids":[456,501],"name":"Transform connecting EKL subduction with Q-Q"},"geometry":{"type":"LineString","coordinates":[[-87.353,58.954],[-87.023,59.192],[-86.413,59.581],[-85.788,59.967],[-85.149,60.35]]}},{"type":"Feature","properties":{"boundary_type":"subduction","feature_type":"gpml:SubductionZone","polarity":"Right","overriding_plate_id":98041,"subducting_plate_id":980421,"plate_ids":[98041,980421],"name":"Mirovoi Ocean-Mawson sea"},"geometry":{"type":"LineString","coordinates":[[-153.704,-6.743],[-153.242,-6.599],[-152.781,-6.454],[-152.321,-6.308],[-151.86,-6.163],[-151.4,-6.016],[-150.94,-5.87],[-150.48,-5.723],[-150.021,-5.576],[-149.561,-5.428],[-149.102,-5.28],[-148.643,-5.132],[-148.185,-4.983],[-147.726,-4.834],[-147.268,-4.685],[-146.826,-4.477],[-146.385,-4.27],[-145.943,-4.062],[-145.502,-3.854],[-145.061,-3.646],[-144.621,-3.438],[-144.18,-3.229],[-143.74,-3.02],[-143.3,-2.811],[-142.86,-2.602],[-142.42,-2.393],[-141.98,-2.184],[-141.541,-1.974],[-141.101,-1.764],[-140.662,-1.555],[-140.223,-1.345],[-139.783,-1.135],[-139.344,-0.925],[-138.905,-0.715],[-138.466,-0.505],[-138.027,-0.295],[-137.588,-0.085],[-137.149,0.126],[-136.71,0.336],[-136.271,0.546],[-135.832,0.756],[-135.393,0.966],[-134.954,1.176],[-134.514,1.386]]}},{"type":"Feature","properties":{"boundary_type":"transform","feature_type":"gpml:Transform","polarity":null,"overriding_plate_id":null,"subducting_plate_id":null,"plate_ids":[101,98041],"name":"Siberia transform"},"geometry":{"type":"LineString","coordinates":[[-160.941,-28.567],[-161.493,-28.678],[-162.046,-28.788],[-162.6,-28.896],[-163.155,-29.001],[-163.711,-29.104],[-164.269,-29.204],[-164.827,-29.302],[-165.387,-29.398],[-165.948,-29.492],[-166.509,-29.583],[-167.072,-29.672],[-167.635,-29.758],[-168.2,-29.842],[-168.765,-29.924],[-169.332,-30.003],[-169.899,-30.08],[-170.467,-30.155],[-171.036,-30.227],[-171.606,-30.296],[-172.177,-30.363],[-172.748,-30.428],[-173.32,-30.49],[-173.893,-30.549],[-174.467,-30.606],[-175.041,-30.661],[-175.616,-30.713],[-176.191,-30.762],[-176.767,-30.809],[-177.344,-30.853],[-177.921,-30.895],[-178.498,-30.934],[-179.076,-30.971],[-179.655,-31.005],[179.766,-31.037],[179.187,-31.065],[178.607,-31.092],[178.028,-31.115],[177.447,-31.137],[176.894,-31.155],[176.341,-31.171],[175.787,-31.184],[175.234,-31.195],[174.68,-31.204],[174.126,-31.211],[173.572,-31.215],[173.018,-31.216],[172.464,-31.216],[171.91,-31.213],[171.356,-31.207],[170.802,-31.199],[170.248,-31.189],[169.695,-31.177],[169.141,-31.162]]}},{"type":"Feature","properties":{"boundary_type":"transform","feature_type":"gpml:Transform","polarity":null,"overriding_plate_id":null,"subducting_plate_id":null,"plate_ids":[456,580],"name":"Tarim-QQ transform"},"geometry":{"type":"LineString","coordinates":[[-108.959,27.46],[-109.061,27.884],[-109.164,28.309],[-109.267,28.734],[-109.372,29.158],[-109.477,29.583],[-109.509,30.079],[-109.541,30.576],[-109.574,31.072],[-109.607,31.569],[-109.64,32.065],[-109.598,32.54],[-109.556,33.015],[-109.513,33.489],[-109.47,33.964],[-109.426,34.439],[-109.138,34.804],[-108.848,35.168],[-108.555,35.531],[-108.26,35.894]]}}]}