{"type":"FeatureCollection","meta":{"model":"Cao2024","reconstruction_time_ma":1050.0,"anchor_plate_id":0,"pygplates_version":"1.0.0","tessellate_degrees":0.5,"polarity_convention":"gpml:subductionPolarity. 'Left'/'Right' names the side of the line, in vertex order, on which the OVERRIDING plate lies. Triangles are drawn on that side.","antimeridian":"Lines are NOT split at +/-180 deg. The renderer works in 3D unit vectors where the dateline is not special; splitting would only add spurious breaks. Do not treat this as RFC 7946 GIS-ready 2D data."},"features":[{"type":"Feature","properties":{"boundary_type":"subduction","feature_type":"gpml:SubductionZone","polarity":"Left","overriding_plate_id":602,"subducting_plate_id":701,"plate_ids":[602,701],"name":"Coastal domain convergence"},"geometry":{"type":"LineString","coordinates":[[-40.353,11.56],[-40.8,11.768],[-41.247,11.974],[-41.695,12.18],[-42.143,12.385],[-42.592,12.59],[-43.042,12.794],[-43.493,12.997],[-43.897,13.304],[-44.302,13.61],[-44.708,13.916],[-45.115,14.222],[-45.523,14.526],[-45.933,14.83],[-46.343,15.133],[-46.755,15.436],[-47.177,15.705],[-47.601,15.973],[-48.026,16.24],[-48.452,16.507],[-48.879,16.773],[-49.308,17.037],[-49.737,17.301],[-50.099,17.644],[-50.462,17.985],[-50.826,18.326],[-51.191,18.666],[-51.559,19.006],[-51.927,19.344],[-52.297,19.682],[-52.669,20.02],[-52.826,20.492],[-52.985,20.964],[-53.144,21.436],[-53.304,21.908],[-53.466,22.38],[-53.628,22.851],[-53.792,23.323],[-53.957,23.794],[-54.123,24.265],[-54.362,24.635],[-54.603,25.005],[-54.845,25.374],[-55.089,25.743],[-55.335,26.111],[-55.581,26.479]]}},{"type":"Feature","properties":{"boundary_type":"subduction","feature_type":"gpml:SubductionZone","polarity":"Left","overriding_plate_id":602,"subducting_plate_id":801,"plate_ids":[602,801],"name":"Coastal domain convergence"},"geometry":{"type":"LineString","coordinates":[[-55.581,26.479],[-55.854,26.883],[-56.129,27.286],[-56.406,27.688],[-56.684,28.09],[-56.965,28.491],[-57.248,28.892],[-57.615,29.255],[-57.985,29.617],[-58.358,29.977],[-58.733,30.337],[-59.111,30.696],[-59.491,31.054],[-59.875,31.41],[-60.261,31.765],[-60.651,32.12],[-61.043,32.473],[-61.439,32.824],[-61.838,33.175],[-62.24,33.524],[-62.719,33.779],[-63.202,34.033],[-63.687,34.284],[-64.175,34.534],[-64.666,34.782],[-65.16,35.027],[-65.658,35.271],[-66.158,35.513],[-66.661,35.752],[-67.167,35.99],[-67.676,36.225],[-68.188,36.458],[-68.703,36.689],[-69.225,36.908],[-69.75,37.125],[-70.277,37.34],[-70.808,37.552],[-71.342,37.761],[-71.878,37.969],[-72.418,38.174],[-72.961,38.376],[-73.507,38.576],[-74.055,38.773],[-74.607,38.968],[-75.162,39.16],[-75.72,39.349],[-76.281,39.536],[-76.844,39.72],[-77.411,39.901],[-77.981,40.08],[-78.188,40.117]]}},{"type":"Feature","properties":{"boundary_type":"subduction","feature_type":"gpml:SubductionZone","polarity":"Left","overriding_plate_id":6024,"subducting_plate_id":801,"plate_ids":[801,6024],"name":"Coastal domain convergence"},"geometry":{"type":"LineString","coordinates":[[-78.188,40.117],[-78.801,40.225],[-79.415,40.33],[-80.031,40.431],[-80.649,40.529],[-81.268,40.624],[-81.89,40.715],[-82.513,40.804],[-83.138,40.888],[-83.764,40.97],[-84.392,41.048],[-85.021,41.122],[-85.651,41.193],[-86.283,41.261],[-86.918,41.274],[-87.553,41.283]]}},{"type":"Feature","properties":{"boundary_type":"transform","feature_type":"gpml:Transform","polarity":null,"overriding_plate_id":null,"subducting_plate_id":null,"plate_ids":[101,801],"name":"Transform_Australia-Laurentia"},"geometry":{"type":"LineString","coordinates":[[158.624,26.334],[158.127,26.511],[157.627,26.686],[157.127,26.86],[156.624,27.031],[156.121,27.201],[155.615,27.369],[155.109,27.536],[154.6,27.7],[154.09,27.862],[153.579,28.023],[153.066,28.182],[152.551,28.369],[152.034,28.555],[151.516,28.739],[150.995,28.921],[150.473,29.1],[149.949,29.278],[149.423,29.454],[148.896,29.627],[148.366,29.799],[147.835,29.968],[147.302,30.136],[146.767,30.301],[146.231,30.464],[145.692,30.624],[145.152,30.783],[144.61,30.939],[144.066,31.093],[143.521,31.245],[142.942,31.282],[142.362,31.316],[141.782,31.348],[141.202,31.377],[140.621,31.403],[140.04,31.427],[139.459,31.448],[138.878,31.467],[138.296,31.483],[137.714,31.497],[137.132,31.507],[136.55,31.515],[135.968,31.521],[135.385,31.524],[134.803,31.524],[134.231,31.588],[133.658,31.649],[133.084,31.708],[132.509,31.764],[131.934,31.817],[131.358,31.868],[130.781,31.917],[130.204,31.963],[129.627,32.006],[129.048,32.046],[128.47,32.084],[127.891,32.119],[127.311,32.152],[126.731,32.182],[126.151,32.209],[125.57,32.234],[124.989,32.256],[124.422,32.256],[123.856,32.253],[123.289,32.248],[122.723,32.241],[122.156,32.23],[121.59,32.218],[121.024,32.202],[120.458,32.185],[119.892,32.164],[119.327,32.142],[118.762,32.116],[118.197,32.088],[117.633,32.058],[117.069,32.025],[116.505,31.99],[115.942,31.952],[115.379,31.912],[114.817,31.869],[114.256,31.824],[113.695,31.776]]}},{"type":"Feature","properties":{"boundary_type":"subduction","feature_type":"gpml:SubductionZone","polarity":"Left","overriding_plate_id":701,"subducting_plate_id":501,"plate_ids":[501,701],"name":"Sao Francisco subduction zone"},"geometry":{"type":"LineString","coordinates":[[6.742,-29.31],[7.086,-29.62],[7.433,-29.929],[7.782,-30.238],[8.133,-30.545],[8.548,-30.838],[8.966,-31.128],[9.386,-31.418],[9.809,-31.706],[10.234,-31.993],[10.662,-32.278],[11.093,-32.562],[11.527,-32.844],[11.963,-33.125],[12.402,-33.404],[12.844,-33.682],[13.251,-33.943],[13.662,-34.202],[14.075,-34.46],[14.49,-34.717],[14.908,-34.973],[15.329,-35.226],[15.799,-35.468],[16.271,-35.708],[16.746,-35.946],[17.225,-36.182],[17.706,-36.416],[18.176,-36.666],[18.65,-36.915],[19.126,-37.162],[19.606,-37.406],[20.088,-37.649],[20.471,-37.923],[20.856,-38.196],[21.244,-38.467],[21.634,-38.737],[22.028,-39.006],[22.4,-39.319],[22.775,-39.631],[23.154,-39.942],[23.536,-40.252],[23.918,-40.572],[24.304,-40.89],[24.694,-41.207]]}},{"type":"Feature","properties":{"boundary_type":"subduction","feature_type":"gpml:SubductionZone","polarity":"Left","overriding_plate_id":701,"subducting_plate_id":9804,"plate_ids":[701,9804],"name":"Sao Francisco subduction zone"},"geometry":{"type":"LineString","coordinates":[[24.694,-41.207],[25.078,-41.516],[25.588,-41.746],[26.101,-41.973],[26.617,-42.198],[27.138,-42.421],[27.662,-42.641],[28.189,-42.859],[28.721,-43.075],[29.256,-43.288],[29.795,-43.498],[30.339,-43.71],[30.887,-43.919],[31.44,-44.126],[31.995,-44.329],[32.555,-44.531],[33.223,-44.427],[33.888,-44.319],[34.551,-44.208],[35.211,-44.092],[35.868,-43.973],[36.523,-43.85],[37.175,-43.724],[37.825,-43.593],[38.471,-43.459],[39.115,-43.322],[39.755,-43.181],[40.393,-43.036],[41.028,-42.888],[41.659,-42.736],[42.288,-42.581],[42.913,-42.422],[43.535,-42.26],[44.154,-42.095],[44.769,-41.926],[45.382,-41.755]]}},{"type":"Feature","properties":{"boundary_type":"subduction","feature_type":"gpml:SubductionZone","polarity":"Left","overriding_plate_id":701,"subducting_plate_id":501,"plate_ids":[501,701],"name":"Sahara_SZ"},"geometry":{"type":"LineString","coordinates":[[-22.444,-12.91],[-22.05,-13.22],[-21.655,-13.529],[-21.258,-13.838],[-20.861,-14.146],[-20.462,-14.453],[-20.062,-14.76],[-19.662,-15.066],[-19.26,-15.372],[-18.856,-15.676],[-18.452,-15.98],[-18.046,-16.283],[-17.64,-16.586],[-17.232,-16.887],[-16.822,-17.188],[-16.411,-17.488],[-15.999,-17.787],[-15.586,-18.086],[-15.171,-18.383],[-14.755,-18.68],[-14.337,-18.975],[-13.918,-19.27],[-13.497,-19.563],[-13.075,-19.856],[-12.651,-20.148],[-12.225,-20.438],[-11.798,-20.728],[-11.369,-21.017],[-10.939,-21.304],[-10.507,-21.591],[-10.084,-21.855],[-9.658,-22.119],[-9.232,-22.382],[-8.803,-22.644],[-8.373,-22.904],[-7.942,-23.163],[-7.508,-23.421],[-7.074,-23.678],[-6.637,-23.934],[-6.198,-24.189],[-5.758,-24.442],[-5.316,-24.694],[-4.873,-24.944],[-4.427,-25.194],[-3.98,-25.442],[-3.531,-25.688],[-3.08,-25.933],[-2.577,-26.106],[-2.073,-26.277],[-1.568,-26.447],[-1.061,-26.614],[-0.552,-26.78],[-0.043,-26.944],[0.469,-27.106],[0.982,-27.266],[1.496,-27.425],[2.012,-27.581],[2.529,-27.736],[2.991,-27.917],[3.454,-28.097],[3.919,-28.275],[4.386,-28.451],[4.854,-28.626],[5.323,-28.8],[5.795,-28.971],[6.267,-29.142],[6.742,-29.31]]}},{"type":"Feature","properties":{"boundary_type":"subduction","feature_type":"gpml:SubductionZone","polarity":"Left","overriding_plate_id":602,"subducting_plate_id":6024,"plate_ids":[602,6024],"name":"Jiangang SZ"},"geometry":{"type":"LineString","coordinates":[[-78.188,40.117],[-77.798,39.729],[-77.413,39.339],[-77.031,38.949],[-76.654,38.556],[-76.281,38.163],[-75.912,37.769],[-75.547,37.373],[-75.186,36.976],[-74.828,36.579],[-74.474,36.18],[-74.124,35.78],[-73.777,35.379],[-73.434,34.977],[-73.094,34.574],[-72.757,34.171],[-72.424,33.766],[-72.093,33.36],[-71.766,32.954],[-71.442,32.547],[-71.12,32.139],[-70.865,31.725],[-70.612,31.31],[-70.361,30.895],[-70.113,30.479],[-69.866,30.063],[-69.622,29.647],[-69.38,29.23],[-69.139,28.812],[-68.901,28.394],[-68.664,27.976],[-68.429,27.557],[-68.196,27.138],[-67.965,26.719],[-67.736,26.299],[-67.573,25.836],[-67.411,25.373],[-67.25,24.91],[-67.091,24.446],[-66.933,23.982],[-66.776,23.519],[-66.62,23.055],[-66.465,22.59],[-66.312,22.126],[-66.159,21.662],[-66.007,21.197],[-65.7,20.822],[-65.394,20.447],[-65.09,20.071],[-64.787,19.694],[-64.485,19.318],[-64.185,18.94],[-63.887,18.562],[-63.589,18.184],[-63.293,17.805],[-62.999,17.426],[-62.705,17.046],[-62.413,16.666],[-62.121,16.285],[-61.684,16.031],[-61.248,15.776],[-60.813,15.52],[-60.38,15.263],[-59.947,15.005],[-59.515,14.746],[-59.084,14.487],[-58.655,14.227],[-58.226,13.966],[-57.798,13.704],[-57.372,13.442],[-56.946,13.179]]}},{"type":"Feature","properties":{"boundary_type":"subduction","feature_type":"gpml:SubductionZone","polarity":"Right","overriding_plate_id":101,"subducting_plate_id":801,"plate_ids":[101,801],"name":"Siberia SZ"},"geometry":{"type":"LineString","coordinates":[[158.624,26.334],[159.149,26.486],[159.675,26.635],[160.202,26.783],[160.73,26.928],[161.26,27.072],[161.792,27.214],[162.324,27.353],[162.858,27.491],[163.393,27.626],[163.93,27.76],[164.44,27.937],[164.951,28.112],[165.464,28.285],[165.978,28.457],[166.494,28.626],[167.012,28.794],[167.531,28.959],[168.052,29.123],[168.575,29.284],[169.1,29.443],[169.626,29.601],[170.153,29.756],[170.683,29.909],[171.214,30.06],[171.746,30.209],[172.315,30.231],[172.884,30.25],[173.453,30.266],[174.022,30.28],[174.591,30.292],[175.161,30.301],[175.731,30.308],[176.3,30.312],[176.87,30.314],[177.44,30.313],[178.01,30.31],[178.579,30.304],[179.149,30.296],[179.718,30.285],[-179.745,30.333],[-179.208,30.379],[-178.671,30.422],[-178.133,30.464],[-177.595,30.503],[-177.057,30.54],[-176.518,30.574],[-175.978,30.607],[-175.439,30.637],[-174.898,30.665],[-174.358,30.691],[-173.817,30.714],[-173.277,30.735],[-172.735,30.754],[-172.31,31.06],[-171.882,31.365],[-171.45,31.668],[-171.016,31.969],[-170.58,32.269],[-170.14,32.568],[-169.697,32.865],[-169.252,33.16],[-168.803,33.454],[-168.352,33.746],[-167.897,34.037],[-167.439,34.326],[-166.978,34.613],[-166.502,34.92],[-166.022,35.224],[-165.539,35.528],[-165.053,35.829],[-164.562,36.128],[-164.068,36.425],[-163.57,36.72],[-163.068,37.013],[-162.562,37.304],[-162.053,37.592],[-161.539,37.879],[-161.022,38.163],[-160.435,38.23],[-159.848,38.295],[-159.259,38.356],[-158.67,38.415],[-158.079,38.47],[-157.488,38.523],[-156.896,38.572],[-156.303,38.619],[-155.71,38.662],[-155.115,38.703],[-154.52,38.741],[-153.925,38.775],[-153.329,38.807],[-152.732,38.835],[-152.242,38.803],[-151.753,38.769],[-151.265,38.732],[-150.776,38.694]]}},{"type":"Feature","properties":{"boundary_type":"subduction","feature_type":"gpml:SubductionZone","polarity":"Right","overriding_plate_id":101,"subducting_plate_id":801,"plate_ids":[101,801],"name":"SZ"},"geometry":{"type":"LineString","coordinates":[[-150.776,38.694],[-150.237,38.901],[-149.695,39.106],[-149.15,39.309],[-148.602,39.509],[-148.05,39.706],[-147.495,39.901],[-146.938,40.093],[-146.377,40.283],[-145.813,40.469],[-145.229,40.678],[-144.641,40.885],[-144.05,41.088],[-143.455,41.288],[-142.856,41.485],[-142.254,41.679],[-141.648,41.87],[-141.039,42.058],[-140.426,42.242],[-139.809,42.423],[-139.189,42.601],[-138.565,42.775],[-137.938,42.946],[-137.308,43.114],[-136.674,43.278],[-136.036,43.439],[-135.396,43.596],[-134.752,43.749],[-134.104,43.899],[-133.454,44.045],[-132.8,44.187],[-132.143,44.326],[-131.483,44.461],[-130.82,44.592]]}},{"type":"Feature","properties":{"boundary_type":"subduction","feature_type":"gpml:SubductionZone","polarity":"Right","overriding_plate_id":6024,"subducting_plate_id":801,"plate_ids":[801,6024],"name":"SZ"},"geometry":{"type":"LineString","coordinates":[[-130.82,44.592],[-130.419,44.669],[-129.748,44.815],[-129.075,44.957],[-128.398,45.095],[-127.717,45.229],[-127.034,45.359],[-126.348,45.485],[-125.658,45.607],[-124.965,45.724],[-124.27,45.837],[-123.572,45.947],[-122.871,46.051],[-122.168,46.152],[-121.462,46.248],[-120.753,46.34],[-120.043,46.427],[-119.33,46.511],[-118.615,46.589],[-117.898,46.663],[-117.179,46.733],[-116.458,46.798],[-115.735,46.859],[-115.011,46.915],[-114.286,46.966],[-113.559,47.013],[-112.831,47.055],[-112.102,47.093],[-111.372,47.126],[-110.641,47.154],[-109.909,47.178],[-109.177,47.197],[-108.444,47.212],[-107.711,47.221],[-106.978,47.226],[-106.244,47.227],[-105.511,47.222],[-104.832,47.067],[-104.157,46.909],[-103.486,46.746],[-102.819,46.579],[-102.157,46.408],[-101.498,46.234],[-100.844,46.056],[-100.194,45.874],[-99.548,45.688],[-98.907,45.499],[-98.27,45.307],[-97.637,45.11],[-97.009,44.911],[-96.385,44.708],[-95.765,44.501],[-95.15,44.291],[-94.539,44.078],[-93.933,43.862],[-93.331,43.642],[-92.734,43.42],[-92.141,43.194],[-91.552,42.965],[-90.968,42.734],[-90.388,42.499],[-89.812,42.261],[-89.241,42.021],[-88.674,41.778],[-88.112,41.532],[-87.553,41.283]]}},{"type":"Feature","properties":{"boundary_type":"ridge","feature_type":"gpml:MidOceanRidge","polarity":null,"overriding_plate_id":null,"subducting_plate_id":null,"plate_ids":[6024,9804],"name":"MOR"},"geometry":{"type":"LineString","coordinates":[[-76.396,-36.946],[-76.253,-37.005]]}},{"type":"Feature","properties":{"boundary_type":"ridge","feature_type":"gpml:MidOceanRidge","polarity":null,"overriding_plate_id":null,"subducting_plate_id":null,"plate_ids":[501,9804],"name":"MOR"},"geometry":{"type":"LineString","coordinates":[[-76.253,-37.005],[-75.703,-37.232],[-75.149,-37.456],[-74.592,-37.678],[-74.032,-37.897],[-73.468,-38.113],[-72.901,-38.327],[-72.331,-38.538],[-71.757,-38.746],[-71.18,-38.951],[-70.6,-39.154],[-70.016,-39.353],[-69.429,-39.55],[-68.839,-39.743],[-68.245,-39.934],[-67.648,-40.121],[-67.048,-40.306],[-66.445,-40.487],[-65.838,-40.665],[-65.228,-40.841],[-64.615,-41.012],[-64.819,-41.471],[-65.025,-41.928],[-65.235,-42.386],[-65.447,-42.843],[-65.663,-43.3],[-65.882,-43.756],[-66.104,-44.212],[-66.329,-44.667],[-66.559,-45.122],[-66.792,-45.577],[-67.028,-46.031],[-67.269,-46.484],[-67.514,-46.937],[-67.763,-47.39],[-68.016,-47.842],[-68.274,-48.293],[-68.536,-48.744],[-68.803,-49.194],[-69.075,-49.644],[-69.352,-50.093],[-69.634,-50.541],[-69.921,-50.988],[-70.215,-51.435],[-70.514,-51.881],[-70.818,-52.327],[-71.13,-52.771],[-71.447,-53.215],[-70.767,-53.477],[-70.078,-53.735],[-69.381,-53.989],[-68.676,-54.24],[-67.962,-54.486],[-67.239,-54.727],[-66.508,-54.965],[-65.768,-55.198],[-65.02,-55.426],[-64.262,-55.65],[-63.497,-55.869],[-62.722,-56.083],[-61.94,-56.292],[-61.148,-56.497],[-60.348,-56.696],[-59.54,-56.89],[-58.724,-57.079],[-57.899,-57.263],[-57.066,-57.441],[-56.225,-57.613],[-55.376,-57.78],[-54.519,-57.941],[-53.655,-58.096],[-53.999,-58.535],[-54.351,-58.974],[-54.712,-59.411],[-55.083,-59.847],[-55.464,-60.282],[-55.855,-60.716],[-56.256,-61.148],[-56.669,-61.58],[-57.093,-62.01],[-57.53,-62.439],[-57.979,-62.867],[-58.441,-63.293],[-58.918,-63.717],[-57.836,-63.851],[-56.744,-63.977],[-55.643,-64.095],[-54.533,-64.204],[-53.414,-64.305],[-52.287,-64.397],[-51.154,-64.48],[-50.013,-64.555],[-48.867,-64.621],[-47.716,-64.678],[-46.56,-64.726],[-45.4,-64.765],[-44.237,-64.795],[-43.073,-64.816],[-41.906,-64.827],[-40.74,-64.83],[-39.573,-64.823],[-38.407,-64.807],[-37.244,-64.782],[-36.082,-64.748],[-34.924,-64.705],[-33.77,-64.653],[-32.621,-64.592],[-31.477,-64.522],[-30.34,-64.443],[-29.209,-64.356],[-28.086,-64.26],[-26.971,-64.155],[-25.865,-64.042],[-24.768,-63.92],[-23.681,-63.791],[-22.604,-63.653],[-21.538,-63.507],[-20.483,-63.354],[-19.44,-63.192],[-18.408,-63.023],[-17.388,-62.847],[-16.381,-62.664],[-15.387,-62.473],[-14.405,-62.275],[-13.436,-62.071],[-12.481,-61.859],[-11.538,-61.642],[-10.61,-61.418],[-9.694,-61.187],[-8.792,-60.951],[-7.904,-60.708],[-7.029,-60.46],[-6.167,-60.206],[-5.319,-59.947],[-4.484,-59.682],[-3.662,-59.413],[-2.854,-59.138],[-2.058,-58.858],[-1.275,-58.573],[-0.505,-58.284],[0.252,-57.99],[0.997,-57.691],[1.73,-57.388],[2.451,-57.082],[3.159,-56.771],[3.856,-56.456],[4.542,-56.137],[5.216,-55.815],[5.879,-55.488],[6.531,-55.159],[7.173,-54.826],[7.803,-54.489],[8.424,-54.15],[9.034,-53.807],[9.634,-53.461],[10.225,-53.113],[10.806,-52.761],[11.378,-52.406],[11.94,-52.049],[12.494,-51.69],[13.039,-51.327],[13.575,-50.962],[14.103,-50.595],[14.623,-50.226],[15.135,-49.854],[15.638,-49.48],[16.135,-49.103],[16.623,-48.725],[17.105,-48.345],[17.579,-47.962],[18.046,-47.578],[18.507,-47.192],[18.961,-46.804],[19.408,-46.414],[19.849,-46.023],[20.283,-45.63],[20.712,-45.235],[21.135,-44.839],[21.552,-44.441],[21.963,-44.042],[22.369,-43.641],[22.769,-43.238],[23.164,-42.835],[23.554,-42.43],[23.939,-42.024],[24.319,-41.616],[24.694,-41.207]]}},{"type":"Feature","properties":{"boundary_type":"subduction","feature_type":"gpml:SubductionZone","polarity":"Left","overriding_plate_id":101,"subducting_plate_id":77030,"plate_ids":[101,77030],"name":"inferred SZ"},"geometry":{"type":"LineString","coordinates":[[98.715,-16.715],[98.65,-17.191],[98.584,-17.668],[98.517,-18.144],[98.45,-18.621],[98.383,-19.097],[98.316,-19.574],[98.248,-20.05],[98.179,-20.527],[98.11,-21.003],[98.041,-21.479],[97.971,-21.956],[97.901,-22.432],[97.831,-22.908],[97.759,-23.384],[97.688,-23.861],[97.616,-24.337],[97.543,-24.813],[97.47,-25.289],[97.396,-25.765],[97.357,-26.251],[97.318,-26.738],[97.279,-27.224],[97.239,-27.71],[97.199,-28.197],[97.159,-28.683],[97.118,-29.169],[97.077,-29.655],[97.035,-30.142],[96.993,-30.628],[96.951,-31.114],[96.908,-31.6],[96.865,-32.086],[96.821,-32.573],[96.777,-33.059],[96.732,-33.545],[96.687,-34.031],[96.641,-34.517],[96.595,-35.003],[96.548,-35.489],[96.501,-35.975],[96.453,-36.461],[96.404,-36.947],[96.355,-37.433],[96.305,-37.919],[96.255,-38.405],[96.204,-38.891],[96.152,-39.377],[96.108,-39.81],[96.063,-40.242],[96.018,-40.675],[95.972,-41.107]]}},{"type":"Feature","properties":{"boundary_type":"subduction","feature_type":"gpml:SubductionZone","polarity":"Left","overriding_plate_id":101,"subducting_plate_id":701,"plate_ids":[101,701],"name":"inferred SZ"},"geometry":{"type":"LineString","coordinates":[[95.972,-41.107],[95.933,-41.469],[95.894,-41.83],[95.854,-42.192]]}},{"type":"Feature","properties":{"boundary_type":"subduction","feature_type":"gpml:SubductionZone","polarity":"Left","overriding_plate_id":302,"subducting_plate_id":30204,"plate_ids":[302,30204],"name":"inferred SZ"},"geometry":{"type":"LineString","coordinates":[[146.943,-20.322],[147.158,-20.651],[147.375,-20.981],[147.592,-21.31],[147.839,-21.736],[148.087,-22.163],[148.337,-22.589],[148.588,-23.014],[148.84,-23.439],[148.988,-23.834],[149.137,-24.228],[149.287,-24.622],[149.438,-25.015],[149.59,-25.409],[149.742,-25.802],[149.751,-26.291],[149.759,-26.779],[149.767,-27.267],[149.775,-27.756],[149.784,-28.244],[149.792,-28.733],[149.657,-29.196],[149.52,-29.659],[149.382,-30.122],[149.243,-30.585],[149.102,-31.048],[148.96,-31.51],[148.817,-31.973],[148.849,-32.429],[148.881,-32.885],[148.914,-33.34],[148.947,-33.796],[148.98,-34.252],[149.014,-34.708],[149.048,-35.164],[149.082,-35.619],[149.117,-36.075],[149.153,-36.531],[149.256,-36.84],[149.359,-37.149]]}},{"type":"Feature","properties":{"boundary_type":"subduction","feature_type":"gpml:SubductionZone","polarity":"Left","overriding_plate_id":302,"subducting_plate_id":101,"plate_ids":[101,302],"name":"inferred SZ"},"geometry":{"type":"LineString","coordinates":[[149.359,-37.149],[149.52,-37.622],[149.682,-38.094],[149.847,-38.567],[150.013,-39.039],[150.182,-39.511],[150.354,-39.982],[150.527,-40.454],[150.704,-40.925],[150.882,-41.396],[151.064,-41.866],[151.375,-42.293],[151.69,-42.719],[152.009,-43.145],[152.333,-43.569],[152.662,-43.992],[152.996,-44.415],[153.334,-44.836],[153.677,-45.257],[154.025,-45.676],[154.379,-46.095],[154.738,-46.512],[155.102,-46.928],[155.473,-47.343],[155.919,-47.728],[156.371,-48.111],[156.831,-48.492],[157.297,-48.871],[157.771,-49.249],[158.251,-49.624],[158.74,-49.998],[159.236,-50.369],[159.739,-50.738],[160.251,-51.105],[160.771,-51.47],[161.302,-51.813],[161.842,-52.154],[162.39,-52.492],[162.947,-52.828],[163.512,-53.161],[164.086,-53.491],[164.669,-53.818],[165.261,-54.143],[165.863,-54.464],[166.474,-54.783],[167.094,-55.098],[167.725,-55.411],[168.365,-55.72],[169.016,-56.025],[169.677,-56.327],[170.348,-56.626],[171.179,-56.819],[172.019,-57.007],[172.866,-57.189],[173.723,-57.366],[174.587,-57.536],[175.459,-57.701],[176.34,-57.859],[177.227,-58.012],[178.123,-58.158],[179.025,-58.298],[179.934,-58.431],[-179.149,-58.558],[-178.227,-58.678],[-177.298,-58.792],[-176.363,-58.899],[-175.423,-58.999],[-174.477,-59.093],[-173.526,-59.179],[-173.385,-59.18]]}},{"type":"Feature","properties":{"boundary_type":"subduction","feature_type":"gpml:SubductionZone","polarity":"Left","overriding_plate_id":701,"subducting_plate_id":9804,"plate_ids":[701,9804],"name":"SZ"},"geometry":{"type":"LineString","coordinates":[[45.382,-41.755],[46.016,-41.826],[46.651,-41.894],[47.288,-41.958],[47.926,-42.019],[48.565,-42.076],[49.205,-42.13],[49.846,-42.18],[50.488,-42.226],[51.131,-42.269],[51.775,-42.309],[52.42,-42.344],[53.065,-42.376],[53.711,-42.405],[54.358,-42.43],[55.005,-42.451],[55.652,-42.469],[56.3,-42.483],[56.949,-42.555],[57.6,-42.624],[58.252,-42.689],[58.905,-42.75],[59.56,-42.807],[60.216,-42.861],[60.873,-42.911],[61.531,-42.958],[62.19,-43.0],[62.849,-43.039],[63.51,-43.074],[64.163,-43.132],[64.818,-43.186],[65.474,-43.236],[66.13,-43.283],[66.788,-43.326],[67.447,-43.365],[68.106,-43.401],[68.766,-43.433],[69.427,-43.46],[70.089,-43.484],[70.751,-43.505],[71.413,-43.521],[72.076,-43.534],[72.738,-43.542],[73.401,-43.547],[74.064,-43.548],[74.732,-43.566],[75.4,-43.58],[76.069,-43.589],[76.737,-43.595],[77.406,-43.597],[78.075,-43.595],[78.743,-43.589],[79.412,-43.58],[80.08,-43.566],[80.748,-43.548],[81.415,-43.527],[82.082,-43.502],[82.748,-43.472],[83.414,-43.439],[84.079,-43.403],[84.764,-43.366],[85.45,-43.326],[86.134,-43.281],[86.817,-43.232],[87.499,-43.18],[88.179,-43.123],[88.859,-43.062],[89.537,-42.997],[90.213,-42.929],[90.888,-42.856],[91.562,-42.779],[92.234,-42.699],[92.903,-42.614],[93.571,-42.526],[94.237,-42.433],[94.902,-42.337]]}},{"type":"Feature","properties":{"boundary_type":"subduction","feature_type":"gpml:SubductionZone","polarity":"Left","overriding_plate_id":701,"subducting_plate_id":101,"plate_ids":[101,701],"name":"SZ"},"geometry":{"type":"LineString","coordinates":[[94.902,-42.337],[95.378,-42.266],[95.854,-42.192]]}},{"type":"Feature","properties":{"boundary_type":"subduction","feature_type":"gpml:SubductionZone","polarity":"Left","overriding_plate_id":602,"subducting_plate_id":501,"plate_ids":[501,602],"name":"NorthIndia SZ"},"geometry":{"type":"LineString","coordinates":[[-60.05,-8.662],[-59.682,-8.341],[-59.316,-8.021],[-58.949,-7.699],[-58.584,-7.378],[-58.218,-7.056],[-57.854,-6.734],[-57.49,-6.412],[-57.126,-6.089],[-56.763,-5.766],[-56.4,-5.443],[-56.065,-5.074],[-55.73,-4.704],[-55.395,-4.335],[-55.061,-3.965],[-54.727,-3.595],[-54.394,-3.224],[-54.06,-2.854],[-53.727,-2.484],[-53.394,-2.113],[-53.061,-1.743],[-52.729,-1.372],[-52.396,-1.002],[-52.064,-0.631],[-51.731,-0.261],[-51.399,0.11],[-51.066,0.481],[-50.734,0.851],[-50.401,1.222],[-50.069,1.593],[-49.736,1.963],[-49.403,2.334],[-49.07,2.704],[-48.737,3.074],[-48.403,3.444],[-48.07,3.815],[-47.736,4.184],[-47.401,4.554],[-47.067,4.924],[-46.732,5.293],[-46.521,5.72],[-46.31,6.146],[-46.099,6.572],[-45.887,6.997],[-45.675,7.423],[-45.462,7.849],[-45.25,8.275],[-45.036,8.7],[-44.822,9.125],[-44.608,9.551],[-44.393,9.976],[-44.178,10.401],[-43.962,10.826],[-43.745,11.25]]}},{"type":"Feature","properties":{"boundary_type":"ridge","feature_type":"gpml:MidOceanRidge","polarity":null,"overriding_plate_id":null,"subducting_plate_id":null,"plate_ids":[6024],"name":"MOR"},"geometry":{"type":"LineString","coordinates":[[-169.915,-18.424],[-169.949,-18.004],[-169.982,-17.585],[-170.015,-17.165]]}},{"type":"Feature","properties":{"boundary_type":"ridge","feature_type":"gpml:MidOceanRidge","polarity":null,"overriding_plate_id":null,"subducting_plate_id":null,"plate_ids":[101,6024],"name":"MOR"},"geometry":{"type":"LineString","coordinates":[[-170.015,-17.165],[-170.053,-16.691],[-170.09,-16.216],[-170.127,-15.742],[-170.164,-15.267],[-170.201,-14.793],[-170.238,-14.318],[-170.274,-13.844],[-170.31,-13.369],[-170.346,-12.895],[-170.382,-12.42],[-170.418,-11.946],[-170.454,-11.471],[-170.49,-10.997],[-170.525,-10.522],[-170.561,-10.047],[-170.059,-10.021],[-169.557,-9.994],[-169.055,-9.967],[-168.553,-9.938],[-168.051,-9.909],[-167.55,-9.879],[-167.048,-9.849],[-166.547,-9.817],[-166.045,-9.785],[-165.544,-9.752],[-165.043,-9.719],[-164.542,-9.685],[-164.041,-9.65],[-163.54,-9.614],[-163.04,-9.577],[-162.539,-9.54],[-162.039,-9.502],[-161.538,-9.464],[-161.038,-9.424],[-160.538,-9.384],[-160.038,-9.344],[-159.538,-9.302],[-159.038,-9.26],[-158.538,-9.217],[-158.039,-9.174],[-157.54,-9.13],[-157.04,-9.085],[-156.541,-9.039],[-156.042,-8.993],[-155.543,-8.946],[-155.044,-8.899],[-154.546,-8.85],[-154.047,-8.801],[-153.549,-8.752],[-153.05,-8.702],[-152.552,-8.651],[-152.054,-8.599],[-151.557,-8.547],[-151.059,-8.494],[-150.561,-8.441],[-150.064,-8.387],[-149.566,-8.332],[-149.069,-8.277],[-148.572,-8.221],[-148.075,-8.165],[-147.579,-8.108],[-147.082,-8.05],[-146.586,-7.992],[-146.089,-7.933],[-145.593,-7.873],[-145.097,-7.813],[-144.601,-7.753],[-144.106,-7.692],[-143.61,-7.63],[-143.114,-7.567],[-142.619,-7.505],[-142.124,-7.441],[-141.629,-7.377],[-141.134,-7.313],[-140.639,-7.248],[-140.145,-7.182],[-139.65,-7.116],[-139.156,-7.049],[-138.662,-6.982],[-138.625,-6.486],[-138.588,-5.99],[-138.551,-5.494],[-138.514,-4.998],[-138.477,-4.502],[-138.441,-4.006],[-138.404,-3.51],[-138.367,-3.014],[-138.331,-2.518],[-138.294,-2.022],[-138.258,-1.526],[-138.221,-1.03],[-138.185,-0.534],[-138.148,-0.038],[-138.112,0.458],[-138.075,0.954],[-138.039,1.45],[-138.002,1.946],[-137.965,2.442],[-137.929,2.938],[-137.892,3.434],[-137.856,3.93],[-137.819,4.426],[-137.332,4.504],[-136.846,4.582],[-136.359,4.66],[-135.872,4.737],[-135.385,4.814],[-134.898,4.891],[-134.411,4.968],[-133.923,5.044],[-133.436,5.119],[-132.948,5.195],[-132.46,5.27],[-131.973,5.344],[-131.485,5.418],[-130.997,5.492],[-130.508,5.565],[-130.02,5.638],[-129.532,5.711],[-129.043,5.783],[-128.554,5.855],[-128.066,5.926],[-127.577,5.997],[-127.088,6.068],[-126.599,6.138],[-126.109,6.207],[-125.62,6.276],[-125.13,6.345],[-124.641,6.413],[-124.151,6.481],[-123.661,6.548],[-123.171,6.615],[-122.681,6.681],[-122.19,6.747],[-122.276,7.235],[-122.361,7.722],[-122.447,8.209],[-122.533,8.697],[-122.619,9.184],[-122.706,9.671],[-122.793,10.158],[-122.88,10.646],[-122.967,11.133],[-123.054,11.62],[-123.142,12.107],[-123.231,12.594],[-123.319,13.081],[-123.408,13.569],[-123.497,14.056],[-123.587,14.543],[-123.677,15.03],[-123.767,15.517],[-123.858,16.003],[-123.95,16.49],[-124.041,16.977],[-124.134,17.464],[-124.226,17.951],[-124.32,18.437],[-124.413,18.924],[-124.508,19.411],[-124.603,19.897],[-124.698,20.384],[-124.794,20.87],[-124.891,21.356],[-124.988,21.843],[-125.086,22.329],[-125.185,22.815],[-125.285,23.301],[-125.385,23.788],[-125.486,24.274],[-125.587,24.76],[-125.69,25.245],[-125.793,25.731],[-125.897,26.217],[-126.002,26.703],[-126.108,27.188],[-126.215,27.674],[-126.323,28.159],[-126.432,28.645],[-126.541,29.13],[-126.652,29.615],[-126.764,30.1],[-126.877,30.585],[-126.991,31.07],[-127.107,31.555],[-127.223,32.04],[-127.341,32.524],[-127.46,33.009],[-127.58,33.493],[-127.702,33.977],[-127.825,34.461],[-127.95,34.945],[-128.076,35.429],[-128.203,35.913],[-128.332,36.396],[-128.463,36.88],[-128.595,37.363],[-128.73,37.846],[-128.865,38.329],[-129.003,38.812],[-129.143,39.295],[-129.284,39.777],[-129.428,40.26],[-129.573,40.742],[-129.721,41.224],[-129.871,41.706],[-130.023,42.187],[-130.178,42.668],[-130.334,43.15],[-130.494,43.631],[-130.656,44.111],[-130.82,44.592]]}},{"type":"Feature","properties":{"boundary_type":"subduction","feature_type":"gpml:SubductionZone","polarity":"Left","overriding_plate_id":602,"subducting_plate_id":6024,"plate_ids":[602,6024],"name":"N-India SZ"},"geometry":{"type":"LineString","coordinates":[[-56.946,13.179],[-56.924,12.741],[-56.902,12.303],[-56.881,11.865],[-56.859,11.427],[-56.838,10.989],[-56.816,10.551],[-56.795,10.113],[-56.774,9.675],[-56.813,9.189],[-56.852,8.703],[-56.891,8.216],[-56.93,7.73],[-56.969,7.244],[-57.008,6.758],[-57.046,6.271],[-57.085,5.785],[-57.123,5.299],[-57.162,4.813],[-57.2,4.326],[-57.239,3.84],[-57.277,3.354],[-57.315,2.867],[-57.353,2.381],[-57.392,1.895],[-57.43,1.409],[-57.468,0.922],[-57.506,0.436],[-57.639,-0.043],[-57.772,-0.522],[-57.905,-1.001],[-58.038,-1.48],[-58.171,-1.959],[-58.304,-2.438],[-58.437,-2.917],[-58.571,-3.396],[-58.704,-3.875],[-58.838,-4.353],[-58.971,-4.832],[-59.105,-5.311],[-59.239,-5.79],[-59.374,-6.269],[-59.508,-6.747],[-59.643,-7.226],[-59.779,-7.705],[-59.914,-8.183],[-60.05,-8.662]]}},{"type":"Feature","properties":{"boundary_type":"subduction","feature_type":"gpml:SubductionZone","polarity":"Left","overriding_plate_id":501,"subducting_plate_id":6024,"plate_ids":[501,6024],"name":"N-India SZ"},"geometry":{"type":"LineString","coordinates":[[-60.05,-8.662],[-60.186,-9.141],[-60.323,-9.619],[-60.459,-10.097],[-60.597,-10.576],[-60.735,-11.054],[-60.873,-11.532],[-61.011,-12.011],[-61.151,-12.489],[-61.29,-12.967],[-61.43,-13.445],[-61.571,-13.923],[-61.713,-14.4],[-61.855,-14.878],[-61.997,-15.356],[-62.14,-15.833],[-62.284,-16.311],[-62.527,-16.744],[-62.77,-17.177],[-63.015,-17.61],[-63.261,-18.043],[-63.508,-18.475],[-63.757,-18.907],[-64.006,-19.339],[-64.257,-19.77],[-64.509,-20.201],[-64.763,-20.632],[-65.018,-21.062],[-65.275,-21.492],[-65.533,-21.921],[-65.793,-22.35],[-66.054,-22.779],[-66.317,-23.207],[-66.582,-23.635],[-66.848,-24.062],[-67.116,-24.489],[-67.386,-24.916],[-67.658,-25.342],[-67.932,-25.767],[-68.208,-26.192],[-68.486,-26.616],[-68.766,-27.04],[-69.048,-27.463],[-69.332,-27.886],[-69.618,-28.308],[-69.907,-28.729],[-70.198,-29.15],[-70.491,-29.57],[-70.787,-29.99],[-71.085,-30.409],[-71.386,-30.827],[-71.69,-31.245],[-71.996,-31.661],[-72.305,-32.077],[-72.617,-32.493],[-72.931,-32.907],[-73.249,-33.321],[-73.57,-33.734],[-73.893,-34.146],[-74.22,-34.557],[-74.551,-34.968],[-74.884,-35.377],[-75.221,-35.786],[-75.561,-36.193],[-75.905,-36.6],[-76.253,-37.005]]}},{"type":"Feature","properties":{"boundary_type":"ridge","feature_type":"gpml:MidOceanRidge","polarity":null,"overriding_plate_id":null,"subducting_plate_id":null,"plate_ids":[701,801],"name":""},"geometry":{"type":"LineString","coordinates":[[-55.581,26.479],[-55.255,26.882],[-54.926,27.284],[-54.594,27.686],[-54.261,28.086],[-53.924,28.486],[-53.585,28.885],[-53.244,29.283],[-52.9,29.68],[-52.553,30.076],[-52.203,30.471],[-51.851,30.866],[-51.495,31.259],[-51.137,31.652],[-50.776,32.043],[-50.411,32.434],[-50.043,32.823],[-49.672,33.211],[-49.298,33.598],[-48.921,33.984],[-48.54,34.369],[-48.155,34.753],[-47.767,35.135],[-47.375,35.516],[-46.98,35.896],[-46.58,36.275],[-46.177,36.652],[-45.77,37.028],[-45.359,37.402],[-44.943,37.775],[-44.524,38.147],[-44.1,38.517],[-43.672,38.886],[-43.239,39.252],[-42.802,39.618],[-42.36,39.981],[-41.914,40.343],[-41.462,40.704],[-41.006,41.062],[-40.545,41.419],[-40.078,41.773],[-39.607,42.126],[-39.13,42.477],[-38.648,42.826],[-38.161,43.173],[-37.667,43.518],[-37.169,43.86],[-36.664,44.201],[-36.154,44.539],[-35.637,44.875],[-35.115,45.208],[-34.587,45.54],[-34.052,45.868],[-33.511,46.194],[-32.963,46.518],[-32.409,46.839],[-31.849,47.157],[-31.281,47.472],[-30.707,47.785],[-30.126,48.095],[-29.538,48.401],[-28.943,48.705],[-28.34,49.006],[-27.73,49.303],[-27.113,49.597],[-26.489,49.888],[-25.857,50.176],[-25.217,50.46],[-24.57,50.74],[-23.915,51.017],[-23.252,51.29],[-22.581,51.559],[-21.902,51.825],[-21.216,52.086],[-20.521,52.344],[-20.07,51.933],[-19.626,51.52],[-19.191,51.106],[-18.763,50.69],[-18.343,50.272],[-17.931,49.853],[-17.525,49.433],[-17.126,49.011],[-16.734,48.588],[-16.349,48.163],[-15.97,47.737],[-15.597,47.31],[-15.23,46.882],[-14.869,46.453],[-14.513,46.022],[-14.163,45.591],[-13.818,45.158],[-13.479,44.725],[-13.144,44.29],[-12.815,43.855],[-12.49,43.418],[-12.17,42.981],[-11.855,42.542],[-11.544,42.103],[-11.237,41.663],[-10.934,41.222],[-10.635,40.781],[-10.341,40.339],[-10.05,39.896],[-9.763,39.452],[-9.479,39.007],[-9.199,38.562],[-8.923,38.116],[-8.65,37.67],[-8.38,37.223],[-8.113,36.775],[-7.85,36.327],[-7.589,35.878],[-7.332,35.429],[-7.077,34.979],[-6.825,34.528],[-6.576,34.077],[-6.329,33.626],[-6.085,33.174],[-5.844,32.722],[-5.605,32.269],[-5.368,31.815],[-5.134,31.362],[-4.901,30.907],[-4.671,30.453],[-4.444,29.998],[-4.218,29.543],[-3.994,29.087],[-3.772,28.631],[-3.553,28.174],[-3.016,28.313],[-2.478,28.449],[-1.939,28.584],[-1.398,28.716],[-0.856,28.846],[-0.313,28.974],[0.232,29.099],[0.778,29.223],[1.325,29.344],[1.874,29.463],[2.424,29.58],[2.975,29.694],[3.528,29.806],[4.081,29.916],[4.636,30.024],[5.192,30.129],[5.749,30.232],[6.308,30.333],[6.867,30.431],[7.428,30.526],[7.99,30.62],[8.552,30.711],[9.116,30.799],[9.681,30.885],[10.247,30.969],[10.814,31.05],[11.382,31.129],[11.95,31.205],[12.52,31.279],[13.091,31.35],[13.662,31.418],[14.234,31.484],[14.807,31.548],[15.381,31.609],[15.955,31.667],[16.53,31.723],[17.106,31.776],[17.683,31.827],[18.26,31.875],[18.838,31.92],[19.416,31.963],[19.995,32.003],[20.574,32.041],[21.154,32.076],[21.734,32.108],[22.314,32.138],[22.895,32.165],[23.477,32.189],[24.058,32.211],[24.64,32.23],[25.222,32.246],[25.804,32.26],[26.386,32.271],[26.969,32.279],[27.131,31.815],[27.292,31.351],[27.451,30.886],[27.609,30.421],[27.765,29.956],[27.919,29.491],[28.072,29.026],[28.224,28.56],[28.375,28.094],[28.524,27.629],[28.672,27.162],[28.819,26.696],[28.964,26.23],[29.108,25.764],[29.252,25.297],[29.394,24.83],[29.535,24.363],[29.675,23.896],[29.814,23.429],[29.952,22.962],[30.089,22.495],[30.225,22.027],[30.36,21.559],[30.495,21.092],[30.628,20.624],[30.761,20.156],[30.893,19.688],[31.024,19.22],[31.154,18.752],[31.284,18.283],[31.413,17.815],[31.929,17.882],[32.446,17.947],[32.963,18.01],[33.481,18.073],[33.999,18.134],[34.517,18.193],[35.036,18.252],[35.555,18.308],[36.074,18.364],[36.594,18.418],[37.113,18.47],[37.634,18.522],[38.154,18.571],[38.675,18.62],[39.196,18.667],[39.718,18.712],[40.239,18.756],[40.761,18.799],[41.284,18.84],[41.806,18.879],[42.329,18.918],[42.852,18.954],[43.375,18.99],[43.898,19.023],[44.422,19.056],[44.946,19.087],[45.47,19.116],[45.994,19.144],[46.518,19.17],[47.043,19.195],[47.568,19.219],[48.092,19.24],[48.617,19.261],[49.142,19.28],[49.668,19.297],[50.193,19.313],[50.718,19.328],[51.244,19.341],[51.769,19.352],[52.295,19.362],[52.821,19.37],[53.347,19.377],[53.872,19.383],[54.398,19.386],[54.924,19.389],[55.45,19.39],[55.976,19.389],[56.502,19.387],[57.027,19.383],[57.553,19.378],[57.634,18.897],[57.715,18.416],[57.795,17.935],[57.874,17.454],[57.954,16.973],[58.032,16.493],[58.111,16.012],[58.189,15.531],[58.267,15.049],[58.344,14.568],[58.421,14.087],[58.498,13.606],[58.574,13.125],[58.65,12.644],[58.726,12.163],[58.801,11.681],[58.877,11.2],[58.952,10.719],[59.026,10.238],[59.515,10.293],[60.003,10.348],[60.492,10.402],[60.981,10.455],[61.47,10.507],[61.959,10.559],[62.449,10.61],[62.938,10.66],[63.428,10.71],[63.918,10.758],[64.408,10.806],[64.898,10.854],[65.389,10.9],[65.879,10.946]]}},{"type":"Feature","properties":{"boundary_type":"ridge","feature_type":"gpml:MidOceanRidge","polarity":null,"overriding_plate_id":null,"subducting_plate_id":null,"plate_ids":[701],"name":""},"geometry":{"type":"LineString","coordinates":[[65.879,10.946],[66.031,10.959]]}},{"type":"Feature","properties":{"boundary_type":"ridge","feature_type":"gpml:MidOceanRidge","polarity":null,"overriding_plate_id":null,"subducting_plate_id":null,"plate_ids":[77030],"name":""},"geometry":{"type":"LineString","coordinates":[[65.842,11.233],[66.031,10.959]]}},{"type":"Feature","properties":{"boundary_type":"ridge","feature_type":"gpml:MidOceanRidge","polarity":null,"overriding_plate_id":null,"subducting_plate_id":null,"plate_ids":[701,77030],"name":""},"geometry":{"type":"LineString","coordinates":[[66.031,10.959],[66.315,10.546],[66.599,10.132],[66.882,9.718],[67.165,9.304],[67.446,8.889],[67.727,8.475],[68.008,8.06],[68.288,7.645],[68.567,7.229],[68.846,6.814],[69.124,6.398],[69.402,5.983],[69.679,5.567],[69.956,5.151],[70.233,4.735],[70.509,4.318],[70.786,3.902],[70.374,3.627],[69.962,3.351],[69.55,3.076],[69.139,2.8],[68.728,2.524],[68.317,2.248],[67.906,1.972],[67.496,1.695],[67.085,1.419],[66.675,1.143],[66.264,0.866],[65.854,0.589],[65.444,0.313],[65.034,0.036],[64.623,-0.24],[64.213,-0.517],[63.803,-0.793],[63.392,-1.07],[62.982,-1.346],[62.572,-1.623],[62.774,-2.034],[62.977,-2.446],[63.179,-2.857],[63.382,-3.268],[63.585,-3.679],[63.789,-4.09],[63.992,-4.501],[64.196,-4.913],[63.784,-5.144],[63.371,-5.376],[62.958,-5.607],[62.545,-5.837],[62.132,-6.068],[61.718,-6.298],[61.304,-6.528],[60.889,-6.757],[60.474,-6.986],[60.059,-7.215],[60.335,-7.63],[60.612,-8.045],[60.89,-8.459],[61.168,-8.874],[61.447,-9.288],[61.726,-9.702],[62.006,-10.116],[62.287,-10.529],[62.568,-10.942],[62.851,-11.355],[63.134,-11.768],[63.418,-12.181],[63.703,-12.593],[63.989,-13.004],[64.275,-13.416],[64.563,-13.827],[64.852,-14.238],[65.142,-14.649],[65.432,-15.059],[65.724,-15.468],[66.018,-15.878],[66.312,-16.287],[66.608,-16.695],[66.904,-17.104],[67.203,-17.511],[67.502,-17.919],[67.803,-18.325],[68.105,-18.732],[68.409,-19.138],[68.714,-19.543],[69.021,-19.948],[69.329,-20.352],[68.951,-20.634],[68.572,-20.915],[68.191,-21.196],[67.808,-21.475],[67.425,-21.754],[67.039,-22.032],[67.328,-22.434],[67.619,-22.837],[67.911,-23.238],[68.205,-23.64],[68.501,-24.04],[68.798,-24.44],[69.098,-24.84],[69.399,-25.239],[69.703,-25.637],[70.008,-26.034],[70.316,-26.431],[70.626,-26.828],[70.937,-27.223],[71.252,-27.618],[71.568,-28.012],[71.887,-28.406],[72.208,-28.799],[72.531,-29.191],[72.857,-29.582],[73.186,-29.972],[73.517,-30.362],[73.85,-30.75],[74.187,-31.138],[74.526,-31.525],[74.868,-31.911],[75.213,-32.297],[75.561,-32.681],[75.944,-32.375],[76.324,-32.067],[76.702,-31.759],[77.077,-31.449],[77.449,-31.139],[77.82,-30.827],[78.188,-30.514],[78.553,-30.201],[78.916,-29.886],[79.33,-30.227],[79.747,-30.566],[80.166,-30.904],[80.589,-31.241],[81.014,-31.576],[81.443,-31.91],[81.874,-32.243],[82.309,-32.574],[82.747,-32.904],[83.188,-33.232],[83.633,-33.558],[84.081,-33.883],[84.532,-34.206],[84.987,-34.528],[85.446,-34.848],[85.907,-35.166],[86.373,-35.482],[86.842,-35.797],[87.315,-36.109],[87.792,-36.42],[88.272,-36.729],[88.757,-37.036],[89.245,-37.341],[89.737,-37.644],[90.234,-37.945],[90.734,-38.244],[91.239,-38.54],[91.747,-38.835],[92.26,-39.127],[92.777,-39.417],[93.299,-39.705],[93.824,-39.99],[94.355,-40.273],[94.889,-40.554],[95.428,-40.832],[95.972,-41.107]]}},{"type":"Feature","properties":{"boundary_type":"ridge","feature_type":"gpml:MidOceanRidge","polarity":null,"overriding_plate_id":null,"subducting_plate_id":null,"plate_ids":[801],"name":""},"geometry":{"type":"LineString","coordinates":[[65.879,10.946],[65.842,11.233]]}},{"type":"Feature","properties":{"boundary_type":"ridge","feature_type":"gpml:MidOceanRidge","polarity":null,"overriding_plate_id":null,"subducting_plate_id":null,"plate_ids":[801,77030],"name":""},"geometry":{"type":"LineString","coordinates":[[65.842,11.233],[65.779,11.723],[65.716,12.212],[65.652,12.702],[65.589,13.192],[65.525,13.681],[65.46,14.171],[65.396,14.66],[65.331,15.15],[65.266,15.639],[65.2,16.129],[65.134,16.618],[65.068,17.108],[65.002,17.597],[64.935,18.087],[65.427,18.137],[65.918,18.187],[66.41,18.235],[66.903,18.282],[67.395,18.328],[67.888,18.372],[68.381,18.415],[68.875,18.457],[69.368,18.498],[69.862,18.537],[69.746,19.007],[69.63,19.478],[70.137,19.594],[70.645,19.709],[71.154,19.823],[71.663,19.935],[72.174,20.046],[72.684,20.155],[73.196,20.263],[73.708,20.369],[74.221,20.474],[74.735,20.577],[75.249,20.679],[75.765,20.779],[76.28,20.878],[76.797,20.975],[77.314,21.07],[77.832,21.164],[78.35,21.257],[78.869,21.347],[79.389,21.437],[79.909,21.524],[80.43,21.61],[80.951,21.695],[81.474,21.777],[81.996,21.859],[82.52,21.938],[83.044,22.016],[83.568,22.092],[83.652,22.353],[83.737,22.613],[84.225,22.802],[84.715,22.989],[85.206,23.174],[85.699,23.358],[86.192,23.541],[86.688,23.722],[87.184,23.901],[87.682,24.079],[88.181,24.255],[88.682,24.429],[89.184,24.602],[89.687,24.773],[90.192,24.942],[90.698,25.11],[91.206,25.276],[91.715,25.44],[92.225,25.603],[92.737,25.764],[93.25,25.923],[93.764,26.08],[94.28,26.235],[94.797,26.388],[95.316,26.54],[95.836,26.69],[96.357,26.837],[96.88,26.983],[97.404,27.127],[97.929,27.269],[98.456,27.409],[98.984,27.547],[99.513,27.683],[100.044,27.817]]}},{"type":"Feature","properties":{"boundary_type":"ridge","feature_type":"gpml:MidOceanRidge","polarity":null,"overriding_plate_id":null,"subducting_plate_id":null,"plate_ids":[101,801],"name":""},"geometry":{"type":"LineString","coordinates":[[100.044,27.817],[100.529,27.938],[101.016,28.057],[101.504,28.174],[101.993,28.29],[102.483,28.404],[102.975,28.516],[103.467,28.626],[103.989,28.811],[104.512,28.994],[105.038,29.175],[105.565,29.354],[106.094,29.531],[106.626,29.706],[107.158,29.878],[107.693,30.049],[108.23,30.217],[108.768,30.383],[109.308,30.547],[109.85,30.709],[110.394,30.868],[110.94,31.025],[111.487,31.18],[112.037,31.333],[112.588,31.483],[113.14,31.631],[113.695,31.776]]}},{"type":"Feature","properties":{"boundary_type":"subduction","feature_type":"gpml:SubductionZone","polarity":"Right","overriding_plate_id":501,"subducting_plate_id":602,"plate_ids":[501,602],"name":""},"geometry":{"type":"LineString","coordinates":[[-43.745,11.25],[-43.261,11.297],[-42.777,11.343],[-42.292,11.388],[-41.808,11.432],[-41.323,11.476],[-40.838,11.518],[-40.353,11.56]]}},{"type":"Feature","properties":{"boundary_type":"subduction","feature_type":"gpml:SubductionZone","polarity":"Right","overriding_plate_id":501,"subducting_plate_id":701,"plate_ids":[501,701],"name":""},"geometry":{"type":"LineString","coordinates":[[-40.353,11.56],[-40.214,11.572],[-39.743,11.403],[-39.273,11.232],[-38.803,11.061],[-38.333,10.889],[-37.865,10.717],[-37.396,10.544],[-36.928,10.37],[-36.461,10.195],[-35.994,10.02],[-35.528,9.844],[-35.062,9.667],[-34.597,9.49],[-34.132,9.312],[-33.668,9.134],[-33.204,8.955],[-32.741,8.776],[-32.278,8.596],[-31.962,8.225],[-31.648,7.854],[-31.333,7.484],[-31.02,7.112],[-30.706,6.741],[-30.394,6.37],[-30.081,5.998],[-29.769,5.626],[-29.458,5.254],[-29.147,4.882],[-28.836,4.509],[-28.526,4.137],[-28.216,3.764],[-27.906,3.392],[-27.596,3.019],[-27.287,2.646],[-26.977,2.273],[-26.668,1.9],[-26.359,1.527],[-26.05,1.154],[-25.742,0.781],[-25.433,0.407],[-25.124,0.034],[-24.816,-0.339],[-24.507,-0.712],[-24.198,-1.085],[-23.822,-1.364],[-23.445,-1.643],[-23.068,-1.922],[-22.692,-2.201],[-22.315,-2.48],[-21.938,-2.758]]}},{"type":"Feature","properties":{"boundary_type":"ridge","feature_type":"gpml:MidOceanRidge","polarity":null,"overriding_plate_id":null,"subducting_plate_id":null,"plate_ids":[501,701],"name":""},"geometry":{"type":"LineString","coordinates":[[-21.938,-2.758],[-22.323,-2.826],[-22.709,-2.893],[-23.095,-2.961],[-23.063,-3.458],[-23.031,-3.956],[-22.999,-4.453],[-22.967,-4.95],[-22.935,-5.448],[-22.903,-5.945],[-22.871,-6.443],[-22.838,-6.94],[-22.806,-7.438],[-22.774,-7.935],[-22.741,-8.433],[-22.709,-8.93],[-22.676,-9.428],[-22.643,-9.925],[-22.61,-10.422],[-22.577,-10.92],[-22.544,-11.417],[-22.511,-11.915],[-22.478,-12.412],[-22.444,-12.91]]}},{"type":"Feature","properties":{"boundary_type":"ridge","feature_type":"gpml:MidOceanRidge","polarity":null,"overriding_plate_id":null,"subducting_plate_id":null,"plate_ids":[101,302],"name":"MOR-Greenland-Baltica"},"geometry":{"type":"LineString","coordinates":[[152.571,-18.824],[153.094,-18.848],[153.617,-18.87],[154.14,-18.891],[154.664,-18.91],[155.187,-18.928],[155.711,-18.945],[156.234,-18.96],[156.758,-18.974],[157.282,-18.986],[157.806,-18.996],[158.33,-19.005],[158.854,-19.013],[159.378,-19.019],[159.902,-19.024],[160.426,-19.027],[160.95,-19.029],[161.474,-19.029],[161.998,-19.028],[162.522,-19.026],[163.046,-19.021],[163.57,-19.016],[164.094,-19.009],[164.618,-19.0],[165.142,-18.99],[165.666,-18.979],[166.19,-18.966],[166.713,-18.951],[167.237,-18.935],[167.76,-18.918],[168.284,-18.899],[168.807,-18.879],[169.33,-18.857],[169.853,-18.834],[170.376,-18.809],[170.898,-18.783],[171.421,-18.755],[171.943,-18.726],[172.465,-18.695],[172.987,-18.663],[173.509,-18.63],[173.577,-18.186],[173.645,-17.741],[173.712,-17.297],[173.779,-16.853],[173.846,-16.408],[173.913,-15.964],[173.979,-15.519],[174.045,-15.075],[174.552,-15.16],[175.06,-15.244],[175.569,-15.327],[176.078,-15.409],[176.587,-15.49],[177.097,-15.57],[177.607,-15.648],[178.117,-15.726],[178.628,-15.802],[179.139,-15.877],[179.651,-15.95],[-179.837,-16.023],[-179.325,-16.094],[-178.812,-16.164],[-178.299,-16.233],[-177.786,-16.301],[-177.272,-16.367],[-176.758,-16.432],[-176.244,-16.496],[-175.729,-16.558],[-175.214,-16.62],[-174.698,-16.68],[-174.183,-16.739],[-173.667,-16.796]]}},{"type":"Feature","properties":{"boundary_type":"ridge","feature_type":"gpml:MidOceanRidge","polarity":null,"overriding_plate_id":null,"subducting_plate_id":null,"plate_ids":[101],"name":"MOR-Greenland-Baltica"},"geometry":{"type":"LineString","coordinates":[[-173.667,-16.796],[-173.211,-16.846],[-172.755,-16.894],[-172.299,-16.942],[-171.843,-16.989],[-171.386,-17.034],[-170.93,-17.079],[-170.473,-17.123],[-170.015,-17.165]]}},{"type":"Feature","properties":{"boundary_type":"transform","feature_type":"gpml:Transform","polarity":null,"overriding_plate_id":null,"subducting_plate_id":null,"plate_ids":[302,6024],"name":""},"geometry":{"type":"LineString","coordinates":[[-142.148,-38.232],[-142.408,-38.66],[-142.671,-39.088],[-142.937,-39.515],[-143.207,-39.942],[-143.48,-40.367],[-143.756,-40.793],[-144.036,-41.217]]}},{"type":"Feature","properties":{"boundary_type":"transform","feature_type":"gpml:Transform","polarity":null,"overriding_plate_id":null,"subducting_plate_id":null,"plate_ids":[302,9804],"name":""},"geometry":{"type":"LineString","coordinates":[[-144.036,-41.217],[-144.313,-41.63],[-144.593,-42.043],[-144.876,-42.455],[-145.164,-42.866],[-145.455,-43.276],[-145.75,-43.685],[-146.049,-44.094],[-146.353,-44.502],[-146.66,-44.909],[-146.972,-45.316],[-147.346,-45.723],[-147.726,-46.13],[-148.111,-46.535],[-148.502,-46.939],[-148.899,-47.342],[-149.302,-47.743],[-149.711,-48.143],[-150.126,-48.542],[-150.549,-48.938],[-150.978,-49.334],[-151.413,-49.727],[-151.856,-50.119],[-152.307,-50.51],[-152.764,-50.898],[-153.23,-51.285],[-153.703,-51.67],[-154.185,-52.053],[-154.674,-52.434],[-155.173,-52.813],[-155.68,-53.189],[-156.196,-53.564],[-156.721,-53.936],[-157.255,-54.306],[-157.95,-54.593],[-158.654,-54.876],[-159.368,-55.155],[-160.092,-55.43],[-160.827,-55.701],[-161.571,-55.967],[-162.326,-56.228],[-163.091,-56.485],[-163.866,-56.737],[-164.651,-56.984],[-165.447,-57.226],[-166.254,-57.464],[-167.07,-57.695],[-167.898,-57.922],[-168.657,-58.116],[-169.425,-58.305],[-170.201,-58.49],[-170.985,-58.669],[-171.777,-58.845],[-172.577,-59.015],[-173.385,-59.18]]}},{"type":"Feature","properties":{"boundary_type":"transform","feature_type":"gpml:Transform","polarity":null,"overriding_plate_id":null,"subducting_plate_id":null,"plate_ids":[101,9804],"name":""},"geometry":{"type":"LineString","coordinates":[[-173.385,-59.18],[-174.294,-59.358],[-175.212,-59.53],[-176.14,-59.695],[-177.076,-59.853],[-178.022,-60.005],[-178.975,-60.15],[-179.938,-60.288],[179.092,-60.419],[178.115,-60.543],[177.13,-60.66],[176.138,-60.769],[175.139,-60.872],[174.134,-60.966],[173.124,-61.053],[172.108,-61.133],[171.087,-61.205],[170.062,-61.269],[169.033,-61.325],[168.001,-61.374],[166.965,-61.415],[165.927,-61.448],[164.888,-61.473],[163.846,-61.49],[162.804,-61.499],[161.762,-61.5],[160.72,-61.493],[159.678,-61.479],[158.638,-61.456],[157.599,-61.425],[156.563,-61.387]]}},{"type":"Feature","properties":{"boundary_type":"ridge","feature_type":"gpml:MidOceanRidge","polarity":null,"overriding_plate_id":null,"subducting_plate_id":null,"plate_ids":[302],"name":""},"geometry":{"type":"LineString","coordinates":[[-173.667,-16.796],[-173.201,-17.003],[-172.735,-17.21],[-172.268,-17.415],[-171.799,-17.619],[-171.33,-17.822],[-170.859,-18.023],[-170.388,-18.224],[-169.915,-18.424]]}},{"type":"Feature","properties":{"boundary_type":"ridge","feature_type":"gpml:MidOceanRidge","polarity":null,"overriding_plate_id":null,"subducting_plate_id":null,"plate_ids":[302,6024],"name":""},"geometry":{"type":"LineString","coordinates":[[-169.915,-18.424],[-169.459,-18.615],[-169.002,-18.805],[-168.543,-18.993],[-168.084,-19.181],[-167.624,-19.368],[-167.162,-19.553],[-166.7,-19.737],[-166.236,-19.92],[-165.772,-20.102],[-165.306,-20.282],[-164.839,-20.462],[-164.372,-20.64],[-163.903,-20.817],[-163.433,-20.992],[-162.961,-21.167],[-162.489,-21.34],[-162.016,-21.511],[-162.228,-21.931],[-162.442,-22.35],[-162.656,-22.769],[-162.873,-23.187],[-163.09,-23.605],[-163.309,-24.023],[-163.529,-24.441],[-163.751,-24.858],[-163.974,-25.275],[-164.199,-25.692],[-164.425,-26.108],[-164.653,-26.524],[-164.883,-26.939],[-164.437,-27.23],[-163.989,-27.52],[-163.539,-27.808],[-163.086,-28.095],[-162.631,-28.38],[-162.173,-28.664],[-161.713,-28.946],[-161.25,-29.227],[-160.785,-29.506],[-160.317,-29.783],[-159.847,-30.059],[-159.374,-30.333],[-158.898,-30.605],[-158.42,-30.875],[-157.939,-31.144],[-157.455,-31.411],[-156.969,-31.676],[-156.48,-31.94],[-155.988,-32.201],[-155.493,-32.461],[-154.995,-32.718],[-154.495,-32.974],[-153.991,-33.227],[-153.485,-33.479],[-152.975,-33.728],[-152.463,-33.976],[-151.948,-34.221],[-151.43,-34.464],[-150.908,-34.705],[-150.384,-34.943],[-149.857,-35.18],[-149.326,-35.414],[-148.793,-35.645],[-148.256,-35.875],[-147.716,-36.102],[-147.174,-36.326],[-146.628,-36.548],[-146.079,-36.768],[-145.527,-36.985],[-144.971,-37.199],[-144.413,-37.411],[-143.851,-37.62],[-143.286,-37.827],[-142.719,-38.031],[-142.148,-38.232]]}},{"type":"Feature","properties":{"boundary_type":"ridge","feature_type":"gpml:MidOceanRidge","polarity":null,"overriding_plate_id":null,"subducting_plate_id":null,"plate_ids":[6024,9804],"name":"MOR"},"geometry":{"type":"LineString","coordinates":[[-144.036,-41.217],[-143.448,-41.448],[-142.857,-41.676],[-142.26,-41.901],[-141.66,-42.123],[-141.056,-42.342],[-140.447,-42.557],[-139.834,-42.769],[-139.217,-42.978],[-138.596,-43.184],[-137.971,-43.386],[-137.341,-43.585],[-136.708,-43.78],[-136.07,-43.972],[-135.428,-44.16],[-134.782,-44.345],[-134.132,-44.526],[-133.478,-44.703],[-132.82,-44.876],[-132.158,-45.046],[-131.493,-45.212],[-130.823,-45.374],[-130.15,-45.532],[-129.472,-45.686],[-128.792,-45.836],[-128.107,-45.981],[-127.419,-46.123],[-126.728,-46.261],[-126.033,-46.394],[-125.334,-46.524],[-125.018,-46.086],[-124.707,-45.648],[-124.4,-45.208],[-124.098,-44.768],[-123.801,-44.327],[-123.509,-43.886],[-123.22,-43.443],[-122.936,-43.0],[-122.656,-42.556],[-122.379,-42.112],[-122.107,-41.667],[-121.838,-41.221],[-121.573,-40.775],[-121.312,-40.328],[-121.054,-39.88],[-120.799,-39.432],[-120.548,-38.983],[-120.3,-38.534],[-120.055,-38.084],[-119.812,-37.634],[-119.573,-37.183],[-119.337,-36.732],[-119.103,-36.28],[-118.872,-35.828],[-118.644,-35.376],[-118.418,-34.923],[-118.195,-34.469],[-117.974,-34.016],[-117.755,-33.562],[-117.539,-33.107],[-117.325,-32.652],[-117.113,-32.197],[-116.904,-31.741],[-116.696,-31.285],[-116.49,-30.829],[-115.963,-31.032],[-115.433,-31.234],[-114.901,-31.433],[-114.367,-31.629],[-113.83,-31.824],[-113.291,-32.016],[-112.75,-32.207],[-112.207,-32.394],[-111.662,-32.58],[-111.114,-32.763],[-110.564,-32.943],[-110.012,-33.122],[-109.457,-33.297],[-108.9,-33.471],[-108.341,-33.642],[-107.78,-33.81],[-107.217,-33.976],[-106.651,-34.139],[-106.084,-34.299],[-105.514,-34.457],[-104.942,-34.613],[-104.368,-34.765],[-103.792,-34.915],[-103.213,-35.062],[-102.633,-35.207],[-102.051,-35.348],[-101.466,-35.487],[-100.88,-35.623],[-100.291,-35.756],[-99.701,-35.887],[-99.109,-36.014],[-98.514,-36.139],[-97.918,-36.26],[-97.321,-36.379],[-96.721,-36.494],[-96.119,-36.607],[-95.516,-36.716],[-94.911,-36.823],[-94.305,-36.926],[-93.697,-37.027],[-93.087,-37.124],[-92.475,-37.218],[-91.863,-37.309],[-91.248,-37.396],[-90.633,-37.481],[-90.016,-37.562],[-89.397,-37.641],[-88.778,-37.715],[-88.157,-37.787],[-87.535,-37.855],[-86.912,-37.921],[-86.287,-37.982],[-85.662,-38.041],[-85.036,-38.096],[-84.409,-38.148],[-83.781,-38.197],[-83.152,-38.242],[-82.522,-38.284],[-81.892,-38.322],[-81.261,-38.357],[-80.629,-38.389],[-79.997,-38.417],[-79.365,-38.442],[-78.732,-38.464],[-78.099,-38.482],[-77.465,-38.496],[-76.831,-38.508],[-76.197,-38.516],[-76.248,-38.123],[-76.298,-37.731],[-76.347,-37.338],[-76.396,-36.946]]}},{"type":"Feature","properties":{"boundary_type":"subduction","feature_type":"gpml:SubductionZone","polarity":"Left","overriding_plate_id":101,"subducting_plate_id":77030,"plate_ids":[101,77030],"name":"E-Lau SZ"},"geometry":{"type":"LineString","coordinates":[[100.044,27.817],[100.387,27.535],[100.73,27.252],[101.07,26.969],[101.409,26.684],[101.745,26.399],[102.111,26.024],[102.474,25.648],[102.835,25.271],[103.194,24.893],[103.55,24.514],[103.904,24.135],[104.257,23.755],[104.607,23.374],[104.955,22.992],[105.301,22.609],[105.645,22.226],[105.988,21.842],[106.328,21.457],[106.626,21.081],[106.922,20.704],[107.216,20.326],[107.509,19.948],[107.801,19.569],[108.092,19.19],[108.381,18.811],[108.668,18.431],[108.955,18.051],[109.24,17.67],[109.524,17.289],[109.807,16.907],[110.089,16.525],[110.347,16.122],[110.604,15.719],[110.86,15.315],[111.115,14.911],[111.369,14.506],[111.622,14.102],[111.874,13.697],[112.125,13.292],[112.376,12.886],[112.626,12.481],[112.874,12.075],[113.123,11.669],[113.37,11.263],[113.617,10.856],[113.863,10.449],[114.108,10.043],[114.256,9.605],[114.403,9.167],[114.549,8.73],[114.696,8.292],[114.842,7.854],[114.987,7.416],[115.133,6.978],[115.278,6.54],[115.423,6.102],[115.568,5.664],[115.712,5.226],[115.856,4.788],[116.097,4.35],[116.338,3.913],[116.578,3.475],[116.818,3.038],[117.058,2.6],[117.297,2.163],[117.537,1.725],[117.776,1.287],[118.016,0.85],[118.255,0.412],[118.494,-0.026],[118.734,-0.464],[118.973,-0.901],[119.213,-1.339],[119.295,-1.749],[119.377,-2.159],[119.46,-2.57],[119.542,-2.98],[119.624,-3.39]]}},{"type":"Feature","properties":{"boundary_type":"subduction","feature_type":"gpml:SubductionZone","polarity":"Left","overriding_plate_id":30204,"subducting_plate_id":101,"plate_ids":[101,30204],"name":""},"geometry":{"type":"LineString","coordinates":[[146.531,-20.454],[146.405,-20.783],[146.279,-21.112],[146.152,-21.441],[145.96,-21.837],[145.767,-22.233],[145.573,-22.629],[145.377,-23.024],[145.199,-23.442],[145.019,-23.86],[144.838,-24.278],[144.656,-24.695],[144.473,-25.112],[144.288,-25.529],[144.102,-25.946],[143.997,-26.421],[143.891,-26.896],[143.784,-27.371],[143.677,-27.847],[143.568,-28.321],[143.459,-28.796],[143.532,-29.235],[143.607,-29.674],[143.682,-30.113],[143.758,-30.552],[143.834,-30.99],[143.912,-31.429],[143.99,-31.868],[144.247,-32.278],[144.506,-32.688],[144.768,-33.098],[145.032,-33.506],[145.299,-33.915],[145.569,-34.322],[145.841,-34.729],[146.269,-35.037],[146.7,-35.344],[147.135,-35.649],[147.573,-35.952],[148.014,-36.254],[148.459,-36.554],[148.907,-36.852],[149.359,-37.149]]}},{"type":"Feature","properties":{"boundary_type":"transform","feature_type":"gpml:Transform","polarity":null,"overriding_plate_id":null,"subducting_plate_id":null,"plate_ids":[101,30204],"name":""},"geometry":{"type":"LineString","coordinates":[[146.531,-20.454],[146.943,-20.322]]}},{"type":"Feature","properties":{"boundary_type":"transform","feature_type":"gpml:Transform","polarity":null,"overriding_plate_id":null,"subducting_plate_id":null,"plate_ids":[101,302],"name":""},"geometry":{"type":"LineString","coordinates":[[146.943,-20.322],[147.396,-20.175],[147.847,-20.027],[148.298,-19.878],[148.748,-19.728],[149.228,-19.619],[149.708,-19.509],[150.187,-19.398],[150.665,-19.286],[151.143,-19.172],[151.619,-19.057],[152.096,-18.941],[152.571,-18.824]]}},{"type":"Feature","properties":{"boundary_type":"transform","feature_type":"gpml:Transform","polarity":null,"overriding_plate_id":null,"subducting_plate_id":null,"plate_ids":[101,77030],"name":"inferred transform"},"geometry":{"type":"LineString","coordinates":[[98.715,-16.715],[99.158,-16.458],[99.6,-16.201],[100.041,-15.943],[100.48,-15.684],[100.919,-15.425],[101.356,-15.164],[101.792,-14.903],[102.227,-14.64],[102.661,-14.377],[103.094,-14.113],[103.527,-13.849],[103.958,-13.583],[104.388,-13.317],[104.817,-13.05],[105.245,-12.783],[105.672,-12.515],[106.099,-12.246],[106.525,-11.976],[106.949,-11.706],[107.373,-11.435],[107.796,-11.164],[108.219,-10.891],[108.64,-10.619],[109.061,-10.346],[109.481,-10.072],[109.9,-9.798],[110.319,-9.523],[110.737,-9.248],[111.154,-8.972],[111.577,-8.699],[111.998,-8.426],[112.419,-8.153],[112.84,-7.879],[113.26,-7.605],[113.679,-7.33],[114.098,-7.055],[114.517,-6.779],[114.935,-6.504],[115.352,-6.227],[115.769,-5.951],[116.186,-5.674],[116.602,-5.397],[117.018,-5.12],[117.433,-4.842],[117.848,-4.564],[118.263,-4.286],[118.678,-4.007],[119.092,-3.729],[119.506,-3.45],[119.624,-3.39]]}},{"type":"Feature","properties":{"boundary_type":"transform","feature_type":"gpml:Transform","polarity":null,"overriding_plate_id":null,"subducting_plate_id":null,"plate_ids":[101,9804],"name":""},"geometry":{"type":"LineString","coordinates":[[94.902,-42.337],[95.002,-42.821],[95.104,-43.305],[95.207,-43.789],[95.313,-44.273],[95.419,-44.757],[95.528,-45.24],[95.639,-45.724],[95.751,-46.207],[95.866,-46.691],[95.983,-47.174],[96.101,-47.657],[96.222,-48.14],[96.346,-48.623],[96.471,-49.105],[96.714,-49.565],[96.96,-50.025],[97.212,-50.484],[97.469,-50.942],[97.73,-51.4],[97.997,-51.857],[98.27,-52.314],[98.548,-52.77],[98.832,-53.225],[99.122,-53.679],[99.418,-54.133],[99.721,-54.586],[100.031,-55.039],[100.348,-55.49],[100.672,-55.941],[101.004,-56.391],[101.344,-56.84],[101.692,-57.288],[102.048,-57.735],[102.414,-58.181],[102.788,-58.626],[103.173,-59.069],[103.567,-59.512],[103.972,-59.953],[104.388,-60.394],[104.815,-60.832],[105.254,-61.27],[105.706,-61.706],[106.17,-62.14],[107.1,-62.386],[108.046,-62.626],[109.006,-62.859],[109.982,-63.086],[110.973,-63.306],[111.979,-63.519],[113.0,-63.724],[114.035,-63.923],[115.085,-64.114],[116.149,-64.297],[117.228,-64.472],[118.319,-64.64],[119.424,-64.799],[120.542,-64.95],[121.672,-65.092],[122.814,-65.226],[123.967,-65.351],[125.13,-65.468],[126.304,-65.575],[127.487,-65.673],[128.678,-65.762],[129.878,-65.842],[131.084,-65.912],[132.297,-65.972],[133.514,-66.023],[134.666,-65.904],[135.806,-65.776],[136.935,-65.64],[138.051,-65.495],[139.155,-65.342],[140.246,-65.182],[141.323,-65.013],[142.386,-64.837],[143.436,-64.653],[144.471,-64.462],[145.491,-64.264],[146.497,-64.059],[147.487,-63.847],[148.463,-63.628],[149.423,-63.403],[150.369,-63.172],[151.299,-62.934],[152.214,-62.69],[153.113,-62.441],[153.998,-62.185],[154.868,-61.925],[155.723,-61.658],[156.563,-61.387]]}}]}