{"type":"FeatureCollection","meta":{"model":"Cao2024","reconstruction_time_ma":1590.0,"anchor_plate_id":0,"pygplates_version":"1.0.0","tessellate_degrees":0.5,"polarity_convention":"gpml:subductionPolarity. 'Left'/'Right' names the side of the line, in vertex order, on which the OVERRIDING plate lies. Triangles are drawn on that side.","antimeridian":"Lines are NOT split at +/-180 deg. The renderer works in 3D unit vectors where the dateline is not special; splitting would only add spurious breaks. Do not treat this as RFC 7946 GIS-ready 2D data."},"features":[{"type":"Feature","properties":{"boundary_type":"subduction","feature_type":"gpml:SubductionZone","polarity":"Left","overriding_plate_id":101,"subducting_plate_id":90106,"plate_ids":[101,90106],"name":"eastern Laurentia-greenland-western baltica"},"geometry":{"type":"LineString","coordinates":[[-164.876,37.557],[-164.939,37.215],[-164.868,36.742],[-164.797,36.268],[-164.728,35.795],[-164.659,35.322],[-164.591,34.849],[-164.524,34.376],[-164.458,33.903],[-164.392,33.429],[-164.327,32.956],[-164.263,32.483],[-164.2,32.009],[-164.137,31.536],[-164.074,31.063],[-164.013,30.589],[-163.952,30.116],[-163.891,29.642],[-163.831,29.168],[-163.772,28.695],[-163.731,28.209],[-163.691,27.723],[-163.651,27.237],[-163.611,26.751],[-163.571,26.265],[-163.532,25.779],[-163.493,25.294],[-163.455,24.808],[-163.416,24.322],[-163.379,23.836],[-163.341,23.35],[-163.303,22.864]]}},{"type":"Feature","properties":{"boundary_type":"subduction","feature_type":"gpml:SubductionZone","polarity":"Left","overriding_plate_id":101,"subducting_plate_id":201,"plate_ids":[101,201],"name":"eastern Laurentia-greenland-western baltica"},"geometry":{"type":"LineString","coordinates":[[-163.303,22.864],[-163.266,22.376],[-163.229,21.887],[-163.192,21.399],[-163.156,20.911],[-163.12,20.423],[-163.084,19.935],[-163.048,19.446]]}},{"type":"Feature","properties":{"boundary_type":"subduction","feature_type":"gpml:SubductionZone","polarity":"Left","overriding_plate_id":101,"subducting_plate_id":911001,"plate_ids":[101,911001],"name":"Indo-Antarctica_SZ"},"geometry":{"type":"LineString","coordinates":[[-156.584,-9.533],[-156.584,-9.991],[-156.585,-10.449],[-156.586,-10.907],[-156.587,-11.365],[-156.588,-11.823],[-156.588,-12.281],[-156.589,-12.739],[-156.777,-13.183],[-156.965,-13.627],[-157.154,-14.071],[-157.343,-14.515],[-157.534,-14.958],[-157.725,-15.402],[-157.917,-15.845],[-158.11,-16.288],[-158.303,-16.731],[-158.498,-17.174],[-158.693,-17.616],[-158.89,-18.059],[-159.087,-18.501],[-159.286,-18.943],[-159.506,-19.387],[-159.727,-19.832],[-159.95,-20.276],[-160.173,-20.719],[-160.398,-21.163],[-160.625,-21.606],[-160.853,-22.049],[-161.082,-22.491],[-161.313,-22.934],[-161.545,-23.375],[-161.779,-23.817],[-162.014,-24.258],[-162.15,-24.738],[-162.287,-25.218],[-162.426,-25.698],[-162.565,-26.178],[-162.706,-26.657],[-162.847,-27.137],[-162.99,-27.616],[-163.134,-28.096],[-163.28,-28.575],[-163.427,-29.053],[-163.575,-29.532],[-163.725,-30.011],[-163.876,-30.489],[-164.028,-30.967],[-164.017,-31.428],[-164.005,-31.888],[-163.993,-32.348],[-163.981,-32.808],[-163.969,-33.268],[-163.957,-33.728]]}},{"type":"Feature","properties":{"boundary_type":"subduction","feature_type":"gpml:SubductionZone","polarity":"Right","overriding_plate_id":101,"subducting_plate_id":90107,"plate_ids":[101,90107],"name":"NorthChina_SZ"},"geometry":{"type":"LineString","coordinates":[[-82.282,22.543],[-82.009,22.326],[-81.737,22.109],[-81.466,21.706],[-81.198,21.302],[-80.93,20.898],[-80.664,20.493],[-80.4,20.088],[-80.137,19.683],[-79.875,19.277],[-79.614,18.871],[-79.557,18.402],[-79.5,17.932],[-79.443,17.463],[-79.386,16.993],[-79.33,16.524],[-79.274,16.054],[-79.219,15.585],[-79.163,15.115],[-79.108,14.645],[-79.053,14.176],[-79.296,13.776],[-79.538,13.375],[-79.779,12.974],[-80.019,12.573],[-80.259,12.172],[-80.498,11.771],[-80.736,11.369],[-80.974,10.968],[-81.21,10.566],[-81.447,10.164],[-81.682,9.761],[-81.917,9.359],[-82.152,8.956],[-82.498,8.618],[-82.843,8.279],[-83.187,7.94],[-83.531,7.6],[-83.874,7.26],[-84.217,6.92],[-84.559,6.58],[-84.901,6.24],[-85.242,5.899],[-85.583,5.558]]}},{"type":"Feature","properties":{"boundary_type":"subduction","feature_type":"gpml:SubductionZone","polarity":"Right","overriding_plate_id":101,"subducting_plate_id":80101,"plate_ids":[101,80101],"name":"SouthAustralia_SZ"},"geometry":{"type":"LineString","coordinates":[[-87.851,53.748],[-87.705,53.36],[-87.537,52.911],[-87.373,52.462],[-87.211,52.012],[-87.053,51.563],[-86.898,51.113],[-86.746,50.663],[-86.597,50.213],[-86.45,49.762],[-86.558,49.274],[-86.663,48.786],[-86.766,48.297],[-86.867,47.809],[-86.966,47.32],[-87.064,46.832],[-87.16,46.343],[-87.254,45.854],[-87.346,45.365],[-87.437,44.876],[-87.526,44.387],[-87.614,43.898],[-87.7,43.409]]}},{"type":"Feature","properties":{"boundary_type":"subduction","feature_type":"gpml:SubductionZone","polarity":"Left","overriding_plate_id":201,"subducting_plate_id":90106,"plate_ids":[201,90106],"name":"Amazonia_SZ"},"geometry":{"type":"LineString","coordinates":[[-163.303,22.864],[-163.83,22.811],[-164.356,22.757],[-164.882,22.701],[-165.407,22.643],[-165.932,22.584],[-166.457,22.523],[-166.981,22.46],[-167.504,22.395],[-168.007,22.227],[-168.509,22.056],[-169.009,21.885],[-169.509,21.711],[-170.007,21.537],[-170.503,21.36],[-170.999,21.183],[-171.494,21.004],[-171.987,20.823],[-172.479,20.641],[-172.97,20.458],[-173.46,20.273],[-173.948,20.087],[-174.435,19.899],[-174.922,19.711],[-175.407,19.521],[-175.891,19.329],[-176.374,19.137],[-176.855,18.943],[-177.336,18.748],[-177.815,18.551],[-178.294,18.354],[-178.771,18.155],[-179.247,17.955],[-179.722,17.754],[179.804,17.552],[179.331,17.348],[178.859,17.144],[178.388,16.938],[177.918,16.732],[177.45,16.524],[176.982,16.315],[176.515,16.106],[176.049,15.895],[175.584,15.683],[175.121,15.47],[174.658,15.257],[174.196,15.042],[173.735,14.827],[173.274,14.61],[172.815,14.393],[172.357,14.174],[171.9,13.955],[171.443,13.735],[170.987,13.514],[170.532,13.293],[170.078,13.07],[169.625,12.847],[169.173,12.623],[168.721,12.398],[168.27,12.173],[167.82,11.946],[167.371,11.719],[166.922,11.492],[166.475,11.263],[166.027,11.034],[165.581,10.805],[165.135,10.574],[164.69,10.343],[164.246,10.112],[163.802,9.88],[163.359,9.647],[162.916,9.414],[162.474,9.18],[162.033,8.945],[161.592,8.71],[161.152,8.475],[160.712,8.239],[160.273,8.003],[159.834,7.766],[159.396,7.528],[158.958,7.291],[158.521,7.053],[158.084,6.814],[157.648,6.575]]}},{"type":"Feature","properties":{"boundary_type":"subduction","feature_type":"gpml:SubductionZone","polarity":"Left","overriding_plate_id":201,"subducting_plate_id":90105,"plate_ids":[201,90105],"name":"Amazonia_SZ"},"geometry":{"type":"LineString","coordinates":[[157.648,6.575],[157.214,6.337],[156.78,6.098],[156.346,5.859],[155.913,5.619],[155.48,5.379],[155.048,5.139],[154.616,4.899],[154.184,4.658],[153.752,4.417],[153.321,4.176],[152.89,3.935],[152.459,3.693],[152.029,3.451],[151.598,3.209],[151.168,2.967],[150.739,2.724],[150.309,2.482],[149.879,2.239],[149.45,1.996],[149.021,1.753],[148.591,1.51],[148.162,1.267],[147.733,1.024],[147.304,0.781],[146.875,0.537],[146.447,0.294],[146.018,0.051],[145.696,-0.33],[145.375,-0.711],[145.053,-1.092],[144.731,-1.473],[144.41,-1.854],[144.088,-2.235],[143.766,-2.616],[143.443,-2.997],[143.121,-3.378],[142.798,-3.758],[142.475,-4.139],[142.152,-4.519],[141.828,-4.899],[141.504,-5.279],[141.18,-5.659],[140.855,-6.038],[140.529,-6.418],[140.203,-6.797],[139.877,-7.176],[139.55,-7.555],[139.223,-7.934],[138.895,-8.312],[138.566,-8.69],[138.237,-9.068],[137.907,-9.445],[137.576,-9.822],[137.244,-10.199],[136.912,-10.576],[136.579,-10.952],[136.245,-11.327],[135.91,-11.703],[135.574,-12.078],[135.238,-12.452],[134.9,-12.827],[134.561,-13.2],[134.222,-13.574],[133.881,-13.947],[133.539,-14.319],[133.196,-14.691],[132.852,-15.062],[132.506,-15.433],[132.16,-15.803],[131.812,-16.173],[131.463,-16.542],[131.112,-16.911],[130.76,-17.279],[130.407,-17.646],[130.052,-18.013],[129.696,-18.379],[129.338,-18.745],[128.979,-19.11],[128.618,-19.474],[128.255,-19.837],[127.891,-20.2],[127.525,-20.561],[127.158,-20.923],[126.788,-21.283],[126.56,-21.734],[126.331,-22.184],[126.1,-22.634],[125.868,-23.083],[125.634,-23.533],[125.399,-23.982],[125.162,-24.43],[124.923,-24.879],[124.682,-25.326],[124.44,-25.774],[124.196,-26.221],[123.95,-26.667],[123.702,-27.114],[123.452,-27.559],[123.2,-28.005],[122.946,-28.45],[122.69,-28.894],[122.431,-29.338],[122.171,-29.781],[121.999,-30.236],[121.826,-30.69],[121.651,-31.143],[121.475,-31.597],[121.297,-32.05],[121.117,-32.504],[120.935,-32.956],[120.752,-33.409],[120.566,-33.861],[120.379,-34.313],[120.189,-34.765],[119.997,-35.216],[119.804,-35.668],[119.608,-36.118],[119.41,-36.569],[119.209,-37.019],[119.006,-37.469],[118.801,-37.918],[118.593,-38.368],[118.544,-38.856],[118.494,-39.345],[118.444,-39.834],[118.393,-40.322],[118.341,-40.811],[118.288,-41.3],[118.235,-41.788],[118.18,-42.277],[118.125,-42.765],[118.069,-43.254],[118.012,-43.742],[117.955,-44.231],[117.896,-44.719],[117.836,-45.208],[117.775,-45.696],[117.883,-46.166],[117.992,-46.636],[118.104,-47.106],[118.217,-47.576],[118.332,-48.045],[118.45,-48.515],[118.57,-48.984],[118.692,-49.453],[118.816,-49.922],[118.943,-50.391],[119.072,-50.86],[119.204,-51.329],[119.339,-51.797],[119.476,-52.265],[119.617,-52.734],[119.76,-53.202],[120.177,-53.625],[120.602,-54.048],[121.035,-54.469],[121.478,-54.888],[121.93,-55.306],[122.392,-55.722],[122.863,-56.136],[123.345,-56.548],[123.838,-56.958],[124.341,-57.367],[124.856,-57.773],[125.382,-58.178],[125.92,-58.58],[126.471,-58.979],[127.035,-59.377],[127.612,-59.772],[128.203,-60.164],[128.808,-60.553],[129.428,-60.94],[130.063,-61.324],[130.713,-61.705],[131.38,-62.083],[132.064,-62.457],[132.765,-62.828],[133.483,-63.195],[134.22,-63.559],[134.976,-63.919],[135.752,-64.274],[136.547,-64.626],[137.364,-64.973],[138.202,-65.316],[139.061,-65.653],[139.943,-65.986],[140.849,-66.314],[141.778,-66.636],[142.731,-66.953],[143.709,-67.263],[144.712,-67.568],[145.742,-67.866],[146.798,-68.158],[147.88,-68.443]]}},{"type":"Feature","properties":{"boundary_type":"subduction","feature_type":"gpml:SubductionZone","polarity":"Left","overriding_plate_id":101,"subducting_plate_id":90106,"plate_ids":[101,90106],"name":"Eastern_Laurentia_SZ"},"geometry":{"type":"LineString","coordinates":[[-161.66,76.268],[-162.656,75.987],[-163.405,75.55],[-164.111,75.111],[-164.778,74.67],[-165.408,74.227],[-166.005,73.782],[-166.57,73.336],[-167.107,72.888],[-167.617,72.439],[-167.818,71.976],[-168.01,71.514],[-168.193,71.051],[-168.367,70.587],[-168.533,70.124],[-168.692,69.661],[-168.845,69.197],[-168.991,68.733],[-169.131,68.27],[-169.265,67.806],[-169.394,67.342],[-169.519,66.877],[-169.638,66.413],[-169.745,65.92],[-169.848,65.427],[-169.947,64.934],[-170.043,64.441],[-170.135,63.948],[-170.224,63.455],[-170.309,62.961],[-170.393,62.468],[-170.473,61.975],[-170.551,61.481],[-170.626,60.988],[-170.699,60.494],[-170.784,60.033],[-170.866,59.572],[-170.947,59.111],[-171.025,58.65],[-171.101,58.189],[-171.175,57.728],[-171.247,57.267],[-171.318,56.805],[-171.387,56.344],[-171.454,55.883],[-171.519,55.421],[-171.388,54.945],[-171.26,54.468],[-171.135,53.991],[-171.012,53.515],[-170.893,53.037],[-170.775,52.56],[-170.661,52.083],[-170.549,51.606],[-170.439,51.128],[-170.331,50.651],[-170.226,50.173],[-169.997,49.706],[-169.772,49.239],[-169.552,48.771],[-169.335,48.303],[-169.123,47.835],[-168.914,47.366],[-168.709,46.897],[-168.507,46.427],[-168.309,45.957],[-168.115,45.487],[-167.923,45.016],[-167.735,44.546],[-167.549,44.074],[-167.367,43.603],[-167.158,43.14],[-166.953,42.676],[-166.751,42.213],[-166.551,41.749],[-166.355,41.284],[-166.161,40.819],[-165.97,40.354],[-165.782,39.889],[-165.596,39.423],[-165.412,38.957],[-165.231,38.491],[-165.053,38.024],[-164.876,37.557]]}},{"type":"Feature","properties":{"boundary_type":"subduction","feature_type":"gpml:SubductionZone","polarity":"Left","overriding_plate_id":101,"subducting_plate_id":90107,"plate_ids":[101,90107],"name":"South_NorthAustralia_SZ"},"geometry":{"type":"LineString","coordinates":[[-82.282,22.543],[-82.219,23.031],[-82.156,23.52],[-82.091,24.008],[-82.027,24.497],[-81.962,24.985],[-81.896,25.474],[-81.83,25.962],[-81.763,26.45],[-81.696,26.939],[-81.628,27.427],[-81.559,27.915],[-81.49,28.404]]}},{"type":"Feature","properties":{"boundary_type":"subduction","feature_type":"gpml:SubductionZone","polarity":"Left","overriding_plate_id":101,"subducting_plate_id":90106,"plate_ids":[101,90106],"name":"South_NorthAustralia_SZ"},"geometry":{"type":"LineString","coordinates":[[-81.49,28.404],[-81.422,28.88],[-81.353,29.357],[-81.284,29.834],[-81.213,30.311],[-81.143,30.788],[-81.071,31.265],[-80.999,31.742],[-80.926,32.218],[-80.852,32.695],[-80.778,33.172],[-80.785,33.196]]}},{"type":"Feature","properties":{"boundary_type":"subduction","feature_type":"gpml:SubductionZone","polarity":"Left","overriding_plate_id":101,"subducting_plate_id":80101,"plate_ids":[101,80101],"name":"South_NorthAustralia_SZ"},"geometry":{"type":"LineString","coordinates":[[-80.785,33.196],[-80.927,33.664],[-81.071,34.131],[-81.216,34.598],[-81.362,35.065],[-81.511,35.532],[-81.661,35.998],[-81.813,36.465],[-81.967,36.931],[-82.123,37.397],[-82.28,37.863],[-82.44,38.328],[-82.602,38.793],[-82.766,39.259],[-82.932,39.723],[-83.1,40.188],[-83.271,40.652],[-83.744,40.967],[-84.222,41.279],[-84.705,41.59],[-85.192,41.898],[-85.684,42.205],[-86.181,42.509],[-86.682,42.811],[-87.189,43.111],[-87.7,43.409]]}},{"type":"Feature","properties":{"boundary_type":"subduction","feature_type":"gpml:SubductionZone","polarity":"Left","overriding_plate_id":101,"subducting_plate_id":80101,"plate_ids":[101,80101],"name":"NorthwesternMawson_SZ"},"geometry":{"type":"LineString","coordinates":[[-87.851,53.748],[-87.35,54.137],[-86.84,54.524],[-86.321,54.909],[-85.791,55.291],[-85.251,55.671],[-84.651,56.035],[-84.039,56.395],[-83.416,56.753],[-82.78,57.107],[-82.133,57.458]]}},{"type":"Feature","properties":{"boundary_type":"subduction","feature_type":"gpml:SubductionZone","polarity":"Left","overriding_plate_id":101,"subducting_plate_id":90106,"plate_ids":[101,90106],"name":"NorthwesternMawson_SZ"},"geometry":{"type":"LineString","coordinates":[[-82.133,57.458],[-81.555,57.763],[-80.966,58.065],[-80.368,58.365],[-79.768,58.693],[-79.156,59.017],[-78.533,59.339],[-77.898,59.658],[-77.251,59.974],[-76.591,60.286],[-76.08,60.672],[-75.556,61.055],[-75.019,61.437],[-74.468,61.816],[-73.904,62.193],[-73.326,62.568],[-73.249,63.042],[-73.17,63.517],[-73.088,63.992],[-73.003,64.467],[-72.915,64.941],[-73.432,65.356],[-73.965,65.768],[-74.515,66.179],[-75.083,66.588],[-75.67,66.994],[-76.278,67.399],[-76.906,67.801],[-77.556,68.2],[-78.228,68.597],[-79.166,68.915],[-80.131,69.227],[-81.124,69.534],[-82.145,69.835],[-83.195,70.13],[-84.276,70.419],[-85.387,70.701],[-86.53,70.976],[-87.704,71.244],[-88.911,71.504],[-90.151,71.757],[-91.261,72.085],[-92.41,72.407],[-93.601,72.722],[-94.834,73.03],[-96.11,73.33],[-97.432,73.622],[-98.799,73.906],[-100.214,74.181],[-101.676,74.446],[-103.187,74.701],[-104.746,74.946],[-106.355,75.179],[-107.815,75.456],[-109.328,75.724],[-110.898,75.982],[-112.523,76.229],[-114.206,76.465],[-115.946,76.69],[-117.743,76.902],[-119.596,77.102],[-121.504,77.288],[-123.467,77.46],[-125.48,77.617],[-127.542,77.759],[-129.649,77.886],[-131.949,77.903],[-134.253,77.902],[-136.552,77.882],[-138.84,77.842],[-141.11,77.785],[-143.356,77.708],[-145.571,77.614],[-147.751,77.502],[-149.889,77.373],[-151.982,77.227],[-154.026,77.065],[-156.018,76.887],[-157.955,76.695],[-159.836,76.488],[-161.66,76.268]]}},{"type":"Feature","properties":{"boundary_type":"ridge","feature_type":"gpml:MidOceanRidge","polarity":null,"overriding_plate_id":null,"subducting_plate_id":null,"plate_ids":[101,77021],"name":"Azania-Congo ridge"},"geometry":{"type":"LineString","coordinates":[[-143.689,-70.977],[-143.116,-70.522],[-142.569,-70.066],[-142.046,-69.608],[-141.544,-69.149],[-141.063,-68.688],[-140.602,-68.226],[-140.159,-67.762],[-139.733,-67.298],[-139.323,-66.832],[-138.929,-66.365],[-138.549,-65.898],[-138.183,-65.429],[-137.829,-64.96],[-137.488,-64.49],[-137.158,-64.019],[-136.839,-63.547],[-136.531,-63.075],[-136.233,-62.602],[-135.943,-62.128],[-135.663,-61.654],[-135.391,-61.179],[-135.128,-60.704],[-134.872,-60.228],[-134.623,-59.752],[-134.381,-59.275],[-134.146,-58.798],[-133.918,-58.321],[-133.695,-57.843],[-133.478,-57.364],[-133.267,-56.886],[-133.062,-56.407],[-132.861,-55.927],[-132.665,-55.448],[-132.474,-54.968],[-132.287,-54.487],[-132.105,-54.007],[-131.927,-53.526],[-131.753,-53.045],[-131.583,-52.564],[-131.416,-52.082],[-131.253,-51.6],[-131.094,-51.118],[-130.938,-50.636],[-130.785,-50.153],[-130.635,-49.671],[-129.88,-49.569],[-129.128,-49.463],[-128.379,-49.351],[-128.365,-48.855],[-128.351,-48.359],[-128.337,-47.863],[-128.323,-47.368],[-128.31,-46.872],[-128.297,-46.376],[-128.284,-45.88],[-128.272,-45.384],[-128.259,-44.888],[-128.247,-44.392],[-128.235,-43.896],[-128.223,-43.4],[-128.212,-42.904],[-128.2,-42.409],[-128.189,-41.913],[-128.178,-41.417],[-127.552,-41.359],[-126.928,-41.297],[-126.978,-40.823],[-127.027,-40.349],[-127.075,-39.875],[-127.123,-39.401],[-127.17,-38.926],[-127.216,-38.452],[-127.262,-37.978],[-127.307,-37.504],[-127.352,-37.029],[-127.396,-36.555],[-127.439,-36.081],[-127.482,-35.606],[-127.525,-35.132],[-127.942,-35.17],[-128.359,-35.206],[-128.777,-35.241],[-128.844,-34.75],[-128.91,-34.258],[-128.975,-33.767]]}},{"type":"Feature","properties":{"boundary_type":"subduction","feature_type":"gpml:SubductionZone","polarity":"Right","overriding_plate_id":101,"subducting_plate_id":90107,"plate_ids":[101,90107],"name":"SaoFrancisco_SZ"},"geometry":{"type":"LineString","coordinates":[[-75.022,-13.981],[-74.904,-14.465],[-74.786,-14.949],[-74.667,-15.433],[-74.547,-15.917],[-74.427,-16.401],[-74.307,-16.885],[-74.185,-17.368],[-74.117,-17.861],[-74.047,-18.354],[-73.978,-18.847],[-73.908,-19.34],[-73.837,-19.833],[-73.767,-20.326],[-73.695,-20.818],[-73.623,-21.311],[-73.551,-21.804],[-73.478,-22.297],[-73.405,-22.789],[-73.331,-23.282],[-73.257,-23.774],[-73.182,-24.267],[-73.107,-24.76],[-73.031,-25.252],[-72.954,-25.745],[-72.876,-26.237],[-72.798,-26.729],[-72.72,-27.222],[-72.64,-27.714],[-72.56,-28.206],[-72.479,-28.698],[-72.398,-29.19],[-72.232,-29.655],[-72.065,-30.12],[-71.896,-30.584],[-71.726,-31.048],[-71.553,-31.512],[-71.38,-31.975],[-71.204,-32.438],[-71.027,-32.902],[-70.847,-33.364],[-70.666,-33.827],[-70.483,-34.289],[-70.298,-34.751],[-70.11,-35.213],[-69.921,-35.674],[-69.729,-36.136],[-69.536,-36.596],[-69.339,-37.057],[-69.141,-37.517],[-68.937,-37.966],[-68.731,-38.416],[-68.523,-38.864],[-68.311,-39.313],[-68.097,-39.76],[-67.881,-40.208],[-67.661,-40.655],[-67.438,-41.102],[-67.213,-41.548],[-66.984,-41.994],[-66.752,-42.439],[-66.517,-42.884],[-66.278,-43.329],[-66.036,-43.772],[-65.79,-44.216],[-65.54,-44.659],[-65.287,-45.101],[-65.151,-45.583],[-65.012,-46.064],[-64.872,-46.546],[-64.728,-47.027],[-64.582,-47.508],[-64.434,-47.989],[-64.282,-48.47],[-64.128,-48.95],[-63.971,-49.431],[-63.811,-49.911],[-63.647,-50.391],[-63.48,-50.87],[-63.31,-51.35],[-63.136,-51.829],[-62.958,-52.308],[-62.776,-52.786],[-62.59,-53.265],[-62.401,-53.743],[-62.206,-54.22],[-62.007,-54.698],[-61.804,-55.175],[-61.595,-55.652],[-61.382,-56.128],[-61.163,-56.604],[-61.266,-57.1],[-61.372,-57.596],[-61.481,-58.091],[-61.593,-58.587],[-61.708,-59.082],[-61.826,-59.578],[-61.948,-60.073],[-62.074,-60.568],[-62.204,-61.063],[-62.337,-61.558],[-62.475,-62.052],[-62.618,-62.547],[-62.765,-63.041],[-62.918,-63.536],[-63.076,-64.03],[-63.24,-64.524],[-63.409,-65.017],[-63.585,-65.511],[-63.768,-66.004],[-63.958,-66.497],[-64.156,-66.99],[-64.362,-67.483],[-64.576,-67.975],[-64.8,-68.467],[-65.575,-68.88],[-66.378,-69.289],[-67.213,-69.695],[-68.079,-70.096],[-68.98,-70.493],[-69.916,-70.885],[-70.89,-71.273],[-71.904,-71.655],[-72.958,-72.031],[-74.056,-72.402],[-75.199,-72.766],[-76.39,-73.124],[-77.63,-73.474],[-78.921,-73.817],[-80.267,-74.152],[-81.668,-74.478],[-83.127,-74.795],[-84.646,-75.102],[-86.226,-75.399],[-87.846,-75.629],[-89.516,-75.848],[-91.236,-76.055],[-93.006,-76.249],[-94.823,-76.431],[-96.687,-76.599],[-98.596,-76.753]]}},{"type":"Feature","properties":{"boundary_type":"subduction","feature_type":"gpml:SubductionZone","polarity":"Right","overriding_plate_id":101,"subducting_plate_id":90105,"plate_ids":[101,90105],"name":"SaoFrancisco_SZ"},"geometry":{"type":"LineString","coordinates":[[-98.596,-76.753],[-100.677,-76.901],[-102.803,-77.033],[-104.968,-77.146],[-107.169,-77.242],[-109.399,-77.319],[-111.652,-77.378],[-113.923,-77.417],[-116.204,-77.437],[-118.489,-77.438],[-120.771,-77.419]]}},{"type":"Feature","properties":{"boundary_type":"subduction","feature_type":"gpml:SubductionZone","polarity":"Right","overriding_plate_id":101,"subducting_plate_id":90107,"plate_ids":[101,90107],"name":"Cathaysia_SZ"},"geometry":{"type":"LineString","coordinates":[[-85.583,5.558],[-85.466,5.101],[-85.348,4.645],[-85.231,4.188],[-85.115,3.731],[-84.998,3.275],[-84.881,2.818],[-84.765,2.361],[-84.648,1.904],[-84.532,1.448],[-84.415,0.991],[-84.299,0.534],[-84.183,0.077],[-84.066,-0.379],[-83.95,-0.836],[-83.834,-1.293],[-83.562,-1.712],[-83.29,-2.131],[-83.017,-2.55],[-82.745,-2.969],[-82.472,-3.387],[-82.199,-3.806],[-81.926,-4.225],[-81.653,-4.643],[-81.379,-5.061],[-81.105,-5.48],[-80.83,-5.898],[-80.555,-6.316],[-80.28,-6.734],[-80.004,-7.151],[-79.728,-7.569],[-79.44,-7.977],[-79.151,-8.384],[-78.862,-8.792],[-78.572,-9.199],[-78.282,-9.606],[-77.99,-10.013],[-77.698,-10.419],[-77.406,-10.825],[-77.112,-11.231],[-76.818,-11.637],[-76.523,-12.042],[-76.227,-12.447],[-75.93,-12.852],[-75.632,-13.256],[-75.333,-13.66],[-75.022,-13.981]]}},{"type":"Feature","properties":{"boundary_type":"ridge","feature_type":"gpml:MidOceanRidge","polarity":null,"overriding_plate_id":null,"subducting_plate_id":null,"plate_ids":[201,911001],"name":""},"geometry":{"type":"LineString","coordinates":[[-158.493,-2.861],[-158.984,-2.902],[-159.476,-2.944],[-159.968,-2.985],[-160.46,-3.026],[-160.952,-3.067],[-161.444,-3.107],[-161.937,-3.148],[-162.429,-3.188],[-162.921,-3.228],[-163.413,-3.267],[-163.905,-3.307],[-164.398,-3.346],[-164.89,-3.385],[-165.383,-3.423],[-165.875,-3.462],[-166.367,-3.5],[-166.86,-3.538],[-167.353,-3.575],[-167.845,-3.613],[-168.338,-3.65],[-168.83,-3.687],[-169.323,-3.723],[-169.816,-3.759],[-170.309,-3.795],[-170.802,-3.831],[-171.294,-3.867],[-171.787,-3.902],[-172.28,-3.937],[-172.773,-3.971],[-173.266,-4.005],[-173.76,-4.039],[-174.253,-4.073],[-174.746,-4.106],[-175.239,-4.14],[-175.732,-4.172],[-176.226,-4.205],[-176.719,-4.237],[-177.212,-4.269],[-177.706,-4.3],[-178.199,-4.331],[-178.693,-4.362],[-179.186,-4.393],[-179.272,-4.885],[-179.357,-5.377],[-179.443,-5.869],[-179.529,-6.361],[-179.615,-6.854],[-179.702,-7.346],[-179.788,-7.838],[-179.875,-8.33],[-179.962,-8.822],[179.951,-9.314],[179.864,-9.806],[179.776,-10.298],[179.688,-10.79],[179.6,-11.282],[179.511,-11.774],[179.422,-12.266],[179.333,-12.757],[179.244,-13.249],[179.154,-13.741],[179.064,-14.233],[178.973,-14.725],[178.882,-15.216],[178.79,-15.708],[178.698,-16.199],[178.606,-16.691],[179.081,-16.752],[179.556,-16.812],[-179.968,-16.871],[-179.493,-16.929],[-179.017,-16.986],[-178.54,-17.042],[-178.064,-17.096],[-177.587,-17.15],[-177.11,-17.202],[-176.632,-17.253],[-176.726,-17.74],[-176.819,-18.226],[-176.914,-18.712],[-177.009,-19.198],[-177.104,-19.684],[-177.2,-20.17],[-177.297,-20.656],[-177.394,-21.142],[-177.492,-21.628],[-177.591,-22.113],[-177.69,-22.599],[-177.79,-23.085],[-177.89,-23.57],[-177.992,-24.056],[-178.094,-24.541],[-178.197,-25.026],[-178.301,-25.512],[-178.406,-25.997],[-178.511,-26.482],[-178.617,-26.967],[-178.725,-27.452],[-178.833,-27.937],[-178.942,-28.422],[-179.053,-28.907],[-179.164,-29.391],[-179.276,-29.876],[-179.39,-30.36],[-179.504,-30.844],[-179.62,-31.329],[-179.737,-31.813],[-179.855,-32.297],[-179.975,-32.781],[179.905,-33.265],[179.782,-33.748],[179.659,-34.232],[179.534,-34.715],[179.408,-35.199],[178.832,-35.088],[178.258,-34.976],[177.686,-34.86],[177.115,-34.742],[176.991,-35.227],[176.866,-35.712],[176.739,-36.197],[176.61,-36.682],[176.48,-37.167],[176.348,-37.652],[176.215,-38.136],[176.079,-38.621],[175.942,-39.105],[175.803,-39.589],[175.662,-40.073],[175.519,-40.557],[175.374,-41.04],[175.227,-41.524],[175.077,-42.007],[174.926,-42.49],[174.771,-42.972],[174.615,-43.455],[174.456,-43.937],[174.294,-44.419],[174.13,-44.901],[173.963,-45.383],[173.793,-45.864],[173.62,-46.346],[173.444,-46.826],[173.264,-47.307],[173.082,-47.787],[172.896,-48.267],[172.706,-48.747],[172.513,-49.226],[172.316,-49.706],[172.116,-50.184],[171.911,-50.663],[171.702,-51.141],[171.488,-51.618],[171.27,-52.095],[171.048,-52.572],[170.82,-53.049],[170.587,-53.525],[170.349,-54.0],[170.106,-54.475],[169.857,-54.95],[169.602,-55.424],[169.34,-55.897],[169.072,-56.37],[168.798,-56.842],[168.516,-57.314],[168.228,-57.785],[167.931,-58.255],[167.627,-58.725],[167.314,-59.194],[166.993,-59.662],[166.662,-60.129],[166.322,-60.596],[165.972,-61.061],[165.611,-61.526],[165.24,-61.99],[164.857,-62.452],[164.462,-62.914],[164.055,-63.374],[163.634,-63.833],[163.199,-64.291],[162.75,-64.748],[162.285,-65.203],[161.804,-65.657],[161.306,-66.109],[160.79,-66.56],[160.255,-67.008],[159.7,-67.455],[159.123,-67.9],[158.524,-68.343],[157.902,-68.784],[157.254,-69.222],[156.58,-69.657],[155.877,-70.09],[155.145,-70.521]]}},{"type":"Feature","properties":{"boundary_type":"subduction","feature_type":"gpml:SubductionZone","polarity":"Left","overriding_plate_id":77021,"subducting_plate_id":911001,"plate_ids":[77021,911001],"name":""},"geometry":{"type":"LineString","coordinates":[[-158.594,-34.407],[-158.627,-34.868],[-158.661,-35.329],[-158.695,-35.79],[-158.73,-36.251],[-158.765,-36.712],[-158.8,-37.173],[-158.836,-37.635],[-158.872,-38.096],[-158.909,-38.557],[-158.946,-39.018],[-158.984,-39.479],[-159.022,-39.94],[-159.061,-40.401],[-159.026,-40.899],[-158.991,-41.397],[-158.956,-41.895],[-158.92,-42.392],[-158.884,-42.89],[-158.847,-43.388],[-158.809,-43.886],[-158.771,-44.384],[-158.732,-44.881],[-158.692,-45.379],[-158.652,-45.877],[-158.611,-46.375],[-158.569,-46.872],[-158.526,-47.37],[-158.483,-47.868],[-158.439,-48.365],[-158.393,-48.863],[-158.347,-49.361],[-158.3,-49.858],[-158.252,-50.356],[-158.203,-50.853],[-158.046,-51.338],[-157.886,-51.823],[-157.722,-52.308],[-157.554,-52.793],[-157.383,-53.277],[-157.207,-53.761],[-157.028,-54.245],[-156.844,-54.728],[-156.656,-55.211],[-156.463,-55.694],[-156.265,-56.177],[-155.934,-56.615],[-155.595,-57.053],[-155.248,-57.489],[-154.893,-57.925],[-154.529,-58.359],[-154.156,-58.793],[-153.773,-59.225]]}},{"type":"Feature","properties":{"boundary_type":"transform","feature_type":"gpml:Transform","polarity":null,"overriding_plate_id":null,"subducting_plate_id":null,"plate_ids":[101,911001],"name":""},"geometry":{"type":"LineString","coordinates":[[-163.957,-33.728],[-163.366,-33.815],[-162.773,-33.899],[-162.179,-33.98],[-161.584,-34.058],[-160.988,-34.134],[-160.391,-34.206],[-159.793,-34.276],[-159.194,-34.343],[-158.594,-34.407]]}},{"type":"Feature","properties":{"boundary_type":"transform","feature_type":"gpml:Transform","polarity":null,"overriding_plate_id":null,"subducting_plate_id":null,"plate_ids":[101,77021],"name":""},"geometry":{"type":"LineString","coordinates":[[-158.594,-34.407],[-158.002,-34.466],[-157.409,-34.524],[-156.816,-34.578],[-156.221,-34.629],[-155.626,-34.678],[-155.031,-34.723],[-154.434,-34.766],[-153.837,-34.806],[-153.24,-34.843],[-152.642,-34.877],[-152.043,-34.908],[-151.445,-34.936],[-150.845,-34.961],[-150.246,-34.983],[-149.646,-35.002],[-149.045,-35.018],[-148.445,-35.032],[-147.844,-35.042],[-147.244,-35.05],[-146.643,-35.054],[-146.042,-35.056],[-145.441,-35.054],[-144.84,-35.05],[-144.24,-35.042],[-143.639,-35.032],[-143.039,-35.019],[-142.439,-35.002],[-141.839,-34.983],[-141.239,-34.961],[-140.64,-34.936],[-140.041,-34.908],[-139.442,-34.877],[-138.844,-34.843],[-138.247,-34.806],[-137.65,-34.766],[-137.066,-34.719],[-136.482,-34.668],[-135.899,-34.616],[-135.317,-34.56],[-134.736,-34.501],[-134.156,-34.44],[-133.576,-34.376],[-132.998,-34.309],[-132.42,-34.24],[-131.843,-34.168],[-131.267,-34.093],[-130.693,-34.015],[-130.119,-33.935],[-129.547,-33.852],[-128.975,-33.767]]}},{"type":"Feature","properties":{"boundary_type":"subduction","feature_type":"gpml:SubductionZone","polarity":"Right","overriding_plate_id":101,"subducting_plate_id":90105,"plate_ids":[101,90105],"name":""},"geometry":{"type":"LineString","coordinates":[[-120.771,-77.419],[-122.676,-77.147],[-124.501,-76.861],[-126.248,-76.563],[-127.919,-76.254],[-129.517,-75.934],[-131.044,-75.603],[-132.503,-75.264],[-133.897,-74.915],[-135.229,-74.559],[-136.501,-74.195],[-137.717,-73.824],[-138.88,-73.446],[-139.991,-73.062],[-141.055,-72.672],[-141.759,-72.252],[-142.431,-71.829],[-143.074,-71.404],[-143.689,-70.977]]}},{"type":"Feature","properties":{"boundary_type":"subduction","feature_type":"gpml:SubductionZone","polarity":"Right","overriding_plate_id":77021,"subducting_plate_id":90105,"plate_ids":[77021,90105],"name":""},"geometry":{"type":"LineString","coordinates":[[-143.689,-70.977],[-144.236,-70.579],[-144.762,-70.179],[-145.267,-69.779]]}},{"type":"Feature","properties":{"boundary_type":"subduction","feature_type":"gpml:SubductionZone","polarity":"Right","overriding_plate_id":77021,"subducting_plate_id":911001,"plate_ids":[77021,911001],"name":""},"geometry":{"type":"LineString","coordinates":[[-145.267,-69.779],[-145.801,-69.336],[-146.314,-68.893],[-146.806,-68.448],[-147.279,-68.001],[-147.735,-67.554],[-148.173,-67.104],[-148.596,-66.654],[-149.003,-66.203],[-149.396,-65.751],[-149.775,-65.297],[-150.142,-64.843],[-150.496,-64.388],[-150.839,-63.932],[-151.171,-63.476],[-151.492,-63.018],[-151.804,-62.56],[-152.106,-62.101],[-152.399,-61.642],[-152.683,-61.182],[-152.959,-60.721],[-153.228,-60.26],[-153.489,-59.798],[-153.743,-59.336],[-153.773,-59.225]]}},{"type":"Feature","properties":{"boundary_type":"subduction","feature_type":"gpml:SubductionZone","polarity":"Left","overriding_plate_id":101,"subducting_plate_id":201,"plate_ids":[101,201],"name":"Baltica_SZ"},"geometry":{"type":"LineString","coordinates":[[-163.048,19.446],[-162.811,19.038],[-162.576,18.628],[-162.342,18.219],[-162.11,17.809],[-161.878,17.399],[-161.647,16.989],[-161.417,16.578],[-161.18,16.17],[-160.943,15.762],[-160.707,15.354],[-160.473,14.945],[-160.239,14.536],[-160.006,14.127],[-159.774,13.717],[-159.542,13.308],[-159.312,12.898],[-159.082,12.488],[-158.969,12.036],[-158.856,11.584],[-158.744,11.132],[-158.632,10.68],[-158.52,10.228],[-158.409,9.776],[-158.298,9.324],[-158.187,8.872],[-158.076,8.42],[-158.128,7.964],[-158.179,7.508],[-158.23,7.052],[-158.281,6.596],[-158.332,6.14],[-158.383,5.684],[-158.433,5.228],[-158.484,4.772],[-158.534,4.315],[-158.585,3.859],[-158.635,3.403],[-158.686,2.947],[-158.674,2.485],[-158.662,2.022],[-158.65,1.559],[-158.638,1.097],[-158.626,0.634],[-158.614,0.171],[-158.602,-0.291],[-158.59,-0.754],[-158.578,-1.216],[-158.566,-1.679],[-158.553,-2.142],[-158.541,-2.604],[-158.493,-2.861]]}},{"type":"Feature","properties":{"boundary_type":"subduction","feature_type":"gpml:SubductionZone","polarity":"Left","overriding_plate_id":101,"subducting_plate_id":911001,"plate_ids":[101,911001],"name":"Baltica_SZ"},"geometry":{"type":"LineString","coordinates":[[-158.493,-2.861],[-158.403,-3.33],[-158.313,-3.799],[-158.223,-4.268],[-158.133,-4.738],[-158.043,-5.207],[-157.953,-5.676],[-157.863,-6.145],[-157.773,-6.614],[-157.682,-7.083],[-157.5,-7.492],[-157.317,-7.9],[-157.134,-8.309],[-156.951,-8.717],[-156.768,-9.125],[-156.584,-9.533]]}},{"type":"Feature","properties":{"boundary_type":"subduction","feature_type":"gpml:SubductionZone","polarity":"Right","overriding_plate_id":80101,"subducting_plate_id":90106,"plate_ids":[80101,90106],"name":""},"geometry":{"type":"LineString","coordinates":[[-28.865,53.815],[-28.822,53.597],[-28.752,53.141],[-28.684,52.685],[-28.617,52.228],[-28.552,51.772],[-28.488,51.316],[-28.425,50.86],[-28.363,50.404],[-28.303,49.948],[-28.372,49.461],[-28.44,48.975],[-28.507,48.488],[-28.572,48.002],[-28.636,47.515],[-28.699,47.029],[-28.761,46.542],[-28.822,46.055],[-28.882,45.569],[-29.207,45.18],[-29.527,44.791],[-29.844,44.4],[-30.156,44.009],[-30.464,43.617],[-30.768,43.224],[-31.068,42.83],[-31.364,42.436],[-31.657,42.041],[-31.946,41.645],[-32.344,41.255],[-32.737,40.864],[-33.126,40.472],[-33.511,40.079],[-33.89,39.684],[-34.266,39.288],[-34.637,38.891],[-35.004,38.493],[-35.368,38.093],[-35.727,37.693],[-36.183,37.354],[-36.635,37.014],[-37.083,36.673],[-37.527,36.329],[-37.967,35.985],[-38.403,35.638],[-38.836,35.29],[-39.265,34.94],[-39.776,34.701],[-40.284,34.46],[-40.79,34.217],[-41.292,33.972],[-41.792,33.725],[-42.289,33.476],[-42.782,33.225],[-43.273,32.972],[-43.762,32.717],[-44.197,32.57],[-44.631,32.423],[-45.063,32.274]]}},{"type":"Feature","properties":{"boundary_type":"transform","feature_type":"gpml:Transform","polarity":null,"overriding_plate_id":null,"subducting_plate_id":null,"plate_ids":[80101,90106],"name":""},"geometry":{"type":"LineString","coordinates":[[-82.133,57.458],[-81.251,57.591],[-80.364,57.718],[-79.47,57.839],[-78.57,57.953],[-77.664,58.061],[-76.754,58.163],[-75.838,58.258],[-74.917,58.347],[-73.992,58.428],[-73.063,58.504],[-72.13,58.572],[-71.194,58.634],[-70.254,58.688],[-69.312,58.736],[-68.367,58.778],[-67.421,58.812],[-66.472,58.839],[-65.522,58.859],[-64.572,58.872],[-63.621,58.879],[-62.669,58.878],[-61.718,58.87],[-60.768,58.856],[-59.818,58.834],[-58.87,58.805],[-57.924,58.77],[-56.979,58.727],[-56.038,58.678],[-55.099,58.622],[-54.163,58.559],[-53.231,58.489],[-52.302,58.412],[-51.378,58.329],[-50.459,58.239],[-49.544,58.143],[-48.634,58.04],[-47.73,57.931],[-46.831,57.815],[-45.939,57.693],[-45.052,57.565],[-44.172,57.43],[-43.298,57.29],[-42.431,57.143],[-41.571,56.991],[-40.719,56.832],[-39.873,56.668],[-39.035,56.498],[-38.205,56.323],[-37.382,56.142],[-36.568,55.956],[-35.761,55.764],[-34.962,55.567],[-34.171,55.365],[-33.388,55.158],[-32.614,54.946],[-31.848,54.729],[-31.089,54.508],[-30.34,54.281],[-29.598,54.05],[-28.865,53.815]]}},{"type":"Feature","properties":{"boundary_type":"transform","feature_type":"gpml:Transform","polarity":null,"overriding_plate_id":null,"subducting_plate_id":null,"plate_ids":[80101,90106],"name":""},"geometry":{"type":"LineString","coordinates":[[-80.785,33.196],[-80.195,33.266],[-79.604,33.333],[-79.012,33.397],[-78.419,33.458],[-77.825,33.516],[-77.23,33.572],[-76.635,33.624],[-76.039,33.674],[-75.443,33.721],[-74.845,33.765],[-74.247,33.806],[-73.649,33.845],[-73.05,33.88],[-72.451,33.913],[-71.851,33.942],[-71.251,33.969],[-70.65,33.993],[-70.049,34.013],[-69.448,34.031],[-68.846,34.046],[-68.245,34.058],[-67.643,34.068],[-67.041,34.074],[-66.439,34.077],[-65.837,34.077],[-65.235,34.075],[-64.633,34.069],[-64.032,34.061],[-63.43,34.049],[-62.828,34.035],[-62.227,34.018],[-61.626,33.998],[-61.026,33.975],[-60.425,33.949],[-59.825,33.92],[-59.226,33.888],[-58.627,33.853],[-58.028,33.815],[-57.43,33.775],[-56.833,33.732],[-56.236,33.685],[-55.64,33.636],[-55.044,33.584],[-54.45,33.529],[-53.856,33.472],[-53.263,33.411],[-52.67,33.348],[-52.079,33.282],[-51.489,33.213],[-50.899,33.141],[-50.311,33.067],[-49.723,32.989],[-49.137,32.909],[-48.551,32.827],[-47.967,32.741],[-47.384,32.653],[-46.802,32.562],[-46.221,32.469],[-45.641,32.372],[-45.063,32.274]]}},{"type":"Feature","properties":{"boundary_type":"subduction","feature_type":"gpml:SubductionZone","polarity":"Left","overriding_plate_id":201,"subducting_plate_id":90105,"plate_ids":[201,90105],"name":"Amazonia_SZ"},"geometry":{"type":"LineString","coordinates":[[147.88,-68.443],[148.705,-68.743],[149.552,-69.039],[150.422,-69.331],[151.315,-69.618],[152.233,-69.901],[153.175,-70.178],[154.152,-70.352],[155.145,-70.521]]}},{"type":"Feature","properties":{"boundary_type":"subduction","feature_type":"gpml:SubductionZone","polarity":"Left","overriding_plate_id":911001,"subducting_plate_id":90105,"plate_ids":[90105,911001],"name":"Amazonia_SZ"},"geometry":{"type":"LineString","coordinates":[[155.145,-70.521],[156.498,-70.737],[157.881,-70.944],[159.291,-71.14],[160.73,-71.325],[162.195,-71.499],[163.686,-71.661],[165.202,-71.812],[166.742,-71.95],[168.303,-72.077],[169.885,-72.19],[171.485,-72.291],[173.102,-72.379],[174.734,-72.453],[176.377,-72.514],[178.031,-72.561],[179.692,-72.595],[-178.642,-72.615],[-176.974,-72.62],[-175.306,-72.613],[-173.641,-72.591],[-171.981,-72.555],[-170.328,-72.506],[-168.686,-72.443],[-167.057,-72.367],[-165.442,-72.278],[-163.844,-72.175],[-162.265,-72.06],[-160.706,-71.932],[-159.17,-71.792],[-157.657,-71.639],[-156.17,-71.475],[-154.708,-71.3],[-153.273,-71.113],[-151.867,-70.916],[-150.488,-70.708],[-149.139,-70.49],[-147.819,-70.262],[-146.528,-70.025],[-145.267,-69.779]]}},{"type":"Feature","properties":{"boundary_type":"ridge","feature_type":"gpml:MidOceanRidge","polarity":null,"overriding_plate_id":null,"subducting_plate_id":null,"plate_ids":[90106,90107],"name":""},"geometry":{"type":"LineString","coordinates":[[-81.49,28.404],[-80.926,28.408],[-80.362,28.41],[-79.798,28.41],[-79.233,28.408],[-78.669,28.403],[-78.105,28.396],[-77.541,28.387],[-76.978,28.376],[-76.414,28.362],[-75.85,28.345],[-75.287,28.327],[-74.724,28.306],[-74.161,28.283],[-73.598,28.257],[-73.036,28.229],[-72.474,28.199],[-71.912,28.167],[-71.351,28.132],[-70.79,28.095],[-70.229,28.056],[-69.669,28.014],[-69.109,27.971],[-68.55,27.925],[-67.991,27.876],[-67.433,27.826],[-66.875,27.773],[-66.318,27.718],[-65.761,27.66],[-65.205,27.601],[-64.65,27.539],[-64.095,27.475],[-63.541,27.409],[-62.987,27.341],[-62.434,27.27],[-61.882,27.198],[-61.331,27.123],[-60.78,27.046],[-60.231,26.967],[-59.682,26.886],[-59.133,26.802],[-58.586,26.717],[-58.039,26.629],[-57.494,26.54],[-56.949,26.448],[-56.405,26.354],[-55.862,26.258],[-55.319,26.16],[-54.778,26.061],[-54.238,25.959],[-53.698,25.855],[-53.16,25.749],[-52.622,25.641],[-52.086,25.531],[-51.55,25.419],[-51.016,25.306],[-50.482,25.19],[-49.95,25.072],[-49.418,24.953],[-48.888,24.832],[-48.359,24.708],[-47.83,24.583],[-47.303,24.456],[-46.777,24.328],[-46.252,24.197],[-45.728,24.065],[-45.205,23.931],[-44.683,23.795],[-44.162,23.657],[-43.643,23.518],[-43.124,23.377],[-42.607,23.234],[-42.09,23.089],[-41.575,22.943],[-41.061,22.795],[-40.548,22.646],[-40.036,22.495],[-39.525,22.342],[-39.016,22.188],[-38.507,22.032],[-38.0,21.875],[-37.494,21.716],[-36.989,21.555],[-36.485,21.393],[-35.982,21.229],[-35.48,21.064],[-34.979,20.898],[-34.48,20.73],[-33.981,20.561],[-33.484,20.39],[-32.988,20.218],[-32.493,20.044],[-31.999,19.869],[-31.506,19.693],[-31.014,19.515],[-30.523,19.336],[-30.034,19.156],[-29.545,18.974],[-29.058,18.791],[-28.571,18.607],[-28.086,18.421],[-27.602,18.235],[-27.118,18.047],[-26.636,17.858],[-26.155,17.668],[-25.675,17.476],[-25.195,17.284],[-24.717,17.09],[-24.428,17.502],[-24.138,17.914],[-23.846,18.325],[-23.553,18.735],[-23.258,19.146],[-22.962,19.555],[-22.664,19.965],[-22.365,20.373],[-22.064,20.782],[-21.762,21.189],[-21.458,21.597],[-21.152,22.003],[-20.845,22.409],[-20.536,22.815],[-20.224,23.22],[-19.911,23.624],[-19.596,24.028],[-19.279,24.431],[-18.96,24.833],[-18.639,25.235],[-18.163,24.984],[-17.689,24.732],[-17.216,24.478],[-16.746,24.223],[-16.277,23.966],[-15.811,23.708],[-15.346,23.449],[-14.883,23.188],[-14.421,22.926],[-13.962,22.662],[-13.504,22.397],[-13.048,22.131],[-12.594,21.864],[-12.142,21.595],[-11.691,21.325],[-11.242,21.054],[-10.794,20.782],[-10.348,20.509],[-9.904,20.234],[-9.461,19.959],[-9.02,19.682],[-8.58,19.404],[-8.142,19.126],[-7.705,18.846],[-7.27,18.565],[-6.836,18.283],[-6.404,18.0],[-5.973,17.717],[-5.543,17.432],[-5.115,17.146],[-4.688,16.86],[-4.262,16.572],[-3.837,16.284],[-3.414,15.995],[-2.992,15.705],[-2.572,15.414],[-2.152,15.123],[-1.734,14.83],[-1.316,14.537],[-1.053,14.885],[-0.789,15.233],[-0.523,15.58],[-0.103,15.292],[0.317,15.004],[0.735,14.715],[1.152,14.425],[1.569,14.134],[1.984,13.842],[2.398,13.55],[2.811,13.258],[3.223,12.964],[3.634,12.67],[4.044,12.375],[4.454,12.08],[4.862,11.784],[5.269,11.487],[5.676,11.19],[6.082,10.893],[6.487,10.594],[6.891,10.296],[7.294,9.997],[7.697,9.697],[8.099,9.397],[8.5,9.096],[8.901,8.795],[9.301,8.494],[9.7,8.192],[10.099,7.89],[10.497,7.587],[10.894,7.284],[11.291,6.981],[11.688,6.677],[12.084,6.373],[12.479,6.069],[12.875,5.764],[13.269,5.459],[13.663,5.154],[14.057,4.849],[14.451,4.543],[14.844,4.237],[15.237,3.931],[15.63,3.625],[16.022,3.319],[16.414,3.012],[16.806,2.706],[17.197,2.399],[17.589,2.092],[17.98,1.785],[18.372,1.478],[18.763,1.171],[19.154,0.864],[19.545,0.556],[19.935,0.249],[20.326,-0.058],[20.717,-0.365],[21.108,-0.673],[21.499,-0.98],[21.89,-1.287],[22.281,-1.594],[22.673,-1.901],[23.064,-2.208],[23.456,-2.515],[23.847,-2.822],[24.239,-3.128]]}},{"type":"Feature","properties":{"boundary_type":"ridge","feature_type":"gpml:MidOceanRidge","polarity":null,"overriding_plate_id":null,"subducting_plate_id":null,"plate_ids":[90105,90107],"name":""},"geometry":{"type":"LineString","coordinates":[[26.211,-2.587],[26.124,-3.073],[26.036,-3.559],[25.949,-4.044],[25.861,-4.53],[25.774,-5.016],[25.686,-5.501],[25.598,-5.987],[25.51,-6.472],[25.422,-6.958],[25.333,-7.444],[25.245,-7.929],[25.156,-8.415],[25.067,-8.9],[24.978,-9.386],[24.888,-9.871],[24.798,-10.357],[24.708,-10.842],[24.618,-11.327],[24.527,-11.813],[24.436,-12.298],[24.345,-12.783],[24.253,-13.269],[24.161,-13.754],[24.069,-14.239],[23.976,-14.724],[23.883,-15.209],[23.789,-15.694],[23.695,-16.179],[23.6,-16.664],[23.505,-17.149],[23.41,-17.634],[23.313,-18.119],[23.217,-18.604],[23.12,-19.089],[23.022,-19.573],[22.924,-20.058],[22.825,-20.543],[22.725,-21.027],[22.625,-21.512],[22.524,-21.996],[22.422,-22.481],[22.32,-22.965],[22.217,-23.449],[22.113,-23.933],[22.009,-24.417],[21.903,-24.901],[21.797,-25.385],[21.69,-25.869],[21.582,-26.353],[21.473,-26.837],[21.364,-27.32],[21.253,-27.804],[21.141,-28.287],[21.028,-28.771],[20.915,-29.254],[20.8,-29.737],[20.684,-30.22],[20.567,-30.703],[20.448,-31.186],[20.329,-31.669],[20.208,-32.152],[19.648,-32.062],[19.089,-31.969],[18.531,-31.875],[17.974,-31.777],[17.418,-31.678],[16.864,-31.576],[16.718,-32.055],[16.572,-32.534],[16.423,-33.012],[16.273,-33.491],[16.122,-33.969],[15.968,-34.447],[15.813,-34.925],[15.656,-35.403],[15.498,-35.881],[15.337,-36.358],[15.174,-36.835],[15.01,-37.312],[14.843,-37.789],[14.674,-38.265],[14.503,-38.741],[14.329,-39.217],[14.153,-39.693],[13.975,-40.168],[13.794,-40.643],[13.611,-41.118],[13.424,-41.593],[13.236,-42.067],[13.044,-42.541],[12.849,-43.014],[12.652,-43.488],[12.451,-43.961],[12.247,-44.433],[12.04,-44.905],[11.829,-45.377],[11.614,-45.849],[11.397,-46.32],[11.175,-46.79],[10.949,-47.26],[10.719,-47.73],[10.486,-48.199],[10.247,-48.668],[10.005,-49.136],[9.757,-49.604],[9.505,-50.071],[9.248,-50.538],[8.986,-51.004],[8.719,-51.469],[8.446,-51.934],[8.167,-52.398],[7.882,-52.862],[8.65,-53.011],[9.423,-53.155],[10.201,-53.293],[10.984,-53.427],[10.716,-53.896],[10.442,-54.365],[10.161,-54.833],[9.874,-55.3],[9.58,-55.767],[9.279,-56.233],[8.97,-56.698],[8.654,-57.163],[8.33,-57.626],[7.997,-58.089],[7.656,-58.551],[7.305,-59.012],[6.945,-59.472],[6.575,-59.931],[6.195,-60.389],[5.804,-60.846],[5.402,-61.301],[4.987,-61.756],[4.561,-62.209],[4.121,-62.661],[3.668,-63.111],[3.2,-63.56],[2.718,-64.007],[2.22,-64.453],[1.705,-64.897],[1.173,-65.339],[0.623,-65.779],[0.054,-66.217],[-0.535,-66.653],[-1.145,-67.087],[-1.778,-67.518],[-2.433,-67.947],[-3.114,-68.373],[-3.82,-68.796],[-4.553,-69.216],[-5.316,-69.632],[-6.108,-70.046],[-6.933,-70.455],[-7.791,-70.861],[-8.685,-71.263],[-9.617,-71.66],[-10.588,-72.053],[-11.601,-72.44],[-12.657,-72.822],[-13.76,-73.199],[-14.912,-73.569],[-16.114,-73.933],[-17.371,-74.289],[-18.683,-74.638],[-20.055,-74.98],[-21.487,-75.312],[-22.984,-75.635],[-24.548,-75.949],[-26.179,-76.252],[-27.882,-76.544],[-29.657,-76.824],[-31.506,-77.091],[-33.43,-77.345],[-35.429,-77.584],[-37.503,-77.808],[-39.651,-78.016],[-41.87,-78.207],[-44.158,-78.381],[-46.51,-78.536],[-48.922,-78.671],[-51.387,-78.787],[-53.899,-78.882],[-56.448,-78.955],[-59.026,-79.008],[-61.624,-79.038],[-64.23,-79.046],[-66.835,-79.032],[-69.428,-78.996],[-72.0,-78.939],[-74.54,-78.859],[-77.041,-78.759],[-79.493,-78.638],[-81.89,-78.498],[-84.227,-78.338],[-86.497,-78.16],[-88.698,-77.964],[-90.827,-77.752],[-92.882,-77.524],[-94.861,-77.281],[-96.766,-77.024],[-98.596,-76.753]]}},{"type":"Feature","properties":{"boundary_type":"ridge","feature_type":"gpml:MidOceanRidge","polarity":null,"overriding_plate_id":null,"subducting_plate_id":null,"plate_ids":[90106,90107],"name":""},"geometry":{"type":"LineString","coordinates":[[24.239,-3.128],[24.634,-3.02],[25.028,-2.912],[25.422,-2.804],[25.817,-2.696],[26.211,-2.587]]}},{"type":"Feature","properties":{"boundary_type":"ridge","feature_type":"gpml:MidOceanRidge","polarity":null,"overriding_plate_id":null,"subducting_plate_id":null,"plate_ids":[90105,90106],"name":""},"geometry":{"type":"LineString","coordinates":[[26.211,-2.587],[26.685,-2.457],[27.159,-2.326],[27.632,-2.195],[28.106,-2.064],[28.579,-1.933],[29.053,-1.802],[29.526,-1.671],[30.0,-1.539],[30.473,-1.408],[30.946,-1.276],[31.419,-1.144],[31.893,-1.012],[32.366,-0.88],[32.839,-0.748],[33.312,-0.616],[33.785,-0.484],[34.258,-0.352],[34.731,-0.22],[35.204,-0.088],[35.677,0.044],[36.15,0.177],[36.623,0.309],[37.096,0.441],[37.569,0.573],[38.042,0.705],[38.515,0.837],[38.988,0.969],[39.461,1.101],[39.934,1.233],[40.407,1.364],[40.881,1.496],[41.354,1.628],[41.827,1.759],[42.301,1.89],[42.774,2.022],[43.248,2.153],[43.722,2.283],[44.195,2.414],[44.669,2.545],[45.143,2.675],[45.617,2.805],[46.092,2.935],[46.566,3.065],[47.04,3.195],[47.515,3.324],[47.989,3.453],[48.464,3.582],[48.939,3.711],[48.827,4.198],[48.715,4.684],[48.603,5.171],[48.49,5.657],[48.377,6.144],[48.264,6.63],[48.151,7.117],[48.038,7.603],[47.924,8.09],[47.811,8.576],[47.696,9.063],[47.582,9.549],[47.467,10.035],[47.352,10.522],[47.236,11.008],[47.121,11.494],[47.004,11.98],[46.888,12.466],[46.77,12.952],[47.267,13.057],[47.764,13.16],[48.262,13.262],[48.76,13.364],[49.259,13.464],[49.757,13.564],[50.257,13.662],[50.756,13.76],[51.257,13.856],[51.757,13.952],[52.258,14.046],[52.759,14.14],[53.261,14.232],[53.763,14.323],[54.266,14.414],[54.769,14.503],[55.272,14.591],[55.776,14.678],[56.28,14.764],[56.785,14.849],[57.29,14.933],[57.795,15.015],[58.301,15.097],[58.807,15.177],[59.314,15.257],[59.821,15.335],[60.328,15.412],[60.836,15.488],[61.344,15.562],[61.852,15.636],[62.361,15.708],[62.87,15.779],[63.379,15.849],[63.889,15.918],[64.399,15.986],[64.91,16.052],[65.421,16.118],[65.932,16.181],[66.443,16.244],[66.955,16.306],[67.467,16.366],[67.98,16.425],[68.493,16.483],[69.006,16.54],[69.519,16.595],[70.033,16.649],[70.547,16.702],[71.061,16.753],[71.575,16.804],[72.09,16.853],[72.605,16.9],[73.12,16.947],[73.636,16.992],[74.152,17.036],[74.668,17.078],[75.184,17.119],[75.701,17.159],[76.217,17.198],[76.734,17.235],[77.251,17.271],[77.769,17.306],[78.286,17.339],[78.804,17.371],[79.322,17.401],[79.84,17.431],[80.358,17.459],[80.876,17.485],[81.395,17.511],[81.914,17.535],[82.432,17.557],[82.951,17.578],[83.47,17.598],[83.989,17.617],[84.509,17.634],[85.028,17.65],[85.547,17.664],[86.067,17.677],[86.586,17.689],[87.106,17.699],[87.626,17.708],[88.146,17.716],[88.665,17.722],[89.185,17.727],[89.705,17.731],[90.225,17.733],[90.745,17.733],[91.265,17.733],[91.784,17.731],[92.304,17.728],[92.824,17.723],[93.344,17.717],[93.864,17.709],[94.383,17.701],[94.903,17.69],[95.423,17.679],[95.942,17.666],[96.461,17.652],[96.981,17.636],[97.5,17.619],[98.019,17.601],[98.538,17.581],[99.057,17.56],[99.576,17.538],[99.618,17.139],[99.66,16.74],[99.702,16.341],[99.744,15.942],[99.786,15.543],[100.303,15.524],[100.82,15.504],[101.337,15.482],[101.853,15.46],[102.37,15.436],[102.886,15.41],[103.403,15.384],[103.919,15.357],[104.435,15.328],[104.951,15.298],[105.467,15.267],[105.982,15.235],[106.498,15.201],[107.013,15.167],[107.528,15.131],[108.043,15.094],[108.558,15.056],[109.073,15.017],[109.587,14.976],[110.101,14.935],[110.615,14.892],[111.129,14.848],[111.643,14.803],[112.156,14.757],[112.669,14.71],[113.182,14.661],[113.695,14.612],[114.207,14.561],[114.719,14.509],[115.231,14.457],[115.743,14.403],[116.255,14.348],[116.766,14.291],[117.277,14.234],[117.787,14.176],[118.298,14.116],[118.808,14.056],[119.318,13.994],[119.828,13.932],[120.337,13.868],[120.846,13.803],[121.355,13.738],[121.863,13.671],[122.371,13.603],[122.879,13.534],[123.387,13.464],[123.894,13.393],[124.401,13.321],[124.908,13.248],[125.414,13.174],[125.92,13.099],[126.426,13.023],[126.932,12.946],[127.437,12.869],[127.942,12.79],[128.446,12.71],[128.95,12.629],[129.454,12.547],[129.958,12.465],[130.461,12.381],[130.964,12.297],[131.467,12.211],[131.969,12.125],[132.471,12.038],[132.972,11.95],[133.474,11.861],[133.975,11.771],[134.475,11.68],[134.976,11.588],[135.475,11.496],[135.975,11.402],[136.474,11.308],[136.973,11.213],[137.472,11.117],[137.97,11.021],[138.468,10.923],[138.966,10.825],[139.463,10.726],[139.96,10.626],[140.457,10.525],[140.953,10.424],[141.449,10.322],[141.945,10.219],[142.441,10.115],[142.936,10.01],[143.43,9.905],[143.925,9.799],[144.419,9.693],[144.913,9.585],[145.406,9.477],[145.899,9.369],[146.392,9.259],[146.885,9.149],[147.377,9.038],[147.869,8.927],[148.361,8.815],[148.852,8.702],[149.343,8.589],[149.834,8.475],[150.324,8.361],[150.814,8.245],[151.304,8.13],[151.794,8.013],[152.283,7.896],[152.772,7.779],[153.261,7.661],[153.749,7.542],[154.238,7.423],[154.726,7.304],[155.213,7.183],[155.701,7.063],[156.188,6.942],[156.675,6.82],[157.162,6.698],[157.648,6.575]]}}]}