{"type":"FeatureCollection","meta":{"model":"Cao2024","reconstruction_time_ma":875.0,"anchor_plate_id":0,"pygplates_version":"1.0.0","tessellate_degrees":0.5,"polarity_convention":"gpml:subductionPolarity. 'Left'/'Right' names the side of the line, in vertex order, on which the OVERRIDING plate lies. Triangles are drawn on that side.","antimeridian":"Lines are NOT split at +/-180 deg. The renderer works in 3D unit vectors where the dateline is not special; splitting would only add spurious breaks. Do not treat this as RFC 7946 GIS-ready 2D data."},"features":[{"type":"Feature","properties":{"boundary_type":"subduction","feature_type":"gpml:SubductionZone","polarity":"Left","overriding_plate_id":77144,"subducting_plate_id":9804,"plate_ids":[9804,77144],"name":"Iskel arc"},"geometry":{"type":"LineString","coordinates":[[-51.577,-6.921],[-51.442,-7.328],[-51.307,-7.736],[-51.171,-8.143],[-50.889,-8.522],[-50.607,-8.9],[-50.324,-9.278],[-50.041,-9.656],[-49.757,-10.033],[-49.472,-10.411],[-49.187,-10.788],[-48.901,-11.164],[-48.614,-11.541],[-48.209,-11.749],[-47.803,-11.957],[-47.396,-12.164],[-46.988,-12.37],[-46.58,-12.576],[-46.172,-12.781],[-45.76,-12.866],[-45.349,-12.95],[-44.937,-13.033],[-44.524,-13.116],[-44.044,-13.153],[-43.563,-13.189],[-43.082,-13.224],[-42.76,-13.567],[-42.438,-13.909],[-42.114,-14.251],[-41.789,-14.592],[-41.464,-14.933],[-41.137,-15.274],[-40.85,-15.617],[-40.563,-15.961],[-40.274,-16.303],[-39.985,-16.646],[-39.605,-16.972],[-39.224,-17.297],[-38.842,-17.622]]}},{"type":"Feature","properties":{"boundary_type":"subduction","feature_type":"gpml:SubductionZone","polarity":"Left","overriding_plate_id":715,"subducting_plate_id":9804,"plate_ids":[715,9804],"name":"Iskel arc"},"geometry":{"type":"LineString","coordinates":[[-38.842,-17.622],[-38.544,-17.873],[-38.246,-18.124],[-37.946,-18.375],[-37.762,-18.817],[-37.578,-19.26],[-37.392,-19.702],[-37.205,-20.144],[-37.017,-20.585],[-36.828,-21.027],[-36.637,-21.468],[-36.446,-21.909],[-36.253,-22.35],[-36.06,-22.791],[-35.965,-23.242],[-35.87,-23.694],[-35.774,-24.146],[-35.678,-24.597],[-35.581,-25.048],[-35.483,-25.5],[-35.385,-25.951]]}},{"type":"Feature","properties":{"boundary_type":"subduction","feature_type":"gpml:SubductionZone","polarity":"Right","overriding_plate_id":101,"subducting_plate_id":98041,"plate_ids":[101,98041],"name":"Proto Avalonia SZ"},"geometry":{"type":"LineString","coordinates":[[-179.831,-48.216],[-179.09,-48.274],[-178.347,-48.327],[-177.603,-48.376],[-176.857,-48.419],[-176.11,-48.458],[-175.363,-48.492],[-174.614,-48.521],[-173.97,-48.58],[-173.324,-48.636],[-172.677,-48.688],[-172.029,-48.736],[-171.379,-48.781],[-170.729,-48.822],[-170.036,-48.984],[-169.339,-49.141],[-168.638,-49.294],[-167.932,-49.443],[-167.222,-49.587],[-166.508,-49.727],[-165.79,-49.863],[-165.068,-49.994],[-164.342,-50.121],[-163.612,-50.243],[-162.879,-50.36],[-162.142,-50.473],[-161.401,-50.581],[-160.728,-50.781],[-160.05,-50.977],[-159.366,-51.169],[-158.676,-51.357],[-157.98,-51.541],[-157.279,-51.721],[-156.573,-51.897],[-155.861,-52.068],[-155.143,-52.235],[-154.42,-52.398],[-153.692,-52.556],[-152.959,-52.71],[-152.221,-52.859],[-151.477,-53.004],[-150.729,-53.144],[-149.976,-53.279],[-149.218,-53.409],[-148.501,-53.667],[-147.775,-53.92],[-147.04,-54.169],[-146.296,-54.414],[-145.544,-54.653],[-144.782,-54.888],[-144.012,-55.119],[-143.233,-55.344],[-142.445,-55.564],[-141.649,-55.779],[-140.843,-55.989],[-140.029,-56.194],[-139.207,-56.393],[-138.375,-56.587],[-137.536,-56.775],[-136.876,-57.073],[-136.206,-57.366],[-135.525,-57.656],[-134.833,-57.942],[-134.13,-58.225],[-133.416,-58.503],[-132.69,-58.778],[-131.953,-59.048],[-131.205,-59.314],[-130.444,-59.576],[-129.672,-59.833],[-128.888,-60.086],[-128.092,-60.334],[-127.284,-60.577],[-126.464,-60.815]]}},{"type":"Feature","properties":{"boundary_type":"subduction","feature_type":"gpml:SubductionZone","polarity":"Right","overriding_plate_id":101,"subducting_plate_id":9804,"plate_ids":[101,9804],"name":"Proto Avalonia SZ"},"geometry":{"type":"LineString","coordinates":[[-126.464,-60.815],[-125.943,-60.962],[-125.417,-61.107],[-124.488,-61.328],[-123.545,-61.543],[-122.59,-61.752],[-121.621,-61.953],[-120.64,-62.148],[-119.647,-62.336],[-118.641,-62.517],[-117.624,-62.69],[-116.594,-62.856],[-115.554,-63.014],[-114.502,-63.164],[-113.439,-63.307],[-112.366,-63.442],[-111.284,-63.568],[-110.192,-63.687],[-109.091,-63.797],[-108.041,-63.894],[-106.983,-63.983],[-105.92,-64.065],[-104.85,-64.139],[-103.775,-64.205],[-102.695,-64.263],[-101.611,-64.313],[-100.523,-64.355],[-99.432,-64.388],[-98.339,-64.414],[-97.244,-64.432],[-96.148,-64.441],[-95.052,-64.443],[-93.956,-64.436],[-92.86,-64.421],[-91.936,-64.693],[-90.994,-64.959],[-90.032,-65.219],[-89.052,-65.473],[-88.053,-65.721],[-87.035,-65.961],[-85.998,-66.195],[-84.942,-66.422],[-84.054,-66.736],[-83.144,-67.045],[-82.21,-67.349],[-81.253,-67.647],[-80.272,-67.939],[-79.265,-68.225],[-78.234,-68.506],[-77.177,-68.779],[-76.093,-69.046],[-74.984,-69.306],[-73.848,-69.558],[-72.685,-69.803],[-71.495,-70.04],[-70.279,-70.27],[-69.035,-70.49],[-67.765,-70.702],[-66.468,-70.905],[-65.144,-71.099],[-64.02,-71.29],[-62.874,-71.475],[-61.706,-71.652],[-60.516,-71.822]]}},{"type":"Feature","properties":{"boundary_type":"subduction","feature_type":"gpml:SubductionZone","polarity":"Left","overriding_plate_id":501,"subducting_plate_id":980421,"plate_ids":[501,980421],"name":"Jiangang SZ"},"geometry":{"type":"LineString","coordinates":[[-141.672,43.083],[-141.403,43.214]]}},{"type":"Feature","properties":{"boundary_type":"subduction","feature_type":"gpml:SubductionZone","polarity":"Left","overriding_plate_id":501,"subducting_plate_id":456,"plate_ids":[456,501],"name":"Jiangang SZ"},"geometry":{"type":"LineString","coordinates":[[-141.403,43.214],[-140.905,43.453],[-140.403,43.69],[-139.896,43.925],[-139.386,44.157],[-138.872,44.388],[-138.354,44.616],[-137.838,44.913],[-137.317,45.209],[-136.791,45.502],[-136.259,45.792],[-135.722,46.08],[-135.179,46.366],[-134.63,46.649],[-134.076,46.929],[-133.516,47.207],[-132.949,47.482],[-132.377,47.754],[-131.812,47.981],[-131.241,48.205],[-130.666,48.427],[-130.085,48.645],[-129.5,48.861],[-128.909,49.074],[-128.313,49.283],[-127.712,49.49],[-127.222,49.848],[-126.723,50.205],[-126.218,50.559],[-125.704,50.911],[-125.183,51.261],[-124.654,51.609],[-123.993,51.691],[-123.329,51.77],[-122.663,51.845],[-121.994,51.916],[-121.324,51.983],[-120.651,52.047],[-120.033,52.325],[-119.407,52.599],[-118.773,52.871],[-118.131,53.138],[-117.481,53.403],[-116.823,53.663],[-116.162,53.892],[-115.494,54.117],[-114.819,54.339],[-114.137,54.556],[-113.447,54.77],[-112.75,54.98],[-112.046,55.185],[-111.334,55.387],[-110.505,55.469],[-109.672,55.545],[-108.836,55.615],[-107.997,55.68],[-107.156,55.739],[-106.312,55.792],[-105.465,55.84],[-104.617,55.882],[-103.848,55.792],[-103.082,55.697],[-102.32,55.598],[-101.562,55.494],[-100.808,55.385],[-100.058,55.272],[-99.313,55.154],[-98.449,55.174],[-97.584,55.187],[-96.719,55.194],[-95.853,55.196],[-94.988,55.191],[-94.194,55.25],[-93.398,55.304],[-92.6,55.352],[-91.8,55.396],[-90.998,55.434],[-90.308,55.633],[-89.61,55.829],[-88.906,56.02],[-88.195,56.207],[-87.476,56.391],[-86.695,56.474],[-85.911,56.552],[-85.123,56.625]]}},{"type":"Feature","properties":{"boundary_type":"subduction","feature_type":"gpml:SubductionZone","polarity":"Left","overriding_plate_id":501,"subducting_plate_id":505,"plate_ids":[501,505],"name":"Oman subduction zone"},"geometry":{"type":"LineString","coordinates":[[-82.974,57.847],[-82.234,57.603],[-81.503,57.356],[-80.932,57.03],[-80.37,56.702],[-79.819,56.372],[-79.277,56.039],[-78.744,55.703],[-78.22,55.366],[-77.794,54.981],[-77.377,54.594],[-76.967,54.206],[-76.565,53.817],[-76.171,53.426],[-76.1,52.941],[-76.03,52.457],[-75.962,51.972],[-75.885,51.514],[-75.81,51.056],[-75.737,50.599],[-75.665,50.141],[-75.594,49.683],[-75.525,49.225],[-75.457,48.767],[-75.036,48.377],[-74.622,47.985],[-74.214,47.592],[-73.813,47.198],[-73.417,46.802],[-73.027,46.405],[-72.642,46.007],[-72.263,45.607]]}},{"type":"Feature","properties":{"boundary_type":"subduction","feature_type":"gpml:SubductionZone","polarity":"Right","overriding_plate_id":505,"subducting_plate_id":580,"plate_ids":[505,580],"name":"Chu Yili-North Tianshan SZ"},"geometry":{"type":"LineString","coordinates":[[-61.534,4.436],[-61.854,4.816],[-62.173,5.196],[-62.493,5.576],[-62.814,5.956],[-63.135,6.336],[-63.456,6.716],[-63.778,7.095],[-64.156,7.389],[-64.533,7.682],[-64.912,7.976],[-65.291,8.268],[-65.67,8.561],[-66.05,8.853],[-66.431,9.145],[-66.812,9.436],[-67.194,9.727],[-67.577,10.017],[-67.96,10.307],[-68.344,10.597],[-68.704,10.898],[-69.063,11.199],[-69.424,11.5],[-69.786,11.8],[-70.148,12.099],[-70.511,12.399],[-70.875,12.697],[-71.239,12.995],[-71.605,13.293],[-71.971,13.59],[-72.339,13.887],[-72.707,14.183],[-73.08,14.452],[-73.453,14.72],[-73.827,14.987],[-74.203,15.254],[-74.579,15.521],[-74.956,15.786],[-75.391,16.026],[-75.826,16.264],[-76.263,16.502],[-76.7,16.739],[-77.139,16.974],[-77.579,17.209],[-78.02,17.443],[-78.462,17.676],[-78.905,17.908],[-79.35,18.139],[-79.795,18.369],[-80.242,18.598],[-80.69,18.826],[-81.068,19.173],[-81.447,19.519],[-81.827,19.865],[-82.21,20.209],[-82.594,20.553],[-82.98,20.896],[-83.277,21.274],[-83.576,21.652],[-83.876,22.029],[-84.178,22.406],[-84.482,22.782],[-84.787,23.158],[-85.094,23.533],[-85.403,23.908],[-85.713,24.281],[-86.026,24.655],[-86.34,25.027],[-86.656,25.399],[-87.037,25.722],[-87.421,26.044],[-87.806,26.365],[-88.194,26.686],[-88.584,27.005],[-88.976,27.323],[-89.37,27.639],[-89.767,27.955],[-90.166,28.27],[-90.567,28.583],[-90.971,28.896],[-91.377,29.207],[-91.786,29.516],[-92.232,29.794],[-92.681,30.07],[-93.133,30.344],[-93.587,30.617],[-94.044,30.888],[-94.503,31.158],[-94.965,31.426],[-95.43,31.692],[-95.897,31.956],[-96.367,32.219],[-96.84,32.48],[-97.315,32.74],[-97.87,32.823],[-98.426,32.903],[-98.982,32.982],[-99.54,33.057],[-100.098,33.13],[-100.658,33.201],[-101.218,33.269],[-101.779,33.335],[-102.341,33.398],[-102.904,33.458],[-103.467,33.516],[-104.031,33.572],[-104.596,33.625],[-105.162,33.675],[-105.728,33.723],[-106.295,33.768]]}},{"type":"Feature","properties":{"boundary_type":"subduction","feature_type":"gpml:SubductionZone","polarity":"Right","overriding_plate_id":456,"subducting_plate_id":580,"plate_ids":[456,580],"name":"Chu Yili-North Tianshan SZ"},"geometry":{"type":"LineString","coordinates":[[-106.295,33.768],[-106.763,33.803],[-107.231,33.837],[-107.699,33.869],[-108.142,33.86]]}},{"type":"Feature","properties":{"boundary_type":"subduction","feature_type":"gpml:SubductionZone","polarity":"Left","overriding_plate_id":715,"subducting_plate_id":501,"plate_ids":[501,715],"name":"SM subduction"},"geometry":{"type":"LineString","coordinates":[[-4.069,13.609],[-4.542,13.692],[-5.015,13.774],[-5.488,13.855],[-5.962,13.935],[-6.436,14.014],[-6.911,14.092],[-7.385,14.17],[-7.839,13.975],[-8.292,13.779],[-8.745,13.582],[-9.197,13.384],[-9.647,13.186],[-10.098,12.987],[-10.547,12.787],[-10.996,12.586],[-11.444,12.384],[-11.891,12.182],[-12.338,11.979],[-12.814,11.813],[-13.29,11.647],[-13.765,11.48],[-14.239,11.312],[-14.713,11.143],[-15.187,10.973],[-15.659,10.803],[-16.132,10.632],[-16.603,10.46],[-17.074,10.288],[-17.545,10.115],[-18.015,9.941],[-18.485,9.767],[-18.954,9.592],[-19.423,9.416],[-19.891,9.24],[-20.359,9.063],[-20.826,8.886],[-21.293,8.708],[-21.759,8.529],[-22.225,8.35],[-22.691,8.17],[-23.156,7.99],[-23.62,7.809],[-24.085,7.628],[-24.549,7.446],[-25.013,7.266],[-25.476,7.086],[-25.939,6.905],[-26.402,6.724],[-26.865,6.543],[-27.327,6.361],[-27.788,6.178],[-28.25,5.995],[-28.711,5.812],[-29.172,5.629],[-29.633,5.445],[-30.093,5.261],[-30.553,5.076],[-31.013,4.891],[-31.472,4.706],[-31.931,4.52],[-32.39,4.334],[-32.849,4.148]]}},{"type":"Feature","properties":{"boundary_type":"subduction","feature_type":"gpml:SubductionZone","polarity":"Left","overriding_plate_id":77144,"subducting_plate_id":501,"plate_ids":[501,77144],"name":"SM subduction"},"geometry":{"type":"LineString","coordinates":[[-32.849,4.148],[-33.284,3.972],[-33.719,3.795],[-34.153,3.618],[-34.587,3.44],[-35.021,3.263],[-35.455,3.085],[-35.889,2.907],[-36.323,2.729],[-36.756,2.551],[-37.19,2.373],[-37.623,2.194],[-38.078,2.104],[-38.533,2.014],[-38.989,1.923],[-39.444,1.832],[-39.899,1.742],[-40.354,1.651],[-40.809,1.56],[-41.264,1.469],[-41.719,1.378],[-42.174,1.287],[-42.628,1.195],[-43.083,1.104],[-43.538,1.013],[-43.938,0.731],[-44.339,0.449],[-44.739,0.168],[-45.139,-0.114]]}},{"type":"Feature","properties":{"boundary_type":"subduction","feature_type":"gpml:SubductionZone","polarity":"Left","overriding_plate_id":77144,"subducting_plate_id":9804,"plate_ids":[9804,77144],"name":"SM subduction"},"geometry":{"type":"LineString","coordinates":[[-45.139,-0.114],[-45.453,-0.335],[-45.767,-0.555],[-46.08,-0.776],[-46.449,-1.057],[-46.818,-1.338],[-47.186,-1.619],[-47.555,-1.899],[-47.924,-2.18],[-48.293,-2.461],[-48.662,-2.741],[-49.032,-3.022],[-49.401,-3.302],[-49.593,-3.651],[-49.785,-3.999],[-49.977,-4.348],[-50.169,-4.697],[-50.403,-5.068],[-50.637,-5.438],[-50.871,-5.809],[-51.106,-6.18],[-51.341,-6.55],[-51.577,-6.921]]}},{"type":"Feature","properties":{"boundary_type":"subduction","feature_type":"gpml:SubductionZone","polarity":"Left","overriding_plate_id":715,"subducting_plate_id":9804,"plate_ids":[715,9804],"name":"Goias Arc"},"geometry":{"type":"LineString","coordinates":[[-35.385,-25.951],[-34.921,-26.136],[-34.456,-26.32],[-33.99,-26.503],[-33.522,-26.683],[-33.053,-26.863],[-32.582,-27.04],[-32.11,-27.217],[-31.636,-27.391],[-31.245,-27.662],[-30.852,-27.932],[-30.457,-28.201],[-30.061,-28.468],[-29.662,-28.735],[-29.261,-29.0],[-28.858,-29.264],[-28.552,-29.585],[-28.244,-29.906],[-27.934,-30.226],[-27.622,-30.546],[-27.308,-30.865],[-26.991,-31.182],[-26.906,-31.627],[-26.821,-32.072],[-26.734,-32.516],[-26.647,-32.961],[-26.559,-33.406],[-26.469,-33.85],[-26.379,-34.294],[-26.212,-34.703],[-26.043,-35.111],[-25.872,-35.519],[-25.699,-35.927],[-25.525,-36.335],[-25.421,-36.76],[-25.316,-37.185],[-25.209,-37.61],[-25.102,-38.035],[-24.993,-38.459],[-24.89,-38.878],[-24.785,-39.297],[-24.679,-39.716],[-24.572,-40.135],[-24.464,-40.554],[-24.354,-40.972],[-24.417,-41.467],[-24.48,-41.961],[-24.544,-42.456],[-24.61,-42.95],[-24.652,-43.427],[-24.696,-43.903],[-24.739,-44.38],[-24.784,-44.857],[-24.768,-45.304],[-24.751,-45.752],[-24.734,-46.2],[-24.717,-46.647],[-24.7,-47.095],[-24.682,-47.542],[-24.464,-47.999],[-24.241,-48.455],[-24.015,-48.911],[-23.784,-49.366],[-23.55,-49.821],[-23.31,-50.275],[-23.066,-50.729],[-22.818,-51.182],[-22.564,-51.635],[-22.21,-52.045],[-21.849,-52.454],[-21.482,-52.862],[-21.107,-53.269],[-20.726,-53.674],[-20.437,-54.13],[-20.143,-54.586],[-19.842,-55.041],[-19.533,-55.496],[-19.218,-55.949],[-18.895,-56.402],[-18.565,-56.854],[-18.226,-57.305],[-17.879,-57.755],[-17.523,-58.204],[-17.158,-58.652]]}},{"type":"Feature","properties":{"boundary_type":"subduction","feature_type":"gpml:SubductionZone","polarity":"Left","overriding_plate_id":null,"subducting_plate_id":null,"plate_ids":[715],"name":"Goias Arc"},"geometry":{"type":"LineString","coordinates":[[-17.158,-58.652],[-16.803,-59.076]]}},{"type":"Feature","properties":{"boundary_type":"subduction","feature_type":"gpml:SubductionZone","polarity":"Right","overriding_plate_id":101,"subducting_plate_id":980421,"plate_ids":[101,980421],"name":"Taimyr SZ"},"geometry":{"type":"LineString","coordinates":[[-167.708,8.909],[-167.403,8.537],[-167.1,8.165],[-166.797,7.793],[-166.494,7.42],[-166.192,7.047],[-165.891,6.674],[-165.589,6.301],[-165.289,5.928],[-164.989,5.554],[-164.689,5.181],[-164.411,4.962],[-164.133,4.744]]}},{"type":"Feature","properties":{"boundary_type":"subduction","feature_type":"gpml:SubductionZone","polarity":"Right","overriding_plate_id":4012,"subducting_plate_id":980421,"plate_ids":[4012,980421],"name":"Taimyr SZ"},"geometry":{"type":"LineString","coordinates":[[-164.133,4.744],[-163.804,4.486],[-163.476,4.227],[-163.272,3.781],[-163.067,3.334],[-162.862,2.888],[-162.658,2.441],[-162.356,2.117],[-162.055,1.793],[-161.754,1.469],[-161.453,1.145],[-161.152,0.821],[-160.85,0.497],[-160.544,0.105],[-160.237,-0.288],[-159.931,-0.68],[-159.624,-1.073],[-159.318,-1.465],[-159.011,-1.857],[-158.846,-2.057]]}},{"type":"Feature","properties":{"boundary_type":"subduction","feature_type":"gpml:SubductionZone","polarity":"Right","overriding_plate_id":4012,"subducting_plate_id":98041,"plate_ids":[4012,98041],"name":"Taimyr SZ"},"geometry":{"type":"LineString","coordinates":[[-158.846,-2.057],[-158.536,-2.433],[-158.225,-2.809],[-157.915,-3.184],[-157.604,-3.56],[-157.293,-3.936],[-156.981,-4.311],[-156.669,-4.686],[-156.357,-5.062],[-156.044,-5.437]]}},{"type":"Feature","properties":{"boundary_type":"subduction","feature_type":"gpml:SubductionZone","polarity":"Right","overriding_plate_id":101,"subducting_plate_id":98041,"plate_ids":[101,98041],"name":"Taimyr SZ"},"geometry":{"type":"LineString","coordinates":[[-156.044,-5.437],[-155.744,-5.796],[-155.444,-6.156],[-155.143,-6.515],[-154.842,-6.874],[-154.561,-7.251],[-154.28,-7.628],[-153.998,-8.005],[-153.716,-8.382],[-153.434,-8.758],[-153.15,-9.134],[-152.867,-9.51],[-152.582,-9.886],[-152.456,-10.359],[-152.329,-10.833],[-152.202,-11.307],[-152.075,-11.78],[-151.947,-12.254],[-151.818,-12.727],[-151.689,-13.201],[-151.56,-13.674],[-151.43,-14.147],[-151.3,-14.621],[-151.169,-15.094],[-151.037,-15.567],[-150.905,-16.04],[-150.772,-16.513],[-150.639,-16.985],[-150.504,-17.458],[-150.37,-17.931],[-150.234,-18.403],[-150.098,-18.876],[-149.961,-19.348],[-150.187,-19.729],[-150.414,-20.109],[-150.643,-20.489],[-150.872,-20.869],[-151.103,-21.249],[-151.335,-21.628],[-151.568,-22.007],[-151.966,-22.338],[-152.366,-22.669],[-152.769,-22.998],[-153.173,-23.327],[-153.579,-23.654],[-153.987,-23.981],[-154.397,-24.306],[-154.809,-24.631],[-155.112,-24.981],[-155.416,-25.331],[-155.722,-25.68],[-156.03,-26.029],[-156.339,-26.377],[-156.65,-26.724],[-156.964,-27.071],[-157.279,-27.417],[-157.596,-27.762],[-157.946,-28.092],[-158.297,-28.421],[-158.651,-28.749],[-159.007,-29.077],[-159.366,-29.403],[-159.726,-29.728],[-160.089,-30.053],[-160.455,-30.376],[-160.823,-30.699],[-160.908,-30.761]]}},{"type":"Feature","properties":{"boundary_type":"subduction","feature_type":"gpml:SubductionZone","polarity":"Right","overriding_plate_id":101,"subducting_plate_id":5032,"plate_ids":[101,5032],"name":"Ocean arc outboard of Antarctica"},"geometry":{"type":"LineString","coordinates":[[86.34,14.0],[86.565,14.423],[86.791,14.847],[87.018,15.27],[87.246,15.693],[87.475,16.116],[87.704,16.539],[87.935,16.961],[88.167,17.383],[88.4,17.805],[88.634,18.226],[88.869,18.648],[89.106,19.068],[89.343,19.489],[89.669,19.85],[89.995,20.209],[90.324,20.569],[90.654,20.927],[90.986,21.285],[91.319,21.643]]}},{"type":"Feature","properties":{"boundary_type":"subduction","feature_type":"gpml:SubductionZone","polarity":"Right","overriding_plate_id":101,"subducting_plate_id":980421,"plate_ids":[101,980421],"name":"Ocean arc outboard of Antarctica"},"geometry":{"type":"LineString","coordinates":[[91.319,21.643],[91.657,22.003],[91.996,22.362],[92.338,22.721],[92.681,23.079],[93.026,23.436],[93.373,23.792],[93.8,24.032],[94.229,24.27],[94.66,24.507],[95.092,24.743],[95.526,24.977],[95.961,25.211],[96.399,25.443],[96.837,25.673],[97.278,25.903],[97.72,26.131],[98.164,26.358],[98.675,26.459],[99.186,26.56],[99.698,26.658],[100.212,26.754],[100.726,26.849],[101.24,26.941],[101.756,27.032],[102.273,27.121],[102.79,27.208],[103.308,27.293],[103.827,27.377],[104.347,27.458],[104.867,27.537],[105.388,27.615],[105.91,27.69],[106.446,27.556],[106.981,27.421],[107.514,27.283],[108.046,27.143],[108.576,27.001],[109.016,26.726],[109.455,26.449],[109.891,26.171],[110.325,25.892],[110.757,25.612],[111.187,25.33],[111.615,25.048],[112.041,24.764],[112.465,24.478],[112.887,24.192],[113.307,23.904],[113.726,23.615],[114.142,23.326]]}},{"type":"Feature","properties":{"boundary_type":"subduction","feature_type":"gpml:SubductionZone","polarity":"Right","overriding_plate_id":701,"subducting_plate_id":501,"plate_ids":[501,701],"name":"Azania-Congo ocean arc (slow convergence)"},"geometry":{"type":"LineString","coordinates":[[16.261,-2.068],[16.439,-2.499],[16.617,-2.929],[16.795,-3.359],[16.973,-3.789],[17.151,-4.22],[17.33,-4.65],[17.508,-5.08]]}},{"type":"Feature","properties":{"boundary_type":"subduction","feature_type":"gpml:SubductionZone","polarity":"Right","overriding_plate_id":701,"subducting_plate_id":5032,"plate_ids":[701,5032],"name":"Azania-Congo ocean arc (slow convergence)"},"geometry":{"type":"LineString","coordinates":[[17.508,-5.08],[17.674,-5.478],[17.84,-5.877],[18.007,-6.276],[18.173,-6.674],[18.34,-7.072],[18.507,-7.471],[18.791,-7.879],[19.076,-8.287],[19.361,-8.695],[19.646,-9.103],[19.932,-9.51],[20.219,-9.917],[20.507,-10.324],[20.795,-10.731],[21.084,-11.137],[21.374,-11.543],[21.665,-11.949],[21.957,-12.355],[22.249,-12.76],[22.543,-13.165],[22.837,-13.57],[23.133,-13.974],[23.429,-14.378],[23.727,-14.781],[24.025,-15.184],[24.325,-15.587],[24.626,-15.989],[24.928,-16.391],[25.232,-16.793],[25.537,-17.194],[25.843,-17.594],[26.15,-17.995],[26.459,-18.394],[26.769,-18.793],[27.081,-19.192],[27.444,-19.531],[27.808,-19.87],[28.174,-20.208],[28.541,-20.545],[28.91,-20.881],[29.281,-21.217],[29.653,-21.552],[30.027,-21.886],[30.403,-22.219],[30.781,-22.551],[31.16,-22.882],[31.542,-23.213],[31.925,-23.542],[32.31,-23.871],[32.697,-24.199],[33.079,-24.554],[33.463,-24.907],[33.849,-25.26],[34.237,-25.612],[34.628,-25.963],[35.021,-26.313],[35.416,-26.662],[35.814,-27.009],[36.214,-27.356],[36.617,-27.701],[37.022,-28.045],[37.43,-28.388],[37.841,-28.73],[38.254,-29.07],[38.67,-29.41],[39.089,-29.748],[39.495,-30.05],[39.904,-30.351],[40.316,-30.65],[40.73,-30.948],[41.147,-31.245],[41.566,-31.541],[41.988,-31.835],[42.413,-32.128],[42.922,-32.325],[43.432,-32.52],[43.946,-32.713],[44.461,-32.904],[44.979,-33.093],[45.499,-33.279],[46.021,-33.464],[46.545,-33.646],[47.071,-33.826],[47.6,-34.004],[48.131,-34.179],[48.664,-34.353],[49.199,-34.524],[49.737,-34.692],[50.276,-34.858],[50.818,-35.022]]}},{"type":"Feature","properties":{"boundary_type":"subduction","feature_type":"gpml:SubductionZone","polarity":"Left","overriding_plate_id":101,"subducting_plate_id":98041,"plate_ids":[101,98041],"name":"Valhalla Orogeny"},"geometry":{"type":"LineString","coordinates":[[163.411,-47.54],[163.762,-47.133],[164.108,-46.725],[164.448,-46.315],[164.784,-45.905],[165.115,-45.494],[165.253,-45.184],[165.389,-44.873],[165.427,-44.475],[165.464,-44.076],[165.501,-43.677],[165.538,-43.279],[165.699,-42.859],[165.858,-42.438],[166.015,-42.018],[166.17,-41.597],[166.362,-41.18],[166.552,-40.763],[166.74,-40.346],[166.925,-39.928],[166.87,-39.499],[166.815,-39.069],[166.761,-38.639],[166.708,-38.21],[166.785,-37.743],[166.862,-37.277],[166.806,-36.809],[166.751,-36.342],[166.697,-35.874],[166.98,-35.435],[167.259,-34.996],[167.536,-34.556],[167.81,-34.115],[168.082,-33.673],[168.35,-33.231],[168.323,-32.736],[168.296,-32.24],[168.269,-31.744]]}},{"type":"Feature","properties":{"boundary_type":"subduction","feature_type":"gpml:SubductionZone","polarity":"Right","overriding_plate_id":101,"subducting_plate_id":9804,"plate_ids":[101,9804],"name":"Proto Avalonia-Cadomia SZ"},"geometry":{"type":"LineString","coordinates":[[-60.516,-71.822],[-58.956,-71.724],[-57.413,-71.613],[-55.889,-71.489],[-54.385,-71.354],[-52.903,-71.207],[-51.444,-71.048],[-50.01,-70.878],[-48.6,-70.697],[-47.216,-70.506],[-45.859,-70.304],[-44.591,-70.057],[-43.353,-69.802],[-42.145,-69.537],[-40.967,-69.265],[-39.818,-68.985],[-38.699,-68.698],[-37.609,-68.403],[-36.547,-68.101],[-35.512,-67.793],[-34.505,-67.478],[-33.525,-67.157],[-32.57,-66.83],[-31.641,-66.498],[-30.736,-66.161],[-29.856,-65.818],[-28.972,-65.492],[-28.111,-65.161],[-27.271,-64.825],[-26.451,-64.485],[-25.652,-64.14],[-24.873,-63.791],[-24.113,-63.438],[-23.371,-63.081],[-22.648,-62.72],[-21.942,-62.355],[-21.253,-61.987],[-20.581,-61.616],[-19.925,-61.241],[-19.284,-60.864],[-18.658,-60.483],[-18.047,-60.099],[-17.843,-59.779],[-17.643,-59.458],[-17.448,-59.138]]}},{"type":"Feature","properties":{"boundary_type":"subduction","feature_type":"gpml:SubductionZone","polarity":"Right","overriding_plate_id":null,"subducting_plate_id":null,"plate_ids":[9804],"name":"Proto Avalonia-Cadomia SZ"},"geometry":{"type":"LineString","coordinates":[[-17.448,-59.138],[-17.302,-58.895],[-17.158,-58.652]]}},{"type":"Feature","properties":{"boundary_type":"subduction","feature_type":"gpml:SubductionZone","polarity":"Left","overriding_plate_id":606,"subducting_plate_id":980421,"plate_ids":[606,980421],"name":"Lhasa SZ"},"geometry":{"type":"LineString","coordinates":[[152.567,12.463],[152.253,12.723],[151.939,12.982],[151.545,13.272],[151.15,13.562],[150.755,13.851],[150.358,14.14],[149.96,14.428],[149.562,14.715],[149.227,15.053],[148.892,15.389],[148.556,15.726],[148.219,16.062],[147.88,16.397],[147.54,16.732],[147.133,16.939],[146.725,17.144],[146.315,17.35],[145.905,17.554],[145.494,17.757],[145.082,17.96],[144.669,18.162],[144.405,18.486],[144.141,18.81],[143.876,19.133],[143.478,19.4],[143.079,19.665],[142.678,19.93],[142.276,20.194],[141.873,20.457],[141.468,20.719],[141.062,20.98],[140.654,21.241],[140.245,21.5],[139.814,21.684],[139.381,21.868],[138.948,22.05],[138.513,22.232],[138.077,22.412],[137.64,22.59],[137.202,22.768],[136.762,22.945],[136.245,23.093],[135.726,23.239],[135.206,23.383],[134.685,23.526],[134.162,23.667],[133.639,23.806],[133.114,23.943],[132.589,24.079],[132.062,24.213],[131.534,24.345],[131.005,24.475],[130.475,24.604],[129.944,24.73],[129.412,24.855],[128.879,24.978],[128.347,25.017],[127.815,25.055],[127.282,25.091],[126.749,25.125],[126.216,25.157],[125.683,25.188],[125.149,25.216],[124.615,25.242],[124.081,25.267],[123.546,25.289],[123.012,25.31],[122.477,25.329],[121.942,25.345],[121.407,25.36],[120.872,25.373],[120.337,25.384],[119.802,25.393],[119.266,25.4],[118.731,25.405],[118.195,25.408],[117.66,25.41],[117.124,25.409],[116.589,25.406],[116.053,25.402],[115.608,25.348],[115.163,25.293],[114.719,25.236],[114.275,25.178],[113.831,25.119]]}},{"type":"Feature","properties":{"boundary_type":"subduction","feature_type":"gpml:SubductionZone","polarity":"Left","overriding_plate_id":101,"subducting_plate_id":980421,"plate_ids":[101,980421],"name":"North Qinling SZ"},"geometry":{"type":"LineString","coordinates":[[172.309,5.141],[171.832,5.272],[171.355,5.403],[170.878,5.533],[170.401,5.663],[169.923,5.793],[169.445,5.922],[168.967,6.051],[168.488,6.179],[168.01,6.307],[167.531,6.435],[167.052,6.562],[166.573,6.688],[166.093,6.814],[165.613,6.94],[165.133,7.065],[164.653,7.19],[164.172,7.314],[163.693,7.358],[163.214,7.4],[162.735,7.443],[162.255,7.484],[161.776,7.526],[161.297,7.567],[160.817,7.607],[160.337,7.646],[159.857,7.686],[159.378,7.724],[158.898,7.762],[158.418,7.8],[157.938,7.837],[157.457,7.873],[156.977,7.909],[156.497,7.945],[156.016,7.98],[155.517,8.023],[155.018,8.066],[154.519,8.108],[154.02,8.15],[153.521,8.191],[153.021,8.231],[152.522,8.271],[152.022,8.31]]}},{"type":"Feature","properties":{"boundary_type":"subduction","feature_type":"gpml:SubductionZone","polarity":"Left","overriding_plate_id":101,"subducting_plate_id":980421,"plate_ids":[101,980421],"name":"Ribnaya-Panimba SZ"},"geometry":{"type":"LineString","coordinates":[[-168.351,8.432],[-168.373,8.442],[-168.789,8.631],[-169.205,8.819],[-169.621,9.008],[-170.038,9.196],[-170.498,9.363],[-170.958,9.53],[-171.419,9.696],[-171.88,9.862],[-172.342,10.027],[-172.804,10.191],[-173.267,10.355],[-173.73,10.518],[-174.194,10.68],[-174.609,10.734],[-175.023,10.788],[-175.438,10.84],[-175.853,10.893],[-176.269,10.944],[-176.615,11.021],[-176.961,11.096],[-177.307,11.172],[-177.676,11.203],[-178.044,11.234],[-178.413,11.265],[-178.886,11.316],[-179.359,11.367],[-179.832,11.416],[179.695,11.465],[179.221,11.513],[178.747,11.56],[178.283,11.391],[177.819,11.221],[177.356,11.051],[176.893,10.88],[176.431,10.708],[175.969,10.535],[175.676,10.155],[175.384,9.775],[175.093,9.394],[174.802,9.013],[174.512,8.632],[174.222,8.251],[173.965,7.856],[173.708,7.461],[173.451,7.066],[173.195,6.671],[172.939,6.275],[172.684,5.88],[172.496,5.51],[172.309,5.141]]}},{"type":"Feature","properties":{"boundary_type":"ridge","feature_type":"gpml:MidOceanRidge","polarity":null,"overriding_plate_id":null,"subducting_plate_id":null,"plate_ids":[101,701],"name":"SF-Congo MOR"},"geometry":{"type":"LineString","coordinates":[[13.775,-53.816],[13.44,-53.49],[13.11,-53.163],[12.786,-52.835],[12.289,-53.018],[11.788,-53.199],[11.461,-52.811],[11.139,-52.422]]}},{"type":"Feature","properties":{"boundary_type":"ridge","feature_type":"gpml:MidOceanRidge","polarity":null,"overriding_plate_id":null,"subducting_plate_id":null,"plate_ids":[701,715],"name":"SF-Congo MOR"},"geometry":{"type":"LineString","coordinates":[[11.139,-52.422],[10.83,-52.041],[10.527,-51.66],[10.228,-51.278],[9.935,-50.895],[9.646,-50.511],[9.212,-50.668],[8.775,-50.823],[8.472,-50.435],[8.173,-50.047],[7.88,-49.657],[7.591,-49.267],[7.306,-48.876],[7.026,-48.484],[6.419,-48.66],[5.808,-48.833],[5.192,-49.003],[4.994,-48.619],[4.798,-48.235],[4.606,-47.851],[4.416,-47.466],[4.229,-47.081],[3.758,-47.174],[3.284,-47.265],[3.111,-46.864],[2.939,-46.463],[2.771,-46.061],[2.251,-46.181],[1.73,-46.299],[1.539,-45.877],[1.351,-45.454],[0.874,-45.528],[0.397,-45.6],[0.295,-45.183],[0.194,-44.765],[0.095,-44.347],[-0.567,-44.417],[-1.231,-44.484],[-1.897,-44.546],[-1.988,-44.159],[-2.078,-43.77],[-2.167,-43.382],[-2.749,-43.383],[-3.331,-43.381],[-3.913,-43.376],[-3.964,-42.978],[-4.015,-42.58],[-4.504,-42.536],[-4.993,-42.491],[-4.964,-42.086],[-4.936,-41.681],[-5.51,-41.524],[-6.081,-41.364],[-6.649,-41.201],[-7.215,-41.036],[-6.997,-40.599],[-7.42,-40.412],[-7.84,-40.224],[-8.258,-40.034],[-8.007,-39.577],[-7.759,-39.119],[-7.609,-38.89]]}},{"type":"Feature","properties":{"boundary_type":"ridge","feature_type":"gpml:MidOceanRidge","polarity":null,"overriding_plate_id":null,"subducting_plate_id":null,"plate_ids":[580,9804],"name":"Mirovoi MOR"},"geometry":{"type":"LineString","coordinates":[[-109.734,-41.64],[-109.813,-41.507]]}},{"type":"Feature","properties":{"boundary_type":"ridge","feature_type":"gpml:MidOceanRidge","polarity":null,"overriding_plate_id":null,"subducting_plate_id":null,"plate_ids":[580,98041],"name":"Mirovoi MOR"},"geometry":{"type":"LineString","coordinates":[[-109.813,-41.507],[-110.076,-41.06],[-110.335,-40.612],[-110.591,-40.164],[-110.843,-39.715],[-111.093,-39.265],[-111.339,-38.815],[-111.582,-38.364],[-111.822,-37.913],[-112.059,-37.462],[-112.293,-37.01],[-112.525,-36.557],[-112.753,-36.104],[-112.979,-35.651],[-113.203,-35.197],[-113.424,-34.743],[-113.643,-34.288],[-113.859,-33.833],[-114.073,-33.378],[-114.285,-32.922],[-114.494,-32.466],[-114.702,-32.01],[-114.907,-31.553],[-115.111,-31.096],[-115.312,-30.639],[-115.512,-30.181],[-115.71,-29.723],[-115.906,-29.265],[-116.1,-28.806],[-116.292,-28.347],[-116.483,-27.888],[-116.672,-27.429],[-116.86,-26.969],[-117.046,-26.509],[-117.231,-26.049],[-117.414,-25.589],[-117.596,-25.128],[-117.776,-24.668],[-117.955,-24.207],[-118.449,-24.28],[-118.944,-24.351],[-119.438,-24.421],[-119.934,-24.49],[-120.43,-24.556],[-120.926,-24.621],[-121.423,-24.685],[-121.921,-24.747],[-122.419,-24.807],[-122.539,-24.33],[-122.659,-23.853],[-122.778,-23.376],[-122.895,-22.899],[-123.012,-22.422],[-123.129,-21.945],[-123.244,-21.468],[-123.359,-20.991],[-123.472,-20.513],[-123.586,-20.036],[-123.698,-19.558],[-123.81,-19.081],[-123.921,-18.603],[-124.032,-18.125],[-124.142,-17.648],[-124.251,-17.17],[-124.36,-16.692],[-124.468,-16.214],[-124.576,-15.736],[-124.683,-15.258],[-124.79,-14.78],[-124.896,-14.302],[-125.002,-13.823],[-125.108,-13.345],[-125.213,-12.867],[-125.317,-12.388],[-125.422,-11.91],[-125.525,-11.432],[-125.629,-10.953],[-125.732,-10.475],[-125.835,-9.996],[-125.938,-9.518],[-126.04,-9.039],[-126.142,-8.56],[-126.244,-8.082],[-126.345,-7.603],[-126.446,-7.124],[-126.547,-6.646],[-126.648,-6.167],[-127.088,-6.34],[-127.529,-6.513],[-127.969,-6.686],[-128.41,-6.858],[-128.851,-7.03],[-129.293,-7.201],[-129.735,-7.372],[-130.177,-7.543],[-130.619,-7.713],[-131.062,-7.882],[-131.505,-8.052],[-131.949,-8.22],[-132.393,-8.389],[-132.601,-7.973],[-132.809,-7.558],[-133.017,-7.142],[-133.224,-6.727],[-133.431,-6.311],[-133.637,-5.895],[-133.843,-5.479],[-134.049,-5.063],[-134.255,-4.647],[-134.46,-4.231],[-134.665,-3.815]]}},{"type":"Feature","properties":{"boundary_type":"ridge","feature_type":"gpml:MidOceanRidge","polarity":null,"overriding_plate_id":null,"subducting_plate_id":null,"plate_ids":[580,9804],"name":"Mirovoi MOR"},"geometry":{"type":"LineString","coordinates":[[-109.734,-41.64],[-109.103,-41.539],[-108.475,-41.434],[-107.848,-41.326],[-107.224,-41.214],[-106.602,-41.099],[-105.982,-40.981],[-105.364,-40.859],[-104.749,-40.735],[-104.136,-40.606],[-103.525,-40.475],[-102.917,-40.341],[-102.311,-40.203],[-102.262,-39.804],[-102.213,-39.404],[-102.166,-39.005],[-102.118,-38.606],[-101.516,-38.467],[-100.916,-38.325],[-100.318,-38.18],[-99.723,-38.032],[-99.131,-37.881],[-98.54,-37.727],[-97.952,-37.57],[-97.367,-37.41],[-96.784,-37.247],[-96.204,-37.082],[-95.626,-36.914],[-95.051,-36.742],[-94.479,-36.569],[-93.909,-36.392],[-93.341,-36.213],[-92.776,-36.031],[-92.214,-35.846],[-91.655,-35.659],[-91.098,-35.469],[-90.544,-35.277],[-89.992,-35.082],[-89.443,-34.884],[-88.897,-34.685],[-88.353,-34.482],[-87.812,-34.278],[-87.274,-34.071],[-86.738,-33.861],[-86.205,-33.65],[-85.675,-33.436],[-85.147,-33.22],[-84.621,-33.001],[-84.099,-32.781],[-83.579,-32.558],[-83.061,-32.333],[-82.547,-32.106],[-82.034,-31.877],[-81.525,-31.646],[-81.017,-31.413],[-80.513,-31.178],[-80.01,-30.941],[-79.511,-30.702],[-79.014,-30.461],[-79.151,-29.987],[-79.287,-29.513],[-79.422,-29.039],[-79.555,-28.565],[-79.687,-28.091],[-79.818,-27.616],[-79.948,-27.142],[-80.077,-26.667],[-79.627,-26.381],[-79.178,-26.093],[-78.732,-25.804],[-78.288,-25.513],[-77.846,-25.222],[-77.407,-24.929],[-76.969,-24.634],[-76.533,-24.338],[-76.1,-24.042],[-75.668,-23.743],[-75.239,-23.444],[-74.811,-23.144],[-74.386,-22.842],[-73.962,-22.539],[-73.54,-22.235],[-73.12,-21.93],[-72.702,-21.624],[-72.285,-21.317],[-71.87,-21.009],[-71.457,-20.7],[-71.046,-20.39],[-70.636,-20.079],[-70.228,-19.767],[-69.821,-19.454],[-69.417,-19.14],[-69.013,-18.826],[-68.611,-18.51],[-68.211,-18.194],[-67.812,-17.877],[-67.414,-17.559],[-67.018,-17.24],[-66.623,-16.92],[-66.23,-16.6],[-65.838,-16.279],[-65.447,-15.957],[-65.057,-15.635],[-65.304,-15.213],[-65.55,-14.792],[-65.795,-14.37],[-66.039,-13.949],[-66.282,-13.527],[-66.524,-13.104],[-66.766,-12.682],[-67.006,-12.259],[-67.246,-11.836],[-67.485,-11.413],[-67.724,-10.989],[-67.961,-10.566],[-68.199,-10.142],[-68.435,-9.718],[-68.671,-9.294],[-68.906,-8.87],[-68.498,-8.59],[-68.09,-8.309],[-67.682,-8.028],[-67.276,-7.747],[-66.87,-7.465],[-66.464,-7.183],[-66.059,-6.901],[-65.654,-6.618],[-65.25,-6.335],[-64.846,-6.051],[-64.443,-5.768],[-64.04,-5.484],[-63.637,-5.199],[-63.235,-4.915],[-62.833,-4.63],[-62.432,-4.345],[-62.031,-4.06],[-61.63,-3.775],[-61.229,-3.489],[-60.829,-3.203],[-60.429,-2.917],[-60.029,-2.631],[-59.629,-2.345],[-59.229,-2.059],[-58.83,-1.772],[-58.43,-1.486],[-58.031,-1.199],[-57.632,-0.913],[-57.233,-0.626],[-57.442,-0.2],[-57.651,0.227],[-57.86,0.654],[-58.069,1.08],[-58.278,1.507],[-58.487,1.933],[-58.696,2.36],[-58.906,2.786],[-59.115,3.213],[-59.325,3.639]]}},{"type":"Feature","properties":{"boundary_type":"ridge","feature_type":"gpml:MidOceanRidge","polarity":null,"overriding_plate_id":null,"subducting_plate_id":null,"plate_ids":[505,9804],"name":"Mirovoi MOR"},"geometry":{"type":"LineString","coordinates":[[-59.325,3.639],[-59.455,3.903],[-59.059,4.184],[-58.663,4.465],[-58.267,4.745],[-57.87,5.026],[-57.473,5.306],[-57.075,5.585],[-56.678,5.865],[-56.28,6.144],[-55.881,6.423],[-55.482,6.701],[-55.082,6.98],[-54.682,7.258],[-54.282,7.535],[-53.881,7.812],[-53.479,8.089],[-53.077,8.366],[-52.675,8.642],[-52.271,8.917],[-51.868,9.192],[-51.463,9.467],[-51.058,9.741],[-50.652,10.015],[-50.246,10.289],[-49.839,10.561],[-49.431,10.834]]}},{"type":"Feature","properties":{"boundary_type":"ridge","feature_type":"gpml:MidOceanRidge","polarity":null,"overriding_plate_id":null,"subducting_plate_id":null,"plate_ids":[501,505],"name":"Mirovoi MOR"},"geometry":{"type":"LineString","coordinates":[[-49.431,10.834],[-49.02,11.107],[-48.609,11.379],[-48.196,11.651],[-47.783,11.923],[-47.369,12.193],[-46.955,12.464],[-46.539,12.733],[-46.122,13.002],[-45.705,13.27],[-45.287,13.538],[-44.867,13.805],[-44.447,14.071],[-44.026,14.336],[-44.188,14.773],[-44.35,15.209],[-44.513,15.645],[-44.677,16.081],[-44.841,16.517],[-45.006,16.952],[-45.172,17.388],[-44.711,17.608],[-44.249,17.826],[-43.786,18.043],[-43.322,18.26],[-42.856,18.475],[-42.389,18.689],[-41.922,18.902],[-41.453,19.113],[-40.982,19.324],[-40.511,19.533],[-40.038,19.741],[-39.564,19.948],[-39.089,20.153],[-38.613,20.358],[-38.135,20.56],[-37.656,20.762],[-37.176,20.962],[-36.695,21.161],[-36.212,21.359],[-35.728,21.555],[-35.243,21.75],[-34.756,21.943],[-34.268,22.135],[-33.779,22.326],[-33.288,22.515],[-32.952,22.703],[-32.615,22.89],[-32.278,23.076]]}},{"type":"Feature","properties":{"boundary_type":"ridge","feature_type":"gpml:MidOceanRidge","polarity":null,"overriding_plate_id":null,"subducting_plate_id":null,"plate_ids":[9804,98041],"name":"Mirovoi MOR"},"geometry":{"type":"LineString","coordinates":[[-126.464,-60.815],[-125.884,-60.409],[-125.319,-60.001],[-124.767,-59.59],[-124.229,-59.177],[-123.703,-58.762],[-123.191,-58.345],[-122.69,-57.926],[-122.2,-57.505],[-121.722,-57.082],[-121.255,-56.657],[-120.798,-56.231],[-120.351,-55.803],[-119.914,-55.373],[-119.486,-54.942],[-119.067,-54.509],[-118.658,-54.075],[-118.256,-53.64],[-117.863,-53.203],[-117.478,-52.765],[-117.1,-52.326],[-116.73,-51.886],[-116.367,-51.444],[-116.012,-51.001],[-115.662,-50.558],[-115.32,-50.113],[-114.983,-49.667],[-114.653,-49.22],[-114.329,-48.773],[-114.01,-48.324],[-113.697,-47.875],[-113.39,-47.425],[-113.087,-46.974],[-112.79,-46.522],[-112.497,-46.069],[-112.21,-45.616],[-111.927,-45.162],[-111.648,-44.708],[-111.374,-44.252],[-111.104,-43.796],[-110.838,-43.34],[-110.576,-42.882],[-110.318,-42.425],[-110.064,-41.966],[-109.813,-41.507]]}},{"type":"Feature","properties":{"boundary_type":"ridge","feature_type":"gpml:MidOceanRidge","polarity":null,"overriding_plate_id":null,"subducting_plate_id":null,"plate_ids":[101,4012],"name":"Central Taimyr Back arc"},"geometry":{"type":"LineString","coordinates":[[-167.053,3.158],[-166.843,2.78],[-166.633,2.402],[-166.423,2.025],[-166.213,1.647],[-166.003,1.269],[-165.794,0.891],[-166.136,0.687],[-165.908,0.257],[-165.681,-0.172],[-165.454,-0.602],[-165.227,-1.031],[-165.0,-1.461],[-164.772,-1.89],[-164.545,-2.32],[-164.317,-2.749],[-164.089,-3.179],[-163.861,-3.608],[-163.633,-4.037],[-163.405,-4.467],[-163.176,-4.896],[-162.947,-5.325],[-162.718,-5.754],[-162.488,-6.183],[-162.258,-6.612],[-162.028,-7.04],[-161.797,-7.469],[-161.532,-7.348],[-161.267,-7.227],[-161.093,-7.58],[-160.92,-7.933],[-160.746,-8.285]]}},{"type":"Feature","properties":{"boundary_type":"ridge","feature_type":"gpml:MidOceanRidge","polarity":null,"overriding_plate_id":null,"subducting_plate_id":null,"plate_ids":[456,980421],"name":"Mirovoi MOR"},"geometry":{"type":"LineString","coordinates":[[-141.403,43.214],[-141.191,42.79],[-140.981,42.366],[-140.775,41.941],[-140.57,41.516],[-140.369,41.091],[-140.17,40.665],[-139.974,40.239],[-139.78,39.813],[-140.348,39.586],[-140.912,39.357],[-141.473,39.125],[-142.03,38.891],[-142.583,38.653],[-143.133,38.414],[-143.679,38.171],[-144.221,37.926],[-144.759,37.679],[-145.295,37.429],[-145.826,37.177],[-145.581,36.73],[-145.339,36.283],[-145.099,35.835],[-144.862,35.387],[-144.628,34.938],[-144.397,34.489],[-144.168,34.039],[-143.941,33.589],[-143.717,33.138],[-143.494,32.688],[-143.275,32.236],[-143.057,31.785],[-142.841,31.333],[-142.628,30.88],[-142.417,30.427],[-142.207,29.974],[-141.999,29.521],[-141.794,29.067],[-141.59,28.613],[-141.388,28.159],[-141.187,27.704],[-140.988,27.249],[-140.791,26.794],[-140.595,26.339],[-140.401,25.883],[-140.209,25.427],[-140.018,24.971],[-140.465,24.724],[-140.911,24.476],[-141.355,24.226],[-141.797,23.976],[-141.619,23.503],[-141.442,23.031],[-141.266,22.558],[-141.092,22.085],[-140.918,21.612],[-140.746,21.139],[-140.575,20.665],[-140.404,20.192],[-140.235,19.718],[-140.067,19.244],[-139.9,18.77],[-139.734,18.296],[-139.568,17.821],[-139.404,17.347],[-139.24,16.872],[-139.078,16.397],[-138.916,15.922],[-138.754,15.447],[-138.594,14.972],[-138.434,14.497],[-138.275,14.022],[-138.117,13.546],[-137.959,13.071],[-137.802,12.595],[-137.645,12.119],[-137.489,11.643],[-137.333,11.167],[-137.178,10.691],[-137.024,10.215],[-136.87,9.739],[-136.716,9.263],[-136.563,8.787],[-136.41,8.31],[-136.258,7.834],[-136.106,7.357],[-135.954,6.881],[-135.802,6.404],[-135.651,5.928],[-135.5,5.451],[-135.35,4.974],[-135.199,4.498],[-135.049,4.021],[-134.899,3.544]]}},{"type":"Feature","properties":{"boundary_type":"ridge","feature_type":"gpml:MidOceanRidge","polarity":null,"overriding_plate_id":null,"subducting_plate_id":null,"plate_ids":[456,98041],"name":"Mirovoi MOR"},"geometry":{"type":"LineString","coordinates":[[-134.899,3.544],[-134.759,3.098],[-134.618,2.652],[-134.478,2.206],[-134.338,1.76],[-134.199,1.315],[-134.059,0.869],[-133.919,0.423],[-133.779,-0.023],[-133.64,-0.469],[-133.5,-0.915],[-133.36,-1.361],[-133.22,-1.807],[-133.08,-2.253]]}},{"type":"Feature","properties":{"boundary_type":"ridge","feature_type":"gpml:MidOceanRidge","polarity":null,"overriding_plate_id":null,"subducting_plate_id":null,"plate_ids":[501,980421],"name":"Mawson sea MOR"},"geometry":{"type":"LineString","coordinates":[[-163.865,43.004],[-164.283,43.393],[-164.706,43.781],[-165.135,44.167],[-165.569,44.551],[-166.009,44.934],[-166.455,45.314],[-166.907,45.694],[-167.365,46.071],[-167.83,46.446],[-168.301,46.82],[-168.778,47.192],[-169.262,47.561],[-169.753,47.929],[-170.252,48.294],[-170.757,48.657],[-171.269,49.018],[-171.789,49.377],[-172.317,49.733],[-172.852,50.087],[-173.396,50.439],[-173.947,50.787],[-174.507,51.134],[-175.075,51.477],[-175.652,51.818],[-176.237,52.156],[-176.832,52.49],[-177.435,52.822],[-178.048,53.151],[-178.67,53.477],[-179.302,53.799],[-179.943,54.118],[179.406,54.433],[178.744,54.745],[178.073,55.053],[177.391,55.358],[176.698,55.658],[175.995,55.955],[175.282,56.248],[174.557,56.536],[173.821,56.82],[173.074,57.1],[172.316,57.375],[171.546,57.646],[170.765,57.912],[169.972,58.173],[169.168,58.429],[168.352,58.68],[167.525,58.925],[166.686,59.166],[165.834,59.401],[164.972,59.63],[164.097,59.853],[163.211,60.071],[162.313,60.282],[161.404,60.488],[160.483,60.687],[159.551,60.88],[158.608,61.066],[158.265,60.675],[157.931,60.284],[157.604,59.892],[157.285,59.498],[156.974,59.105],[156.093,59.283],[155.203,59.455],[154.304,59.622],[153.396,59.782],[152.479,59.935],[151.554,60.083],[150.622,60.224],[149.681,60.358],[148.732,60.485],[147.777,60.606],[146.814,60.72],[145.845,60.827],[144.869,60.927],[143.888,61.02],[142.901,61.105],[141.909,61.184],[140.912,61.255],[139.911,61.319],[138.906,61.375],[137.897,61.424],[136.886,61.466],[135.872,61.5],[134.857,61.526],[133.839,61.545],[132.821,61.556],[131.803,61.56],[130.784,61.556],[129.766,61.545],[128.748,61.525],[127.733,61.499],[126.707,61.477],[125.684,61.447],[124.662,61.409],[123.643,61.364],[122.628,61.311],[121.616,61.25],[120.608,61.182],[119.604,61.107],[118.606,61.024],[117.613,60.934],[116.626,60.836],[115.646,60.732],[114.671,60.62],[113.704,60.501],[112.744,60.375],[111.792,60.243],[110.847,60.103],[109.911,59.957],[108.983,59.805],[108.063,59.646],[107.153,59.48],[106.251,59.309],[105.359,59.131],[105.085,59.574],[104.803,60.016],[104.514,60.457],[104.217,60.898],[103.911,61.339],[103.597,61.778],[102.675,61.586],[101.765,61.388],[100.867,61.183],[99.981,60.973],[99.106,60.757],[98.243,60.535],[97.392,60.308],[96.553,60.076],[95.726,59.838],[94.911,59.596],[94.107,59.348],[93.315,59.095],[92.535,58.838],[91.767,58.576],[91.01,58.309],[90.264,58.038],[89.53,57.763],[88.807,57.484],[88.095,57.2]]}},{"type":"Feature","properties":{"boundary_type":"ridge","feature_type":"gpml:MidOceanRidge","polarity":null,"overriding_plate_id":null,"subducting_plate_id":null,"plate_ids":[101,606],"name":"Back arc basin"},"geometry":{"type":"LineString","coordinates":[[114.13,23.398],[114.663,23.333],[115.195,23.267],[115.728,23.2],[116.259,23.13],[116.79,23.059],[117.32,22.985],[117.85,22.91],[118.379,22.834],[118.908,22.755],[119.436,22.675],[119.963,22.593],[120.49,22.51],[121.016,22.424],[121.542,22.337],[122.066,22.249],[122.591,22.158],[123.114,22.066],[123.637,21.972],[124.159,21.877],[124.68,21.78],[125.201,21.681],[125.721,21.581],[126.24,21.479],[126.758,21.376],[127.276,21.271],[127.202,20.905],[127.128,20.539],[127.055,20.173],[127.554,20.069],[128.052,19.963],[128.55,19.856],[129.047,19.747],[129.544,19.637],[130.04,19.526],[130.535,19.414],[131.029,19.3],[131.523,19.185],[132.016,19.068],[132.508,18.95],[133.0,18.831],[133.491,18.711],[133.981,18.589],[134.471,18.466],[134.959,18.342],[135.448,18.216],[135.935,18.089],[136.422,17.962],[136.308,17.603],[136.195,17.245],[136.083,16.886],[136.541,16.732],[136.998,16.576],[137.454,16.42],[137.909,16.263],[138.364,16.104],[138.818,15.945],[139.272,15.785],[139.724,15.624],[140.176,15.462],[140.627,15.299],[140.476,14.928],[140.326,14.557],[140.788,14.401],[141.25,14.243],[141.711,14.085],[142.171,13.925],[142.631,13.765],[143.09,13.604],[143.549,13.442],[144.007,13.279],[144.464,13.116],[144.921,12.951],[145.377,12.786],[145.832,12.62],[145.699,12.292],[145.566,11.964],[146.044,11.807],[146.522,11.649],[146.998,11.49],[147.475,11.33],[147.95,11.17],[148.426,11.009],[148.9,10.847],[149.375,10.685],[149.848,10.521],[150.321,10.358],[150.794,10.193],[151.266,10.028],[151.738,9.862],[151.566,9.534],[151.395,9.207],[151.749,9.064],[152.101,8.921]]}},{"type":"Feature","properties":{"boundary_type":"ridge","feature_type":"gpml:MidOceanRidge","polarity":null,"overriding_plate_id":null,"subducting_plate_id":null,"plate_ids":[501,5032],"name":"MOR separating India and Azania"},"geometry":{"type":"LineString","coordinates":[[22.51,31.843],[22.943,32.157],[23.379,32.469],[23.818,32.779],[24.26,33.089],[24.706,33.396],[25.154,33.702],[25.606,34.006],[26.061,34.309],[26.519,34.61],[26.98,34.909],[27.445,35.206],[27.914,35.502],[28.385,35.796],[28.86,36.088],[29.252,35.806],[29.642,35.523],[30.028,35.238],[30.412,34.953],[30.793,34.666],[31.172,34.378],[31.66,34.661],[32.152,34.943],[32.647,35.223],[33.145,35.5],[33.647,35.775],[34.153,36.049],[34.662,36.32],[35.174,36.589],[35.69,36.856],[36.21,37.12],[36.733,37.383],[37.26,37.643],[37.791,37.9],[38.325,38.155],[38.863,38.408],[39.405,38.659],[39.951,38.906],[40.5,39.151],[41.054,39.394],[41.611,39.634],[42.172,39.871],[42.736,40.106],[43.305,40.338],[43.878,40.567],[44.454,40.793],[45.035,41.016],[45.619,41.237],[46.207,41.454],[46.8,41.668],[47.396,41.88],[47.996,42.088],[48.6,42.293],[49.208,42.495],[49.819,42.693],[50.435,42.889],[51.055,43.081],[51.678,43.269],[52.305,43.455],[52.936,43.636],[53.571,43.815],[54.21,43.99],[54.852,44.161],[55.499,44.328],[56.148,44.492],[56.802,44.652],[57.459,44.809],[57.949,44.494],[58.434,44.178],[58.914,43.859],[59.389,43.538],[59.859,43.216],[60.324,42.891],[60.784,42.565],[61.343,42.845],[61.907,43.123],[62.476,43.398],[63.05,43.67],[63.629,43.939],[64.213,44.206],[64.803,44.469],[65.398,44.729],[65.999,44.986],[66.605,45.24],[67.216,45.491],[67.832,45.738],[68.455,45.982],[69.082,46.223],[69.715,46.46],[70.354,46.693],[70.998,46.923],[71.647,47.15],[72.303,47.372],[72.963,47.591],[73.629,47.806],[74.301,48.018],[74.978,48.225],[75.66,48.428],[76.348,48.627],[77.042,48.822],[77.74,49.013],[78.444,49.2],[79.154,49.382],[79.868,49.56],[80.588,49.734],[81.313,49.903],[82.042,50.067],[82.777,50.227],[83.055,49.827],[83.329,49.426],[83.598,49.025],[83.863,48.623],[84.123,48.221],[84.38,47.818],[85.023,47.986],[85.671,48.151],[86.323,48.312],[86.979,48.469],[87.639,48.623],[88.303,48.772]]}},{"type":"Feature","properties":{"boundary_type":"ridge","feature_type":"gpml:MidOceanRidge","polarity":null,"overriding_plate_id":null,"subducting_plate_id":null,"plate_ids":[456,580],"name":"Tarim-Q-Q spreading ridge"},"geometry":{"type":"LineString","coordinates":[[-109.485,25.842],[-109.878,25.52],[-110.268,25.197],[-110.656,24.872],[-111.042,24.547],[-111.426,24.221],[-111.809,23.893],[-112.189,23.565],[-112.567,23.236],[-112.944,22.906],[-113.319,22.575],[-113.691,22.243],[-114.063,21.91],[-114.432,21.577],[-114.8,21.243],[-115.166,20.908],[-115.53,20.572],[-115.893,20.235],[-115.6,19.83],[-115.308,19.424],[-115.018,19.018],[-114.729,18.611],[-114.442,18.204],[-114.156,17.797],[-114.53,17.484],[-114.902,17.17],[-115.273,16.856],[-115.643,16.542],[-116.012,16.226],[-116.379,15.91],[-116.745,15.593],[-117.11,15.276],[-117.474,14.958],[-117.837,14.64],[-118.199,14.321],[-118.56,14.001],[-118.92,13.681],[-119.279,13.361],[-119.637,13.04],[-119.994,12.718],[-119.727,12.417],[-119.46,12.116],[-119.194,11.814],[-118.929,11.512],[-119.293,11.173],[-119.656,10.834],[-120.018,10.494],[-120.379,10.154],[-120.74,9.813],[-121.1,9.472],[-121.459,9.13],[-121.817,8.789],[-122.175,8.447],[-122.532,8.104],[-122.888,7.761],[-123.244,7.418],[-123.6,7.075],[-123.955,6.731],[-124.309,6.388],[-124.663,6.043],[-125.016,5.699],[-125.369,5.355],[-125.722,5.01],[-126.074,4.665],[-126.426,4.32],[-126.778,3.975],[-127.129,3.629],[-127.48,3.284],[-127.831,2.938],[-128.181,2.592],[-128.531,2.246],[-128.882,1.9],[-129.232,1.554],[-129.582,1.208],[-129.931,0.862],[-130.281,0.516],[-130.631,0.17],[-130.981,-0.177],[-131.33,-0.523],[-131.68,-0.869],[-132.03,-1.215],[-132.38,-1.561],[-132.73,-1.907],[-133.08,-2.253]]}},{"type":"Feature","properties":{"boundary_type":"ridge","feature_type":"gpml:MidOceanRidge","polarity":null,"overriding_plate_id":null,"subducting_plate_id":null,"plate_ids":[580,98041],"name":"Tarim-Q-Q spreading ridge"},"geometry":{"type":"LineString","coordinates":[[-133.08,-2.253],[-133.397,-2.566],[-133.714,-2.878],[-134.031,-3.191],[-134.348,-3.503],[-134.665,-3.815]]}},{"type":"Feature","properties":{"boundary_type":"transform","feature_type":"gpml:Transform","polarity":null,"overriding_plate_id":null,"subducting_plate_id":null,"plate_ids":[101,5032],"name":"Rodinia-Congo transform"},"geometry":{"type":"LineString","coordinates":[[52.637,-33.985],[52.186,-34.247],[51.733,-34.507],[51.277,-34.765],[50.818,-35.022]]}},{"type":"Feature","properties":{"boundary_type":"transform","feature_type":"gpml:Transform","polarity":null,"overriding_plate_id":null,"subducting_plate_id":null,"plate_ids":[101,701],"name":"Rodinia-Congo transform"},"geometry":{"type":"LineString","coordinates":[[50.818,-35.022],[50.331,-35.291],[49.84,-35.558],[49.346,-35.824],[48.848,-36.087],[48.348,-36.348],[47.844,-36.607],[47.336,-36.864],[46.825,-37.119],[46.311,-37.371],[45.793,-37.621],[45.272,-37.869],[44.747,-38.115],[44.219,-38.358],[43.687,-38.599],[43.152,-38.838],[42.613,-39.074],[42.071,-39.307],[41.524,-39.538],[40.975,-39.767],[40.421,-39.993],[39.864,-40.216],[39.303,-40.436],[38.739,-40.654],[38.161,-40.886],[37.579,-41.116],[36.993,-41.342],[36.403,-41.566],[35.808,-41.786],[35.21,-42.003],[34.676,-42.221],[34.138,-42.436],[33.596,-42.649],[33.051,-42.859],[32.502,-43.066],[31.949,-43.271],[31.393,-43.474],[30.929,-43.844],[30.46,-44.213],[29.984,-44.58],[29.503,-44.944],[29.016,-45.307],[28.522,-45.668],[28.022,-46.026],[27.516,-46.383],[27.002,-46.737],[26.483,-47.088],[25.956,-47.438],[25.422,-47.784],[24.881,-48.129],[24.333,-48.471],[23.777,-48.81],[23.214,-49.146],[22.643,-49.48],[22.064,-49.811],[21.478,-50.138],[20.883,-50.463],[20.28,-50.785],[19.669,-51.104],[19.05,-51.419],[18.421,-51.731],[17.785,-52.04],[17.139,-52.345],[16.484,-52.647],[15.821,-52.945],[15.148,-53.239],[14.466,-53.53],[13.775,-53.816]]}},{"type":"Feature","properties":{"boundary_type":"transform","feature_type":"gpml:Transform","polarity":null,"overriding_plate_id":null,"subducting_plate_id":null,"plate_ids":[101,98041],"name":"Transform connecting Valhalla with proto-Avalonia"},"geometry":{"type":"LineString","coordinates":[[163.411,-47.54],[164.08,-47.627],[164.751,-47.71],[165.425,-47.79],[166.1,-47.865],[166.778,-47.936],[167.457,-48.003],[168.138,-48.066],[168.82,-48.126],[169.504,-48.181],[170.19,-48.232],[170.876,-48.279],[171.591,-48.301],[172.306,-48.318],[173.021,-48.331],[173.736,-48.339],[174.452,-48.343],[175.168,-48.343],[175.884,-48.338],[176.599,-48.329],[177.314,-48.315],[178.029,-48.297],[178.743,-48.275],[179.457,-48.248],[-179.831,-48.216]]}},{"type":"Feature","properties":{"boundary_type":"transform","feature_type":"gpml:Transform","polarity":null,"overriding_plate_id":null,"subducting_plate_id":null,"plate_ids":[701,715],"name":"Transform offset SF-Congo"},"geometry":{"type":"LineString","coordinates":[[-7.609,-38.89],[-7.897,-38.49],[-8.182,-38.088],[-8.464,-37.687],[-8.743,-37.284],[-9.018,-36.881],[-9.291,-36.477],[-9.561,-36.073],[-9.893,-35.665],[-10.221,-35.257],[-10.546,-34.847],[-10.867,-34.437],[-11.186,-34.026],[-11.501,-33.614],[-11.814,-33.201],[-12.123,-32.787],[-12.43,-32.373],[-12.733,-31.958],[-13.035,-31.542],[-13.333,-31.126],[-13.629,-30.708],[-13.922,-30.291],[-14.213,-29.872],[-14.501,-29.453],[-14.787,-29.033],[-15.071,-28.613],[-15.352,-28.192],[-15.631,-27.771]]}},{"type":"Feature","properties":{"boundary_type":"transform","feature_type":"gpml:Transform","polarity":null,"overriding_plate_id":null,"subducting_plate_id":null,"plate_ids":[501,5032],"name":"Afif transform"},"geometry":{"type":"LineString","coordinates":[[17.508,-5.08],[17.586,-4.589],[17.664,-4.099],[17.741,-3.609],[17.818,-3.118],[17.896,-2.628],[17.973,-2.137],[18.05,-1.647],[18.127,-1.156],[18.204,-0.666],[18.281,-0.176],[18.358,0.315],[18.435,0.805],[18.512,1.296],[18.589,1.786],[18.667,2.277],[18.744,2.767],[18.821,3.258],[18.898,3.748],[18.976,4.238],[19.053,4.729],[19.131,5.219],[19.209,5.71],[19.287,6.2],[19.365,6.69],[19.443,7.181],[19.521,7.671],[19.6,8.161],[19.679,8.652],[19.757,9.142],[19.837,9.632],[19.916,10.122],[19.996,10.613],[20.076,11.103],[20.156,11.593],[20.236,12.083],[20.317,12.573],[20.398,13.064],[20.479,13.554],[20.561,14.044],[20.643,14.534],[20.726,15.024],[20.808,15.514],[20.891,16.004],[20.975,16.494],[21.059,16.984],[21.144,17.473],[21.229,17.963],[21.314,18.453],[21.4,18.943],[21.451,19.421],[21.503,19.899],[21.554,20.377],[21.607,20.855],[21.659,21.333],[21.712,21.811],[21.765,22.289],[21.819,22.767],[21.873,23.245],[21.927,23.723],[21.982,24.201],[22.037,24.679],[22.092,25.157],[22.148,25.635],[22.205,26.113],[22.262,26.591],[22.319,27.068],[22.377,27.546],[22.435,28.024],[22.494,28.502],[22.554,28.979],[22.614,29.457],[22.593,29.934],[22.573,30.411],[22.552,30.889],[22.531,31.366],[22.51,31.843]]}},{"type":"Feature","properties":{"boundary_type":"transform","feature_type":"gpml:Transform","polarity":null,"overriding_plate_id":null,"subducting_plate_id":null,"plate_ids":[501,505],"name":"transform"},"geometry":{"type":"LineString","coordinates":[[-72.263,45.607],[-71.554,45.606],[-70.844,45.601],[-70.135,45.591],[-69.426,45.576],[-68.717,45.557],[-68.009,45.534],[-67.301,45.507],[-66.594,45.475],[-65.889,45.439],[-65.184,45.398],[-64.48,45.353],[-63.777,45.304],[-63.076,45.25],[-62.376,45.193],[-61.677,45.131],[-60.98,45.064],[-60.285,44.994],[-59.591,44.919],[-58.899,44.84],[-58.209,44.757],[-57.522,44.67],[-56.836,44.578],[-56.153,44.483],[-55.471,44.383],[-54.793,44.28],[-54.116,44.172],[-53.442,44.061],[-52.771,43.945],[-52.102,43.826],[-51.436,43.702],[-50.773,43.575],[-50.113,43.444],[-49.456,43.31],[-48.801,43.171],[-48.15,43.029],[-47.501,42.883],[-46.856,42.734],[-46.214,42.581],[-45.575,42.424],[-44.939,42.264],[-44.306,42.1],[-43.677,41.933],[-43.051,41.762],[-42.429,41.588],[-41.81,41.411],[-41.194,41.23]]}},{"type":"Feature","properties":{"boundary_type":"transform","feature_type":"gpml:Transform","polarity":null,"overriding_plate_id":null,"subducting_plate_id":null,"plate_ids":[501,505],"name":"Transform closing Lut plate"},"geometry":{"type":"LineString","coordinates":[[-41.194,41.23],[-40.917,40.779],[-40.644,40.327],[-40.375,39.875],[-40.11,39.422],[-39.848,38.968],[-39.589,38.514],[-39.333,38.059],[-39.081,37.604],[-38.831,37.148],[-38.585,36.692],[-38.341,36.235],[-38.101,35.778],[-37.863,35.32],[-37.628,34.861],[-37.395,34.403],[-37.165,33.944],[-36.937,33.484],[-36.712,33.024],[-36.489,32.563],[-36.269,32.103],[-36.051,31.642],[-35.834,31.18],[-35.62,30.718],[-35.42,30.282],[-35.222,29.846],[-35.026,29.41],[-34.831,28.973],[-34.638,28.537],[-34.446,28.099],[-34.256,27.662],[-34.068,27.224],[-33.881,26.786],[-33.695,26.348],[-33.511,25.91],[-33.328,25.471],[-33.15,25.073],[-32.974,24.674],[-32.798,24.275],[-32.624,23.876],[-32.45,23.476],[-32.278,23.076]]}},{"type":"Feature","properties":{"boundary_type":"transform","feature_type":"gpml:Transform","polarity":null,"overriding_plate_id":null,"subducting_plate_id":null,"plate_ids":[456,505],"name":"Transform connecting EKL subduction with Q-Q"},"geometry":{"type":"LineString","coordinates":[[-106.295,33.768],[-106.033,34.209],[-105.767,34.649],[-105.499,35.088],[-105.227,35.527],[-104.953,35.966],[-104.675,36.403],[-104.395,36.84],[-104.111,37.277],[-103.824,37.712],[-103.534,38.147],[-103.24,38.582],[-102.942,39.015],[-102.641,39.448],[-102.336,39.88],[-102.028,40.311],[-101.715,40.741],[-101.398,41.171],[-101.077,41.6],[-100.752,42.027],[-100.422,42.454],[-100.088,42.88],[-99.749,43.305],[-99.405,43.728],[-99.057,44.151],[-98.703,44.573],[-98.345,44.993],[-97.981,45.413],[-97.611,45.831],[-97.236,46.248],[-96.856,46.664],[-96.469,47.079],[-96.076,47.492],[-95.677,47.904],[-95.272,48.314],[-94.86,48.723],[-94.442,49.131],[-94.016,49.537],[-93.584,49.941],[-93.144,50.344],[-92.696,50.745],[-92.241,51.144],[-91.778,51.542],[-91.307,51.937],[-90.854,52.334],[-90.392,52.729],[-89.922,53.123],[-89.444,53.514],[-88.956,53.904],[-88.46,54.291],[-87.954,54.676],[-87.438,55.06],[-86.913,55.441],[-86.377,55.819],[-85.831,56.196],[-85.479,56.411],[-85.123,56.625]]}},{"type":"Feature","properties":{"boundary_type":"transform","feature_type":"gpml:Transform","polarity":null,"overriding_plate_id":null,"subducting_plate_id":null,"plate_ids":[501,505],"name":"Transform connecting EKL subduction with Q-Q"},"geometry":{"type":"LineString","coordinates":[[-85.123,56.625],[-84.599,56.934],[-84.066,57.24],[-83.525,57.545],[-82.974,57.847]]}},{"type":"Feature","properties":{"boundary_type":"transform","feature_type":"gpml:Transform","polarity":null,"overriding_plate_id":null,"subducting_plate_id":null,"plate_ids":[501,980421],"name":"Transform closing Indian plate"},"geometry":{"type":"LineString","coordinates":[[-141.672,43.083],[-142.279,43.249],[-142.889,43.412],[-143.502,43.572],[-144.118,43.729],[-144.737,43.882],[-145.36,44.032],[-145.986,44.179],[-146.615,44.322],[-147.247,44.462],[-147.882,44.598],[-148.52,44.73],[-149.181,44.722],[-149.843,44.71],[-150.504,44.694],[-151.165,44.675],[-151.825,44.651],[-152.485,44.624],[-153.144,44.593],[-153.802,44.558],[-154.46,44.519],[-155.117,44.477],[-155.772,44.431],[-156.427,44.381],[-157.08,44.327],[-157.709,44.224],[-158.335,44.117],[-158.96,44.007],[-159.582,43.893],[-160.201,43.776],[-160.818,43.655],[-161.433,43.532],[-162.045,43.405],[-162.654,43.274],[-163.261,43.141],[-163.865,43.004]]}},{"type":"Feature","properties":{"boundary_type":"transform","feature_type":"gpml:Transform","polarity":null,"overriding_plate_id":null,"subducting_plate_id":null,"plate_ids":[101],"name":"Araguai transform"},"geometry":{"type":"LineString","coordinates":[[-17.448,-59.138],[-16.803,-59.076]]}},{"type":"Feature","properties":{"boundary_type":"transform","feature_type":"gpml:Transform","polarity":null,"overriding_plate_id":null,"subducting_plate_id":null,"plate_ids":[101,715],"name":"Araguai transform"},"geometry":{"type":"LineString","coordinates":[[-16.803,-59.076],[-15.86,-58.979],[-14.923,-58.875],[-13.991,-58.765],[-13.065,-58.648],[-12.145,-58.524],[-11.232,-58.394],[-10.327,-58.258],[-9.428,-58.115],[-8.536,-57.965],[-7.652,-57.81],[-6.776,-57.648],[-5.908,-57.481],[-5.047,-57.307],[-4.195,-57.128],[-3.352,-56.943],[-2.516,-56.753],[-1.69,-56.557],[-0.872,-56.355],[-0.062,-56.148],[0.738,-55.936],[1.53,-55.719],[2.313,-55.497],[3.087,-55.269],[3.852,-55.037],[4.608,-54.801],[5.356,-54.559],[6.094,-54.313],[6.824,-54.063],[7.544,-53.808],[8.256,-53.549],[8.96,-53.286],[9.654,-53.018],[10.153,-52.821],[10.648,-52.623],[11.139,-52.422]]}},{"type":"Feature","properties":{"boundary_type":"transform","feature_type":"gpml:Transform","polarity":null,"overriding_plate_id":null,"subducting_plate_id":null,"plate_ids":[715,77144],"name":"Iskel-SM transform"},"geometry":{"type":"LineString","coordinates":[[-38.842,-17.622],[-38.555,-17.25],[-38.269,-16.879],[-37.984,-16.507],[-37.7,-16.135],[-37.417,-15.762],[-37.142,-15.349],[-36.867,-14.936],[-36.594,-14.523],[-36.321,-14.11],[-36.05,-13.696],[-35.779,-13.282],[-35.509,-12.867],[-35.241,-12.452],[-34.973,-12.037],[-34.812,-11.577],[-34.651,-11.117],[-34.492,-10.657],[-34.332,-10.197],[-34.173,-9.736],[-34.015,-9.276],[-33.857,-8.815],[-33.699,-8.354],[-33.541,-7.894],[-33.384,-7.433],[-33.228,-6.972],[-33.209,-6.507],[-33.191,-6.042],[-33.173,-5.576],[-33.155,-5.111],[-33.136,-4.646],[-33.118,-4.18],[-33.1,-3.715],[-33.082,-3.25],[-33.064,-2.785],[-33.046,-2.319],[-33.027,-1.854],[-33.009,-1.389],[-32.991,-0.923],[-32.978,-0.462],[-32.965,-0.001],[-32.953,0.46],[-32.94,0.921],[-32.927,1.382],[-32.914,1.843],[-32.901,2.304],[-32.888,2.765],[-32.875,3.226],[-32.862,3.687],[-32.849,4.148]]}},{"type":"Feature","properties":{"boundary_type":"transform","feature_type":"gpml:Transform","polarity":null,"overriding_plate_id":null,"subducting_plate_id":null,"plate_ids":[101,4012],"name":"Taimyr opening"},"geometry":{"type":"LineString","coordinates":[[-167.053,3.158],[-166.636,3.385],[-166.22,3.612],[-165.803,3.839],[-165.386,4.065],[-164.968,4.292],[-164.551,4.518],[-164.133,4.744]]}},{"type":"Feature","properties":{"boundary_type":"transform","feature_type":"gpml:Transform","polarity":null,"overriding_plate_id":null,"subducting_plate_id":null,"plate_ids":[101,4012],"name":"Taimyr opening"},"geometry":{"type":"LineString","coordinates":[[-160.746,-8.285],[-160.316,-8.028],[-159.887,-7.771],[-159.458,-7.513],[-159.029,-7.255],[-158.602,-6.996],[-158.174,-6.737],[-157.748,-6.478],[-157.321,-6.218],[-156.895,-5.958],[-156.47,-5.697],[-156.044,-5.437]]}},{"type":"Feature","properties":{"boundary_type":"transform","feature_type":"gpml:Transform","polarity":null,"overriding_plate_id":null,"subducting_plate_id":null,"plate_ids":[101,5032],"name":"Rodinia-Congo Transform"},"geometry":{"type":"LineString","coordinates":[[86.34,14.0],[86.142,13.774],[85.874,13.358],[85.607,12.943],[85.34,12.527],[85.075,12.111],[84.81,11.695],[84.546,11.278],[84.283,10.862],[84.02,10.445],[83.759,10.027],[83.498,9.61],[83.237,9.192],[82.977,8.775],[82.718,8.357],[82.459,7.938],[82.201,7.52],[81.943,7.102],[81.686,6.683],[81.429,6.264],[81.173,5.846],[80.917,5.427],[80.661,5.008],[80.406,4.588],[80.151,4.169],[79.896,3.75],[79.642,3.33],[79.388,2.911],[79.134,2.491],[78.88,2.072],[78.626,1.652],[78.372,1.232],[78.119,0.813],[77.865,0.393],[77.612,-0.027],[77.375,-0.459],[77.139,-0.891],[76.902,-1.323],[76.666,-1.755],[76.429,-2.187],[76.192,-2.619],[75.955,-3.051],[75.718,-3.483],[75.48,-3.915],[75.243,-4.347],[75.005,-4.778],[74.767,-5.21],[74.528,-5.642],[74.289,-6.073],[74.05,-6.504],[73.81,-6.936],[73.57,-7.367],[73.329,-7.798],[73.088,-8.229],[72.846,-8.659],[72.604,-9.09],[72.361,-9.52],[72.118,-9.95],[71.874,-10.381],[71.629,-10.81],[71.384,-11.24],[71.138,-11.67],[70.891,-12.099],[70.643,-12.528],[70.394,-12.957],[70.145,-13.385],[69.895,-13.814],[69.644,-14.242],[69.391,-14.669],[69.138,-15.097],[68.884,-15.524],[68.629,-15.951],[68.373,-16.378],[68.115,-16.804],[67.857,-17.23],[67.597,-17.656],[67.336,-18.081],[67.073,-18.506],[66.81,-18.931],[66.545,-19.355],[66.279,-19.779],[66.011,-20.203],[65.742,-20.626],[65.471,-21.048],[65.199,-21.47],[64.925,-21.892],[64.649,-22.314],[64.372,-22.734],[64.094,-23.155],[63.813,-23.575],[63.444,-23.931],[63.073,-24.287],[62.701,-24.642],[62.326,-24.996],[61.949,-25.349],[61.569,-25.701],[61.188,-26.052],[60.804,-26.402],[60.418,-26.751],[60.029,-27.098],[59.638,-27.445],[59.244,-27.791],[58.849,-28.136],[58.45,-28.479],[58.049,-28.821],[57.645,-29.162],[57.239,-29.502],[56.83,-29.841],[56.418,-30.178],[56.003,-30.514],[55.585,-30.849],[55.165,-31.182],[54.741,-31.515],[54.315,-31.845],[53.885,-32.174],[53.639,-32.537],[53.392,-32.9],[53.142,-33.262],[52.89,-33.624],[52.637,-33.985]]}},{"type":"Feature","properties":{"boundary_type":"transform","feature_type":"gpml:Transform","polarity":null,"overriding_plate_id":null,"subducting_plate_id":null,"plate_ids":[501,980421],"name":"Transform splitting Mawson Sea"},"geometry":{"type":"LineString","coordinates":[[88.095,57.2],[88.082,56.742],[88.069,56.283],[88.057,55.825],[88.045,55.366],[88.034,54.908],[88.022,54.449],[88.011,53.991],[88.0,53.532],[87.99,53.074],[87.979,52.615],[87.969,52.157],[87.959,51.698],[88.019,51.211],[88.078,50.723],[88.136,50.236],[88.193,49.748],[88.249,49.26],[88.303,48.772]]}},{"type":"Feature","properties":{"boundary_type":"transform","feature_type":"gpml:Transform","polarity":null,"overriding_plate_id":null,"subducting_plate_id":null,"plate_ids":[5032,980421],"name":"Transform splitting Mawson Sea"},"geometry":{"type":"LineString","coordinates":[[88.303,48.772],[88.357,48.275],[88.411,47.779],[88.463,47.282],[88.515,46.785],[88.565,46.288],[88.615,45.791],[88.663,45.294],[88.711,44.797],[88.758,44.3],[88.804,43.803],[88.85,43.305],[88.894,42.808],[88.938,42.311],[88.982,41.814],[89.024,41.317],[89.066,40.82],[89.108,40.323],[89.148,39.825],[89.22,39.348],[89.291,38.871],[89.361,38.393],[89.431,37.916],[89.499,37.438],[89.566,36.961],[89.633,36.483],[89.698,36.005],[89.763,35.528],[89.827,35.05],[89.891,34.572],[89.954,34.095],[90.016,33.617],[90.077,33.139],[90.137,32.661],[90.197,32.183],[90.257,31.705],[90.316,31.228],[90.374,30.75],[90.431,30.272],[90.488,29.794],[90.545,29.316],[90.601,28.838],[90.656,28.359],[90.711,27.881],[90.76,27.402],[90.809,26.922],[90.857,26.442],[90.905,25.962],[90.952,25.482],[90.999,25.002],[91.046,24.522],[91.092,24.043],[91.138,23.563],[91.184,23.083],[91.229,22.603],[91.274,22.123],[91.319,21.643]]}},{"type":"Feature","properties":{"boundary_type":"transform","feature_type":"gpml:Transform","polarity":null,"overriding_plate_id":null,"subducting_plate_id":null,"plate_ids":[606,980421],"name":"Lhasa transform"},"geometry":{"type":"LineString","coordinates":[[152.567,12.463],[152.508,12.02],[152.45,11.578],[152.391,11.135],[152.333,10.692],[152.275,10.249],[152.217,9.807],[152.159,9.364],[152.101,8.921]]}},{"type":"Feature","properties":{"boundary_type":"transform","feature_type":"gpml:Transform","polarity":null,"overriding_plate_id":null,"subducting_plate_id":null,"plate_ids":[101,980421],"name":"Lhasa transform"},"geometry":{"type":"LineString","coordinates":[[152.101,8.921],[152.062,8.616],[152.022,8.31]]}},{"type":"Feature","properties":{"boundary_type":"transform","feature_type":"gpml:Transform","polarity":null,"overriding_plate_id":null,"subducting_plate_id":null,"plate_ids":[101,980421],"name":"Taimyr-Sib transform"},"geometry":{"type":"LineString","coordinates":[[-168.351,8.432],[-168.029,8.671],[-167.708,8.909]]}},{"type":"Feature","properties":{"boundary_type":"transform","feature_type":"gpml:Transform","polarity":null,"overriding_plate_id":null,"subducting_plate_id":null,"plate_ids":[101,101],"name":"Lhasa transform"},"geometry":{"type":"LineString","coordinates":[[113.589,26.484],[113.67,26.029],[113.751,25.574],[113.831,25.119]]}},{"type":"Feature","properties":{"boundary_type":"transform","feature_type":"gpml:Transform","polarity":null,"overriding_plate_id":null,"subducting_plate_id":null,"plate_ids":[101,101,606,980421],"name":"Lhasa transform"},"geometry":{"type":"LineString","coordinates":[[113.831,25.119],[113.907,24.689],[113.982,24.258],[114.056,23.828],[114.13,23.398]]}},{"type":"Feature","properties":{"boundary_type":"transform","feature_type":"gpml:Transform","polarity":null,"overriding_plate_id":null,"subducting_plate_id":null,"plate_ids":[101,980421],"name":"Lhasa transform"},"geometry":{"type":"LineString","coordinates":[[114.13,23.398],[114.142,23.326]]}},{"type":"Feature","properties":{"boundary_type":"transform","feature_type":"gpml:Transform","polarity":null,"overriding_plate_id":null,"subducting_plate_id":null,"plate_ids":[501,9804],"name":"Transform closing Mirovoi plate"},"geometry":{"type":"LineString","coordinates":[[-49.431,10.834],[-49.228,10.469],[-49.025,10.105],[-48.845,9.641],[-48.665,9.177],[-48.486,8.713],[-48.307,8.249],[-48.129,7.785],[-47.951,7.321],[-47.774,6.856],[-47.597,6.392],[-47.42,5.928],[-47.243,5.463],[-47.067,4.998],[-46.891,4.534],[-46.715,4.069],[-46.54,3.605],[-46.364,3.14],[-46.189,2.675],[-46.014,2.21],[-45.839,1.745],[-45.664,1.281],[-45.489,0.816],[-45.314,0.351],[-45.139,-0.114]]}},{"type":"Feature","properties":{"boundary_type":"transform","feature_type":"gpml:Transform","polarity":null,"overriding_plate_id":null,"subducting_plate_id":null,"plate_ids":[501,715],"name":"Ethiopian SZ (changed to transform)"},"geometry":{"type":"LineString","coordinates":[[-4.069,13.609],[-4.103,13.157],[-4.137,12.705],[-4.17,12.253],[-4.204,11.801],[-4.237,11.349],[-4.27,10.898],[-4.304,10.446],[-4.337,9.994],[-4.37,9.542],[-4.403,9.09],[-4.187,8.681],[-3.972,8.272],[-3.757,7.862],[-3.543,7.453],[-3.329,7.043],[-3.116,6.634],[-2.903,6.224],[-2.69,5.814],[-2.477,5.405],[-2.265,4.995],[-2.101,4.575],[-1.936,4.156],[-1.772,3.737],[-1.607,3.318],[-1.443,2.898],[-1.279,2.479],[-1.115,2.06],[-0.952,1.64],[-0.788,1.221],[-0.645,0.788],[-0.502,0.355],[-0.359,-0.078],[-0.216,-0.511],[-0.073,-0.944],[0.07,-1.377],[0.213,-1.81],[0.356,-2.243],[0.499,-2.676],[0.742,-3.035],[0.986,-3.393],[1.23,-3.751],[1.475,-4.109],[1.719,-4.467],[1.964,-4.825],[2.209,-5.183],[2.413,-5.626],[2.617,-6.069],[2.821,-6.512],[3.026,-6.955],[3.241,-7.321],[3.456,-7.687],[3.672,-8.053],[3.888,-8.419],[3.828,-8.857],[3.768,-9.294],[3.708,-9.732],[3.648,-10.169],[3.587,-10.607],[3.526,-11.044],[3.565,-11.513],[3.604,-11.981],[3.643,-12.45]]}},{"type":"Feature","properties":{"boundary_type":"transform","feature_type":"gpml:Transform","polarity":null,"overriding_plate_id":null,"subducting_plate_id":null,"plate_ids":[98041,980421],"name":"Mirovoi Ocean-Mawson sea"},"geometry":{"type":"LineString","coordinates":[[-158.846,-2.057],[-158.371,-1.921],[-157.896,-1.786],[-157.421,-1.65],[-156.946,-1.515],[-156.471,-1.379],[-155.996,-1.243],[-155.522,-1.107],[-155.047,-0.971],[-154.572,-0.835],[-154.098,-0.699],[-153.623,-0.563],[-153.148,-0.427],[-152.674,-0.291],[-152.199,-0.154],[-151.725,-0.018],[-151.25,0.118],[-150.77,0.221],[-150.289,0.323],[-149.809,0.425],[-149.329,0.527],[-148.848,0.629],[-148.368,0.732],[-147.888,0.834],[-147.407,0.936],[-146.927,1.038],[-146.446,1.139],[-145.966,1.241],[-145.485,1.343],[-145.005,1.445],[-144.524,1.546],[-144.044,1.648],[-143.563,1.749],[-143.082,1.85],[-142.601,1.951],[-142.121,2.052],[-141.64,2.153],[-141.159,2.253],[-140.678,2.354],[-140.196,2.454],[-139.715,2.554],[-139.234,2.654],[-138.753,2.754],[-138.271,2.853],[-137.79,2.953],[-137.308,3.052],[-136.826,3.151],[-136.345,3.249],[-135.863,3.348],[-135.381,3.446],[-134.899,3.544]]}},{"type":"Feature","properties":{"boundary_type":"transform","feature_type":"gpml:Transform","polarity":null,"overriding_plate_id":null,"subducting_plate_id":null,"plate_ids":[101,98041],"name":"Siberia transform"},"geometry":{"type":"LineString","coordinates":[[-160.908,-30.761],[-161.472,-30.846],[-162.037,-30.93],[-162.603,-31.011],[-163.169,-31.09],[-163.737,-31.166],[-164.306,-31.239],[-164.875,-31.31],[-165.445,-31.379],[-166.016,-31.445],[-166.588,-31.508],[-167.161,-31.569],[-167.734,-31.628],[-168.308,-31.683],[-168.883,-31.737],[-169.458,-31.787],[-170.034,-31.835],[-170.611,-31.881],[-171.188,-31.924],[-171.766,-31.964],[-172.344,-32.002],[-172.923,-32.037],[-173.502,-32.069],[-174.081,-32.099],[-174.661,-32.126],[-175.241,-32.151],[-175.821,-32.172],[-176.402,-32.192],[-176.983,-32.208],[-177.564,-32.222],[-178.145,-32.233],[-178.727,-32.242],[-179.308,-32.248],[-179.89,-32.251],[179.529,-32.251],[178.947,-32.249],[178.366,-32.244],[177.784,-32.237],[177.203,-32.227],[176.642,-32.215],[176.082,-32.201],[175.522,-32.184],[174.962,-32.165],[174.402,-32.144],[173.842,-32.12],[173.283,-32.093],[172.724,-32.064],[172.166,-32.033],[171.608,-31.999],[171.05,-31.962],[170.493,-31.924],[169.936,-31.883],[169.38,-31.839],[168.824,-31.793],[168.269,-31.744]]}},{"type":"Feature","properties":{"boundary_type":"transform","feature_type":"gpml:Transform","polarity":null,"overriding_plate_id":null,"subducting_plate_id":null,"plate_ids":[505,580],"name":"Transform closing Tarim plate"},"geometry":{"type":"LineString","coordinates":[[-61.534,4.436],[-61.121,4.343],[-60.708,4.25],[-60.294,4.156],[-59.971,3.984],[-59.648,3.812],[-59.325,3.639]]}},{"type":"Feature","properties":{"boundary_type":"transform","feature_type":"gpml:Transform","polarity":null,"overriding_plate_id":null,"subducting_plate_id":null,"plate_ids":[456,580],"name":"Tarim-QQ transform"},"geometry":{"type":"LineString","coordinates":[[-109.485,25.842],[-109.56,26.285],[-109.636,26.728],[-109.713,27.17],[-109.79,27.613],[-109.788,28.11],[-109.785,28.607],[-109.783,29.105],[-109.78,29.602],[-109.778,30.099],[-109.703,30.571],[-109.627,31.042],[-109.551,31.514],[-109.474,31.985],[-109.397,32.457],[-109.087,32.809],[-108.774,33.16],[-108.459,33.51],[-108.142,33.86]]}},{"type":"Feature","properties":{"boundary_type":"transform","feature_type":"gpml:Transform","polarity":null,"overriding_plate_id":null,"subducting_plate_id":null,"plate_ids":[501,701],"name":"Cong-SM transform"},"geometry":{"type":"LineString","coordinates":[[16.261,-2.068],[15.874,-2.366],[15.487,-2.664],[15.099,-2.962],[14.712,-3.259],[14.324,-3.557],[13.936,-3.854],[13.547,-4.151],[13.159,-4.448],[12.77,-4.745],[12.38,-5.041],[11.991,-5.338],[11.601,-5.634],[11.21,-5.929],[10.819,-6.225],[10.428,-6.52],[10.036,-6.815],[9.666,-7.149],[9.294,-7.483],[8.923,-7.817],[8.55,-8.151],[8.177,-8.484],[7.803,-8.817],[7.429,-9.149],[7.054,-9.481],[6.678,-9.813],[6.302,-10.144],[5.924,-10.475],[5.546,-10.805],[5.167,-11.135],[4.788,-11.464],[4.407,-11.793],[4.025,-12.122],[3.643,-12.45]]}},{"type":"Feature","properties":{"boundary_type":"transform","feature_type":"gpml:Transform","polarity":null,"overriding_plate_id":null,"subducting_plate_id":null,"plate_ids":[701,715],"name":"Cong-SM transform"},"geometry":{"type":"LineString","coordinates":[[3.643,-12.45],[3.27,-12.768],[2.896,-13.086],[2.521,-13.403],[2.145,-13.72],[1.768,-14.036],[1.39,-14.352],[1.011,-14.667],[0.631,-14.981],[0.249,-15.295],[-0.133,-15.608],[-0.517,-15.921],[-0.901,-16.233],[-1.287,-16.544],[-1.675,-16.854],[-2.063,-17.164],[-2.453,-17.473],[-2.844,-17.781],[-3.236,-18.088],[-3.63,-18.395],[-4.026,-18.7],[-4.422,-19.005],[-4.799,-19.331],[-5.177,-19.656],[-5.556,-19.98],[-5.937,-20.303],[-6.32,-20.626],[-6.704,-20.948],[-7.09,-21.268],[-7.478,-21.588],[-7.867,-21.907],[-8.258,-22.225],[-8.651,-22.542],[-9.045,-22.859],[-9.442,-23.174],[-9.84,-23.488],[-10.241,-23.801],[-10.643,-24.113],[-11.047,-24.425],[-11.453,-24.735],[-11.861,-25.043],[-12.271,-25.351],[-12.684,-25.658],[-13.098,-25.963],[-13.515,-26.268],[-13.933,-26.571],[-14.354,-26.873],[-14.778,-27.173],[-15.203,-27.473],[-15.631,-27.771]]}}]}