{"type":"FeatureCollection","meta":{"model":"Cao2024","reconstruction_time_ma":1125.0,"anchor_plate_id":0,"pygplates_version":"1.0.0","tessellate_degrees":0.5,"polarity_convention":"gpml:subductionPolarity. 'Left'/'Right' names the side of the line, in vertex order, on which the OVERRIDING plate lies. Triangles are drawn on that side.","antimeridian":"Lines are NOT split at +/-180 deg. The renderer works in 3D unit vectors where the dateline is not special; splitting would only add spurious breaks. Do not treat this as RFC 7946 GIS-ready 2D data."},"features":[{"type":"Feature","properties":{"boundary_type":"ridge","feature_type":"gpml:MidOceanRidge","polarity":null,"overriding_plate_id":null,"subducting_plate_id":null,"plate_ids":[101,302],"name":"MOR-Greenland-Baltica"},"geometry":{"type":"LineString","coordinates":[[179.656,28.5],[-179.81,28.653],[-179.276,28.804],[-178.739,28.953],[-178.201,29.1],[-177.662,29.244],[-177.121,29.387],[-176.578,29.527],[-176.034,29.665],[-175.489,29.801],[-174.942,29.934],[-174.394,30.066],[-173.844,30.195],[-173.293,30.321],[-172.74,30.446],[-172.186,30.568],[-171.63,30.687],[-171.074,30.805],[-170.515,30.92],[-169.956,31.032],[-169.395,31.142],[-168.833,31.25],[-168.27,31.355],[-167.705,31.458],[-167.139,31.558],[-166.572,31.656],[-166.004,31.751],[-165.435,31.844],[-164.864,31.934],[-164.292,32.022],[-163.72,32.107],[-163.767,32.59],[-163.816,33.073],[-163.864,33.556],[-163.914,34.039],[-163.964,34.522],[-163.385,34.505],[-162.807,34.486],[-162.229,34.464],[-161.652,34.44],[-161.074,34.413],[-160.498,34.383],[-159.921,34.35],[-159.345,34.315],[-158.77,34.277],[-158.195,34.236],[-157.621,34.192],[-157.047,34.146],[-156.474,34.098],[-155.902,34.046],[-155.33,33.992],[-154.759,33.935],[-154.189,33.876],[-153.62,33.814],[-153.051,33.749],[-152.484,33.682],[-152.447,33.318],[-152.41,32.954],[-152.374,32.59],[-151.797,32.519],[-151.221,32.445],[-150.646,32.368],[-150.071,32.289],[-149.498,32.207],[-148.926,32.123],[-148.355,32.036],[-147.785,31.947],[-147.216,31.855],[-146.649,31.76],[-146.082,31.663],[-145.517,31.564],[-144.953,31.462],[-144.39,31.357],[-143.828,31.25],[-143.268,31.141],[-142.709,31.029],[-142.151,30.915],[-142.133,31.287],[-142.115,31.66],[-142.097,32.032],[-141.54,31.913],[-140.985,31.791],[-140.431,31.667],[-139.879,31.541],[-139.328,31.412],[-138.779,31.281],[-138.231,31.148],[-137.685,31.012],[-137.14,30.874],[-136.597,30.734],[-136.056,30.591],[-135.516,30.447],[-134.978,30.3],[-134.441,30.15],[-133.906,29.999]]}},{"type":"Feature","properties":{"boundary_type":"transform","feature_type":"gpml:Transform","polarity":null,"overriding_plate_id":null,"subducting_plate_id":null,"plate_ids":[101,602],"name":"inferred transform"},"geometry":{"type":"LineString","coordinates":[[-66.48,37.954],[-66.435,38.217]]}},{"type":"Feature","properties":{"boundary_type":"transform","feature_type":"gpml:Transform","polarity":null,"overriding_plate_id":null,"subducting_plate_id":null,"plate_ids":[101,801],"name":"inferred transform"},"geometry":{"type":"LineString","coordinates":[[-66.435,38.217],[-66.35,38.709],[-66.263,39.202],[-66.176,39.694],[-66.087,40.187],[-65.997,40.679],[-65.905,41.171],[-65.812,41.663],[-65.718,42.156],[-65.622,42.648],[-65.525,43.139],[-65.426,43.631],[-65.326,44.123],[-65.223,44.615],[-65.119,45.106],[-65.014,45.598],[-64.906,46.089],[-64.796,46.58],[-64.685,47.072],[-64.571,47.563],[-64.455,48.054],[-64.337,48.544],[-64.217,49.035],[-64.094,49.526],[-63.969,50.016],[-63.841,50.506],[-63.711,50.997],[-63.577,51.487],[-63.441,51.976],[-63.302,52.466],[-63.16,52.956],[-63.014,53.445],[-62.865,53.934],[-62.713,54.423],[-62.557,54.912],[-62.397,55.401],[-62.233,55.889],[-62.064,56.377],[-61.892,56.865],[-61.715,57.353],[-61.533,57.84],[-61.346,58.327],[-61.154,58.814],[-60.956,59.301],[-60.788,59.791],[-60.614,60.281],[-60.435,60.77],[-60.251,61.26],[-60.061,61.749],[-59.864,62.238],[-59.661,62.727],[-59.452,63.215],[-59.235,63.703],[-59.01,64.191],[-58.778,64.678],[-58.537,65.165],[-58.287,65.651],[-58.027,66.137],[-57.758,66.623],[-57.477,67.108],[-57.185,67.593],[-56.881,68.077],[-56.564,68.561],[-56.233,69.043],[-55.887,69.526],[-55.525,70.007],[-55.145,70.488],[-54.748,70.968],[-54.331,71.447],[-53.892,71.925],[-53.431,72.402],[-52.944,72.878],[-52.431,73.353],[-51.888,73.826],[-51.314,74.298],[-50.705,74.768],[-50.059,75.237],[-49.371,75.703],[-48.637,76.168],[-47.854,76.63],[-47.016,77.09],[-46.117,77.546],[-45.152,78.0],[-44.112,78.45],[-42.989,78.896],[-41.774,79.338],[-40.456,79.774],[-39.022,80.205],[-37.459,80.629],[-35.712,81.027],[-33.805,81.417],[-31.721,81.796],[-29.439,82.164],[-26.939,82.518],[-24.197,82.857],[-21.191,83.178],[-17.9,83.479],[-14.306,83.756],[-10.395,84.007],[-6.166,84.227],[-1.629,84.414],[3.19,84.564],[8.243,84.674],[13.467,84.741],[18.78,84.764],[24.093,84.742],[29.318,84.675],[34.374,84.566],[39.195,84.416],[43.736,84.23],[47.969,84.009],[51.883,83.759],[55.481,83.482],[58.776,83.182],[61.785,82.861],[64.529,82.522],[67.032,82.168],[69.316,81.801],[71.403,81.421],[73.312,81.032],[75.061,80.633],[76.667,80.227],[78.146,79.814],[79.509,79.394],[80.769,78.969],[82.05,78.541],[83.239,78.108],[84.345,77.67],[85.376,77.228],[86.338,76.782],[87.239,76.333],[88.084,75.88],[88.877,75.425],[89.622,74.968],[90.325,74.508],[90.988,74.046],[91.614,73.582],[92.207,73.117],[92.769,72.649],[93.302,72.181],[93.809,71.711],[94.291,71.239],[94.751,70.767],[95.189,70.293],[95.607,69.818],[96.007,69.343],[96.39,68.866],[96.756,68.389],[97.108,67.911],[97.445,67.432],[97.769,66.953],[98.08,66.473],[98.38,65.992],[98.668,65.511],[98.946,65.029],[99.215,64.547],[99.474,64.064],[99.724,63.581],[99.965,63.097],[100.199,62.613],[100.426,62.129],[100.645,61.644],[100.857,61.159],[101.063,60.673],[101.263,60.188],[101.457,59.702],[101.646,59.215],[101.829,58.729],[102.007,58.242],[102.18,57.755],[102.349,57.268],[102.513,56.78],[102.673,56.292],[102.829,55.805],[102.982,55.316],[103.13,54.828],[103.275,54.34],[103.416,53.851],[103.555,53.362],[103.69,52.873],[103.822,52.384],[103.951,51.895],[104.078,51.406],[104.201,50.916],[104.322,50.426],[104.441,49.937],[104.557,49.447],[104.671,48.957],[104.783,48.467],[104.893,47.976],[105.02,47.503],[105.146,47.03],[105.269,46.556],[105.389,46.082]]}},{"type":"Feature","properties":{"boundary_type":"subduction","feature_type":"gpml:SubductionZone","polarity":"Left","overriding_plate_id":101,"subducting_plate_id":90109,"plate_ids":[101,90109],"name":"E-Lau SZ"},"geometry":{"type":"LineString","coordinates":[[131.753,43.684],[132.207,43.499],[132.658,43.313],[133.106,43.125],[133.552,42.935],[134.202,42.859],[134.851,42.78],[135.497,42.697],[136.142,42.61],[136.785,42.52],[137.426,42.426],[138.066,42.329],[138.703,42.228],[139.338,42.124],[139.971,42.016],[140.602,41.905],[141.231,41.79],[141.857,41.672],[142.481,41.55],[143.149,41.56],[143.817,41.565],[144.485,41.567],[145.154,41.565],[145.822,41.559],[146.49,41.549],[147.157,41.535],[147.825,41.517],[148.492,41.496],[149.158,41.47],[149.824,41.441],[150.489,41.408],[151.089,41.236],[151.686,41.06],[152.279,40.881],[152.869,40.699],[153.456,40.514],[154.039,40.327],[154.62,40.136],[155.197,39.942],[155.77,39.746],[156.341,39.547],[156.908,39.345],[157.472,39.14],[158.081,39.067],[158.689,38.99],[159.295,38.91],[159.9,38.828],[160.504,38.742],[161.106,38.653],[161.706,38.561],[162.305,38.466],[162.903,38.368],[163.498,38.266],[164.092,38.162],[164.685,38.055],[165.275,37.945],[165.702,37.607],[166.124,37.267],[166.543,36.925],[166.958,36.583],[167.37,36.238],[167.778,35.893],[168.182,35.546],[168.583,35.197],[168.98,34.848],[169.374,34.497],[169.913,34.279],[170.449,34.058],[170.982,33.835],[171.513,33.61],[172.041,33.383],[172.565,33.153],[173.088,32.921],[173.607,32.688],[174.124,32.451],[174.638,32.213],[175.149,31.973],[175.658,31.731],[176.07,31.413],[176.479,31.095],[176.885,30.774],[177.289,30.453],[177.69,30.131],[178.088,29.807],[178.484,29.482],[178.877,29.156],[179.268,28.828],[179.656,28.5]]}},{"type":"Feature","properties":{"boundary_type":"subduction","feature_type":"gpml:SubductionZone","polarity":"Left","overriding_plate_id":302,"subducting_plate_id":90109,"plate_ids":[302,90109],"name":"E-Lau SZ"},"geometry":{"type":"LineString","coordinates":[[179.656,28.5],[179.965,28.236],[-179.727,27.972],[-179.421,27.707],[-179.116,27.441],[-178.7,27.122],[-178.285,26.802],[-177.873,26.48],[-177.463,26.157],[-177.056,25.833]]}},{"type":"Feature","properties":{"boundary_type":"ridge","feature_type":"gpml:MidOceanRidge","polarity":null,"overriding_plate_id":null,"subducting_plate_id":null,"plate_ids":[602,701],"name":""},"geometry":{"type":"LineString","coordinates":[[-24.385,11.232],[-24.849,11.025],[-25.311,10.817],[-25.773,10.609],[-26.234,10.4],[-26.695,10.191],[-27.155,9.98],[-27.614,9.77],[-28.073,9.558],[-28.531,9.346],[-28.989,9.133],[-29.446,8.92],[-29.229,8.473],[-29.013,8.027],[-28.796,7.58],[-28.581,7.133],[-28.366,6.686],[-28.151,6.239],[-27.936,5.791],[-27.722,5.344],[-27.508,4.897],[-27.295,4.449],[-27.082,4.002],[-26.868,3.554],[-26.656,3.106],[-26.443,2.659],[-26.231,2.211],[-26.018,1.763],[-25.806,1.316],[-25.594,0.868],[-25.382,0.42],[-25.169,-0.028],[-24.957,-0.476],[-24.745,-0.923],[-24.533,-1.371],[-24.321,-1.819],[-24.108,-2.267],[-23.896,-2.714],[-23.683,-3.162],[-23.47,-3.61],[-23.257,-4.057],[-23.044,-4.505],[-22.83,-4.952],[-22.617,-5.4],[-22.402,-5.847],[-22.188,-6.294],[-21.973,-6.741],[-21.758,-7.189],[-21.542,-7.635],[-21.326,-8.082],[-21.109,-8.529],[-20.892,-8.976],[-20.674,-9.422],[-20.456,-9.869],[-20.237,-10.315],[-20.018,-10.761],[-19.798,-11.207],[-19.577,-11.652],[-19.991,-11.863],[-20.405,-12.073],[-20.82,-12.283],[-21.236,-12.491],[-21.653,-12.7],[-22.07,-12.907],[-22.488,-13.114],[-22.906,-13.32],[-23.325,-13.525],[-23.745,-13.73],[-24.166,-13.934]]}},{"type":"Feature","properties":{"boundary_type":"ridge","feature_type":"gpml:MidOceanRidge","polarity":null,"overriding_plate_id":null,"subducting_plate_id":null,"plate_ids":[602,801],"name":""},"geometry":{"type":"LineString","coordinates":[[-66.435,38.217],[-65.904,38.033],[-65.375,37.846],[-64.849,37.657],[-64.326,37.466],[-63.806,37.272],[-63.288,37.077],[-62.773,36.879],[-62.261,36.678],[-61.751,36.476],[-61.244,36.271],[-60.739,36.065],[-60.26,36.351],[-59.778,36.635],[-59.292,36.917],[-58.802,37.198],[-58.308,37.476],[-57.811,37.752],[-57.24,37.544],[-56.671,37.334],[-56.106,37.12],[-55.543,36.904],[-54.984,36.685],[-54.428,36.464],[-53.876,36.24],[-53.326,36.014],[-52.78,35.785],[-52.237,35.553],[-51.697,35.32],[-51.16,35.083],[-50.626,34.845],[-50.096,34.604],[-49.568,34.361],[-49.044,34.116],[-48.522,33.868],[-48.004,33.618],[-47.488,33.366],[-46.976,33.112],[-46.466,32.856],[-45.96,32.598],[-45.456,32.338],[-44.956,32.075],[-44.458,31.811],[-43.963,31.545],[-43.471,31.277],[-43.842,30.923],[-44.211,30.568],[-44.577,30.212],[-44.94,29.855],[-45.301,29.497],[-45.659,29.138],[-46.015,28.779],[-46.368,28.418],[-46.719,28.056],[-47.068,27.693],[-46.712,27.33],[-46.359,26.966],[-46.009,26.601],[-45.66,26.235],[-45.314,25.868],[-44.97,25.5],[-44.628,25.132],[-44.288,24.763],[-43.95,24.393],[-43.614,24.022],[-43.28,23.65],[-42.948,23.278],[-42.617,22.905],[-42.289,22.532],[-41.962,22.158],[-41.637,21.783],[-41.314,21.407],[-40.992,21.031],[-40.672,20.655],[-40.354,20.277],[-40.037,19.899],[-39.721,19.521],[-39.407,19.142],[-38.952,19.356],[-38.496,19.568],[-38.038,19.779],[-37.579,19.989],[-37.119,20.198],[-36.658,20.406],[-36.195,20.613],[-35.731,20.818],[-35.266,21.022],[-34.8,21.225],[-34.332,21.426],[-33.863,21.626],[-33.393,21.825],[-32.922,22.023],[-32.449,22.219],[-31.975,22.414],[-31.499,22.607],[-31.022,22.799],[-30.544,22.99],[-30.3,22.558],[-30.058,22.126],[-29.817,21.693],[-29.577,21.261],[-29.339,20.828],[-29.103,20.394],[-28.867,19.96],[-28.633,19.526],[-28.4,19.092],[-28.169,18.657],[-27.938,18.222],[-27.709,17.787],[-27.481,17.352],[-27.254,16.916],[-27.028,16.48],[-26.803,16.044],[-26.579,15.607],[-26.356,15.171],[-26.133,14.734],[-25.912,14.297],[-25.692,13.859],[-25.472,13.422],[-25.253,12.984],[-25.035,12.546],[-24.818,12.108],[-24.601,11.67],[-24.385,11.232]]}},{"type":"Feature","properties":{"boundary_type":"ridge","feature_type":"gpml:MidOceanRidge","polarity":null,"overriding_plate_id":null,"subducting_plate_id":null,"plate_ids":[701,801],"name":""},"geometry":{"type":"LineString","coordinates":[[-24.385,11.232],[-24.195,10.845],[-24.006,10.457],[-23.817,10.07],[-23.628,9.682],[-23.44,9.295],[-23.252,8.907]]}},{"type":"Feature","properties":{"boundary_type":"ridge","feature_type":"gpml:MidOceanRidge","polarity":null,"overriding_plate_id":null,"subducting_plate_id":null,"plate_ids":[701,801],"name":""},"geometry":{"type":"LineString","coordinates":[[35.839,31.947],[36.111,32.338],[35.588,32.537],[35.063,32.734],[34.535,32.929],[34.005,33.122],[33.473,33.312],[32.939,33.5],[32.402,33.686],[31.863,33.869],[31.321,34.05],[30.777,34.229],[30.231,34.405],[29.683,34.579],[29.132,34.75],[28.58,34.919],[28.024,35.085],[27.467,35.249],[26.907,35.41],[26.345,35.569],[25.781,35.725],[25.215,35.878],[24.647,36.029],[24.746,36.415],[24.846,36.8],[24.948,37.185],[25.05,37.571],[24.437,37.556],[23.824,37.537],[23.211,37.516],[22.599,37.492],[21.987,37.464],[21.375,37.433],[20.764,37.399],[20.154,37.362],[19.544,37.322],[18.935,37.279],[18.327,37.232],[17.719,37.183],[17.113,37.13],[16.507,37.074],[15.902,37.016],[15.298,36.954],[14.695,36.889],[14.093,36.821],[13.492,36.75],[12.893,36.676],[12.294,36.599],[11.697,36.519],[11.101,36.436],[10.506,36.35],[9.913,36.261],[9.321,36.169],[8.73,36.074],[8.141,35.977],[7.897,36.347],[7.652,36.717],[7.404,37.087],[7.154,37.455],[6.901,37.824],[6.645,38.192],[6.093,37.976],[5.544,37.758],[4.998,37.537],[4.455,37.314],[3.916,37.089],[3.38,36.86],[2.847,36.63],[2.317,36.397],[1.79,36.162],[1.267,35.925],[0.747,35.685],[0.229,35.443],[-0.285,35.199],[-0.796,34.953],[-1.303,34.704],[-1.808,34.454],[-2.31,34.201],[-2.653,34.507],[-2.999,34.812],[-3.347,35.116],[-3.698,35.418],[-4.052,35.72],[-4.502,35.382],[-4.949,35.042],[-5.391,34.701],[-5.83,34.358],[-6.266,34.013],[-6.698,33.667],[-7.126,33.319],[-7.551,32.97],[-7.973,32.62],[-8.391,32.268],[-8.806,31.915],[-9.218,31.56],[-9.627,31.204],[-10.033,30.847],[-10.436,30.488],[-10.836,30.129],[-11.233,29.768],[-11.627,29.406],[-12.018,29.043],[-12.406,28.678],[-12.792,28.313],[-13.175,27.946],[-13.556,27.579],[-13.979,27.664],[-14.403,27.747],[-14.828,27.829],[-15.014,27.386],[-15.198,26.942],[-15.381,26.498],[-15.563,26.054],[-15.743,25.609],[-15.922,25.164],[-16.099,24.719],[-16.275,24.274],[-16.45,23.829],[-16.624,23.383],[-16.797,22.937],[-16.969,22.491],[-16.994,21.995],[-17.019,21.499],[-17.044,21.003],[-17.069,20.507],[-17.094,20.01],[-17.119,19.514],[-17.143,19.018],[-17.168,18.522],[-17.192,18.026],[-17.216,17.529],[-17.24,17.033],[-17.264,16.537],[-17.288,16.041],[-17.311,15.545],[-17.335,15.048],[-17.358,14.552],[-17.381,14.056],[-17.404,13.56],[-17.428,13.064],[-17.45,12.567],[-17.473,12.071],[-17.496,11.575],[-17.519,11.079],[-17.542,10.582],[-17.564,10.086],[-17.587,9.59],[-17.609,9.094],[-17.631,8.598],[-18.099,8.627],[-18.568,8.655],[-19.036,8.683],[-19.504,8.71],[-19.972,8.737],[-20.441,8.763],[-20.909,8.788],[-21.377,8.813],[-21.846,8.837],[-22.315,8.861],[-22.783,8.884],[-23.252,8.907]]}},{"type":"Feature","properties":{"boundary_type":"ridge","feature_type":"gpml:MidOceanRidge","polarity":null,"overriding_plate_id":null,"subducting_plate_id":null,"plate_ids":[701,50101],"name":""},"geometry":{"type":"LineString","coordinates":[[-23.97,-13.964],[-24.166,-13.934]]}},{"type":"Feature","properties":{"boundary_type":"ridge","feature_type":"gpml:MidOceanRidge","polarity":null,"overriding_plate_id":null,"subducting_plate_id":null,"plate_ids":[602,50101],"name":""},"geometry":{"type":"LineString","coordinates":[[-24.166,-13.934],[-24.666,-13.857],[-25.165,-13.779],[-25.664,-13.7],[-26.162,-13.62],[-26.661,-13.539],[-27.159,-13.457],[-27.656,-13.373],[-28.153,-13.289],[-28.65,-13.204],[-29.147,-13.118],[-29.643,-13.031],[-30.139,-12.944],[-30.634,-12.855],[-31.13,-12.765],[-31.624,-12.674],[-32.119,-12.583],[-32.613,-12.49],[-33.107,-12.397],[-33.6,-12.303],[-34.093,-12.207],[-34.026,-11.746],[-33.958,-11.285],[-33.891,-10.824],[-33.824,-10.363],[-33.758,-9.902],[-33.691,-9.44],[-34.185,-9.477],[-34.679,-9.512],[-35.173,-9.547],[-35.667,-9.581],[-36.162,-9.615],[-36.656,-9.648],[-37.15,-9.68],[-37.645,-9.711],[-38.14,-9.742],[-38.635,-9.772],[-39.129,-9.801],[-39.624,-9.829],[-40.119,-9.857],[-40.614,-9.884],[-41.11,-9.911],[-41.605,-9.936],[-42.1,-9.961],[-42.596,-9.985],[-43.091,-10.009],[-43.587,-10.031],[-44.082,-10.053],[-44.578,-10.075],[-45.074,-10.095],[-45.57,-10.115],[-46.065,-10.134],[-46.561,-10.152],[-47.057,-10.17],[-47.553,-10.187],[-48.05,-10.203],[-48.546,-10.218],[-49.042,-10.232],[-49.217,-10.653],[-49.393,-11.073],[-49.569,-11.493],[-49.746,-11.913],[-49.924,-12.333],[-50.102,-12.753],[-50.28,-13.172],[-50.756,-13.325],[-51.232,-13.477],[-51.709,-13.628],[-52.186,-13.778],[-52.664,-13.927],[-53.142,-14.075],[-53.622,-14.222],[-54.101,-14.368],[-54.582,-14.514],[-55.063,-14.658],[-55.545,-14.801],[-56.027,-14.944],[-56.066,-15.376],[-56.106,-15.809],[-56.145,-16.242],[-56.185,-16.675],[-56.622,-16.934],[-57.06,-17.191],[-57.5,-17.448],[-57.941,-17.704],[-58.383,-17.958],[-58.826,-18.212],[-59.271,-18.465],[-59.717,-18.716],[-60.164,-18.967],[-60.613,-19.216],[-61.063,-19.465],[-61.514,-19.712],[-61.967,-19.958],[-62.421,-20.203],[-62.877,-20.447],[-63.334,-20.689],[-63.793,-20.931],[-64.253,-21.171],[-64.714,-21.41],[-65.177,-21.648],[-65.642,-21.884],[-66.108,-22.119],[-66.575,-22.353],[-67.044,-22.585],[-67.515,-22.816],[-67.988,-23.046],[-68.462,-23.274],[-68.937,-23.501],[-69.414,-23.726]]}},{"type":"Feature","properties":{"boundary_type":"subduction","feature_type":"gpml:SubductionZone","polarity":"Left","overriding_plate_id":602,"subducting_plate_id":101,"plate_ids":[101,602],"name":""},"geometry":{"type":"LineString","coordinates":[[-100.972,18.168],[-100.977,17.834],[-100.982,17.499],[-100.987,17.165]]}},{"type":"Feature","properties":{"boundary_type":"subduction","feature_type":"gpml:SubductionZone","polarity":"Left","overriding_plate_id":602,"subducting_plate_id":501,"plate_ids":[501,602],"name":""},"geometry":{"type":"LineString","coordinates":[[-100.987,17.165],[-100.994,16.679],[-101.001,16.193],[-101.008,15.707],[-101.015,15.221],[-101.022,14.735],[-101.029,14.249],[-101.036,13.763],[-101.042,13.277],[-101.049,12.791],[-101.056,12.305],[-101.063,11.819],[-101.07,11.333],[-101.076,10.847],[-101.083,10.361],[-100.985,9.88],[-100.887,9.4],[-100.789,8.919],[-100.692,8.439],[-100.594,7.958],[-100.498,7.477],[-100.401,6.997],[-100.304,6.516],[-100.208,6.035],[-100.112,5.554],[-100.016,5.074],[-99.92,4.593],[-99.824,4.112],[-99.728,3.631],[-99.633,3.15],[-99.538,2.67],[-99.442,2.189],[-99.347,1.708],[-99.252,1.227],[-99.156,0.746],[-99.061,0.265],[-98.966,-0.215],[-98.871,-0.696],[-98.776,-1.177],[-98.68,-1.658],[-98.359,-2.028],[-98.038,-2.397],[-97.716,-2.766],[-97.394,-3.136],[-97.072,-3.505],[-96.75,-3.874],[-96.427,-4.243],[-96.104,-4.612],[-95.781,-4.981],[-95.458,-5.349],[-95.134,-5.717],[-94.809,-6.086],[-94.485,-6.454],[-94.159,-6.821],[-93.833,-7.189],[-93.507,-7.556],[-93.18,-7.923],[-92.853,-8.29],[-92.525,-8.657],[-92.196,-9.023],[-91.867,-9.389],[-91.537,-9.755],[-91.125,-10.021],[-90.713,-10.286],[-90.3,-10.551],[-89.887,-10.816],[-89.472,-11.079],[-89.057,-11.343],[-88.642,-11.605],[-88.225,-11.868],[-87.808,-12.129],[-87.39,-12.39],[-86.971,-12.65],[-86.551,-12.91],[-86.13,-13.169],[-85.708,-13.427],[-85.286,-13.684],[-84.862,-13.941],[-84.438,-14.197],[-84.013,-14.452],[-83.586,-14.707],[-83.159,-14.961],[-82.73,-15.214],[-82.301,-15.466],[-81.871,-15.717],[-81.439,-15.968],[-81.007,-16.217],[-80.573,-16.466],[-80.104,-16.621],[-79.634,-16.775],[-79.164,-16.928],[-78.692,-17.08],[-78.22,-17.231],[-77.747,-17.381],[-77.274,-17.53],[-76.799,-17.677],[-76.324,-17.824]]}},{"type":"Feature","properties":{"boundary_type":"subduction","feature_type":"gpml:SubductionZone","polarity":"Left","overriding_plate_id":602,"subducting_plate_id":501,"plate_ids":[501,602],"name":""},"geometry":{"type":"LineString","coordinates":[[-72.596,-22.299],[-72.145,-22.507],[-71.694,-22.713],[-71.24,-22.919],[-70.786,-23.123],[-70.33,-23.325],[-69.873,-23.526],[-69.414,-23.726]]}},{"type":"Feature","properties":{"boundary_type":"subduction","feature_type":"gpml:SubductionZone","polarity":"Left","overriding_plate_id":50101,"subducting_plate_id":501,"plate_ids":[501,50101],"name":""},"geometry":{"type":"LineString","coordinates":[[-69.414,-23.726],[-68.935,-23.933],[-68.455,-24.138],[-67.972,-24.342],[-67.489,-24.544],[-67.003,-24.745],[-66.517,-24.944],[-66.028,-25.142],[-65.538,-25.338],[-65.047,-25.532],[-64.553,-25.724],[-64.059,-25.915],[-63.562,-26.105],[-63.064,-26.292],[-62.565,-26.478],[-62.064,-26.662],[-61.561,-26.845],[-61.056,-27.025],[-60.55,-27.204],[-60.043,-27.381],[-59.534,-27.556],[-59.023,-27.729],[-58.51,-27.901],[-57.996,-28.07],[-57.48,-28.238],[-56.963,-28.403],[-56.444,-28.567],[-55.924,-28.729],[-55.401,-28.888],[-54.878,-29.046],[-54.351,-29.235],[-53.823,-29.422],[-53.292,-29.607],[-52.76,-29.79],[-52.225,-29.971],[-51.689,-30.149],[-51.151,-30.326],[-50.611,-30.5],[-50.069,-30.672],[-49.525,-30.841],[-48.979,-31.009],[-48.431,-31.174],[-47.881,-31.337],[-47.33,-31.497],[-46.776,-31.655],[-46.221,-31.811],[-45.664,-31.964],[-45.104,-32.115],[-44.544,-32.263],[-43.981,-32.409],[-43.416,-32.552],[-42.85,-32.693],[-42.282,-32.831],[-41.712,-32.967],[-41.141,-33.1],[-40.567,-33.231],[-39.992,-33.358],[-39.416,-33.484],[-38.837,-33.606],[-38.257,-33.726],[-37.676,-33.843],[-37.093,-33.957],[-36.508,-34.069],[-35.922,-34.178],[-35.338,-34.257],[-34.753,-34.333],[-34.168,-34.406],[-33.581,-34.477],[-32.993,-34.545],[-32.405,-34.61],[-31.815,-34.672],[-31.225,-34.732],[-30.633,-34.788],[-30.08,-34.873],[-29.526,-34.956],[-28.97,-35.036],[-28.414,-35.114],[-27.856,-35.189],[-27.297,-35.261],[-26.738,-35.331],[-26.177,-35.399],[-25.616,-35.463],[-25.053,-35.526],[-24.49,-35.585]]}},{"type":"Feature","properties":{"boundary_type":"subduction","feature_type":"gpml:SubductionZone","polarity":"Left","overriding_plate_id":701,"subducting_plate_id":501,"plate_ids":[501,701],"name":""},"geometry":{"type":"LineString","coordinates":[[-24.49,-35.585],[-23.95,-35.64],[-23.41,-35.692],[-22.869,-35.741],[-22.327,-35.789]]}},{"type":"Feature","properties":{"boundary_type":"ridge","feature_type":"gpml:MidOceanRidge","polarity":null,"overriding_plate_id":null,"subducting_plate_id":null,"plate_ids":[701,50101],"name":""},"geometry":{"type":"LineString","coordinates":[[-23.97,-13.964],[-24.167,-14.411],[-24.365,-14.858],[-24.564,-15.305],[-24.764,-15.752],[-24.965,-16.198],[-25.167,-16.644],[-25.369,-17.09],[-25.573,-17.536],[-25.777,-17.982],[-25.983,-18.427],[-26.19,-18.872],[-26.398,-19.317],[-26.606,-19.762],[-26.816,-20.206],[-27.028,-20.65],[-27.24,-21.094],[-27.454,-21.538],[-27.669,-21.981],[-27.886,-22.425],[-27.444,-22.672],[-27.001,-22.919],[-26.556,-23.164],[-26.11,-23.408],[-25.662,-23.651],[-25.212,-23.893],[-24.761,-24.133],[-24.308,-24.372],[-23.853,-24.61],[-23.397,-24.846],[-23.605,-25.279],[-23.815,-25.713],[-24.026,-26.146],[-24.239,-26.578],[-24.453,-27.01],[-24.669,-27.442],[-24.887,-27.874],[-25.106,-28.305],[-24.689,-28.494],[-24.27,-28.681],[-23.85,-28.866],[-23.428,-29.051],[-23.004,-29.234],[-23.112,-29.723],[-23.22,-30.212],[-23.329,-30.701],[-23.44,-31.19],[-23.551,-31.679],[-23.664,-32.167],[-23.778,-32.656],[-23.894,-33.144],[-24.01,-33.633],[-24.128,-34.121],[-24.247,-34.609],[-24.368,-35.097],[-24.49,-35.585]]}},{"type":"Feature","properties":{"boundary_type":"ridge","feature_type":"gpml:MidOceanRidge","polarity":null,"overriding_plate_id":null,"subducting_plate_id":null,"plate_ids":[101,302],"name":""},"geometry":{"type":"LineString","coordinates":[[-139.451,-0.751],[-139.687,-0.315],[-139.923,0.12],[-140.158,0.556],[-140.394,0.991],[-140.63,1.427],[-140.866,1.862],[-141.102,2.298],[-141.338,2.733],[-141.574,3.169],[-141.811,3.604],[-142.047,4.039],[-142.284,4.474],[-142.521,4.91],[-142.759,5.345],[-142.997,5.78],[-143.235,6.214],[-143.474,6.649],[-143.713,7.084],[-143.952,7.518],[-144.192,7.953],[-144.433,8.387],[-144.057,8.707],[-143.681,9.028],[-143.304,9.347],[-142.927,9.667],[-142.548,9.986],[-142.169,10.304],[-141.789,10.623],[-141.409,10.94],[-141.027,11.257],[-140.645,11.574],[-140.262,11.89],[-139.878,12.206],[-139.493,12.521],[-139.107,12.836],[-138.72,13.15],[-138.333,13.463],[-137.944,13.776],[-137.554,14.089],[-137.163,14.4],[-136.771,14.711],[-137.155,14.988],[-137.539,15.263],[-137.925,15.538],[-138.312,15.812],[-138.7,16.086],[-139.089,16.359],[-138.802,16.766],[-138.514,17.173],[-138.225,17.58],[-137.934,17.986],[-137.642,18.392],[-137.349,18.797],[-137.054,19.202],[-136.758,19.606],[-136.461,20.01],[-136.161,20.413],[-135.861,20.816],[-135.558,21.219],[-135.254,21.62],[-134.949,22.022],[-134.641,22.422],[-134.332,22.822],[-134.021,23.222],[-133.708,23.621],[-134.105,23.798],[-134.503,23.974],[-134.902,24.15],[-135.302,24.324],[-135.703,24.497],[-135.559,24.957],[-135.415,25.416],[-135.27,25.875],[-135.123,26.334],[-134.976,26.792],[-134.827,27.251],[-134.677,27.71],[-134.525,28.168],[-134.372,28.626],[-134.218,29.084],[-134.063,29.542],[-133.906,29.999]]}},{"type":"Feature","properties":{"boundary_type":"ridge","feature_type":"gpml:MidOceanRidge","polarity":null,"overriding_plate_id":null,"subducting_plate_id":null,"plate_ids":[101,501],"name":""},"geometry":{"type":"LineString","coordinates":[[-100.987,17.165],[-101.497,17.143],[-102.007,17.121],[-102.517,17.097],[-103.027,17.072],[-103.536,17.045],[-104.046,17.017],[-104.555,16.988],[-105.064,16.958],[-105.573,16.926],[-106.081,16.893],[-106.59,16.859],[-107.098,16.824],[-107.607,16.787],[-108.115,16.749],[-108.622,16.71],[-109.13,16.67],[-109.637,16.628],[-110.144,16.585],[-110.651,16.541],[-111.158,16.496],[-111.664,16.45],[-112.171,16.402],[-112.052,16.088],[-111.935,15.774],[-111.817,15.46],[-112.311,15.359],[-112.805,15.256],[-113.298,15.152],[-113.791,15.047],[-114.283,14.941],[-114.775,14.834],[-115.266,14.726],[-115.757,14.616],[-116.248,14.506],[-116.737,14.395],[-117.227,14.283],[-117.716,14.17],[-118.204,14.055],[-118.692,13.94],[-119.179,13.824],[-119.666,13.707],[-120.152,13.589],[-120.638,13.47],[-121.124,13.35],[-121.609,13.229],[-122.093,13.107],[-122.577,12.985],[-123.061,12.861],[-123.544,12.737],[-124.026,12.611],[-124.508,12.485],[-124.99,12.358],[-125.471,12.23],[-125.951,12.101],[-126.432,11.972],[-126.911,11.841],[-126.675,11.507],[-126.44,11.173],[-126.205,10.838],[-126.589,10.52],[-126.973,10.2],[-127.356,9.88],[-127.738,9.56],[-128.12,9.239],[-128.5,8.918],[-128.88,8.597],[-129.26,8.275],[-129.639,7.953],[-130.017,7.63],[-130.395,7.307],[-130.772,6.984],[-131.149,6.661],[-131.525,6.337],[-131.9,6.013],[-132.276,5.689],[-132.65,5.364],[-133.025,5.039],[-133.399,4.714],[-133.772,4.389],[-134.146,4.064],[-134.519,3.738],[-134.892,3.412],[-135.264,3.087],[-135.636,2.761],[-136.008,2.435],[-136.38,2.108],[-136.752,1.782],[-137.124,1.456],[-137.495,1.129],[-137.867,0.803],[-138.238,0.476],[-138.609,0.15],[-138.981,-0.177],[-139.352,-0.503],[-139.451,-0.751]]}},{"type":"Feature","properties":{"boundary_type":"ridge","feature_type":"gpml:MidOceanRidge","polarity":null,"overriding_plate_id":null,"subducting_plate_id":null,"plate_ids":[302,501],"name":""},"geometry":{"type":"LineString","coordinates":[[-139.451,-0.751],[-139.552,-1.002]]}},{"type":"Feature","properties":{"boundary_type":"ridge","feature_type":"gpml:MidOceanRidge","polarity":null,"overriding_plate_id":null,"subducting_plate_id":null,"plate_ids":[302,501],"name":""},"geometry":{"type":"LineString","coordinates":[[-139.552,-1.002],[-139.239,-1.33],[-138.925,-1.659],[-138.611,-1.987],[-138.297,-2.316],[-137.983,-2.644],[-137.668,-2.972],[-138.09,-3.23],[-138.511,-3.488],[-138.933,-3.746],[-139.355,-4.004],[-139.777,-4.261],[-140.2,-4.518],[-140.623,-4.775],[-141.046,-5.032],[-141.469,-5.288],[-141.893,-5.544],[-142.317,-5.8],[-142.742,-6.056],[-143.167,-6.311],[-143.592,-6.566],[-144.018,-6.82],[-144.444,-7.074],[-144.871,-7.328],[-145.298,-7.581],[-145.726,-7.834],[-146.154,-8.086],[-146.583,-8.338],[-147.012,-8.59],[-147.442,-8.841],[-147.873,-9.091],[-148.304,-9.341],[-148.736,-9.591],[-149.168,-9.84],[-149.601,-10.088],[-150.035,-10.336],[-150.469,-10.584],[-150.904,-10.83],[-151.34,-11.076],[-151.777,-11.322],[-152.197,-11.506],[-152.619,-11.69],[-153.041,-11.873],[-153.464,-12.055],[-153.887,-12.237],[-154.311,-12.418],[-154.735,-12.598]]}},{"type":"Feature","properties":{"boundary_type":"ridge","feature_type":"gpml:MidOceanRidge","polarity":null,"overriding_plate_id":null,"subducting_plate_id":null,"plate_ids":[501,90109],"name":""},"geometry":{"type":"LineString","coordinates":[[-154.735,-12.598],[-155.15,-12.774],[-155.566,-12.949],[-155.982,-13.123]]}},{"type":"Feature","properties":{"boundary_type":"subduction","feature_type":"gpml:SubductionZone","polarity":"Left","overriding_plate_id":201,"subducting_plate_id":501,"plate_ids":[201,501],"name":""},"geometry":{"type":"LineString","coordinates":[[112.104,-20.144],[112.298,-20.56],[112.492,-20.975],[112.688,-21.39],[112.885,-21.806],[113.082,-22.22],[113.282,-22.635],[113.482,-23.049],[113.683,-23.463],[113.886,-23.877],[114.199,-24.254],[114.513,-24.631],[114.83,-25.006],[115.148,-25.381],[115.468,-25.756],[115.79,-26.129],[116.115,-26.502],[116.441,-26.874],[116.77,-27.246],[117.101,-27.616],[117.434,-27.986],[117.769,-28.355],[118.107,-28.724],[118.447,-29.091],[118.79,-29.458],[119.135,-29.823],[119.482,-30.188],[119.832,-30.552],[120.285,-30.863],[120.741,-31.173],[121.2,-31.481],[121.662,-31.788],[122.127,-32.093],[122.595,-32.396],[123.066,-32.698],[123.541,-32.998],[124.018,-33.296],[124.499,-33.592],[124.984,-33.886],[125.471,-34.178],[125.962,-34.469],[126.457,-34.757],[126.954,-35.043],[127.456,-35.328],[127.961,-35.61],[128.469,-35.89],[128.981,-36.168],[129.497,-36.444],[130.016,-36.718]]}},{"type":"Feature","properties":{"boundary_type":"subduction","feature_type":"gpml:SubductionZone","polarity":"Left","overriding_plate_id":602,"subducting_plate_id":501,"plate_ids":[501,602],"name":""},"geometry":{"type":"LineString","coordinates":[[-76.324,-17.824],[-76.028,-18.192],[-75.731,-18.56],[-75.432,-18.927],[-75.132,-19.294],[-74.83,-19.66],[-74.528,-20.026],[-74.223,-20.392],[-73.918,-20.756],[-73.61,-21.121],[-73.302,-21.484],[-72.992,-21.848],[-72.68,-22.21],[-72.596,-22.299]]}},{"type":"Feature","properties":{"boundary_type":"subduction","feature_type":"gpml:SubductionZone","polarity":"Right","overriding_plate_id":701,"subducting_plate_id":801,"plate_ids":[701,801],"name":""},"geometry":{"type":"LineString","coordinates":[[35.066,-19.834],[35.322,-19.903],[35.578,-19.972]]}},{"type":"Feature","properties":{"boundary_type":"subduction","feature_type":"gpml:SubductionZone","polarity":"Right","overriding_plate_id":501,"subducting_plate_id":801,"plate_ids":[501,801],"name":""},"geometry":{"type":"LineString","coordinates":[[35.578,-19.972],[36.086,-20.108],[36.595,-20.242],[37.105,-20.374],[37.615,-20.505],[38.127,-20.635],[38.639,-20.763],[39.152,-20.89],[39.667,-21.015],[40.181,-21.138],[40.697,-21.26],[41.214,-21.381],[41.731,-21.5],[42.25,-21.617],[42.769,-21.732],[43.289,-21.846],[43.81,-21.959],[44.331,-22.069],[44.854,-22.179],[45.377,-22.286],[45.901,-22.392],[46.426,-22.496],[46.952,-22.598],[47.478,-22.699],[48.005,-22.797],[48.533,-22.895],[49.062,-22.99],[49.591,-23.084],[50.122,-23.175],[50.652,-23.266],[51.184,-23.354],[51.716,-23.44],[52.249,-23.525],[52.783,-23.608],[53.317,-23.689],[53.852,-23.768],[54.388,-23.846],[54.924,-23.921],[55.461,-23.995],[55.999,-24.067],[56.537,-24.136],[57.075,-24.204],[57.615,-24.271],[58.154,-24.335],[58.695,-24.397],[59.236,-24.458],[59.777,-24.516],[60.319,-24.573],[60.861,-24.627],[61.404,-24.68],[61.947,-24.73],[62.491,-24.779],[63.035,-24.826],[63.579,-24.871],[64.124,-24.914],[64.67,-24.954],[65.215,-24.993],[65.761,-25.03],[66.308,-25.065],[66.854,-25.098],[67.401,-25.129],[67.948,-25.158],[68.495,-25.184],[69.043,-25.209],[69.591,-25.232],[70.139,-25.253],[70.687,-25.272],[71.235,-25.288],[71.784,-25.303],[72.333,-25.316],[72.881,-25.326],[73.43,-25.335],[73.979,-25.342],[74.531,-25.345],[75.083,-25.346],[75.635,-25.345],[76.187,-25.342],[76.738,-25.337],[77.29,-25.33],[77.842,-25.321],[78.394,-25.31],[78.945,-25.297],[79.497,-25.282],[80.048,-25.264],[80.599,-25.245],[81.15,-25.223],[81.7,-25.2],[82.251,-25.175],[82.801,-25.147],[83.351,-25.117],[83.901,-25.086],[84.45,-25.052],[84.999,-25.017],[85.548,-24.979],[86.097,-24.939],[86.645,-24.898],[87.192,-24.854],[87.74,-24.808],[88.286,-24.761],[88.833,-24.711],[89.379,-24.66],[89.924,-24.606],[90.469,-24.551],[91.014,-24.493],[91.558,-24.434],[92.102,-24.372],[92.645,-24.309],[93.187,-24.244],[93.729,-24.176],[94.27,-24.107],[94.811,-24.036],[95.351,-23.963],[95.891,-23.889],[96.43,-23.812],[96.968,-23.734],[97.505,-23.653],[98.042,-23.571],[98.579,-23.487],[99.114,-23.401],[99.649,-23.313],[100.183,-23.224],[100.716,-23.132],[101.249,-23.039],[101.781,-22.944],[102.312,-22.848],[102.843,-22.749],[103.372,-22.649],[103.901,-22.547],[104.429,-22.443],[104.956,-22.338],[105.483,-22.231],[106.009,-22.122],[106.533,-22.012],[107.057,-21.9],[107.581,-21.786],[108.103,-21.67],[108.548,-21.507],[108.992,-21.342],[109.435,-21.176],[109.877,-21.009],[110.317,-20.841],[110.757,-20.672],[111.196,-20.501],[111.634,-20.33],[112.071,-20.157]]}},{"type":"Feature","properties":{"boundary_type":"subduction","feature_type":"gpml:SubductionZone","polarity":"Right","overriding_plate_id":501,"subducting_plate_id":201,"plate_ids":[201,501],"name":""},"geometry":{"type":"LineString","coordinates":[[112.071,-20.157],[112.104,-20.144]]}},{"type":"Feature","properties":{"boundary_type":"ridge","feature_type":"gpml:MidOceanRidge","polarity":null,"overriding_plate_id":null,"subducting_plate_id":null,"plate_ids":[101,801],"name":""},"geometry":{"type":"LineString","coordinates":[[105.389,46.082],[106.09,46.165],[106.792,46.244],[107.497,46.318],[107.648,45.847],[107.797,45.376],[107.943,44.904],[108.087,44.433],[108.229,43.961],[108.368,43.489],[108.505,43.017],[108.64,42.545],[108.773,42.072],[108.904,41.6],[109.033,41.127],[109.161,40.654],[109.286,40.181],[109.41,39.708],[109.532,39.235],[109.653,38.762],[109.771,38.288],[109.889,37.815],[110.005,37.341],[110.119,36.867],[110.232,36.393],[110.344,35.919],[110.454,35.445],[110.563,34.971],[111.153,35.032],[111.743,35.09],[112.335,35.145],[112.927,35.198],[113.52,35.248],[114.114,35.294],[114.709,35.338],[115.304,35.379],[115.899,35.417],[116.495,35.452],[117.092,35.484],[117.689,35.513],[118.287,35.54],[118.885,35.563],[119.483,35.583],[120.081,35.601],[120.68,35.615],[121.279,35.626],[121.878,35.635],[122.477,35.64],[123.077,35.643],[123.676,35.642],[124.275,35.639],[124.874,35.633],[125.473,35.623],[126.072,35.611]]}},{"type":"Feature","properties":{"boundary_type":"ridge","feature_type":"gpml:MidOceanRidge","polarity":null,"overriding_plate_id":null,"subducting_plate_id":null,"plate_ids":[101,201],"name":""},"geometry":{"type":"LineString","coordinates":[[126.072,35.611],[126.632,35.597],[127.192,35.58],[127.752,35.561],[128.311,35.539],[128.87,35.514],[129.429,35.487],[129.987,35.458]]}},{"type":"Feature","properties":{"boundary_type":"transform","feature_type":"gpml:Transform","polarity":null,"overriding_plate_id":null,"subducting_plate_id":null,"plate_ids":[101,90109],"name":""},"geometry":{"type":"LineString","coordinates":[[131.753,43.684],[131.644,43.235],[131.538,42.786],[131.433,42.337],[131.329,41.888],[131.227,41.438],[131.126,40.989]]}},{"type":"Feature","properties":{"boundary_type":"transform","feature_type":"gpml:Transform","polarity":null,"overriding_plate_id":null,"subducting_plate_id":null,"plate_ids":[101,90110],"name":""},"geometry":{"type":"LineString","coordinates":[[131.126,40.989],[131.024,40.528],[130.924,40.068],[130.825,39.607],[130.727,39.146],[130.63,38.686],[130.535,38.225],[130.441,37.764],[130.348,37.303],[130.256,36.841],[130.165,36.38],[130.076,35.919],[129.987,35.458]]}},{"type":"Feature","properties":{"boundary_type":"transform","feature_type":"gpml:Transform","polarity":null,"overriding_plate_id":null,"subducting_plate_id":null,"plate_ids":[201,90110],"name":""},"geometry":{"type":"LineString","coordinates":[[129.987,35.458],[129.909,35.045]]}},{"type":"Feature","properties":{"boundary_type":"subduction","feature_type":"gpml:SubductionZone","polarity":"Left","overriding_plate_id":302,"subducting_plate_id":90109,"plate_ids":[302,90109],"name":""},"geometry":{"type":"LineString","coordinates":[[-177.056,25.833],[-176.803,25.425],[-176.552,25.017],[-176.302,24.608],[-176.054,24.198],[-175.808,23.788],[-175.563,23.378],[-175.32,22.968],[-175.111,22.535],[-174.903,22.102],[-174.696,21.669],[-174.491,21.236],[-174.286,20.802],[-174.083,20.369],[-173.881,19.935],[-173.68,19.5],[-173.481,19.066],[-173.282,18.631],[-173.084,18.196],[-172.887,17.761],[-172.692,17.326],[-172.497,16.89],[-172.303,16.455],[-172.055,16.052],[-171.808,15.65],[-171.562,15.247],[-171.317,14.843],[-171.073,14.44],[-170.83,14.036],[-170.587,13.632],[-170.346,13.228],[-170.105,12.824],[-169.865,12.419],[-169.626,12.014],[-169.387,11.609],[-169.15,11.204],[-168.918,10.777],[-168.687,10.349],[-168.456,9.921],[-168.226,9.493],[-167.997,9.065],[-167.768,8.637],[-167.54,8.209],[-167.312,7.78],[-167.085,7.351],[-166.858,6.923],[-166.632,6.494],[-166.405,6.065],[-166.18,5.636],[-165.954,5.207],[-165.729,4.778],[-165.455,4.379],[-165.18,3.981],[-164.906,3.583],[-164.632,3.184],[-164.359,2.786],[-164.085,2.387],[-163.812,1.989],[-163.539,1.59],[-163.265,1.192],[-162.992,0.793],[-162.719,0.394],[-162.446,-0.005],[-162.174,-0.403],[-161.901,-0.802],[-161.628,-1.201],[-161.354,-1.599],[-161.081,-1.998],[-160.808,-2.397],[-160.534,-2.795],[-160.261,-3.194],[-159.987,-3.592],[-159.713,-3.99],[-159.438,-4.389],[-159.164,-4.787],[-158.889,-5.185],[-158.613,-5.583],[-158.337,-5.98],[-158.061,-6.378],[-157.843,-6.794],[-157.624,-7.209],[-157.405,-7.624],[-157.185,-8.04],[-156.965,-8.455],[-156.745,-8.87],[-156.524,-9.285],[-156.302,-9.699],[-156.08,-10.114],[-155.858,-10.528],[-155.634,-10.943],[-155.411,-11.357],[-155.186,-11.771],[-154.961,-12.185],[-154.735,-12.598]]}},{"type":"Feature","properties":{"boundary_type":"ridge","feature_type":"gpml:MidOceanRidge","polarity":null,"overriding_plate_id":null,"subducting_plate_id":null,"plate_ids":[90109,90110],"name":""},"geometry":{"type":"LineString","coordinates":[[131.126,40.989],[131.758,40.842],[132.388,40.692],[133.014,40.538],[133.638,40.381],[134.259,40.221],[134.877,40.058],[135.491,39.891],[136.103,39.721],[136.712,39.547],[137.318,39.371],[137.92,39.191],[138.52,39.009],[139.116,38.823],[139.71,38.634],[140.3,38.443],[140.887,38.248],[141.471,38.05],[142.051,37.85],[142.629,37.647],[143.203,37.441],[143.774,37.232],[144.342,37.02],[144.907,36.806],[145.469,36.589],[146.027,36.37],[146.582,36.148],[147.135,35.923],[147.684,35.696],[148.229,35.466],[148.772,35.234],[149.312,34.999],[149.848,34.763],[150.382,34.523],[150.912,34.282],[151.439,34.038],[151.964,33.792],[152.485,33.544],[153.003,33.293],[153.519,33.041],[154.031,32.786],[154.54,32.53],[155.047,32.271],[155.55,32.01],[156.051,31.747],[156.549,31.483],[157.044,31.216],[157.536,30.947],[158.026,30.677],[158.513,30.405],[158.997,30.131],[159.478,29.855],[159.957,29.578],[160.433,29.299],[160.906,29.018],[161.377,28.735],[161.845,28.451],[162.311,28.165],[162.775,27.878],[163.235,27.589],[163.694,27.299],[164.15,27.007],[164.604,26.714],[165.055,26.419],[165.504,26.123],[165.951,25.825],[166.337,26.103],[166.725,26.381],[167.114,26.657],[167.506,26.932],[167.899,27.206],[168.295,27.479],[168.692,27.75],[169.053,27.367],[169.41,26.983],[169.766,26.597],[170.119,26.211],[170.469,25.824],[170.818,25.436],[171.164,25.048],[171.508,24.658],[171.849,24.268],[172.189,23.877],[172.527,23.485],[172.862,23.093],[173.196,22.7],[173.528,22.306],[173.857,21.911],[174.186,21.516],[174.512,21.12],[174.836,20.724],[175.159,20.327],[175.48,19.929],[175.8,19.531],[176.118,19.132],[176.434,18.733],[176.749,18.333],[177.063,17.933],[177.375,17.532],[177.686,17.131],[177.995,16.729],[178.303,16.327],[178.61,15.924],[178.916,15.521],[179.22,15.118],[179.523,14.714],[179.825,14.309],[-179.874,13.905],[-179.574,13.499],[-179.275,13.094],[-178.977,12.688],[-178.68,12.282],[-178.384,11.876],[-178.799,11.608],[-179.215,11.339],[-179.629,11.07],[179.958,10.801],[179.545,10.531],[179.133,10.26],[178.721,9.989],[178.311,9.717],[177.901,9.445],[177.491,9.172],[177.083,8.899],[176.675,8.626],[176.872,8.167],[177.069,7.708],[177.266,7.248],[177.463,6.789],[177.659,6.33],[177.854,5.87],[178.05,5.411],[178.245,4.951],[178.439,4.492],[178.634,4.032],[178.828,3.572],[179.022,3.112],[179.216,2.653],[179.41,2.193],[179.603,1.733],[179.797,1.273],[179.991,0.813],[-179.816,0.353],[-179.623,-0.107],[-179.429,-0.567],[-179.236,-1.027],[-179.042,-1.486],[-178.849,-1.946],[-178.655,-2.406],[-178.461,-2.866],[-178.267,-3.326],[-178.073,-3.786],[-177.878,-4.245],[-177.684,-4.705],[-177.489,-5.165],[-177.294,-5.624],[-177.762,-5.755],[-178.231,-5.886],[-178.7,-6.017],[-179.169,-6.147],[-179.639,-6.277],[179.892,-6.406],[-179.935,-6.872],[-179.76,-7.339],[-179.586,-7.805],[-179.411,-8.271],[-179.235,-8.738],[-179.06,-9.204],[-178.883,-9.67],[-178.707,-10.136],[-178.529,-10.601],[-178.351,-11.067],[-178.173,-11.533],[-177.994,-11.998],[-177.814,-12.464],[-177.634,-12.929],[-177.453,-13.394],[-177.272,-13.859],[-177.089,-14.324],[-176.906,-14.789],[-176.722,-15.253],[-176.537,-15.718],[-176.352,-16.182],[-176.165,-16.646],[-175.978,-17.11],[-175.79,-17.574],[-175.601,-18.038],[-175.41,-18.501],[-175.219,-18.964],[-175.027,-19.427],[-174.833,-19.89],[-174.639,-20.353],[-174.443,-20.815],[-174.246,-21.277],[-174.048,-21.739],[-173.848,-22.201],[-173.648,-22.662],[-173.445,-23.124],[-173.242,-23.585],[-173.037,-24.045],[-172.83,-24.506],[-172.622,-24.966],[-172.413,-25.426],[-172.202,-25.885],[-171.989,-26.345],[-171.775,-26.803]]}},{"type":"Feature","properties":{"boundary_type":"ridge","feature_type":"gpml:MidOceanRidge","polarity":null,"overriding_plate_id":null,"subducting_plate_id":null,"plate_ids":[501,90109],"name":""},"geometry":{"type":"LineString","coordinates":[[-171.775,-26.803],[-171.634,-27.102],[-171.493,-27.401]]}},{"type":"Feature","properties":{"boundary_type":"subduction","feature_type":"gpml:SubductionZone","polarity":"Right","overriding_plate_id":201,"subducting_plate_id":90110,"plate_ids":[201,90110],"name":""},"geometry":{"type":"LineString","coordinates":[[129.909,35.045],[130.44,34.801],[130.969,34.555],[131.494,34.307],[132.016,34.057],[132.535,33.804],[133.051,33.549],[133.563,33.293],[134.073,33.034],[134.58,32.773],[135.084,32.509],[135.585,32.244],[136.083,31.977],[136.578,31.709],[137.07,31.438],[137.56,31.165],[138.046,30.89],[138.53,30.614],[139.011,30.336],[139.489,30.056],[139.965,29.774],[140.437,29.491],[140.908,29.206],[141.375,28.92],[141.84,28.631],[142.303,28.342],[142.763,28.05],[143.22,27.757],[143.675,27.463],[144.128,27.167],[144.578,26.87],[145.026,26.571],[145.471,26.271],[145.914,25.97],[146.355,25.667],[146.794,25.363],[147.23,25.057],[147.665,24.751],[148.097,24.443],[148.527,24.134],[148.955,23.823],[149.381,23.512],[149.805,23.199],[150.227,22.885],[150.509,22.469],[150.789,22.051],[151.068,21.634],[151.345,21.216],[151.621,20.797],[151.895,20.378],[152.168,19.959],[152.439,19.539],[152.709,19.119],[152.977,18.698],[153.245,18.277],[153.51,17.856],[153.775,17.434],[154.038,17.012],[154.3,16.59],[154.561,16.167],[154.821,15.744],[155.08,15.321],[155.338,14.897],[155.595,14.473],[155.851,14.049],[156.105,13.625],[156.359,13.2],[156.612,12.775],[156.865,12.35],[157.116,11.924],[157.366,11.499],[157.616,11.073],[157.865,10.647],[158.114,10.221],[158.175,9.741],[158.236,9.261],[158.297,8.781],[158.357,8.301],[158.418,7.821],[158.478,7.342],[158.538,6.862],[158.598,6.382],[158.658,5.902],[158.718,5.422],[158.778,4.942],[158.837,4.462],[158.897,3.982],[158.956,3.502],[159.016,3.022],[159.075,2.542],[159.134,2.063],[159.194,1.583],[159.253,1.103],[159.312,0.623],[159.372,0.143],[159.431,-0.337],[159.49,-0.817],[159.549,-1.297],[159.609,-1.777],[159.52,-2.269],[159.432,-2.76],[159.344,-3.252],[159.255,-3.743],[159.167,-4.235],[159.078,-4.726],[158.989,-5.218],[158.9,-5.709],[158.811,-6.201],[158.722,-6.692],[158.633,-7.184],[158.543,-7.675],[158.453,-8.167],[158.363,-8.658],[158.273,-9.15],[158.182,-9.641],[158.091,-10.132],[158.0,-10.624],[157.909,-11.115],[157.817,-11.606],[157.725,-12.098],[157.633,-12.589],[157.54,-13.08],[157.447,-13.571],[157.354,-14.062],[157.26,-14.553],[157.166,-15.044],[157.071,-15.535],[157.006,-16.025],[156.941,-16.516],[156.876,-17.006],[156.81,-17.496],[156.744,-17.986],[156.677,-18.476],[156.611,-18.966],[156.543,-19.455],[156.476,-19.945],[156.408,-20.435],[156.339,-20.925],[156.27,-21.415],[156.201,-21.905],[156.131,-22.395],[156.061,-22.884],[155.99,-23.374],[155.918,-23.864],[155.846,-24.353],[155.774,-24.843],[155.701,-25.332],[155.627,-25.822],[155.553,-26.311],[155.478,-26.801],[155.402,-27.29],[155.326,-27.78],[155.249,-28.269],[155.171,-28.758],[155.093,-29.248],[155.014,-29.737]]}},{"type":"Feature","properties":{"boundary_type":"subduction","feature_type":"gpml:SubductionZone","polarity":"Left","overriding_plate_id":201,"subducting_plate_id":801,"plate_ids":[201,801],"name":""},"geometry":{"type":"LineString","coordinates":[[117.933,0.935],[117.572,0.659],[117.21,0.383],[116.848,0.107],[116.487,-0.169],[116.125,-0.445],[115.764,-0.721],[115.402,-0.997],[115.04,-1.273],[114.678,-1.548],[114.316,-1.824],[114.161,-2.277],[114.006,-2.73],[113.851,-3.183],[113.695,-3.636],[113.539,-4.089],[113.384,-4.542],[113.227,-4.995],[113.071,-5.448],[112.915,-5.901],[112.758,-6.354],[112.601,-6.806],[112.444,-7.259],[112.286,-7.712],[112.128,-8.164],[111.97,-8.617],[111.811,-9.069],[111.652,-9.521],[111.492,-9.974],[111.332,-10.426],[111.346,-10.913],[111.359,-11.401],[111.372,-11.888],[111.386,-12.375],[111.399,-12.862],[111.413,-13.35],[111.427,-13.837],[111.44,-14.324],[111.454,-14.812],[111.468,-15.299],[111.482,-15.786],[111.496,-16.273],[111.51,-16.761],[111.589,-17.246],[111.668,-17.731],[111.748,-18.216],[111.828,-18.702],[111.908,-19.187],[111.99,-19.672],[112.071,-20.157]]}},{"type":"Feature","properties":{"boundary_type":"transform","feature_type":"gpml:Transform","polarity":null,"overriding_plate_id":null,"subducting_plate_id":null,"plate_ids":[201,801],"name":""},"geometry":{"type":"LineString","coordinates":[[126.072,35.611],[125.825,35.201],[125.58,34.791],[125.337,34.381],[125.097,33.97],[124.859,33.558],[124.624,33.146],[124.39,32.733],[124.159,32.32],[123.912,31.868],[123.668,31.415],[123.426,30.961],[123.186,30.507],[122.948,30.053],[122.713,29.598],[122.479,29.143],[122.248,28.687],[122.019,28.231],[121.792,27.775],[121.566,27.318],[121.343,26.861],[121.121,26.404],[120.901,25.946],[120.682,25.488],[120.466,25.029],[120.251,24.57],[120.037,24.111],[119.825,23.652],[119.615,23.192],[119.406,22.732],[119.198,22.272],[118.992,21.812],[118.868,21.341],[118.746,20.871],[118.623,20.4],[118.502,19.929],[118.382,19.458],[118.262,18.987],[118.142,18.516],[118.024,18.045],[117.906,17.574],[117.789,17.103],[117.672,16.632],[117.556,16.16],[117.44,15.689],[117.325,15.217],[117.21,14.746],[117.222,14.262],[117.233,13.779],[117.245,13.296],[117.256,12.812],[117.267,12.329],[117.278,11.845],[117.29,11.362],[117.301,10.879],[117.312,10.395],[117.323,9.912],[117.334,9.428],[117.345,8.945],[117.356,8.462],[117.367,7.978],[117.378,7.495],[117.389,7.011],[117.4,6.528],[117.411,6.044],[117.421,5.561],[117.473,5.098],[117.524,4.636],[117.576,4.173],[117.627,3.711],[117.678,3.248],[117.729,2.785],[117.78,2.323],[117.831,1.86],[117.882,1.397],[117.933,0.935]]}},{"type":"Feature","properties":{"boundary_type":"ridge","feature_type":"gpml:MidOceanRidge","polarity":null,"overriding_plate_id":null,"subducting_plate_id":null,"plate_ids":[501,90110],"name":""},"geometry":{"type":"LineString","coordinates":[[-171.775,-26.803],[-172.326,-26.782],[-172.877,-26.758],[-173.428,-26.733],[-173.978,-26.705],[-174.529,-26.675],[-175.079,-26.643],[-175.628,-26.609],[-176.178,-26.572],[-176.727,-26.534],[-177.275,-26.493],[-177.824,-26.451],[-178.371,-26.406],[-178.919,-26.359],[-179.466,-26.31],[179.988,-26.26],[179.442,-26.207],[178.896,-26.152],[178.352,-26.094],[177.807,-26.035],[177.263,-25.974],[176.72,-25.911],[176.177,-25.846],[175.635,-25.778],[175.094,-25.709],[174.553,-25.638],[174.013,-25.565],[173.474,-25.489],[172.935,-25.412],[172.397,-25.333],[171.859,-25.252],[171.323,-25.169],[170.787,-25.084],[170.252,-24.997],[170.129,-25.437],[170.006,-25.877],[169.882,-26.317],[169.757,-26.757],[169.632,-27.197],[169.505,-27.636],[169.377,-28.076],[169.248,-28.515],[169.118,-28.954],[168.574,-28.896],[168.03,-28.835],[167.487,-28.773],[166.945,-28.708],[166.403,-28.641],[165.862,-28.572],[165.322,-28.501],[164.782,-28.427],[164.244,-28.352],[163.706,-28.274],[163.168,-28.194],[162.632,-28.112],[162.097,-28.028],[161.562,-27.942],[161.028,-27.854],[160.495,-27.764],[159.963,-27.672],[159.432,-27.578],[158.902,-27.482],[158.373,-27.383],[157.844,-27.283],[157.317,-27.181],[156.79,-27.077]]}},{"type":"Feature","properties":{"boundary_type":"transform","feature_type":"gpml:Transform","polarity":null,"overriding_plate_id":null,"subducting_plate_id":null,"plate_ids":[501,90110],"name":""},"geometry":{"type":"LineString","coordinates":[[156.79,-27.077],[156.542,-27.458],[156.292,-27.839],[156.04,-28.22],[155.786,-28.6],[155.531,-28.979],[155.273,-29.358],[155.014,-29.737]]}},{"type":"Feature","properties":{"boundary_type":"transform","feature_type":"gpml:Transform","polarity":null,"overriding_plate_id":null,"subducting_plate_id":null,"plate_ids":[201,501],"name":""},"geometry":{"type":"LineString","coordinates":[[155.014,-29.737],[154.717,-30.165],[154.419,-30.593],[154.117,-31.02],[153.813,-31.447],[153.506,-31.872],[153.196,-32.297],[152.883,-32.721],[152.567,-33.145],[152.074,-33.385],[151.578,-33.623],[151.08,-33.859],[150.579,-34.093],[150.075,-34.325],[149.568,-34.555],[149.058,-34.783],[148.546,-35.008],[148.031,-35.232],[147.513,-35.453],[146.992,-35.672],[146.468,-35.889],[145.942,-36.104],[145.412,-36.316],[144.799,-36.384],[144.184,-36.448],[143.569,-36.509],[142.952,-36.567],[142.335,-36.622],[141.717,-36.674],[141.098,-36.722],[140.478,-36.767],[139.858,-36.809],[139.236,-36.848],[138.615,-36.884],[137.992,-36.916],[137.37,-36.945],[136.746,-36.971],[136.123,-36.993],[135.499,-37.013],[134.874,-37.029],[134.25,-37.042],[133.643,-37.005],[133.037,-36.964],[132.431,-36.921],[131.826,-36.875],[131.222,-36.825],[130.618,-36.773],[130.016,-36.718]]}},{"type":"Feature","properties":{"boundary_type":"ridge","feature_type":"gpml:MidOceanRidge","polarity":null,"overriding_plate_id":null,"subducting_plate_id":null,"plate_ids":[501,90109],"name":""},"geometry":{"type":"LineString","coordinates":[[-155.982,-13.123],[-156.122,-13.581],[-156.262,-14.038],[-156.402,-14.495],[-156.544,-14.953],[-156.685,-15.41],[-156.828,-15.867],[-156.971,-16.324],[-157.115,-16.781],[-157.259,-17.238],[-157.404,-17.695],[-157.55,-18.152],[-157.697,-18.608],[-157.845,-19.065],[-157.993,-19.521],[-158.142,-19.977],[-158.292,-20.433],[-158.443,-20.889],[-158.595,-21.345],[-159.082,-21.161],[-159.569,-20.976],[-160.054,-20.789],[-160.538,-20.601],[-161.02,-20.412],[-161.502,-20.221],[-161.982,-20.029],[-162.461,-19.836],[-162.939,-19.641],[-163.416,-19.445],[-163.892,-19.248],[-164.366,-19.05],[-164.84,-18.85],[-165.312,-18.65],[-165.589,-19.071],[-165.868,-19.493],[-166.149,-19.914],[-166.43,-20.334],[-166.714,-20.754],[-166.999,-21.173],[-167.285,-21.593],[-167.574,-22.011],[-167.864,-22.429],[-168.155,-22.847],[-168.449,-23.264],[-168.744,-23.68],[-169.041,-24.096],[-169.34,-24.511],[-169.641,-24.926],[-169.945,-25.34],[-170.25,-25.753],[-170.557,-26.166],[-170.867,-26.578],[-171.179,-26.99],[-171.493,-27.401]]}},{"type":"Feature","properties":{"boundary_type":"ridge","feature_type":"gpml:MidOceanRidge","polarity":null,"overriding_plate_id":null,"subducting_plate_id":null,"plate_ids":[101,602],"name":""},"geometry":{"type":"LineString","coordinates":[[-66.48,37.954],[-67.036,37.78],[-67.589,37.603],[-68.139,37.424],[-68.687,37.242],[-69.232,37.058],[-69.775,36.871],[-70.315,36.682],[-70.852,36.49],[-70.571,36.059],[-70.293,35.628],[-70.018,35.196],[-69.745,34.763],[-69.476,34.329],[-69.209,33.895],[-68.946,33.461],[-68.684,33.026],[-68.426,32.59],[-68.17,32.154],[-67.916,31.718],[-67.665,31.28],[-67.416,30.843],[-67.169,30.405],[-66.924,29.966],[-66.682,29.527],[-66.442,29.088],[-66.203,28.648],[-65.967,28.208],[-65.733,27.767],[-65.5,27.326],[-65.27,26.884],[-65.041,26.443],[-65.511,26.302],[-65.981,26.16],[-66.448,26.017],[-66.915,25.872],[-67.381,25.725],[-67.846,25.577],[-68.309,25.428],[-68.052,25.019],[-67.798,24.61],[-67.545,24.2],[-67.293,23.79],[-67.043,23.379],[-66.795,22.968],[-66.548,22.557],[-66.303,22.145],[-66.059,21.733],[-65.817,21.32],[-65.575,20.907],[-66.071,20.756],[-66.566,20.603],[-67.06,20.449],[-67.553,20.293],[-68.045,20.137],[-68.536,19.978],[-69.026,19.819],[-69.515,19.658],[-70.003,19.495],[-70.49,19.332],[-70.976,19.167],[-71.461,19.001],[-71.945,18.833],[-72.428,18.665],[-72.911,18.495],[-73.392,18.324],[-73.872,18.151],[-74.351,17.978],[-74.83,17.803],[-75.307,17.627],[-75.784,17.45],[-76.259,17.272],[-76.487,17.657],[-76.716,18.042],[-76.945,18.427],[-77.176,18.811],[-77.408,19.195],[-77.641,19.579],[-77.875,19.962],[-78.11,20.345],[-78.597,20.169],[-79.083,19.991],[-79.568,19.812],[-80.051,19.631],[-80.534,19.449],[-81.016,19.266],[-81.496,19.082],[-81.976,18.896],[-82.454,18.709],[-82.931,18.521],[-83.408,18.332],[-83.883,18.142],[-84.357,17.95],[-84.83,17.757],[-85.302,17.564],[-85.774,17.369],[-86.244,17.173],[-86.713,16.975],[-87.181,16.777],[-87.648,16.578],[-88.114,16.378],[-88.58,16.176],[-89.044,15.974],[-89.507,15.77],[-89.97,15.566],[-90.431,15.361],[-90.892,15.155],[-91.351,14.947],[-91.81,14.739],[-92.268,14.53],[-92.725,14.321],[-93.181,14.11],[-93.637,13.898],[-94.091,13.686],[-94.545,13.472],[-94.998,13.258],[-95.45,13.043],[-95.901,12.828],[-96.352,12.611],[-96.653,12.985],[-96.954,13.358],[-97.257,13.73],[-97.561,14.102],[-97.865,14.474],[-98.171,14.845],[-98.477,15.216],[-98.785,15.587],[-99.094,15.957],[-99.404,16.327],[-99.715,16.696],[-100.028,17.065],[-100.341,17.433],[-100.656,17.801],[-100.972,18.168]]}},{"type":"Feature","properties":{"boundary_type":"transform","feature_type":"gpml:Transform","polarity":null,"overriding_plate_id":null,"subducting_plate_id":null,"plate_ids":[701,801],"name":""},"geometry":{"type":"LineString","coordinates":[[55.639,15.648],[55.488,15.177],[55.339,14.705],[55.19,14.233],[55.041,13.762],[54.893,13.29],[54.746,12.818],[54.599,12.346],[54.453,11.874],[54.307,11.401],[54.162,10.929],[54.017,10.457],[53.872,9.984],[53.728,9.512],[53.585,9.039],[53.442,8.567],[53.299,8.094],[53.156,7.621],[53.014,7.149],[52.872,6.676],[52.731,6.203],[52.589,5.73],[52.448,5.257],[52.307,4.784],[52.166,4.312],[52.026,3.839],[51.885,3.366],[51.745,2.892],[51.605,2.419],[51.465,1.946],[51.325,1.473],[51.185,1.0],[51.045,0.527],[50.799,0.105],[50.553,-0.317],[50.307,-0.739],[50.06,-1.161],[49.814,-1.584],[49.567,-2.006],[49.321,-2.428],[49.074,-2.85],[48.827,-3.272],[48.58,-3.694],[48.332,-4.115],[48.085,-4.537],[47.837,-4.959],[47.589,-5.38],[47.34,-5.802],[47.091,-6.223],[46.842,-6.645],[46.592,-7.066],[46.342,-7.487],[46.091,-7.907],[45.84,-8.328],[45.588,-8.749],[45.335,-9.169],[45.082,-9.589],[44.829,-10.009],[44.575,-10.429],[44.32,-10.849],[44.02,-11.224],[43.719,-11.599],[43.418,-11.974],[43.115,-12.349],[42.812,-12.723],[42.508,-13.097],[42.203,-13.47],[41.897,-13.843],[41.59,-14.216],[41.282,-14.588],[40.973,-14.96],[40.663,-15.332],[40.352,-15.703],[40.04,-16.073],[39.726,-16.444],[39.344,-16.73],[38.962,-17.016],[38.578,-17.301],[38.192,-17.586],[37.806,-17.87],[37.418,-18.153],[37.03,-18.435],[36.639,-18.716],[36.248,-18.997],[35.855,-19.277],[35.461,-19.556],[35.066,-19.834]]}},{"type":"Feature","properties":{"boundary_type":"subduction","feature_type":"gpml:SubductionZone","polarity":"Right","overriding_plate_id":701,"subducting_plate_id":801,"plate_ids":[701,801],"name":""},"geometry":{"type":"LineString","coordinates":[[35.839,31.947],[36.334,31.735],[36.826,31.52],[37.317,31.303],[37.805,31.085],[38.291,30.865],[38.774,30.643],[39.256,30.419],[39.735,30.193],[40.212,29.966],[40.687,29.737],[41.16,29.506],[41.591,29.205],[42.019,28.902],[42.446,28.598],[42.869,28.293],[43.29,27.986],[43.709,27.678],[44.126,27.369],[44.54,27.058],[44.952,26.747],[45.361,26.434],[45.769,26.12],[46.174,25.805],[46.577,25.488],[46.978,25.171],[47.377,24.853],[47.774,24.533],[48.168,24.213],[48.561,23.891],[48.952,23.569],[49.341,23.245],[49.728,22.921],[50.113,22.595],[50.497,22.269],[50.811,21.884],[51.124,21.498],[51.435,21.111],[51.745,20.724],[52.053,20.337],[52.359,19.949],[52.664,19.56],[52.968,19.171],[53.27,18.781],[53.57,18.391],[53.87,18.001],[54.168,17.61],[54.464,17.218],[54.76,16.826],[55.054,16.434],[55.347,16.041],[55.639,15.648]]}},{"type":"Feature","properties":{"boundary_type":"subduction","feature_type":"gpml:SubductionZone","polarity":"Left","overriding_plate_id":701,"subducting_plate_id":501,"plate_ids":[501,701],"name":""},"geometry":{"type":"LineString","coordinates":[[-22.327,-35.789],[-21.726,-35.891],[-21.123,-35.991],[-20.52,-36.087],[-19.914,-36.181],[-19.307,-36.271],[-18.699,-36.358],[-18.09,-36.442],[-17.479,-36.523],[-16.867,-36.601],[-16.254,-36.676],[-15.639,-36.748],[-15.024,-36.816],[-14.407,-36.882],[-13.79,-36.944],[-13.171,-37.003],[-12.551,-37.059],[-11.931,-37.111],[-11.31,-37.16],[-10.688,-37.206],[-10.065,-37.249],[-9.441,-37.289],[-8.817,-37.325],[-8.193,-37.358],[-7.567,-37.387],[-6.942,-37.414],[-6.316,-37.437],[-5.689,-37.457],[-5.062,-37.473],[-4.435,-37.486],[-3.808,-37.496],[-3.181,-37.503],[-2.553,-37.506],[-1.926,-37.506],[-1.299,-37.502],[-0.671,-37.495],[-0.044,-37.485],[0.583,-37.472],[1.21,-37.455],[1.836,-37.435],[2.462,-37.412],[3.088,-37.385],[3.713,-37.355],[4.337,-37.322],[4.962,-37.286],[5.585,-37.246],[6.208,-37.203],[6.83,-37.157],[7.451,-37.107],[8.071,-37.054],[8.691,-36.998],[9.309,-36.939],[9.927,-36.877],[10.543,-36.811],[11.159,-36.742],[11.773,-36.67],[12.298,-36.419],[12.818,-36.166],[13.336,-35.91],[13.85,-35.652],[14.361,-35.392],[14.869,-35.129],[15.373,-34.865],[15.874,-34.599],[16.372,-34.33],[16.867,-34.06],[17.358,-33.787],[17.846,-33.513],[18.332,-33.236],[18.814,-32.958],[19.293,-32.678],[19.769,-32.396],[20.242,-32.113],[20.713,-31.827],[21.18,-31.54],[21.645,-31.252],[22.106,-30.961],[22.565,-30.669],[23.021,-30.375],[23.474,-30.08],[23.925,-29.783],[24.373,-29.485],[24.818,-29.185],[25.247,-28.859],[25.674,-28.531],[26.097,-28.202],[26.518,-27.872],[26.937,-27.54],[27.353,-27.208],[27.767,-26.874],[28.178,-26.538],[28.586,-26.202],[28.993,-25.864],[29.397,-25.526],[29.799,-25.186],[30.198,-24.845],[30.595,-24.503],[30.99,-24.16],[31.384,-23.816],[31.774,-23.471],[32.163,-23.126],[32.55,-22.779],[32.935,-22.431],[33.318,-22.082],[33.699,-21.733],[34.079,-21.382],[34.456,-21.031],[34.832,-20.679],[35.206,-20.326],[35.578,-19.972]]}}]}