{"type":"FeatureCollection","meta":{"model":"Cao2024","reconstruction_time_ma":320.0,"anchor_plate_id":0,"pygplates_version":"1.0.0","tessellate_degrees":0.5,"polarity_convention":"gpml:subductionPolarity. 'Left'/'Right' names the side of the line, in vertex order, on which the OVERRIDING plate lies. Triangles are drawn on that side.","antimeridian":"Lines are NOT split at +/-180 deg. The renderer works in 3D unit vectors where the dateline is not special; splitting would only add spurious breaks. Do not treat this as RFC 7946 GIS-ready 2D data."},"features":[{"type":"Feature","properties":{"boundary_type":"transform","feature_type":"gpml:Transform","polarity":null,"overriding_plate_id":null,"subducting_plate_id":null,"plate_ids":[101,701],"name":"Laurussia-Gondwana transform"},"geometry":{"type":"LineString","coordinates":[[-56.196,-0.163],[-55.788,-0.365],[-55.38,-0.567],[-54.971,-0.769],[-54.563,-0.971],[-54.154,-1.173],[-53.746,-1.374],[-53.337,-1.576],[-52.928,-1.777],[-52.519,-1.979],[-52.111,-2.18],[-51.702,-2.382],[-51.274,-2.634],[-50.846,-2.885],[-50.418,-3.137],[-49.99,-3.389],[-49.562,-3.64],[-49.133,-3.891],[-48.705,-4.142],[-48.276,-4.393],[-47.846,-4.643],[-47.417,-4.893],[-46.987,-5.143],[-46.556,-5.393],[-46.125,-5.642],[-45.694,-5.891],[-45.263,-6.139],[-44.831,-6.388],[-44.399,-6.636],[-43.966,-6.883],[-43.533,-7.13],[-43.099,-7.377],[-42.665,-7.623],[-42.231,-7.869],[-41.796,-8.115],[-41.36,-8.36],[-40.924,-8.604],[-40.487,-8.848],[-40.05,-9.092],[-39.612,-9.335],[-39.147,-9.468],[-38.681,-9.6],[-38.215,-9.731],[-37.749,-9.862],[-37.282,-9.992],[-36.815,-10.122],[-36.348,-10.251],[-35.88,-10.379],[-35.412,-10.506],[-34.943,-10.633],[-34.474,-10.759],[-34.005,-10.885],[-33.535,-11.01],[-33.065,-11.134],[-32.594,-11.257],[-32.123,-11.38],[-31.652,-11.501],[-31.18,-11.622],[-30.708,-11.743],[-30.235,-11.862],[-29.762,-11.981],[-29.292,-11.9],[-28.821,-11.819],[-28.351,-11.737],[-27.881,-11.654],[-27.411,-11.57],[-26.941,-11.486],[-26.472,-11.401],[-26.003,-11.315],[-25.534,-11.228],[-25.066,-11.141],[-24.598,-11.053],[-24.13,-10.964],[-23.635,-10.972],[-23.14,-10.979],[-22.646,-10.986],[-22.151,-10.991],[-21.656,-10.996],[-21.161,-11.0],[-20.666,-11.004],[-20.171,-11.006],[-19.676,-11.008],[-19.181,-11.009],[-18.686,-11.009],[-18.253,-10.885],[-17.819,-10.76],[-17.387,-10.634],[-16.954,-10.508],[-16.522,-10.382],[-16.09,-10.254],[-15.659,-10.127],[-15.228,-9.998],[-14.737,-9.928],[-14.246,-9.857],[-13.755,-9.786],[-13.265,-9.714],[-12.775,-9.641],[-12.285,-9.567],[-11.795,-9.493],[-11.305,-9.418],[-10.816,-9.342],[-10.326,-9.266],[-9.837,-9.189],[-9.349,-9.112],[-8.86,-9.033],[-8.372,-8.954],[-7.884,-8.875],[-7.396,-8.795],[-6.908,-8.714],[-6.42,-8.632],[-5.933,-8.55],[-5.446,-8.468],[-4.959,-8.384],[-4.473,-8.301],[-3.983,-8.179],[-3.493,-8.056],[-3.004,-7.933],[-2.515,-7.81],[-2.026,-7.686],[-1.538,-7.561],[-1.049,-7.436],[-0.562,-7.31],[-0.074,-7.183],[0.413,-7.057],[0.9,-6.929],[1.387,-6.801],[1.874,-6.673],[2.36,-6.544],[2.846,-6.415],[3.332,-6.285],[3.378,-6.256]]}},{"type":"Feature","properties":{"boundary_type":"subduction","feature_type":"gpml:SubductionZone","polarity":"Right","overriding_plate_id":401,"subducting_plate_id":101,"plate_ids":[101,401],"name":"Siberia SZ consuming Arctic seafloor"},"geometry":{"type":"LineString","coordinates":[[-10.666,47.765],[-11.214,48.072],[-11.767,48.377],[-12.328,48.679],[-12.895,48.978],[-13.469,49.275],[-14.049,49.568],[-14.637,49.859],[-15.232,50.146],[-15.834,50.431],[-16.443,50.712],[-17.06,50.99],[-17.684,51.265],[-18.315,51.537],[-18.954,51.805],[-19.601,52.069],[-20.147,52.417],[-20.701,52.762],[-21.264,53.104],[-21.836,53.444],[-22.418,53.781],[-23.008,54.115]]}},{"type":"Feature","properties":{"boundary_type":"subduction","feature_type":"gpml:SubductionZone","polarity":"Right","overriding_plate_id":401,"subducting_plate_id":16111,"plate_ids":[401,16111],"name":"Siberia SZ consuming Arctic seafloor"},"geometry":{"type":"LineString","coordinates":[[-23.008,54.115],[-23.631,54.458],[-24.263,54.798],[-24.907,55.135],[-25.561,55.468],[-26.226,55.797],[-26.903,56.123],[-27.591,56.445],[-28.291,56.763],[-29.002,57.078],[-29.726,57.388],[-30.355,57.736],[-30.995,58.082],[-31.648,58.424],[-32.314,58.763]]}},{"type":"Feature","properties":{"boundary_type":"transform","feature_type":"gpml:Transform","polarity":null,"overriding_plate_id":null,"subducting_plate_id":null,"plate_ids":[401,16111],"name":"Mongol-Okhotsk transform"},"geometry":{"type":"LineString","coordinates":[[-23.924,69.335],[-24.63,68.951],[-25.311,68.565],[-25.97,68.175],[-26.606,67.784],[-27.222,67.39],[-27.817,66.993],[-28.393,66.595],[-28.951,66.195],[-29.492,65.792],[-30.016,65.388],[-30.277,64.901],[-30.529,64.413],[-30.772,63.925],[-31.006,63.436],[-31.233,62.947],[-31.452,62.458],[-31.664,61.968],[-31.87,61.479],[-32.069,60.988],[-32.262,60.498],[-32.276,60.064],[-32.289,59.631],[-32.302,59.197],[-32.314,58.763]]}},{"type":"Feature","properties":{"boundary_type":"subduction","feature_type":"gpml:SubductionZone","polarity":"Left","overriding_plate_id":401,"subducting_plate_id":9009,"plate_ids":[401,9009],"name":"Mongol-Okhotsk subducting beneath Siberia"},"geometry":{"type":"LineString","coordinates":[[61.206,61.327],[61.155,61.388],[60.491,61.735],[59.811,62.079],[59.116,62.419],[58.404,62.756],[57.677,63.089],[56.932,63.419],[56.171,63.744],[55.392,64.065],[54.595,64.382],[53.779,64.695],[52.944,65.003],[52.091,65.306],[51.217,65.605],[50.284,65.869],[49.332,66.128],[48.36,66.38],[47.369,66.627],[46.358,66.867],[45.328,67.101],[44.278,67.328],[43.208,67.547],[42.118,67.76],[41.008,67.965],[39.879,68.163],[38.731,68.353],[37.564,68.535],[36.379,68.708],[35.478,69.034],[34.55,69.356],[33.595,69.672],[32.611,69.983],[31.597,70.288],[30.554,70.587],[29.479,70.881],[28.372,71.167],[27.233,71.447],[26.06,71.721],[24.853,71.986],[23.613,72.244],[22.165,72.447],[20.685,72.64],[19.174,72.821],[17.632,72.991],[16.062,73.149],[14.464,73.294],[12.84,73.428],[11.191,73.548],[9.52,73.656],[7.829,73.75],[6.12,73.831],[4.396,73.897],[2.659,73.95],[0.913,73.989],[-0.71,73.833],[-2.3,73.665],[-3.859,73.486],[-5.383,73.295],[-6.873,73.093],[-8.329,72.881],[-9.748,72.658],[-11.133,72.426],[-12.481,72.184],[-13.794,71.934],[-15.071,71.674],[-16.209,71.425],[-17.317,71.169],[-18.397,70.907],[-19.448,70.639],[-20.47,70.365],[-21.466,70.085]]}},{"type":"Feature","properties":{"boundary_type":"subduction","feature_type":"gpml:SubductionZone","polarity":"Left","overriding_plate_id":401,"subducting_plate_id":16111,"plate_ids":[401,16111],"name":"Mongol-Okhotsk subducting beneath Siberia"},"geometry":{"type":"LineString","coordinates":[[-21.466,70.085],[-22.305,69.838],[-23.124,69.588],[-23.924,69.335]]}},{"type":"Feature","properties":{"boundary_type":"subduction","feature_type":"gpml:SubductionZone","polarity":"Right","overriding_plate_id":701,"subducting_plate_id":902,"plate_ids":[701,902],"name":"YTT SZ"},"geometry":{"type":"LineString","coordinates":[[-53.193,-10.553],[-53.405,-10.139],[-53.615,-9.725],[-53.826,-9.31],[-54.035,-8.896],[-54.245,-8.482],[-54.331,-8.021],[-54.416,-7.561],[-54.502,-7.101],[-54.587,-6.641],[-54.672,-6.181],[-54.757,-5.72],[-54.842,-5.26],[-54.927,-4.8],[-55.011,-4.34],[-55.096,-3.88],[-55.234,-3.415],[-55.371,-2.951],[-55.509,-2.486],[-55.647,-2.021],[-55.784,-1.557],[-55.922,-1.092],[-56.059,-0.628],[-56.196,-0.163]]}},{"type":"Feature","properties":{"boundary_type":"subduction","feature_type":"gpml:SubductionZone","polarity":"Right","overriding_plate_id":101,"subducting_plate_id":902,"plate_ids":[101,902],"name":"YTT SZ"},"geometry":{"type":"LineString","coordinates":[[-56.196,-0.163],[-56.333,0.301],[-56.471,0.765],[-56.608,1.228],[-56.693,1.711],[-56.779,2.194],[-56.865,2.677],[-56.951,3.16],[-57.037,3.642],[-57.123,4.125],[-57.209,4.608],[-57.295,5.091],[-57.381,5.573],[-57.468,6.056],[-57.554,6.539],[-57.641,7.022],[-57.728,7.504],[-57.815,7.987],[-57.755,8.418],[-57.694,8.848],[-57.633,9.279],[-57.571,9.709],[-57.51,10.14]]}},{"type":"Feature","properties":{"boundary_type":"subduction","feature_type":"gpml:SubductionZone","polarity":"Right","overriding_plate_id":16104,"subducting_plate_id":902,"plate_ids":[902,16104],"name":"YTT SZ"},"geometry":{"type":"LineString","coordinates":[[-57.51,10.14],[-57.443,10.607],[-57.376,11.075],[-57.296,11.546],[-57.215,12.017],[-57.134,12.488],[-57.053,12.959],[-56.972,13.43],[-56.89,13.901],[-56.808,14.372],[-56.725,14.843],[-56.642,15.314],[-56.476,15.753],[-56.309,16.192],[-56.141,16.631],[-55.972,17.07],[-55.803,17.508],[-55.632,17.947],[-55.461,18.385],[-55.289,18.823],[-55.116,19.261],[-54.942,19.699],[-54.768,20.136],[-54.534,20.551],[-54.298,20.966],[-54.062,21.38],[-53.824,21.794],[-53.585,22.207],[-53.344,22.62],[-53.102,23.033],[-52.859,23.445],[-52.614,23.857],[-52.367,24.269],[-52.19,24.717],[-52.012,25.165],[-51.832,25.613],[-51.651,26.06],[-51.469,26.508],[-51.286,26.955],[-51.1,27.402],[-50.914,27.848],[-50.726,28.295],[-50.536,28.741],[-50.421,29.221],[-50.304,29.701],[-50.187,30.18],[-50.068,30.66],[-49.948,31.139],[-49.827,31.618],[-49.705,32.097],[-49.581,32.576],[-49.456,33.055],[-49.33,33.534],[-49.202,34.013],[-49.073,34.491],[-48.942,34.97],[-48.81,35.448],[-48.676,35.926],[-48.635,36.371],[-48.593,36.816],[-48.551,37.261],[-48.508,37.706],[-48.465,38.15],[-48.422,38.595],[-48.377,39.04],[-48.333,39.485],[-48.287,39.93],[-48.258,40.314],[-48.228,40.698],[-48.198,41.082],[-48.168,41.466],[-47.939,41.867],[-47.708,42.267],[-47.412,42.569],[-47.113,42.871],[-46.812,43.172],[-46.509,43.522],[-46.202,43.871],[-45.892,44.219],[-45.579,44.566],[-45.231,44.895],[-44.879,45.223],[-44.523,45.55],[-44.163,45.876]]}},{"type":"Feature","properties":{"boundary_type":"transform","feature_type":"gpml:Transform","polarity":null,"overriding_plate_id":null,"subducting_plate_id":null,"plate_ids":[101,16104],"name":"Transform at S margin of East Klamath"},"geometry":{"type":"LineString","coordinates":[[-57.51,10.14],[-57.183,10.139],[-56.856,10.138],[-56.443,10.192],[-56.031,10.247],[-55.618,10.3],[-55.203,10.21],[-54.787,10.12],[-54.372,10.029],[-53.948,9.833],[-53.524,9.636],[-53.101,9.439],[-52.678,9.241],[-52.293,9.066],[-51.908,8.89],[-51.524,8.714],[-51.186,8.496],[-50.85,8.277],[-50.513,8.058],[-50.177,7.839],[-49.886,7.549],[-49.595,7.259],[-49.304,6.968],[-49.124,6.664],[-48.944,6.359],[-48.763,6.054],[-48.638,5.905]]}},{"type":"Feature","properties":{"boundary_type":"transform","feature_type":"gpml:Transform","polarity":null,"overriding_plate_id":null,"subducting_plate_id":null,"plate_ids":[902,16111],"name":"Alexander-YTT Transform"},"geometry":{"type":"LineString","coordinates":[[-54.75,45.534],[-54.126,45.605],[-53.501,45.672],[-52.875,45.736],[-52.247,45.797],[-51.591,45.819],[-50.934,45.836],[-50.277,45.85],[-49.62,45.861],[-48.963,45.867],[-48.306,45.87],[-47.648,45.869],[-46.951,45.879],[-46.254,45.884],[-45.557,45.886],[-44.86,45.883],[-44.163,45.876]]}},{"type":"Feature","properties":{"boundary_type":"transform","feature_type":"gpml:Transform","polarity":null,"overriding_plate_id":null,"subducting_plate_id":null,"plate_ids":[16104,16111],"name":"Alexander-YTT Transform"},"geometry":{"type":"LineString","coordinates":[[-44.163,45.876],[-43.459,45.864],[-42.754,45.849],[-42.05,45.829],[-41.347,45.804],[-40.65,45.8],[-39.954,45.791],[-39.258,45.778],[-38.563,45.761],[-37.868,45.74],[-37.174,45.714],[-36.48,45.684],[-35.826,45.616],[-35.173,45.545],[-34.523,45.469],[-33.874,45.39],[-33.227,45.308]]}},{"type":"Feature","properties":{"boundary_type":"transform","feature_type":"gpml:Transform","polarity":null,"overriding_plate_id":null,"subducting_plate_id":null,"plate_ids":[101,16104],"name":"Alexander-YTT Transform"},"geometry":{"type":"LineString","coordinates":[[-33.227,45.308],[-32.684,45.235],[-32.143,45.16]]}},{"type":"Feature","properties":{"boundary_type":"subduction","feature_type":"gpml:SubductionZone","polarity":"Right","overriding_plate_id":701,"subducting_plate_id":919,"plate_ids":[701,919],"name":"SZ along eastern Gondwanaland"},"geometry":{"type":"LineString","coordinates":[[169.081,-39.253],[169.459,-39.6],[169.842,-39.946],[170.228,-40.291],[170.618,-40.634],[171.012,-40.976],[171.411,-41.317],[171.813,-41.656],[172.22,-41.994],[172.631,-42.33],[172.981,-42.715],[173.335,-43.099],[173.693,-43.482],[174.057,-43.864],[174.424,-44.244],[174.797,-44.624],[175.175,-45.002],[175.557,-45.379],[175.945,-45.754],[176.338,-46.129],[176.736,-46.501],[177.14,-46.873],[177.607,-47.259],[178.081,-47.642],[178.561,-48.024],[179.049,-48.403],[179.545,-48.781],[-179.953,-49.156],[-179.442,-49.53],[-178.924,-49.901],[-178.398,-50.269],[-177.863,-50.635],[-177.32,-50.999],[-176.769,-51.36],[-176.209,-51.718],[-175.553,-51.993],[-174.889,-52.263],[-174.216,-52.53],[-173.536,-52.793],[-172.847,-53.051],[-172.15,-53.306],[-171.445,-53.557],[-170.731,-53.804],[-170.009,-54.046],[-169.279,-54.284],[-168.54,-54.517],[-167.793,-54.746],[-167.038,-54.97],[-166.274,-55.19],[-165.501,-55.404],[-164.721,-55.614],[-163.932,-55.819],[-163.135,-56.019],[-162.329,-56.213],[-161.516,-56.402],[-160.694,-56.586],[-159.9,-56.776],[-159.098,-56.961],[-158.289,-57.14],[-157.471,-57.314],[-156.646,-57.483],[-155.813,-57.647],[-154.973,-57.805],[-154.125,-57.957],[-153.271,-58.104],[-152.409,-58.245],[-151.541,-58.38],[-150.666,-58.509],[-149.785,-58.632],[-148.898,-58.75],[-148.005,-58.861],[-147.106,-58.965],[-146.202,-59.064],[-145.294,-59.156],[-144.38,-59.242],[-143.482,-59.38],[-142.576,-59.511],[-141.664,-59.637],[-140.745,-59.756],[-139.82,-59.868],[-138.888,-59.974],[-137.951,-60.074],[-137.009,-60.166],[-136.061,-60.252],[-135.108,-60.331],[-134.151,-60.404]]}},{"type":"Feature","properties":{"boundary_type":"transform","feature_type":"gpml:Transform","polarity":null,"overriding_plate_id":null,"subducting_plate_id":null,"plate_ids":[602,926],"name":"Transform northeast of Australia"},"geometry":{"type":"LineString","coordinates":[[118.679,-15.525],[119.081,-15.728],[119.484,-15.931],[119.888,-16.134],[120.292,-16.335],[120.697,-16.536],[121.104,-16.736],[121.511,-16.935],[121.919,-17.133]]}},{"type":"Feature","properties":{"boundary_type":"transform","feature_type":"gpml:Transform","polarity":null,"overriding_plate_id":null,"subducting_plate_id":null,"plate_ids":[701,926],"name":"Transform northeast of Australia"},"geometry":{"type":"LineString","coordinates":[[121.919,-17.133],[122.237,-17.287],[122.557,-17.441],[122.876,-17.594],[123.151,-17.962],[123.426,-18.329],[123.703,-18.696],[123.98,-19.063],[124.259,-19.429],[124.54,-19.795],[124.821,-20.161],[125.104,-20.526],[125.49,-20.845],[125.878,-21.164],[126.267,-21.482],[126.658,-21.799],[127.051,-22.115],[127.446,-22.431],[127.842,-22.745],[128.24,-23.058],[128.69,-23.197],[129.14,-23.335],[129.592,-23.471],[130.044,-23.606]]}},{"type":"Feature","properties":{"boundary_type":"transform","feature_type":"gpml:Transform","polarity":null,"overriding_plate_id":null,"subducting_plate_id":null,"plate_ids":[701,919],"name":"Transform northeast of Australia"},"geometry":{"type":"LineString","coordinates":[[130.044,-23.606],[130.56,-23.757],[131.076,-23.907],[131.594,-24.056],[132.11,-24.214],[132.626,-24.371],[133.145,-24.526],[133.664,-24.679],[134.185,-24.831],[134.707,-24.98],[135.231,-25.128],[135.755,-25.274],[136.281,-25.418],[136.808,-25.561],[137.336,-25.701],[137.866,-25.84],[138.397,-25.976],[138.929,-26.111],[139.462,-26.243],[139.997,-26.374],[140.532,-26.503],[141.069,-26.629],[141.607,-26.754],[142.146,-26.877],[142.687,-26.997],[143.228,-27.116],[143.771,-27.232],[144.315,-27.346],[144.86,-27.459],[145.406,-27.569],[145.953,-27.677],[146.501,-27.782],[147.05,-27.886],[147.6,-27.988],[148.152,-28.087],[148.704,-28.184],[149.257,-28.279],[149.812,-28.371],[150.367,-28.462],[150.838,-28.735],[151.313,-29.007],[151.789,-29.277],[152.268,-29.545],[152.75,-29.812],[153.234,-30.077],[153.721,-30.34],[154.211,-30.601],[154.703,-30.861],[155.198,-31.118],[155.695,-31.374],[156.195,-31.628],[156.698,-31.88],[157.204,-32.129],[157.712,-32.377],[158.223,-32.623],[158.737,-32.867],[159.254,-33.108],[159.774,-33.347],[160.296,-33.585],[160.822,-33.82],[161.35,-34.052],[161.881,-34.283],[162.415,-34.511],[162.952,-34.737],[163.492,-34.961],[164.035,-35.182],[164.581,-35.4],[165.129,-35.616],[165.681,-35.83],[166.236,-36.041],[166.793,-36.25],[167.354,-36.456],[167.917,-36.659],[168.106,-37.092],[168.296,-37.525],[168.489,-37.957],[168.684,-38.39],[168.881,-38.821],[169.081,-39.253]]}},{"type":"Feature","properties":{"boundary_type":"subduction","feature_type":"gpml:SubductionZone","polarity":"Left","overriding_plate_id":9010,"subducting_plate_id":902,"plate_ids":[902,9010],"name":"ALX SZ"},"geometry":{"type":"LineString","coordinates":[[-114.282,77.22],[-112.193,77.198],[-110.114,77.16],[-108.049,77.105],[-106.005,77.034],[-103.984,76.948],[-101.992,76.846],[-100.032,76.729],[-98.108,76.597],[-96.223,76.451],[-94.379,76.291],[-92.383,76.141],[-90.432,75.975],[-88.528,75.794],[-86.672,75.599],[-84.867,75.389],[-83.114,75.165],[-81.412,74.929],[-79.764,74.681]]}},{"type":"Feature","properties":{"boundary_type":"subduction","feature_type":"gpml:SubductionZone","polarity":"Left","overriding_plate_id":9009,"subducting_plate_id":902,"plate_ids":[902,9009],"name":"ALX SZ"},"geometry":{"type":"LineString","coordinates":[[-79.764,74.681],[-78.296,74.442],[-76.872,74.194],[-75.491,73.937],[-74.154,73.671],[-72.859,73.398],[-71.605,73.116],[-70.392,72.827],[-69.218,72.531],[-68.083,72.229],[-66.985,71.92],[-66.27,71.503],[-65.586,71.083],[-64.93,70.661],[-64.301,70.237],[-63.698,69.811],[-63.119,69.382]]}},{"type":"Feature","properties":{"boundary_type":"subduction","feature_type":"gpml:SubductionZone","polarity":"Left","overriding_plate_id":16111,"subducting_plate_id":902,"plate_ids":[902,16111],"name":"ALX SZ"},"geometry":{"type":"LineString","coordinates":[[-63.119,69.382],[-62.605,68.986],[-62.11,68.588],[-61.632,68.189],[-61.17,67.788],[-60.724,67.387],[-60.292,66.984],[-59.875,66.579],[-59.683,66.093],[-59.498,65.606],[-59.32,65.118],[-59.148,64.631],[-58.983,64.143],[-58.823,63.655],[-58.668,63.167],[-58.519,62.679],[-58.374,62.191],[-58.234,61.702],[-58.099,61.213],[-57.967,60.725],[-57.84,60.236],[-57.716,59.747],[-57.596,59.258],[-57.498,58.792],[-57.403,58.327],[-57.311,57.861],[-57.221,57.396],[-57.133,56.93],[-57.048,56.465],[-56.964,55.999],[-56.883,55.533],[-56.803,55.067],[-56.725,54.601],[-56.649,54.135],[-56.575,53.669],[-56.502,53.203],[-56.359,52.721],[-56.219,52.238],[-56.083,51.755],[-55.949,51.272],[-55.818,50.788],[-55.689,50.305],[-55.564,49.822],[-55.44,49.338],[-55.319,48.854],[-55.201,48.37],[-55.085,47.886],[-55.041,47.449],[-54.998,47.012],[-54.956,46.575],[-54.914,46.138],[-54.832,45.836],[-54.75,45.534]]}},{"type":"Feature","properties":{"boundary_type":"subduction","feature_type":"gpml:SubductionZone","polarity":"Right","overriding_plate_id":16111,"subducting_plate_id":9009,"plate_ids":[9009,16111],"name":"northern extension of Alexander SZ"},"geometry":{"type":"LineString","coordinates":[[-63.119,69.382],[-62.137,69.642],[-61.13,69.896],[-60.1,70.143],[-59.044,70.385],[-57.964,70.621],[-56.858,70.85],[-55.727,71.072],[-54.396,71.244],[-53.042,71.407],[-51.666,71.56],[-50.268,71.702],[-48.85,71.834],[-47.412,71.956],[-45.957,72.067],[-44.484,72.167],[-42.997,72.256],[-41.496,72.334],[-39.983,72.4],[-38.466,72.29],[-36.967,72.168],[-35.489,72.035],[-34.032,71.891],[-32.599,71.736],[-31.19,71.571],[-29.805,71.396],[-28.447,71.211],[-27.114,71.016],[-25.809,70.811],[-24.53,70.598],[-23.279,70.376],[-22.055,70.145],[-21.466,70.085]]}},{"type":"Feature","properties":{"boundary_type":"transform","feature_type":"gpml:Transform","polarity":null,"overriding_plate_id":null,"subducting_plate_id":null,"plate_ids":[430,902],"name":"Mongol Okhotsk Panthalassa transform"},"geometry":{"type":"LineString","coordinates":[[-163.97,54.089],[-163.533,54.519],[-163.086,54.947],[-162.63,55.374],[-162.163,55.799],[-161.687,56.222],[-161.2,56.643],[-160.702,57.062],[-160.192,57.479],[-159.671,57.895],[-159.24,58.329],[-158.798,58.762],[-158.345,59.193],[-157.88,59.623],[-157.404,60.051],[-156.914,60.478],[-156.412,60.902],[-155.897,61.325],[-155.367,61.745],[-154.823,62.164],[-154.263,62.58],[-153.688,62.994],[-153.096,63.405],[-152.487,63.815],[-151.86,64.221],[-151.299,64.585],[-150.722,64.947],[-150.13,65.307],[-149.521,65.664]]}},{"type":"Feature","properties":{"boundary_type":"transform","feature_type":"gpml:Transform","polarity":null,"overriding_plate_id":null,"subducting_plate_id":null,"plate_ids":[902,9010],"name":"Mongol Okhotsk Panthalassa transform"},"geometry":{"type":"LineString","coordinates":[[-149.521,65.664],[-148.88,66.027],[-148.221,66.388],[-147.542,66.745],[-146.844,67.1],[-146.124,67.452],[-145.383,67.8],[-144.62,68.145],[-143.848,68.532],[-143.05,68.916],[-142.223,69.296],[-141.366,69.672],[-140.479,70.043],[-139.56,70.41],[-138.608,70.772],[-137.62,71.129],[-136.597,71.48],[-135.535,71.826],[-134.434,72.166],[-133.292,72.499],[-132.108,72.826],[-130.879,73.145],[-129.813,73.525],[-128.699,73.898],[-127.534,74.266],[-126.315,74.627],[-125.039,74.982],[-123.704,75.328],[-122.306,75.667],[-120.843,75.998],[-119.312,76.319],[-117.71,76.63],[-116.034,76.931],[-114.282,77.22]]}},{"type":"Feature","properties":{"boundary_type":"transform","feature_type":"gpml:Transform","polarity":null,"overriding_plate_id":null,"subducting_plate_id":null,"plate_ids":[101,401],"name":""},"geometry":{"type":"LineString","coordinates":[[25.679,37.228],[25.275,37.608],[24.867,37.986],[24.455,38.362],[24.039,38.737],[23.618,39.111],[23.193,39.483],[22.763,39.853],[22.37,40.216],[21.974,40.577],[21.573,40.936],[21.167,41.294],[20.757,41.651],[20.343,42.006],[19.924,42.36],[19.5,42.712],[19.071,43.063],[18.638,43.412],[18.199,43.759],[17.755,44.104],[17.306,44.448],[16.707,44.629],[16.104,44.807],[15.498,44.982],[14.888,45.153],[14.274,45.321],[13.656,45.486],[13.035,45.648],[12.41,45.806],[11.782,45.96],[11.151,46.112],[10.595,46.394],[10.034,46.675],[9.466,46.952],[8.893,47.227],[8.314,47.498],[7.729,47.767],[7.138,48.033],[6.541,48.295],[5.938,48.555],[5.201,48.62],[4.463,48.681],[3.723,48.737],[2.981,48.788],[2.238,48.835],[1.494,48.876],[0.749,48.913],[0.002,48.945],[-0.745,48.973],[-1.493,48.995],[-2.224,48.941],[-2.953,48.882],[-3.681,48.819],[-4.406,48.751],[-5.13,48.679],[-5.851,48.602],[-6.57,48.521],[-7.287,48.435],[-8.001,48.345],[-8.712,48.25],[-9.368,48.092],[-10.019,47.93],[-10.666,47.765]]}},{"type":"Feature","properties":{"boundary_type":"transform","feature_type":"gpml:Transform","polarity":null,"overriding_plate_id":null,"subducting_plate_id":null,"plate_ids":[101,460],"name":"transform"},"geometry":{"type":"LineString","coordinates":[[54.02,24.772],[54.519,24.601],[55.017,24.428],[55.514,24.253],[56.009,24.077],[56.502,23.899],[56.995,23.719],[57.221,23.729]]}},{"type":"Feature","properties":{"boundary_type":"transform","feature_type":"gpml:Transform","polarity":null,"overriding_plate_id":null,"subducting_plate_id":null,"plate_ids":[460,9006],"name":"transform"},"geometry":{"type":"LineString","coordinates":[[57.221,23.729],[57.721,23.75],[58.222,23.769],[58.722,23.786],[59.222,23.802],[59.723,23.816],[60.224,23.829],[60.724,23.84]]}},{"type":"Feature","properties":{"boundary_type":"subduction","feature_type":"gpml:SubductionZone","polarity":"Left","overriding_plate_id":101,"subducting_plate_id":701,"plate_ids":[101,701],"name":"Scythian-Turan subduction zone"},"geometry":{"type":"LineString","coordinates":[[42.44,6.84],[42.671,7.256],[42.902,7.673],[43.134,8.089],[43.393,8.494],[43.652,8.899],[43.912,9.304],[44.173,9.708],[44.434,10.112]]}},{"type":"Feature","properties":{"boundary_type":"subduction","feature_type":"gpml:SubductionZone","polarity":"Left","overriding_plate_id":101,"subducting_plate_id":9006,"plate_ids":[101,9006],"name":"Scythian-Turan subduction zone"},"geometry":{"type":"LineString","coordinates":[[44.434,10.112],[44.661,10.462],[44.888,10.812],[45.115,11.161],[45.344,11.51],[45.63,11.914],[45.917,12.318],[46.204,12.721],[46.493,13.124],[46.783,13.526],[47.073,13.929],[47.365,14.33],[47.658,14.732],[47.951,15.133],[48.253,15.462],[48.555,15.79],[48.859,16.118],[49.163,16.446],[49.469,16.773],[49.776,17.1],[50.083,17.426],[50.392,17.752],[50.721,18.078],[51.05,18.404],[51.381,18.729],[51.713,19.054],[52.046,19.378],[52.381,19.701],[52.717,20.024],[53.111,20.343],[53.507,20.661],[53.905,20.978],[54.304,21.293],[54.705,21.608],[55.107,21.922],[55.512,22.236],[55.918,22.548],[56.242,22.844],[56.567,23.14],[56.893,23.435],[57.221,23.729]]}},{"type":"Feature","properties":{"boundary_type":"subduction","feature_type":"gpml:SubductionZone","polarity":"Right","overriding_plate_id":401,"subducting_plate_id":9009,"plate_ids":[401,9009],"name":""},"geometry":{"type":"LineString","coordinates":[[63.563,61.397],[63.814,60.969],[64.059,60.541],[64.297,60.113],[64.529,59.683],[64.756,59.254],[64.976,58.824],[65.192,58.394],[65.169,57.897],[65.147,57.4],[65.125,56.903],[65.104,56.406],[65.084,55.909],[65.064,55.412],[65.044,54.915],[65.025,54.418],[65.007,53.921],[64.706,53.479],[64.412,53.036],[64.123,52.593],[63.841,52.149],[63.564,51.704],[63.292,51.259],[63.025,50.813],[62.764,50.367],[62.381,50.033]]}},{"type":"Feature","properties":{"boundary_type":"subduction","feature_type":"gpml:SubductionZone","polarity":"Right","overriding_plate_id":401,"subducting_plate_id":580,"plate_ids":[401,580],"name":""},"geometry":{"type":"LineString","coordinates":[[62.381,50.033],[61.997,49.692],[61.618,49.35],[61.244,49.006],[60.876,48.662],[60.513,48.316],[60.097,47.966],[59.687,47.614],[59.282,47.261],[58.883,46.906]]}},{"type":"Feature","properties":{"boundary_type":"subduction","feature_type":"gpml:SubductionZone","polarity":"Right","overriding_plate_id":401,"subducting_plate_id":460,"plate_ids":[401,460],"name":""},"geometry":{"type":"LineString","coordinates":[[58.883,46.906],[58.459,46.523],[58.041,46.139],[57.629,45.753],[57.151,45.434],[56.679,45.114],[56.211,44.791],[55.749,44.467],[55.292,44.141],[54.84,43.813],[54.393,43.483],[53.951,43.152],[53.513,42.819],[53.138,42.629],[52.765,42.438],[52.394,42.245]]}},{"type":"Feature","properties":{"boundary_type":"transform","feature_type":"gpml:Transform","polarity":null,"overriding_plate_id":null,"subducting_plate_id":null,"plate_ids":[101,304],"name":"Lizard/Giessen backarc transform east"},"geometry":{"type":"LineString","coordinates":[[26.508,6.529],[26.822,6.155],[27.136,5.78],[27.45,5.406],[27.763,5.031],[28.076,4.657],[28.388,4.282],[28.701,3.907],[29.013,3.532],[29.324,3.157],[29.636,2.781],[29.788,2.564],[29.94,2.347]]}},{"type":"Feature","properties":{"boundary_type":"transform","feature_type":"gpml:Transform","polarity":null,"overriding_plate_id":null,"subducting_plate_id":null,"plate_ids":[101,701],"name":"Lizard/Giessen backarc transform east"},"geometry":{"type":"LineString","coordinates":[[29.94,2.347],[30.22,1.949],[30.499,1.551],[30.778,1.153],[31.056,0.755],[31.335,0.357],[31.614,-0.041],[31.893,-0.439],[32.171,-0.837],[32.45,-1.235],[32.736,-1.597]]}},{"type":"Feature","properties":{"boundary_type":"transform","feature_type":"gpml:Transform","polarity":null,"overriding_plate_id":null,"subducting_plate_id":null,"plate_ids":[101,701],"name":"Lizard/Giessen transform west"},"geometry":{"type":"LineString","coordinates":[[6.379,-8.209],[5.952,-8.01],[5.524,-7.811],[5.097,-7.612],[4.731,-7.336],[4.365,-7.06],[4.0,-6.784],[3.634,-6.507],[3.378,-6.256]]}},{"type":"Feature","properties":{"boundary_type":"transform","feature_type":"gpml:Transform","polarity":null,"overriding_plate_id":null,"subducting_plate_id":null,"plate_ids":[304,701],"name":"Armorican Paleotethys margin"},"geometry":{"type":"LineString","coordinates":[[29.94,2.347],[29.639,1.973],[29.338,1.598],[29.037,1.224],[28.736,0.849],[28.618,0.449],[28.5,0.049],[28.381,-0.351],[28.263,-0.752],[28.145,-1.152],[28.027,-1.552],[27.939,-2.016],[27.851,-2.48],[27.763,-2.944],[27.675,-3.408],[27.586,-3.872],[27.498,-4.336],[27.269,-4.749],[27.04,-5.162],[26.81,-5.575],[26.58,-5.987],[26.35,-6.4],[26.019,-6.74],[25.687,-7.08],[25.355,-7.42],[25.023,-7.76],[24.69,-8.099],[24.356,-8.438],[24.083,-8.845],[23.81,-9.251],[23.535,-9.657],[23.26,-10.063],[22.985,-10.469],[22.708,-10.874],[22.558,-11.319],[22.407,-11.764],[22.255,-12.209],[22.103,-12.653],[21.951,-13.098],[21.797,-13.543],[21.644,-13.987],[21.609,-14.318]]}},{"type":"Feature","properties":{"boundary_type":"transform","feature_type":"gpml:Transform","polarity":null,"overriding_plate_id":null,"subducting_plate_id":null,"plate_ids":[304,701],"name":"Iberia-Gondwana transform"},"geometry":{"type":"LineString","coordinates":[[21.609,-14.318],[21.161,-14.491],[20.711,-14.664],[20.261,-14.836],[19.765,-14.922],[19.269,-15.006],[18.772,-15.09],[18.275,-15.173],[17.839,-15.232],[17.403,-15.291],[16.967,-15.349],[16.531,-15.406],[16.053,-15.405],[15.574,-15.403],[15.096,-15.4],[14.617,-15.395],[14.13,-15.349],[13.642,-15.301],[13.155,-15.253],[12.708,-15.188],[12.261,-15.122],[11.814,-15.055],[11.395,-14.884],[10.977,-14.712],[10.559,-14.539],[10.159,-14.289],[9.759,-14.039],[9.452,-13.78],[9.147,-13.52],[8.749,-13.276],[8.478,-12.958]]}},{"type":"Feature","properties":{"boundary_type":"other","feature_type":"gpml:OrogenicBelt","polarity":null,"overriding_plate_id":null,"subducting_plate_id":null,"plate_ids":[304,701],"name":"South Portuguese Zone-Iberia orogenic belt"},"geometry":{"type":"LineString","coordinates":[[8.478,-12.958],[8.261,-12.866],[7.998,-12.606],[7.737,-12.347],[7.476,-12.087],[7.18,-11.718],[6.885,-11.347],[6.714,-10.902],[6.543,-10.457],[6.476,-10.009],[6.409,-9.561],[6.399,-9.182],[6.389,-8.802],[6.38,-8.423],[6.379,-8.209]]}},{"type":"Feature","properties":{"boundary_type":"other","feature_type":"gpml:OrogenicBelt","polarity":null,"overriding_plate_id":null,"subducting_plate_id":null,"plate_ids":[101,304],"name":"South Portuguese Zone-Iberia orogenic belt"},"geometry":{"type":"LineString","coordinates":[[6.379,-8.209],[6.379,-7.807],[6.379,-7.406],[6.378,-7.005],[6.478,-6.621],[6.578,-6.237],[6.678,-5.853],[6.778,-5.469],[6.929,-5.122],[7.08,-4.774],[7.231,-4.427],[7.386,-4.123],[7.541,-3.82],[7.696,-3.516],[7.924,-3.193],[8.151,-2.87],[8.378,-2.546],[8.606,-2.223],[8.864,-1.924],[9.123,-1.624],[9.382,-1.325],[9.64,-1.026],[9.836,-0.803],[10.032,-0.58]]}},{"type":"Feature","properties":{"boundary_type":"subduction","feature_type":"gpml:SubductionZone","polarity":"Right","overriding_plate_id":28800,"subducting_plate_id":919,"plate_ids":[919,28800],"name":"West Gondwana SZ"},"geometry":{"type":"LineString","coordinates":[[-119.678,-62.553],[-119.058,-62.157],[-118.454,-61.758],[-117.865,-61.357],[-117.292,-60.953],[-116.732,-60.547],[-116.187,-60.139],[-115.655,-59.728],[-115.136,-59.316],[-114.569,-58.917],[-114.015,-58.516],[-113.473,-58.112],[-112.943,-57.706],[-112.425,-57.298],[-111.919,-56.888],[-111.423,-56.476],[-110.938,-56.062],[-110.464,-55.646],[-109.999,-55.229],[-109.545,-54.81],[-109.099,-54.389],[-108.663,-53.966],[-108.235,-53.542],[-107.612,-53.227],[-106.998,-52.909],[-106.394,-52.589],[-105.798,-52.265],[-105.211,-51.938],[-104.632,-51.608],[-104.062,-51.276],[-103.499,-50.94],[-102.945,-50.602],[-102.399,-50.262],[-101.861,-49.919],[-101.33,-49.573],[-100.807,-49.225],[-100.291,-48.875],[-99.783,-48.523],[-99.281,-48.168],[-98.786,-47.811],[-98.086,-47.843],[-97.385,-47.87],[-96.682,-47.893],[-95.98,-47.912],[-95.277,-47.927],[-94.573,-47.937],[-93.87,-47.943],[-93.166,-47.945],[-92.462,-47.942],[-91.759,-47.935],[-91.055,-47.924],[-90.352,-47.908],[-89.959,-48.012]]}},{"type":"Feature","properties":{"boundary_type":"subduction","feature_type":"gpml:SubductionZone","polarity":"Left","overriding_plate_id":701,"subducting_plate_id":902,"plate_ids":[701,902],"name":"West Gondwana (Panthalassa) subduction zone"},"geometry":{"type":"LineString","coordinates":[[-53.193,-10.553],[-53.516,-10.874],[-53.799,-11.247],[-54.084,-11.62],[-54.369,-11.992],[-54.654,-12.364],[-54.941,-12.736],[-55.229,-13.108],[-55.517,-13.479],[-55.806,-13.85],[-56.096,-14.22],[-56.387,-14.59],[-56.491,-15.079],[-56.594,-15.567],[-56.698,-16.055],[-56.803,-16.543],[-56.908,-17.032],[-57.014,-17.52],[-57.12,-18.008],[-57.227,-18.496],[-57.335,-18.983],[-57.443,-19.471],[-57.551,-19.959],[-57.661,-20.447],[-57.771,-20.934],[-57.84,-21.412],[-57.909,-21.889],[-57.978,-22.366],[-58.049,-22.843],[-58.119,-23.32],[-58.19,-23.797],[-58.262,-24.274],[-58.334,-24.752],[-58.407,-25.229],[-58.48,-25.705],[-58.554,-26.182],[-58.628,-26.659],[-58.703,-27.136],[-58.779,-27.613],[-58.875,-28.092],[-58.973,-28.571],[-59.071,-29.05],[-59.17,-29.529],[-59.27,-30.007],[-59.371,-30.486],[-59.473,-30.964],[-59.576,-31.443],[-59.681,-31.921],[-59.786,-32.4],[-59.892,-32.878],[-60.178,-33.312],[-60.467,-33.745],[-60.759,-34.178],[-61.054,-34.61],[-61.352,-35.041],[-61.653,-35.471],[-61.957,-35.901],[-62.265,-36.33],[-62.576,-36.758],[-62.89,-37.186],[-63.208,-37.612],[-63.534,-37.975],[-63.862,-38.338],[-64.195,-38.7],[-64.53,-39.06],[-64.869,-39.42],[-65.211,-39.779],[-65.557,-40.137],[-65.907,-40.493]]}},{"type":"Feature","properties":{"boundary_type":"subduction","feature_type":"gpml:SubductionZone","polarity":"Left","overriding_plate_id":701,"subducting_plate_id":919,"plate_ids":[701,919],"name":"West Gondwana (Panthalassa) subduction zone"},"geometry":{"type":"LineString","coordinates":[[-65.907,-40.493],[-66.271,-40.859],[-66.639,-41.224],[-67.011,-41.588],[-67.387,-41.95],[-67.767,-42.312],[-68.152,-42.672],[-68.581,-43.019],[-69.016,-43.366],[-69.455,-43.71],[-69.899,-44.053],[-70.348,-44.394],[-70.803,-44.733],[-71.263,-45.071],[-71.729,-45.406],[-72.2,-45.74],[-72.676,-46.072],[-73.159,-46.401],[-73.647,-46.729],[-74.141,-47.055],[-74.641,-47.378],[-75.118,-47.734],[-75.601,-48.088],[-76.091,-48.441],[-76.588,-48.791],[-77.092,-49.138],[-77.603,-49.484],[-78.121,-49.827],[-78.646,-50.168],[-79.179,-50.507],[-79.72,-50.843],[-80.268,-51.177],[-80.787,-51.481],[-81.312,-51.783],[-81.844,-52.083]]}},{"type":"Feature","properties":{"boundary_type":"subduction","feature_type":"gpml:SubductionZone","polarity":"Left","overriding_plate_id":701,"subducting_plate_id":28800,"plate_ids":[701,28800],"name":"West Gondwana (Panthalassa) subduction zone"},"geometry":{"type":"LineString","coordinates":[[-81.844,-52.083],[-82.405,-52.392],[-82.974,-52.699],[-83.551,-53.003],[-84.136,-53.304],[-84.729,-53.602],[-85.331,-53.897],[-85.941,-54.189],[-86.56,-54.477],[-87.188,-54.763],[-87.528,-55.219],[-87.877,-55.673],[-88.234,-56.127],[-88.599,-56.579],[-88.973,-57.03],[-89.356,-57.481],[-89.749,-57.93],[-90.152,-58.377],[-90.973,-58.629],[-91.806,-58.876],[-92.651,-59.118],[-93.507,-59.353],[-94.375,-59.583],[-95.256,-59.808],[-96.147,-60.026],[-97.051,-60.238],[-97.966,-60.444],[-98.893,-60.644],[-99.831,-60.837],[-100.78,-61.023],[-101.741,-61.203],[-102.712,-61.376],[-103.694,-61.542],[-104.708,-61.673],[-105.731,-61.796],[-106.762,-61.911],[-107.801,-62.019],[-108.847,-62.119],[-109.899,-62.211],[-110.957,-62.295],[-112.022,-62.37],[-113.091,-62.438],[-114.165,-62.497],[-115.242,-62.548],[-116.323,-62.591],[-117.407,-62.626],[-118.494,-62.652],[-119.087,-62.603],[-119.678,-62.553]]}},{"type":"Feature","properties":{"boundary_type":"subduction","feature_type":"gpml:SubductionZone","polarity":"Left","overriding_plate_id":701,"subducting_plate_id":919,"plate_ids":[701,919],"name":"West Gondwana (Panthalassa) subduction zone"},"geometry":{"type":"LineString","coordinates":[[-119.678,-62.553],[-120.7,-62.459],[-121.716,-62.357],[-122.725,-62.248],[-123.726,-62.132],[-124.719,-62.009],[-125.704,-61.878],[-126.681,-61.741],[-127.648,-61.597],[-128.607,-61.446],[-129.556,-61.288],[-130.495,-61.124],[-131.424,-60.953],[-132.343,-60.776],[-133.252,-60.593],[-134.151,-60.404]]}},{"type":"Feature","properties":{"boundary_type":"ridge","feature_type":"gpml:MidOceanRidge","polarity":null,"overriding_plate_id":null,"subducting_plate_id":null,"plate_ids":[101,16111],"name":"east of Alexander-Baltica MOR"},"geometry":{"type":"LineString","coordinates":[[-33.227,45.308],[-32.936,45.685],[-32.642,46.062],[-32.343,46.438],[-32.04,46.814],[-31.733,47.188],[-31.421,47.562],[-31.105,47.935],[-31.06,48.022],[-30.615,48.418],[-30.164,48.812],[-29.705,49.204],[-29.24,49.595],[-28.766,49.984],[-28.285,50.37],[-27.797,50.755],[-27.3,51.137],[-26.794,51.518],[-26.281,51.896],[-25.758,52.272],[-25.227,52.646],[-24.687,53.017],[-24.137,53.386],[-23.577,53.752],[-23.008,54.115]]}},{"type":"Feature","properties":{"boundary_type":"transform","feature_type":"gpml:Transform","polarity":null,"overriding_plate_id":null,"subducting_plate_id":null,"plate_ids":[604,9006],"name":"Annamia Transform"},"geometry":{"type":"LineString","coordinates":[[81.97,-21.585],[81.97,-21.135],[81.971,-20.685],[81.971,-20.236],[81.971,-19.786],[81.905,-19.313],[81.838,-18.841],[81.772,-18.368],[81.706,-17.895],[81.641,-17.423],[81.576,-16.95],[81.509,-16.472],[81.443,-15.993],[81.377,-15.515],[81.311,-15.037],[81.246,-14.558],[81.181,-14.08],[81.116,-13.601],[81.051,-13.123],[80.987,-12.644],[80.923,-12.166],[80.859,-11.687],[80.795,-11.209],[80.642,-10.734],[80.49,-10.259],[80.337,-9.784],[80.186,-9.309],[80.034,-8.834],[79.883,-8.359],[79.733,-7.884],[79.583,-7.409],[79.433,-6.934],[79.283,-6.459],[79.078,-6.02],[78.872,-5.581],[78.667,-5.141],[78.463,-4.702],[78.259,-4.263],[78.054,-3.824],[77.851,-3.384],[77.675,-2.932],[77.499,-2.481],[77.323,-2.029],[77.148,-1.577],[76.972,-1.125],[76.797,-0.673],[76.534,-0.298],[76.271,0.078],[76.008,0.453],[75.745,0.829],[75.481,1.204],[75.218,1.579],[74.955,1.954],[74.691,2.33],[74.428,2.705],[74.164,3.08],[73.9,3.455],[73.67,3.821],[73.44,4.187],[73.209,4.553],[72.978,4.919],[72.747,5.284],[72.516,5.65],[72.284,6.015],[72.228,6.506],[72.172,6.997],[72.116,7.488],[72.06,7.979],[72.003,8.47],[71.947,8.961],[72.094,9.418],[72.242,9.874],[72.39,10.33],[72.538,10.787],[72.687,11.243],[72.837,11.699],[72.986,12.155],[73.137,12.611],[73.288,13.067],[73.432,13.522],[73.576,13.976],[73.722,14.431],[73.867,14.885],[74.014,15.339],[74.161,15.793],[74.308,16.247],[74.395,16.739],[74.481,17.23],[74.569,17.722],[74.656,18.213],[74.745,18.704],[74.833,19.196],[74.923,19.687],[75.014,20.027]]}},{"type":"Feature","properties":{"boundary_type":"transform","feature_type":"gpml:Transform","polarity":null,"overriding_plate_id":null,"subducting_plate_id":null,"plate_ids":[9006,9013],"name":"Annamia Transform"},"geometry":{"type":"LineString","coordinates":[[75.014,20.027],[75.138,20.489],[75.263,20.95],[75.389,21.411]]}},{"type":"Feature","properties":{"boundary_type":"transform","feature_type":"gpml:Transform","polarity":null,"overriding_plate_id":null,"subducting_plate_id":null,"plate_ids":[580,9013],"name":"Annamia Transform"},"geometry":{"type":"LineString","coordinates":[[75.389,21.411],[75.441,21.604],[75.702,21.994],[75.965,22.385],[76.229,22.774],[76.494,23.164],[76.667,23.516],[76.841,23.867]]}},{"type":"Feature","properties":{"boundary_type":"ridge","feature_type":"gpml:MidOceanRidge","polarity":null,"overriding_plate_id":null,"subducting_plate_id":null,"plate_ids":[602,701],"name":"S.China-Gondwana MOR"},"geometry":{"type":"LineString","coordinates":[[121.919,-17.133],[121.483,-17.197],[121.048,-17.259],[120.612,-17.321],[120.176,-17.382],[119.74,-17.441],[119.303,-17.5],[119.442,-17.974],[119.582,-18.447],[119.723,-18.92],[119.865,-19.393],[120.008,-19.866],[120.151,-20.339],[120.295,-20.812],[120.441,-21.284],[120.587,-21.757],[120.734,-22.229],[120.882,-22.702],[120.418,-22.866],[119.952,-23.029],[119.485,-23.191],[119.017,-23.351],[118.548,-23.51],[118.078,-23.668],[117.607,-23.824],[117.135,-23.979],[116.661,-24.132],[116.187,-24.284],[115.711,-24.434],[115.59,-24.033],[115.471,-23.632],[115.352,-23.231],[115.234,-22.829],[115.116,-22.428],[114.63,-22.57],[114.143,-22.711],[113.655,-22.85],[113.167,-22.988],[112.677,-23.124],[112.186,-23.259],[111.694,-23.392],[111.201,-23.523],[110.707,-23.653],[110.213,-23.782],[109.717,-23.909],[109.22,-24.034],[108.722,-24.158],[108.224,-24.28],[107.724,-24.401],[107.224,-24.52],[106.722,-24.637],[106.8,-25.097],[106.879,-25.558],[106.958,-26.018],[106.452,-26.053],[105.946,-26.087],[105.439,-26.119],[104.933,-26.149],[104.426,-26.177],[103.918,-26.203],[103.411,-26.228],[102.903,-26.251],[102.395,-26.272],[101.887,-26.291],[101.379,-26.309],[101.264,-25.865],[101.149,-25.421],[101.035,-24.978]]}},{"type":"Feature","properties":{"boundary_type":"ridge","feature_type":"gpml:MidOceanRidge","polarity":null,"overriding_plate_id":null,"subducting_plate_id":null,"plate_ids":[101,16104],"name":"Slide Mountain Ocean MOR"},"geometry":{"type":"LineString","coordinates":[[-32.143,45.16],[-32.344,44.714],[-32.541,44.266],[-32.735,43.819],[-32.897,43.343],[-33.055,42.867],[-33.212,42.39],[-33.365,41.913],[-33.517,41.436],[-33.666,40.959],[-33.773,40.542],[-33.878,40.124],[-33.981,39.706],[-34.084,39.288],[-33.498,39.146],[-32.915,39.002],[-32.334,38.854],[-31.756,38.703],[-31.18,38.549],[-31.345,38.087],[-31.508,37.624],[-31.669,37.16],[-31.829,36.697],[-31.986,36.233],[-32.141,35.769],[-32.295,35.305],[-32.447,34.841],[-32.597,34.377],[-32.746,33.912],[-32.893,33.447],[-33.038,32.982],[-33.182,32.517],[-32.669,32.331],[-32.158,32.144],[-32.377,31.682],[-32.593,31.22],[-32.807,30.757],[-33.02,30.294],[-33.23,29.831],[-33.438,29.367],[-33.645,28.903],[-33.849,28.439],[-34.052,27.975],[-34.253,27.51],[-34.453,27.045],[-34.65,26.579],[-34.846,26.114],[-35.041,25.648],[-35.234,25.182],[-35.426,24.715],[-35.616,24.248],[-35.805,23.782],[-35.992,23.314],[-36.178,22.847],[-36.363,22.38],[-36.547,21.912],[-36.729,21.444],[-36.91,20.976],[-37.09,20.507],[-37.502,20.71],[-37.915,20.911],[-37.529,20.699]]}},{"type":"Feature","properties":{"boundary_type":"ridge","feature_type":"gpml:MidOceanRidge","polarity":null,"overriding_plate_id":null,"subducting_plate_id":null,"plate_ids":[101,16104],"name":"Slide Mountain Ocean MOR"},"geometry":{"type":"LineString","coordinates":[[-37.529,20.699],[-37.144,20.486],[-37.607,20.61],[-38.072,20.732],[-38.537,20.853],[-39.003,20.973],[-39.238,20.568],[-39.471,20.163],[-39.704,19.757],[-39.935,19.351],[-40.165,18.945],[-40.394,18.538],[-40.622,18.132],[-40.988,18.337],[-41.354,18.541],[-41.722,18.745],[-42.09,18.948],[-42.477,19.129],[-42.865,19.31],[-43.254,19.491],[-43.644,19.67],[-44.034,19.848],[-44.18,19.382],[-44.324,18.916],[-44.468,18.45],[-44.61,17.984],[-44.753,17.518],[-44.894,17.051],[-45.035,16.585],[-45.175,16.118],[-45.314,15.651],[-45.453,15.184],[-45.767,15.315],[-46.082,15.445],[-46.19,14.986],[-46.298,14.527],[-46.406,14.068],[-46.513,13.609],[-46.619,13.15],[-46.726,12.691],[-46.831,12.231],[-46.937,11.772],[-47.042,11.313],[-47.147,10.853],[-47.251,10.394],[-47.356,9.935],[-47.46,9.475],[-47.563,9.016],[-47.667,8.556],[-47.77,8.097],[-47.873,7.637],[-48.064,7.204],[-48.256,6.771],[-48.447,6.338],[-48.638,5.905]]}},{"type":"Feature","properties":{"boundary_type":"ridge","feature_type":"gpml:MidOceanRidge","polarity":null,"overriding_plate_id":null,"subducting_plate_id":null,"plate_ids":[101,401],"name":"Siberia-NAM (Laurussia) MOR"},"geometry":{"type":"LineString","coordinates":[[25.679,37.228],[26.26,37.079],[26.838,36.927],[27.415,36.772],[27.988,36.614],[28.56,36.454],[29.129,36.291],[29.696,36.125],[30.26,35.956],[30.824,35.791],[31.386,35.624],[31.945,35.454],[32.502,35.282],[33.056,35.107],[33.608,34.929],[33.777,35.347],[33.948,35.764],[34.477,35.584],[35.004,35.402],[35.528,35.218],[36.05,35.032],[36.569,34.843],[37.086,34.652],[37.601,34.459],[38.114,34.264],[38.624,34.066],[39.131,33.867],[39.636,33.665],[40.139,33.462],[40.385,33.889],[40.634,34.317],[41.147,34.145],[41.658,33.971],[42.167,33.795],[42.674,33.616],[43.179,33.436],[43.682,33.254],[43.923,33.579],[44.454,33.417],[44.983,33.252],[45.51,33.086],[46.035,32.917]]}},{"type":"Feature","properties":{"boundary_type":"subduction","feature_type":"gpml:SubductionZone","polarity":"Right","overriding_plate_id":101,"subducting_plate_id":701,"plate_ids":[101,701],"name":""},"geometry":{"type":"LineString","coordinates":[[42.44,6.84],[42.129,6.557],[41.819,6.275],[41.509,5.992],[41.199,5.709],[40.832,5.43],[40.466,5.15],[40.1,4.87],[39.734,4.59],[39.369,4.31],[39.004,4.03],[38.639,3.749],[38.275,3.469],[37.93,3.17],[37.586,2.871],[37.243,2.572],[36.899,2.273],[36.556,1.973],[36.212,1.674],[35.869,1.375],[35.526,1.075],[35.183,0.776],[34.839,0.477],[34.536,0.162],[34.233,-0.152],[33.929,-0.466],[33.626,-0.78],[33.322,-1.094],[33.019,-1.408],[32.736,-1.597]]}},{"type":"Feature","properties":{"boundary_type":"subduction","feature_type":"gpml:SubductionZone","polarity":"Right","overriding_plate_id":304,"subducting_plate_id":101,"plate_ids":[101,304],"name":"Lizard/Giessen backarc SZ"},"geometry":{"type":"LineString","coordinates":[[10.032,-0.58],[10.4,-0.74],[10.767,-0.9],[11.134,-1.06],[11.502,-1.22],[11.8,-1.415],[12.098,-1.611],[12.396,-1.806],[12.739,-1.926],[13.082,-2.045],[13.445,-1.951],[13.808,-1.857],[14.17,-1.763],[14.51,-1.537],[14.85,-1.312],[15.19,-1.086],[15.53,-0.861],[15.895,-0.548],[16.261,-0.236],[16.626,0.076],[17.004,0.135],[17.383,0.195],[17.814,0.116],[18.245,0.037],[18.676,-0.042],[19.038,-0.032],[19.4,-0.022],[19.854,0.092],[20.308,0.207],[20.608,0.376],[20.907,0.545],[21.206,0.714],[21.524,0.986],[21.843,1.259],[22.161,1.531],[22.389,1.909],[22.617,2.287],[22.845,2.664],[23.053,3.086],[23.262,3.508],[23.471,3.93],[23.681,4.352],[23.978,4.702],[24.275,5.052],[24.573,5.402],[24.871,5.751],[25.213,5.962],[25.555,6.173],[25.898,6.383],[26.203,6.456],[26.508,6.529]]}},{"type":"Feature","properties":{"boundary_type":"subduction","feature_type":"gpml:SubductionZone","polarity":"Left","overriding_plate_id":926,"subducting_plate_id":9014,"plate_ids":[926,9014],"name":"North China-Beishan SZ"},"geometry":{"type":"LineString","coordinates":[[155.709,27.028],[155.28,27.227],[154.848,27.425],[154.416,27.621],[153.982,27.816],[153.546,28.01],[153.064,28.188],[152.58,28.365],[152.095,28.54],[151.608,28.713],[151.119,28.884],[150.629,29.053],[150.137,29.221],[149.58,29.328]]}},{"type":"Feature","properties":{"boundary_type":"subduction","feature_type":"gpml:SubductionZone","polarity":"Left","overriding_plate_id":601,"subducting_plate_id":9014,"plate_ids":[601,9014],"name":"North China-Beishan SZ"},"geometry":{"type":"LineString","coordinates":[[149.58,29.328],[149.097,29.419],[148.613,29.508],[148.128,29.595],[147.642,29.681],[147.155,29.765],[146.668,29.847],[146.179,29.927],[145.66,29.872],[145.142,29.814],[144.624,29.755],[144.107,29.693],[143.591,29.629],[143.075,29.564],[142.56,29.496],[142.046,29.427],[141.532,29.355],[141.035,29.376],[140.537,29.394],[140.039,29.411],[139.541,29.426],[139.043,29.439],[138.545,29.45],[138.047,29.459],[137.501,29.496],[136.954,29.53],[136.407,29.562],[135.86,29.592],[135.312,29.62],[134.764,29.646],[134.216,29.669],[133.668,29.69],[133.119,29.709],[132.57,29.725],[132.021,29.739],[131.472,29.751],[130.923,29.761],[130.374,29.769]]}},{"type":"Feature","properties":{"boundary_type":"subduction","feature_type":"gpml:SubductionZone","polarity":"Right","overriding_plate_id":430,"subducting_plate_id":902,"plate_ids":[430,902],"name":"Nuhetdavaa-Enshoo (Uliastai) sz"},"geometry":{"type":"LineString","coordinates":[[-163.97,54.089],[-163.989,54.089],[-164.536,54.115],[-165.083,54.139]]}},{"type":"Feature","properties":{"boundary_type":"subduction","feature_type":"gpml:SubductionZone","polarity":"Right","overriding_plate_id":430,"subducting_plate_id":926,"plate_ids":[430,926],"name":"Nuhetdavaa-Enshoo (Uliastai) sz"},"geometry":{"type":"LineString","coordinates":[[-165.083,54.139],[-165.917,54.171],[-166.753,54.197],[-167.59,54.217],[-168.427,54.232],[-169.265,54.24],[-170.103,54.243],[-170.941,54.24],[-171.778,54.231],[-172.616,54.217],[-173.452,54.196],[-174.29,54.214],[-175.129,54.226],[-175.968,54.232],[-176.807,54.232],[-177.645,54.227],[-178.484,54.215],[-179.322,54.198],[179.841,54.175],[179.005,54.147],[178.17,54.112],[177.336,54.072]]}},{"type":"Feature","properties":{"boundary_type":"subduction","feature_type":"gpml:SubductionZone","polarity":"Right","overriding_plate_id":430,"subducting_plate_id":9013,"plate_ids":[430,9013],"name":"Nuhetdavaa-Enshoo (Uliastai) sz"},"geometry":{"type":"LineString","coordinates":[[177.336,54.072],[176.933,54.05],[176.124,54.021],[175.316,53.986],[174.51,53.945],[173.705,53.899],[172.902,53.848],[172.101,53.792],[171.303,53.73],[170.507,53.663],[169.713,53.591],[168.922,53.513],[168.135,53.43],[167.35,53.342],[166.548,53.319],[165.747,53.29],[164.947,53.256],[164.148,53.216],[163.351,53.172],[162.556,53.121],[161.763,53.066],[160.972,53.005],[160.183,52.939],[159.397,52.868],[158.613,52.792],[157.832,52.711],[157.054,52.624],[156.28,52.532],[155.508,52.436],[154.746,52.336],[153.988,52.232],[153.234,52.123],[152.483,52.008],[151.736,51.89],[150.993,51.766],[150.254,51.638],[149.52,51.505],[148.79,51.368],[148.064,51.226],[147.295,51.147],[146.528,51.064],[145.765,50.975],[145.004,50.882],[144.246,50.783],[143.492,50.68],[142.741,50.571],[142.014,50.524],[141.289,50.473],[140.565,50.417],[139.843,50.356],[139.123,50.291],[138.405,50.221],[137.689,50.147],[136.976,50.069],[136.265,49.987],[135.556,49.9],[134.85,49.808],[134.147,49.713],[133.446,49.613],[132.732,49.446],[132.023,49.275],[131.318,49.099],[130.619,48.92],[129.924,48.736],[129.235,48.548],[128.551,48.355],[127.872,48.159],[127.199,47.959],[126.531,47.755],[125.867,47.547],[125.21,47.335],[124.557,47.12],[123.844,47.133],[123.131,47.142],[122.417,47.147],[121.703,47.147],[120.99,47.143],[120.276,47.134],[119.563,47.121],[118.85,47.103],[118.138,47.081],[117.426,47.055],[116.716,47.024],[116.006,46.989],[115.297,46.949],[114.589,46.905],[113.882,46.857],[113.177,46.804],[112.473,46.747],[111.771,46.686],[111.07,46.62],[110.371,46.551],[109.674,46.477],[108.979,46.398],[108.286,46.316],[107.595,46.229],[106.906,46.138],[106.22,46.043],[105.539,45.911],[104.862,45.775],[104.188,45.635],[103.517,45.491],[102.85,45.343],[102.186,45.191],[101.526,45.036],[100.87,44.876],[100.217,44.713],[99.568,44.546],[98.923,44.376],[98.281,44.202],[97.643,44.024],[97.01,43.843],[96.38,43.658],[95.753,43.47],[95.131,43.278],[94.513,43.084]]}},{"type":"Feature","properties":{"boundary_type":"ridge","feature_type":"gpml:MidOceanRidge","polarity":null,"overriding_plate_id":null,"subducting_plate_id":null,"plate_ids":[919,926],"name":"Izanagi-Farallon MOR"},"geometry":{"type":"LineString","coordinates":[[-150.648,7.405],[-150.74,7.855],[-150.832,8.305],[-150.924,8.755],[-151.017,9.206],[-151.109,9.656]]}},{"type":"Feature","properties":{"boundary_type":"ridge","feature_type":"gpml:MidOceanRidge","polarity":null,"overriding_plate_id":null,"subducting_plate_id":null,"plate_ids":[902,926],"name":"Izanagi-Farallon MOR"},"geometry":{"type":"LineString","coordinates":[[-151.109,9.656],[-151.21,10.144],[-151.312,10.632],[-151.413,11.12],[-151.515,11.608],[-151.617,12.096],[-151.72,12.584],[-151.823,13.071],[-151.926,13.559],[-152.03,14.047],[-152.134,14.535],[-152.239,15.023],[-152.344,15.51],[-152.45,15.998],[-152.556,16.485],[-152.663,16.973],[-152.77,17.46],[-152.878,17.948],[-152.987,18.435],[-153.096,18.922],[-153.205,19.409],[-153.316,19.897],[-153.427,20.384],[-153.539,20.871],[-153.651,21.358],[-153.765,21.844],[-153.879,22.331],[-153.993,22.818],[-153.477,22.796],[-152.961,22.773],[-152.445,22.748],[-151.929,22.722],[-151.413,22.694],[-150.898,22.664],[-150.383,22.632],[-150.463,23.118],[-150.543,23.603],[-150.625,24.088],[-150.706,24.573],[-150.789,25.059],[-150.872,25.544],[-150.956,26.029],[-151.04,26.514],[-151.125,26.999],[-151.211,27.484],[-151.298,27.969],[-151.386,28.453],[-151.474,28.938],[-151.563,29.423],[-151.653,29.908],[-151.744,30.392],[-151.835,30.877],[-151.928,31.361],[-152.022,31.845],[-152.116,32.33],[-152.212,32.814],[-152.309,33.298],[-152.407,33.782],[-152.506,34.266],[-152.606,34.75],[-152.707,35.234],[-152.809,35.718],[-152.913,36.202],[-153.018,36.685],[-153.124,37.169],[-153.232,37.652],[-153.341,38.135],[-153.451,38.619],[-153.563,39.102],[-153.677,39.585],[-153.792,40.068],[-153.909,40.55],[-154.028,41.033],[-154.148,41.515],[-154.27,41.998],[-154.868,41.952],[-155.465,41.904],[-156.061,41.852],[-156.656,41.797],[-157.25,41.739],[-157.843,41.678],[-158.435,41.614],[-159.026,41.547],[-159.615,41.477],[-159.776,41.95],[-159.939,42.422],[-160.104,42.895],[-160.273,43.367],[-160.443,43.839],[-160.617,44.311],[-160.793,44.782],[-160.972,45.254],[-161.154,45.725],[-161.34,46.195],[-161.528,46.666],[-161.72,47.136],[-161.915,47.605],[-162.114,48.075],[-162.316,48.544],[-162.523,49.012],[-162.733,49.48],[-162.947,49.948],[-163.165,50.416],[-163.388,50.883],[-163.615,51.349],[-163.847,51.816],[-164.084,52.281],[-164.326,52.747],[-164.572,53.211],[-164.825,53.675],[-165.083,54.139]]}},{"type":"Feature","properties":{"boundary_type":"ridge","feature_type":"gpml:MidOceanRidge","polarity":null,"overriding_plate_id":null,"subducting_plate_id":null,"plate_ids":[902,919],"name":"Phoenix-Farallon MOR"},"geometry":{"type":"LineString","coordinates":[[-151.109,9.656],[-150.693,9.377],[-150.276,9.099],[-149.861,8.819],[-149.446,8.54],[-149.031,8.26],[-148.618,7.979],[-148.204,7.698],[-147.792,7.417],[-147.38,7.135],[-146.968,6.853],[-146.557,6.571],[-146.146,6.288],[-145.736,6.005],[-145.326,5.722],[-144.917,5.438],[-144.508,5.154],[-144.099,4.87],[-143.691,4.585],[-143.283,4.301],[-142.875,4.016],[-142.468,3.731],[-142.061,3.445],[-141.654,3.16],[-141.247,2.874],[-140.841,2.589],[-140.434,2.303],[-140.028,2.017],[-140.356,1.684],[-140.683,1.35],[-141.01,1.017],[-141.337,0.684],[-141.664,0.351],[-141.991,0.017],[-142.318,-0.316],[-142.645,-0.649],[-142.257,-0.956],[-141.868,-1.263],[-141.479,-1.569],[-141.091,-1.876],[-140.702,-2.182],[-140.313,-2.489],[-139.923,-2.795],[-139.534,-3.101],[-139.144,-3.407],[-138.754,-3.713],[-138.364,-4.018],[-137.973,-4.324],[-137.583,-4.629],[-137.191,-4.934],[-136.8,-5.239],[-136.408,-5.543],[-136.016,-5.848],[-135.623,-6.152],[-135.23,-6.455],[-134.836,-6.759],[-134.442,-7.062],[-134.047,-7.365],[-133.652,-7.667],[-133.256,-7.969],[-132.86,-8.271],[-132.463,-8.572],[-132.065,-8.873],[-131.667,-9.173],[-131.268,-9.473],[-130.868,-9.773],[-130.468,-10.072],[-130.067,-10.371],[-129.665,-10.669],[-129.263,-10.967],[-128.859,-11.264],[-128.455,-11.56],[-128.05,-11.856],[-127.644,-12.152],[-127.237,-12.446],[-126.829,-12.741],[-126.42,-13.034],[-126.01,-13.327],[-125.6,-13.619],[-125.188,-13.911],[-124.775,-14.202],[-124.361,-14.492],[-123.946,-14.782],[-123.53,-15.07],[-123.113,-15.358],[-122.695,-15.646],[-122.275,-15.932],[-121.854,-16.218],[-121.432,-16.502],[-121.009,-16.786],[-120.585,-17.069],[-120.159,-17.351],[-119.732,-17.633],[-119.304,-17.913],[-118.874,-18.192],[-118.443,-18.471],[-118.01,-18.748],[-117.576,-19.025],[-117.141,-19.3],[-116.704,-19.575],[-116.363,-19.214],[-116.022,-18.854],[-115.684,-18.492],[-115.346,-18.13],[-115.01,-17.767],[-114.676,-17.404],[-114.276,-17.716],[-113.876,-18.027],[-113.473,-18.338],[-113.07,-18.647],[-112.665,-18.956],[-112.258,-19.264],[-111.85,-19.571],[-111.44,-19.877],[-111.029,-20.182],[-110.616,-20.486],[-110.201,-20.789],[-109.785,-21.091],[-109.367,-21.392],[-108.948,-21.692],[-108.526,-21.991],[-108.103,-22.289],[-107.678,-22.586],[-107.251,-22.882],[-106.823,-23.176],[-106.392,-23.47],[-105.96,-23.762],[-105.525,-24.053],[-105.089,-24.343],[-104.651,-24.631],[-104.21,-24.919],[-103.768,-25.205],[-103.323,-25.489],[-102.877,-25.772],[-102.428,-26.054],[-101.977,-26.335],[-101.524,-26.614],[-101.069,-26.892],[-100.611,-27.168],[-100.151,-27.442],[-99.689,-27.716],[-99.225,-27.987],[-98.758,-28.257],[-98.289,-28.526],[-97.818,-28.793],[-97.344,-29.058],[-96.867,-29.321],[-96.389,-29.583],[-95.907,-29.843],[-95.423,-30.102],[-94.937,-30.358],[-94.448,-30.613],[-93.957,-30.866],[-93.463,-31.117],[-92.966,-31.366],[-92.467,-31.613],[-91.965,-31.859],[-91.46,-32.102],[-90.953,-32.343],[-90.443,-32.583],[-89.93,-32.82],[-89.415,-33.055],[-88.898,-33.287],[-88.377,-33.518],[-87.854,-33.746],[-87.328,-33.973],[-86.799,-34.197],[-86.267,-34.418],[-85.733,-34.638],[-85.196,-34.855],[-84.656,-35.069],[-84.113,-35.281],[-83.567,-35.491],[-83.018,-35.699],[-82.467,-35.903],[-81.912,-36.106],[-81.355,-36.305],[-80.795,-36.502],[-80.233,-36.697],[-79.667,-36.889],[-79.098,-37.078],[-78.527,-37.264],[-77.953,-37.448],[-77.376,-37.629],[-76.796,-37.807],[-76.214,-37.982],[-75.629,-38.154],[-75.04,-38.324],[-74.45,-38.49],[-73.856,-38.654],[-73.26,-38.814],[-72.661,-38.971],[-72.06,-39.126],[-71.456,-39.277],[-70.849,-39.425],[-70.24,-39.57],[-69.628,-39.712],[-69.014,-39.85],[-68.397,-39.985],[-67.778,-40.117],[-67.157,-40.246],[-66.533,-40.371],[-65.907,-40.493]]}},{"type":"Feature","properties":{"boundary_type":"ridge","feature_type":"gpml:MidOceanRidge","polarity":null,"overriding_plate_id":null,"subducting_plate_id":null,"plate_ids":[919,926],"name":"Phoenix-Izanagi MOR"},"geometry":{"type":"LineString","coordinates":[[-150.648,7.405],[-151.023,7.232],[-151.398,7.059],[-151.772,6.886],[-152.147,6.713],[-152.521,6.539],[-152.704,6.978],[-152.887,7.417],[-153.071,7.855],[-153.256,8.294],[-153.44,8.733],[-153.626,9.171],[-154.069,8.95],[-154.512,8.729],[-154.954,8.507],[-155.396,8.284],[-155.837,8.061],[-156.277,7.837],[-156.718,7.613],[-157.158,7.389],[-157.597,7.164],[-158.036,6.939],[-158.474,6.713],[-158.912,6.487],[-159.35,6.26],[-159.787,6.033],[-160.224,5.806],[-160.661,5.579],[-161.097,5.351],[-161.533,5.123],[-161.969,4.894],[-162.404,4.666],[-162.839,4.437],[-163.274,4.207],[-163.708,3.978],[-164.143,3.748],[-164.577,3.518],[-165.01,3.288],[-165.444,3.058],[-165.878,2.827],[-166.311,2.597],[-166.744,2.366],[-167.177,2.135],[-167.61,1.904],[-168.042,1.673],[-168.475,1.441],[-168.908,1.21],[-169.34,0.979],[-169.772,0.747],[-170.205,0.516],[-170.637,0.284],[-171.069,0.052],[-171.502,-0.179],[-171.934,-0.411],[-172.366,-0.642],[-172.799,-0.874],[-173.231,-1.105],[-173.664,-1.337],[-174.096,-1.568],[-174.529,-1.799],[-174.962,-2.03],[-175.395,-2.261],[-175.828,-2.492],[-176.261,-2.723],[-176.473,-2.298],[-176.685,-1.873],[-176.897,-1.448],[-177.109,-1.023],[-177.522,-1.298],[-177.936,-1.573],[-178.349,-1.847],[-178.763,-2.122],[-179.176,-2.397],[-179.59,-2.671],[179.996,-2.946],[179.581,-3.22],[179.167,-3.494],[178.752,-3.768],[178.337,-4.042],[177.922,-4.315],[177.506,-4.588],[177.09,-4.861],[176.674,-5.134],[176.257,-5.406],[175.84,-5.679],[175.423,-5.95],[175.005,-6.222],[174.587,-6.493],[174.168,-6.764],[173.749,-7.035],[173.329,-7.305],[172.909,-7.575],[172.488,-7.844],[172.067,-8.113],[171.645,-8.381],[171.223,-8.65],[170.8,-8.917],[170.376,-9.184],[169.952,-9.451],[169.527,-9.717],[169.102,-9.983],[168.675,-10.248],[168.248,-10.512],[167.821,-10.776],[167.392,-11.039],[166.963,-11.302],[166.533,-11.564],[166.102,-11.826],[165.671,-12.087],[165.238,-12.347],[164.805,-12.606],[164.371,-12.865],[163.935,-13.123],[163.499,-13.38],[163.062,-13.637],[162.625,-13.893],[162.186,-14.148],[161.746,-14.402],[161.305,-14.656],[160.863,-14.908],[160.42,-15.16],[159.955,-15.366],[159.49,-15.57],[159.023,-15.774],[158.555,-15.977],[158.087,-16.178],[157.617,-16.379],[157.147,-16.579],[156.676,-16.777],[156.203,-16.975],[155.73,-17.171],[155.255,-17.366],[154.78,-17.56],[154.304,-17.753],[153.826,-17.945],[153.348,-18.136],[152.868,-18.325],[152.388,-18.514],[151.906,-18.701],[151.423,-18.887],[150.939,-19.071],[150.455,-19.255],[149.969,-19.437],[149.482,-19.618],[148.994,-19.797],[148.504,-19.975],[148.014,-20.152],[147.523,-20.327],[147.03,-20.501],[146.537,-20.674],[146.042,-20.845],[145.546,-21.015],[145.183,-20.675],[144.821,-20.335],[144.462,-19.993],[144.103,-19.651],[143.614,-19.812],[143.125,-19.972],[142.634,-20.13],[142.142,-20.287],[141.65,-20.442],[141.156,-20.596],[140.661,-20.749],[140.166,-20.9],[139.669,-21.05],[139.171,-21.198],[138.672,-21.345],[138.173,-21.491],[137.672,-21.635],[137.17,-21.777],[136.668,-21.918],[136.164,-22.057],[135.66,-22.195],[135.154,-22.331],[134.647,-22.466],[134.14,-22.599],[133.631,-22.731],[133.122,-22.861],[132.611,-22.989],[132.1,-23.116],[131.587,-23.241],[131.074,-23.364],[130.56,-23.486],[130.044,-23.606]]}},{"type":"Feature","properties":{"boundary_type":"transform","feature_type":"gpml:Transform","polarity":null,"overriding_plate_id":null,"subducting_plate_id":null,"plate_ids":[430,9009],"name":"Mongol-Okhotsk Ocean transform"},"geometry":{"type":"LineString","coordinates":[[90.581,45.406],[91.045,45.766],[91.515,46.123],[91.992,46.479],[92.474,46.833],[92.963,47.185],[93.459,47.534],[93.961,47.882],[94.47,48.227],[94.986,48.57],[95.509,48.911],[96.039,49.249]]}},{"type":"Feature","properties":{"boundary_type":"transform","feature_type":"gpml:Transform","polarity":null,"overriding_plate_id":null,"subducting_plate_id":null,"plate_ids":[430,9010],"name":"Mongol-Okhotsk Ocean transform"},"geometry":{"type":"LineString","coordinates":[[96.039,49.249],[96.518,49.549],[97.002,49.846],[97.493,50.142],[97.99,50.435],[98.493,50.727],[99.002,51.016],[99.625,51.279],[100.255,51.538],[100.892,51.794],[101.536,52.047],[102.188,52.296],[102.847,52.541],[103.513,52.783],[104.187,53.021],[104.868,53.255],[105.557,53.485],[106.253,53.711],[106.956,53.933],[107.667,54.151],[108.386,54.364],[109.111,54.574],[109.845,54.779],[110.585,54.979]]}},{"type":"Feature","properties":{"boundary_type":"transform","feature_type":"gpml:Transform","polarity":null,"overriding_plate_id":null,"subducting_plate_id":null,"plate_ids":[401,460],"name":"transform"},"geometry":{"type":"LineString","coordinates":[[47.488,40.56],[48.008,40.748],[48.532,40.934],[49.059,41.118],[49.588,41.299],[50.121,41.478],[50.656,41.655],[51.195,41.829],[51.792,42.039],[52.394,42.245]]}},{"type":"Feature","properties":{"boundary_type":"subduction","feature_type":"gpml:SubductionZone","polarity":"Left","overriding_plate_id":460,"subducting_plate_id":401,"plate_ids":[401,460],"name":""},"geometry":{"type":"LineString","coordinates":[[47.488,40.56],[47.386,40.307],[47.286,40.054],[47.117,39.585],[46.952,39.117],[46.788,38.648],[46.627,38.178],[46.467,37.709],[46.31,37.239],[46.248,36.764],[46.188,36.288],[46.128,35.812],[46.068,35.336],[46.01,34.86],[45.968,34.429],[45.926,33.997],[45.885,33.566],[45.844,33.135],[46.035,32.917]]}},{"type":"Feature","properties":{"boundary_type":"subduction","feature_type":"gpml:SubductionZone","polarity":"Left","overriding_plate_id":460,"subducting_plate_id":101,"plate_ids":[101,460],"name":""},"geometry":{"type":"LineString","coordinates":[[46.035,32.917],[46.369,32.531],[46.701,32.144],[47.03,31.757],[47.356,31.369],[47.68,30.979],[48.113,30.727],[48.543,30.474],[48.972,30.219],[49.398,29.963],[49.822,29.705],[50.222,29.414],[50.619,29.121],[51.014,28.827],[51.407,28.532],[51.798,28.235],[52.186,27.938],[52.572,27.64],[52.784,27.231],[52.993,26.822],[53.202,26.412],[53.408,26.003],[53.614,25.593],[53.818,25.183],[54.02,24.772]]}},{"type":"Feature","properties":{"boundary_type":"transform","feature_type":"gpml:Transform","polarity":null,"overriding_plate_id":null,"subducting_plate_id":null,"plate_ids":[460,580],"name":""},"geometry":{"type":"LineString","coordinates":[[58.937,43.282],[59.073,43.2],[59.556,42.91],[60.034,42.618],[60.508,42.324],[60.977,42.028],[61.442,41.731],[61.939,41.453],[62.432,41.173],[62.92,40.891],[63.405,40.607],[63.885,40.322],[64.289,39.938],[64.688,39.553],[65.083,39.167],[65.474,38.779],[65.861,38.391],[66.243,38.0]]}},{"type":"Feature","properties":{"boundary_type":"subduction","feature_type":"gpml:SubductionZone","polarity":"Right","overriding_plate_id":460,"subducting_plate_id":580,"plate_ids":[460,580],"name":"Kazakhstania subduction zone"},"geometry":{"type":"LineString","coordinates":[[58.883,46.906],[58.871,46.534],[58.881,46.069],[58.891,45.605],[58.9,45.14],[58.91,44.675],[58.919,44.211],[58.928,43.746],[58.937,43.282]]}},{"type":"Feature","properties":{"boundary_type":"transform","feature_type":"gpml:Transform","polarity":null,"overriding_plate_id":null,"subducting_plate_id":null,"plate_ids":[401,9009],"name":""},"geometry":{"type":"LineString","coordinates":[[61.206,61.327],[61.99,61.355],[62.776,61.378],[63.563,61.397]]}},{"type":"Feature","properties":{"boundary_type":"ridge","feature_type":"gpml:MidOceanRidge","polarity":null,"overriding_plate_id":null,"subducting_plate_id":null,"plate_ids":[701,9006],"name":"Paleotethys MOR"},"geometry":{"type":"LineString","coordinates":[[44.434,10.112],[44.899,10.247],[45.364,10.381],[45.83,10.514],[46.296,10.647],[46.704,10.36],[47.112,10.072],[47.519,9.783],[47.926,9.494],[48.331,9.205],[48.736,8.915],[49.141,8.624],[49.544,8.334],[49.948,8.042],[50.35,7.751],[50.636,8.142],[50.923,8.533],[51.211,8.924],[51.645,8.696],[52.078,8.467],[52.511,8.239],[52.944,8.009],[53.376,7.779],[53.807,7.549],[54.238,7.319],[54.668,7.088],[55.098,6.856],[55.528,6.624],[55.957,6.392],[56.386,6.159],[56.815,5.927],[57.243,5.693],[57.066,5.296],[56.89,4.899],[56.714,4.502],[56.538,4.105],[56.363,3.708],[56.776,3.427],[57.19,3.146],[57.603,2.865],[58.016,2.584],[58.429,2.303],[58.842,2.022],[59.255,1.74],[59.667,1.459],[60.08,1.177],[60.492,0.895],[60.904,0.613],[61.316,0.332],[61.728,0.05],[62.141,-0.232],[62.553,-0.514],[62.965,-0.796],[63.377,-1.077],[63.79,-1.359],[64.202,-1.641],[64.615,-1.922],[65.027,-2.204],[65.44,-2.485],[65.853,-2.766],[66.267,-3.047],[66.68,-3.328],[67.094,-3.609],[67.508,-3.889],[67.922,-4.17],[68.336,-4.45],[68.751,-4.73],[68.594,-5.03],[68.436,-5.331],[68.278,-5.631],[68.704,-5.878],[69.13,-6.124],[69.557,-6.37],[69.984,-6.616],[70.412,-6.861],[70.84,-7.106],[71.269,-7.351],[71.698,-7.595],[72.127,-7.839],[72.557,-8.082],[72.988,-8.325],[73.419,-8.567],[73.851,-8.809],[74.283,-9.051],[74.716,-9.292],[75.149,-9.532],[75.583,-9.772],[76.018,-10.011],[76.453,-10.25],[76.889,-10.488],[77.325,-10.726],[77.301,-11.205],[77.276,-11.684],[77.252,-12.164],[77.227,-12.643],[77.202,-13.122],[77.178,-13.601],[77.153,-14.08],[77.128,-14.56],[77.102,-15.039],[77.077,-15.518],[77.052,-15.997],[77.026,-16.477],[77.001,-16.956],[76.975,-17.435],[76.949,-17.914],[76.923,-18.393],[76.897,-18.873],[76.87,-19.352],[76.844,-19.831],[76.817,-20.31],[76.79,-20.789]]}},{"type":"Feature","properties":{"boundary_type":"transform","feature_type":"gpml:Transform","polarity":null,"overriding_plate_id":null,"subducting_plate_id":null,"plate_ids":[701,9006],"name":"Gondwanna/Annamia transform"},"geometry":{"type":"LineString","coordinates":[[76.79,-20.789],[77.306,-20.876],[77.822,-20.961],[78.338,-21.045],[78.855,-21.127],[79.373,-21.207],[79.891,-21.286],[80.41,-21.363],[80.929,-21.439],[81.449,-21.513],[81.97,-21.585]]}},{"type":"Feature","properties":{"boundary_type":"transform","feature_type":"gpml:Transform","polarity":null,"overriding_plate_id":null,"subducting_plate_id":null,"plate_ids":[604,701],"name":"Gondwanna/Annamia transform"},"geometry":{"type":"LineString","coordinates":[[81.97,-21.585],[82.483,-21.655],[82.996,-21.723],[83.51,-21.79],[84.025,-21.855],[84.54,-21.918],[85.055,-21.98],[85.571,-22.04],[86.087,-22.099],[86.604,-22.156],[87.121,-22.211],[87.625,-22.386],[88.131,-22.559],[88.639,-22.731],[89.147,-22.901],[89.657,-23.069],[90.168,-23.236],[90.681,-23.401],[91.195,-23.564],[91.71,-23.726],[92.226,-23.886],[92.743,-24.044],[93.262,-24.2],[93.782,-24.355],[94.303,-24.508],[94.826,-24.659],[95.282,-24.691],[95.738,-24.722],[96.195,-24.752],[96.651,-24.78],[97.108,-24.806]]}},{"type":"Feature","properties":{"boundary_type":"transform","feature_type":"gpml:Transform","polarity":null,"overriding_plate_id":null,"subducting_plate_id":null,"plate_ids":[602,701],"name":"Gondwanna/Annamia transform"},"geometry":{"type":"LineString","coordinates":[[97.108,-24.806],[97.598,-24.833],[98.089,-24.859],[98.58,-24.883],[99.07,-24.905],[99.561,-24.925],[100.052,-24.944],[100.544,-24.962],[101.035,-24.978]]}},{"type":"Feature","properties":{"boundary_type":"ridge","feature_type":"gpml:MidOceanRidge","polarity":null,"overriding_plate_id":null,"subducting_plate_id":null,"plate_ids":[602,604],"name":"Indochina-SCB spreading"},"geometry":{"type":"LineString","coordinates":[[97.108,-24.806],[96.752,-24.444],[96.398,-24.08],[96.045,-23.716],[95.695,-23.351],[95.346,-22.985],[95.0,-22.619],[94.655,-22.251],[94.312,-21.883],[93.971,-21.515],[93.632,-21.145],[93.294,-20.775],[92.958,-20.404],[92.624,-20.033],[92.291,-19.661],[91.959,-19.288],[91.63,-18.915],[91.301,-18.541],[90.974,-18.167],[90.649,-17.792],[90.325,-17.416],[90.002,-17.04],[89.68,-16.664],[89.36,-16.287],[89.041,-15.909],[88.723,-15.532],[88.406,-15.153],[88.091,-14.774],[87.776,-14.395],[87.463,-14.015],[87.151,-13.635],[86.839,-13.255],[86.529,-12.874],[86.22,-12.493],[86.57,-12.143],[86.92,-11.793],[87.269,-11.442],[87.617,-11.091],[87.964,-10.739],[88.311,-10.388],[88.657,-10.035],[89.001,-9.683],[89.346,-9.33],[89.689,-8.976],[90.032,-8.623],[90.374,-8.269],[90.716,-7.915],[91.057,-7.56],[91.397,-7.205],[91.737,-6.85],[92.076,-6.495],[91.706,-6.182],[91.337,-5.868],[90.968,-5.555],[91.262,-5.155],[91.555,-4.755],[91.848,-4.354],[92.141,-3.954],[92.433,-3.553],[92.725,-3.153],[93.017,-2.752],[93.309,-2.351],[93.601,-1.951],[93.892,-1.55],[93.484,-1.288],[93.076,-1.026],[92.669,-0.764],[92.756,-0.327],[92.844,0.11],[92.932,0.546],[93.019,0.983],[93.107,1.42],[93.195,1.857],[93.283,2.293],[92.859,2.5],[92.435,2.706],[92.204,3.097],[91.973,3.487],[91.742,3.878],[91.51,4.268],[91.279,4.658],[91.047,5.048],[90.814,5.438],[90.351,5.585],[90.274,6.055],[90.197,6.525],[90.12,6.995],[90.042,7.464],[89.965,7.934],[89.887,8.404],[89.809,8.874],[89.731,9.343],[89.652,9.813],[89.302,9.881],[88.951,9.948],[88.6,10.016],[88.342,10.442],[88.084,10.868],[87.825,11.294],[87.565,11.72],[87.305,12.145],[87.044,12.571],[86.781,12.996],[86.518,13.42],[86.254,13.845],[85.989,14.269],[85.592,14.277],[85.195,14.284],[84.918,14.704],[84.64,15.123],[84.36,15.543],[84.08,15.962],[83.798,16.38],[83.515,16.798],[83.231,17.216],[82.946,17.633],[82.659,18.05]]}},{"type":"Feature","properties":{"boundary_type":"subduction","feature_type":"gpml:SubductionZone","polarity":"Left","overriding_plate_id":602,"subducting_plate_id":926,"plate_ids":[602,926],"name":"Panthalassa SZ estern China"},"geometry":{"type":"LineString","coordinates":[[118.679,-15.525],[118.844,-15.073],[119.008,-14.621],[119.172,-14.17],[119.312,-13.697],[119.451,-13.224],[119.589,-12.752],[119.727,-12.279],[119.864,-11.806],[120.001,-11.333],[120.138,-10.86],[120.274,-10.387],[120.41,-9.914],[120.545,-9.441],[120.68,-8.967],[120.814,-8.494],[120.948,-8.021],[121.082,-7.547],[121.216,-7.074],[121.349,-6.6],[121.482,-6.127],[121.615,-5.653],[121.748,-5.18],[121.88,-4.706],[122.012,-4.233],[122.144,-3.759],[122.276,-3.285],[122.327,-2.808],[122.379,-2.331],[122.43,-1.854],[122.481,-1.377],[122.532,-0.9],[122.583,-0.422],[122.634,0.055],[122.685,0.532],[122.736,1.009],[122.804,1.472],[122.872,1.935],[122.94,2.398],[123.009,2.861],[123.077,3.324],[123.146,3.788],[123.358,4.145],[123.571,4.502],[123.784,4.859],[123.998,5.217],[124.211,5.574],[124.411,5.941],[124.612,6.309],[124.813,6.676],[125.014,7.043],[125.215,7.41],[125.417,7.777],[125.82,8.03],[126.223,8.282],[126.627,8.533],[127.032,8.785],[127.437,9.035],[127.842,9.286]]}},{"type":"Feature","properties":{"boundary_type":"subduction","feature_type":"gpml:SubductionZone","polarity":"Left","overriding_plate_id":601,"subducting_plate_id":926,"plate_ids":[601,926],"name":"Panthalassa SZ estern China"},"geometry":{"type":"LineString","coordinates":[[127.842,9.286],[128.224,9.52],[128.606,9.754],[128.988,9.988],[129.45,10.011],[129.912,10.033],[130.375,10.055],[130.837,10.075],[131.299,10.096],[131.762,10.115],[132.224,10.134],[132.687,10.152],[133.155,10.283],[133.624,10.413],[134.094,10.542],[134.564,10.671],[135.034,10.799],[135.505,10.926],[135.976,11.053],[136.447,11.179],[136.919,11.304],[137.391,11.428],[137.83,11.673],[138.27,11.918],[138.711,12.162],[139.152,12.405],[139.595,12.648],[140.038,12.89],[140.482,13.131],[140.927,13.371],[141.372,13.611],[141.819,13.849],[142.267,14.087],[142.715,14.324],[143.165,14.561],[143.615,14.796],[144.066,15.031],[144.361,15.404],[144.656,15.777],[144.952,16.15],[145.25,16.522],[145.549,16.894],[145.849,17.265],[146.15,17.636],[146.452,18.007],[146.663,18.449],[146.875,18.892],[147.088,19.334],[147.302,19.777],[147.517,20.218],[147.733,20.66],[147.951,21.101],[148.17,21.542],[148.39,21.983],[148.612,22.424],[148.711,22.895],[148.811,23.366],[148.912,23.837],[149.013,24.309],[149.115,24.78],[149.218,25.251],[149.321,25.722],[149.353,26.172],[149.384,26.623],[149.416,27.074],[149.449,27.525],[149.481,27.976],[149.514,28.427],[149.547,28.877],[149.58,29.328]]}},{"type":"Feature","properties":{"boundary_type":"subduction","feature_type":"gpml:SubductionZone","polarity":"Left","overriding_plate_id":9014,"subducting_plate_id":926,"plate_ids":[926,9014],"name":"Paleoasian sz"},"geometry":{"type":"LineString","coordinates":[[155.709,27.028],[155.948,27.456],[156.19,27.883],[156.433,28.311],[156.678,28.737],[156.925,29.164],[157.174,29.59],[157.425,30.015],[157.678,30.44],[157.934,30.864],[158.192,31.288],[158.452,31.712],[158.715,32.135],[158.98,32.557],[159.256,32.972],[159.535,33.387],[159.817,33.801],[160.101,34.215],[160.388,34.628],[160.679,35.04],[160.972,35.452],[161.268,35.862],[161.567,36.272],[161.869,36.682],[162.175,37.09],[162.484,37.498],[162.796,37.905],[163.112,38.311],[163.431,38.716],[163.754,39.121],[164.08,39.524],[164.411,39.927],[164.748,40.351],[165.089,40.775],[165.435,41.197],[165.785,41.618],[166.14,42.038],[166.499,42.458],[166.863,42.875],[167.233,43.292],[167.607,43.708],[167.986,44.122],[168.371,44.535],[168.762,44.947],[169.158,45.358],[169.56,45.767],[169.967,46.174],[170.381,46.58],[170.801,46.985],[171.228,47.388],[171.386,47.589]]}},{"type":"Feature","properties":{"boundary_type":"subduction","feature_type":"gpml:SubductionZone","polarity":"Left","overriding_plate_id":9013,"subducting_plate_id":926,"plate_ids":[926,9013],"name":"Paleoasian sz"},"geometry":{"type":"LineString","coordinates":[[171.386,47.589],[171.718,48.007],[172.056,48.423],[172.4,48.838],[172.749,49.252],[173.104,49.665],[173.465,50.077],[173.832,50.488],[174.206,50.897],[174.586,51.306],[174.974,51.713],[175.368,52.119],[175.769,52.523],[176.178,52.926],[176.595,53.328],[176.962,53.7],[177.336,54.072]]}},{"type":"Feature","properties":{"boundary_type":"subduction","feature_type":"gpml:SubductionZone","polarity":"Right","overriding_plate_id":5801,"subducting_plate_id":9013,"plate_ids":[5801,9013],"name":"South Kunlun"},"geometry":{"type":"LineString","coordinates":[[101.727,29.598],[101.25,29.426],[100.773,29.253],[100.299,29.077],[99.819,28.881],[99.341,28.683],[98.865,28.484],[98.391,28.282],[97.918,28.08],[97.447,27.875],[96.978,27.669],[96.471,27.47],[95.966,27.269],[95.463,27.067],[94.961,26.862],[94.461,26.656],[93.964,26.448],[93.467,26.239],[92.982,26.113],[92.498,25.985],[92.014,25.856],[91.532,25.725],[91.051,25.593],[90.571,25.459],[90.092,25.323],[89.614,25.186],[89.137,25.048],[88.655,24.939],[88.173,24.83],[87.693,24.718],[87.214,24.605],[86.735,24.491],[86.281,24.326],[85.827,24.16],[85.375,23.993],[84.924,23.825]]}},{"type":"Feature","properties":{"boundary_type":"transform","feature_type":"gpml:Transform","polarity":null,"overriding_plate_id":null,"subducting_plate_id":null,"plate_ids":[601,602],"name":"SCB transform"},"geometry":{"type":"LineString","coordinates":[[105.067,10.333],[104.6,10.519],[104.133,10.705],[103.664,10.889],[103.196,11.073],[102.726,11.257],[102.256,11.439],[101.786,11.621],[101.315,11.802],[100.843,11.982],[100.37,12.162],[99.897,12.34],[99.424,12.518],[98.949,12.695],[98.474,12.872],[97.999,13.047],[97.522,13.221],[97.045,13.395],[96.567,13.568],[96.089,13.739],[95.61,13.91],[95.13,14.08],[94.65,14.249],[94.168,14.417],[93.686,14.584],[93.204,14.75],[92.72,14.915],[92.236,15.079],[91.751,15.242],[91.266,15.404],[90.779,15.565],[90.292,15.725],[89.804,15.884],[89.315,16.041],[88.826,16.198],[88.336,16.353],[87.844,16.507],[87.353,16.661]]}},{"type":"Feature","properties":{"boundary_type":"transform","feature_type":"gpml:Transform","polarity":null,"overriding_plate_id":null,"subducting_plate_id":null,"plate_ids":[602,9013],"name":"SCB transform"},"geometry":{"type":"LineString","coordinates":[[87.353,16.661],[86.886,16.804],[86.42,16.947],[85.952,17.089],[85.484,17.23],[85.015,17.369],[84.545,17.508],[84.074,17.645],[83.603,17.781],[83.131,17.916],[82.659,18.05]]}},{"type":"Feature","properties":{"boundary_type":"transform","feature_type":"gpml:Transform","polarity":null,"overriding_plate_id":null,"subducting_plate_id":null,"plate_ids":[604,9013],"name":"SCB transform"},"geometry":{"type":"LineString","coordinates":[[82.659,18.05],[82.155,18.192],[81.65,18.332],[81.144,18.471],[80.638,18.608],[80.131,18.744],[79.623,18.879],[79.114,19.012],[78.604,19.144],[78.094,19.275],[77.582,19.404],[77.07,19.531],[76.557,19.657],[76.044,19.782],[75.529,19.906],[75.014,20.027]]}},{"type":"Feature","properties":{"boundary_type":"ridge","feature_type":"gpml:MidOceanRidge","polarity":null,"overriding_plate_id":null,"subducting_plate_id":null,"plate_ids":[601,602],"name":"Mianlue east MOR"},"geometry":{"type":"LineString","coordinates":[[105.067,10.333],[105.548,10.227],[106.028,10.121],[106.509,10.014],[106.988,9.906],[107.468,9.797],[107.947,9.688],[108.426,9.578],[108.905,9.467],[109.383,9.356],[109.861,9.244],[110.338,9.132],[110.816,9.019],[111.293,8.905],[111.437,9.355],[111.581,9.805],[111.726,10.254],[111.871,10.704],[112.016,11.154],[112.162,11.603],[112.309,12.053],[112.455,12.502],[112.603,12.952],[112.751,13.401],[112.899,13.85],[113.048,14.299],[113.535,14.213],[114.022,14.126],[114.508,14.039],[114.993,13.95],[115.479,13.86],[115.963,13.77],[116.448,13.678],[116.932,13.585],[117.416,13.492],[117.899,13.397],[118.382,13.302],[118.865,13.206],[119.347,13.109],[119.829,13.011],[120.31,12.912],[120.792,12.812],[121.272,12.711],[121.753,12.61],[122.233,12.507],[122.065,12.091],[121.899,11.674],[121.733,11.258],[121.567,10.841],[121.402,10.424],[121.899,10.341],[122.396,10.257],[122.892,10.172],[123.389,10.087],[123.884,10.001],[124.38,9.914],[124.875,9.826],[125.371,9.738],[125.865,9.649],[126.36,9.559],[126.854,9.469],[127.348,9.377],[127.842,9.286]]}},{"type":"Feature","properties":{"boundary_type":"subduction","feature_type":"gpml:SubductionZone","polarity":"Left","overriding_plate_id":580,"subducting_plate_id":9006,"plate_ids":[580,9006],"name":"Paleotethys intra-oceanic sub zone"},"geometry":{"type":"LineString","coordinates":[[63.018,27.933],[63.469,27.652],[63.917,27.371],[64.363,27.087],[64.806,26.803],[65.247,26.517],[65.686,26.229],[66.123,25.941],[66.558,25.651],[66.991,25.359],[67.421,25.067],[67.85,24.773],[68.273,24.544],[68.695,24.313],[69.115,24.081],[69.533,23.848],[69.95,23.613],[70.366,23.378],[70.78,23.141],[71.227,22.966],[71.674,22.79],[72.119,22.612],[72.563,22.434],[73.006,22.254],[73.448,22.073],[73.889,21.89],[74.39,21.732],[74.89,21.572],[75.389,21.411]]}},{"type":"Feature","properties":{"boundary_type":"ridge","feature_type":"gpml:MidOceanRidge","polarity":null,"overriding_plate_id":null,"subducting_plate_id":null,"plate_ids":[580,5801],"name":"Mazar-Kangxiwar BAB spreading."},"geometry":{"type":"LineString","coordinates":[[99.702,34.684],[99.228,34.406],[98.758,34.125],[98.291,33.843],[97.827,33.559],[97.367,33.273],[96.909,32.985],[96.454,32.696],[96.002,32.405],[95.553,32.113],[95.107,31.819],[94.663,31.524],[94.223,31.227],[93.785,30.928],[93.35,30.628],[92.918,30.327],[92.731,30.655],[92.246,30.451],[91.763,30.244],[91.282,30.036],[90.803,29.826],[90.326,29.615],[89.851,29.402],[89.378,29.187],[88.907,28.97],[88.438,28.752],[87.971,28.532],[87.505,28.31],[87.042,28.087],[86.581,27.863],[86.8,27.499],[86.31,27.275],[85.822,27.049],[85.336,26.821],[84.851,26.592],[84.369,26.361],[83.889,26.129],[83.411,25.895],[82.934,25.659],[82.46,25.422],[81.987,25.183],[81.516,24.943],[81.047,24.702],[80.58,24.458],[80.115,24.214]]}},{"type":"Feature","properties":{"boundary_type":"transform","feature_type":"gpml:Transform","polarity":null,"overriding_plate_id":null,"subducting_plate_id":null,"plate_ids":[5801,9013],"name":"TRM/Mazar-Kangxiwar transform"},"geometry":{"type":"LineString","coordinates":[[101.727,29.598],[101.564,30.037],[101.399,30.474],[101.233,30.912],[101.065,31.349],[100.896,31.787],[100.725,32.224],[100.552,32.66],[100.378,33.097],[100.202,33.533],[100.024,33.969],[99.864,34.327],[99.702,34.684]]}},{"type":"Feature","properties":{"boundary_type":"transform","feature_type":"gpml:Transform","polarity":null,"overriding_plate_id":null,"subducting_plate_id":null,"plate_ids":[580,9013],"name":"TRM/Mazar-Kangxiwar transform"},"geometry":{"type":"LineString","coordinates":[[99.702,34.684],[99.493,35.139],[99.283,35.594],[99.07,36.049],[98.854,36.503],[98.591,36.906],[98.324,37.309],[98.055,37.711],[97.783,38.112],[97.508,38.513],[97.23,38.913],[96.948,39.313],[96.664,39.712],[96.376,40.11],[96.12,40.536],[95.861,40.962],[95.599,41.388],[95.333,41.813],[95.063,42.237],[94.79,42.661],[94.513,43.084]]}},{"type":"Feature","properties":{"boundary_type":"transform","feature_type":"gpml:Transform","polarity":null,"overriding_plate_id":null,"subducting_plate_id":null,"plate_ids":[430,580],"name":"TRM/Mazar-Kangxiwar transform"},"geometry":{"type":"LineString","coordinates":[[94.513,43.084],[94.224,43.518],[93.93,43.953],[93.633,44.386],[93.33,44.819],[93.024,45.251]]}},{"type":"Feature","properties":{"boundary_type":"ridge","feature_type":"gpml:MidOceanRidge","polarity":null,"overriding_plate_id":null,"subducting_plate_id":null,"plate_ids":[9009,9010],"name":"Mongol-Okhotsk spreading"},"geometry":{"type":"LineString","coordinates":[[96.039,49.249],[95.994,49.737],[95.948,50.225],[95.901,50.713],[95.853,51.201],[95.805,51.689],[95.755,52.177],[95.704,52.665],[95.652,53.153],[95.599,53.641],[95.544,54.128],[95.488,54.616],[95.431,55.104],[95.372,55.592],[95.312,56.079],[95.251,56.567],[95.187,57.055],[95.122,57.542],[95.056,58.03],[94.987,58.517],[94.917,59.005],[94.844,59.492],[94.77,59.98],[94.693,60.467],[94.614,60.955],[94.532,61.442],[94.448,61.929],[94.361,62.416],[94.271,62.903],[94.178,63.39],[94.082,63.877],[93.983,64.364],[94.484,64.687],[94.998,65.007],[95.524,65.326],[96.062,65.642],[95.993,66.125],[95.922,66.608],[95.847,67.091],[95.77,67.573],[95.689,68.056],[95.605,68.538],[95.518,69.021],[95.426,69.503],[95.33,69.986],[95.23,70.468],[95.124,70.95],[95.014,71.433],[94.897,71.915],[95.865,72.276],[96.872,72.633],[97.92,72.984],[99.01,73.33],[100.144,73.669],[101.325,74.003],[101.152,74.496],[100.968,74.988],[100.771,75.481],[100.561,75.973],[100.336,76.465],[100.095,76.957],[99.835,77.449],[99.554,77.94],[99.25,78.432],[98.919,78.922],[98.557,79.413],[98.161,79.903],[97.726,80.392],[97.243,80.881],[96.707,81.369],[96.107,81.856],[95.432,82.343],[94.665,82.828],[93.788,83.311],[92.775,83.793],[95.653,84.125],[98.866,84.44],[102.45,84.736],[106.443,85.009],[110.872,85.256],[111.827,85.737],[113.023,86.216],[114.564,86.693],[116.622,87.167],[119.5,87.636],[123.784,88.096],[130.722,88.538],[143.275,88.942],[168.002,89.241],[-153.551,89.288],[-123.885,89.046],[-108.602,88.663],[-100.438,88.229],[-95.548,87.773],[-92.335,87.306],[-90.074,86.833],[-88.403,86.357],[-87.118,85.878],[-86.1,85.398],[-85.275,84.916],[-84.592,84.434],[-84.018,83.951],[-83.529,83.467],[-83.107,82.983],[-82.739,82.499],[-82.415,82.015],[-82.129,81.53],[-81.873,81.045],[-81.643,80.56],[-81.435,80.074],[-81.247,79.589],[-81.075,79.104],[-80.918,78.618],[-80.774,78.132],[-80.595,77.64],[-80.431,77.147],[-80.278,76.654],[-80.136,76.161],[-80.003,75.667],[-79.88,75.174],[-79.764,74.681]]}},{"type":"Feature","properties":{"boundary_type":"transform","feature_type":"gpml:Transform","polarity":null,"overriding_plate_id":null,"subducting_plate_id":null,"plate_ids":[430,580],"name":"TRM/MOO/AMU transform"},"geometry":{"type":"LineString","coordinates":[[93.024,45.251],[92.414,45.294],[91.804,45.335],[91.193,45.372],[90.581,45.406]]}},{"type":"Feature","properties":{"boundary_type":"transform","feature_type":"gpml:Transform","polarity":null,"overriding_plate_id":null,"subducting_plate_id":null,"plate_ids":[580,9009],"name":"TRM/MOO/AMU transform"},"geometry":{"type":"LineString","coordinates":[[90.581,45.406],[89.907,45.439],[89.233,45.469],[88.559,45.494],[87.884,45.516],[87.208,45.533],[86.532,45.547],[85.856,45.557],[85.179,45.562],[84.503,45.564],[83.826,45.562],[83.149,45.555],[82.473,45.545],[81.797,45.53],[81.122,45.512],[80.447,45.49],[79.772,45.464],[79.098,45.433],[78.425,45.399],[77.813,45.647],[77.195,45.891],[76.573,46.133],[75.944,46.37],[75.31,46.605],[74.671,46.835],[74.026,47.063],[73.376,47.286],[72.72,47.506],[72.059,47.722],[71.393,47.934],[70.721,48.143],[70.043,48.347],[69.36,48.547],[68.672,48.744],[67.978,48.936],[67.279,49.124],[66.575,49.308],[65.866,49.487],[65.175,49.604],[64.481,49.718],[63.784,49.827],[63.084,49.932],[62.381,50.033]]}},{"type":"Feature","properties":{"boundary_type":"transform","feature_type":"gpml:Transform","polarity":null,"overriding_plate_id":null,"subducting_plate_id":null,"plate_ids":[5801,9013],"name":"TRM Transform"},"geometry":{"type":"LineString","coordinates":[[84.924,23.825],[84.539,24.056],[84.152,24.287],[83.763,24.516],[83.241,24.479],[82.719,24.439],[82.198,24.397],[81.676,24.354],[81.155,24.309],[80.635,24.262],[80.115,24.214]]}},{"type":"Feature","properties":{"boundary_type":"transform","feature_type":"gpml:Transform","polarity":null,"overriding_plate_id":null,"subducting_plate_id":null,"plate_ids":[580,9013],"name":"TRM Transform"},"geometry":{"type":"LineString","coordinates":[[80.115,24.214],[79.646,24.169],[79.178,24.122],[78.71,24.074],[78.242,24.024],[77.775,23.973],[77.308,23.921],[76.841,23.867]]}},{"type":"Feature","properties":{"boundary_type":"subduction","feature_type":"gpml:SubductionZone","polarity":"Right","overriding_plate_id":430,"subducting_plate_id":9010,"plate_ids":[430,9010],"name":"Mongol-Okhotsk Ocean SZ"},"geometry":{"type":"LineString","coordinates":[[110.585,54.979],[111.279,55.276],[111.983,55.568],[112.697,55.857],[113.422,56.141],[114.158,56.421],[114.904,56.696],[115.661,56.967],[116.43,57.233],[117.209,57.495],[118.042,57.639],[118.882,57.777],[119.728,57.91],[120.58,58.037],[121.438,58.159],[122.302,58.274],[123.171,58.384],[124.046,58.488],[124.885,58.696],[125.734,58.898],[126.592,59.095],[127.461,59.286],[128.339,59.471],[129.226,59.651],[130.123,59.824],[131.03,59.991],[131.945,60.152],[132.869,60.306],[133.802,60.454],[134.743,60.596],[135.692,60.73],[136.649,60.858],[137.613,60.979],[138.585,61.093],[139.563,61.201],[140.548,61.301],[141.539,61.393],[142.367,61.691],[143.211,61.983],[144.071,62.27],[144.948,62.551],[145.841,62.827],[146.751,63.097],[147.678,63.361],[148.621,63.619],[149.582,63.87],[150.56,64.116],[151.556,64.354],[152.568,64.586],[153.597,64.81],[154.644,65.028],[155.707,65.238],[156.787,65.44],[157.884,65.634],[158.997,65.821],[160.125,65.999],[161.27,66.169],[162.429,66.33],[163.607,66.488],[164.799,66.637],[166.006,66.777],[167.226,66.907],[168.458,67.028],[169.702,67.139],[170.958,67.241],[172.223,67.332],[173.498,67.414],[174.781,67.485],[176.071,67.547],[177.367,67.598],[178.668,67.638],[179.973,67.668],[-178.719,67.688],[-177.41,67.697],[-176.199,67.704],[-174.989,67.702],[-173.779,67.691],[-172.57,67.672],[-171.364,67.643],[-170.162,67.605],[-168.963,67.559],[-167.77,67.503],[-166.583,67.439],[-165.324,67.377],[-164.071,67.304],[-162.827,67.222],[-161.591,67.13],[-160.366,67.029],[-159.151,66.918],[-157.947,66.798],[-156.756,66.67],[-155.577,66.532],[-154.412,66.385],[-153.412,66.254],[-152.423,66.115],[-151.444,65.971],[-150.477,65.82],[-149.521,65.664]]}},{"type":"Feature","properties":{"boundary_type":"ridge","feature_type":"gpml:MidOceanRidge","polarity":null,"overriding_plate_id":null,"subducting_plate_id":null,"plate_ids":[601,9013],"name":"PAO mor south"},"geometry":{"type":"LineString","coordinates":[[109.449,37.266],[108.919,36.999],[108.394,36.73],[107.871,36.458],[107.353,36.184],[106.838,35.907],[106.327,35.629],[105.819,35.348],[105.315,35.066],[104.815,34.781],[104.317,34.494],[103.824,34.205],[103.333,33.914],[102.846,33.621],[102.362,33.327],[101.882,33.03],[101.405,32.732],[100.931,32.432],[100.46,32.13],[100.554,31.676],[100.646,31.222],[100.738,30.769],[100.829,30.315],[100.919,29.861],[101.008,29.407],[101.097,28.953],[101.185,28.498],[101.272,28.044],[101.358,27.59],[100.87,27.374],[100.385,27.157],[99.901,26.938],[99.419,26.717],[98.939,26.495],[98.461,26.271],[97.985,26.045],[97.51,25.818],[97.038,25.589],[96.567,25.359],[96.098,25.128],[95.631,24.894],[95.165,24.66],[94.701,24.424],[94.239,24.187],[93.779,23.948],[93.321,23.708],[92.864,23.466],[92.409,23.223],[91.955,22.979],[91.503,22.734],[91.053,22.487],[90.604,22.239],[90.157,21.99],[89.712,21.74],[89.268,21.488],[88.825,21.235],[88.872,20.762],[88.918,20.29],[88.963,19.817],[89.009,19.343],[89.054,18.87],[89.099,18.397],[89.143,17.924],[89.188,17.451],[88.727,17.255],[88.268,17.058],[87.81,16.86],[87.353,16.661]]}},{"type":"Feature","properties":{"boundary_type":"transform","feature_type":"gpml:Transform","polarity":null,"overriding_plate_id":null,"subducting_plate_id":null,"plate_ids":[601,9014],"name":"North China-Beishan transform"},"geometry":{"type":"LineString","coordinates":[[130.374,29.769],[129.872,29.978],[129.367,30.186],[128.861,30.392],[128.353,30.595],[127.842,30.797],[127.329,30.997],[126.815,31.195],[126.298,31.39],[125.779,31.584],[125.257,31.775],[124.734,31.965],[124.208,32.152],[123.681,32.337],[123.151,32.52],[122.619,32.7],[122.085,32.879],[121.548,33.055],[121.01,33.229],[120.469,33.4]]}},{"type":"Feature","properties":{"boundary_type":"transform","feature_type":"gpml:Transform","polarity":null,"overriding_plate_id":null,"subducting_plate_id":null,"plate_ids":[601,9013],"name":"North China-Beishan transform"},"geometry":{"type":"LineString","coordinates":[[120.469,33.4],[119.966,33.557],[119.461,33.712],[118.955,33.864],[118.446,34.015],[117.936,34.164],[117.425,34.374],[116.911,34.583],[116.395,34.79],[115.876,34.994],[115.355,35.196],[114.831,35.396],[114.304,35.594],[113.775,35.79],[113.243,35.983],[112.709,36.173],[112.172,36.362],[111.633,36.548],[111.091,36.731],[110.546,36.912],[109.999,37.091],[109.449,37.266]]}},{"type":"Feature","properties":{"boundary_type":"ridge","feature_type":"gpml:MidOceanRidge","polarity":null,"overriding_plate_id":null,"subducting_plate_id":null,"plate_ids":[9013,9014],"name":"PAO mor north"},"geometry":{"type":"LineString","coordinates":[[171.386,47.589],[170.666,47.494],[169.949,47.394],[169.234,47.29],[168.522,47.181],[167.814,47.068],[167.108,46.951],[166.405,46.829],[165.706,46.703],[165.01,46.573],[164.317,46.438],[163.628,46.3],[162.942,46.157],[162.26,46.01],[161.582,45.859],[160.907,45.704],[160.237,45.546],[159.689,45.859],[159.135,46.169],[158.575,46.477],[158.008,46.782],[157.435,47.084],[156.856,47.383],[156.27,47.679],[155.677,47.972],[155.078,48.262],[154.471,48.549],[154.063,48.134],[153.661,47.717],[153.265,47.299],[152.875,46.88],[152.492,46.459],[152.114,46.037],[151.472,46.243],[150.824,46.446],[150.172,46.646],[149.515,46.842],[148.854,47.033],[148.188,47.221],[147.517,47.406],[146.841,47.586],[146.545,47.151],[146.254,46.715],[145.968,46.279],[145.687,45.842],[145.409,45.404],[145.136,44.965],[144.868,44.526],[144.603,44.087],[144.342,43.646],[144.085,43.205],[143.831,42.764],[143.582,42.322],[143.335,41.879],[143.092,41.436],[142.478,41.6],[141.861,41.761],[141.241,41.919],[140.618,42.073],[139.992,42.223],[139.363,42.371],[139.196,41.998],[139.031,41.624],[138.867,41.251],[138.27,41.064],[137.677,40.874],[137.086,40.681],[136.499,40.485],[135.916,40.286],[135.336,40.084],[134.759,39.879],[134.186,39.672],[133.616,39.461],[133.05,39.248],[132.487,39.033],[131.928,38.814],[131.372,38.593],[130.82,38.369],[130.271,38.143],[129.725,37.914],[129.183,37.682],[128.644,37.449],[128.109,37.212],[127.577,36.974],[127.048,36.733],[126.522,36.489],[126.0,36.244],[125.482,35.996],[124.966,35.746],[124.454,35.493],[123.945,35.239],[123.439,34.982],[122.936,34.723],[122.437,34.463],[121.94,34.2],[121.447,33.935],[120.956,33.669],[120.469,33.4]]}},{"type":"Feature","properties":{"boundary_type":"transform","feature_type":"gpml:Transform","polarity":null,"overriding_plate_id":null,"subducting_plate_id":null,"plate_ids":[919,28800],"name":"transform closing AAB"},"geometry":{"type":"LineString","coordinates":[[-89.959,-48.012],[-89.39,-48.319],[-88.851,-48.625],[-88.305,-48.929],[-87.753,-49.23],[-87.194,-49.528],[-86.628,-49.824],[-86.055,-50.117],[-85.475,-50.407],[-84.888,-50.694],[-84.294,-50.978],[-83.693,-51.259],[-83.084,-51.537],[-82.468,-51.812],[-81.844,-52.083]]}},{"type":"Feature","properties":{"boundary_type":"transform","feature_type":"gpml:Transform","polarity":null,"overriding_plate_id":null,"subducting_plate_id":null,"plate_ids":[460,580],"name":"Kazak transform"},"geometry":{"type":"LineString","coordinates":[[66.243,38.0],[66.071,37.523],[65.902,37.045],[65.734,36.568],[65.568,36.09],[65.405,35.611],[65.243,35.133],[65.084,34.654],[64.926,34.175],[64.77,33.696],[64.615,33.217],[64.463,32.737],[64.312,32.257],[64.162,31.778],[64.014,31.297],[63.868,30.817],[63.723,30.337],[63.579,29.856],[63.437,29.376],[63.296,28.895],[63.157,28.414],[63.018,27.933]]}},{"type":"Feature","properties":{"boundary_type":"transform","feature_type":"gpml:Transform","polarity":null,"overriding_plate_id":null,"subducting_plate_id":null,"plate_ids":[460,9006],"name":"Kazak transform"},"geometry":{"type":"LineString","coordinates":[[63.018,27.933],[62.928,27.617],[62.839,27.301],[62.568,26.87],[62.299,26.439],[62.031,26.007],[61.766,25.574],[61.503,25.141],[61.242,24.708],[60.982,24.274],[60.724,23.84]]}}]}