{"type":"FeatureCollection","meta":{"model":"Cao2024","reconstruction_time_ma":805.0,"anchor_plate_id":0,"pygplates_version":"1.0.0","tessellate_degrees":0.5,"polarity_convention":"gpml:subductionPolarity. 'Left'/'Right' names the side of the line, in vertex order, on which the OVERRIDING plate lies. Triangles are drawn on that side.","antimeridian":"Lines are NOT split at +/-180 deg. The renderer works in 3D unit vectors where the dateline is not special; splitting would only add spurious breaks. Do not treat this as RFC 7946 GIS-ready 2D data."},"features":[{"type":"Feature","properties":{"boundary_type":"subduction","feature_type":"gpml:SubductionZone","polarity":"Right","overriding_plate_id":101,"subducting_plate_id":701,"plate_ids":[101,701],"name":"Proto Avalonia SZ"},"geometry":{"type":"LineString","coordinates":[[170.726,-16.038],[171.241,-16.003],[171.757,-15.967],[172.272,-15.929],[172.787,-15.89],[173.302,-15.85],[173.817,-15.809],[174.332,-15.766],[174.779,-15.766],[175.226,-15.766],[175.674,-15.765],[176.121,-15.762],[176.568,-15.759],[177.015,-15.755],[177.503,-15.87],[177.991,-15.985],[178.479,-16.098],[178.968,-16.211],[179.458,-16.322],[179.948,-16.432],[-179.561,-16.541],[-179.07,-16.649],[-178.578,-16.755],[-178.086,-16.861],[-177.593,-16.965],[-177.099,-17.068],[-176.605,-17.17],[-176.158,-17.368],[-175.709,-17.564],[-175.259,-17.759],[-174.809,-17.953],[-174.357,-18.147],[-173.904,-18.339],[-173.451,-18.53],[-172.996,-18.72],[-172.541,-18.909],[-172.084,-19.097],[-171.626,-19.283],[-171.167,-19.469],[-170.708,-19.653],[-170.247,-19.836],[-169.785,-20.018],[-169.322,-20.199],[-168.858,-20.379],[-168.438,-20.685],[-168.017,-20.99],[-167.594,-21.295],[-167.17,-21.598],[-166.743,-21.9],[-166.315,-22.201],[-165.885,-22.5],[-165.453,-22.799],[-165.019,-23.097],[-164.583,-23.393],[-164.145,-23.688],[-163.706,-23.982],[-163.264,-24.274],[-162.82,-24.566],[-162.375,-24.856],[-162.062,-25.237],[-161.748,-25.617],[-161.432,-25.996],[-161.114,-26.375],[-160.794,-26.753],[-160.472,-27.13],[-160.148,-27.507],[-159.821,-27.882],[-159.492,-28.258],[-159.161,-28.632],[-158.827,-29.005],[-158.491,-29.378],[-158.152,-29.75],[-157.811,-30.12],[-157.468,-30.49],[-157.121,-30.859],[-156.733,-31.232],[-156.342,-31.603],[-155.948,-31.973],[-155.55,-32.342],[-155.149,-32.71],[-154.745,-33.076],[-154.338,-33.441],[-153.927,-33.805],[-153.513,-34.167],[-153.095,-34.528],[-152.673,-34.887],[-152.248,-35.245],[-151.819,-35.601],[-151.386,-35.956],[-150.949,-36.31],[-150.508,-36.661],[-150.088,-36.994],[-149.663,-37.324],[-149.235,-37.653],[-148.803,-37.981],[-148.367,-38.307],[-147.928,-38.631],[-147.484,-38.954],[-147.036,-39.275],[-146.584,-39.594],[-146.128,-39.912],[-145.668,-40.228],[-145.204,-40.542],[-144.735,-40.854],[-144.261,-41.164],[-143.783,-41.472],[-143.645,-41.942],[-143.504,-42.412],[-143.362,-42.881],[-143.217,-43.351],[-143.07,-43.82],[-142.92,-44.289],[-142.769,-44.758],[-142.614,-45.227],[-142.629,-45.699],[-142.645,-46.171],[-142.66,-46.643],[-142.676,-47.115],[-142.693,-47.588],[-142.709,-48.06],[-142.726,-48.532],[-142.743,-49.004],[-142.761,-49.476],[-142.779,-49.948],[-142.797,-50.421],[-142.816,-50.893],[-142.834,-51.365],[-142.854,-51.837],[-142.874,-52.309],[-142.894,-52.781],[-142.914,-53.253],[-142.935,-53.726],[-143.027,-54.21],[-143.12,-54.695],[-143.216,-55.18],[-143.314,-55.664],[-143.415,-56.149],[-143.518,-56.633],[-143.624,-57.117],[-143.732,-57.601],[-143.844,-58.085],[-143.959,-58.569],[-144.076,-59.053],[-144.198,-59.537],[-144.322,-60.021],[-144.451,-60.504],[-144.583,-60.988],[-144.719,-61.471],[-144.86,-61.954],[-145.005,-62.437],[-145.155,-62.92],[-145.31,-63.403],[-145.471,-63.885],[-145.637,-64.367],[-145.809,-64.849],[-145.987,-65.331],[-146.172,-65.813],[-146.363,-66.294],[-146.563,-66.776],[-146.77,-67.257],[-146.986,-67.737],[-147.21,-68.218]]}},{"type":"Feature","properties":{"boundary_type":"subduction","feature_type":"gpml:SubductionZone","polarity":"Right","overriding_plate_id":701,"subducting_plate_id":5031,"plate_ids":[701,5031],"name":"ES SZ"},"geometry":{"type":"LineString","coordinates":[[-13.857,-18.488],[-13.539,-18.813],[-13.22,-19.138],[-12.899,-19.462],[-12.578,-19.786],[-12.205,-20.131],[-11.83,-20.475],[-11.454,-20.818],[-11.076,-21.161],[-10.697,-21.503],[-10.315,-21.843],[-9.856,-21.975],[-9.397,-22.105],[-8.936,-22.234],[-8.475,-22.361],[-8.013,-22.487],[-7.55,-22.612],[-7.073,-22.728],[-6.595,-22.842],[-6.116,-22.955],[-5.637,-23.067],[-5.156,-23.177],[-4.675,-23.285],[-4.275,-23.327]]}},{"type":"Feature","properties":{"boundary_type":"subduction","feature_type":"gpml:SubductionZone","polarity":"Right","overriding_plate_id":701,"subducting_plate_id":77521,"plate_ids":[701,77521],"name":"ES SZ"},"geometry":{"type":"LineString","coordinates":[[-4.275,-23.327],[-3.734,-23.382],[-3.192,-23.435],[-2.795,-23.667],[-2.396,-23.898],[-1.996,-24.128],[-1.595,-24.357],[-1.338,-24.738],[-1.08,-25.119],[-0.891,-25.537],[-0.701,-25.954],[-0.372,-26.196],[-0.042,-26.437],[0.29,-26.678],[0.686,-27.029],[1.084,-27.379],[1.485,-27.729],[1.888,-28.077],[2.294,-28.423],[2.704,-28.745],[3.117,-29.066],[3.532,-29.386],[3.95,-29.704],[4.235,-29.883]]}},{"type":"Feature","properties":{"boundary_type":"subduction","feature_type":"gpml:SubductionZone","polarity":"Left","overriding_plate_id":5031,"subducting_plate_id":5907,"plate_ids":[5031,5907],"name":"Haya-Jiddah SZ"},"geometry":{"type":"LineString","coordinates":[[1.343,2.707],[1.614,2.29],[1.885,1.874],[2.156,1.457],[2.257,1.039],[2.358,0.621],[2.459,0.203],[2.51,-0.154],[2.56,-0.511],[2.61,-0.868],[2.748,-1.152],[2.886,-1.436],[3.178,-1.614],[3.469,-1.792],[3.696,-2.065],[3.923,-2.338],[3.917,-2.751],[3.911,-3.165],[3.955,-3.39],[4.156,-3.546],[4.358,-3.703],[4.582,-4.112],[4.588,-4.525],[4.594,-4.938],[4.655,-5.218],[4.715,-5.498],[5.005,-5.897],[5.364,-6.085],[5.723,-6.274],[5.961,-6.652],[6.199,-7.03],[6.438,-7.408]]}},{"type":"Feature","properties":{"boundary_type":"subduction","feature_type":"gpml:SubductionZone","polarity":"Right","overriding_plate_id":5031,"subducting_plate_id":701,"plate_ids":[701,5031],"name":"Hijaz SZ"},"geometry":{"type":"LineString","coordinates":[[-0.576,-10.612],[-0.612,-10.32],[-0.648,-10.029]]}},{"type":"Feature","properties":{"boundary_type":"subduction","feature_type":"gpml:SubductionZone","polarity":"Right","overriding_plate_id":5907,"subducting_plate_id":701,"plate_ids":[701,5907],"name":"Hijaz SZ"},"geometry":{"type":"LineString","coordinates":[[-0.648,-10.029],[-0.703,-9.582],[-0.758,-9.135],[-0.813,-8.688],[-0.867,-8.241],[-0.922,-7.794],[-0.976,-7.347],[-1.03,-6.899],[-1.085,-6.452],[-1.23,-6.008],[-1.375,-5.564],[-1.52,-5.12],[-1.665,-4.675],[-1.809,-4.231],[-1.954,-3.786],[-2.098,-3.342],[-2.242,-2.898],[-2.386,-2.453],[-2.53,-2.009],[-2.65,-1.554],[-2.77,-1.1],[-2.89,-0.646],[-3.01,-0.191],[-3.13,0.263],[-3.251,0.718],[-3.371,1.172],[-3.491,1.626],[-3.611,2.081],[-3.731,2.535],[-3.852,2.989],[-3.972,3.444],[-4.093,3.898],[-4.213,4.352],[-4.334,4.807]]}},{"type":"Feature","properties":{"boundary_type":"subduction","feature_type":"gpml:SubductionZone","polarity":"Right","overriding_plate_id":5031,"subducting_plate_id":701,"plate_ids":[701,5031],"name":"Hijaz SZ"},"geometry":{"type":"LineString","coordinates":[[-4.334,4.807],[-4.449,5.237],[-4.563,5.667],[-4.678,6.097],[-4.793,6.527],[-4.74,7.023],[-4.687,7.52],[-4.634,8.016],[-4.581,8.513],[-4.528,9.01],[-4.474,9.506],[-4.421,10.003],[-4.367,10.499],[-4.313,10.996],[-4.259,11.492],[-4.204,11.989],[-4.15,12.485],[-4.095,12.982],[-4.04,13.478],[-3.985,13.975],[-3.929,14.471],[-3.873,14.968],[-3.817,15.464],[-3.761,15.96],[-3.71,16.419],[-3.659,16.877],[-3.608,17.336],[-3.557,17.794],[-3.505,18.252],[-3.453,18.711],[-3.401,19.169],[-3.348,19.628],[-3.295,20.086],[-3.242,20.544]]}},{"type":"Feature","properties":{"boundary_type":"subduction","feature_type":"gpml:SubductionZone","polarity":"Right","overriding_plate_id":980421,"subducting_plate_id":701,"plate_ids":[701,980421],"name":"Hijaz SZ"},"geometry":{"type":"LineString","coordinates":[[-3.242,20.544],[-3.187,21.016],[-3.131,21.489],[-3.075,21.961],[-3.019,22.433],[-2.962,22.906],[-2.905,23.378],[-2.848,23.85],[-2.79,24.322],[-2.732,24.794],[-2.673,25.267],[-2.614,25.739]]}},{"type":"Feature","properties":{"boundary_type":"subduction","feature_type":"gpml:SubductionZone","polarity":"Left","overriding_plate_id":775311,"subducting_plate_id":701,"plate_ids":[701,775311],"name":"SES SZ"},"geometry":{"type":"LineString","coordinates":[[7.639,-25.325],[7.455,-25.099],[7.272,-24.873],[7.042,-24.729],[6.812,-24.584],[6.683,-24.346],[6.555,-24.107],[6.274,-23.758],[5.994,-23.407],[6.11,-23.002],[6.226,-22.596],[6.321,-22.175]]}},{"type":"Feature","properties":{"boundary_type":"subduction","feature_type":"gpml:SubductionZone","polarity":"Left","overriding_plate_id":5031,"subducting_plate_id":701,"plate_ids":[701,5031],"name":"SES SZ"},"geometry":{"type":"LineString","coordinates":[[6.321,-22.175],[6.39,-21.868]]}},{"type":"Feature","properties":{"boundary_type":"subduction","feature_type":"gpml:SubductionZone","polarity":"Left","overriding_plate_id":77521,"subducting_plate_id":701,"plate_ids":[701,77521],"name":"WES suture"},"geometry":{"type":"LineString","coordinates":[[5.12,-28.685],[4.911,-28.511],[4.723,-28.196]]}},{"type":"Feature","properties":{"boundary_type":"subduction","feature_type":"gpml:SubductionZone","polarity":"Left","overriding_plate_id":77521,"subducting_plate_id":775211,"plate_ids":[77521,775211],"name":"WES suture"},"geometry":{"type":"LineString","coordinates":[[4.723,-28.196],[4.522,-27.855],[4.322,-27.514],[4.123,-27.172],[3.964,-26.697],[3.806,-26.222],[3.65,-25.747],[3.495,-25.272],[3.324,-24.865],[3.155,-24.458],[3.058,-24.231]]}},{"type":"Feature","properties":{"boundary_type":"subduction","feature_type":"gpml:SubductionZone","polarity":"Left","overriding_plate_id":77521,"subducting_plate_id":5031,"plate_ids":[5031,77521],"name":"WES suture"},"geometry":{"type":"LineString","coordinates":[[3.058,-24.231],[2.912,-23.888],[2.767,-23.545],[2.519,-23.305],[2.253,-23.063],[1.927,-22.895],[1.603,-22.726],[1.278,-22.557],[0.834,-22.296],[0.392,-22.035],[-0.049,-21.772],[-0.488,-21.508],[-0.925,-21.243],[-1.21,-21.076],[-1.494,-20.907]]}},{"type":"Feature","properties":{"boundary_type":"subduction","feature_type":"gpml:SubductionZone","polarity":"Right","overriding_plate_id":501,"subducting_plate_id":98045,"plate_ids":[501,98045],"name":"Seychelles SZ"},"geometry":{"type":"LineString","coordinates":[[87.001,63.839],[86.1,64.061],[85.185,64.278],[84.255,64.489],[83.311,64.694],[82.353,64.893],[81.38,65.086],[80.394,65.273],[79.394,65.452],[78.378,65.707],[77.343,65.955],[76.287,66.195],[75.211,66.428],[74.116,66.654],[73.0,66.872],[71.865,67.082],[70.711,67.284],[69.537,67.477],[68.344,67.661],[67.134,67.837],[65.905,68.004],[64.906,68.335],[63.879,68.661],[62.821,68.979],[61.733,69.291],[60.614,69.596],[59.462,69.894],[58.277,70.184],[57.059,70.466],[55.808,70.74],[54.522,71.005],[53.637,71.308],[52.724,71.606],[51.782,71.9],[50.81,72.19],[49.807,72.474]]}},{"type":"Feature","properties":{"boundary_type":"subduction","feature_type":"gpml:SubductionZone","polarity":"Right","overriding_plate_id":501,"subducting_plate_id":980421,"plate_ids":[501,980421],"name":"Seychelles SZ"},"geometry":{"type":"LineString","coordinates":[[49.807,72.474],[48.587,72.802],[47.32,73.123],[46.007,73.435],[44.646,73.739],[43.234,74.034],[41.772,74.32],[40.258,74.595],[38.692,74.86],[37.072,75.113],[35.398,75.355],[33.671,75.585],[31.891,75.801],[30.059,76.004],[28.689,76.319],[27.256,76.625],[25.759,76.923],[24.194,77.212],[22.559,77.491],[20.852,77.76],[19.071,78.018],[17.215,78.265],[14.942,78.414],[12.615,78.545],[10.238,78.657],[7.819,78.75],[5.364,78.823],[3.51,79.068],[1.574,79.302],[-0.445,79.523],[-2.677,79.714],[-4.989,79.889],[-7.378,80.048],[-10.018,79.993],[-12.624,79.917],[-15.186,79.821],[-17.696,79.706],[-20.147,79.572],[-22.532,79.419],[-24.847,79.249],[-27.087,79.063],[-28.592,78.833],[-30.037,78.596],[-31.423,78.352],[-33.538,78.262],[-35.619,78.158],[-37.662,78.038],[-39.569,77.801],[-41.403,77.551],[-43.164,77.289],[-44.35,76.913],[-45.471,76.532],[-46.53,76.147],[-48.436,75.998],[-50.3,75.836],[-52.121,75.659],[-53.736,75.533],[-55.322,75.396],[-56.879,75.249],[-57.989,74.898],[-59.049,74.541],[-60.062,74.18],[-61.031,73.814],[-61.958,73.444],[-62.8,73.082],[-63.606,72.717],[-64.381,72.349],[-65.124,71.978]]}},{"type":"Feature","properties":{"boundary_type":"subduction","feature_type":"gpml:SubductionZone","polarity":"Left","overriding_plate_id":101,"subducting_plate_id":98045,"plate_ids":[101,98045],"name":"Ribnaya-Panimba SZ"},"geometry":{"type":"LineString","coordinates":[[173.573,41.449],[173.543,41.456],[172.97,41.602],[172.396,41.744],[171.818,41.884],[171.239,42.021],[170.603,42.13],[169.966,42.235],[169.327,42.336],[168.685,42.434],[168.042,42.529],[167.396,42.619],[166.749,42.707],[166.1,42.79],[165.45,42.87],[164.89,42.849],[164.33,42.826],[163.771,42.8],[163.212,42.771],[162.654,42.739],[162.18,42.743],[161.706,42.746],[161.232,42.746],[160.743,42.698],[160.254,42.647],[159.766,42.594],[159.138,42.535],[158.51,42.473],[157.885,42.408],[157.26,42.339],[156.637,42.267],[156.015,42.191],[155.461,42.122],[154.908,42.049],[154.356,41.974],[153.806,41.897],[153.256,41.817],[152.663,41.782],[152.071,41.744],[151.479,41.703],[150.888,41.658],[150.298,41.611],[149.708,41.561],[149.12,41.508],[148.507,41.597],[147.892,41.682],[147.276,41.765],[146.658,41.844],[146.038,41.92],[145.418,41.992],[144.795,42.061],[144.172,42.127],[143.55,42.037],[142.93,41.943],[142.312,41.847],[141.696,41.747],[141.081,41.644],[140.469,41.538]]}},{"type":"Feature","properties":{"boundary_type":"subduction","feature_type":"gpml:SubductionZone","polarity":"Left","overriding_plate_id":98045,"subducting_plate_id":98041,"plate_ids":[98041,98045],"name":"Jiangang SZ"},"geometry":{"type":"LineString","coordinates":[[-162.836,21.713],[-162.421,21.649],[-162.014,21.937],[-161.605,22.223],[-161.194,22.509],[-160.782,22.793],[-160.368,23.076],[-159.952,23.359],[-159.534,23.64],[-159.115,23.92],[-158.694,24.199],[-158.271,24.477],[-157.846,24.753],[-157.419,25.029],[-156.99,25.303],[-156.559,25.576],[-156.127,25.847],[-155.692,26.117],[-155.385,26.526],[-155.075,26.933],[-154.764,27.34],[-154.45,27.746],[-154.133,28.151],[-153.815,28.556],[-153.493,28.96],[-153.17,29.363],[-152.843,29.766],[-152.514,30.167],[-152.183,30.568],[-151.848,30.968],[-151.511,31.367],[-151.171,31.765],[-150.992,32.225],[-150.812,32.685],[-150.629,33.145],[-150.445,33.605],[-150.259,34.064],[-150.071,34.523],[-149.88,34.982],[-149.688,35.441],[-149.493,35.899],[-149.296,36.357],[-149.097,36.814],[-148.895,37.271],[-148.691,37.728],[-148.484,38.185],[-148.275,38.641],[-148.063,39.096],[-147.848,39.552],[-147.63,40.007],[-147.41,40.461],[-147.186,40.915],[-146.959,41.369],[-146.73,41.822],[-146.497,42.275],[-146.26,42.727],[-146.02,43.179],[-145.777,43.63],[-145.53,44.081],[-145.279,44.531],[-145.024,44.981]]}},{"type":"Feature","properties":{"boundary_type":"subduction","feature_type":"gpml:SubductionZone","polarity":"Left","overriding_plate_id":501,"subducting_plate_id":98041,"plate_ids":[501,98041],"name":"Jiangang SZ"},"geometry":{"type":"LineString","coordinates":[[-145.024,44.981],[-144.804,45.362],[-144.581,45.743],[-144.356,46.124],[-144.127,46.504]]}},{"type":"Feature","properties":{"boundary_type":"subduction","feature_type":"gpml:SubductionZone","polarity":"Left","overriding_plate_id":501,"subducting_plate_id":580,"plate_ids":[501,580],"name":"Jiangang SZ"},"geometry":{"type":"LineString","coordinates":[[-144.127,46.504],[-143.992,46.725],[-143.811,47.175],[-143.627,47.625],[-143.439,48.075],[-143.249,48.525],[-143.054,48.974],[-142.857,49.423],[-142.655,49.871],[-142.45,50.319],[-142.241,50.767],[-141.96,51.21],[-141.674,51.653],[-141.382,52.094],[-141.084,52.535],[-140.836,53.008],[-140.582,53.48],[-140.322,53.952],[-140.056,54.423],[-139.784,54.894],[-139.506,55.363],[-139.221,55.833],[-138.929,56.301],[-138.63,56.769],[-138.125,57.133],[-137.61,57.495],[-137.084,57.855],[-136.548,58.213],[-136.002,58.568],[-135.444,58.921],[-134.874,59.272],[-134.293,59.62],[-133.7,59.965],[-133.094,60.308],[-132.476,60.648],[-131.639,60.925],[-130.788,61.197],[-129.922,61.464],[-129.042,61.725],[-128.147,61.98],[-127.236,62.23],[-126.311,62.473],[-125.371,62.71],[-124.415,62.941],[-123.445,63.165],[-122.46,63.383],[-121.789,63.609],[-121.107,63.832],[-120.414,64.052],[-119.711,64.268]]}},{"type":"Feature","properties":{"boundary_type":"subduction","feature_type":"gpml:SubductionZone","polarity":"Right","overriding_plate_id":101,"subducting_plate_id":98045,"plate_ids":[101,98045],"name":"Taimyr SZ"},"geometry":{"type":"LineString","coordinates":[[178.496,44.584],[178.93,44.347],[179.36,44.108],[179.801,43.75],[-179.764,43.391],[-179.334,43.029],[-178.908,42.666],[-178.488,42.302],[-178.073,41.936],[-177.662,41.568],[-177.256,41.2],[-176.855,40.829],[-176.458,40.457],[-176.093,40.24],[-175.731,40.021]]}},{"type":"Feature","properties":{"boundary_type":"subduction","feature_type":"gpml:SubductionZone","polarity":"Right","overriding_plate_id":4012,"subducting_plate_id":98045,"plate_ids":[4012,98045],"name":"Taimyr SZ"},"geometry":{"type":"LineString","coordinates":[[-175.731,40.021],[-175.306,39.762],[-174.885,39.5],[-174.628,39.051],[-174.374,38.602],[-174.124,38.152],[-173.876,37.701],[-173.506,37.37],[-173.139,37.039],[-172.775,36.706],[-172.414,36.372],[-172.056,36.036],[-171.702,35.7],[-171.347,35.294],[-170.996,34.888],[-170.649,34.48],[-170.304,34.071],[-169.964,33.661],[-169.626,33.25],[-169.302,32.874],[-168.981,32.496],[-168.663,32.117],[-168.347,31.738],[-168.034,31.358],[-167.723,30.977],[-167.415,30.595],[-167.109,30.213],[-166.806,29.83],[-166.505,29.446]]}},{"type":"Feature","properties":{"boundary_type":"subduction","feature_type":"gpml:SubductionZone","polarity":"Right","overriding_plate_id":101,"subducting_plate_id":98045,"plate_ids":[101,98045],"name":"Taimyr SZ"},"geometry":{"type":"LineString","coordinates":[[-166.505,29.446],[-166.204,29.059],[-165.905,28.672],[-165.609,28.284],[-165.315,27.895],[-165.049,27.49],[-164.785,27.084],[-164.522,26.678],[-164.262,26.271],[-164.003,25.864],[-163.746,25.456],[-163.491,25.048],[-163.238,24.64],[-163.17,24.152],[-163.102,23.664],[-163.035,23.177],[-162.968,22.689],[-162.902,22.201],[-162.836,21.713]]}},{"type":"Feature","properties":{"boundary_type":"subduction","feature_type":"gpml:SubductionZone","polarity":"Right","overriding_plate_id":101,"subducting_plate_id":98041,"plate_ids":[101,98041],"name":"Taimyr SZ"},"geometry":{"type":"LineString","coordinates":[[-162.836,21.713],[-162.771,21.228],[-162.707,20.743],[-162.643,20.258],[-162.579,19.772],[-162.516,19.287],[-162.453,18.802],[-162.39,18.316],[-162.328,17.831],[-162.266,17.345],[-162.205,16.86],[-162.144,16.374],[-162.083,15.889],[-162.022,15.403],[-161.962,14.918],[-162.216,14.599]]}},{"type":"Feature","properties":{"boundary_type":"subduction","feature_type":"gpml:SubductionZone","polarity":"Right","overriding_plate_id":101,"subducting_plate_id":701,"plate_ids":[101,701],"name":"Taimyr SZ"},"geometry":{"type":"LineString","coordinates":[[-162.216,14.599],[-162.495,14.249],[-162.773,13.899],[-163.05,13.548],[-163.326,13.197],[-163.601,12.846],[-163.876,12.495],[-164.294,12.213],[-164.711,11.931],[-165.127,11.649],[-165.543,11.365],[-165.958,11.082],[-166.371,10.797],[-166.784,10.512],[-167.197,10.227],[-167.508,9.904],[-167.819,9.581],[-168.129,9.258],[-168.439,8.934],[-168.748,8.61],[-169.057,8.286],[-169.365,7.962],[-169.673,7.637],[-169.98,7.313],[-170.313,7.004],[-170.645,6.695],[-170.977,6.386],[-171.308,6.076],[-171.639,5.766],[-171.97,5.457],[-172.3,5.147],[-172.63,4.836],[-172.96,4.526],[-173.307,4.255],[-173.654,3.983],[-174.0,3.712],[-174.347,3.44],[-174.693,3.169],[-175.039,2.897]]}},{"type":"Feature","properties":{"boundary_type":"subduction","feature_type":"gpml:SubductionZone","polarity":"Left","overriding_plate_id":101,"subducting_plate_id":98045,"plate_ids":[101,98045],"name":"East Asian Terranes?"},"geometry":{"type":"LineString","coordinates":[[140.469,41.538],[139.859,41.428],[139.251,41.315],[138.645,41.199],[138.041,41.08],[137.439,40.958],[136.84,40.832],[136.731,40.382],[136.623,39.932],[136.517,39.482],[136.413,39.032],[136.309,38.582],[136.207,38.132],[136.106,37.681],[136.007,37.231],[135.908,36.78],[135.811,36.33],[135.715,35.879],[135.231,35.606],[134.75,35.331],[134.273,35.055],[133.798,34.776],[133.327,34.496],[132.86,34.214],[132.395,33.93],[131.933,33.645],[131.475,33.358],[131.019,33.069],[130.567,32.778],[130.072,32.7],[129.577,32.619],[129.084,32.537],[128.592,32.453],[128.1,32.366],[127.61,32.278]]}},{"type":"Feature","properties":{"boundary_type":"subduction","feature_type":"gpml:SubductionZone","polarity":"Left","overriding_plate_id":606,"subducting_plate_id":98045,"plate_ids":[606,98045],"name":"East Asian Terranes?"},"geometry":{"type":"LineString","coordinates":[[127.61,32.278],[127.22,32.207],[126.831,32.134],[126.285,32.267],[125.737,32.398],[125.187,32.526],[124.636,32.652],[124.083,32.775],[123.529,32.896],[123.02,33.085],[122.509,33.273],[121.996,33.458],[121.481,33.641],[120.963,33.822],[120.443,34.001],[119.912,34.036],[119.381,34.068],[118.849,34.098],[118.317,34.125],[117.784,34.151],[117.251,34.173],[116.718,34.194],[116.28,34.384],[115.839,34.573],[115.397,34.76],[114.845,34.841],[114.291,34.92],[113.737,34.997],[113.182,35.071],[112.625,35.142],[112.068,35.211],[111.51,35.277],[110.95,35.34],[110.39,35.401],[109.849,35.386],[109.308,35.367],[108.767,35.346],[108.226,35.323],[107.686,35.297],[107.146,35.269],[106.607,35.239],[106.068,35.206],[105.484,35.073],[104.903,34.936],[104.324,34.797],[103.746,34.655],[103.171,34.51],[102.597,34.363],[102.026,34.213],[101.457,34.06],[100.889,33.905],[100.324,33.747],[99.761,33.587],[99.2,33.424],[98.641,33.258],[98.085,33.09],[97.53,32.92],[96.978,32.747],[96.427,32.571],[95.899,32.374],[95.374,32.174],[94.851,31.972],[94.33,31.768],[93.811,31.562],[93.295,31.354],[92.781,31.144],[92.27,30.931],[91.76,30.717],[91.253,30.501],[90.748,30.283],[90.246,30.062],[89.745,29.84],[89.247,29.616],[88.751,29.391],[88.257,29.163],[87.766,28.933],[87.695,28.883]]}},{"type":"Feature","properties":{"boundary_type":"subduction","feature_type":"gpml:SubductionZone","polarity":"Left","overriding_plate_id":101,"subducting_plate_id":98045,"plate_ids":[101,98045],"name":"East Asian Terranes?"},"geometry":{"type":"LineString","coordinates":[[87.695,28.883],[87.287,28.59],[86.881,28.295],[86.477,28.0],[86.076,27.703],[85.677,27.405],[85.28,27.106],[84.885,26.806],[84.492,26.504],[84.101,26.202],[83.712,25.898],[83.325,25.594],[82.941,25.289],[82.558,24.982],[82.16,24.649],[81.765,24.314],[81.371,23.978],[80.98,23.642],[80.59,23.304],[80.203,22.966],[79.818,22.626],[79.434,22.286],[79.052,21.945],[78.672,21.603],[78.294,21.26],[77.918,20.916],[77.543,20.571],[77.171,20.226],[76.799,19.88],[76.43,19.533],[76.062,19.185],[75.695,18.836],[75.33,18.487],[74.967,18.137],[74.719,17.699],[74.472,17.261],[74.226,16.822],[73.982,16.383],[73.738,15.944],[73.496,15.505],[73.254,15.065],[73.014,14.625],[72.775,14.185],[72.536,13.744],[72.299,13.303],[72.062,12.863],[71.826,12.421],[71.591,11.98],[71.356,11.538],[71.123,11.097],[70.89,10.655],[70.658,10.213],[70.426,9.77],[70.195,9.328],[69.965,8.885],[69.735,8.443],[69.506,8.0],[69.277,7.557],[69.049,7.114],[68.821,6.671],[68.593,6.227],[68.366,5.784],[68.14,5.341],[67.913,4.897],[67.687,4.453],[67.461,4.01],[67.236,3.566],[67.122,3.082],[67.009,2.598],[66.896,2.114],[66.783,1.63],[66.67,1.146],[66.557,0.662],[66.444,0.178],[66.331,-0.306],[66.218,-0.79],[66.105,-1.274],[65.992,-1.757],[65.879,-2.241],[65.766,-2.725],[65.653,-3.209],[65.539,-3.693],[65.426,-4.177],[65.312,-4.661],[65.199,-5.145],[65.085,-5.629],[64.971,-6.112],[64.856,-6.596],[64.742,-7.08],[64.627,-7.564],[64.729,-8.037],[64.831,-8.51],[64.933,-8.984],[65.036,-9.457],[65.139,-9.93]]}},{"type":"Feature","properties":{"boundary_type":"subduction","feature_type":"gpml:SubductionZone","polarity":"Right","overriding_plate_id":701,"subducting_plate_id":5031,"plate_ids":[701,5031],"name":"Imorona-Itsindro Suite"},"geometry":{"type":"LineString","coordinates":[[18.616,-2.028],[18.996,-2.275],[19.376,-2.522],[19.757,-2.769]]}},{"type":"Feature","properties":{"boundary_type":"subduction","feature_type":"gpml:SubductionZone","polarity":"Right","overriding_plate_id":701,"subducting_plate_id":98045,"plate_ids":[701,98045],"name":"Imorona-Itsindro Suite"},"geometry":{"type":"LineString","coordinates":[[19.757,-2.769],[20.077,-2.976],[20.397,-3.184],[20.718,-3.391],[21.14,-3.403],[21.561,-3.416],[21.983,-3.428],[22.276,-3.59],[22.569,-3.752],[22.863,-3.914],[23.324,-3.9],[23.785,-3.887],[24.245,-3.873],[24.706,-3.858],[25.167,-3.844],[25.628,-3.829],[25.94,-4.105],[26.252,-4.381],[26.565,-4.657],[26.877,-4.932],[27.19,-5.208],[27.578,-5.418],[27.967,-5.628],[28.355,-5.838],[28.744,-6.047],[29.133,-6.256],[29.551,-6.316],[29.969,-6.375],[30.387,-6.434],[30.804,-6.492],[31.083,-6.808],[31.361,-7.123],[31.64,-7.438],[31.919,-7.753],[32.3,-7.801],[32.68,-7.849],[33.061,-7.897],[33.509,-8.075],[33.957,-8.252],[34.405,-8.428],[34.854,-8.604],[35.245,-8.815],[35.635,-9.026],[36.026,-9.237],[36.344,-9.575],[36.663,-9.912],[36.982,-10.25],[37.328,-10.294],[37.674,-10.337],[38.02,-10.38],[38.35,-10.223],[38.679,-10.064],[39.009,-9.906],[39.401,-9.692],[39.793,-9.477],[40.184,-9.262],[40.596,-9.002],[41.008,-8.741],[41.372,-8.535],[41.736,-8.327],[42.2,-8.389],[42.5,-8.665],[42.8,-8.942],[43.101,-9.218],[43.402,-9.494],[43.704,-9.769],[44.021,-10.144],[44.339,-10.518],[44.82,-10.654],[45.301,-10.789],[45.783,-10.923],[46.266,-11.057],[46.749,-11.19],[47.232,-11.322],[47.716,-11.453],[48.2,-11.584],[48.684,-11.713],[49.169,-11.842],[49.655,-11.97],[50.141,-12.098],[50.595,-12.169],[51.05,-12.239],[51.505,-12.309],[51.96,-12.378],[52.416,-12.446],[52.872,-12.514],[53.328,-12.581],[53.784,-12.646],[54.24,-12.712],[54.697,-12.776],[55.163,-12.803],[55.629,-12.83],[56.096,-12.856],[56.562,-12.881],[57.029,-12.905],[57.496,-12.928],[57.962,-12.95],[58.429,-12.972],[58.899,-12.85],[59.369,-12.728],[59.838,-12.604],[60.307,-12.48]]}},{"type":"Feature","properties":{"boundary_type":"subduction","feature_type":"gpml:SubductionZone","polarity":"Right","overriding_plate_id":101,"subducting_plate_id":98045,"plate_ids":[101,98045],"name":"Imorona-Itsindro Suite"},"geometry":{"type":"LineString","coordinates":[[60.307,-12.48],[60.702,-12.374],[61.096,-12.268],[61.491,-12.162],[61.884,-12.055],[62.294,-11.791],[62.703,-11.527],[63.11,-11.262],[63.518,-10.997],[63.924,-10.731],[64.33,-10.465],[64.735,-10.198],[65.139,-9.93]]}},{"type":"Feature","properties":{"boundary_type":"subduction","feature_type":"gpml:SubductionZone","polarity":"Left","overriding_plate_id":101,"subducting_plate_id":701,"plate_ids":[101,701],"name":"Valhalla Orogeny"},"geometry":{"type":"LineString","coordinates":[[162.261,-17.922],[162.345,-17.463],[162.43,-17.004],[162.514,-16.545],[162.597,-16.085],[162.68,-15.626],[162.763,-15.167],[162.845,-14.707],[162.834,-14.382],[162.822,-14.058],[162.714,-13.672],[162.606,-13.287],[162.498,-12.901],[162.391,-12.516],[162.365,-12.08],[162.34,-11.644],[162.315,-11.209],[162.289,-10.773],[162.295,-10.332],[162.3,-9.891],[162.305,-9.45],[162.31,-9.009],[162.134,-8.614],[161.959,-8.219],[161.784,-7.823],[161.609,-7.428],[161.523,-6.965],[161.436,-6.503],[161.248,-6.072],[161.061,-5.641],[160.874,-5.21],[160.958,-4.721],[161.042,-4.233],[161.125,-3.745],[161.209,-3.256],[161.293,-2.768],[161.376,-2.279],[161.255,-1.942],[161.134,-1.604]]}},{"type":"Feature","properties":{"boundary_type":"subduction","feature_type":"gpml:SubductionZone","polarity":"Right","overriding_plate_id":101,"subducting_plate_id":701,"plate_ids":[101,701],"name":"Oceanic SZ (part of TOAST?)\u2014oblique subduction"},"geometry":{"type":"LineString","coordinates":[[74.195,-47.128],[73.616,-46.911],[73.042,-46.692],[72.576,-46.319],[72.116,-45.944],[71.663,-45.568],[71.215,-45.189],[70.774,-44.809],[70.338,-44.428],[69.909,-44.044],[69.484,-43.659],[69.065,-43.273],[68.651,-42.885],[68.243,-42.495],[67.84,-42.104],[67.441,-41.712],[67.047,-41.318],[66.659,-40.923],[66.274,-40.527],[65.895,-40.129],[65.519,-39.73],[65.387,-39.243],[65.257,-38.756],[65.129,-38.269],[65.002,-37.782],[64.877,-37.295],[64.754,-36.808],[64.632,-36.32],[64.512,-35.832],[64.393,-35.345],[64.276,-34.857],[64.16,-34.369],[64.045,-33.881],[63.932,-33.392],[63.82,-32.904],[63.709,-32.416],[63.594,-31.937],[63.481,-31.458],[63.369,-30.979],[63.258,-30.501],[63.148,-30.022],[63.039,-29.542],[62.931,-29.063],[62.824,-28.584],[62.718,-28.105],[62.613,-27.625],[62.509,-27.146],[62.406,-26.666],[62.303,-26.187],[62.202,-25.707],[62.101,-25.227],[62.001,-24.747],[61.902,-24.267],[61.804,-23.787],[61.706,-23.307],[61.609,-22.827],[61.513,-22.347],[61.417,-21.867],[61.322,-21.386],[61.228,-20.906],[61.134,-20.426],[61.041,-19.945],[60.949,-19.465],[60.857,-18.984],[60.765,-18.504],[60.674,-18.023],[60.584,-17.542],[60.494,-17.062],[60.475,-16.603],[60.456,-16.145],[60.437,-15.687],[60.418,-15.229],[60.399,-14.771],[60.381,-14.312],[60.362,-13.854],[60.344,-13.396],[60.325,-12.938],[60.307,-12.48]]}},{"type":"Feature","properties":{"boundary_type":"subduction","feature_type":"gpml:SubductionZone","polarity":"Left","overriding_plate_id":580,"subducting_plate_id":980421,"plate_ids":[580,980421],"name":"Tarim subduction"},"geometry":{"type":"LineString","coordinates":[[-65.325,5.303],[-65.498,5.717],[-65.67,6.13],[-65.843,6.543],[-66.016,6.956],[-66.073,7.44],[-66.131,7.923],[-66.188,8.406],[-66.246,8.889],[-66.304,9.373],[-66.362,9.856],[-66.42,10.339],[-66.479,10.822],[-66.537,11.305],[-66.596,11.789],[-66.655,12.272],[-66.714,12.755],[-66.774,13.238],[-66.833,13.721],[-66.893,14.204],[-66.953,14.687],[-66.912,15.182],[-66.871,15.676],[-66.83,16.17],[-66.788,16.665],[-66.747,17.159],[-66.705,17.653],[-66.663,18.147],[-66.62,18.642],[-66.577,19.136],[-66.535,19.63],[-66.491,20.124],[-66.448,20.619],[-66.404,21.113],[-66.36,21.607],[-66.316,22.101],[-66.271,22.596],[-66.226,23.09],[-66.181,23.584],[-66.135,24.078],[-66.089,24.572],[-66.043,25.066],[-66.239,25.477],[-66.437,25.887],[-66.637,26.296],[-66.837,26.706],[-67.039,27.115],[-67.243,27.524],[-67.448,27.933],[-67.655,28.341],[-67.863,28.749]]}},{"type":"Feature","properties":{"boundary_type":"subduction","feature_type":"gpml:SubductionZone","polarity":"Left","overriding_plate_id":580,"subducting_plate_id":501,"plate_ids":[501,580],"name":"Tarim subduction"},"geometry":{"type":"LineString","coordinates":[[-67.863,28.749],[-68.079,29.168],[-68.297,29.586],[-68.516,30.004],[-68.737,30.422],[-68.96,30.839],[-69.185,31.256],[-69.647,31.554],[-70.113,31.85],[-70.581,32.145],[-71.053,32.437],[-71.527,32.728],[-72.005,33.017],[-72.485,33.304],[-72.969,33.59],[-73.456,33.873],[-73.947,34.155],[-74.44,34.435],[-74.881,34.727],[-75.325,35.017],[-75.771,35.306],[-76.221,35.593],[-76.675,35.879],[-77.131,36.163],[-77.591,36.445],[-78.054,36.725],[-78.521,37.003],[-78.991,37.28],[-79.464,37.555],[-79.941,37.828],[-80.421,38.099],[-80.897,38.374],[-81.376,38.647],[-81.859,38.918],[-82.346,39.187],[-82.836,39.454],[-83.33,39.719],[-83.828,39.982],[-84.33,40.242],[-84.832,40.526],[-85.337,40.808],[-85.847,41.088],[-86.361,41.365],[-86.88,41.64],[-87.403,41.912],[-87.931,42.183],[-88.463,42.45],[-88.999,42.716],[-89.54,42.978],[-90.086,43.239],[-90.637,43.496],[-91.233,43.705],[-91.833,43.91],[-92.437,44.113],[-93.046,44.312],[-93.658,44.507],[-94.275,44.7],[-94.896,44.889],[-95.521,45.075]]}},{"type":"Feature","properties":{"boundary_type":"subduction","feature_type":"gpml:SubductionZone","polarity":"Right","overriding_plate_id":501,"subducting_plate_id":980421,"plate_ids":[501,980421],"name":"northwestern india sub zone"},"geometry":{"type":"LineString","coordinates":[[-65.124,71.978],[-64.683,71.504],[-64.263,71.03],[-63.863,70.554],[-63.481,70.077],[-63.116,69.6],[-62.768,69.122],[-62.434,68.644],[-62.114,68.164],[-61.807,67.684],[-61.513,67.204],[-61.23,66.723],[-60.958,66.242],[-60.696,65.76],[-60.713,65.27],[-60.729,64.779],[-60.745,64.289],[-60.76,63.799],[-60.774,63.309],[-60.788,62.819],[-60.802,62.329],[-60.815,61.839],[-60.827,61.349],[-60.84,60.859],[-60.852,60.368],[-60.863,59.878],[-60.874,59.388],[-60.885,58.898],[-60.896,58.408],[-60.906,57.918],[-60.916,57.428],[-60.926,56.938],[-60.936,56.447],[-60.945,55.957],[-60.954,55.467],[-60.963,54.977],[-60.971,54.487],[-60.98,53.997],[-60.988,53.507],[-61.025,53.025],[-61.061,52.544],[-61.097,52.063],[-61.131,51.581],[-61.165,51.1],[-61.199,50.618],[-61.231,50.137],[-61.263,49.656],[-61.294,49.174],[-61.325,48.693],[-61.355,48.211],[-61.385,47.73],[-61.414,47.248],[-61.442,46.767],[-61.47,46.285],[-61.498,45.804],[-61.525,45.322],[-61.551,44.841],[-61.578,44.359],[-61.603,43.878],[-61.629,43.396],[-61.654,42.915],[-61.678,42.433],[-61.702,41.952],[-61.726,41.47],[-61.615,40.987],[-61.505,40.503],[-61.397,40.02],[-61.291,39.536],[-61.185,39.052],[-61.082,38.568],[-60.98,38.084],[-60.879,37.6],[-60.779,37.116],[-60.681,36.632],[-60.584,36.148],[-60.488,35.663],[-60.393,35.179]]}},{"type":"Feature","properties":{"boundary_type":"subduction","feature_type":"gpml:SubductionZone","polarity":"Left","overriding_plate_id":501,"subducting_plate_id":98045,"plate_ids":[501,98045],"name":"offboard SC subzone"},"geometry":{"type":"LineString","coordinates":[[167.678,71.237],[168.246,70.854],[168.793,70.47],[169.319,70.084],[169.826,69.696],[171.107,69.506],[172.366,69.308],[173.6,69.1],[174.811,68.883],[175.998,68.658],[177.162,68.425],[178.3,68.184],[179.415,67.935],[-179.494,67.679],[-178.427,67.416],[-177.383,67.145],[-176.363,66.869],[-175.366,66.585],[-174.392,66.296],[-173.44,66.001],[-172.51,65.699],[-171.602,65.393],[-170.714,65.081],[-169.848,64.764],[-169.002,64.442],[-168.176,64.115],[-167.368,63.784],[-166.58,63.448],[-165.811,63.108],[-165.059,62.764],[-164.324,62.416],[-163.607,62.064],[-162.906,61.709],[-162.221,61.35],[-161.601,60.974],[-160.995,60.595],[-160.404,60.214],[-159.826,59.83],[-159.261,59.444],[-158.71,59.055],[-158.17,58.665],[-157.643,58.271],[-157.127,57.876],[-156.622,57.479],[-156.129,57.079],[-155.645,56.678],[-155.172,56.275],[-154.709,55.87],[-154.256,55.464],[-153.812,55.056],[-153.376,54.646],[-152.95,54.235],[-152.532,53.822],[-152.122,53.408],[-151.72,52.992],[-151.325,52.575],[-150.938,52.157],[-150.559,51.738],[-150.167,51.324],[-149.781,50.909],[-149.403,50.492],[-149.032,50.074],[-148.666,49.656],[-148.307,49.236],[-147.954,48.815],[-147.607,48.392],[-147.266,47.969],[-146.93,47.545],[-146.6,47.12],[-146.275,46.694],[-145.955,46.267],[-145.64,45.839],[-145.329,45.41],[-145.024,44.981]]}},{"type":"Feature","properties":{"boundary_type":"subduction","feature_type":"gpml:SubductionZone","polarity":"Right","overriding_plate_id":101,"subducting_plate_id":701,"plate_ids":[101,701],"name":"Proto Avalonia-Cadomia"},"geometry":{"type":"LineString","coordinates":[[-147.21,-68.218],[-146.364,-68.593],[-145.488,-68.963],[-144.583,-69.329],[-143.647,-69.69],[-142.678,-70.046],[-141.676,-70.396],[-140.64,-70.741],[-139.567,-71.079],[-138.457,-71.411],[-137.309,-71.737],[-136.121,-72.055],[-134.892,-72.366],[-133.62,-72.669],[-132.306,-72.964],[-130.947,-73.25],[-129.544,-73.527],[-128.094,-73.794],[-126.598,-74.051],[-125.055,-74.297],[-123.466,-74.533],[-121.83,-74.756],[-120.147,-74.968],[-118.555,-75.239],[-116.906,-75.5],[-115.199,-75.748],[-113.435,-75.984],[-111.613,-76.207],[-109.734,-76.416],[-107.8,-76.61],[-105.812,-76.789],[-103.772,-76.953],[-101.685,-77.1],[-99.552,-77.23],[-97.38,-77.343],[-95.172,-77.438],[-92.934,-77.515],[-91.25,-77.811],[-89.484,-78.096],[-87.635,-78.37],[-85.7,-78.631],[-83.678,-78.88],[-81.567,-79.114],[-79.367,-79.333],[-77.08,-79.536],[-74.706,-79.722],[-72.251,-79.891],[-69.718,-80.04],[-67.043,-80.223],[-64.275,-80.384],[-61.419,-80.522],[-58.487,-80.637],[-55.491,-80.727],[-52.445,-80.791],[-49.366,-80.83],[-46.269,-80.842],[-43.173,-80.828],[-40.094,-80.788],[-37.051,-80.722],[-34.059,-80.631],[-31.131,-80.515],[-28.28,-80.375],[-25.538,-80.337],[-22.822,-80.277]]}},{"type":"Feature","properties":{"boundary_type":"ridge","feature_type":"gpml:MidOceanRidge","polarity":null,"overriding_plate_id":null,"subducting_plate_id":null,"plate_ids":[701,5031],"name":"Azania-ANS MOR"},"geometry":{"type":"LineString","coordinates":[[10.366,-20.599],[10.137,-20.203],[9.909,-19.806],[9.682,-19.408],[10.152,-19.211],[10.621,-19.013],[11.089,-18.814],[10.851,-18.373],[10.614,-17.931],[10.379,-17.489],[10.145,-17.046],[9.912,-16.603],[9.68,-16.16],[9.449,-15.717],[9.219,-15.274],[9.632,-15.043],[10.045,-14.811],[10.457,-14.579],[10.868,-14.346],[11.279,-14.112],[11.688,-13.877],[12.096,-13.642],[12.504,-13.406],[12.293,-12.999],[12.083,-12.591],[11.873,-12.183],[11.663,-11.775],[11.455,-11.367],[11.247,-10.959],[11.04,-10.55],[11.48,-10.328],[11.92,-10.105],[12.359,-9.881],[12.797,-9.657],[13.235,-9.432],[13.005,-9.082],[12.776,-8.731],[12.547,-8.381],[12.318,-8.03],[12.09,-7.68],[11.862,-7.329],[12.263,-7.117],[12.663,-6.905],[13.064,-6.692],[13.464,-6.479],[13.863,-6.266],[13.644,-5.877],[13.425,-5.489],[13.207,-5.1]]}},{"type":"Feature","properties":{"boundary_type":"ridge","feature_type":"gpml:MidOceanRidge","polarity":null,"overriding_plate_id":null,"subducting_plate_id":null,"plate_ids":[580,98041],"name":"Tarim MoR"},"geometry":{"type":"LineString","coordinates":[[-144.127,46.504],[-143.477,46.412],[-142.83,46.317],[-142.184,46.219],[-141.542,46.116],[-140.901,46.01],[-140.263,45.901],[-139.628,45.788],[-138.995,45.671],[-138.365,45.551],[-137.737,45.428],[-137.113,45.301],[-136.429,45.172],[-135.748,45.04],[-135.07,44.903],[-134.396,44.763],[-133.725,44.618],[-133.058,44.47],[-132.393,44.317],[-131.733,44.161],[-131.076,44.001],[-130.422,43.838],[-130.606,43.363],[-130.788,42.888],[-130.967,42.412],[-131.143,41.937],[-131.317,41.461],[-131.488,40.984],[-131.656,40.508],[-131.822,40.031],[-131.986,39.554],[-132.148,39.077],[-132.307,38.6],[-132.465,38.122],[-132.62,37.644],[-132.773,37.166],[-132.924,36.688],[-133.074,36.209],[-133.222,35.731],[-133.368,35.252],[-133.512,34.773],[-133.654,34.294],[-133.795,33.815],[-133.935,33.335],[-134.072,32.856],[-134.209,32.376],[-134.344,31.896],[-134.477,31.416],[-134.609,30.936],[-134.74,30.455],[-134.87,29.975],[-134.998,29.494],[-135.125,29.014],[-135.251,28.533],[-135.376,28.052],[-135.499,27.571],[-135.622,27.09],[-135.744,26.609],[-135.864,26.127],[-135.984,25.646],[-136.102,25.164],[-136.22,24.683],[-135.701,24.55],[-135.183,24.416],[-134.666,24.28],[-134.15,24.143],[-133.636,24.004],[-133.122,23.863],[-132.61,23.72],[-132.099,23.575],[-131.589,23.429],[-131.08,23.282],[-130.58,23.135],[-130.081,22.987],[-129.584,22.837],[-129.087,22.686],[-128.592,22.533],[-128.097,22.379],[-127.604,22.223],[-127.112,22.066],[-126.621,21.907],[-126.131,21.747],[-125.642,21.585],[-125.154,21.422],[-124.668,21.257],[-124.182,21.091],[-123.697,20.924],[-123.214,20.756],[-122.732,20.586],[-122.899,20.126],[-123.066,19.666],[-123.232,19.206],[-123.396,18.746],[-123.56,18.286],[-123.723,17.826],[-123.886,17.365],[-124.047,16.905],[-124.207,16.444],[-124.367,15.983],[-124.526,15.522],[-124.685,15.061],[-124.842,14.6],[-124.999,14.139],[-125.156,13.677],[-125.312,13.216],[-125.467,12.754],[-125.621,12.293],[-125.775,11.831],[-125.929,11.369],[-126.082,10.907],[-126.235,10.445],[-126.387,9.983],[-126.539,9.521]]}},{"type":"Feature","properties":{"boundary_type":"ridge","feature_type":"gpml:MidOceanRidge","polarity":null,"overriding_plate_id":null,"subducting_plate_id":null,"plate_ids":[580,701],"name":"Tarim MoR"},"geometry":{"type":"LineString","coordinates":[[-126.539,9.521],[-126.693,9.048],[-126.848,8.575],[-127.002,8.102],[-127.155,7.629],[-127.308,7.156],[-127.461,6.683],[-127.614,6.21],[-127.766,5.737],[-127.919,5.264],[-128.07,4.791]]}},{"type":"Feature","properties":{"boundary_type":"ridge","feature_type":"gpml:MidOceanRidge","polarity":null,"overriding_plate_id":null,"subducting_plate_id":null,"plate_ids":[101,4012],"name":"Central Taimyr Back arc"},"geometry":{"type":"LineString","coordinates":[[178.319,37.167],[178.633,36.769],[178.943,36.37],[179.25,35.97],[179.554,35.569],[179.855,35.168],[179.448,34.949],[179.747,34.53],[-179.957,34.11],[-179.664,33.689],[-179.374,33.268],[-179.087,32.846],[-178.802,32.423],[-178.52,31.999],[-178.241,31.575],[-177.964,31.151],[-177.69,30.726],[-177.418,30.3],[-177.149,29.874],[-176.881,29.447],[-176.616,29.019],[-176.354,28.591],[-176.093,28.163],[-175.834,27.734],[-175.578,27.305],[-175.323,26.875],[-175.027,26.994],[-174.731,27.112],[-174.526,26.724],[-174.323,26.337],[-174.121,25.949]]}},{"type":"Feature","properties":{"boundary_type":"transform","feature_type":"gpml:Transform","polarity":null,"overriding_plate_id":null,"subducting_plate_id":null,"plate_ids":[701,775311],"name":"SES-WES transform"},"geometry":{"type":"LineString","coordinates":[[6.4,-26.557],[6.712,-26.25],[7.023,-25.942],[7.332,-25.634],[7.639,-25.325]]}},{"type":"Feature","properties":{"boundary_type":"transform","feature_type":"gpml:Transform","polarity":null,"overriding_plate_id":null,"subducting_plate_id":null,"plate_ids":[5031,775311],"name":"SES-WES transform"},"geometry":{"type":"LineString","coordinates":[[4.425,-23.26],[4.806,-23.044],[5.187,-22.829],[5.566,-22.612],[5.944,-22.394],[6.321,-22.175]]}},{"type":"Feature","properties":{"boundary_type":"ridge","feature_type":"gpml:MidOceanRidge","polarity":null,"overriding_plate_id":null,"subducting_plate_id":null,"plate_ids":[701,775211],"name":"SES-WES spreading"},"geometry":{"type":"LineString","coordinates":[[6.533,-26.73],[6.4,-26.557]]}},{"type":"Feature","properties":{"boundary_type":"ridge","feature_type":"gpml:MidOceanRidge","polarity":null,"overriding_plate_id":null,"subducting_plate_id":null,"plate_ids":[775211,775311],"name":"SES-WES spreading"},"geometry":{"type":"LineString","coordinates":[[6.4,-26.557],[6.11,-26.179],[5.823,-25.801],[5.537,-25.422],[5.253,-25.042],[4.971,-24.662],[4.69,-24.281],[5.004,-24.018],[4.714,-23.639],[4.425,-23.26]]}},{"type":"Feature","properties":{"boundary_type":"ridge","feature_type":"gpml:MidOceanRidge","polarity":null,"overriding_plate_id":null,"subducting_plate_id":null,"plate_ids":[5031,775211],"name":"SES-WES spreading"},"geometry":{"type":"LineString","coordinates":[[4.425,-23.26],[4.397,-23.223]]}},{"type":"Feature","properties":{"boundary_type":"ridge","feature_type":"gpml:MidOceanRidge","polarity":null,"overriding_plate_id":null,"subducting_plate_id":null,"plate_ids":[101,606],"name":"Lhasa back-arc? ridge"},"geometry":{"type":"LineString","coordinates":[[90.075,24.396],[90.528,24.625],[90.983,24.852],[91.44,25.078],[91.899,25.303],[92.359,25.526],[92.821,25.748],[93.285,25.969],[93.751,26.188],[94.218,26.405],[94.687,26.621],[95.158,26.835],[95.63,27.048],[96.105,27.259],[96.581,27.469],[97.059,27.677],[97.538,27.883],[97.726,27.44],[97.913,26.998],[98.098,26.554],[98.281,26.111],[98.787,26.294],[99.293,26.475],[99.802,26.655],[100.312,26.833],[100.823,27.009],[101.336,27.183],[101.851,27.355],[102.368,27.525],[102.885,27.694],[103.405,27.86],[103.926,28.025],[104.449,28.187],[104.973,28.348],[105.499,28.507],[106.026,28.663],[106.555,28.818],[107.086,28.97],[107.618,29.12],[107.727,28.756],[107.835,28.393],[107.942,28.029],[108.048,27.665],[108.592,27.785],[109.137,27.903],[109.683,28.018],[110.23,28.132],[110.778,28.243],[111.328,28.352],[111.878,28.459],[112.43,28.564],[112.983,28.667],[113.537,28.767],[114.092,28.865],[114.229,28.488],[114.365,28.111],[114.5,27.734],[114.635,27.357],[115.148,27.463],[115.663,27.568],[116.178,27.671],[116.694,27.772],[117.211,27.871],[117.73,27.968],[118.249,28.063],[118.769,28.156],[119.29,28.247],[119.811,28.336],[119.986,27.894],[120.158,27.451],[120.33,27.008],[120.5,26.565],[120.669,26.122],[120.836,25.679],[121.379,25.766],[121.922,25.85],[122.466,25.933],[123.011,26.014],[123.556,26.093],[124.103,26.17],[124.65,26.245],[125.197,26.317],[125.746,26.388],[126.295,26.456],[126.844,26.523],[127.394,26.587],[127.511,26.101],[127.627,25.615],[127.742,25.128],[127.857,24.642],[128.247,24.752],[128.639,24.86]]}},{"type":"Feature","properties":{"boundary_type":"ridge","feature_type":"gpml:MidOceanRidge","polarity":null,"overriding_plate_id":null,"subducting_plate_id":null,"plate_ids":[5031,98045],"name":"MOR"},"geometry":{"type":"LineString","coordinates":[[27.679,13.51],[27.339,13.752],[26.999,13.994],[26.658,14.236],[26.316,14.477],[25.974,14.717]]}},{"type":"Feature","properties":{"boundary_type":"ridge","feature_type":"gpml:MidOceanRidge","polarity":null,"overriding_plate_id":null,"subducting_plate_id":null,"plate_ids":[5031,980421],"name":"MOR"},"geometry":{"type":"LineString","coordinates":[[25.974,14.717],[25.594,14.982],[25.214,15.247],[24.833,15.511],[24.45,15.775],[24.067,16.037],[23.701,15.768],[23.337,15.498],[22.973,15.228],[22.611,14.957],[22.177,15.188],[21.743,15.417],[21.308,15.646],[20.871,15.874],[20.434,16.101],[19.996,16.327],[19.557,16.552],[19.116,16.777],[18.675,17.0],[18.233,17.223],[17.789,17.444],[17.345,17.664],[16.899,17.884],[16.452,18.102],[16.004,18.32],[15.556,18.536],[15.105,18.752],[14.857,18.369],[14.611,17.986],[14.365,17.603],[13.906,17.832],[13.446,18.061],[12.985,18.288],[12.522,18.515],[12.059,18.74],[11.594,18.964],[11.128,19.187],[10.66,19.409],[10.192,19.629],[9.722,19.848],[9.251,20.066],[8.778,20.283],[8.304,20.499],[7.829,20.713],[7.352,20.926],[6.874,21.138],[6.395,21.348],[5.915,21.557],[5.433,21.764],[4.949,21.97],[4.709,21.584],[4.471,21.197],[4.233,20.811],[3.997,20.423],[3.762,20.036],[3.528,19.648],[3.295,19.26],[3.064,18.871],[2.583,19.008],[2.102,19.143],[1.62,19.277],[1.138,19.409],[0.654,19.541],[0.17,19.671],[-0.315,19.799],[-0.801,19.927],[-1.288,20.053],[-1.775,20.178],[-2.263,20.301],[-2.752,20.423],[-3.242,20.544]]}},{"type":"Feature","properties":{"boundary_type":"ridge","feature_type":"gpml:MidOceanRidge","polarity":null,"overriding_plate_id":null,"subducting_plate_id":null,"plate_ids":[98045,980421],"name":"ocean"},"geometry":{"type":"LineString","coordinates":[[25.974,14.717],[26.389,14.989],[26.805,15.261],[27.222,15.532],[27.64,15.802],[28.059,16.071],[28.48,16.34],[28.901,16.608],[29.324,16.874],[29.748,17.14],[30.173,17.405],[30.6,17.67],[30.833,17.332],[31.066,16.995],[31.297,16.657],[31.528,16.319],[31.971,16.567],[32.415,16.814],[32.86,17.06],[33.306,17.304],[33.754,17.548],[34.202,17.791],[34.652,18.033],[35.103,18.274],[35.556,18.513],[36.009,18.752],[36.464,18.99]]}},{"type":"Feature","properties":{"boundary_type":"ridge","feature_type":"gpml:MidOceanRidge","polarity":null,"overriding_plate_id":null,"subducting_plate_id":null,"plate_ids":[580,701],"name":"ocean"},"geometry":{"type":"LineString","coordinates":[[-77.328,-2.788],[-76.914,-2.509],[-76.5,-2.23],[-76.087,-1.951],[-75.673,-1.671],[-75.26,-1.392],[-74.847,-1.112],[-74.434,-0.833],[-74.021,-0.553],[-73.608,-0.273],[-73.195,0.006],[-72.782,0.286],[-72.369,0.566],[-71.956,0.845],[-71.542,1.125],[-71.129,1.404],[-70.716,1.684],[-70.303,1.963],[-69.889,2.242],[-69.475,2.522],[-69.061,2.801],[-68.647,3.079],[-68.233,3.358],[-67.819,3.637],[-67.404,3.915],[-66.989,4.193],[-66.573,4.471],[-66.158,4.749],[-65.742,5.026],[-65.325,5.303]]}},{"type":"Feature","properties":{"boundary_type":"ridge","feature_type":"gpml:MidOceanRidge","polarity":null,"overriding_plate_id":null,"subducting_plate_id":null,"plate_ids":[701,980421],"name":"ocean"},"geometry":{"type":"LineString","coordinates":[[-65.325,5.303],[-64.928,5.567],[-64.531,5.831],[-64.133,6.094],[-63.735,6.357],[-63.337,6.62],[-62.938,6.882],[-62.538,7.144],[-62.139,7.406],[-61.738,7.667],[-61.337,7.928],[-60.936,8.188],[-60.534,8.448],[-60.132,8.708],[-59.729,8.967],[-59.469,8.592],[-59.21,8.217],[-58.952,7.841],[-58.694,7.466],[-58.436,7.09],[-58.179,6.714],[-57.754,6.971],[-57.329,7.228],[-56.903,7.485],[-56.477,7.741],[-56.05,7.997],[-55.623,8.252],[-55.195,8.507],[-54.766,8.761],[-54.337,9.015],[-53.908,9.269],[-53.478,9.521],[-53.047,9.774],[-52.615,10.026],[-52.183,10.277],[-51.75,10.528],[-51.317,10.778],[-50.882,11.027],[-50.447,11.276],[-50.012,11.524],[-49.575,11.772],[-49.138,12.019],[-48.7,12.265],[-48.261,12.511],[-47.821,12.755],[-47.38,13.0],[-46.939,13.243],[-46.496,13.486],[-46.053,13.727],[-45.609,13.968],[-45.164,14.209],[-44.718,14.448],[-44.271,14.687],[-43.823,14.924],[-43.374,15.161],[-42.924,15.397],[-42.473,15.632],[-42.021,15.866],[-41.567,16.099],[-41.113,16.332],[-40.658,16.563],[-40.202,16.793],[-39.744,17.022],[-39.286,17.251],[-38.826,17.478],[-38.365,17.704],[-37.903,17.929],[-37.44,18.153],[-36.976,18.376],[-36.51,18.597],[-36.043,18.818],[-35.575,19.037],[-35.106,19.256],[-34.636,19.473],[-34.164,19.688],[-33.691,19.903],[-33.479,19.519],[-33.267,19.134],[-33.057,18.75],[-32.848,18.365],[-32.639,17.979],[-32.432,17.594],[-31.947,17.777],[-31.461,17.958],[-30.974,18.138],[-30.486,18.317],[-29.998,18.495],[-29.508,18.671],[-29.017,18.846],[-28.525,19.02],[-28.032,19.193],[-27.538,19.364],[-27.043,19.534],[-26.547,19.703],[-26.05,19.87],[-25.552,20.036],[-25.053,20.2],[-24.553,20.363],[-24.052,20.525],[-23.549,20.685],[-23.046,20.844],[-22.542,21.001],[-22.036,21.157],[-21.53,21.311],[-21.022,21.464],[-20.513,21.615],[-20.004,21.765],[-19.493,21.913],[-18.981,22.059],[-18.468,22.204],[-17.954,22.347],[-17.439,22.489],[-16.923,22.629],[-16.406,22.767],[-15.888,22.904],[-15.369,23.039],[-14.849,23.172],[-14.327,23.304],[-13.805,23.434],[-13.282,23.562],[-12.758,23.688],[-12.232,23.813],[-11.706,23.936],[-11.179,24.057],[-10.65,24.176],[-10.121,24.294],[-9.591,24.409],[-9.06,24.523],[-8.528,24.635],[-7.995,24.745],[-7.461,24.853],[-6.926,24.959],[-6.39,25.063],[-5.853,25.166],[-5.315,25.266],[-4.777,25.365],[-4.237,25.461],[-3.697,25.556],[-3.156,25.648],[-2.614,25.739]]}},{"type":"Feature","properties":{"boundary_type":"ridge","feature_type":"gpml:MidOceanRidge","polarity":null,"overriding_plate_id":null,"subducting_plate_id":null,"plate_ids":[5031,98045],"name":"ANS-Mozambique Ocean ridge"},"geometry":{"type":"LineString","coordinates":[[19.757,-2.769],[20.019,-2.369],[20.28,-1.97],[20.542,-1.571],[20.803,-1.172],[21.064,-0.773],[21.326,-0.374],[21.587,0.025],[21.848,0.425],[22.109,0.824],[22.371,1.223],[22.632,1.622],[22.894,2.021],[23.155,2.42],[23.417,2.819],[23.679,3.218],[23.941,3.617],[23.648,3.844],[23.354,4.07],[23.06,4.297],[23.326,4.718],[23.593,5.139],[23.86,5.559],[24.127,5.98],[24.395,6.401],[24.663,6.821],[24.931,7.242],[25.2,7.662],[25.47,8.082],[25.74,8.502],[26.011,8.921],[26.282,9.341],[26.554,9.76],[26.826,10.179],[27.1,10.598],[26.762,10.768],[26.423,10.939],[26.084,11.109],[26.348,11.51],[26.612,11.91],[26.878,12.31],[27.144,12.711],[27.411,13.11],[27.679,13.51]]}},{"type":"Feature","properties":{"boundary_type":"ridge","feature_type":"gpml:MidOceanRidge","polarity":null,"overriding_plate_id":null,"subducting_plate_id":null,"plate_ids":[701,98041],"name":"MOR separating Tarim and SM-Congo"},"geometry":{"type":"LineString","coordinates":[[-126.539,9.521],[-127.036,9.603],[-127.533,9.684],[-128.031,9.764],[-128.529,9.843],[-129.027,9.922],[-129.525,10.0],[-130.024,10.077],[-130.522,10.154],[-131.021,10.23],[-131.521,10.305],[-132.02,10.379],[-132.52,10.453],[-133.02,10.525],[-133.52,10.597],[-134.021,10.668],[-134.521,10.739],[-135.022,10.808],[-135.524,10.877],[-136.025,10.945],[-136.527,11.012],[-137.028,11.078],[-137.53,11.144],[-138.033,11.209],[-138.535,11.272],[-139.038,11.335],[-139.541,11.397],[-140.044,11.459],[-139.966,11.914],[-139.888,12.37],[-139.81,12.826],[-139.731,13.282],[-139.652,13.737],[-139.572,14.193],[-139.493,14.649],[-139.413,15.104],[-139.332,15.56],[-139.252,16.016],[-139.747,16.083],[-140.242,16.15],[-140.738,16.215],[-141.234,16.279],[-141.73,16.342],[-142.226,16.404],[-142.723,16.465],[-143.221,16.524],[-143.718,16.582],[-144.216,16.639],[-144.714,16.695],[-145.212,16.75],[-145.711,16.804],[-146.21,16.856],[-146.709,16.907],[-147.209,16.957],[-147.709,17.006],[-148.209,17.053],[-148.709,17.1],[-149.209,17.145],[-149.71,17.189],[-150.211,17.231],[-150.712,17.272],[-150.8,16.898],[-150.887,16.524],[-150.973,16.149],[-151.06,15.775],[-151.574,15.815],[-152.088,15.853],[-152.602,15.89],[-153.116,15.926],[-153.63,15.961],[-154.145,15.995],[-154.66,16.027],[-155.175,16.058],[-155.69,16.088],[-156.206,16.116],[-156.721,16.144],[-157.237,16.17],[-157.752,16.195],[-158.268,16.219],[-158.784,16.241],[-159.3,16.262],[-159.817,16.282],[-160.333,16.301],[-160.849,16.318],[-161.366,16.334],[-161.464,15.899],[-161.562,15.464],[-161.66,15.029],[-161.757,14.594],[-162.216,14.599]]}},{"type":"Feature","properties":{"boundary_type":"ridge","feature_type":"gpml:MidOceanRidge","polarity":null,"overriding_plate_id":null,"subducting_plate_id":null,"plate_ids":[580,701],"name":"MOR separating Tarim and SM-Congo"},"geometry":{"type":"LineString","coordinates":[[-128.07,4.791],[-127.58,4.733],[-127.089,4.674],[-126.598,4.616],[-126.108,4.557],[-125.617,4.498],[-125.127,4.438],[-124.636,4.378],[-124.146,4.318],[-123.656,4.257],[-123.166,4.197],[-122.676,4.135],[-122.186,4.074],[-121.696,4.012],[-121.206,3.95],[-120.716,3.888],[-120.226,3.825],[-119.737,3.762],[-119.247,3.699],[-118.758,3.636],[-118.268,3.572],[-117.779,3.508],[-117.29,3.444],[-116.801,3.379],[-116.311,3.314],[-115.822,3.249],[-115.333,3.184],[-114.844,3.119],[-114.355,3.053],[-113.867,2.987],[-113.378,2.921],[-112.889,2.855],[-112.4,2.788],[-111.912,2.722],[-111.423,2.655],[-110.935,2.588],[-111.085,2.213],[-111.235,1.837],[-111.385,1.462],[-111.535,1.087],[-111.049,1.034],[-110.564,0.981],[-110.078,0.928],[-109.593,0.875],[-109.107,0.822],[-108.621,0.768],[-108.136,0.715],[-107.65,0.662],[-107.165,0.608],[-106.679,0.555],[-106.194,0.501],[-105.708,0.447],[-105.222,0.394],[-104.737,0.34],[-104.251,0.286],[-103.766,0.233],[-103.28,0.179],[-102.795,0.125],[-102.309,0.072],[-101.824,0.018],[-101.338,-0.036],[-100.853,-0.09],[-100.367,-0.143],[-99.882,-0.197],[-99.396,-0.251],[-98.911,-0.304],[-98.425,-0.358],[-97.94,-0.412],[-97.454,-0.465],[-96.969,-0.519],[-96.483,-0.573],[-95.998,-0.626],[-95.512,-0.68],[-95.583,-1.098],[-95.654,-1.517],[-95.725,-1.935],[-95.796,-2.354],[-95.297,-2.369],[-94.798,-2.384],[-94.299,-2.399],[-93.8,-2.414],[-93.301,-2.428],[-92.802,-2.442],[-92.303,-2.456],[-91.804,-2.47],[-91.305,-2.484],[-90.806,-2.498],[-90.306,-2.511],[-89.807,-2.524],[-89.308,-2.537],[-88.809,-2.55],[-88.31,-2.562],[-87.811,-2.575],[-87.312,-2.587],[-86.813,-2.599],[-86.314,-2.611],[-85.814,-2.622],[-85.315,-2.634],[-84.816,-2.645],[-84.317,-2.656],[-83.818,-2.667],[-83.319,-2.677],[-82.819,-2.688],[-82.32,-2.698],[-81.821,-2.708],[-81.322,-2.717],[-80.823,-2.727],[-80.323,-2.736],[-79.824,-2.745],[-79.325,-2.754],[-78.825,-2.763],[-78.326,-2.772],[-77.827,-2.78],[-77.328,-2.788]]}},{"type":"Feature","properties":{"boundary_type":"ridge","feature_type":"gpml:MidOceanRidge","polarity":null,"overriding_plate_id":null,"subducting_plate_id":null,"plate_ids":[101,701],"name":""},"geometry":{"type":"LineString","coordinates":[[77.46,-54.026],[76.675,-54.202],[75.884,-54.372],[75.086,-54.538],[74.281,-54.698],[73.471,-54.852],[72.654,-55.002],[71.831,-55.145],[71.003,-55.284],[70.169,-55.416],[69.329,-55.543],[68.484,-55.664],[67.634,-55.779],[66.779,-55.888],[65.919,-55.992],[65.055,-56.089],[64.186,-56.18],[63.314,-56.265],[62.437,-56.344],[61.558,-56.417],[60.675,-56.484],[59.789,-56.544],[58.9,-56.598],[58.009,-56.645],[57.116,-56.687],[56.222,-56.721],[56.259,-57.202],[56.298,-57.683],[56.337,-58.164],[56.378,-58.645],[56.42,-59.126],[56.463,-59.606],[56.507,-60.087],[56.553,-60.568],[55.591,-60.626],[54.627,-60.677],[53.659,-60.721],[52.689,-60.758],[52.659,-61.249],[52.627,-61.74],[52.595,-62.231],[52.561,-62.722],[52.527,-63.213],[52.491,-63.704],[52.454,-64.195],[52.415,-64.686],[52.375,-65.177],[52.334,-65.668],[52.291,-66.159],[52.246,-66.65],[51.005,-66.646],[49.765,-66.632],[48.527,-66.609],[47.291,-66.576],[46.059,-66.533],[44.832,-66.481],[44.62,-66.955],[44.399,-67.43],[44.169,-67.903],[43.93,-68.377],[43.68,-68.85],[43.42,-69.323],[42.482,-69.256],[41.551,-69.183],[40.626,-69.106],[40.239,-69.57],[39.835,-70.032],[39.412,-70.494],[38.97,-70.955],[38.507,-71.415],[38.022,-71.873],[37.511,-72.33],[36.975,-72.786],[36.411,-73.24],[35.816,-73.693],[35.188,-74.144],[34.525,-74.593],[33.823,-75.04],[33.078,-75.485],[32.288,-75.927],[31.448,-76.366],[30.553,-76.803],[29.498,-77.215],[28.375,-77.622],[27.177,-78.025],[25.897,-78.422],[24.528,-78.814],[23.063,-79.198],[21.491,-79.576],[19.804,-79.945],[17.992,-80.305],[16.043,-80.654],[13.947,-80.992],[11.692,-81.318],[9.267,-81.629],[6.66,-81.924],[3.864,-82.202],[1.938,-81.865],[0.166,-81.519],[-1.467,-81.167],[-2.975,-80.807],[-4.369,-80.442],[-5.661,-80.072],[-6.86,-79.697],[-9.377,-79.846],[-11.963,-79.974],[-14.611,-80.082],[-17.31,-80.169],[-20.051,-80.235],[-22.822,-80.277]]}},{"type":"Feature","properties":{"boundary_type":"transform","feature_type":"gpml:Transform","polarity":null,"overriding_plate_id":null,"subducting_plate_id":null,"plate_ids":[101,701],"name":"Transform connecting Valhalla with proto-Avalonia"},"geometry":{"type":"LineString","coordinates":[[162.261,-17.922],[162.701,-17.849],[163.142,-17.775],[163.581,-17.7],[164.021,-17.624],[164.46,-17.547],[164.946,-17.438],[165.431,-17.328],[165.915,-17.216],[166.399,-17.103],[166.882,-16.989],[167.364,-16.874],[167.846,-16.758],[168.328,-16.641],[168.808,-16.523],[169.289,-16.403],[169.768,-16.283],[170.247,-16.161],[170.726,-16.038]]}},{"type":"Feature","properties":{"boundary_type":"transform","feature_type":"gpml:Transform","polarity":null,"overriding_plate_id":null,"subducting_plate_id":null,"plate_ids":[701,5031],"name":"transform"},"geometry":{"type":"LineString","coordinates":[[-13.857,-18.488],[-13.404,-18.233],[-12.952,-17.977],[-12.501,-17.72],[-12.052,-17.462],[-11.604,-17.203],[-11.157,-16.943],[-10.711,-16.683],[-10.267,-16.421],[-9.824,-16.158],[-9.382,-15.894],[-8.941,-15.63],[-8.501,-15.364],[-8.063,-15.098],[-7.625,-14.831],[-7.189,-14.563],[-6.753,-14.294],[-6.319,-14.025],[-5.886,-13.754],[-5.453,-13.483],[-5.022,-13.212],[-4.592,-12.939],[-4.162,-12.666],[-3.734,-12.392],[-3.351,-12.166],[-2.968,-11.94],[-2.586,-11.713],[-2.204,-11.486],[-1.823,-11.258],[-1.443,-11.03],[-1.064,-10.801],[-0.82,-10.706],[-0.576,-10.612]]}},{"type":"Feature","properties":{"boundary_type":"transform","feature_type":"gpml:Transform","polarity":null,"overriding_plate_id":null,"subducting_plate_id":null,"plate_ids":[5031,5907],"name":"ANS transform"},"geometry":{"type":"LineString","coordinates":[[-0.648,-10.029],[-0.172,-9.858],[0.303,-9.687],[0.777,-9.515],[1.252,-9.343],[1.725,-9.17],[2.198,-8.996],[2.671,-8.822],[3.143,-8.647],[3.615,-8.472],[4.087,-8.296],[4.558,-8.119],[5.028,-7.942],[5.498,-7.765],[5.968,-7.586],[6.438,-7.408]]}},{"type":"Feature","properties":{"boundary_type":"transform","feature_type":"gpml:Transform","polarity":null,"overriding_plate_id":null,"subducting_plate_id":null,"plate_ids":[5031,5907],"name":"ANS transform"},"geometry":{"type":"LineString","coordinates":[[-4.334,4.807],[-3.908,4.58],[-3.482,4.352],[-3.056,4.124],[-2.63,3.897],[-2.16,3.733],[-1.69,3.57],[-1.221,3.406],[-0.751,3.242],[-0.282,3.078],[0.187,2.914],[0.656,2.749],[1.0,2.728],[1.343,2.707]]}},{"type":"Feature","properties":{"boundary_type":"transform","feature_type":"gpml:Transform","polarity":null,"overriding_plate_id":null,"subducting_plate_id":null,"plate_ids":[701,5031],"name":"ANS transform"},"geometry":{"type":"LineString","coordinates":[[18.616,-2.028],[18.149,-2.194],[17.76,-2.453],[17.371,-2.711],[16.956,-2.951],[16.54,-3.191],[16.124,-3.43],[15.708,-3.669],[15.292,-3.908],[14.876,-4.147],[14.459,-4.386],[14.042,-4.624],[13.625,-4.862],[13.207,-5.1]]}},{"type":"Feature","properties":{"boundary_type":"transform","feature_type":"gpml:Transform","polarity":null,"overriding_plate_id":null,"subducting_plate_id":null,"plate_ids":[701,5031],"name":"ES-ANS transform"},"geometry":{"type":"LineString","coordinates":[[6.39,-21.868],[6.797,-21.687],[7.203,-21.505],[7.608,-21.321],[8.07,-21.204],[8.531,-21.086],[8.99,-20.966],[9.45,-20.845],[9.908,-20.723],[10.366,-20.599]]}},{"type":"Feature","properties":{"boundary_type":"transform","feature_type":"gpml:Transform","polarity":null,"overriding_plate_id":null,"subducting_plate_id":null,"plate_ids":[5031,77521],"name":"WES transform"},"geometry":{"type":"LineString","coordinates":[[-4.275,-23.327],[-4.072,-22.996],[-3.761,-22.711],[-3.452,-22.426],[-3.143,-22.14],[-2.795,-21.819],[-2.448,-21.498],[-2.103,-21.175],[-1.798,-21.042],[-1.494,-20.907]]}},{"type":"Feature","properties":{"boundary_type":"transform","feature_type":"gpml:Transform","polarity":null,"overriding_plate_id":null,"subducting_plate_id":null,"plate_ids":[501,580],"name":"SC-Tarim transform"},"geometry":{"type":"LineString","coordinates":[[-119.711,64.268],[-119.081,63.856],[-118.469,63.441],[-117.874,63.023],[-117.296,62.604],[-116.735,62.181],[-116.189,61.757],[-115.658,61.33],[-115.141,60.902],[-114.638,60.471],[-114.148,60.039],[-113.671,59.605],[-113.206,59.169],[-112.752,58.732],[-112.31,58.293],[-111.879,57.852],[-111.459,57.411],[-111.048,56.967],[-110.647,56.523],[-110.255,56.077],[-109.893,55.638],[-109.538,55.198],[-109.191,54.757],[-108.852,54.316],[-108.52,53.873],[-108.195,53.429],[-107.877,52.985],[-107.565,52.539],[-107.259,52.093],[-106.96,51.646],[-106.666,51.198],[-106.378,50.75],[-106.096,50.301],[-105.818,49.851],[-105.546,49.4],[-105.279,48.949],[-105.017,48.498],[-104.759,48.045],[-104.506,47.593],[-104.257,47.139],[-104.012,46.685],[-103.771,46.231],[-103.535,45.776],[-103.302,45.321],[-103.073,44.865],[-102.847,44.408],[-102.625,43.952],[-102.406,43.494],[-102.191,43.037],[-101.979,42.579]]}},{"type":"Feature","properties":{"boundary_type":"transform","feature_type":"gpml:Transform","polarity":null,"overriding_plate_id":null,"subducting_plate_id":null,"plate_ids":[501,98045],"name":"India-South China transform"},"geometry":{"type":"LineString","coordinates":[[87.001,63.839],[87.806,64.191],[88.631,64.538],[89.477,64.881],[90.346,65.219],[91.236,65.551],[92.149,65.878],[93.086,66.2],[94.046,66.516],[95.031,66.826],[96.041,67.13],[97.077,67.427],[98.138,67.717],[99.226,68.0],[100.34,68.276],[101.481,68.544],[102.649,68.804],[103.844,69.056],[105.066,69.3],[106.316,69.535],[107.593,69.76],[108.898,69.976],[110.18,70.215],[111.492,70.444],[112.834,70.664],[114.204,70.873],[115.603,71.072],[117.03,71.261],[118.483,71.438],[119.963,71.604],[121.468,71.759],[122.997,71.901],[124.549,72.032],[126.121,72.149],[127.712,72.255],[129.321,72.347],[130.944,72.426],[132.581,72.491],[134.228,72.543],[135.884,72.582],[137.545,72.606],[139.21,72.617],[140.876,72.614],[142.539,72.598],[144.198,72.567],[145.851,72.523],[147.494,72.465],[149.126,72.394],[150.742,72.367],[152.352,72.327],[153.954,72.274],[155.546,72.208],[157.125,72.129],[158.689,72.038],[160.238,71.934],[161.768,71.818],[163.279,71.69],[164.768,71.551],[166.235,71.399],[167.678,71.237]]}},{"type":"Feature","properties":{"boundary_type":"transform","feature_type":"gpml:Transform","polarity":null,"overriding_plate_id":null,"subducting_plate_id":null,"plate_ids":[501,980421],"name":"Tarim Transform"},"geometry":{"type":"LineString","coordinates":[[-60.393,35.179],[-60.772,34.828],[-61.147,34.475],[-61.52,34.122],[-61.889,33.767],[-62.255,33.411],[-62.618,33.055],[-62.979,32.697],[-63.336,32.338],[-63.691,31.978],[-64.121,31.661],[-64.548,31.343],[-64.972,31.023],[-65.393,30.702],[-65.812,30.38],[-66.227,30.056],[-66.64,29.731],[-67.051,29.405],[-67.458,29.078],[-67.863,28.749]]}},{"type":"Feature","properties":{"boundary_type":"transform","feature_type":"gpml:Transform","polarity":null,"overriding_plate_id":null,"subducting_plate_id":null,"plate_ids":[101,4012],"name":"Taimyr opening"},"geometry":{"type":"LineString","coordinates":[[178.319,37.167],[178.737,37.404],[179.158,37.64],[179.581,37.874],[-179.994,38.106],[-179.565,38.338],[-179.029,38.586],[-178.489,38.831],[-177.945,39.075],[-177.397,39.315],[-176.846,39.553],[-176.29,39.789],[-175.731,40.021]]}},{"type":"Feature","properties":{"boundary_type":"transform","feature_type":"gpml:Transform","polarity":null,"overriding_plate_id":null,"subducting_plate_id":null,"plate_ids":[101,4012],"name":"Taimyr opening"},"geometry":{"type":"LineString","coordinates":[[-174.121,25.949],[-173.672,26.156],[-173.221,26.362],[-172.768,26.567],[-172.313,26.771],[-171.84,27.003],[-171.365,27.233],[-170.888,27.462],[-170.409,27.69],[-169.928,27.915],[-169.445,28.139],[-168.96,28.361],[-168.473,28.582],[-167.984,28.801],[-167.493,29.018],[-167.0,29.233],[-166.505,29.446]]}},{"type":"Feature","properties":{"boundary_type":"transform","feature_type":"gpml:Transform","polarity":null,"overriding_plate_id":null,"subducting_plate_id":null,"plate_ids":[701,77521],"name":"ES transform"},"geometry":{"type":"LineString","coordinates":[[5.12,-28.685],[4.827,-29.085],[4.532,-29.484],[4.235,-29.883]]}},{"type":"Feature","properties":{"boundary_type":"transform","feature_type":"gpml:Transform","polarity":null,"overriding_plate_id":null,"subducting_plate_id":null,"plate_ids":[5031,775211],"name":"ES transform"},"geometry":{"type":"LineString","coordinates":[[4.397,-23.223],[4.064,-23.476],[3.73,-23.729],[3.394,-23.98],[3.058,-24.231]]}},{"type":"Feature","properties":{"boundary_type":"transform","feature_type":"gpml:Transform","polarity":null,"overriding_plate_id":null,"subducting_plate_id":null,"plate_ids":[501,580],"name":"Transform seprating Kunlun and Tarim"},"geometry":{"type":"LineString","coordinates":[[-101.979,42.579],[-101.414,42.82],[-100.845,43.059],[-100.271,43.295],[-99.693,43.528],[-99.11,43.758],[-98.523,43.986],[-97.932,44.21],[-97.336,44.431],[-96.735,44.649],[-96.13,44.863],[-95.521,45.075]]}},{"type":"Feature","properties":{"boundary_type":"transform","feature_type":"gpml:Transform","polarity":null,"overriding_plate_id":null,"subducting_plate_id":null,"plate_ids":[701,775211],"name":"transform"},"geometry":{"type":"LineString","coordinates":[[4.723,-28.196],[5.216,-27.986],[5.548,-27.673],[5.878,-27.359],[6.206,-27.045],[6.533,-26.73]]}},{"type":"Feature","properties":{"boundary_type":"transform","feature_type":"gpml:Transform","polarity":null,"overriding_plate_id":null,"subducting_plate_id":null,"plate_ids":[101,606],"name":"Lhasa transform"},"geometry":{"type":"LineString","coordinates":[[127.61,32.278],[127.735,31.829],[127.859,31.38],[127.982,30.93],[128.104,30.48],[128.224,30.03],[128.344,29.58],[128.462,29.13],[128.58,28.68],[128.696,28.23],[128.812,27.78],[128.76,27.309],[128.709,26.839],[128.658,26.369],[128.607,25.899],[128.557,25.429],[128.598,25.144],[128.639,24.86]]}},{"type":"Feature","properties":{"boundary_type":"transform","feature_type":"gpml:Transform","polarity":null,"overriding_plate_id":null,"subducting_plate_id":null,"plate_ids":[101,606],"name":"Transform"},"geometry":{"type":"LineString","coordinates":[[87.695,28.883],[87.942,28.436],[88.186,27.989],[88.429,27.541],[88.669,27.093],[88.908,26.644],[89.145,26.195],[89.38,25.746],[89.613,25.296],[89.845,24.846],[90.075,24.396]]}},{"type":"Feature","properties":{"boundary_type":"transform","feature_type":"gpml:Transform","polarity":null,"overriding_plate_id":null,"subducting_plate_id":null,"plate_ids":[101,98045],"name":"Taimyr-Sib transform"},"geometry":{"type":"LineString","coordinates":[[173.573,41.449],[174.043,41.772],[174.518,42.093],[174.998,42.411],[175.482,42.728],[175.972,43.043],[176.466,43.355],[176.966,43.666],[177.47,43.974],[177.98,44.28],[178.496,44.584]]}},{"type":"Feature","properties":{"boundary_type":"transform","feature_type":"gpml:Transform","polarity":null,"overriding_plate_id":null,"subducting_plate_id":null,"plate_ids":[101,701],"name":"Siberia transform"},"geometry":{"type":"LineString","coordinates":[[-175.039,2.897],[-175.52,2.808],[-176.002,2.72],[-176.483,2.631],[-176.964,2.542],[-177.445,2.453],[-177.926,2.364],[-178.407,2.275],[-178.888,2.185],[-179.369,2.096],[-179.849,2.006],[179.67,1.916],[179.189,1.826],[178.709,1.735],[178.228,1.645],[177.748,1.554],[177.267,1.464],[176.787,1.373],[176.307,1.282],[175.826,1.191],[175.346,1.1],[174.866,1.009],[174.385,0.918],[173.905,0.827],[173.425,0.736],[172.945,0.644],[172.465,0.553],[171.984,0.462],[171.504,0.37],[171.024,0.279],[170.544,0.187],[170.064,0.096],[169.584,0.004],[169.104,-0.087],[168.623,-0.178],[168.143,-0.27],[167.663,-0.361],[167.183,-0.453],[166.703,-0.544],[166.223,-0.636],[165.743,-0.727],[165.262,-0.818],[164.804,-0.906],[164.345,-0.993],[163.887,-1.081],[163.428,-1.168],[162.969,-1.256],[162.51,-1.343],[162.052,-1.43],[161.593,-1.517],[161.134,-1.604]]}},{"type":"Feature","properties":{"boundary_type":"transform","feature_type":"gpml:Transform","polarity":null,"overriding_plate_id":null,"subducting_plate_id":null,"plate_ids":[98045,980421],"name":"ocean transform"},"geometry":{"type":"LineString","coordinates":[[49.807,72.474],[49.071,72.047],[48.367,71.618],[47.695,71.186],[47.052,70.752],[46.436,70.315],[45.846,69.877],[45.28,69.437],[44.737,68.995],[44.215,68.551],[43.714,68.106],[43.231,67.659],[42.767,67.211],[42.319,66.761],[41.888,66.311],[41.472,65.859],[41.07,65.406],[40.682,64.952],[40.307,64.497],[39.944,64.042],[39.593,63.585],[39.253,63.127],[38.923,62.669],[38.604,62.21],[38.375,61.75],[38.153,61.29],[37.938,60.83],[37.728,60.369],[37.525,59.908],[37.327,59.447],[37.134,58.985],[36.946,58.523],[36.764,58.061],[36.586,57.598],[36.412,57.135],[36.243,56.672],[36.078,56.209],[35.917,55.746],[35.761,55.279],[35.609,54.812],[35.46,54.344],[35.315,53.877],[35.173,53.409],[35.034,52.941],[34.898,52.473],[34.765,52.005],[34.634,51.537],[34.506,51.069],[34.381,50.6],[34.259,50.131],[34.138,49.662],[34.091,49.191],[34.044,48.72],[33.999,48.248],[33.954,47.777],[33.91,47.305],[33.866,46.834],[33.824,46.362],[33.782,45.891],[33.741,45.419],[33.701,44.948],[33.661,44.476],[33.622,44.005],[33.626,43.529],[33.63,43.053],[33.634,42.577],[33.637,42.101],[33.641,41.625],[33.645,41.149],[33.648,40.673],[33.652,40.197],[33.655,39.721],[33.659,39.245],[33.662,38.77],[33.666,38.294],[33.669,37.818],[33.672,37.342],[33.675,36.866],[33.679,36.39],[33.734,35.913],[33.788,35.435],[33.841,34.958],[33.894,34.48],[33.947,34.002],[33.999,33.525],[34.05,33.047],[34.1,32.57],[34.151,32.092],[34.2,31.614],[34.249,31.137],[34.298,30.659],[34.346,30.181],[34.394,29.704],[34.441,29.226],[34.488,28.748],[34.57,28.286],[34.652,27.824],[34.732,27.362],[34.813,26.9],[34.892,26.438],[34.971,25.976],[35.049,25.514],[35.127,25.052],[35.204,24.59],[35.281,24.127],[35.357,23.665],[35.432,23.203],[35.507,22.74],[35.629,22.272],[35.751,21.803],[35.872,21.334],[35.992,20.866],[36.111,20.397],[36.229,19.928],[36.347,19.459],[36.464,18.99]]}},{"type":"Feature","properties":{"boundary_type":"transform","feature_type":"gpml:Transform","polarity":null,"overriding_plate_id":null,"subducting_plate_id":null,"plate_ids":[101,701],"name":"Rodinia-Congo transform"},"geometry":{"type":"LineString","coordinates":[[77.46,-54.026],[77.197,-53.555],[76.941,-53.083],[76.69,-52.61],[76.444,-52.137],[76.203,-51.664],[75.968,-51.19],[75.737,-50.715],[75.511,-50.241],[75.289,-49.765],[75.072,-49.29],[74.859,-48.813],[74.649,-48.337],[74.444,-47.86],[74.318,-47.494],[74.195,-47.128]]}}]}