{"type":"FeatureCollection","meta":{"model":"Cao2024","reconstruction_time_ma":1425.0,"anchor_plate_id":0,"pygplates_version":"1.0.0","tessellate_degrees":0.5,"polarity_convention":"gpml:subductionPolarity. 'Left'/'Right' names the side of the line, in vertex order, on which the OVERRIDING plate lies. Triangles are drawn on that side.","antimeridian":"Lines are NOT split at +/-180 deg. The renderer works in 3D unit vectors where the dateline is not special; splitting would only add spurious breaks. Do not treat this as RFC 7946 GIS-ready 2D data."},"features":[{"type":"Feature","properties":{"boundary_type":"subduction","feature_type":"gpml:SubductionZone","polarity":"Left","overriding_plate_id":101,"subducting_plate_id":911001,"plate_ids":[101,911001],"name":"Indo-Antarctica_SZ"},"geometry":{"type":"LineString","coordinates":[[-152.427,-28.611],[-152.341,-29.062],[-152.254,-29.514],[-152.166,-29.966],[-152.077,-30.417],[-151.987,-30.869],[-151.897,-31.32],[-151.806,-31.771],[-151.928,-32.24],[-152.052,-32.709],[-152.177,-33.178],[-152.303,-33.646],[-152.431,-34.115],[-152.56,-34.583],[-152.69,-35.051],[-152.822,-35.519],[-152.956,-35.987],[-153.091,-36.455],[-153.228,-36.922],[-153.366,-37.39],[-153.507,-37.857],[-153.649,-38.324],[-153.816,-38.797],[-153.986,-39.27],[-154.159,-39.742],[-154.333,-40.214],[-154.51,-40.686],[-154.69,-41.158],[-154.872,-41.629],[-155.057,-42.1],[-155.245,-42.571],[-155.435,-43.041],[-155.629,-43.511],[-155.825,-43.981],[-155.89,-44.475],[-155.955,-44.968],[-156.021,-45.462],[-156.089,-45.956],[-156.157,-46.449],[-156.227,-46.943],[-156.299,-47.436],[-156.371,-47.93],[-156.445,-48.423],[-156.521,-48.916],[-156.598,-49.41],[-156.676,-49.903],[-156.756,-50.396],[-156.838,-50.889],[-156.692,-51.379],[-156.543,-51.867],[-156.39,-52.356],[-156.234,-52.845],[-156.075,-53.333],[-155.912,-53.821],[-155.745,-54.309],[-155.574,-54.797],[-155.399,-55.284],[-155.219,-55.771],[-155.035,-56.258],[-154.846,-56.745],[-154.652,-57.231],[-154.553,-57.343]]}},{"type":"Feature","properties":{"boundary_type":"subduction","feature_type":"gpml:SubductionZone","polarity":"Right","overriding_plate_id":101,"subducting_plate_id":90107,"plate_ids":[101,90107],"name":"NorthChina_SZ"},"geometry":{"type":"LineString","coordinates":[[-90.456,23.918],[-90.109,23.817],[-89.763,23.715],[-89.34,23.441],[-88.919,23.165],[-88.499,22.889],[-88.082,22.611],[-87.666,22.332],[-87.251,22.052],[-86.839,21.771],[-86.427,21.489],[-86.182,21.075],[-85.939,20.661],[-85.696,20.247],[-85.455,19.832],[-85.215,19.417],[-84.977,19.001],[-84.739,18.586],[-84.503,18.17],[-84.268,17.753],[-84.034,17.337],[-84.108,16.878],[-84.182,16.419],[-84.256,15.96],[-84.33,15.501],[-84.403,15.042],[-84.476,14.583],[-84.548,14.124],[-84.62,13.664],[-84.692,13.205],[-84.764,12.746],[-84.835,12.287],[-84.906,11.828],[-84.977,11.368],[-85.176,10.929],[-85.375,10.489],[-85.573,10.05],[-85.77,9.61],[-85.967,9.17],[-86.163,8.73],[-86.359,8.29],[-86.555,7.85],[-86.75,7.409],[-86.945,6.969]]}},{"type":"Feature","properties":{"boundary_type":"subduction","feature_type":"gpml:SubductionZone","polarity":"Right","overriding_plate_id":801,"subducting_plate_id":80101,"plate_ids":[801,80101],"name":"SouthAustralia_SZ"},"geometry":{"type":"LineString","coordinates":[[-109.166,50.008],[-108.889,49.653],[-108.57,49.242],[-108.256,48.831],[-107.947,48.418],[-107.644,48.005],[-107.345,47.591],[-107.051,47.176],[-106.761,46.761],[-106.476,46.345],[-106.416,45.885],[-106.356,45.426],[-106.298,44.966],[-106.241,44.507],[-106.184,44.047],[-106.129,43.588],[-106.074,43.128],[-106.02,42.669],[-105.967,42.209],[-105.914,41.749],[-105.863,41.29],[-105.812,40.83]]}},{"type":"Feature","properties":{"boundary_type":"subduction","feature_type":"gpml:SubductionZone","polarity":"Left","overriding_plate_id":101,"subducting_plate_id":90106,"plate_ids":[101,90106],"name":"Eastern_Laurentia_SZ"},"geometry":{"type":"LineString","coordinates":[[-172.033,54.8],[-172.376,54.378],[-172.711,53.954],[-173.04,53.53],[-173.362,53.104],[-173.678,52.678],[-173.987,52.251],[-174.291,51.823],[-174.589,51.394],[-174.801,50.922],[-175.008,50.449],[-175.211,49.976],[-175.41,49.503],[-175.606,49.029],[-175.797,48.555],[-175.985,48.081],[-176.17,47.606],[-176.352,47.131],[-176.53,46.656],[-176.705,46.181],[-176.877,45.705],[-177.046,45.229],[-177.212,44.753],[-177.33,44.271],[-177.446,43.79],[-177.56,43.308],[-177.672,42.827],[-177.783,42.345],[-177.891,41.863],[-177.999,41.381],[-178.104,40.899],[-178.208,40.417],[-178.311,39.935],[-178.412,39.452],[-178.512,38.97],[-178.61,38.487],[-178.707,38.005],[-178.803,37.522],[-178.898,37.039],[-178.991,36.557],[-178.96,36.088],[-178.928,35.62],[-178.898,35.152],[-178.867,34.684],[-178.837,34.215],[-178.807,33.747],[-178.778,33.279],[-178.749,32.81],[-178.72,32.342],[-178.692,31.874],[-178.663,31.405],[-178.636,30.937],[-178.608,30.469],[-178.58,30.001],[-178.553,29.532],[-178.293,29.153],[-178.034,28.774],[-177.777,28.394],[-177.521,28.014],[-177.268,27.633],[-177.016,27.252]]}},{"type":"Feature","properties":{"boundary_type":"subduction","feature_type":"gpml:SubductionZone","polarity":"Left","overriding_plate_id":101,"subducting_plate_id":201,"plate_ids":[101,201],"name":"Eastern_Laurentia_SZ"},"geometry":{"type":"LineString","coordinates":[[-177.016,27.252],[-176.737,26.825],[-176.459,26.397],[-176.184,25.968],[-175.91,25.539],[-175.567,25.18],[-175.227,24.82],[-174.888,24.459],[-174.552,24.097],[-174.217,23.734],[-173.884,23.371],[-173.553,23.007],[-173.224,22.643],[-172.896,22.277],[-172.57,21.911],[-172.246,21.545],[-171.923,21.178],[-171.571,20.928],[-171.22,20.678],[-170.87,20.427],[-170.521,20.175]]}},{"type":"Feature","properties":{"boundary_type":"subduction","feature_type":"gpml:SubductionZone","polarity":"Left","overriding_plate_id":101,"subducting_plate_id":90107,"plate_ids":[101,90107],"name":"South_NorthAustralia_SZ"},"geometry":{"type":"LineString","coordinates":[[-90.456,23.918],[-90.56,24.247]]}},{"type":"Feature","properties":{"boundary_type":"subduction","feature_type":"gpml:SubductionZone","polarity":"Left","overriding_plate_id":101,"subducting_plate_id":90106,"plate_ids":[101,90106],"name":"South_NorthAustralia_SZ"},"geometry":{"type":"LineString","coordinates":[[-90.56,24.247],[-90.708,24.71],[-90.857,25.173],[-91.007,25.636],[-91.158,26.099],[-91.311,26.561],[-91.465,27.024],[-91.62,27.486],[-91.776,27.948],[-91.934,28.41],[-92.093,28.872],[-92.254,29.334],[-92.416,29.795],[-92.579,30.256],[-92.744,30.717],[-92.911,31.178],[-93.079,31.638]]}},{"type":"Feature","properties":{"boundary_type":"subduction","feature_type":"gpml:SubductionZone","polarity":"Left","overriding_plate_id":101,"subducting_plate_id":80101,"plate_ids":[101,80101],"name":"South_NorthAustralia_SZ"},"geometry":{"type":"LineString","coordinates":[[-93.079,31.638],[-93.235,32.06],[-93.392,32.481],[-93.55,32.903],[-93.71,33.324],[-93.872,33.744],[-94.035,34.165],[-94.409,34.537],[-94.787,34.909],[-95.168,35.279],[-95.552,35.648],[-95.94,36.015],[-96.331,36.382],[-96.727,36.747],[-97.126,37.11],[-97.528,37.473],[-97.935,37.834],[-98.346,38.193],[-98.761,38.552],[-99.18,38.908],[-99.603,39.263],[-100.031,39.617],[-100.462,39.969],[-101.032,40.074],[-101.603,40.175],[-102.176,40.274],[-102.751,40.37],[-103.327,40.463],[-103.905,40.554],[-104.484,40.641],[-105.065,40.726],[-105.647,40.807]]}},{"type":"Feature","properties":{"boundary_type":"subduction","feature_type":"gpml:SubductionZone","polarity":"Left","overriding_plate_id":801,"subducting_plate_id":80101,"plate_ids":[801,80101],"name":"South_NorthAustralia_SZ"},"geometry":{"type":"LineString","coordinates":[[-105.647,40.807],[-105.812,40.83]]}},{"type":"Feature","properties":{"boundary_type":"subduction","feature_type":"gpml:SubductionZone","polarity":"Left","overriding_plate_id":801,"subducting_plate_id":80101,"plate_ids":[801,80101],"name":"NorthwesternMawson_SZ"},"geometry":{"type":"LineString","coordinates":[[-109.166,50.008],[-108.871,50.458],[-108.571,50.907],[-108.264,51.355],[-107.951,51.803],[-107.632,52.25],[-107.274,52.669],[-106.908,53.087],[-106.535,53.504],[-106.155,53.92],[-105.768,54.335],[-105.372,54.748],[-104.968,55.16],[-104.556,55.571],[-104.193,55.976],[-103.822,56.379],[-103.442,56.782],[-103.055,57.183],[-102.66,57.583],[-102.255,57.982],[-102.014,58.458],[-101.766,58.934],[-101.512,59.41],[-101.25,59.885]]}},{"type":"Feature","properties":{"boundary_type":"subduction","feature_type":"gpml:SubductionZone","polarity":"Left","overriding_plate_id":801,"subducting_plate_id":90106,"plate_ids":[801,90106],"name":"NorthwesternMawson_SZ"},"geometry":{"type":"LineString","coordinates":[[-101.25,59.885],[-101.034,60.266],[-100.813,60.646],[-101.078,61.105],[-101.35,61.563],[-101.63,62.02],[-101.92,62.476],[-102.218,62.932],[-102.999,63.239],[-103.797,63.54],[-104.612,63.838],[-105.445,64.13],[-106.295,64.418],[-107.163,64.701],[-108.049,64.978],[-108.953,65.25],[-109.876,65.517],[-110.936,65.673],[-112.009,65.822],[-113.094,65.963],[-114.191,66.097],[-115.298,66.223],[-116.417,66.34],[-117.546,66.45],[-118.684,66.551],[-119.832,66.644],[-120.987,66.729],[-122.151,66.805],[-123.288,66.97],[-124.441,67.126],[-125.608,67.274],[-126.79,67.414],[-127.985,67.545],[-129.193,67.667],[-130.413,67.779],[-131.644,67.883],[-132.886,67.977],[-134.137,68.062],[-135.397,68.138],[-136.665,68.203],[-137.866,68.329],[-139.08,68.445],[-140.307,68.552],[-141.544,68.651],[-142.792,68.74],[-144.049,68.82],[-145.315,68.891],[-146.589,68.952],[-147.869,69.004],[-149.154,69.046],[-150.444,69.078],[-151.738,69.101],[-153.033,69.114],[-154.268,69.026],[-155.493,68.93],[-156.706,68.825],[-157.908,68.711],[-159.097,68.589],[-160.273,68.458],[-161.435,68.32],[-162.583,68.173]]}},{"type":"Feature","properties":{"boundary_type":"ridge","feature_type":"gpml:MidOceanRidge","polarity":null,"overriding_plate_id":null,"subducting_plate_id":null,"plate_ids":[101,801],"name":"SouthAustralia-NorthAustralia ridge"},"geometry":{"type":"LineString","coordinates":[[-124.106,35.208],[-123.574,35.258],[-123.04,35.306],[-122.506,35.352],[-121.972,35.396],[-121.436,35.437],[-120.901,35.476],[-120.364,35.512],[-120.261,35.878],[-120.156,36.244],[-119.618,36.409],[-119.078,36.571],[-118.536,36.731],[-117.991,36.889],[-117.444,37.044],[-116.895,37.196],[-116.984,37.57],[-117.074,37.944],[-116.55,37.908],[-116.027,37.87],[-115.504,37.829],[-114.981,37.786],[-114.819,38.125],[-114.656,38.464],[-114.222,38.307],[-113.791,38.149],[-113.361,37.989],[-113.067,38.376],[-112.769,38.763],[-112.468,39.149],[-111.862,39.316],[-111.253,39.48],[-110.641,39.641],[-110.026,39.798],[-109.409,39.952],[-108.789,40.103],[-108.166,40.251],[-107.54,40.395],[-106.911,40.536],[-106.28,40.673],[-105.647,40.807]]}},{"type":"Feature","properties":{"boundary_type":"ridge","feature_type":"gpml:MidOceanRidge","polarity":null,"overriding_plate_id":null,"subducting_plate_id":null,"plate_ids":[101,801],"name":"Laurentia-SouthAustralia ridge"},"geometry":{"type":"LineString","coordinates":[[-124.106,35.208],[-124.176,35.67],[-124.246,36.133],[-124.318,36.595],[-124.39,37.058],[-124.463,37.52],[-124.537,37.983],[-125.127,38.084],[-125.718,38.183],[-126.311,38.278],[-126.906,38.37],[-127.502,38.46],[-128.099,38.546],[-128.698,38.629],[-129.299,38.71],[-129.9,38.787],[-130.503,38.861],[-131.107,38.932],[-131.713,39.0],[-132.319,39.065],[-132.927,39.126],[-133.535,39.185],[-134.145,39.24],[-134.755,39.292],[-135.367,39.341],[-135.394,39.805],[-135.421,40.27],[-135.449,40.734],[-135.476,41.198],[-135.505,41.663],[-135.534,42.127],[-135.563,42.591],[-136.192,42.617],[-136.821,42.639],[-137.451,42.658],[-138.081,42.674],[-138.711,42.686],[-139.342,42.694],[-139.973,42.699],[-140.603,42.701],[-141.234,42.699],[-141.865,42.694],[-141.837,43.168],[-141.808,43.642],[-141.778,44.116],[-141.749,44.59],[-141.719,45.064],[-141.688,45.538],[-141.657,46.011],[-141.625,46.485],[-141.593,46.959],[-141.56,47.433],[-141.526,47.907],[-141.492,48.381],[-141.457,48.855],[-141.422,49.328],[-142.122,49.509],[-142.827,49.684],[-143.537,49.856],[-144.252,50.023],[-144.971,50.186],[-145.696,50.344],[-146.426,50.498],[-147.16,50.647],[-147.899,50.791],[-148.642,50.931],[-149.39,51.066],[-150.142,51.197],[-150.036,51.655],[-149.928,52.114],[-149.817,52.572],[-149.704,53.031],[-149.589,53.489],[-149.471,53.947],[-149.351,54.405],[-149.227,54.863],[-149.101,55.321],[-149.956,55.438],[-150.816,55.55],[-151.681,55.656],[-152.551,55.755],[-153.424,55.849],[-154.302,55.936],[-155.184,56.017],[-156.069,56.092],[-156.957,56.16],[-157.848,56.222],[-158.743,56.278],[-158.631,56.727],[-158.518,57.177],[-158.401,57.626],[-158.281,58.076],[-158.158,58.525],[-158.033,58.974],[-158.873,59.158],[-159.722,59.337],[-160.581,59.509],[-161.448,59.676],[-162.323,59.838],[-163.207,59.993],[-164.099,60.142],[-164.999,60.286],[-165.906,60.423],[-166.822,60.554],[-167.744,60.679],[-168.674,60.797]]}},{"type":"Feature","properties":{"boundary_type":"subduction","feature_type":"gpml:SubductionZone","polarity":"Right","overriding_plate_id":101,"subducting_plate_id":90107,"plate_ids":[101,90107],"name":"SaoFrancisco_SZ"},"geometry":{"type":"LineString","coordinates":[[-70.126,-7.606],[-69.862,-7.989],[-69.597,-8.371],[-69.331,-8.754],[-69.066,-9.136],[-68.799,-9.519],[-68.532,-9.901],[-68.265,-10.283],[-67.996,-10.664],[-67.752,-11.1],[-67.508,-11.536],[-67.263,-11.971],[-67.017,-12.407],[-66.77,-12.842],[-66.522,-13.276],[-66.273,-13.711],[-66.024,-14.145],[-65.773,-14.579],[-65.522,-15.013],[-65.269,-15.447],[-65.016,-15.88],[-64.761,-16.313],[-64.505,-16.745],[-64.248,-17.178],[-63.99,-17.61],[-63.73,-18.041],[-63.47,-18.473],[-63.208,-18.903],[-62.944,-19.334],[-62.68,-19.764],[-62.413,-20.194],[-62.146,-20.623],[-61.877,-21.052],[-61.545,-21.428],[-61.212,-21.803],[-60.877,-22.178],[-60.54,-22.552],[-60.201,-22.925],[-59.861,-23.297],[-59.518,-23.669],[-59.174,-24.039],[-58.828,-24.41],[-58.479,-24.779],[-58.129,-25.147],[-57.776,-25.515],[-57.421,-25.882],[-57.064,-26.248],[-56.705,-26.613],[-56.344,-26.977],[-55.98,-27.34],[-55.613,-27.702],[-55.247,-28.053],[-54.879,-28.403],[-54.508,-28.752],[-54.135,-29.1],[-53.759,-29.447],[-53.38,-29.793],[-52.999,-30.138],[-52.615,-30.481],[-52.229,-30.824],[-51.839,-31.165],[-51.447,-31.505],[-51.052,-31.844],[-50.654,-32.182],[-50.254,-32.518],[-49.85,-32.854],[-49.443,-33.188],[-49.033,-33.52],[-48.694,-33.922],[-48.352,-34.324],[-48.006,-34.724],[-47.658,-35.123],[-47.305,-35.522],[-46.95,-35.919],[-46.59,-36.315],[-46.227,-36.71],[-45.861,-37.104],[-45.49,-37.497],[-45.115,-37.889],[-44.737,-38.28],[-44.354,-38.669],[-43.968,-39.057],[-43.577,-39.444],[-43.181,-39.829],[-42.781,-40.213],[-42.377,-40.596],[-41.968,-40.977],[-41.554,-41.357],[-41.135,-41.735],[-40.712,-42.112],[-40.283,-42.487],[-39.849,-42.861],[-39.617,-43.33],[-39.381,-43.799],[-39.141,-44.267],[-38.897,-44.735],[-38.65,-45.202],[-38.398,-45.669],[-38.142,-46.135],[-37.882,-46.6],[-37.617,-47.065],[-37.347,-47.53],[-37.073,-47.993],[-36.794,-48.456],[-36.509,-48.919],[-36.22,-49.38],[-35.924,-49.841],[-35.623,-50.301],[-35.317,-50.761],[-35.004,-51.219],[-34.685,-51.677],[-34.359,-52.133],[-34.027,-52.589],[-33.687,-53.044],[-33.341,-53.498],[-32.987,-53.951],[-32.976,-54.451],[-32.965,-54.951],[-32.953,-55.45],[-32.941,-55.95],[-32.929,-56.45],[-32.917,-56.95],[-32.904,-57.449],[-32.891,-57.949],[-32.878,-58.449],[-32.864,-58.948],[-32.85,-59.448],[-32.835,-59.948],[-32.82,-60.448],[-32.804,-60.947],[-32.788,-61.447],[-32.772,-61.947],[-32.755,-62.447],[-32.737,-62.946],[-32.718,-63.446],[-32.798,-63.91],[-32.88,-64.373],[-32.964,-64.837],[-33.052,-65.301],[-33.143,-65.764],[-33.237,-66.228],[-33.335,-66.691],[-33.436,-67.155],[-33.542,-67.618]]}},{"type":"Feature","properties":{"boundary_type":"subduction","feature_type":"gpml:SubductionZone","polarity":"Right","overriding_plate_id":101,"subducting_plate_id":90105,"plate_ids":[101,90105],"name":"SaoFrancisco_SZ"},"geometry":{"type":"LineString","coordinates":[[-33.542,-67.618],[-33.652,-68.082],[-33.766,-68.546],[-33.885,-69.01],[-34.009,-69.474]]}},{"type":"Feature","properties":{"boundary_type":"subduction","feature_type":"gpml:SubductionZone","polarity":"Right","overriding_plate_id":101,"subducting_plate_id":90105,"plate_ids":[101,90105],"name":""},"geometry":{"type":"LineString","coordinates":[[-34.009,-69.474],[-34.384,-69.932],[-34.774,-70.389],[-35.183,-70.845],[-35.611,-71.3],[-36.059,-71.754],[-36.53,-72.207],[-37.024,-72.658],[-37.543,-73.109],[-38.091,-73.558],[-38.668,-74.006],[-39.277,-74.452],[-39.922,-74.896],[-41.046,-75.302],[-42.233,-75.702],[-43.486,-76.096],[-44.81,-76.483],[-46.209,-76.863],[-47.69,-77.235],[-49.257,-77.598],[-50.916,-77.952],[-52.672,-78.295],[-54.531,-78.627],[-56.498,-78.947],[-58.578,-79.253],[-60.775,-79.544],[-63.094,-79.82],[-65.536,-80.078],[-68.102,-80.318],[-70.793,-80.538],[-73.603,-80.737],[-76.528,-80.912],[-79.56,-81.064],[-82.686,-81.19],[-85.893,-81.289],[-89.163,-81.361],[-92.477,-81.405],[-95.814,-81.421],[-99.151,-81.407],[-102.468,-81.365],[-105.742,-81.295],[-108.954,-81.198],[-112.086,-81.074],[-115.125,-80.924],[-118.059,-80.75],[-120.878,-80.553],[-123.577,-80.335],[-126.153,-80.097],[-128.604,-79.839],[-130.931,-79.565],[-133.138,-79.275],[-135.226,-78.969],[-137.201,-78.651],[-139.068,-78.32],[-140.831,-77.977],[-142.497,-77.624],[-143.445,-77.171],[-144.329,-76.715],[-145.156,-76.256],[-145.93,-75.794],[-146.656,-75.33],[-147.339,-74.864],[-147.981,-74.395],[-148.587,-73.926],[-149.159,-73.454],[-149.701,-72.981],[-150.214,-72.507],[-150.7,-72.031],[-151.163,-71.554],[-151.602,-71.076],[-152.021,-70.598],[-152.421,-70.118],[-152.802,-69.637],[-153.166,-69.156],[-153.515,-68.674],[-153.849,-68.191],[-154.169,-67.708],[-154.477,-67.223],[-154.482,-66.737],[-154.487,-66.251],[-154.492,-65.765],[-154.496,-65.279],[-154.501,-64.793],[-154.505,-64.307],[-154.509,-63.821],[-154.513,-63.335],[-154.517,-62.849],[-154.521,-62.362],[-154.524,-61.876],[-154.528,-61.39],[-154.531,-60.904],[-154.535,-60.418],[-154.538,-59.932],[-154.541,-59.446],[-154.544,-58.96],[-154.547,-58.474],[-154.55,-57.988],[-154.552,-57.501]]}},{"type":"Feature","properties":{"boundary_type":"subduction","feature_type":"gpml:SubductionZone","polarity":"Right","overriding_plate_id":101,"subducting_plate_id":911001,"plate_ids":[101,911001],"name":""},"geometry":{"type":"LineString","coordinates":[[-154.552,-57.501],[-154.553,-57.343]]}},{"type":"Feature","properties":{"boundary_type":"subduction","feature_type":"gpml:SubductionZone","polarity":"Left","overriding_plate_id":201,"subducting_plate_id":90106,"plate_ids":[201,90106],"name":""},"geometry":{"type":"LineString","coordinates":[[-177.016,27.252],[-177.513,27.474],[-178.012,27.694],[-178.512,27.913],[-179.015,28.129],[-179.52,28.344],[179.974,28.557],[179.465,28.768],[178.954,28.977],[178.441,29.185],[177.926,29.39],[177.409,29.593],[176.89,29.794],[176.369,29.994],[175.846,30.191],[175.32,30.386],[174.756,30.499],[174.191,30.609],[173.625,30.717],[173.057,30.822],[172.488,30.925],[171.918,31.025],[171.346,31.123],[170.773,31.219],[170.2,31.311],[169.625,31.402],[169.049,31.489],[168.472,31.575],[167.894,31.657],[167.315,31.737],[166.735,31.814],[166.154,31.889],[165.572,31.961],[164.989,32.03],[164.405,32.097],[163.821,32.161],[163.235,32.222],[162.649,32.281],[162.062,32.337],[161.475,32.39],[160.886,32.44],[160.298,32.488],[159.708,32.533],[159.118,32.575],[158.527,32.615],[157.936,32.651],[157.345,32.685],[156.753,32.716],[156.16,32.745],[155.582,32.74],[155.003,32.733],[154.424,32.723],[153.846,32.71],[153.267,32.695],[152.689,32.677],[152.111,32.656],[151.534,32.633],[150.956,32.607],[150.379,32.579],[149.803,32.547],[149.227,32.514],[148.651,32.477],[148.076,32.438],[147.501,32.396],[146.927,32.352],[146.353,32.305],[145.78,32.256],[145.208,32.204],[144.636,32.149],[144.065,32.092],[143.495,32.032],[142.926,31.97],[142.357,31.905],[141.789,31.838],[141.222,31.768],[140.656,31.696],[140.091,31.621],[139.527,31.543],[139.02,31.301],[138.515,31.058],[138.014,30.812],[137.515,30.564],[137.018,30.314],[136.524,30.063],[136.032,29.809],[135.543,29.554],[135.057,29.297],[134.573,29.039],[134.091,28.778],[133.612,28.516],[133.135,28.252],[132.66,27.987],[132.188,27.72],[131.718,27.451],[131.251,27.181],[130.785,26.909],[130.322,26.636],[129.861,26.361],[129.403,26.084],[128.946,25.807],[128.492,25.528]]}},{"type":"Feature","properties":{"boundary_type":"subduction","feature_type":"gpml:SubductionZone","polarity":"Left","overriding_plate_id":201,"subducting_plate_id":90105,"plate_ids":[201,90105],"name":""},"geometry":{"type":"LineString","coordinates":[[128.492,25.528],[128.058,25.258],[127.625,24.988],[127.195,24.716],[126.766,24.443],[126.34,24.169],[125.915,23.893],[125.492,23.617],[125.234,23.189],[124.977,22.76],[124.722,22.331],[124.468,21.902],[124.216,21.472],[123.965,21.042],[123.716,20.611],[123.468,20.181],[123.222,19.749],[122.977,19.318],[122.733,18.886],[122.49,18.454],[122.249,18.021],[122.009,17.589],[121.77,17.156],[121.532,16.722],[121.295,16.289],[121.06,15.855],[120.825,15.421],[120.591,14.986],[120.358,14.552],[120.126,14.117],[119.895,13.682],[119.665,13.247],[119.436,12.811],[119.207,12.375],[118.98,11.94],[118.753,11.504],[118.526,11.067],[118.301,10.631],[118.139,10.196],[117.978,9.76],[117.817,9.325],[117.657,8.889]]}},{"type":"Feature","properties":{"boundary_type":"subduction","feature_type":"gpml:SubductionZone","polarity":"Right","overriding_plate_id":101,"subducting_plate_id":90107,"plate_ids":[101,90107],"name":"Cathaysia_SZ"},"geometry":{"type":"LineString","coordinates":[[-86.945,6.969],[-86.669,6.585],[-86.394,6.201],[-86.119,5.817],[-85.844,5.433],[-85.57,5.049],[-85.296,4.665],[-85.023,4.28],[-84.749,3.896],[-84.476,3.511],[-84.203,3.126],[-83.931,2.741],[-83.658,2.357],[-83.386,1.972],[-83.114,1.587],[-82.842,1.202],[-82.438,0.908],[-82.034,0.613],[-81.631,0.319],[-81.227,0.025],[-80.824,-0.269],[-80.42,-0.563],[-80.016,-0.857],[-79.612,-1.152],[-79.209,-1.446],[-78.805,-1.74],[-78.401,-2.034],[-77.996,-2.327],[-77.592,-2.621],[-77.188,-2.915],[-76.783,-3.208],[-76.371,-3.488],[-75.959,-3.769],[-75.546,-4.049],[-75.133,-4.329],[-74.72,-4.608],[-74.307,-4.888],[-73.893,-5.167],[-73.479,-5.446],[-73.065,-5.724],[-72.65,-6.002],[-72.235,-6.28],[-71.819,-6.558],[-71.403,-6.835],[-70.986,-7.112],[-70.569,-7.389],[-70.126,-7.606]]}},{"type":"Feature","properties":{"boundary_type":"subduction","feature_type":"gpml:SubductionZone","polarity":"Right","overriding_plate_id":101,"subducting_plate_id":90106,"plate_ids":[101,90106],"name":""},"geometry":{"type":"LineString","coordinates":[[-172.033,54.8],[-171.81,55.256],[-171.582,55.711],[-171.348,56.165],[-171.109,56.62],[-170.863,57.073],[-170.612,57.526],[-170.354,57.979],[-170.09,58.431],[-169.819,58.883],[-169.541,59.334],[-169.331,59.7],[-169.117,60.066],[-168.898,60.432],[-168.674,60.797]]}},{"type":"Feature","properties":{"boundary_type":"subduction","feature_type":"gpml:SubductionZone","polarity":"Right","overriding_plate_id":801,"subducting_plate_id":90106,"plate_ids":[801,90106],"name":""},"geometry":{"type":"LineString","coordinates":[[-168.674,60.797],[-168.379,61.264],[-168.075,61.731],[-167.762,62.197],[-167.439,62.663],[-167.106,63.127],[-166.762,63.591],[-166.407,64.054],[-166.04,64.516],[-165.66,64.977],[-165.267,65.437],[-164.859,65.896],[-164.437,66.354],[-163.999,66.811],[-163.545,67.266],[-163.073,67.721],[-162.583,68.173]]}},{"type":"Feature","properties":{"boundary_type":"ridge","feature_type":"gpml:MidOceanRidge","polarity":null,"overriding_plate_id":null,"subducting_plate_id":null,"plate_ids":[201,911001],"name":""},"geometry":{"type":"LineString","coordinates":[[-156.167,-19.809],[-156.56,-20.103],[-156.954,-20.396],[-157.35,-20.688],[-157.748,-20.98],[-158.147,-21.27],[-158.547,-21.56],[-158.949,-21.848],[-159.353,-22.136],[-159.758,-22.423],[-160.165,-22.708],[-160.574,-22.993],[-160.984,-23.276],[-161.397,-23.559],[-161.06,-23.906],[-160.722,-24.253],[-160.382,-24.6],[-160.04,-24.945],[-159.696,-25.29],[-159.35,-25.634],[-159.002,-25.977],[-158.653,-26.319],[-158.301,-26.66],[-157.947,-27.001],[-157.59,-27.341],[-157.232,-27.679],[-157.634,-28.029],[-158.039,-28.379],[-158.446,-28.726],[-158.856,-29.073],[-159.269,-29.418],[-159.684,-29.762],[-160.103,-30.105],[-160.524,-30.447],[-160.948,-30.787],[-161.376,-31.125],[-161.806,-31.463],[-162.239,-31.798],[-162.676,-32.133],[-163.116,-32.466],[-163.559,-32.797],[-164.005,-33.127],[-164.455,-33.455],[-164.908,-33.781],[-165.365,-34.106],[-165.825,-34.429],[-166.288,-34.75],[-166.756,-35.07],[-167.227,-35.388],[-167.701,-35.704],[-168.18,-36.018],[-168.662,-36.33],[-169.148,-36.64],[-169.638,-36.948],[-170.132,-37.255],[-170.63,-37.559],[-170.928,-37.23],[-171.224,-36.9],[-171.517,-36.57],[-171.808,-36.239],[-172.096,-35.907],[-172.603,-36.186],[-173.112,-36.463],[-173.626,-36.737],[-174.143,-37.01],[-174.664,-37.28],[-175.189,-37.548],[-175.717,-37.814],[-176.25,-38.077],[-176.786,-38.338],[-177.326,-38.596],[-177.87,-38.852],[-178.417,-39.106],[-178.969,-39.356],[-179.525,-39.604],[179.916,-39.85],[179.352,-40.093],[178.784,-40.333],[178.213,-40.57],[177.637,-40.804],[177.057,-41.036],[176.474,-41.264],[175.886,-41.49],[175.294,-41.712],[174.698,-41.932],[174.098,-42.148],[173.493,-42.362],[172.885,-42.572],[172.273,-42.779],[171.656,-42.982],[171.406,-42.542],[171.16,-42.102],[170.916,-41.661],[170.677,-41.219],[170.44,-40.777],[170.206,-40.334],[169.976,-39.891],[169.749,-39.448],[169.524,-39.004],[169.302,-38.56],[169.083,-38.115],[168.867,-37.67],[168.653,-37.224],[168.072,-37.406],[167.488,-37.584],[166.902,-37.76],[166.312,-37.933],[165.72,-38.102],[165.125,-38.269],[164.528,-38.433],[163.928,-38.594],[163.325,-38.751],[162.719,-38.906],[162.111,-39.057],[161.501,-39.205],[160.887,-39.35],[160.272,-39.492],[159.653,-39.631],[159.033,-39.766],[158.41,-39.898],[157.784,-40.026],[157.156,-40.152],[156.526,-40.273],[155.894,-40.392],[155.259,-40.507],[154.623,-40.618],[153.984,-40.726],[153.343,-40.83],[152.7,-40.931],[152.055,-41.029],[151.409,-41.122],[150.76,-41.212],[150.11,-41.299],[149.458,-41.381],[148.805,-41.46],[148.15,-41.536],[147.493,-41.607],[146.835,-41.675]]}},{"type":"Feature","properties":{"boundary_type":"subduction","feature_type":"gpml:SubductionZone","polarity":"Right","overriding_plate_id":911001,"subducting_plate_id":90105,"plate_ids":[90105,911001],"name":""},"geometry":{"type":"LineString","coordinates":[[-154.552,-57.501],[-155.456,-57.522],[-156.36,-57.536],[-157.265,-57.544],[-158.17,-57.545],[-159.075,-57.54],[-159.979,-57.528],[-160.883,-57.51],[-161.785,-57.486],[-162.687,-57.455],[-163.586,-57.417],[-164.484,-57.373],[-165.379,-57.323],[-166.272,-57.267],[-167.162,-57.204],[-168.048,-57.135],[-168.932,-57.059],[-169.811,-56.978],[-170.687,-56.89],[-171.558,-56.796],[-172.425,-56.696],[-173.287,-56.591],[-174.144,-56.479],[-174.996,-56.361],[-175.842,-56.238],[-176.683,-56.109],[-177.518,-55.974],[-178.348,-55.834],[-179.18,-55.683],[179.995,-55.528],[179.176,-55.366],[178.363,-55.2],[177.558,-55.028],[176.76,-54.85],[175.968,-54.668],[175.184,-54.48],[174.407,-54.287],[173.638,-54.09],[172.876,-53.887],[172.121,-53.68],[171.374,-53.468],[170.634,-53.252],[169.902,-53.031],[169.177,-52.805],[168.46,-52.575],[167.751,-52.341],[167.049,-52.103],[166.354,-51.86],[165.667,-51.614],[164.988,-51.363],[164.316,-51.109],[163.651,-50.85],[162.994,-50.588],[162.344,-50.323],[161.701,-50.054],[161.066,-49.781],[160.437,-49.505],[159.816,-49.225],[159.202,-48.943],[158.595,-48.656],[157.995,-48.367],[157.401,-48.075],[156.814,-47.78],[156.234,-47.482],[155.661,-47.18],[155.094,-46.876],[154.533,-46.57],[153.979,-46.26],[153.431,-45.948],[152.889,-45.634],[152.353,-45.316],[151.823,-44.997],[151.299,-44.675],[150.781,-44.35],[150.269,-44.023],[149.762,-43.694],[149.261,-43.363],[148.765,-43.029],[148.275,-42.694],[147.79,-42.356],[147.31,-42.017],[146.835,-41.675]]}},{"type":"Feature","properties":{"boundary_type":"subduction","feature_type":"gpml:SubductionZone","polarity":"Right","overriding_plate_id":201,"subducting_plate_id":90105,"plate_ids":[201,90105],"name":""},"geometry":{"type":"LineString","coordinates":[[146.835,-41.675],[146.358,-41.326],[145.887,-40.975],[145.42,-40.623],[144.958,-40.268],[144.501,-39.912],[144.048,-39.553],[143.601,-39.193],[143.157,-38.832],[142.719,-38.468],[142.284,-38.104],[141.855,-37.737],[141.429,-37.369],[141.007,-36.999],[140.59,-36.628],[140.177,-36.256],[139.767,-35.882],[139.361,-35.507],[138.96,-35.13],[138.561,-34.752],[138.167,-34.373],[137.776,-33.993],[137.389,-33.611],[137.005,-33.228],[136.624,-32.844],[136.246,-32.459],[135.872,-32.073],[135.501,-31.685],[135.133,-31.297],[134.768,-30.907],[134.406,-30.517],[134.047,-30.125],[133.691,-29.733],[133.338,-29.339],[132.987,-28.945],[132.639,-28.55],[132.294,-28.154],[131.951,-27.757],[131.61,-27.359],[131.272,-26.96],[130.937,-26.561],[130.604,-26.16],[130.273,-25.759],[129.944,-25.358],[129.617,-24.955],[129.293,-24.552],[128.971,-24.148],[128.65,-23.744],[128.332,-23.338],[128.016,-22.933],[127.701,-22.526],[127.388,-22.119],[127.078,-21.712],[126.769,-21.303],[126.461,-20.895],[126.155,-20.485],[125.851,-20.075],[125.549,-19.665],[125.248,-19.254],[124.949,-18.843],[124.651,-18.431],[124.354,-18.019],[124.059,-17.606],[123.765,-17.193],[123.473,-16.779],[123.181,-16.365],[122.891,-15.95],[122.603,-15.536],[122.315,-15.12],[122.028,-14.705],[121.743,-14.289],[121.459,-13.873],[121.175,-13.456],[120.893,-13.039],[120.611,-12.622],[120.331,-12.205],[120.051,-11.787],[119.773,-11.369],[119.495,-10.951],[119.217,-10.532],[118.941,-10.113],[118.665,-9.694],[118.39,-9.275]]}},{"type":"Feature","properties":{"boundary_type":"subduction","feature_type":"gpml:SubductionZone","polarity":"Left","overriding_plate_id":101,"subducting_plate_id":201,"plate_ids":[101,201],"name":"Baltica_SZ"},"geometry":{"type":"LineString","coordinates":[[-165.604,2.847],[-165.331,2.455],[-165.057,2.063],[-164.784,1.672],[-164.511,1.28],[-164.238,0.888],[-163.965,0.496],[-163.692,0.104],[-163.419,-0.287],[-163.146,-0.679],[-162.873,-1.071],[-162.6,-1.463],[-162.327,-1.855],[-162.053,-2.246],[-161.78,-2.638],[-161.506,-3.03],[-161.232,-3.421],[-160.957,-3.799],[-160.681,-4.177],[-160.405,-4.555],[-160.129,-4.933],[-159.853,-5.31],[-159.576,-5.688],[-159.299,-6.065],[-159.021,-6.442],[-158.743,-6.819],[-158.465,-7.196],[-158.293,-7.629],[-158.122,-8.062],[-157.95,-8.495],[-157.778,-8.928],[-157.605,-9.361],[-157.432,-9.794],[-157.259,-10.226],[-157.085,-10.659],[-156.91,-11.091],[-156.897,-11.55],[-156.883,-12.008],[-156.869,-12.467],[-156.855,-12.926],[-156.841,-13.384],[-156.826,-13.843],[-156.812,-14.302],[-156.798,-14.76],[-156.784,-15.219],[-156.769,-15.677],[-156.755,-16.136],[-156.74,-16.595],[-156.66,-17.054],[-156.579,-17.513],[-156.497,-17.972],[-156.416,-18.431],[-156.333,-18.891],[-156.25,-19.35],[-156.167,-19.809]]}},{"type":"Feature","properties":{"boundary_type":"subduction","feature_type":"gpml:SubductionZone","polarity":"Left","overriding_plate_id":101,"subducting_plate_id":911001,"plate_ids":[101,911001],"name":"Baltica_SZ"},"geometry":{"type":"LineString","coordinates":[[-156.167,-19.809],[-156.085,-20.261],[-156.002,-20.713],[-155.918,-21.165],[-155.835,-21.617],[-155.75,-22.069],[-155.588,-22.5],[-155.425,-22.93],[-155.261,-23.361],[-155.096,-23.791],[-154.93,-24.221],[-154.763,-24.651],[-154.594,-25.08],[-154.424,-25.51],[-154.254,-25.939],[-154.081,-26.368],[-153.81,-26.743],[-153.537,-27.118],[-153.263,-27.492],[-152.986,-27.865],[-152.707,-28.238],[-152.427,-28.611]]}},{"type":"Feature","properties":{"boundary_type":"subduction","feature_type":"gpml:SubductionZone","polarity":"Left","overriding_plate_id":101,"subducting_plate_id":201,"plate_ids":[101,201],"name":"Eastern_Laurentia_SZ"},"geometry":{"type":"LineString","coordinates":[[-170.521,20.175],[-170.214,19.785],[-169.909,19.395],[-169.606,19.005],[-169.304,18.613],[-169.003,18.222],[-168.704,17.83],[-168.406,17.437],[-168.109,17.044],[-167.813,16.651],[-167.519,16.257],[-167.385,15.802],[-167.251,15.348],[-167.118,14.893],[-166.986,14.438],[-166.854,13.983],[-166.723,13.528],[-166.592,13.073],[-166.462,12.617],[-166.332,12.162],[-166.202,11.707],[-166.073,11.251],[-165.944,10.796],[-165.816,10.34],[-165.815,9.873],[-165.815,9.406],[-165.814,8.938],[-165.813,8.471],[-165.812,8.003],[-165.811,7.536],[-165.81,7.068],[-165.81,6.601],[-165.809,6.134],[-165.808,5.666],[-165.807,5.199],[-165.806,4.731],[-165.756,4.26],[-165.705,3.789],[-165.655,3.318],[-165.604,2.847]]}},{"type":"Feature","properties":{"boundary_type":"subduction","feature_type":"gpml:SubductionZone","polarity":"Right","overriding_plate_id":80101,"subducting_plate_id":90106,"plate_ids":[80101,90106],"name":""},"geometry":{"type":"LineString","coordinates":[[-90.718,63.966],[-90.247,63.891],[-89.285,63.72],[-88.335,63.543],[-87.396,63.359],[-86.47,63.17],[-85.556,62.974],[-84.654,62.772],[-83.764,62.565],[-82.888,62.352],[-82.069,62.048],[-81.266,61.739],[-80.48,61.425],[-79.709,61.106],[-78.954,60.784],[-78.214,60.457],[-77.488,60.126],[-76.778,59.792],[-76.081,59.453],[-75.779,59.03],[-75.485,58.606],[-75.197,58.181],[-74.917,57.755],[-74.643,57.329],[-74.375,56.903],[-74.113,56.476],[-73.857,56.048],[-73.607,55.62],[-73.362,55.191],[-73.233,54.706],[-73.108,54.221],[-72.985,53.735],[-72.865,53.25],[-72.748,52.764],[-72.633,52.279],[-72.521,51.793],[-72.411,51.307],[-72.304,50.821],[-72.198,50.335],[-72.253,49.841],[-72.307,49.347],[-72.36,48.853],[-72.412,48.359],[-72.462,47.865],[-72.512,47.371],[-72.561,46.876],[-72.609,46.382],[-72.839,45.926],[-73.065,45.47],[-73.287,45.013],[-73.506,44.556],[-73.722,44.098],[-73.934,43.64],[-74.143,43.181],[-74.349,42.722],[-74.551,42.263],[-74.803,41.916],[-75.052,41.568],[-75.299,41.219]]}},{"type":"Feature","properties":{"boundary_type":"transform","feature_type":"gpml:Transform","polarity":null,"overriding_plate_id":null,"subducting_plate_id":null,"plate_ids":[80101,90106],"name":""},"geometry":{"type":"LineString","coordinates":[[-101.25,59.885],[-100.536,60.225],[-99.808,60.562],[-99.064,60.895],[-98.305,61.224],[-97.53,61.548],[-96.738,61.867],[-95.93,62.183],[-95.106,62.493],[-94.263,62.798],[-93.404,63.098],[-92.527,63.393],[-91.631,63.683],[-90.718,63.966]]}},{"type":"Feature","properties":{"boundary_type":"transform","feature_type":"gpml:Transform","polarity":null,"overriding_plate_id":null,"subducting_plate_id":null,"plate_ids":[80101,90106],"name":""},"geometry":{"type":"LineString","coordinates":[[-93.079,31.638],[-92.63,31.945],[-92.177,32.251],[-91.721,32.555],[-91.262,32.857],[-90.8,33.158],[-90.334,33.456],[-89.866,33.754],[-89.394,34.049],[-88.919,34.342],[-88.441,34.634],[-87.959,34.924],[-87.474,35.212],[-86.985,35.497],[-86.493,35.781],[-85.998,36.063],[-85.499,36.343],[-84.996,36.621],[-84.49,36.896],[-83.98,37.17],[-83.466,37.441],[-82.949,37.71],[-82.428,37.977],[-81.903,38.241],[-81.374,38.503],[-80.841,38.763],[-80.305,39.02],[-79.765,39.275],[-79.22,39.527],[-78.672,39.777],[-78.12,40.024],[-77.564,40.269],[-77.003,40.51],[-76.439,40.749],[-75.871,40.986],[-75.299,41.219]]}},{"type":"Feature","properties":{"boundary_type":"subduction","feature_type":"gpml:SubductionZone","polarity":"Left","overriding_plate_id":201,"subducting_plate_id":90105,"plate_ids":[201,90105],"name":""},"geometry":{"type":"LineString","coordinates":[[117.657,8.889],[117.66,8.39],[117.663,7.891],[117.666,7.391],[117.67,6.892],[117.673,6.393],[117.676,5.894],[117.679,5.394],[117.683,4.895],[117.686,4.396],[117.689,3.896],[117.692,3.397],[117.695,2.898],[117.699,2.398],[117.702,1.899],[117.705,1.4],[117.708,0.9],[117.711,0.401],[117.715,-0.098],[117.718,-0.598],[117.721,-1.097],[117.76,-1.578],[117.799,-2.059],[117.838,-2.54],[117.877,-3.021],[117.916,-3.502],[117.955,-3.983],[117.995,-4.464],[118.034,-4.945],[118.073,-5.427],[118.112,-5.908],[118.152,-6.389],[118.191,-6.87],[118.231,-7.351],[118.271,-7.832],[118.31,-8.313],[118.35,-8.794],[118.39,-9.275]]}},{"type":"Feature","properties":{"boundary_type":"ridge","feature_type":"gpml:MidOceanRidge","polarity":null,"overriding_plate_id":null,"subducting_plate_id":null,"plate_ids":[90105,90107],"name":""},"geometry":{"type":"LineString","coordinates":[[36.049,20.103],[35.818,19.658],[35.588,19.214],[35.36,18.769],[35.133,18.324],[34.908,17.879],[34.683,17.433],[34.459,16.987],[34.237,16.541],[34.015,16.094],[33.795,15.648],[33.575,15.201],[33.357,14.754],[33.139,14.307],[32.922,13.859],[32.706,13.412],[32.491,12.964],[32.277,12.516],[32.063,12.068],[31.85,11.619],[31.638,11.171],[31.426,10.722],[31.215,10.273],[31.005,9.825],[30.795,9.376],[30.585,8.926],[30.377,8.477],[30.168,8.028],[29.961,7.578],[29.753,7.129],[29.546,6.679],[29.34,6.229],[29.133,5.779],[28.927,5.329],[28.722,4.879],[28.516,4.429],[28.311,3.979],[28.106,3.529],[27.902,3.079],[27.697,2.629],[27.493,2.178],[27.289,1.728],[27.084,1.278],[26.88,0.827],[26.676,0.377],[26.472,-0.073],[26.268,-0.524],[26.064,-0.974],[25.86,-1.424],[25.656,-1.875],[25.452,-2.325],[25.247,-2.775],[25.043,-3.225],[24.838,-3.676],[24.633,-4.126],[24.428,-4.576],[24.223,-5.026],[24.017,-5.476],[23.811,-5.926],[23.604,-6.376],[23.398,-6.825],[23.191,-7.275],[22.983,-7.724],[22.775,-8.174],[22.567,-8.623],[22.358,-9.073],[22.148,-9.522],[21.938,-9.971],[21.728,-10.419],[21.516,-10.868],[21.305,-11.317],[21.092,-11.765],[20.879,-12.213],[20.665,-12.662],[20.45,-13.11],[20.235,-13.557],[20.018,-14.005],[19.801,-14.452],[20.262,-14.653],[20.723,-14.853],[21.185,-15.052],[21.648,-15.25],[22.112,-15.447],[22.577,-15.643],[23.043,-15.838],[23.509,-16.032],[23.977,-16.226],[24.445,-16.418],[24.914,-16.609],[25.385,-16.799],[25.856,-16.988],[26.328,-17.176],[26.801,-17.362],[27.275,-17.548],[27.75,-17.733],[28.226,-17.916],[28.703,-18.098],[29.181,-18.279],[29.66,-18.459],[30.14,-18.638],[30.621,-18.815],[31.103,-18.991],[31.586,-19.166],[32.07,-19.34],[32.555,-19.512],[33.041,-19.683],[32.915,-20.165],[32.788,-20.646],[32.661,-21.128],[32.533,-21.609],[32.403,-22.09],[32.273,-22.571],[32.142,-23.052],[32.01,-23.533],[31.877,-24.013],[31.743,-24.494],[31.608,-24.974],[31.472,-25.455],[31.335,-25.935],[31.197,-26.415],[31.057,-26.895],[30.917,-27.375],[30.775,-27.855],[30.632,-28.334],[30.487,-28.813],[30.342,-29.293],[30.195,-29.772],[30.046,-30.251],[29.896,-30.729],[29.745,-31.208],[29.592,-31.686],[29.437,-32.164],[29.281,-32.642],[29.123,-33.12],[28.964,-33.598],[28.802,-34.075],[28.639,-34.552],[28.474,-35.029],[28.307,-35.506],[28.138,-35.983],[27.967,-36.459],[27.793,-36.935],[27.618,-37.411],[27.44,-37.886],[27.261,-38.361],[27.078,-38.836],[26.893,-39.311],[26.706,-39.785],[26.516,-40.259],[26.324,-40.733],[26.128,-41.207],[25.93,-41.68],[25.729,-42.152],[25.525,-42.625],[25.318,-43.097],[25.107,-43.568],[24.894,-44.04],[24.676,-44.511],[24.456,-44.981],[24.231,-45.451],[24.003,-45.921],[23.771,-46.39],[23.535,-46.858],[23.295,-47.326],[23.05,-47.794],[22.801,-48.261],[22.548,-48.727],[22.289,-49.193],[22.026,-49.659],[21.758,-50.124],[21.484,-50.588],[21.205,-51.051],[20.921,-51.514],[20.63,-51.976],[20.334,-52.437],[20.031,-52.898],[19.722,-53.358],[19.406,-53.817],[19.083,-54.275],[18.752,-54.732],[18.415,-55.189],[18.069,-55.644],[17.715,-56.099],[17.353,-56.552],[16.982,-57.004],[16.602,-57.455],[16.212,-57.905],[15.813,-58.354],[15.403,-58.802],[14.983,-59.248],[14.551,-59.693],[14.108,-60.136],[13.653,-60.578],[13.185,-61.018],[12.704,-61.456],[12.21,-61.893],[11.701,-62.328],[11.177,-62.761],[10.637,-63.192],[10.082,-63.621],[9.509,-64.048],[8.74,-63.719],[7.988,-63.385],[7.254,-63.048],[6.537,-62.707],[5.836,-62.363],[5.151,-62.015],[4.481,-61.664],[3.827,-61.31],[3.188,-60.952],[2.562,-60.592],[1.951,-60.228],[1.353,-59.862],[0.768,-59.494],[0.196,-59.123],[-0.364,-58.749],[-1.038,-59.091],[-1.726,-59.43],[-2.427,-59.766],[-3.143,-60.097],[-3.873,-60.425],[-4.617,-60.749],[-5.377,-61.068],[-6.152,-61.383],[-6.943,-61.693],[-7.75,-61.999],[-8.573,-62.3],[-9.413,-62.596],[-10.269,-62.887],[-11.143,-63.173],[-12.033,-63.453],[-12.941,-63.727],[-13.867,-63.996],[-14.81,-64.259],[-15.771,-64.515],[-16.75,-64.765],[-17.748,-65.009],[-18.763,-65.246],[-19.797,-65.475],[-20.848,-65.698],[-21.918,-65.913],[-23.005,-66.121],[-24.11,-66.321],[-25.232,-66.513],[-26.372,-66.697],[-27.528,-66.872],[-28.7,-67.039],[-29.888,-67.197],[-31.092,-67.347],[-32.31,-67.487],[-33.542,-67.618]]}},{"type":"Feature","properties":{"boundary_type":"ridge","feature_type":"gpml:MidOceanRidge","polarity":null,"overriding_plate_id":null,"subducting_plate_id":null,"plate_ids":[90105,90107],"name":""},"geometry":{"type":"LineString","coordinates":[[36.049,20.103],[35.847,20.288],[35.644,20.473]]}},{"type":"Feature","properties":{"boundary_type":"ridge","feature_type":"gpml:MidOceanRidge","polarity":null,"overriding_plate_id":null,"subducting_plate_id":null,"plate_ids":[90106,90107],"name":""},"geometry":{"type":"LineString","coordinates":[[35.644,20.473],[35.261,20.821],[34.876,21.168],[34.489,21.515],[34.101,21.86],[33.71,22.205],[33.318,22.549],[32.923,22.891],[32.527,23.233],[32.129,23.574],[31.728,23.914],[31.326,24.253],[30.921,24.59],[30.514,24.927],[30.105,25.262],[29.693,25.597],[29.28,25.93],[28.864,26.262],[28.445,26.593],[28.024,26.922],[27.601,27.25],[27.175,27.577],[26.747,27.903],[26.316,28.228],[25.882,28.551],[25.446,28.872],[25.007,29.192],[24.566,29.511],[24.121,29.829],[23.674,30.144],[23.224,30.459],[22.771,30.771],[22.315,31.083],[21.856,31.392],[21.394,31.7],[20.929,32.006],[20.46,32.311],[19.989,32.614],[19.515,32.915],[19.037,33.214],[18.556,33.511],[18.071,33.807],[17.584,34.1],[17.093,34.392],[16.598,34.681],[16.1,34.969],[15.599,35.255],[15.094,35.538],[14.585,35.82],[14.073,36.099],[13.557,36.376],[13.038,36.651],[12.515,36.923],[11.988,37.194],[11.457,37.461],[10.923,37.727],[10.384,37.99],[9.842,38.251],[9.296,38.509],[8.746,38.764],[8.192,39.017],[7.635,39.267],[7.073,39.515],[6.507,39.76],[5.937,40.002],[5.363,40.241],[4.785,40.478],[4.203,40.711],[3.617,40.942],[3.027,41.17],[2.433,41.394],[1.835,41.616],[1.232,41.834],[0.626,42.049],[0.015,42.261],[-0.599,42.47],[-1.218,42.676],[-1.841,42.878],[-2.468,43.076],[-3.099,43.272],[-3.734,43.463],[-4.373,43.652],[-5.015,43.836],[-5.662,44.017],[-6.313,44.195],[-6.968,44.368],[-7.626,44.538],[-8.289,44.704],[-8.955,44.866],[-9.625,45.025],[-10.298,45.179],[-10.975,45.33],[-11.656,45.476],[-12.34,45.618],[-13.028,45.757],[-13.719,45.891],[-14.413,46.02],[-15.11,46.146],[-15.811,46.268],[-16.515,46.385],[-17.221,46.497],[-17.931,46.606],[-18.643,46.71],[-19.358,46.809],[-20.076,46.904],[-20.796,46.995],[-21.518,47.081],[-21.732,46.609],[-21.941,46.136],[-22.147,45.663],[-22.35,45.189],[-22.549,44.716],[-22.745,44.242],[-22.938,43.767],[-23.128,43.292],[-23.315,42.817],[-23.499,42.342],[-23.68,41.866],[-23.859,41.39],[-24.035,40.914],[-24.208,40.437],[-24.38,39.96],[-24.548,39.483],[-24.715,39.006],[-24.879,38.529],[-25.041,38.051],[-25.201,37.573],[-25.359,37.095],[-25.971,37.176],[-26.584,37.254],[-27.198,37.329],[-27.814,37.401],[-28.431,37.469],[-29.049,37.535],[-29.668,37.597],[-30.288,37.656],[-30.909,37.711],[-31.531,37.764],[-32.154,37.813],[-32.777,37.858],[-33.402,37.901],[-34.027,37.94],[-34.652,37.976],[-35.278,38.009],[-35.905,38.038],[-36.532,38.064],[-37.16,38.086],[-37.788,38.105],[-38.416,38.121],[-39.045,38.134],[-39.674,38.143],[-40.302,38.149],[-40.931,38.151],[-41.56,38.151],[-42.189,38.146],[-42.818,38.139],[-43.447,38.128],[-44.075,38.114],[-44.703,38.096],[-45.331,38.075],[-45.959,38.051],[-46.586,38.023],[-47.212,37.992],[-47.838,37.958],[-48.463,37.92],[-49.088,37.879],[-49.712,37.835],[-50.335,37.788],[-50.957,37.737],[-51.579,37.683],[-52.199,37.626],[-52.165,37.141],[-52.131,36.656],[-52.098,36.171],[-52.064,35.686],[-52.032,35.201],[-52.0,34.716],[-51.968,34.231],[-51.936,33.746],[-51.905,33.261],[-51.874,32.776],[-51.844,32.291],[-51.813,31.806],[-52.398,31.782],[-52.983,31.756],[-53.567,31.727],[-54.151,31.695],[-54.734,31.66],[-55.317,31.623],[-55.9,31.584],[-56.482,31.541],[-57.063,31.496],[-57.644,31.448],[-58.224,31.398],[-58.804,31.345],[-59.383,31.29],[-59.961,31.232],[-60.538,31.171],[-61.115,31.108],[-61.691,31.042],[-62.266,30.974],[-62.84,30.903],[-63.414,30.829],[-63.986,30.753],[-64.558,30.675],[-65.129,30.594],[-65.698,30.51],[-66.267,30.424],[-66.835,30.336],[-67.402,30.245],[-67.967,30.152],[-68.532,30.056],[-69.095,29.958],[-69.657,29.858],[-70.219,29.755],[-70.779,29.65],[-71.337,29.542],[-71.895,29.432],[-72.451,29.32],[-73.007,29.205],[-73.561,29.088],[-74.113,28.969],[-74.665,28.848],[-75.215,28.724],[-75.763,28.599],[-76.311,28.471],[-76.857,28.34],[-77.402,28.208],[-77.945,28.074],[-78.487,27.937],[-79.028,27.798],[-79.567,27.657],[-80.105,27.514],[-80.641,27.369],[-81.176,27.222],[-81.71,27.073],[-82.242,26.922],[-82.773,26.769],[-83.302,26.614],[-83.83,26.457],[-84.356,26.298],[-84.881,26.137],[-85.405,25.974],[-85.927,25.81],[-86.447,25.643],[-86.967,25.475],[-87.484,25.305],[-88.001,25.133],[-88.515,24.959],[-89.029,24.784],[-89.54,24.606],[-90.051,24.427],[-90.56,24.247]]}},{"type":"Feature","properties":{"boundary_type":"ridge","feature_type":"gpml:MidOceanRidge","polarity":null,"overriding_plate_id":null,"subducting_plate_id":null,"plate_ids":[90105,90106],"name":""},"geometry":{"type":"LineString","coordinates":[[35.644,20.473],[36.174,20.498],[36.704,20.521],[37.233,20.543],[37.763,20.563],[38.294,20.581],[38.824,20.598],[39.354,20.613],[39.885,20.627],[40.415,20.639],[40.946,20.649],[41.477,20.658],[42.007,20.665],[42.538,20.671],[43.069,20.674],[43.6,20.677],[44.131,20.677],[44.662,20.676],[45.192,20.674],[45.723,20.669],[46.254,20.664],[46.785,20.656],[47.316,20.647],[47.846,20.636],[48.377,20.624],[48.907,20.61],[49.437,20.594],[49.968,20.577],[50.498,20.558],[51.028,20.538],[51.558,20.516],[52.087,20.492],[52.617,20.467],[53.146,20.44],[53.675,20.412],[54.204,20.382],[54.733,20.35],[55.261,20.317],[55.79,20.282],[56.318,20.245],[56.845,20.207],[57.373,20.168],[57.9,20.127],[58.427,20.084],[58.954,20.04],[59.48,19.994],[60.006,19.947],[60.532,19.898],[61.057,19.847],[61.582,19.795],[62.107,19.742],[62.631,19.687],[63.155,19.63],[63.679,19.572],[64.202,19.512],[64.725,19.451],[65.247,19.389],[65.77,19.325],[66.291,19.259],[66.812,19.192],[67.333,19.123],[67.853,19.053],[68.373,18.982],[68.893,18.909],[69.412,18.835],[69.93,18.759],[70.448,18.682],[70.966,18.603],[71.483,18.523],[72.0,18.442],[72.516,18.359],[73.031,18.275],[73.546,18.189],[74.061,18.102],[74.575,18.014],[75.089,17.924],[75.602,17.833],[76.114,17.741],[76.626,17.647],[77.138,17.552],[77.648,17.455],[78.159,17.358],[78.669,17.259],[79.178,17.159],[79.687,17.057],[80.195,16.954],[80.702,16.85],[80.731,17.327],[80.76,17.804],[80.789,18.281],[80.818,18.758],[80.847,19.235],[80.876,19.712],[80.906,20.189],[80.936,20.666],[80.966,21.143],[80.996,21.62],[81.026,22.097],[81.057,22.574],[81.087,23.051],[81.118,23.528],[81.653,23.556],[82.188,23.583],[82.724,23.608],[83.259,23.631],[83.795,23.652],[84.331,23.671],[84.867,23.688],[85.403,23.704],[85.939,23.718],[86.475,23.729],[87.012,23.739],[87.548,23.747],[88.085,23.754],[88.622,23.758],[89.158,23.761],[89.695,23.762],[90.232,23.76],[90.768,23.757],[91.305,23.753],[91.842,23.746],[92.378,23.737],[92.914,23.727],[93.451,23.715],[93.987,23.701],[94.523,23.685],[95.059,23.667],[95.595,23.647],[96.131,23.626],[96.666,23.603],[97.201,23.577],[97.736,23.55],[98.271,23.522],[98.806,23.491],[99.34,23.459],[99.874,23.424],[100.074,23.868],[100.276,24.311],[100.479,24.754],[100.684,25.197],[100.89,25.64],[101.097,26.082],[101.306,26.524],[101.517,26.965],[101.73,27.407],[101.944,27.848],[102.159,28.288],[102.377,28.729],[102.597,29.169],[102.818,29.608],[103.041,30.047],[103.267,30.486],[103.494,30.925],[104.062,30.859],[104.629,30.79],[105.195,30.719],[105.761,30.646],[106.325,30.57],[106.889,30.492],[107.452,30.411],[108.014,30.328],[108.575,30.243],[109.135,30.155],[109.693,30.065],[110.251,29.972],[110.808,29.877],[111.364,29.78],[111.918,29.681],[112.472,29.579],[113.024,29.475],[113.576,29.368],[114.126,29.259],[114.675,29.148],[115.222,29.035],[115.769,28.92],[116.314,28.802],[116.858,28.682],[117.401,28.561],[117.943,28.436],[118.483,28.31],[119.022,28.182],[119.559,28.051],[120.096,27.919],[120.631,27.784],[121.164,27.647],[121.697,27.509],[122.228,27.368],[122.757,27.225],[123.286,27.08],[123.812,26.934],[124.338,26.785],[124.862,26.634],[125.385,26.482],[125.906,26.328],[126.426,26.171],[126.945,26.013],[127.462,25.853],[127.977,25.691],[128.492,25.528]]}}]}