{"type":"FeatureCollection","meta":{"model":"Cao2024","reconstruction_time_ma":795.0,"anchor_plate_id":0,"pygplates_version":"1.0.0","tessellate_degrees":0.5,"polarity_convention":"gpml:subductionPolarity. 'Left'/'Right' names the side of the line, in vertex order, on which the OVERRIDING plate lies. Triangles are drawn on that side.","antimeridian":"Lines are NOT split at +/-180 deg. The renderer works in 3D unit vectors where the dateline is not special; splitting would only add spurious breaks. Do not treat this as RFC 7946 GIS-ready 2D data."},"features":[{"type":"Feature","properties":{"boundary_type":"subduction","feature_type":"gpml:SubductionZone","polarity":"Right","overriding_plate_id":701,"subducting_plate_id":77531,"plate_ids":[701,77531],"name":"Imorona-Itsindro-TOAST SZ"},"geometry":{"type":"LineString","coordinates":[[16.057,-6.993],[16.199,-6.614],[16.341,-6.234],[16.483,-5.855],[16.625,-5.475],[16.767,-5.095],[16.868,-4.677],[16.969,-4.259],[17.07,-3.841],[17.171,-3.423]]}},{"type":"Feature","properties":{"boundary_type":"subduction","feature_type":"gpml:SubductionZone","polarity":"Right","overriding_plate_id":701,"subducting_plate_id":5031,"plate_ids":[701,5031],"name":"Imorona-Itsindro-TOAST SZ"},"geometry":{"type":"LineString","coordinates":[[17.171,-3.423],[17.275,-2.994],[17.378,-2.564],[17.769,-2.394],[18.16,-2.223],[18.551,-2.053],[18.941,-1.882],[19.332,-1.711],[19.648,-1.92],[19.965,-2.129],[20.281,-2.338],[20.598,-2.547],[21.075,-2.68],[21.551,-2.813]]}},{"type":"Feature","properties":{"boundary_type":"subduction","feature_type":"gpml:SubductionZone","polarity":"Right","overriding_plate_id":701,"subducting_plate_id":501,"plate_ids":[501,701],"name":"Imorona-Itsindro-TOAST SZ"},"geometry":{"type":"LineString","coordinates":[[21.551,-2.813],[21.859,-2.899],[22.167,-2.984],[22.65,-2.97],[23.133,-2.956],[23.616,-2.941],[24.099,-2.926],[24.582,-2.912],[25.006,-3.061],[25.431,-3.21],[25.856,-3.359],[26.255,-3.486],[26.655,-3.613],[27.054,-3.74],[27.454,-3.867],[27.846,-4.055],[28.238,-4.242],[28.63,-4.429],[29.015,-4.452],[29.399,-4.476],[29.784,-4.498],[30.168,-4.521],[30.425,-4.817],[30.683,-5.113],[30.941,-5.408],[31.267,-5.583],[31.594,-5.757],[31.921,-5.931],[32.286,-6.051],[32.652,-6.171],[33.017,-6.29],[33.383,-6.409],[33.669,-6.328],[33.954,-6.248],[34.274,-6.465],[34.593,-6.682],[34.913,-6.899],[35.327,-7.128],[35.741,-7.357],[36.016,-7.425],[36.291,-7.492],[36.64,-7.419],[36.989,-7.346],[37.297,-7.158],[37.604,-6.971],[37.911,-6.783],[38.334,-6.57],[38.756,-6.356],[39.178,-6.142],[39.483,-5.863],[39.788,-5.583],[40.092,-5.303],[40.396,-5.022],[40.828,-5.011],[41.259,-5.0],[41.691,-4.989],[42.061,-5.106],[42.431,-5.223],[42.802,-5.34],[43.172,-5.457],[43.625,-5.471],[44.078,-5.484],[44.531,-5.497],[44.942,-5.681],[45.354,-5.863],[45.765,-6.046],[46.177,-6.228],[46.589,-6.41],[47.001,-6.637],[47.413,-6.864],[47.826,-7.091],[48.239,-7.317],[48.652,-7.543],[49.066,-7.768],[49.481,-7.993],[49.895,-8.218],[50.31,-8.442],[50.726,-8.666],[51.059,-8.986],[51.392,-9.306],[51.726,-9.625],[52.061,-9.944],[52.396,-10.263],[52.732,-10.582],[53.068,-10.9],[53.406,-11.217],[53.877,-11.271],[54.349,-11.323],[54.821,-11.375],[55.293,-11.426],[55.766,-11.476],[56.238,-11.526],[56.711,-11.575],[57.184,-11.622],[57.657,-11.67],[58.1,-11.716],[58.544,-11.761],[58.987,-11.805],[59.431,-11.849],[59.875,-11.893],[60.318,-11.935],[60.821,-11.938],[61.323,-11.939],[61.826,-11.94],[62.328,-11.94],[62.831,-11.939],[63.333,-11.937],[63.836,-11.934],[64.338,-11.93],[64.816,-11.837],[65.293,-11.743],[65.771,-11.649],[66.247,-11.553],[66.724,-11.457],[67.2,-11.36]]}},{"type":"Feature","properties":{"boundary_type":"subduction","feature_type":"gpml:SubductionZone","polarity":"Right","overriding_plate_id":101,"subducting_plate_id":501,"plate_ids":[101,501],"name":"Imorona-Itsindro-TOAST SZ"},"geometry":{"type":"LineString","coordinates":[[67.2,-11.36],[67.347,-11.33]]}},{"type":"Feature","properties":{"boundary_type":"subduction","feature_type":"gpml:SubductionZone","polarity":"Right","overriding_plate_id":101,"subducting_plate_id":501,"plate_ids":[101,501],"name":"Antarctica SZ"},"geometry":{"type":"LineString","coordinates":[[67.347,-11.33],[67.38,-10.875],[67.413,-10.421],[67.445,-9.966],[67.478,-9.511],[67.544,-9.018],[67.61,-8.525],[67.676,-8.032],[67.742,-7.539],[67.807,-7.046],[67.873,-6.552],[67.938,-6.059],[68.003,-5.566],[68.068,-5.073],[68.133,-4.58],[68.26,-4.107],[68.386,-3.633],[68.512,-3.16],[68.638,-2.687],[68.764,-2.214],[68.89,-1.741],[69.015,-1.268],[69.141,-0.794],[69.267,-0.321],[69.425,0.145],[69.584,0.612],[69.743,1.079],[69.902,1.545],[70.061,2.012],[70.219,2.478],[70.379,2.945],[70.538,3.411],[70.697,3.878],[70.857,4.344],[71.016,4.811],[71.176,5.277],[71.336,5.744],[71.497,6.21],[71.658,6.676],[71.819,7.142],[71.98,7.609],[72.142,8.075],[72.384,8.511],[72.627,8.947],[72.871,9.383],[73.116,9.819],[73.361,10.254],[73.606,10.69],[73.853,11.125],[74.1,11.56],[74.348,11.995],[74.597,12.43],[74.846,12.864],[75.097,13.298],[75.348,13.732],[75.6,14.166],[75.854,14.599],[76.108,15.032],[76.363,15.465],[76.62,15.897],[76.877,16.314],[77.136,16.73],[77.397,17.146],[77.658,17.561],[77.921,17.976],[78.184,18.391],[78.449,18.805],[78.716,19.219],[78.983,19.633],[79.252,20.046],[79.523,20.459],[79.795,20.872],[80.068,21.283],[80.343,21.695],[80.62,22.106],[80.898,22.517],[81.178,22.927],[81.377,23.382],[81.578,23.836],[81.78,24.29],[81.984,24.745],[82.189,25.198],[82.396,25.652],[82.604,26.105],[82.814,26.558],[83.026,27.01],[83.239,27.463]]}},{"type":"Feature","properties":{"boundary_type":"subduction","feature_type":"gpml:SubductionZone","polarity":"Right","overriding_plate_id":101,"subducting_plate_id":401,"plate_ids":[101,401],"name":"Offshore Baltica SZ?"},"geometry":{"type":"LineString","coordinates":[[151.5,-1.888],[151.83,-2.224],[152.159,-2.56],[152.489,-2.896],[152.819,-3.232],[153.15,-3.568],[153.48,-3.903],[153.811,-4.239],[154.142,-4.574],[154.519,-4.886],[154.895,-5.198],[155.272,-5.51],[155.65,-5.821],[156.028,-6.132],[156.406,-6.443],[156.785,-6.754],[157.164,-7.064],[157.544,-7.374],[157.924,-7.684],[158.305,-7.993],[158.687,-8.302],[159.069,-8.611],[159.451,-8.919],[159.835,-9.227],[160.219,-9.535],[160.603,-9.842],[160.989,-10.148],[161.375,-10.455],[161.819,-10.662],[162.265,-10.868],[162.711,-11.074],[163.157,-11.28],[163.604,-11.484],[164.052,-11.688],[164.5,-11.891],[164.95,-12.094],[165.399,-12.296],[165.85,-12.497],[166.301,-12.697],[166.753,-12.897],[167.205,-13.095],[167.659,-13.293],[168.113,-13.491],[168.622,-13.441],[169.131,-13.39],[169.64,-13.338],[170.149,-13.285],[170.657,-13.231],[171.166,-13.176],[171.674,-13.121],[172.181,-13.064],[172.689,-13.006],[173.196,-12.947],[173.703,-12.887],[174.21,-12.826],[174.717,-12.765],[175.223,-12.702],[175.729,-12.638],[176.235,-12.573],[176.741,-12.508],[177.246,-12.441],[177.751,-12.374],[178.256,-12.305],[178.76,-12.236],[179.265,-12.166],[179.768,-12.095],[-179.728,-12.023],[-179.224,-11.95],[-178.721,-11.876],[-178.218,-11.801],[-177.716,-11.725],[-177.213,-11.649],[-176.711,-11.571],[-176.209,-11.493],[-175.708,-11.414],[-175.207,-11.334],[-174.706,-11.253],[-174.205,-11.172],[-173.793,-10.892],[-173.382,-10.612],[-172.971,-10.332],[-172.561,-10.051],[-172.152,-9.77],[-171.744,-9.488],[-171.336,-9.206],[-170.929,-8.923],[-170.523,-8.64],[-170.117,-8.356]]}},{"type":"Feature","properties":{"boundary_type":"subduction","feature_type":"gpml:SubductionZone","polarity":"Right","overriding_plate_id":98041,"subducting_plate_id":401,"plate_ids":[401,98041],"name":"Offshore Baltica SZ?"},"geometry":{"type":"LineString","coordinates":[[-170.117,-8.356],[-169.735,-8.089],[-169.354,-7.821],[-168.973,-7.553],[-168.593,-7.284],[-168.213,-7.015],[-167.834,-6.746],[-167.455,-6.477],[-167.157,-6.13],[-166.859,-5.784],[-166.561,-5.437],[-166.264,-5.09],[-165.967,-4.743],[-165.67,-4.396],[-165.373,-4.049],[-165.077,-3.701],[-164.781,-3.354],[-164.538,-2.951],[-164.294,-2.547],[-164.051,-2.144],[-163.808,-1.74],[-163.564,-1.337],[-163.321,-0.933],[-163.078,-0.53],[-162.836,-0.127],[-162.593,0.277],[-162.35,0.68],[-162.044,1.031],[-161.738,1.381],[-161.432,1.731],[-161.127,2.082],[-160.82,2.432],[-160.514,2.782],[-160.208,3.132],[-159.943,3.511],[-159.679,3.891],[-159.414,4.27],[-159.149,4.65]]}},{"type":"Feature","properties":{"boundary_type":"subduction","feature_type":"gpml:SubductionZone","polarity":"Right","overriding_plate_id":701,"subducting_plate_id":77521,"plate_ids":[701,77521],"name":"ES SZ"},"geometry":{"type":"LineString","coordinates":[[-18.635,-19.682],[-18.277,-19.706],[-17.919,-19.729],[-17.56,-19.751],[-17.203,-19.914],[-16.844,-20.076],[-16.485,-20.238],[-16.013,-20.45],[-15.54,-20.661],[-15.066,-20.871],[-14.59,-21.08],[-14.113,-21.287],[-13.756,-21.565],[-13.398,-21.842],[-13.038,-22.118],[-12.677,-22.393],[-12.315,-22.667],[-11.888,-22.963],[-11.46,-23.257],[-11.03,-23.551],[-10.598,-23.843],[-10.164,-24.134],[-9.729,-24.423],[-9.246,-24.496],[-8.762,-24.567],[-8.278,-24.636],[-7.794,-24.704],[-7.309,-24.77],[-6.823,-24.834],[-6.325,-24.888],[-5.826,-24.94],[-5.327,-24.99],[-4.828,-25.038],[-4.328,-25.085],[-3.828,-25.131],[-3.42,-25.12]]}},{"type":"Feature","properties":{"boundary_type":"subduction","feature_type":"gpml:SubductionZone","polarity":"Right","overriding_plate_id":701,"subducting_plate_id":77521,"plate_ids":[701,77521],"name":"ES SZ"},"geometry":{"type":"LineString","coordinates":[[-3.42,-25.12],[-2.868,-25.104],[-2.316,-25.086],[-1.881,-25.264],[-1.445,-25.441],[-1.008,-25.616],[-0.569,-25.79],[-0.251,-26.134],[0.069,-26.477],[0.325,-26.866],[0.584,-27.254],[0.953,-27.45],[1.323,-27.645],[1.694,-27.839],[2.149,-28.135],[2.605,-28.429],[3.065,-28.721],[3.526,-29.012],[3.991,-29.301],[4.455,-29.565],[4.922,-29.828],[5.391,-30.089],[5.863,-30.348],[6.347,-30.561]]}},{"type":"Feature","properties":{"boundary_type":"subduction","feature_type":"gpml:SubductionZone","polarity":"Left","overriding_plate_id":5031,"subducting_plate_id":5907,"plate_ids":[5031,5907],"name":"Haya-Jiddah SZ"},"geometry":{"type":"LineString","coordinates":[[-0.917,0.838],[-0.678,0.558],[-0.439,0.279],[-0.284,-0.122],[-0.129,-0.524],[0.026,-0.925],[0.123,-1.272],[0.22,-1.619],[0.317,-1.966],[0.491,-2.23],[0.664,-2.493],[0.977,-2.632],[1.29,-2.77],[1.551,-3.011],[1.812,-3.252],[1.861,-3.662],[1.909,-4.072],[1.983,-4.29],[2.204,-4.418],[2.424,-4.547],[2.701,-4.924],[2.762,-5.332],[2.823,-5.741],[2.92,-6.01],[3.018,-6.279],[3.358,-6.636],[3.74,-6.776],[4.121,-6.915],[4.387,-7.233],[4.652,-7.55]]}},{"type":"Feature","properties":{"boundary_type":"subduction","feature_type":"gpml:SubductionZone","polarity":"Left","overriding_plate_id":701,"subducting_plate_id":77521,"plate_ids":[701,77521],"name":"Sa'al SZ"},"geometry":{"type":"LineString","coordinates":[[-18.635,-19.682],[-18.685,-19.203],[-18.735,-18.725],[-18.818,-18.25],[-18.9,-17.776],[-18.982,-17.301],[-19.064,-16.826],[-19.145,-16.351],[-19.226,-15.877],[-19.306,-15.402],[-19.386,-14.927],[-19.465,-14.452],[-19.545,-13.977],[-19.624,-13.502],[-19.527,-13.097],[-19.43,-12.692],[-19.333,-12.287],[-19.237,-11.882],[-19.141,-11.477],[-19.169,-11.015],[-19.197,-10.553],[-19.224,-10.091],[-19.252,-9.629],[-19.28,-9.168],[-19.307,-8.706],[-19.335,-8.244],[-19.362,-7.782],[-19.389,-7.32],[-19.417,-6.858],[-19.444,-6.396],[-19.471,-5.935],[-19.174,-5.534],[-18.877,-5.133],[-18.58,-4.732],[-18.534,-4.261],[-18.487,-3.79],[-18.415,-3.318],[-18.343,-2.847],[-18.271,-2.375],[-18.199,-1.903],[-18.127,-1.431],[-18.055,-0.959],[-17.959,-0.516],[-17.862,-0.072],[-17.766,0.371],[-17.669,0.814],[-17.573,1.258],[-17.476,1.701],[-17.379,2.144]]}},{"type":"Feature","properties":{"boundary_type":"subduction","feature_type":"gpml:SubductionZone","polarity":"Left","overriding_plate_id":701,"subducting_plate_id":5031,"plate_ids":[701,5031],"name":"Sa'al SZ"},"geometry":{"type":"LineString","coordinates":[[-17.379,2.144],[-17.288,2.563],[-17.197,2.981],[-17.105,3.399],[-17.014,3.818],[-16.922,4.236],[-16.831,4.654],[-16.852,5.147],[-16.874,5.64],[-16.895,6.133],[-16.917,6.626],[-16.939,7.119],[-16.961,7.612],[-16.983,8.104],[-17.005,8.597],[-17.026,9.09],[-17.048,9.583],[-17.071,10.076],[-17.093,10.569],[-17.115,11.061],[-17.137,11.554],[-17.16,12.047],[-17.182,12.54],[-17.205,13.033],[-17.227,13.526],[-17.25,14.018],[-17.273,14.511],[-17.296,15.004],[-17.319,15.497],[-17.342,15.99],[-17.365,16.482],[-17.389,16.975],[-17.412,17.468],[-17.436,17.961],[-17.459,18.454],[-17.483,18.946],[-17.507,19.439],[-17.532,19.932],[-17.419,20.379],[-17.306,20.825],[-17.192,21.272],[-17.078,21.719],[-16.962,22.165],[-16.846,22.611],[-16.73,23.058],[-16.612,23.504],[-16.494,23.95]]}},{"type":"Feature","properties":{"boundary_type":"subduction","feature_type":"gpml:SubductionZone","polarity":"Left","overriding_plate_id":701,"subducting_plate_id":980421,"plate_ids":[701,980421],"name":"Sa'al SZ"},"geometry":{"type":"LineString","coordinates":[[-16.494,23.95],[-16.392,24.332],[-16.289,24.715],[-16.186,25.097],[-16.082,25.479]]}},{"type":"Feature","properties":{"boundary_type":"subduction","feature_type":"gpml:SubductionZone","polarity":"Right","overriding_plate_id":701,"subducting_plate_id":77531,"plate_ids":[701,77531],"name":"Ethiopian SZ"},"geometry":{"type":"LineString","coordinates":[[19.292,-15.98],[19.258,-15.592],[19.223,-15.204],[19.189,-14.816],[19.155,-14.428],[19.05,-13.998],[18.945,-13.567],[18.841,-13.137],[18.737,-12.706],[18.633,-12.276],[18.529,-11.845],[18.359,-11.41],[18.189,-10.974],[18.02,-10.539],[17.851,-10.104],[17.682,-9.668],[17.514,-9.232],[17.284,-8.873],[17.055,-8.514],[16.826,-8.155],[16.597,-7.796],[16.368,-7.436],[16.14,-7.076],[16.057,-6.993]]}},{"type":"Feature","properties":{"boundary_type":"subduction","feature_type":"gpml:SubductionZone","polarity":"Left","overriding_plate_id":77531,"subducting_plate_id":701,"plate_ids":[701,77531],"name":"SES SZ"},"geometry":{"type":"LineString","coordinates":[[9.165,-25.345],[8.826,-25.024],[8.577,-24.908],[8.328,-24.791],[8.167,-24.57],[8.006,-24.349],[7.678,-24.034],[7.351,-23.719],[7.41,-23.303],[7.469,-22.888],[7.498,-22.556]]}},{"type":"Feature","properties":{"boundary_type":"subduction","feature_type":"gpml:SubductionZone","polarity":"Left","overriding_plate_id":77521,"subducting_plate_id":701,"plate_ids":[701,77521],"name":"WES suture"},"geometry":{"type":"LineString","coordinates":[[6.911,-29.452],[6.746,-29.352],[6.419,-28.965]]}},{"type":"Feature","properties":{"boundary_type":"subduction","feature_type":"gpml:SubductionZone","polarity":"Left","overriding_plate_id":77521,"subducting_plate_id":77531,"plate_ids":[77521,77531],"name":"WES suture"},"geometry":{"type":"LineString","coordinates":[[6.419,-28.965],[6.118,-28.603],[5.818,-28.241]]}},{"type":"Feature","properties":{"boundary_type":"subduction","feature_type":"gpml:SubductionZone","polarity":"Left","overriding_plate_id":77521,"subducting_plate_id":77521,"plate_ids":[77521,77521],"name":"WES suture"},"geometry":{"type":"LineString","coordinates":[[5.818,-28.241],[5.73,-28.133],[5.491,-27.685],[5.254,-27.236],[5.019,-26.787],[4.785,-26.338],[4.549,-25.958],[4.313,-25.578],[4.045,-25.153],[3.779,-24.727],[3.493,-24.522],[3.189,-24.317],[2.837,-24.194],[2.486,-24.071],[2.135,-23.946],[1.65,-23.747],[1.167,-23.547],[0.685,-23.345],[0.205,-23.141],[-0.274,-22.937],[-0.606,-22.799],[-0.937,-22.661],[-1.267,-22.522]]}},{"type":"Feature","properties":{"boundary_type":"subduction","feature_type":"gpml:SubductionZone","polarity":"Right","overriding_plate_id":501,"subducting_plate_id":980421,"plate_ids":[501,980421],"name":"Seychelles SZ"},"geometry":{"type":"LineString","coordinates":[[40.278,64.981],[39.415,65.26],[38.535,65.534],[37.635,65.803],[36.717,66.066],[35.78,66.324],[34.824,66.577],[33.848,66.823],[32.853,67.063],[31.838,67.297],[30.803,67.524],[30.032,67.871],[29.237,68.214],[28.417,68.554],[27.574,68.889],[26.704,69.22],[25.807,69.546],[24.883,69.868],[23.931,70.184],[22.694,70.429],[21.428,70.664],[20.133,70.891],[18.808,71.108],[17.455,71.316],[16.626,71.658],[15.766,71.996],[14.876,72.331],[13.859,72.655],[12.805,72.973],[11.712,73.286],[10.183,73.429],[8.629,73.56],[7.052,73.68],[5.453,73.789],[3.834,73.885],[2.197,73.969],[0.545,74.04],[-1.12,74.098],[-2.455,74.054],[-3.782,74.001],[-5.1,73.939],[-6.59,74.092],[-8.107,74.235],[-9.651,74.366],[-11.373,74.391],[-13.099,74.402],[-14.826,74.399],[-16.413,74.234],[-17.968,74.058],[-19.488,73.871],[-21.17,73.996],[-22.876,74.107],[-24.605,74.205],[-26.097,74.321],[-27.61,74.426],[-29.142,74.521],[-30.753,74.385],[-32.336,74.236],[-33.889,74.077],[-35.412,73.906],[-36.902,73.725],[-38.296,73.538],[-39.659,73.342],[-40.99,73.137],[-42.29,72.923]]}},{"type":"Feature","properties":{"boundary_type":"subduction","feature_type":"gpml:SubductionZone","polarity":"Left","overriding_plate_id":101,"subducting_plate_id":501,"plate_ids":[101,501],"name":"Lhasa SZ"},"geometry":{"type":"LineString","coordinates":[[134.962,36.423],[134.402,36.463],[133.842,36.5],[133.281,36.535],[132.719,36.567],[132.157,36.596],[131.595,36.622],[131.032,36.646],[130.467,36.585],[129.902,36.521],[129.339,36.454],[128.776,36.385],[128.215,36.313],[127.654,36.239],[127.095,36.162],[126.536,36.082],[125.979,36.0],[125.423,35.915],[124.868,35.827],[124.347,35.692],[123.828,35.555],[123.311,35.415],[122.795,35.274],[122.281,35.13],[122.264,35.129]]}},{"type":"Feature","properties":{"boundary_type":"subduction","feature_type":"gpml:SubductionZone","polarity":"Left","overriding_plate_id":606,"subducting_plate_id":501,"plate_ids":[501,606],"name":"Lhasa SZ"},"geometry":{"type":"LineString","coordinates":[[122.264,35.129],[121.693,35.098],[121.123,35.065],[120.553,35.03],[119.984,34.991],[119.415,34.95],[118.847,34.907],[118.28,34.86],[117.743,35.016],[117.204,35.17],[116.663,35.321],[116.12,35.47],[115.575,35.616],[115.028,35.76],[114.484,35.759],[113.94,35.755],[113.396,35.749],[112.852,35.741],[112.308,35.73],[111.764,35.717],[111.221,35.701],[110.757,35.86],[110.29,36.018],[109.822,36.174],[109.254,36.217],[108.685,36.257],[108.115,36.295],[107.545,36.33],[106.974,36.362],[106.403,36.391],[105.832,36.418],[105.26,36.442],[104.688,36.463],[104.143,36.409],[103.599,36.353],[103.056,36.293],[102.513,36.232],[101.972,36.168],[101.431,36.101],[100.892,36.032],[100.353,35.961],[99.781,35.786],[99.212,35.608],[98.645,35.428],[98.081,35.245],[97.519,35.059],[96.96,34.871],[96.404,34.68],[95.85,34.487],[95.298,34.291],[94.749,34.093],[94.203,33.892],[93.66,33.689],[93.119,33.484],[92.58,33.276],[92.044,33.066],[91.511,32.854],[90.98,32.639],[90.494,32.361],[90.01,32.081],[89.53,31.799],[89.052,31.515],[88.577,31.23],[88.106,30.943],[87.637,30.654],[87.171,30.364],[86.707,30.072],[86.246,29.778],[85.789,29.483],[85.333,29.186],[84.881,28.887],[84.431,28.588],[83.983,28.286],[83.538,27.983],[83.096,27.679]]}},{"type":"Feature","properties":{"boundary_type":"subduction","feature_type":"gpml:SubductionZone","polarity":"Right","overriding_plate_id":401,"subducting_plate_id":501,"plate_ids":[401,501],"name":"Taimyr SZ"},"geometry":{"type":"LineString","coordinates":[[166.68,51.536],[167.159,51.239],[167.631,50.94],[168.097,50.638],[168.558,50.335],[169.012,50.031],[169.535,49.693],[170.05,49.353],[170.559,49.011],[171.06,48.667],[171.555,48.321],[172.042,47.972],[172.524,47.622],[172.999,47.269],[173.467,46.915],[173.93,46.559],[174.386,46.2],[174.91,45.931],[175.429,45.659],[175.943,45.385],[176.452,45.108],[176.956,44.829],[177.456,44.548],[177.95,44.265],[178.44,43.98],[178.925,43.693],[179.405,43.403],[179.894,43.125],[-179.622,42.845],[-179.142,42.563],[-178.667,42.279],[-178.196,41.993],[-177.729,41.705],[-177.7,41.257],[-177.671,40.81],[-177.643,40.362],[-177.615,39.915],[-177.588,39.467],[-177.349,39.066],[-177.113,38.663],[-176.88,38.26],[-176.649,37.857],[-176.421,37.453],[-176.195,37.049],[-175.809,36.748],[-175.426,36.446],[-175.046,36.143],[-174.668,35.839],[-174.113,35.735],[-173.56,35.628],[-173.007,35.518],[-172.417,35.445],[-171.827,35.368],[-171.239,35.288],[-170.9,35.08],[-170.562,34.871],[-170.409,34.458],[-170.259,34.044],[-169.892,33.674],[-169.529,33.303],[-169.169,32.93],[-168.812,32.557],[-168.457,32.182],[-168.106,31.807],[-167.758,31.43]]}},{"type":"Feature","properties":{"boundary_type":"subduction","feature_type":"gpml:SubductionZone","polarity":"Right","overriding_plate_id":401,"subducting_plate_id":456,"plate_ids":[401,456],"name":"Taimyr SZ"},"geometry":{"type":"LineString","coordinates":[[-167.758,31.43],[-167.432,31.075],[-167.109,30.719],[-166.789,30.363],[-166.471,30.005],[-166.235,29.568],[-166.001,29.131],[-165.77,28.693],[-165.54,28.255],[-165.312,27.816],[-165.086,27.377],[-164.862,26.938],[-164.64,26.498],[-164.419,26.058],[-164.2,25.618],[-163.982,25.177],[-163.844,24.791],[-163.706,24.405],[-163.57,24.019],[-163.434,23.633]]}},{"type":"Feature","properties":{"boundary_type":"subduction","feature_type":"gpml:SubductionZone","polarity":"Right","overriding_plate_id":401,"subducting_plate_id":98041,"plate_ids":[401,98041],"name":"Taimyr SZ"},"geometry":{"type":"LineString","coordinates":[[-163.434,23.633],[-163.275,23.178],[-163.117,22.723],[-162.96,22.267],[-162.804,21.812],[-162.65,21.357],[-162.496,20.901],[-162.343,20.445],[-162.191,19.989],[-162.04,19.533],[-161.889,19.077],[-161.74,18.62],[-161.591,18.164],[-161.443,17.707],[-161.296,17.251],[-161.15,16.794],[-161.004,16.337],[-160.859,15.88],[-160.715,15.423],[-160.564,14.997],[-160.413,14.571],[-160.263,14.145],[-160.113,13.719],[-159.964,13.292],[-159.815,12.866],[-159.667,12.439],[-159.52,12.013],[-159.373,11.586],[-159.226,11.159],[-159.221,10.694],[-159.215,10.229],[-159.209,9.764],[-159.204,9.299],[-159.198,8.834],[-159.193,8.369],[-159.187,7.904],[-159.182,7.44],[-159.176,6.975],[-159.171,6.51],[-159.165,6.045],[-159.16,5.58],[-159.154,5.115],[-159.149,4.65]]}},{"type":"Feature","properties":{"boundary_type":"subduction","feature_type":"gpml:SubductionZone","polarity":"Left","overriding_plate_id":501,"subducting_plate_id":456,"plate_ids":[456,501],"name":"Jiangang SZ"},"geometry":{"type":"LineString","coordinates":[[-152.604,57.162],[-152.505,57.456],[-152.093,57.822],[-151.672,58.187],[-151.243,58.55],[-150.805,58.912],[-150.357,59.272],[-150.189,59.728],[-150.017,60.184],[-149.84,60.639],[-149.657,61.095],[-149.47,61.55],[-148.97,61.987],[-148.457,62.422],[-147.928,62.855],[-147.383,63.286],[-146.822,63.715],[-146.243,64.141],[-145.647,64.566],[-145.031,64.988],[-144.396,65.407],[-143.857,65.842],[-143.299,66.275],[-142.722,66.706],[-142.124,67.135],[-141.505,67.561],[-140.863,67.985],[-140.197,68.407],[-139.506,68.825],[-138.788,69.241],[-138.043,69.654],[-136.837,69.924],[-135.601,70.186],[-134.334,70.439],[-133.035,70.683],[-131.705,70.918],[-130.344,71.143],[-128.951,71.358],[-127.529,71.563],[-126.076,71.756],[-124.594,71.939],[-123.084,72.109],[-121.546,72.268],[-119.983,72.415],[-118.818,72.564],[-117.635,72.705]]}},{"type":"Feature","properties":{"boundary_type":"subduction","feature_type":"gpml:SubductionZone","polarity":"Left","overriding_plate_id":580,"subducting_plate_id":701,"plate_ids":[580,701],"name":"Tarim subduction"},"geometry":{"type":"LineString","coordinates":[[-62.96,4.308],[-63.136,4.633],[-63.313,4.958],[-63.489,5.283]]}},{"type":"Feature","properties":{"boundary_type":"subduction","feature_type":"gpml:SubductionZone","polarity":"Left","overriding_plate_id":580,"subducting_plate_id":980421,"plate_ids":[580,980421],"name":"Tarim subduction"},"geometry":{"type":"LineString","coordinates":[[-63.489,5.283],[-63.701,5.674],[-63.914,6.065],[-64.127,6.456],[-64.34,6.846],[-64.553,7.236],[-64.695,7.684],[-64.838,8.132],[-64.98,8.579],[-65.123,9.026],[-65.267,9.474],[-65.41,9.921],[-65.554,10.368],[-65.699,10.815],[-65.844,11.263],[-65.989,11.71],[-66.005,12.196],[-66.021,12.682],[-66.036,13.169],[-66.052,13.655],[-66.068,14.141],[-66.084,14.628],[-66.1,15.114],[-66.116,15.6],[-66.133,16.087],[-66.149,16.573],[-66.165,17.059],[-66.182,17.546],[-66.198,18.032],[-66.215,18.518],[-66.232,19.005],[-66.248,19.491],[-66.161,19.98],[-66.072,20.469],[-65.983,20.958],[-65.894,21.447],[-65.804,21.935],[-65.713,22.424],[-65.622,22.913],[-65.53,23.401],[-65.437,23.89],[-65.343,24.379],[-65.249,24.867],[-65.154,25.355],[-65.059,25.844],[-64.962,26.332],[-64.865,26.82],[-64.767,27.308],[-64.668,27.797],[-64.568,28.285],[-64.467,28.772],[-64.365,29.26],[-64.263,29.748],[-64.421,30.174],[-64.581,30.599],[-64.743,31.024],[-64.905,31.449],[-65.07,31.874],[-65.236,32.298],[-65.403,32.723],[-65.572,33.147],[-65.742,33.571]]}},{"type":"Feature","properties":{"boundary_type":"subduction","feature_type":"gpml:SubductionZone","polarity":"Left","overriding_plate_id":580,"subducting_plate_id":501,"plate_ids":[501,580],"name":"Tarim subduction"},"geometry":{"type":"LineString","coordinates":[[-65.742,33.571],[-65.919,34.006],[-66.098,34.441],[-66.279,34.875],[-66.462,35.31],[-66.646,35.744],[-66.833,36.178],[-67.284,36.512],[-67.74,36.846],[-68.199,37.177],[-68.663,37.507],[-69.131,37.834],[-69.602,38.16],[-70.078,38.484],[-70.559,38.807],[-71.043,39.127],[-71.532,39.445],[-72.026,39.761],[-72.462,40.085],[-72.902,40.407],[-73.347,40.728],[-73.796,41.047],[-74.249,41.364],[-74.706,41.68],[-75.168,41.993],[-75.635,42.305],[-76.106,42.615],[-76.582,42.923],[-77.063,43.229],[-77.548,43.533],[-78.039,43.835],[-78.524,44.14],[-79.015,44.443],[-79.511,44.744],[-80.012,45.043],[-80.518,45.339],[-81.029,45.634],[-81.546,45.926],[-82.069,46.215],[-82.589,46.528],[-83.115,46.838],[-83.648,47.145],[-84.186,47.45],[-84.731,47.753],[-85.282,48.053],[-85.84,48.35],[-86.404,48.644],[-86.975,48.936],[-87.552,49.225],[-88.137,49.511],[-88.728,49.794],[-89.403,50.039],[-90.085,50.28],[-90.774,50.517],[-91.47,50.75],[-92.173,50.979],[-92.883,51.204],[-93.6,51.424],[-94.323,51.64],[-95.054,51.851],[-95.791,52.058],[-96.535,52.26],[-96.539,52.261]]}},{"type":"Feature","properties":{"boundary_type":"subduction","feature_type":"gpml:SubductionZone","polarity":"Left","overriding_plate_id":456,"subducting_plate_id":501,"plate_ids":[456,501],"name":"Tarim subduction"},"geometry":{"type":"LineString","coordinates":[[-96.539,52.261],[-97.306,52.345],[-98.074,52.425],[-98.846,52.5],[-99.522,52.419],[-100.195,52.335],[-100.865,52.248],[-101.532,52.156],[-102.197,52.061]]}},{"type":"Feature","properties":{"boundary_type":"subduction","feature_type":"gpml:SubductionZone","polarity":"Right","overriding_plate_id":5907,"subducting_plate_id":77521,"plate_ids":[5907,77521],"name":"Hijaz SZ"},"geometry":{"type":"LineString","coordinates":[[-1.539,-9.999],[-1.666,-9.517],[-1.792,-9.034],[-1.918,-8.552],[-2.044,-8.069],[-2.169,-7.586],[-2.372,-7.165],[-2.575,-6.743],[-2.778,-6.322],[-2.98,-5.9],[-3.182,-5.478],[-3.383,-5.057],[-3.585,-4.635],[-3.786,-4.213],[-3.987,-3.791],[-4.187,-3.369],[-4.354,-2.963],[-4.52,-2.557],[-4.687,-2.151],[-4.853,-1.745],[-5.019,-1.339],[-5.185,-0.933],[-5.351,-0.527],[-5.517,-0.121]]}},{"type":"Feature","properties":{"boundary_type":"subduction","feature_type":"gpml:SubductionZone","polarity":"Right","overriding_plate_id":5031,"subducting_plate_id":77521,"plate_ids":[5031,77521],"name":"Hijaz SZ"},"geometry":{"type":"LineString","coordinates":[[-5.517,-0.121],[-5.654,0.215],[-5.792,0.552]]}},{"type":"Feature","properties":{"boundary_type":"subduction","feature_type":"gpml:SubductionZone","polarity":"Right","overriding_plate_id":501,"subducting_plate_id":980421,"plate_ids":[501,980421],"name":"northwestern india sub zone"},"geometry":{"type":"LineString","coordinates":[[-42.29,72.923],[-42.64,72.441],[-42.972,71.958],[-43.287,71.474],[-43.586,70.99],[-43.871,70.506],[-44.143,70.021],[-44.402,69.536],[-44.65,69.05],[-44.887,68.564],[-45.114,68.078],[-45.332,67.591],[-45.541,67.104],[-45.742,66.617],[-46.201,66.163],[-46.645,65.707],[-47.072,65.25],[-47.486,64.792],[-47.885,64.333],[-48.272,63.873],[-48.646,63.412],[-49.008,62.95],[-49.358,62.486],[-49.699,62.023],[-50.028,61.558],[-50.348,61.092],[-50.659,60.626],[-50.961,60.159],[-51.255,59.692],[-51.54,59.224],[-51.818,58.755],[-52.088,58.285],[-52.351,57.815],[-52.608,57.345],[-52.858,56.874],[-53.101,56.402],[-53.339,55.931],[-53.571,55.458],[-53.798,54.985],[-54.044,54.525],[-54.285,54.064],[-54.521,53.603],[-54.752,53.141],[-54.978,52.679],[-55.199,52.216],[-55.415,51.753],[-55.627,51.29],[-55.835,50.826],[-56.039,50.362],[-56.239,49.897],[-56.435,49.432],[-56.627,48.967],[-56.816,48.501],[-57.001,48.036],[-57.183,47.569],[-57.362,47.103],[-57.538,46.636],[-57.711,46.17],[-57.88,45.702],[-58.047,45.235],[-58.212,44.767],[-58.373,44.299],[-58.532,43.831],[-58.689,43.363],[-58.707,42.874],[-58.726,42.385],[-58.744,41.897],[-58.761,41.408],[-58.779,40.919],[-58.796,40.431],[-58.813,39.942],[-58.83,39.453],[-58.846,38.964],[-58.863,38.476],[-58.879,37.987]]}},{"type":"Feature","properties":{"boundary_type":"subduction","feature_type":"gpml:SubductionZone","polarity":"Right","overriding_plate_id":101,"subducting_plate_id":701,"plate_ids":[101,701],"name":"Proto Avalonia-Cadomia"},"geometry":{"type":"LineString","coordinates":[[-167.389,-56.357],[-166.907,-56.702],[-166.416,-57.044],[-165.916,-57.384],[-165.407,-57.723],[-164.888,-58.059],[-164.284,-58.428],[-163.666,-58.795],[-163.036,-59.158],[-162.392,-59.519],[-161.734,-59.876],[-161.062,-60.23],[-160.376,-60.58],[-159.674,-60.927],[-158.958,-61.27],[-158.225,-61.609],[-157.476,-61.944],[-156.711,-62.275],[-155.929,-62.602],[-155.129,-62.924],[-154.312,-63.242],[-153.685,-63.65],[-153.039,-64.055],[-152.375,-64.457],[-151.69,-64.857],[-150.985,-65.253],[-150.259,-65.645],[-149.511,-66.034],[-148.739,-66.42],[-147.944,-66.801],[-147.123,-67.178],[-146.277,-67.551],[-145.403,-67.92],[-144.502,-68.283],[-143.571,-68.642],[-142.611,-68.995],[-141.619,-69.343],[-140.596,-69.685],[-139.539,-70.021],[-138.448,-70.35],[-137.321,-70.672],[-136.158,-70.988],[-134.958,-71.295],[-133.901,-71.654],[-132.802,-72.006],[-131.662,-72.352],[-130.479,-72.691],[-129.249,-73.022],[-127.973,-73.346],[-126.649,-73.662],[-125.274,-73.97],[-123.848,-74.268],[-122.369,-74.557],[-120.836,-74.835],[-119.248,-75.103],[-117.605,-75.36],[-115.905,-75.604],[-114.983,-76.012],[-114.007,-76.416],[-112.972,-76.815],[-111.875,-77.211],[-110.709,-77.601],[-109.469,-77.987],[-108.148,-78.366],[-106.741,-78.739],[-105.239,-79.105],[-103.636,-79.463],[-101.922,-79.813],[-100.19,-80.204],[-98.317,-80.586],[-96.289,-80.957],[-94.092,-81.316],[-91.711,-81.661],[-89.131,-81.991],[-86.337,-82.303],[-83.316,-82.596],[-80.056,-82.867],[-76.553,-83.114],[-72.806,-83.333],[-68.824,-83.522],[-64.626,-83.678],[-60.239,-83.799],[-56.194,-83.995],[-51.9,-84.159],[-47.385,-84.288],[-42.692,-84.381],[-37.875,-84.436],[-32.997,-84.451],[-28.129,-84.425],[-23.338,-84.361],[-18.687,-84.258]]}},{"type":"Feature","properties":{"boundary_type":"subduction","feature_type":"gpml:SubductionZone","polarity":"Right","overriding_plate_id":101,"subducting_plate_id":98041,"plate_ids":[101,98041],"name":"Proto Avalonia(?) SZ"},"geometry":{"type":"LineString","coordinates":[[-170.117,-8.356],[-169.91,-8.784],[-169.703,-9.212],[-169.496,-9.639],[-169.288,-10.067],[-169.08,-10.494],[-168.871,-10.921],[-168.661,-11.348],[-168.451,-11.775],[-168.24,-12.202],[-168.028,-12.628],[-167.816,-13.055],[-167.603,-13.481],[-167.389,-13.907],[-167.174,-14.333],[-166.959,-14.758],[-166.857,-15.237],[-166.754,-15.715],[-166.651,-16.194],[-166.548,-16.672],[-166.444,-17.15],[-166.34,-17.628],[-166.235,-18.106],[-166.129,-18.584],[-166.023,-19.062],[-165.916,-19.54],[-165.809,-20.018],[-165.7,-20.496],[-165.592,-20.974],[-165.482,-21.451],[-165.372,-21.929],[-165.261,-22.407],[-165.149,-22.884],[-165.037,-23.361],[-164.924,-23.839],[-164.851,-24.326],[-164.779,-24.813],[-164.705,-25.3],[-164.631,-25.787],[-164.557,-26.274],[-164.481,-26.761],[-164.405,-27.248],[-164.329,-27.735],[-164.252,-28.222],[-164.174,-28.709],[-164.095,-29.196],[-164.016,-29.682],[-163.936,-30.169],[-163.855,-30.656],[-163.773,-31.142],[-163.69,-31.629],[-163.607,-32.115],[-163.522,-32.602],[-163.437,-33.088],[-163.351,-33.574],[-163.362,-34.065],[-163.373,-34.556],[-163.384,-35.046],[-163.396,-35.537],[-163.408,-36.028],[-163.419,-36.519],[-163.431,-37.009],[-163.443,-37.5],[-163.456,-37.991],[-163.468,-38.481],[-163.481,-38.972],[-163.494,-39.463],[-163.507,-39.953],[-163.52,-40.444],[-163.533,-40.935],[-163.547,-41.425],[-163.56,-41.916],[-163.574,-42.407],[-163.589,-42.897]]}},{"type":"Feature","properties":{"boundary_type":"subduction","feature_type":"gpml:SubductionZone","polarity":"Right","overriding_plate_id":101,"subducting_plate_id":701,"plate_ids":[101,701],"name":"Proto Avalonia(?) SZ"},"geometry":{"type":"LineString","coordinates":[[-163.589,-42.897],[-163.602,-43.342],[-163.615,-43.788],[-163.628,-44.233],[-163.642,-44.678],[-163.656,-45.123],[-163.67,-45.568],[-163.684,-46.013],[-163.699,-46.458],[-163.714,-46.903],[-163.81,-47.391],[-163.909,-47.879],[-164.009,-48.367],[-164.111,-48.854],[-164.215,-49.342],[-164.322,-49.83],[-164.43,-50.317],[-164.541,-50.805],[-164.654,-51.292],[-164.769,-51.779],[-164.887,-52.266],[-165.142,-52.723],[-165.402,-53.18],[-165.667,-53.635],[-165.938,-54.091],[-166.215,-54.545],[-166.499,-54.999],[-166.789,-55.453],[-167.085,-55.906],[-167.389,-56.357]]}},{"type":"Feature","properties":{"boundary_type":"subduction","feature_type":"gpml:SubductionZone","polarity":"Right","overriding_plate_id":101,"subducting_plate_id":701,"plate_ids":[101,701],"name":"Oceanic SZ (part of TOAST?)"},"geometry":{"type":"LineString","coordinates":[[75.715,-47.268],[75.324,-46.923],[74.938,-46.577],[74.557,-46.23],[74.181,-45.881],[73.737,-45.509],[73.298,-45.136],[72.865,-44.761],[72.437,-44.384],[72.015,-44.006],[71.599,-43.627],[71.187,-43.245],[70.781,-42.863],[70.38,-42.479],[69.983,-42.093],[69.592,-41.707],[69.205,-41.319],[68.822,-40.929],[68.445,-40.539],[68.071,-40.147],[67.702,-39.754],[67.569,-39.288],[67.437,-38.823],[67.307,-38.357],[67.179,-37.891],[67.052,-37.425],[66.927,-36.959],[66.804,-36.492],[66.681,-36.026],[66.561,-35.559],[66.442,-35.093],[66.324,-34.626],[66.207,-34.159],[66.092,-33.692],[65.978,-33.225],[65.865,-32.758],[65.753,-32.29],[65.643,-31.823],[65.533,-31.355],[65.425,-30.888],[65.383,-30.414],[65.341,-29.941],[65.3,-29.467],[65.259,-28.993],[65.219,-28.52],[65.179,-28.046],[65.139,-27.573],[65.099,-27.099],[65.06,-26.625]]}},{"type":"Feature","properties":{"boundary_type":"ridge","feature_type":"gpml:MidOceanRidge","polarity":null,"overriding_plate_id":null,"subducting_plate_id":null,"plate_ids":[77521,77531],"name":"mor"},"geometry":{"type":"LineString","coordinates":[[6.266,-6.892],[6.288,-7.371],[6.309,-7.85],[6.331,-8.328],[6.352,-8.807],[6.374,-9.286],[6.395,-9.765],[6.417,-10.244],[6.439,-10.723],[6.461,-11.202],[6.483,-11.681],[6.505,-12.16],[6.527,-12.638],[6.549,-13.117],[6.571,-13.596],[6.594,-14.075],[6.616,-14.554],[6.639,-15.033],[6.179,-15.069],[5.719,-15.105],[5.259,-15.14],[4.799,-15.174],[4.86,-15.656],[4.921,-16.138],[4.983,-16.621],[5.045,-17.103],[5.107,-17.585],[5.17,-18.067],[5.233,-18.549],[5.296,-19.032],[5.36,-19.514],[5.424,-19.996],[5.488,-20.478],[5.553,-20.96],[5.619,-21.442],[5.684,-21.924],[5.327,-21.994],[4.968,-22.062],[5.031,-22.538],[5.094,-23.013],[5.157,-23.489],[5.221,-23.964],[5.285,-24.439],[5.35,-24.915],[5.415,-25.39],[5.481,-25.865],[5.547,-26.34],[5.614,-26.816],[5.682,-27.291],[5.75,-27.766],[5.818,-28.241]]}},{"type":"Feature","properties":{"boundary_type":"ridge","feature_type":"gpml:MidOceanRidge","polarity":null,"overriding_plate_id":null,"subducting_plate_id":null,"plate_ids":[101,606],"name":"Lhasa back-arc? ridge"},"geometry":{"type":"LineString","coordinates":[[85.519,23.879],[85.968,24.156],[86.419,24.432],[86.872,24.707],[87.327,24.981],[87.785,25.253],[88.244,25.523],[88.705,25.793],[89.168,26.06],[89.633,26.327],[90.101,26.592],[90.57,26.855],[91.042,27.116],[91.516,27.377],[91.993,27.635],[92.471,27.892],[92.705,27.466],[92.936,27.041],[93.166,26.615],[93.394,26.188],[93.879,26.412],[94.366,26.634],[94.854,26.854],[95.345,27.073],[95.837,27.29],[96.332,27.506],[96.828,27.719],[97.326,27.931],[97.826,28.141],[98.328,28.349],[98.832,28.556],[99.339,28.76],[99.847,28.963],[100.357,29.164],[100.869,29.362],[101.383,29.559],[101.898,29.754],[102.416,29.947],[102.564,29.593],[102.711,29.24],[102.857,28.886],[103.002,28.532],[103.535,28.695],[104.07,28.857],[104.607,29.016],[105.145,29.173],[105.685,29.328],[106.227,29.481],[106.77,29.631],[107.315,29.78],[107.862,29.926],[108.41,30.069],[108.96,30.211],[109.137,29.847],[109.314,29.482],[109.489,29.117],[109.663,28.752],[110.17,28.898],[110.679,29.043],[111.189,29.186],[111.701,29.326],[112.214,29.465],[112.728,29.602],[113.244,29.737],[113.761,29.87],[114.28,30.0],[114.8,30.129],[115.021,29.702],[115.239,29.274],[115.457,28.846],[115.672,28.417],[115.886,27.988],[116.097,27.559],[116.639,27.687],[117.182,27.812],[117.725,27.936],[118.271,28.057],[118.817,28.176],[119.365,28.293],[119.913,28.408],[120.463,28.52],[121.014,28.63],[121.567,28.739],[122.12,28.844],[122.674,28.948],[122.838,28.472],[123.0,27.996],[123.16,27.519],[123.319,27.042],[123.723,27.185],[124.128,27.326]]}},{"type":"Feature","properties":{"boundary_type":"ridge","feature_type":"gpml:MidOceanRidge","polarity":null,"overriding_plate_id":null,"subducting_plate_id":null,"plate_ids":[456,98041],"name":"India-Siberia ridge"},"geometry":{"type":"LineString","coordinates":[[-163.434,23.633],[-162.908,23.74],[-162.381,23.846],[-161.853,23.95],[-161.325,24.052],[-160.795,24.152],[-160.265,24.251],[-159.734,24.347],[-159.203,24.442],[-158.67,24.535],[-158.137,24.626],[-157.603,24.715],[-157.068,24.802],[-156.532,24.888],[-155.996,24.971],[-155.459,25.053],[-154.921,25.132],[-154.382,25.21],[-153.843,25.285],[-153.304,25.359],[-152.763,25.431],[-152.222,25.501],[-151.68,25.568],[-151.138,25.634],[-150.595,25.698],[-150.052,25.76],[-149.508,25.819],[-148.963,25.877],[-148.418,25.933],[-147.872,25.986],[-147.326,26.038],[-146.78,26.088],[-146.233,26.135],[-145.685,26.18],[-145.137,26.224],[-144.589,26.265],[-144.04,26.304],[-143.491,26.341],[-142.942,26.376],[-142.392,26.409],[-141.842,26.44],[-141.292,26.469],[-140.742,26.495],[-140.191,26.52],[-139.64,26.542],[-139.089,26.562],[-138.537,26.58],[-137.986,26.596],[-137.434,26.61],[-136.882,26.622],[-136.33,26.631],[-135.778,26.639],[-135.226,26.644],[-134.674,26.648],[-134.122,26.649],[-134.24,26.186],[-134.358,25.723],[-134.474,25.261],[-134.59,24.798],[-134.705,24.335],[-134.819,23.872],[-134.932,23.409],[-134.398,23.422],[-133.865,23.434],[-133.331,23.443],[-132.797,23.451],[-132.264,23.457],[-131.73,23.461],[-131.196,23.464],[-130.662,23.464],[-130.128,23.463],[-129.594,23.46],[-129.061,23.455],[-128.527,23.448],[-127.993,23.44],[-127.46,23.429],[-126.926,23.417],[-126.393,23.403],[-125.859,23.387],[-125.326,23.37],[-124.793,23.35],[-124.26,23.329]]}},{"type":"Feature","properties":{"boundary_type":"ridge","feature_type":"gpml:MidOceanRidge","polarity":null,"overriding_plate_id":null,"subducting_plate_id":null,"plate_ids":[580,98041],"name":"India-Siberia ridge"},"geometry":{"type":"LineString","coordinates":[[-124.26,23.329],[-123.772,23.308],[-123.284,23.286],[-122.796,23.262],[-122.309,23.236],[-121.821,23.209],[-121.334,23.18],[-120.847,23.15],[-120.36,23.119],[-120.355,22.674],[-120.349,22.229],[-120.344,21.785],[-120.339,21.34],[-120.334,20.895],[-120.329,20.45],[-120.324,20.006],[-120.319,19.561],[-119.815,19.484],[-119.313,19.405],[-118.81,19.325],[-118.309,19.244],[-117.807,19.162],[-117.306,19.078],[-116.806,18.992],[-116.306,18.906],[-115.807,18.818],[-115.309,18.728],[-114.81,18.638],[-114.313,18.546],[-113.816,18.453],[-113.319,18.358],[-112.823,18.262],[-112.328,18.165],[-111.833,18.067],[-111.338,17.967]]}},{"type":"Feature","properties":{"boundary_type":"ridge","feature_type":"gpml:MidOceanRidge","polarity":null,"overriding_plate_id":null,"subducting_plate_id":null,"plate_ids":[501,5031],"name":"MOR"},"geometry":{"type":"LineString","coordinates":[[28.911,15.474],[28.596,15.663],[28.28,15.851],[27.964,16.039],[27.748,16.179],[27.531,16.32]]}},{"type":"Feature","properties":{"boundary_type":"ridge","feature_type":"gpml:MidOceanRidge","polarity":null,"overriding_plate_id":null,"subducting_plate_id":null,"plate_ids":[5031,980421],"name":"MOR"},"geometry":{"type":"LineString","coordinates":[[27.531,16.32],[27.1,16.598],[26.668,16.875],[26.235,17.151],[25.801,17.426],[25.365,17.7],[24.927,17.974],[24.489,18.246],[24.049,18.517],[23.608,18.787],[23.165,19.057],[22.721,19.325],[22.275,19.592],[21.828,19.858],[21.379,20.123],[20.929,20.387],[20.573,20.096],[20.218,19.805],[19.864,19.514],[19.512,19.221],[19.054,19.425],[18.595,19.627],[18.134,19.828],[17.673,20.028],[17.21,20.227],[16.746,20.425],[16.281,20.621],[15.815,20.816],[15.348,21.01],[14.879,21.203],[14.409,21.394],[13.938,21.584],[13.466,21.773],[12.992,21.96],[12.517,22.146],[12.041,22.33],[11.564,22.514],[11.341,22.115],[11.12,21.715],[10.9,21.316],[10.413,21.512],[9.925,21.707],[9.436,21.9],[8.945,22.092],[8.453,22.282],[7.96,22.471],[7.466,22.659],[6.97,22.844],[6.472,23.029],[5.974,23.212],[5.474,23.393],[4.972,23.572],[4.469,23.75],[3.965,23.927],[3.46,24.102],[2.953,24.275],[2.445,24.446],[1.935,24.616],[1.424,24.784],[0.912,24.95],[0.705,24.546],[0.499,24.141],[0.294,23.736],[0.091,23.331],[-0.111,22.926],[-0.312,22.52],[-0.512,22.114],[-0.71,21.708],[-1.227,21.808],[-1.745,21.905],[-2.264,22.001],[-2.783,22.096],[-3.303,22.189],[-3.823,22.28],[-4.344,22.369],[-4.866,22.457],[-5.389,22.543],[-5.912,22.628],[-6.435,22.711],[-6.96,22.792],[-7.485,22.871],[-8.011,22.949],[-8.537,23.025],[-9.064,23.099],[-9.591,23.171],[-10.119,23.242],[-10.647,23.311],[-11.176,23.378],[-11.706,23.443],[-12.236,23.507],[-12.767,23.569],[-13.298,23.628],[-13.829,23.687],[-14.361,23.743],[-14.894,23.797],[-15.427,23.85],[-15.96,23.901],[-16.494,23.95]]}},{"type":"Feature","properties":{"boundary_type":"ridge","feature_type":"gpml:MidOceanRidge","polarity":null,"overriding_plate_id":null,"subducting_plate_id":null,"plate_ids":[501,980421],"name":"ocean"},"geometry":{"type":"LineString","coordinates":[[27.531,16.32],[27.925,16.579],[28.32,16.838],[28.716,17.096],[29.113,17.353],[29.511,17.609],[29.911,17.864],[30.311,18.119],[30.713,18.373],[31.116,18.626],[31.52,18.878],[31.757,18.542],[31.994,18.206],[32.229,17.87],[32.464,17.533],[32.89,17.774],[33.317,18.013],[33.746,18.251],[34.176,18.489],[34.606,18.725],[35.039,18.96],[35.472,19.195],[35.906,19.428],[36.342,19.661],[36.779,19.892],[37.218,20.122]]}},{"type":"Feature","properties":{"boundary_type":"ridge","feature_type":"gpml:MidOceanRidge","polarity":null,"overriding_plate_id":null,"subducting_plate_id":null,"plate_ids":[701,980421],"name":"ocean"},"geometry":{"type":"LineString","coordinates":[[-63.489,5.283],[-63.123,5.567],[-62.756,5.85],[-62.389,6.133],[-62.101,5.781],[-61.813,5.428],[-61.526,5.075],[-61.238,4.722],[-60.952,4.368],[-60.665,4.015],[-60.265,4.307],[-59.865,4.598],[-59.465,4.89],[-59.064,5.181],[-58.663,5.472],[-58.261,5.762],[-57.859,6.053],[-57.457,6.343],[-57.054,6.632],[-56.651,6.922],[-56.247,7.211],[-55.843,7.499],[-55.438,7.788],[-55.033,8.076],[-54.627,8.363],[-54.22,8.65],[-53.813,8.937],[-53.405,9.223],[-52.997,9.509],[-52.588,9.794],[-52.178,10.079],[-51.767,10.363],[-51.356,10.647],[-50.944,10.931],[-50.531,11.213],[-50.117,11.495],[-49.703,11.777],[-49.287,12.058],[-48.871,12.338],[-48.454,12.618],[-48.036,12.897],[-47.617,13.175],[-47.197,13.453],[-46.776,13.73],[-46.354,14.006],[-45.931,14.282],[-45.507,14.557],[-45.082,14.831],[-44.656,15.104],[-44.229,15.376],[-43.801,15.648],[-43.371,15.919],[-42.941,16.189],[-42.509,16.458],[-42.076,16.726],[-41.642,16.993],[-41.206,17.26],[-40.77,17.525],[-40.332,17.79],[-39.892,18.053],[-39.452,18.316],[-39.01,18.577],[-38.567,18.838],[-38.122,19.097],[-37.676,19.355],[-37.424,18.993],[-37.174,18.631],[-36.925,18.268],[-36.676,17.905],[-36.429,17.541],[-36.183,17.178],[-35.718,17.407],[-35.253,17.634],[-34.787,17.861],[-34.319,18.086],[-33.85,18.311],[-33.38,18.534],[-32.909,18.756],[-32.436,18.977],[-31.962,19.196],[-31.487,19.415],[-31.011,19.632],[-30.533,19.848],[-30.054,20.063],[-29.574,20.276],[-29.093,20.488],[-28.61,20.699],[-28.125,20.908],[-27.64,21.116],[-27.153,21.323],[-26.665,21.528],[-26.175,21.732],[-25.684,21.934],[-25.191,22.135],[-24.698,22.335],[-24.202,22.532],[-23.706,22.729],[-23.208,22.924],[-22.708,23.117],[-22.207,23.309],[-21.705,23.499],[-21.201,23.687],[-20.695,23.874],[-20.189,24.059],[-19.68,24.243],[-19.171,24.425],[-18.66,24.605],[-18.147,24.783],[-17.633,24.96],[-17.117,25.135],[-16.6,25.308],[-16.082,25.479]]}},{"type":"Feature","properties":{"boundary_type":"ridge","feature_type":"gpml:MidOceanRidge","polarity":null,"overriding_plate_id":null,"subducting_plate_id":null,"plate_ids":[501,5031],"name":"ANS-Mozambique Ocean ridge"},"geometry":{"type":"LineString","coordinates":[[21.551,-2.813],[21.781,-2.393],[22.01,-1.974],[22.239,-1.554],[22.468,-1.134],[22.696,-0.714],[22.925,-0.295],[23.154,0.125],[23.383,0.545],[23.611,0.965],[23.84,1.385],[24.069,1.804],[24.298,2.224],[23.988,2.426],[23.677,2.628],[23.366,2.83],[23.597,3.271],[23.828,3.712],[24.059,4.153],[24.29,4.594],[24.522,5.035],[24.754,5.476],[24.986,5.917],[25.218,6.358],[25.451,6.798],[25.685,7.239],[25.919,7.679],[26.153,8.119],[26.388,8.559],[26.624,8.999],[26.86,9.439],[26.509,9.581],[26.159,9.724],[25.808,9.865],[26.042,10.298],[26.277,10.73],[26.512,11.163],[26.748,11.595],[26.985,12.027],[27.223,12.458],[27.461,12.89],[27.701,13.321],[27.941,13.752],[28.182,14.183],[28.424,14.614],[28.667,15.044],[28.911,15.474]]}},{"type":"Feature","properties":{"boundary_type":"ridge","feature_type":"gpml:MidOceanRidge","polarity":null,"overriding_plate_id":null,"subducting_plate_id":null,"plate_ids":[101,401],"name":"Aus-Siberia ridge"},"geometry":{"type":"LineString","coordinates":[[136.133,17.482],[136.577,17.297],[137.02,17.113],[137.462,16.927],[137.904,16.74],[138.344,16.552],[138.784,16.363],[139.223,16.173],[139.661,15.983],[139.929,16.399],[140.198,16.815],[140.468,17.231],[140.739,17.647],[141.012,18.062],[141.286,18.476],[141.561,18.89],[141.838,19.304],[142.116,19.718],[142.395,20.131],[142.676,20.543],[142.959,20.955],[143.243,21.367],[143.528,21.778],[143.816,22.189],[144.105,22.599],[144.395,23.009],[144.688,23.418],[144.982,23.826],[145.278,24.234],[145.576,24.642],[145.876,25.048],[146.178,25.455],[146.482,25.86],[146.788,26.265],[147.097,26.669],[147.407,27.073],[147.72,27.476]]}},{"type":"Feature","properties":{"boundary_type":"ridge","feature_type":"gpml:MidOceanRidge","polarity":null,"overriding_plate_id":null,"subducting_plate_id":null,"plate_ids":[401,501],"name":"Aus-Siberia ridge"},"geometry":{"type":"LineString","coordinates":[[147.72,27.476],[148.027,27.869],[148.337,28.261],[148.65,28.653],[148.964,29.044],[149.281,29.434],[149.6,29.823],[149.922,30.212],[150.247,30.599],[150.574,30.986],[150.903,31.373],[150.462,31.684],[150.017,31.994],[149.569,32.302],[149.118,32.608],[148.665,32.913],[148.208,33.217],[147.747,33.518],[147.284,33.818],[146.817,34.116],[146.347,34.413],[145.874,34.707],[145.397,35.0],[145.77,35.386],[146.147,35.771],[146.527,36.155],[146.911,36.537],[147.299,36.918],[147.691,37.298],[148.087,37.677],[148.486,38.054],[148.89,38.43],[148.412,38.73],[147.93,39.028],[147.444,39.325],[146.954,39.619],[146.459,39.911],[145.961,40.201],[145.458,40.489],[144.951,40.774],[144.439,41.058],[143.923,41.339],[143.403,41.617],[142.878,41.894],[142.348,42.168],[141.814,42.439],[141.275,42.708],[140.732,42.975],[140.184,43.239],[140.507,43.661],[140.834,44.082],[141.166,44.502],[141.503,44.921],[141.845,45.339],[142.191,45.756],[142.544,46.172],[142.901,46.587],[143.264,47.001],[143.633,47.414],[144.007,47.825],[144.387,48.236],[144.774,48.644],[145.167,49.052],[145.566,49.458],[145.972,49.863],[146.385,50.267],[146.805,50.669],[147.232,51.069],[147.667,51.468],[148.109,51.865],[148.559,52.261],[149.017,52.654],[149.484,53.046]]}},{"type":"Feature","properties":{"boundary_type":"ridge","feature_type":"gpml:MidOceanRidge","polarity":null,"overriding_plate_id":null,"subducting_plate_id":null,"plate_ids":[101,701],"name":"WAC-Congo ridge"},"geometry":{"type":"LineString","coordinates":[[75.715,-47.268],[75.762,-47.767],[75.81,-48.266],[75.859,-48.765],[75.909,-49.263],[75.96,-49.762],[76.012,-50.261],[76.065,-50.759],[76.119,-51.258],[76.174,-51.757],[76.231,-52.255],[76.289,-52.754],[76.348,-53.252],[76.409,-53.751],[76.471,-54.249],[76.535,-54.748],[76.6,-55.246],[76.667,-55.744],[76.736,-56.243],[76.806,-56.741],[76.879,-57.239],[76.953,-57.737],[77.03,-58.235],[77.108,-58.734],[77.189,-59.232],[77.272,-59.73],[77.358,-60.228],[77.447,-60.725],[77.538,-61.223],[77.632,-61.721],[77.729,-62.219],[77.83,-62.716],[77.934,-63.214],[78.041,-63.711],[78.153,-64.209],[78.268,-64.706],[78.388,-65.203],[78.513,-65.7],[78.642,-66.197],[78.777,-66.694],[78.917,-67.191],[79.063,-67.688],[79.215,-68.184],[79.374,-68.68],[79.54,-69.177],[79.714,-69.673],[79.896,-70.169],[80.087,-70.664],[80.288,-71.16],[80.5,-71.655],[80.722,-72.15],[80.957,-72.645],[81.205,-73.139],[81.468,-73.633],[81.747,-74.127],[82.043,-74.62],[82.358,-75.113],[82.695,-75.606],[83.054,-76.098],[83.44,-76.589],[81.549,-76.744],[79.616,-76.884],[77.645,-77.01],[75.638,-77.121],[73.599,-77.216],[71.617,-77.384],[69.585,-77.536],[67.507,-77.673],[65.385,-77.794],[63.224,-77.898],[61.029,-77.986],[58.806,-78.056],[56.56,-78.108],[54.298,-78.143],[52.026,-78.159],[49.751,-78.157],[47.481,-78.138],[45.221,-78.1],[44.743,-78.565],[44.225,-79.03],[43.662,-79.494],[43.048,-79.957],[42.375,-80.418],[41.634,-80.878],[40.816,-81.336],[39.907,-81.793],[38.893,-82.247],[37.753,-82.698],[36.465,-83.147],[34.998,-83.591],[33.314,-84.03],[31.367,-84.464],[29.092,-84.89],[24.778,-84.711],[20.767,-84.504],[17.062,-84.272],[13.657,-84.019],[10.538,-83.746],[7.687,-83.456],[5.081,-83.152],[1.725,-83.406],[-1.886,-83.635],[-5.748,-83.838],[-9.853,-84.011],[-14.177,-84.151],[-18.687,-84.258]]}},{"type":"Feature","properties":{"boundary_type":"ridge","feature_type":"gpml:MidOceanRidge","polarity":null,"overriding_plate_id":null,"subducting_plate_id":null,"plate_ids":[701,98041],"name":"Mirovoi Ridge"},"geometry":{"type":"LineString","coordinates":[[-163.589,-42.897],[-163.042,-42.639],[-162.5,-42.379],[-161.963,-42.115],[-161.43,-41.85],[-160.902,-41.582],[-160.378,-41.311],[-159.858,-41.038],[-159.343,-40.763],[-158.832,-40.486],[-158.325,-40.206],[-157.822,-39.924],[-157.323,-39.64],[-156.829,-39.354],[-156.338,-39.065],[-155.852,-38.775],[-155.37,-38.483],[-154.891,-38.189],[-154.416,-37.893],[-153.946,-37.594],[-153.478,-37.295],[-153.031,-37.618],[-152.579,-37.94],[-152.123,-38.261],[-151.663,-38.579],[-151.2,-38.896],[-150.732,-39.211],[-150.259,-39.524],[-149.783,-39.835],[-149.302,-40.144],[-148.817,-40.452],[-148.328,-40.757],[-147.833,-41.06],[-147.335,-41.36],[-146.832,-41.659],[-146.324,-41.956],[-145.811,-42.25],[-145.294,-42.542],[-144.771,-42.831],[-144.244,-43.119],[-143.712,-43.403],[-143.175,-43.686],[-142.633,-43.965],[-142.086,-44.242],[-141.533,-44.517],[-140.975,-44.789],[-140.413,-45.058],[-139.953,-44.685],[-139.5,-44.311],[-139.052,-43.935],[-138.611,-43.558],[-138.174,-43.179],[-137.743,-42.798],[-137.317,-42.415],[-136.897,-42.031],[-136.481,-41.645],[-136.071,-41.258],[-135.665,-40.87],[-135.264,-40.48],[-134.868,-40.089],[-134.476,-39.696],[-134.089,-39.302],[-133.706,-38.907],[-133.327,-38.511],[-132.952,-38.113],[-132.582,-37.714],[-132.215,-37.314],[-131.852,-36.913],[-131.494,-36.511],[-131.138,-36.108],[-130.787,-35.703],[-130.439,-35.298],[-130.094,-34.892],[-129.753,-34.485],[-129.416,-34.077],[-129.081,-33.667],[-128.75,-33.257],[-128.421,-32.847],[-128.096,-32.435],[-127.774,-32.022],[-127.454,-31.609],[-127.138,-31.195],[-126.824,-30.78],[-126.513,-30.364],[-126.204,-29.948],[-125.898,-29.531],[-125.595,-29.113],[-125.294,-28.695],[-124.996,-28.276],[-124.699,-27.856],[-124.406,-27.436],[-124.114,-27.015],[-123.824,-26.593],[-123.537,-26.171],[-123.252,-25.748]]}},{"type":"Feature","properties":{"boundary_type":"ridge","feature_type":"gpml:MidOceanRidge","polarity":null,"overriding_plate_id":null,"subducting_plate_id":null,"plate_ids":[580,98041],"name":"Mirovoi Ridge"},"geometry":{"type":"LineString","coordinates":[[-120.763,-25.709],[-121.118,-25.327],[-121.471,-24.944],[-121.822,-24.56],[-122.171,-24.175],[-122.517,-23.79],[-122.862,-23.403],[-123.204,-23.016],[-123.545,-22.629],[-123.884,-22.24],[-124.22,-21.851],[-124.555,-21.461],[-124.888,-21.07],[-125.22,-20.679],[-125.549,-20.287],[-125.877,-19.895],[-126.204,-19.502],[-126.529,-19.108],[-126.852,-18.714],[-127.174,-18.319],[-127.494,-17.924],[-127.813,-17.528],[-128.13,-17.132],[-128.446,-16.735],[-128.761,-16.338],[-128.366,-16.019],[-127.972,-15.7],[-127.579,-15.38],[-127.188,-15.059],[-126.797,-14.737],[-126.408,-14.415],[-126.02,-14.092],[-125.633,-13.769],[-125.247,-13.445],[-124.862,-13.12],[-124.478,-12.795],[-124.096,-12.469],[-123.714,-12.143],[-123.333,-11.816],[-122.953,-11.489],[-122.574,-11.161],[-122.195,-10.833],[-121.818,-10.504],[-121.441,-10.175],[-121.065,-9.845],[-120.69,-9.515],[-120.316,-9.185],[-119.942,-8.854],[-119.569,-8.523],[-119.196,-8.191],[-118.825,-7.859],[-118.453,-7.527],[-118.083,-7.195],[-117.713,-6.862],[-117.343,-6.529],[-117.694,-6.18],[-118.045,-5.832],[-118.395,-5.483],[-118.744,-5.134],[-119.094,-4.784],[-119.443,-4.435],[-119.791,-4.085],[-120.14,-3.736],[-120.488,-3.386],[-120.836,-3.036],[-121.183,-2.686],[-121.531,-2.335],[-121.878,-1.985],[-122.225,-1.635],[-122.572,-1.284],[-122.919,-0.934],[-123.265,-0.583],[-123.612,-0.233],[-123.959,0.118],[-124.306,0.469],[-124.652,0.819],[-124.999,1.17],[-125.346,1.52],[-125.693,1.871],[-126.04,2.221],[-126.387,2.571],[-126.735,2.921],[-127.083,3.271],[-126.73,3.62],[-126.377,3.969],[-126.024,4.317],[-125.67,4.665],[-125.316,5.013],[-124.962,5.361],[-124.607,5.709],[-124.252,6.056],[-123.897,6.403],[-123.541,6.75],[-123.184,7.097],[-122.827,7.443],[-122.469,7.789],[-122.111,8.135],[-121.752,8.481],[-121.392,8.826],[-121.032,9.171],[-120.671,9.515],[-120.31,9.859],[-119.947,10.203],[-119.584,10.546],[-119.22,10.889],[-118.855,11.232],[-118.489,11.574],[-118.123,11.915],[-117.755,12.257],[-117.387,12.597],[-117.017,12.937],[-116.647,13.277],[-116.276,13.616],[-115.903,13.954],[-115.529,14.292],[-115.155,14.63],[-114.779,14.966],[-114.401,15.302],[-114.023,15.638],[-113.644,15.973],[-113.263,16.307],[-112.881,16.64],[-112.497,16.973],[-112.112,17.305],[-111.726,17.637],[-111.338,17.967]]}},{"type":"Feature","properties":{"boundary_type":"ridge","feature_type":"gpml:MidOceanRidge","polarity":null,"overriding_plate_id":null,"subducting_plate_id":null,"plate_ids":[701,98041],"name":"Tarim-SM MOR"},"geometry":{"type":"LineString","coordinates":[[-123.252,-25.748],[-122.754,-25.744],[-122.256,-25.738],[-121.758,-25.73],[-121.261,-25.72],[-120.763,-25.709]]}},{"type":"Feature","properties":{"boundary_type":"ridge","feature_type":"gpml:MidOceanRidge","polarity":null,"overriding_plate_id":null,"subducting_plate_id":null,"plate_ids":[580,701],"name":"Tarim-SM MOR"},"geometry":{"type":"LineString","coordinates":[[-120.763,-25.709],[-120.208,-25.695],[-119.654,-25.678],[-119.1,-25.66],[-118.545,-25.639],[-117.991,-25.616],[-117.438,-25.591],[-116.884,-25.564],[-116.331,-25.535],[-115.778,-25.504],[-115.225,-25.471],[-114.673,-25.436],[-114.121,-25.398],[-113.569,-25.359],[-113.018,-25.318],[-112.467,-25.274],[-111.917,-25.228],[-111.367,-25.181],[-110.817,-25.131],[-110.268,-25.08],[-109.719,-25.026],[-109.171,-24.97],[-108.623,-24.913],[-108.076,-24.853],[-107.529,-24.791],[-106.983,-24.728],[-106.437,-24.662],[-105.892,-24.594],[-105.348,-24.525],[-104.804,-24.453],[-104.261,-24.38],[-103.719,-24.305],[-103.177,-24.227],[-102.636,-24.148],[-102.095,-24.067],[-101.555,-23.984],[-101.016,-23.899],[-100.478,-23.812],[-99.94,-23.724],[-99.403,-23.633],[-98.867,-23.541],[-98.332,-23.447],[-97.797,-23.351],[-97.263,-23.253],[-96.73,-23.153],[-96.198,-23.052],[-95.666,-22.949],[-95.136,-22.844],[-94.606,-22.737],[-94.077,-22.628],[-93.549,-22.518],[-93.021,-22.406],[-92.495,-22.293],[-91.969,-22.177],[-91.861,-22.635],[-91.752,-23.093],[-91.642,-23.55],[-91.532,-24.008],[-91.421,-24.465],[-91.309,-24.922],[-91.196,-25.38],[-91.082,-25.837],[-90.568,-25.675],[-90.056,-25.512],[-89.544,-25.347],[-89.035,-25.18],[-88.526,-25.012],[-88.019,-24.842],[-87.514,-24.67],[-87.009,-24.496],[-86.507,-24.321],[-86.005,-24.144],[-85.505,-23.965],[-85.007,-23.785],[-84.509,-23.603],[-84.014,-23.42],[-83.519,-23.235],[-83.026,-23.049],[-82.534,-22.861],[-82.044,-22.671],[-81.555,-22.48],[-81.067,-22.288],[-80.581,-22.094],[-80.096,-21.899],[-79.612,-21.702],[-79.13,-21.504],[-78.649,-21.304],[-78.169,-21.103],[-77.691,-20.901],[-77.214,-20.697],[-76.738,-20.493],[-76.263,-20.286],[-75.79,-20.079],[-75.318,-19.87],[-74.847,-19.66],[-74.378,-19.449],[-73.91,-19.237],[-73.442,-19.023],[-72.977,-18.808],[-73.145,-18.342],[-73.312,-17.875],[-73.479,-17.409],[-73.644,-16.942],[-73.809,-16.475],[-73.973,-16.007],[-74.136,-15.54],[-74.299,-15.073],[-74.461,-14.605],[-74.622,-14.138],[-74.782,-13.67],[-74.942,-13.202],[-75.101,-12.734],[-74.661,-12.512],[-74.221,-12.289],[-73.782,-12.065],[-73.343,-11.84],[-72.906,-11.615],[-72.469,-11.389],[-72.032,-11.163],[-71.597,-10.936],[-71.162,-10.708],[-70.728,-10.48],[-70.294,-10.251],[-69.861,-10.022],[-69.429,-9.792],[-68.997,-9.561],[-68.566,-9.33],[-68.135,-9.099],[-67.705,-8.866],[-67.276,-8.634],[-66.847,-8.401],[-66.418,-8.167]]}},{"type":"Feature","properties":{"boundary_type":"transform","feature_type":"gpml:Transform","polarity":null,"overriding_plate_id":null,"subducting_plate_id":null,"plate_ids":[456,501],"name":"transform"},"geometry":{"type":"LineString","coordinates":[[-167.758,31.43],[-167.651,31.886],[-167.544,32.341],[-167.436,32.796],[-167.327,33.25],[-167.216,33.705],[-167.104,34.16],[-166.991,34.614],[-166.877,35.069],[-166.762,35.523],[-166.645,35.978],[-166.527,36.432],[-166.407,36.886],[-166.336,37.367],[-166.264,37.849],[-166.191,38.33],[-166.117,38.812],[-166.042,39.293],[-165.966,39.774],[-165.888,40.255],[-165.81,40.737],[-165.731,41.218],[-165.65,41.699],[-165.568,42.18],[-165.485,42.661],[-165.401,43.142],[-165.315,43.623],[-165.228,44.103],[-165.14,44.584],[-164.874,45.044],[-164.604,45.504],[-164.329,45.964],[-164.05,46.422],[-163.766,46.88],[-163.477,47.337],[-163.183,47.793],[-162.884,48.249],[-162.58,48.704],[-162.27,49.158],[-161.954,49.611],[-161.633,50.063],[-161.305,50.515],[-160.971,50.965],[-160.517,51.368],[-160.055,51.769],[-159.584,52.169],[-159.106,52.566],[-158.618,52.962],[-158.121,53.355],[-157.616,53.746],[-157.1,54.136],[-156.575,54.523],[-156.04,54.907],[-155.495,55.289],[-154.939,55.669],[-154.372,56.046],[-153.794,56.421],[-153.205,56.793],[-152.604,57.162]]}},{"type":"Feature","properties":{"boundary_type":"transform","feature_type":"gpml:Transform","polarity":null,"overriding_plate_id":null,"subducting_plate_id":null,"plate_ids":[701,77531],"name":"ANS-SM transform"},"geometry":{"type":"LineString","coordinates":[[7.498,-22.556],[7.938,-22.292],[8.377,-22.027],[8.814,-21.76],[9.276,-21.558],[9.737,-21.354],[10.197,-21.148],[10.655,-20.942],[11.112,-20.734],[11.568,-20.525],[12.004,-20.322],[12.44,-20.117],[12.874,-19.912],[13.307,-19.705],[13.739,-19.497],[14.17,-19.288],[14.6,-19.079],[15.028,-18.868],[15.442,-18.594],[15.855,-18.319],[16.266,-18.043],[16.676,-17.767],[17.085,-17.489],[17.493,-17.211],[17.855,-16.966],[18.215,-16.72],[18.575,-16.474],[18.934,-16.227],[19.292,-15.98]]}},{"type":"Feature","properties":{"boundary_type":"transform","feature_type":"gpml:Transform","polarity":null,"overriding_plate_id":null,"subducting_plate_id":null,"plate_ids":[5031,5907],"name":"ANS transform"},"geometry":{"type":"LineString","coordinates":[[-5.517,-0.121],[-5.057,-0.025],[-4.597,0.071],[-4.137,0.167],[-3.677,0.263],[-3.217,0.359],[-2.757,0.455],[-2.297,0.55],[-1.837,0.646],[-1.377,0.742],[-0.917,0.838]]}},{"type":"Feature","properties":{"boundary_type":"transform","feature_type":"gpml:Transform","polarity":null,"overriding_plate_id":null,"subducting_plate_id":null,"plate_ids":[5907,77521],"name":"ANS transform"},"geometry":{"type":"LineString","coordinates":[[-1.539,-9.999],[-1.094,-9.828],[-0.65,-9.656],[-0.206,-9.483],[0.238,-9.31],[0.681,-9.136],[1.124,-8.962],[1.567,-8.787],[2.009,-8.612],[2.45,-8.436],[2.891,-8.26],[3.332,-8.083],[3.773,-7.906],[4.213,-7.729],[4.652,-7.55]]}},{"type":"Feature","properties":{"boundary_type":"transform","feature_type":"gpml:Transform","polarity":null,"overriding_plate_id":null,"subducting_plate_id":null,"plate_ids":[5031,77521],"name":"ANS transform"},"geometry":{"type":"LineString","coordinates":[[4.652,-7.55],[5.056,-7.386],[5.46,-7.222],[5.863,-7.057],[6.266,-6.892]]}},{"type":"Feature","properties":{"boundary_type":"transform","feature_type":"gpml:Transform","polarity":null,"overriding_plate_id":null,"subducting_plate_id":null,"plate_ids":[5031,77531],"name":"ANS transform"},"geometry":{"type":"LineString","coordinates":[[6.266,-6.892],[6.699,-6.714],[7.132,-6.536],[7.561,-6.348],[7.991,-6.161],[8.42,-5.973],[8.849,-5.785],[9.278,-5.596],[9.706,-5.408],[10.134,-5.218],[10.562,-5.029],[10.99,-4.839],[11.417,-4.649],[11.844,-4.459],[12.271,-4.269],[12.761,-4.185],[13.252,-4.102],[13.742,-4.018],[14.232,-3.934],[14.722,-3.849],[15.212,-3.765],[15.702,-3.68],[16.192,-3.595],[16.681,-3.509],[17.171,-3.423]]}},{"type":"Feature","properties":{"boundary_type":"transform","feature_type":"gpml:Transform","polarity":null,"overriding_plate_id":null,"subducting_plate_id":null,"plate_ids":[5031,77521],"name":"transform"},"geometry":{"type":"LineString","coordinates":[[-5.792,0.552],[-6.257,0.664],[-6.723,0.776],[-7.189,0.888],[-7.655,1.0],[-8.12,1.112],[-8.586,1.224],[-9.052,1.336],[-9.518,1.448],[-9.984,1.559],[-10.45,1.671],[-10.916,1.782],[-11.382,1.894],[-11.848,2.005],[-12.315,2.116],[-12.775,2.119],[-13.235,2.122],[-13.696,2.125],[-14.156,2.128],[-14.617,2.131],[-15.077,2.134],[-15.538,2.136],[-15.998,2.138],[-16.458,2.141],[-16.919,2.143],[-17.379,2.144]]}},{"type":"Feature","properties":{"boundary_type":"transform","feature_type":"gpml:Transform","polarity":null,"overriding_plate_id":null,"subducting_plate_id":null,"plate_ids":[77521,77521],"name":"WES transform"},"geometry":{"type":"LineString","coordinates":[[-3.42,-25.12],[-3.267,-24.767],[-2.999,-24.444],[-2.733,-24.121],[-2.468,-23.798],[-2.168,-23.435],[-1.869,-23.071],[-1.573,-22.707],[-1.267,-22.522]]}},{"type":"Feature","properties":{"boundary_type":"transform","feature_type":"gpml:Transform","polarity":null,"overriding_plate_id":null,"subducting_plate_id":null,"plate_ids":[701,77531],"name":"ES transform"},"geometry":{"type":"LineString","coordinates":[[9.165,-25.345],[8.891,-25.709],[8.616,-26.073],[8.339,-26.436],[8.06,-26.799],[7.779,-27.161],[7.497,-27.523],[7.283,-27.86],[7.067,-28.198],[6.85,-28.535],[6.635,-28.75],[6.419,-28.965]]}},{"type":"Feature","properties":{"boundary_type":"transform","feature_type":"gpml:Transform","polarity":null,"overriding_plate_id":null,"subducting_plate_id":null,"plate_ids":[456,501],"name":"SC-Tarim transform"},"geometry":{"type":"LineString","coordinates":[[-117.635,72.705],[-116.919,72.271],[-116.237,71.834],[-115.585,71.395],[-114.962,70.954],[-114.367,70.511],[-113.797,70.066],[-113.251,69.62],[-112.728,69.171],[-112.225,68.722],[-111.743,68.27],[-111.279,67.818],[-110.833,67.364],[-110.404,66.909],[-109.99,66.453],[-109.591,65.995],[-109.207,65.537],[-108.835,65.078],[-108.476,64.618],[-108.129,64.157],[-107.794,63.696],[-107.474,63.217],[-107.164,62.737],[-106.865,62.256],[-106.574,61.775],[-106.293,61.294],[-106.02,60.812],[-105.756,60.329],[-105.499,59.846],[-105.249,59.362],[-105.006,58.878],[-104.771,58.393],[-104.541,57.908],[-104.318,57.423],[-104.1,56.937],[-103.888,56.451],[-103.682,55.964],[-103.48,55.477],[-103.284,54.99],[-103.092,54.503],[-102.905,54.015],[-102.722,53.527],[-102.543,53.038],[-102.368,52.55],[-102.197,52.061]]}},{"type":"Feature","properties":{"boundary_type":"transform","feature_type":"gpml:Transform","polarity":null,"overriding_plate_id":null,"subducting_plate_id":null,"plate_ids":[501,980421],"name":"Tarim Transform"},"geometry":{"type":"LineString","coordinates":[[-58.879,37.987],[-59.303,37.675],[-59.724,37.362],[-60.142,37.047],[-60.556,36.731],[-60.966,36.413],[-61.459,36.138],[-61.948,35.86],[-62.434,35.58],[-62.917,35.299],[-63.396,35.015],[-63.872,34.73],[-64.344,34.443],[-64.813,34.154],[-65.28,33.863],[-65.742,33.571]]}},{"type":"Feature","properties":{"boundary_type":"transform","feature_type":"gpml:Transform","polarity":null,"overriding_plate_id":null,"subducting_plate_id":null,"plate_ids":[401,501],"name":"Siberia transform"},"geometry":{"type":"LineString","coordinates":[[166.68,51.536],[165.951,51.493],[165.222,51.445],[164.496,51.392],[163.771,51.335],[163.047,51.273],[162.326,51.208],[161.607,51.137],[160.987,51.1],[160.367,51.06],[159.748,51.017],[159.131,50.97],[158.404,51.088],[157.673,51.201],[156.939,51.309],[156.202,51.413],[155.461,51.512],[154.717,51.607],[153.97,51.696],[153.22,51.781],[152.467,51.862],[151.712,51.937],[150.954,52.008],[150.472,52.356],[149.981,52.702],[149.484,53.046]]}},{"type":"Feature","properties":{"boundary_type":"transform","feature_type":"gpml:Transform","polarity":null,"overriding_plate_id":null,"subducting_plate_id":null,"plate_ids":[101,401],"name":"Siberia-Rodinia transform"},"geometry":{"type":"LineString","coordinates":[[151.5,-1.888],[151.08,-1.658],[150.66,-1.429],[150.24,-1.199],[149.82,-0.969],[149.4,-0.739],[148.98,-0.51],[148.561,-0.28],[148.141,-0.05],[147.853,0.346],[147.566,0.741],[147.278,1.137],[146.991,1.532],[146.703,1.927],[146.415,2.323],[146.127,2.718],[145.839,3.113],[145.568,3.501],[145.297,3.889],[145.025,4.277],[144.753,4.664],[144.481,5.052],[144.209,5.439],[143.936,5.826],[143.663,6.213],[143.39,6.6],[143.116,6.987],[142.842,7.374],[142.567,7.76],[142.292,8.147],[142.056,8.568],[141.82,8.988],[141.584,9.409],[141.347,9.829],[141.109,10.249],[140.871,10.669],[140.632,11.089],[140.393,11.509],[140.152,11.928],[139.911,12.347],[139.67,12.766],[139.381,13.161],[139.091,13.556],[138.8,13.95],[138.508,14.344],[138.215,14.738],[137.921,15.131],[137.626,15.524],[137.33,15.916],[137.032,16.308],[136.734,16.7],[136.434,17.091],[136.133,17.482]]}},{"type":"Feature","properties":{"boundary_type":"transform","feature_type":"gpml:Transform","polarity":null,"overriding_plate_id":null,"subducting_plate_id":null,"plate_ids":[701,77521],"name":"transform"},"geometry":{"type":"LineString","coordinates":[[6.911,-29.452],[6.752,-29.74],[6.591,-30.028],[6.47,-30.294],[6.347,-30.561]]}},{"type":"Feature","properties":{"boundary_type":"transform","feature_type":"gpml:Transform","polarity":null,"overriding_plate_id":null,"subducting_plate_id":null,"plate_ids":[456,580],"name":"Tarim-Kunlun-Mirovoi transform"},"geometry":{"type":"LineString","coordinates":[[-124.26,23.329],[-123.951,23.735],[-123.639,24.14],[-123.326,24.544],[-123.01,24.948],[-122.693,25.351],[-122.373,25.753],[-122.051,26.155],[-121.727,26.556],[-121.4,26.956],[-121.072,27.355],[-120.741,27.754],[-120.407,28.152],[-120.071,28.549],[-119.733,28.945],[-119.391,29.34],[-119.048,29.735],[-118.732,30.149],[-118.413,30.562],[-118.091,30.975],[-117.767,31.387],[-117.44,31.798],[-117.11,32.208],[-116.777,32.617],[-116.441,33.025],[-116.102,33.433],[-115.759,33.839],[-115.414,34.245],[-115.065,34.649],[-114.712,35.053],[-114.356,35.455],[-113.997,35.857],[-113.634,36.257],[-113.267,36.656],[-112.896,37.055],[-112.522,37.452],[-112.143,37.847],[-111.76,38.242],[-111.374,38.635],[-111.038,39.047],[-110.699,39.458],[-110.356,39.869],[-110.009,40.278],[-109.657,40.686],[-109.301,41.093],[-108.941,41.499],[-108.576,41.903],[-108.207,42.307],[-107.832,42.709],[-107.453,43.11],[-107.069,43.51],[-106.68,43.909],[-106.285,44.306],[-105.886,44.702],[-105.48,45.096],[-105.069,45.489],[-104.653,45.881],[-104.23,46.271],[-103.801,46.659],[-103.366,47.046],[-102.925,47.431],[-102.477,47.814],[-102.023,48.196],[-101.562,48.575],[-101.094,48.953],[-100.619,49.329],[-100.136,49.703],[-99.646,50.075],[-99.149,50.445],[-98.643,50.813],[-98.13,51.178],[-97.608,51.542],[-97.078,51.902],[-96.539,52.261]]}},{"type":"Feature","properties":{"boundary_type":"transform","feature_type":"gpml:Transform","polarity":null,"overriding_plate_id":null,"subducting_plate_id":null,"plate_ids":[101,606],"name":"Lhasa transform"},"geometry":{"type":"LineString","coordinates":[[122.264,35.129],[122.441,34.672],[122.616,34.215],[122.789,33.758],[122.96,33.3],[123.13,32.842],[123.298,32.384],[123.464,31.926],[123.628,31.467],[123.791,31.009],[123.953,30.55],[124.113,30.091],[124.097,29.618],[124.082,29.146],[124.067,28.674],[124.052,28.202],[124.037,27.73],[124.128,27.326]]}},{"type":"Feature","properties":{"boundary_type":"transform","feature_type":"gpml:Transform","polarity":null,"overriding_plate_id":null,"subducting_plate_id":null,"plate_ids":[501,606],"name":"Transform"},"geometry":{"type":"LineString","coordinates":[[83.096,27.679],[83.239,27.463]]}},{"type":"Feature","properties":{"boundary_type":"transform","feature_type":"gpml:Transform","polarity":null,"overriding_plate_id":null,"subducting_plate_id":null,"plate_ids":[101,606],"name":"Transform"},"geometry":{"type":"LineString","coordinates":[[83.239,27.463],[83.499,27.066],[83.758,26.669],[84.014,26.272],[84.269,25.874],[84.523,25.476],[84.774,25.077],[85.024,24.678],[85.273,24.279],[85.519,23.879]]}},{"type":"Feature","properties":{"boundary_type":"transform","feature_type":"gpml:Transform","polarity":null,"overriding_plate_id":null,"subducting_plate_id":null,"plate_ids":[101,501],"name":"NC transform"},"geometry":{"type":"LineString","coordinates":[[134.962,36.423],[135.366,36.12],[135.767,35.816],[136.207,35.524],[136.644,35.232],[137.077,34.937],[137.508,34.641],[137.935,34.344],[138.359,34.045],[138.781,33.745],[139.199,33.443],[139.614,33.14],[140.027,32.836],[140.437,32.53],[140.844,32.223],[141.293,31.937],[141.74,31.649],[142.184,31.361],[142.625,31.07],[143.064,30.778],[143.5,30.485],[143.933,30.19],[144.364,29.894],[144.792,29.596],[145.217,29.297],[145.64,28.997],[146.061,28.695],[146.479,28.392],[146.895,28.088],[147.309,27.783],[147.72,27.476]]}},{"type":"Feature","properties":{"boundary_type":"transform","feature_type":"gpml:Transform","polarity":null,"overriding_plate_id":null,"subducting_plate_id":null,"plate_ids":[501,980421],"name":"ocean transform"},"geometry":{"type":"LineString","coordinates":[[40.278,64.981],[39.958,64.542],[39.649,64.103],[39.349,63.663],[39.058,63.223],[38.777,62.782],[38.503,62.34],[38.231,61.882],[37.968,61.424],[37.712,60.965],[37.463,60.505],[37.221,60.046],[36.986,59.585],[36.758,59.125],[36.535,58.664],[36.318,58.202],[36.107,57.74],[35.901,57.278],[35.7,56.816],[35.504,56.353],[35.395,55.885],[35.288,55.416],[35.184,54.947],[35.082,54.479],[34.982,54.01],[34.885,53.541],[34.79,53.072],[34.697,52.603],[34.605,52.134],[34.516,51.665],[34.429,51.195],[34.343,50.726],[34.307,50.251],[34.271,49.775],[34.236,49.3],[34.202,48.825],[34.168,48.349],[34.135,47.874],[34.103,47.398],[34.071,46.923],[34.04,46.447],[34.009,45.972],[33.979,45.497],[33.949,45.021],[33.92,44.546],[33.891,44.07],[33.863,43.595],[33.835,43.119],[33.865,42.64],[33.894,42.161],[33.922,41.682],[33.95,41.203],[33.978,40.724],[34.005,40.245],[34.032,39.766],[34.059,39.287],[34.085,38.808],[34.111,38.329],[34.136,37.85],[34.162,37.371],[34.186,36.891],[34.211,36.412],[34.235,35.933],[34.259,35.454],[34.322,34.989],[34.385,34.525],[34.446,34.06],[34.507,33.595],[34.568,33.131],[34.627,32.666],[34.687,32.201],[34.745,31.736],[34.803,31.271],[34.86,30.806],[34.917,30.341],[34.973,29.876],[35.029,29.411],[35.135,28.937],[35.24,28.463],[35.344,27.989],[35.447,27.514],[35.549,27.04],[35.65,26.565],[35.751,26.09],[35.85,25.616],[35.949,25.141],[36.047,24.666],[36.144,24.191],[36.241,23.716],[36.366,23.267],[36.49,22.818],[36.613,22.369],[36.736,21.92],[36.857,21.471],[36.978,21.021],[37.098,20.572],[37.218,20.122]]}},{"type":"Feature","properties":{"boundary_type":"transform","feature_type":"gpml:Transform","polarity":null,"overriding_plate_id":null,"subducting_plate_id":null,"plate_ids":[580,701],"name":"ocean transform"},"geometry":{"type":"LineString","coordinates":[[-66.418,-8.167],[-66.4,-7.677],[-66.382,-7.187],[-66.363,-6.697],[-66.345,-6.207],[-66.327,-5.716],[-66.308,-5.226],[-66.29,-4.736],[-66.272,-4.246],[-66.254,-3.756],[-66.235,-3.266],[-66.217,-2.775],[-66.078,-2.338],[-65.939,-1.9],[-65.8,-1.463],[-65.661,-1.025],[-65.522,-0.588],[-65.383,-0.15],[-65.244,0.287],[-65.105,0.725],[-64.867,1.123],[-64.629,1.521],[-64.391,1.919],[-64.153,2.317],[-63.915,2.716],[-63.677,3.114],[-63.438,3.512],[-63.199,3.91],[-62.96,4.308]]}},{"type":"Feature","properties":{"boundary_type":"transform","feature_type":"gpml:Transform","polarity":null,"overriding_plate_id":null,"subducting_plate_id":null,"plate_ids":[101,701],"name":""},"geometry":{"type":"LineString","coordinates":[[67.2,-11.36],[67.126,-11.846],[67.051,-12.333],[66.976,-12.82],[66.901,-13.306],[66.826,-13.793],[66.75,-14.279],[66.674,-14.766],[66.597,-15.252],[66.521,-15.739],[66.443,-16.225],[66.366,-16.712],[66.288,-17.198],[66.21,-17.684],[66.131,-18.171],[66.074,-18.64],[66.018,-19.11],[65.961,-19.58],[65.904,-20.05],[65.846,-20.52],[65.788,-20.99],[65.73,-21.459],[65.671,-21.929],[65.612,-22.399],[65.552,-22.869],[65.492,-23.338],[65.432,-23.808],[65.371,-24.278],[65.31,-24.747],[65.248,-25.217],[65.186,-25.686],[65.123,-26.156],[65.06,-26.625]]}}]}