{"type":"FeatureCollection","meta":{"model":"Cao2024","reconstruction_time_ma":1610.0,"anchor_plate_id":0,"pygplates_version":"1.0.0","tessellate_degrees":0.5,"polarity_convention":"gpml:subductionPolarity. 'Left'/'Right' names the side of the line, in vertex order, on which the OVERRIDING plate lies. Triangles are drawn on that side.","antimeridian":"Lines are NOT split at +/-180 deg. The renderer works in 3D unit vectors where the dateline is not special; splitting would only add spurious breaks. Do not treat this as RFC 7946 GIS-ready 2D data."},"features":[{"type":"Feature","properties":{"boundary_type":"subduction","feature_type":"gpml:SubductionZone","polarity":"Left","overriding_plate_id":101,"subducting_plate_id":90106,"plate_ids":[101,90106],"name":"eastern Laurentia-greenland-western baltica"},"geometry":{"type":"LineString","coordinates":[[-165.589,40.259],[-165.67,39.918],[-165.616,39.424],[-165.563,38.929],[-165.51,38.434],[-165.459,37.939],[-165.407,37.444],[-165.357,36.949],[-165.307,36.454],[-165.258,35.959],[-165.209,35.464],[-165.161,34.969],[-165.114,34.474],[-165.067,33.979],[-165.021,33.483],[-164.975,32.988]]}},{"type":"Feature","properties":{"boundary_type":"subduction","feature_type":"gpml:SubductionZone","polarity":"Left","overriding_plate_id":101,"subducting_plate_id":803,"plate_ids":[101,803],"name":"eastern Laurentia-greenland-western baltica"},"geometry":{"type":"LineString","coordinates":[[-164.975,32.988],[-164.938,32.584],[-164.902,32.179],[-164.865,31.775],[-164.829,31.37],[-164.806,30.883],[-164.783,30.395],[-164.76,29.907],[-164.738,29.42],[-164.716,28.932],[-164.694,28.444],[-164.672,27.957],[-164.65,27.469],[-164.629,26.982],[-164.608,26.494],[-164.587,26.006],[-164.566,25.519],[-164.545,25.031],[-164.524,24.543],[-164.504,24.056],[-164.484,23.568],[-164.464,23.08],[-164.444,22.593],[-164.424,22.105]]}},{"type":"Feature","properties":{"boundary_type":"subduction","feature_type":"gpml:SubductionZone","polarity":"Left","overriding_plate_id":101,"subducting_plate_id":803,"plate_ids":[101,803],"name":"SouthIndia_SZ"},"geometry":{"type":"LineString","coordinates":[[-159.21,-6.263],[-158.933,-6.64],[-158.655,-7.018],[-158.377,-7.396],[-158.099,-7.773],[-157.82,-8.15],[-157.541,-8.527],[-157.261,-8.904],[-156.98,-9.28],[-156.685,-9.64],[-156.389,-10.0],[-156.093,-10.36],[-155.795,-10.719],[-155.498,-11.078],[-155.199,-11.436],[-154.9,-11.795],[-154.6,-12.153],[-154.299,-12.51],[-153.997,-12.868],[-153.694,-13.225],[-153.391,-13.581],[-153.245,-14.033],[-153.099,-14.484],[-152.952,-14.935],[-152.805,-15.386],[-152.656,-15.837],[-152.508,-16.288],[-152.358,-16.738],[-152.208,-17.189],[-152.057,-17.639],[-151.906,-18.09],[-151.753,-18.54],[-151.6,-18.99],[-151.446,-19.44],[-151.291,-19.89],[-151.135,-20.34],[-150.978,-20.789],[-150.999,-21.288],[-151.019,-21.787],[-151.04,-22.287],[-151.061,-22.786],[-151.082,-23.285],[-151.103,-23.784],[-151.125,-24.283],[-151.146,-24.782],[-151.168,-25.281],[-151.19,-25.781],[-151.212,-26.28],[-151.234,-26.779],[-151.416,-27.233],[-151.599,-27.687],[-151.784,-28.141],[-151.97,-28.595],[-152.158,-29.048],[-152.348,-29.502],[-152.539,-29.955],[-152.732,-30.407],[-152.927,-30.86],[-153.124,-31.312],[-153.322,-31.763],[-153.523,-32.215],[-153.67,-32.649],[-153.819,-33.083],[-153.97,-33.517],[-154.122,-33.95],[-154.276,-34.384],[-154.431,-34.817]]}},{"type":"Feature","properties":{"boundary_type":"subduction","feature_type":"gpml:SubductionZone","polarity":"Right","overriding_plate_id":801,"subducting_plate_id":80104,"plate_ids":[801,80104],"name":"NorthChina_SZ"},"geometry":{"type":"LineString","coordinates":[[-83.073,22.102],[-83.033,22.067]]}},{"type":"Feature","properties":{"boundary_type":"subduction","feature_type":"gpml:SubductionZone","polarity":"Right","overriding_plate_id":801,"subducting_plate_id":90107,"plate_ids":[801,90107],"name":"NorthChina_SZ"},"geometry":{"type":"LineString","coordinates":[[-83.033,22.067],[-82.698,21.766],[-82.364,21.465],[-82.032,21.162],[-81.701,20.86],[-81.371,20.556],[-81.133,20.137],[-80.896,19.718],[-80.66,19.298],[-80.426,18.878],[-80.193,18.457],[-79.961,18.037],[-79.73,17.616],[-79.5,17.194],[-79.475,16.722],[-79.45,16.25],[-79.425,15.778],[-79.4,15.306],[-79.376,14.834],[-79.351,14.362],[-79.327,13.89],[-79.303,13.418],[-79.278,12.946],[-79.254,12.474],[-79.521,12.09],[-79.787,11.705],[-80.051,11.32],[-80.316,10.934],[-80.579,10.549],[-80.842,10.163],[-81.104,9.777],[-81.366,9.391],[-81.627,9.004],[-81.888,8.618],[-82.148,8.231],[-82.407,7.844],[-82.666,7.457],[-83.025,7.147],[-83.383,6.836],[-83.741,6.525],[-84.099,6.213],[-84.456,5.902],[-84.812,5.59],[-85.169,5.278],[-85.525,4.965],[-85.88,4.653],[-86.235,4.34],[-86.59,4.028],[-86.945,3.715],[-87.3,3.402]]}},{"type":"Feature","properties":{"boundary_type":"subduction","feature_type":"gpml:SubductionZone","polarity":"Right","overriding_plate_id":801,"subducting_plate_id":811001,"plate_ids":[801,811001],"name":"SouthAustralia_SZ"},"geometry":{"type":"LineString","coordinates":[[-83.964,52.47],[-83.891,52.076],[-83.806,51.618],[-83.722,51.161],[-83.639,50.704],[-83.558,50.247],[-83.479,49.79],[-83.401,49.332],[-83.325,48.875],[-83.25,48.417],[-83.421,47.949],[-83.589,47.481],[-83.754,47.012],[-83.917,46.543],[-84.076,46.074],[-84.233,45.605],[-84.387,45.135],[-84.539,44.665],[-84.688,44.195],[-84.835,43.725],[-84.979,43.255],[-85.121,42.784],[-85.262,42.314]]}},{"type":"Feature","properties":{"boundary_type":"subduction","feature_type":"gpml:SubductionZone","polarity":"Right","overriding_plate_id":801,"subducting_plate_id":80104,"plate_ids":[801,80104],"name":"SouthAustralia_SZ"},"geometry":{"type":"LineString","coordinates":[[-85.262,42.314],[-85.324,42.103],[-85.637,41.697],[-85.947,41.291],[-86.254,40.883]]}},{"type":"Feature","properties":{"boundary_type":"subduction","feature_type":"gpml:SubductionZone","polarity":"Left","overriding_plate_id":101,"subducting_plate_id":90106,"plate_ids":[101,90106],"name":"Eastern_Laurentia_SZ"},"geometry":{"type":"LineString","coordinates":[[-150.883,79.373],[-152.808,79.1],[-154.638,78.816],[-156.378,78.521],[-157.588,78.115],[-158.72,77.705],[-159.779,77.29],[-160.772,76.871],[-161.705,76.448],[-162.581,76.023],[-163.407,75.594],[-164.186,75.162],[-164.594,74.708],[-164.98,74.253],[-165.344,73.797],[-165.689,73.341],[-166.016,72.884],[-166.326,72.426],[-166.621,71.969],[-166.902,71.51],[-167.17,71.052],[-167.425,70.593],[-167.67,70.133],[-167.903,69.673],[-168.127,69.213],[-168.337,68.724],[-168.538,68.235],[-168.731,67.746],[-168.916,67.256],[-169.093,66.766],[-169.263,66.276],[-169.427,65.785],[-169.585,65.295],[-169.737,64.804],[-169.884,64.314],[-170.025,63.823],[-170.162,63.332],[-170.306,62.873],[-170.445,62.415],[-170.58,61.956],[-170.712,61.498],[-170.839,61.039],[-170.963,60.58],[-171.083,60.121],[-171.2,59.662],[-171.314,59.203],[-171.425,58.743],[-171.532,58.284],[-171.428,57.805],[-171.327,57.326],[-171.228,56.846],[-171.132,56.367],[-171.038,55.887],[-170.947,55.408],[-170.857,54.928],[-170.77,54.448],[-170.685,53.968],[-170.601,53.488],[-170.52,53.008],[-170.306,52.536],[-170.096,52.064],[-169.891,51.591],[-169.69,51.118],[-169.493,50.645],[-169.301,50.171],[-169.112,49.697],[-168.926,49.222],[-168.744,48.747],[-168.566,48.272],[-168.39,47.797],[-168.218,47.322],[-168.049,46.846],[-167.884,46.37],[-167.69,45.902],[-167.499,45.433],[-167.311,44.964],[-167.127,44.495],[-166.946,44.025],[-166.767,43.555],[-166.591,43.085],[-166.418,42.615],[-166.247,42.144],[-166.079,41.673],[-165.913,41.202],[-165.75,40.731],[-165.589,40.259]]}},{"type":"Feature","properties":{"boundary_type":"subduction","feature_type":"gpml:SubductionZone","polarity":"Left","overriding_plate_id":801,"subducting_plate_id":80104,"plate_ids":[801,80104],"name":"South_NorthAustralia_SZ"},"geometry":{"type":"LineString","coordinates":[[-83.073,22.102],[-82.959,22.572],[-82.845,23.041],[-82.73,23.511],[-82.614,23.98],[-82.497,24.449],[-82.38,24.918],[-82.261,25.387],[-82.142,25.856],[-82.021,26.325],[-81.9,26.794],[-81.778,27.262],[-81.654,27.731],[-81.53,28.199],[-81.404,28.668],[-81.278,29.136],[-81.15,29.604],[-81.021,30.072],[-80.891,30.54],[-81.0,31.001],[-81.11,31.461],[-81.221,31.922],[-81.333,32.382],[-81.446,32.842],[-81.561,33.302],[-81.677,33.763],[-81.794,34.223],[-81.912,34.682],[-82.032,35.142],[-82.153,35.602],[-82.275,36.061],[-82.399,36.521],[-82.525,36.98],[-82.879,37.375],[-83.238,37.77],[-83.601,38.163],[-83.967,38.555],[-84.338,38.946],[-84.712,39.336],[-85.091,39.725],[-85.474,40.112],[-85.862,40.498],[-86.254,40.883]]}},{"type":"Feature","properties":{"boundary_type":"subduction","feature_type":"gpml:SubductionZone","polarity":"Left","overriding_plate_id":801,"subducting_plate_id":101,"plate_ids":[101,801],"name":"South_NorthAustralia_SZ"},"geometry":{"type":"LineString","coordinates":[[-141.145,79.723],[-140.591,79.292],[-140.08,78.86],[-139.607,78.427],[-139.168,77.993],[-138.759,77.559],[-138.377,77.124],[-138.019,76.688],[-137.684,76.253],[-136.663,75.819],[-135.702,75.381],[-134.796,74.94],[-133.94,74.495],[-133.132,74.047],[-132.366,73.596],[-131.64,73.143],[-130.952,72.687],[-130.297,72.229],[-129.675,71.769],[-129.082,71.307],[-128.517,70.843],[-127.978,70.378],[-127.463,69.911],[-126.874,69.455],[-126.31,68.998],[-125.769,68.539],[-125.25,68.078],[-124.751,67.615],[-124.271,67.151],[-123.809,66.686],[-123.365,66.22],[-122.936,65.752],[-122.523,65.283],[-122.124,64.813],[-121.739,64.342],[-121.367,63.869],[-121.007,63.396],[-120.659,62.923],[-120.322,62.448],[-119.996,61.972],[-119.584,61.512],[-119.185,61.051],[-118.796,60.588],[-118.419,60.124],[-118.052,59.659],[-117.696,59.194],[-117.349,58.727],[-117.011,58.259],[-116.682,57.791],[-116.361,57.322],[-116.048,56.851],[-115.744,56.381],[-115.446,55.909],[-115.148,55.454],[-114.857,54.998],[-114.572,54.541],[-114.294,54.083],[-114.022,53.625],[-113.755,53.167],[-113.494,52.707],[-113.239,52.248],[-112.989,51.787],[-112.744,51.326],[-112.504,50.865],[-112.268,50.403],[-112.129,49.942],[-111.992,49.481],[-111.857,49.019],[-111.725,48.557],[-111.595,48.095],[-111.468,47.634],[-111.343,47.171],[-111.22,46.709],[-111.099,46.247],[-110.98,45.784],[-111.041,45.295],[-111.101,44.806],[-111.159,44.317],[-111.217,43.828],[-111.274,43.338],[-111.329,42.849],[-111.384,42.36],[-111.438,41.87],[-111.492,41.381],[-111.544,40.892],[-111.596,40.402],[-111.647,39.913],[-111.697,39.424],[-111.723,38.929],[-111.749,38.434],[-111.774,37.939],[-111.799,37.444],[-111.824,36.949],[-111.849,36.454],[-111.873,35.959],[-111.897,35.464],[-111.92,34.969],[-111.943,34.474],[-111.966,33.979],[-111.696,33.558],[-111.428,33.137],[-111.163,32.715],[-110.9,32.292],[-110.64,31.869],[-110.382,31.446],[-110.127,31.021],[-109.874,30.597],[-109.622,30.172],[-109.374,29.746],[-109.127,29.32],[-108.882,28.894],[-108.639,28.467],[-108.398,28.04],[-108.16,27.612],[-107.923,27.184],[-107.588,26.808],[-107.255,26.432],[-106.925,26.055],[-106.597,25.677],[-106.27,25.298],[-105.946,24.919],[-105.624,24.539],[-105.304,24.159],[-104.986,23.777],[-104.669,23.395],[-104.354,23.013],[-104.042,22.629],[-103.73,22.246],[-103.366,21.943],[-103.003,21.64],[-102.642,21.337],[-102.282,21.032],[-101.924,20.727],[-101.567,20.42],[-101.211,20.114],[-100.857,19.806],[-100.505,19.498]]}},{"type":"Feature","properties":{"boundary_type":"subduction","feature_type":"gpml:SubductionZone","polarity":"Left","overriding_plate_id":701,"subducting_plate_id":101,"plate_ids":[101,701],"name":"Siberia_SZ"},"geometry":{"type":"LineString","coordinates":[[-99.934,9.271],[-100.354,9.494],[-100.775,9.717],[-101.196,9.939],[-101.619,10.16],[-102.041,10.381],[-102.465,10.601],[-102.888,10.821],[-103.313,11.04],[-103.738,11.259],[-104.164,11.477],[-104.59,11.694],[-105.017,11.911],[-105.445,12.127],[-105.927,12.125],[-106.409,12.123],[-106.891,12.12],[-107.373,12.116],[-107.854,12.111],[-108.336,12.106],[-108.818,12.099],[-109.3,12.092],[-109.781,12.084],[-110.263,12.075],[-110.745,12.065],[-111.226,12.054],[-111.708,12.043],[-112.189,12.031],[-112.659,11.898],[-113.127,11.765],[-113.595,11.631],[-114.063,11.497],[-114.53,11.361],[-114.997,11.225],[-115.463,11.088],[-115.929,10.951],[-116.395,10.812],[-116.86,10.673],[-117.324,10.534],[-117.789,10.393],[-118.252,10.252],[-118.716,10.111],[-119.179,9.968],[-119.641,9.825],[-120.104,9.682],[-120.565,9.538],[-121.005,9.303],[-121.444,9.068],[-121.882,8.833],[-122.319,8.597],[-122.757,8.361],[-123.193,8.124],[-123.629,7.886],[-124.065,7.648],[-124.5,7.41],[-124.935,7.172],[-125.369,6.932],[-125.802,6.693],[-126.236,6.453],[-126.669,6.213],[-127.101,5.972],[-127.533,5.731],[-127.696,5.264],[-127.859,4.796],[-128.021,4.329],[-128.183,3.861],[-128.345,3.393],[-128.507,2.926],[-128.668,2.458],[-128.83,1.99],[-128.991,1.522],[-129.152,1.055],[-129.314,0.587],[-129.475,0.119],[-129.636,-0.349],[-129.798,-0.817],[-129.959,-1.284],[-130.12,-1.752],[-130.282,-2.22],[-130.443,-2.688],[-130.562,-3.153],[-130.681,-3.619],[-130.8,-4.084],[-130.919,-4.549],[-131.039,-5.015],[-131.158,-5.48],[-131.278,-5.945],[-131.398,-6.411],[-131.518,-6.876],[-131.639,-7.341],[-131.759,-7.806],[-131.88,-8.272],[-132.001,-8.737],[-132.123,-9.202],[-132.245,-9.667],[-132.367,-10.132],[-132.489,-10.597],[-132.612,-11.062],[-132.736,-11.527],[-132.859,-11.991],[-132.983,-12.456],[-133.108,-12.921],[-133.233,-13.385],[-133.362,-13.851],[-133.491,-14.317],[-133.621,-14.783],[-133.751,-15.248],[-133.882,-15.714],[-134.013,-16.179],[-134.146,-16.644],[-134.278,-17.11],[-134.412,-17.575],[-134.546,-18.04],[-134.681,-18.505],[-134.816,-18.97],[-134.953,-19.435],[-135.09,-19.899],[-135.227,-20.364],[-135.366,-20.828],[-135.506,-21.293],[-135.646,-21.757],[-135.788,-22.221],[-135.93,-22.685],[-136.073,-23.149],[-136.218,-23.613],[-136.363,-24.076]]}},{"type":"Feature","properties":{"boundary_type":"subduction","feature_type":"gpml:SubductionZone","polarity":"Left","overriding_plate_id":801,"subducting_plate_id":811001,"plate_ids":[801,811001],"name":"NorthwesternMawson_SZ"},"geometry":{"type":"LineString","coordinates":[[-83.964,52.47],[-83.412,52.826],[-82.852,53.178],[-82.282,53.528],[-81.702,53.875],[-81.113,54.22],[-80.499,54.529],[-79.876,54.835],[-79.243,55.138],[-78.6,55.437],[-77.948,55.733],[-77.286,56.026],[-76.614,56.315],[-75.931,56.6],[-75.296,56.89],[-74.651,57.177],[-73.995,57.46],[-73.33,57.74],[-72.654,58.017],[-71.968,58.29],[-71.404,58.644],[-70.829,58.995],[-70.242,59.344],[-69.643,59.69],[-69.031,60.034],[-68.407,60.374],[-68.221,60.841],[-68.03,61.308],[-67.833,61.775],[-67.629,62.242],[-67.42,62.708],[-67.799,63.175],[-68.191,63.64],[-68.596,64.105],[-69.015,64.569],[-69.449,65.031]]}},{"type":"Feature","properties":{"boundary_type":"subduction","feature_type":"gpml:SubductionZone","polarity":"Left","overriding_plate_id":801,"subducting_plate_id":90106,"plate_ids":[801,90106],"name":"NorthwesternMawson_SZ"},"geometry":{"type":"LineString","coordinates":[[-69.449,65.031],[-69.836,65.43],[-70.234,65.828],[-70.646,66.224],[-71.07,66.62],[-71.797,66.986],[-72.545,67.35],[-73.317,67.709],[-74.112,68.065],[-74.932,68.417],[-75.778,68.765],[-76.651,69.109],[-77.551,69.448],[-78.48,69.782],[-79.438,70.111],[-80.427,70.435],[-81.248,70.825],[-82.1,71.212],[-82.987,71.595],[-83.91,71.974],[-84.872,72.348],[-85.873,72.717],[-86.916,73.081],[-88.003,73.439],[-89.137,73.792],[-90.319,74.138],[-91.553,74.478],[-92.839,74.81],[-93.936,75.175],[-95.087,75.534],[-96.294,75.887],[-97.562,76.234],[-98.893,76.574],[-100.292,76.906],[-101.761,77.231],[-103.304,77.547],[-104.925,77.854],[-106.628,78.151],[-108.416,78.438],[-110.291,78.713],[-112.256,78.975],[-114.645,79.148],[-117.105,79.302],[-119.632,79.435],[-122.218,79.548],[-124.854,79.64],[-127.532,79.711],[-130.24,79.758],[-132.967,79.784],[-135.701,79.786],[-138.431,79.766],[-141.145,79.723]]}},{"type":"Feature","properties":{"boundary_type":"subduction","feature_type":"gpml:SubductionZone","polarity":"Left","overriding_plate_id":101,"subducting_plate_id":90106,"plate_ids":[101,90106],"name":"NorthwesternMawson_SZ"},"geometry":{"type":"LineString","coordinates":[[-141.145,79.723],[-143.636,79.663],[-146.094,79.585],[-148.512,79.488],[-150.883,79.373]]}},{"type":"Feature","properties":{"boundary_type":"subduction","feature_type":"gpml:SubductionZone","polarity":"Right","overriding_plate_id":801,"subducting_plate_id":90107,"plate_ids":[801,90107],"name":"Cathaysia_SZ"},"geometry":{"type":"LineString","coordinates":[[-87.3,3.402],[-87.122,2.935],[-86.944,2.468],[-86.767,2.002],[-86.59,1.535],[-86.412,1.068],[-86.235,0.602],[-86.058,0.135],[-85.881,-0.332],[-85.704,-0.798],[-85.527,-1.265],[-85.349,-1.732],[-85.172,-2.198],[-84.995,-2.665],[-84.75,-3.1],[-84.504,-3.536],[-84.259,-3.971],[-84.013,-4.406],[-83.767,-4.842],[-83.521,-5.277],[-83.275,-5.712],[-83.028,-6.147],[-82.78,-6.581],[-82.532,-7.016],[-82.284,-7.45],[-82.035,-7.885],[-81.786,-8.319],[-81.536,-8.753],[-81.286,-9.187],[-80.972,-9.5],[-80.658,-9.813]]}},{"type":"Feature","properties":{"boundary_type":"subduction","feature_type":"gpml:SubductionZone","polarity":"Left","overriding_plate_id":201,"subducting_plate_id":803,"plate_ids":[201,803],"name":"Amazonia_SZ"},"geometry":{"type":"LineString","coordinates":[[141.248,-3.787],[140.957,-4.149],[140.665,-4.51],[140.373,-4.871],[140.08,-5.233],[139.788,-5.594]]}},{"type":"Feature","properties":{"boundary_type":"subduction","feature_type":"gpml:SubductionZone","polarity":"Left","overriding_plate_id":201,"subducting_plate_id":90105,"plate_ids":[201,90105],"name":"Amazonia_SZ"},"geometry":{"type":"LineString","coordinates":[[139.788,-5.594],[139.478,-5.975],[139.169,-6.355],[138.858,-6.736],[138.548,-7.116],[138.236,-7.496],[137.925,-7.876],[137.612,-8.256],[137.299,-8.635],[136.986,-9.014],[136.671,-9.393],[136.356,-9.772],[136.041,-10.15],[135.724,-10.528],[135.407,-10.906],[135.089,-11.283],[134.77,-11.66],[134.451,-12.037],[134.13,-12.413],[133.809,-12.789],[133.486,-13.165],[133.163,-13.54],[132.838,-13.915],[132.513,-14.289],[132.186,-14.663],[131.858,-15.036],[131.529,-15.409],[131.199,-15.782],[130.868,-16.154],[130.536,-16.525],[130.202,-16.896],[129.867,-17.266],[129.53,-17.636],[129.192,-18.006],[128.853,-18.374],[128.512,-18.742],[128.17,-19.11],[127.826,-19.476],[127.481,-19.843],[127.134,-20.208],[126.786,-20.573],[126.436,-20.937],[126.084,-21.3],[125.73,-21.663],[125.375,-22.025],[125.102,-22.439],[124.828,-22.853],[124.552,-23.266],[124.275,-23.679],[123.996,-24.091],[123.714,-24.503],[123.432,-24.914],[123.147,-25.324],[122.86,-25.735],[122.571,-26.144],[122.281,-26.553],[121.988,-26.961],[121.693,-27.369],[121.396,-27.776],[121.096,-28.183],[120.795,-28.589],[120.491,-28.994],[120.184,-29.398],[119.875,-29.802],[119.564,-30.205],[119.25,-30.607],[119.081,-31.085],[118.911,-31.563],[118.739,-32.04],[118.565,-32.517],[118.389,-32.994],[118.211,-33.47],[118.032,-33.947],[117.85,-34.423],[117.666,-34.898],[117.48,-35.374],[117.292,-35.849],[117.101,-36.324],[116.909,-36.798],[116.713,-37.273],[116.516,-37.747],[116.316,-38.22],[116.113,-38.694],[115.907,-39.166],[115.898,-39.654],[115.89,-40.141],[115.881,-40.629],[115.871,-41.116],[115.862,-41.603],[115.853,-42.091],[115.843,-42.578],[115.833,-43.066],[115.824,-43.553],[115.814,-44.041],[115.803,-44.528],[115.793,-45.015],[115.782,-45.503],[115.772,-45.99],[115.761,-46.477],[115.75,-46.965],[115.738,-47.452],[115.727,-47.94],[115.715,-48.427],[115.703,-48.914],[115.959,-49.38],[116.219,-49.845],[116.485,-50.309],[116.756,-50.773],[117.032,-51.236],[117.314,-51.698],[117.601,-52.16],[117.895,-52.621],[118.195,-53.082],[118.501,-53.541],[118.815,-54.0],[119.135,-54.458],[119.462,-54.915],[119.797,-55.371],[120.139,-55.826],[120.49,-56.28],[120.849,-56.733],[121.217,-57.185],[121.594,-57.636],[121.981,-58.086],[122.377,-58.535],[122.784,-58.982],[123.201,-59.429],[123.63,-59.873],[124.07,-60.317],[124.522,-60.758],[124.987,-61.199],[125.465,-61.637],[125.956,-62.074],[126.462,-62.509],[126.983,-62.943],[127.519,-63.374],[128.072,-63.803],[128.642,-64.23],[129.23,-64.655],[129.836,-65.077],[130.462,-65.497],[131.108,-65.914],[131.776,-66.328],[132.466,-66.74],[133.179,-67.148],[133.916,-67.553],[134.68,-67.954],[135.469,-68.352],[136.287,-68.746],[137.135,-69.136],[138.012,-69.521],[138.922,-69.902],[139.865,-70.279],[140.844,-70.65],[141.858,-71.015],[142.911,-71.375],[144.004,-71.729],[145.137,-72.076],[146.314,-72.417],[147.535,-72.75],[148.802,-73.076],[150.117,-73.393],[151.481,-73.702],[152.895,-74.002],[154.361,-74.293],[155.88,-74.573],[157.453,-74.842],[158.215,-74.932]]}},{"type":"Feature","properties":{"boundary_type":"transform","feature_type":"gpml:Transform","polarity":null,"overriding_plate_id":null,"subducting_plate_id":null,"plate_ids":[101,801],"name":""},"geometry":{"type":"LineString","coordinates":[[-100.505,19.498],[-100.476,19.011],[-100.448,18.524],[-100.419,18.037],[-100.391,17.55],[-100.364,17.063],[-100.336,16.576],[-100.308,16.089],[-100.281,15.602],[-100.253,15.115],[-100.226,14.628],[-100.199,14.141],[-100.172,13.654],[-100.145,13.167],[-100.118,12.68],[-100.092,12.193],[-100.065,11.706],[-100.039,11.219],[-100.012,10.732],[-99.986,10.245],[-99.96,9.758],[-99.934,9.271]]}},{"type":"Feature","properties":{"boundary_type":"transform","feature_type":"gpml:Transform","polarity":null,"overriding_plate_id":null,"subducting_plate_id":null,"plate_ids":[701,801],"name":""},"geometry":{"type":"LineString","coordinates":[[-99.934,9.271],[-99.909,8.821],[-99.885,8.37],[-99.861,7.92],[-99.837,7.469],[-99.813,7.018],[-99.79,6.568],[-99.766,6.117],[-99.742,5.667],[-99.718,5.216],[-99.694,4.765],[-99.495,4.321],[-99.296,3.876],[-99.098,3.431],[-98.899,2.986],[-98.701,2.541],[-98.502,2.096],[-98.304,1.652],[-98.106,1.207],[-97.908,0.762],[-97.71,0.317],[-97.512,-0.128],[-97.314,-0.573],[-97.116,-1.018],[-96.918,-1.463],[-96.72,-1.908],[-96.522,-2.353],[-96.324,-2.798],[-96.125,-3.243],[-95.926,-3.688],[-95.728,-4.132],[-95.529,-4.577],[-95.329,-5.022],[-95.13,-5.467],[-94.93,-5.911],[-94.729,-6.356],[-94.529,-6.8],[-94.328,-7.244],[-94.127,-7.688],[-93.925,-8.133],[-93.723,-8.577],[-93.52,-9.021],[-93.206,-9.404],[-92.892,-9.787],[-92.577,-10.17],[-92.261,-10.552],[-91.944,-10.935],[-91.627,-11.317],[-91.308,-11.698],[-90.989,-12.079],[-90.669,-12.46],[-90.348,-12.841],[-90.026,-13.221],[-89.703,-13.6],[-89.379,-13.98],[-89.054,-14.358],[-88.727,-14.737],[-88.4,-15.115],[-88.072,-15.492],[-87.742,-15.869],[-87.411,-16.245],[-87.079,-16.621],[-86.745,-16.997],[-86.41,-17.372],[-86.074,-17.746],[-85.736,-18.12],[-85.397,-18.493],[-85.057,-18.865],[-84.714,-19.237],[-84.371,-19.608],[-84.025,-19.979],[-83.679,-20.349],[-83.33,-20.718],[-82.98,-21.087],[-82.628,-21.455],[-82.274,-21.822],[-81.919,-22.188],[-81.561,-22.554],[-81.202,-22.918],[-80.84,-23.282],[-80.477,-23.645],[-80.112,-24.008],[-79.745,-24.369],[-79.375,-24.729],[-79.004,-25.089],[-78.63,-25.448],[-78.254,-25.805],[-77.876,-26.162]]}},{"type":"Feature","properties":{"boundary_type":"transform","feature_type":"gpml:Transform","polarity":null,"overriding_plate_id":null,"subducting_plate_id":null,"plate_ids":[201,803],"name":""},"geometry":{"type":"LineString","coordinates":[[141.248,-3.787],[141.646,-4.09],[142.044,-4.394],[142.443,-4.697],[142.841,-4.999],[143.24,-5.302],[143.64,-5.604],[144.04,-5.906],[144.44,-6.208],[144.841,-6.509],[145.242,-6.81],[145.644,-7.111],[146.046,-7.411],[146.449,-7.711],[146.852,-8.011],[147.256,-8.31],[147.661,-8.609],[148.066,-8.907],[148.472,-9.205],[148.879,-9.503],[149.286,-9.8],[149.694,-10.096],[150.103,-10.393],[150.513,-10.688],[150.923,-10.983],[151.334,-11.278],[151.746,-11.571],[152.159,-11.865],[152.573,-12.157],[152.988,-12.45],[153.403,-12.741],[153.82,-13.032],[154.238,-13.322],[154.656,-13.611],[155.076,-13.9],[155.496,-14.188],[155.918,-14.475],[156.341,-14.762],[156.765,-15.048],[157.19,-15.333],[157.616,-15.617],[158.044,-15.9],[158.472,-16.183],[158.902,-16.464],[159.333,-16.745],[159.765,-17.025],[160.199,-17.304],[160.634,-17.582],[161.07,-17.859],[161.508,-18.135],[161.947,-18.41],[162.387,-18.684],[162.829,-18.958],[163.273,-19.23],[163.717,-19.501],[164.164,-19.77],[164.612,-20.039],[165.061,-20.307],[165.512,-20.573],[165.964,-20.838],[166.418,-21.103],[166.88,-21.354],[167.344,-21.604],[167.81,-21.853],[168.277,-22.1],[168.745,-22.347],[169.216,-22.592],[169.688,-22.835],[170.161,-23.077],[170.637,-23.318],[171.114,-23.557],[171.593,-23.795],[172.073,-24.031],[172.556,-24.266],[173.04,-24.499],[173.526,-24.731],[174.014,-24.961],[174.503,-25.189],[174.995,-25.416],[175.488,-25.642],[175.983,-25.865],[176.48,-26.087],[176.979,-26.307],[177.479,-26.526],[177.982,-26.743],[178.487,-26.957],[178.993,-27.171],[179.502,-27.382],[-179.988,-27.591],[-179.476,-27.799],[-178.962,-28.005],[-178.445,-28.208],[-177.927,-28.41],[-177.407,-28.61],[-176.885,-28.808],[-176.361,-29.004],[-175.835,-29.198],[-175.307,-29.389],[-174.777,-29.579],[-174.245,-29.767],[-173.711,-29.952],[-173.175,-30.135],[-172.637,-30.316],[-172.097,-30.495],[-171.555,-30.672],[-171.011,-30.846],[-170.465,-31.018],[-169.917,-31.188],[-169.367,-31.356],[-168.816,-31.521],[-168.262,-31.683],[-167.706,-31.844],[-167.149,-32.002],[-166.59,-32.157],[-166.028,-32.31],[-165.465,-32.461],[-164.9,-32.609],[-164.333,-32.754],[-163.764,-32.897],[-163.194,-33.037],[-162.621,-33.175],[-162.047,-33.31],[-161.471,-33.442],[-160.893,-33.572],[-160.314,-33.699],[-159.733,-33.824],[-159.15,-33.945],[-158.566,-34.064],[-157.98,-34.18],[-157.392,-34.293],[-156.803,-34.404],[-156.212,-34.511],[-155.62,-34.616],[-155.026,-34.718],[-154.431,-34.817]]}},{"type":"Feature","properties":{"boundary_type":"transform","feature_type":"gpml:Transform","polarity":null,"overriding_plate_id":null,"subducting_plate_id":null,"plate_ids":[101,201],"name":""},"geometry":{"type":"LineString","coordinates":[[-154.431,-34.817],[-153.846,-34.912],[-153.259,-35.003],[-152.671,-35.092],[-152.082,-35.178],[-151.491,-35.261],[-150.9,-35.341],[-150.307,-35.418],[-149.713,-35.492],[-149.118,-35.564],[-148.522,-35.632],[-147.925,-35.698],[-147.327,-35.76],[-146.729,-35.82],[-146.129,-35.877],[-145.528,-35.93],[-144.927,-35.981],[-144.325,-36.029],[-143.722,-36.073],[-143.119,-36.115],[-142.514,-36.154],[-141.91,-36.189],[-141.305,-36.222]]}},{"type":"Feature","properties":{"boundary_type":"transform","feature_type":"gpml:Transform","polarity":null,"overriding_plate_id":null,"subducting_plate_id":null,"plate_ids":[101,701],"name":""},"geometry":{"type":"LineString","coordinates":[[-136.363,-24.076],[-136.543,-24.511],[-136.724,-24.946],[-136.906,-25.38],[-137.089,-25.814],[-137.274,-26.248],[-137.461,-26.682],[-137.649,-27.115],[-137.838,-27.549],[-138.028,-27.982],[-138.221,-28.414],[-138.415,-28.847],[-138.61,-29.279],[-138.807,-29.711],[-138.974,-30.177],[-139.142,-30.644],[-139.312,-31.11],[-139.484,-31.576],[-139.657,-32.042],[-139.833,-32.507],[-140.01,-32.972],[-140.189,-33.437],[-140.369,-33.902],[-140.552,-34.367],[-140.737,-34.831],[-140.924,-35.295],[-141.113,-35.758],[-141.305,-36.222]]}},{"type":"Feature","properties":{"boundary_type":"transform","feature_type":"gpml:Transform","polarity":null,"overriding_plate_id":null,"subducting_plate_id":null,"plate_ids":[201,701],"name":""},"geometry":{"type":"LineString","coordinates":[[-141.305,-36.222],[-141.498,-36.685],[-141.695,-37.148],[-141.893,-37.611],[-142.094,-38.074],[-142.298,-38.536],[-142.504,-38.998],[-142.713,-39.46],[-142.925,-39.921],[-143.14,-40.381],[-143.357,-40.842],[-143.578,-41.302],[-143.802,-41.761],[-144.029,-42.22],[-144.259,-42.679],[-144.493,-43.137],[-144.73,-43.595],[-144.971,-44.052],[-145.215,-44.508],[-145.464,-44.964],[-145.717,-45.42],[-145.973,-45.875],[-146.234,-46.329],[-146.499,-46.783],[-146.769,-47.236],[-147.043,-47.689],[-147.322,-48.141],[-147.606,-48.592],[-147.896,-49.042],[-148.19,-49.492],[-148.49,-49.941],[-148.796,-50.389],[-149.107,-50.837],[-149.425,-51.283],[-149.748,-51.729],[-150.078,-52.173],[-150.415,-52.617],[-150.759,-53.06],[-151.11,-53.502],[-151.468,-53.943],[-151.834,-54.382],[-152.207,-54.821],[-152.589,-55.258],[-152.98,-55.694],[-153.379,-56.129],[-153.787,-56.563],[-154.18,-56.991],[-154.582,-57.417],[-154.993,-57.842],[-155.414,-58.266],[-155.845,-58.689],[-156.287,-59.11],[-156.74,-59.529],[-157.204,-59.947],[-157.68,-60.363],[-158.168,-60.778],[-158.669,-61.19],[-159.183,-61.601],[-159.711,-62.01],[-160.254,-62.416],[-160.811,-62.821],[-161.384,-63.223],[-161.973,-63.623],[-162.578,-64.02],[-163.201,-64.415],[-163.843,-64.807],[-164.503,-65.196]]}},{"type":"Feature","properties":{"boundary_type":"transform","feature_type":"gpml:Transform","polarity":null,"overriding_plate_id":null,"subducting_plate_id":null,"plate_ids":[201,90105],"name":""},"geometry":{"type":"LineString","coordinates":[[-164.503,-65.196],[-165.193,-65.589],[-165.905,-65.978],[-166.639,-66.363],[-167.395,-66.746],[-168.176,-67.124],[-168.981,-67.499],[-169.811,-67.869],[-170.669,-68.235],[-171.554,-68.597],[-172.467,-68.953],[-173.411,-69.305],[-174.386,-69.651],[-175.392,-69.992],[-176.432,-70.327],[-177.506,-70.656],[-178.615,-70.978],[-179.761,-71.293],[179.056,-71.602],[177.835,-71.902],[176.574,-72.195],[175.273,-72.479],[173.931,-72.755],[172.548,-73.022],[171.122,-73.278],[169.654,-73.525],[168.144,-73.761],[166.592,-73.987],[164.997,-74.2],[163.361,-74.402],[161.685,-74.592],[159.969,-74.768],[158.215,-74.932]]}},{"type":"Feature","properties":{"boundary_type":"ridge","feature_type":"gpml:MidOceanRidge","polarity":null,"overriding_plate_id":null,"subducting_plate_id":null,"plate_ids":[803,90106],"name":""},"geometry":{"type":"LineString","coordinates":[[-164.975,32.988],[-165.545,33.117],[-166.117,33.243],[-166.691,33.366],[-167.266,33.487],[-167.843,33.605],[-168.421,33.72],[-169.001,33.832],[-169.582,33.942],[-170.165,34.049],[-170.733,33.904],[-171.298,33.755],[-171.862,33.605],[-172.423,33.451],[-172.983,33.295],[-173.54,33.137],[-174.095,32.976],[-174.649,32.813],[-175.2,32.647],[-175.75,32.479],[-176.297,32.308],[-176.842,32.135],[-177.385,31.96],[-177.926,31.783],[-178.465,31.603],[-179.002,31.421],[-179.537,31.236],[179.93,31.05],[179.527,30.698],[179.127,30.345],[178.729,29.991],[178.334,29.636],[177.942,29.279],[177.553,28.922],[177.166,28.563],[176.782,28.203],[176.401,27.842],[176.022,27.48],[175.646,27.118],[175.272,26.754],[174.901,26.389],[174.531,26.023],[173.983,26.079],[173.434,26.133],[172.885,26.185],[172.335,26.235],[171.784,26.283],[171.234,26.329],[170.682,26.373],[170.131,26.414],[169.579,26.454],[169.026,26.491],[168.474,26.526],[167.92,26.559],[167.367,26.59],[166.813,26.619],[166.259,26.646],[165.705,26.67],[165.151,26.693],[164.596,26.713],[164.041,26.731],[163.486,26.747],[162.931,26.76],[162.376,26.772],[161.821,26.781],[161.265,26.789],[160.71,26.794],[160.154,26.797],[160.075,26.391],[159.997,25.985],[159.92,25.579],[159.843,25.173],[159.766,24.768],[159.227,24.679],[158.688,24.588],[158.15,24.496],[157.613,24.401],[157.077,24.305],[156.541,24.207],[156.007,24.107],[155.473,24.005],[154.94,23.901],[154.408,23.795],[153.877,23.688],[153.346,23.579],[152.817,23.467],[152.289,23.355],[151.761,23.24],[151.234,23.124],[150.709,23.006],[150.184,22.886],[149.66,22.764],[149.137,22.641],[148.615,22.516],[148.094,22.389],[147.574,22.261],[147.054,22.131],[146.536,21.999],[146.019,21.866],[145.503,21.731],[144.987,21.595],[144.473,21.457],[143.96,21.317],[143.447,21.176],[142.936,21.034],[142.426,20.889],[141.916,20.744],[141.408,20.597],[140.9,20.448],[140.394,20.298],[139.889,20.146],[139.384,19.993],[138.881,19.839],[138.378,19.683],[137.877,19.525],[137.376,19.367],[136.876,19.207],[136.378,19.045],[135.88,18.883],[135.384,18.719],[134.888,18.553]]}},{"type":"Feature","properties":{"boundary_type":"ridge","feature_type":"gpml:MidOceanRidge","polarity":null,"overriding_plate_id":null,"subducting_plate_id":null,"plate_ids":[90106,90107],"name":""},"geometry":{"type":"LineString","coordinates":[[14.851,-0.206],[14.647,-0.634],[14.443,-1.061],[14.239,-1.489],[14.035,-1.917],[13.83,-2.345],[13.626,-2.772],[13.421,-3.2],[13.217,-3.628],[13.012,-4.055],[12.807,-4.483]]}},{"type":"Feature","properties":{"boundary_type":"ridge","feature_type":"gpml:MidOceanRidge","polarity":null,"overriding_plate_id":null,"subducting_plate_id":null,"plate_ids":[90105,90107],"name":""},"geometry":{"type":"LineString","coordinates":[[12.807,-4.483],[12.594,-4.926],[12.38,-5.37],[12.166,-5.813],[11.952,-6.257],[11.738,-6.7],[11.523,-7.143],[11.308,-7.586],[11.092,-8.029],[10.876,-8.472],[10.659,-8.915],[10.442,-9.358],[10.224,-9.8],[10.006,-10.243],[9.787,-10.685],[9.568,-11.127],[9.347,-11.569],[9.126,-12.011],[8.905,-12.452],[8.682,-12.894],[8.459,-13.335],[8.235,-13.776],[8.01,-14.217],[7.785,-14.657],[7.558,-15.098],[7.33,-15.538],[7.102,-15.978],[6.872,-16.418],[6.642,-16.857],[6.41,-17.296],[6.177,-17.735],[5.943,-18.174],[5.708,-18.612],[5.472,-19.05],[5.234,-19.488],[4.995,-19.925],[4.755,-20.362],[4.514,-20.799],[4.271,-21.236],[4.026,-21.672],[3.78,-22.108],[3.533,-22.543],[3.284,-22.978],[3.033,-23.413],[2.781,-23.847],[2.527,-24.281],[2.272,-24.714],[2.014,-25.147],[1.755,-25.579],[1.494,-26.011],[1.231,-26.443],[0.965,-26.874],[0.698,-27.304],[0.429,-27.735],[0.158,-28.164],[-0.116,-28.593],[-0.391,-29.021],[-0.669,-29.449],[-0.95,-29.877],[-1.232,-30.303],[-1.518,-30.729],[-1.806,-31.155],[-1.501,-31.581],[-1.193,-32.006],[-0.882,-32.43],[-0.569,-32.854],[-0.252,-33.277],[0.067,-33.699],[0.39,-34.12],[0.716,-34.541],[1.045,-34.96],[1.378,-35.379],[1.714,-35.797],[2.054,-36.213],[2.397,-36.629],[2.744,-37.044],[3.095,-37.458],[3.45,-37.87],[3.808,-38.282],[4.171,-38.693],[4.538,-39.102],[4.91,-39.51],[5.285,-39.917],[5.665,-40.323],[6.05,-40.728],[6.44,-41.131],[6.834,-41.533],[7.233,-41.934],[7.637,-42.333],[8.047,-42.73],[8.461,-43.127],[8.881,-43.521],[9.307,-43.915],[9.738,-44.306],[10.175,-44.696],[10.618,-45.084],[11.067,-45.471],[11.522,-45.856],[11.983,-46.239],[12.451,-46.62],[12.926,-46.999],[13.407,-47.376],[13.895,-47.751],[14.391,-48.124],[14.893,-48.495],[15.403,-48.863],[15.921,-49.23],[16.446,-49.593],[16.979,-49.955],[17.52,-50.314],[18.069,-50.671],[18.627,-51.024],[19.193,-51.376],[19.768,-51.724],[20.352,-52.07],[20.944,-52.412],[21.547,-52.752],[22.158,-53.089],[22.779,-53.422],[23.41,-53.752],[24.051,-54.079],[24.702,-54.402],[25.363,-54.722],[26.035,-55.038],[25.481,-55.424],[24.917,-55.807],[24.342,-56.188],[23.755,-56.566],[23.156,-56.941],[22.545,-57.313],[21.922,-57.683],[21.286,-58.049],[20.636,-58.412],[19.974,-58.771],[19.297,-59.127],[18.607,-59.48],[17.901,-59.829],[17.182,-60.174],[16.446,-60.515],[15.696,-60.851],[14.929,-61.184],[14.146,-61.512],[13.347,-61.836],[12.531,-62.154],[11.697,-62.468],[10.846,-62.777],[9.977,-63.081],[9.09,-63.379],[8.184,-63.671],[7.26,-63.958],[6.317,-64.239],[5.355,-64.513],[4.373,-64.782],[3.372,-65.043],[2.351,-65.298],[1.311,-65.545],[0.251,-65.786],[-0.829,-66.019],[-1.928,-66.244],[-3.047,-66.461],[-4.184,-66.67],[-5.341,-66.871],[-6.517,-67.063],[-7.711,-67.247],[-8.923,-67.421],[-10.153,-67.587],[-11.399,-67.742],[-12.661,-67.889],[-13.939,-68.025],[-15.231,-68.151],[-16.537,-68.267],[-17.856,-68.373],[-19.187,-68.469],[-20.528,-68.553],[-21.878,-68.627],[-23.237,-68.69],[-24.603,-68.742],[-25.975,-68.783],[-27.351,-68.813],[-28.73,-68.832],[-30.111,-68.84],[-31.492,-68.836],[-32.872,-68.821],[-34.249,-68.795],[-35.622,-68.758],[-36.99,-68.71],[-38.352,-68.651],[-39.706,-68.58],[-41.05,-68.499],[-42.385,-68.408],[-43.708,-68.306],[-45.018,-68.193],[-46.316,-68.07],[-47.599,-67.937],[-48.866,-67.795],[-50.118,-67.642],[-51.354,-67.48],[-52.572,-67.309],[-53.772,-67.129],[-54.954,-66.94],[-56.118,-66.742],[-57.263,-66.535],[-58.388,-66.321],[-59.494,-66.098],[-60.58,-65.868],[-61.647,-65.63],[-62.694,-65.385],[-63.722,-65.133],[-64.73,-64.874],[-65.718,-64.608],[-66.687,-64.336],[-67.637,-64.057],[-68.568,-63.772]]}},{"type":"Feature","properties":{"boundary_type":"ridge","feature_type":"gpml:MidOceanRidge","polarity":null,"overriding_plate_id":null,"subducting_plate_id":null,"plate_ids":[803,90105],"name":""},"geometry":{"type":"LineString","coordinates":[[134.918,18.533],[134.71,18.079],[134.503,17.625],[134.297,17.17],[134.092,16.715],[133.888,16.261],[133.685,15.805],[133.484,15.35],[133.282,14.895],[133.082,14.439],[132.883,13.983],[132.684,13.527],[132.486,13.071],[132.289,12.615],[132.093,12.159],[131.897,11.702],[131.702,11.245],[131.507,10.789],[131.313,10.332],[131.12,9.875],[130.927,9.418],[130.735,8.96],[130.543,8.503],[130.352,8.046],[130.161,7.588],[129.97,7.13],[129.78,6.673],[129.59,6.215],[129.401,5.757],[129.212,5.299],[129.023,4.841],[129.472,4.633],[129.92,4.424],[130.369,4.215],[130.817,4.006],[131.264,3.797],[131.712,3.587],[132.159,3.377],[132.606,3.167],[133.053,2.957],[133.5,2.747],[133.947,2.536],[134.393,2.325],[134.84,2.114],[135.286,1.903],[135.732,1.692],[136.178,1.481],[136.624,1.27],[137.07,1.058],[137.516,0.847],[137.962,0.635],[138.408,0.424],[138.853,0.212],[138.655,-0.202],[138.457,-0.616],[138.258,-1.03],[138.06,-1.444],[137.861,-1.858],[137.662,-2.273],[137.464,-2.687],[137.265,-3.101],[137.066,-3.515],[136.867,-3.929],[137.283,-4.167],[137.7,-4.406],[138.117,-4.644],[138.534,-4.882],[138.952,-5.119],[139.369,-5.357],[139.788,-5.594]]}},{"type":"Feature","properties":{"boundary_type":"ridge","feature_type":"gpml:MidOceanRidge","polarity":null,"overriding_plate_id":null,"subducting_plate_id":null,"plate_ids":[701,90107],"name":""},"geometry":{"type":"LineString","coordinates":[[-62.103,-57.565],[-62.488,-58.018],[-62.883,-58.47],[-63.289,-58.92],[-63.705,-59.369],[-64.133,-59.817],[-64.572,-60.263],[-65.023,-60.707],[-65.487,-61.151],[-65.964,-61.592],[-66.455,-62.032],[-66.96,-62.47],[-67.48,-62.906],[-68.016,-63.34],[-68.568,-63.772]]}},{"type":"Feature","properties":{"boundary_type":"ridge","feature_type":"gpml:MidOceanRidge","polarity":null,"overriding_plate_id":null,"subducting_plate_id":null,"plate_ids":[701,90105],"name":""},"geometry":{"type":"LineString","coordinates":[[-68.568,-63.772],[-69.129,-64.196],[-69.708,-64.618],[-70.304,-65.037],[-70.92,-65.454],[-71.556,-65.868],[-72.212,-66.28],[-72.89,-66.688],[-73.591,-67.094],[-74.316,-67.497],[-75.065,-67.896],[-75.841,-68.291],[-76.643,-68.683],[-77.475,-69.071],[-78.336,-69.455],[-79.228,-69.834],[-80.153,-70.209],[-81.111,-70.578],[-82.106,-70.943],[-83.137,-71.302],[-84.207,-71.655],[-85.317,-72.002],[-86.469,-72.342],[-87.664,-72.676],[-88.904,-73.002],[-90.19,-73.32],[-91.525,-73.63],[-92.909,-73.932],[-94.343,-74.224],[-95.83,-74.506],[-97.369,-74.778],[-98.962,-75.04],[-100.608,-75.289],[-102.309,-75.527],[-104.065,-75.752],[-105.032,-75.327],[-105.947,-74.899],[-106.811,-74.466],[-107.63,-74.031],[-108.406,-73.593],[-109.143,-73.152],[-109.843,-72.708],[-110.509,-72.262],[-111.144,-71.814],[-111.749,-71.364],[-112.326,-70.912],[-112.878,-70.459],[-113.405,-70.004],[-113.91,-69.547],[-115.305,-69.643],[-116.712,-69.727],[-118.13,-69.801],[-119.557,-69.862],[-120.992,-69.913],[-122.432,-69.951],[-123.877,-69.978],[-125.325,-69.994],[-126.775,-69.997],[-128.224,-69.989],[-129.671,-69.969],[-131.114,-69.937],[-132.553,-69.893],[-133.984,-69.838],[-135.407,-69.771],[-136.821,-69.693],[-138.223,-69.604],[-139.613,-69.504],[-140.99,-69.392],[-142.351,-69.27],[-143.697,-69.137],[-145.025,-68.994],[-146.336,-68.841],[-147.629,-68.678],[-148.902,-68.505],[-150.155,-68.322],[-151.388,-68.13],[-152.599,-67.93],[-153.79,-67.72],[-154.959,-67.502],[-156.107,-67.276],[-157.232,-67.041],[-158.336,-66.799],[-159.418,-66.55],[-160.478,-66.293],[-161.516,-66.029],[-162.533,-65.758],[-163.529,-65.48],[-164.503,-65.196]]}},{"type":"Feature","properties":{"boundary_type":"subduction","feature_type":"gpml:SubductionZone","polarity":"Right","overriding_plate_id":801,"subducting_plate_id":90107,"plate_ids":[801,90107],"name":"SaoFrancisco_SZ"},"geometry":{"type":"LineString","coordinates":[[-80.658,-9.813],[-80.63,-10.289],[-80.601,-10.765],[-80.572,-11.242],[-80.543,-11.718],[-80.514,-12.194],[-80.484,-12.671],[-80.455,-13.147],[-80.425,-13.623],[-80.396,-14.1],[-80.366,-14.576],[-80.336,-15.052],[-80.306,-15.528],[-80.276,-16.005],[-80.246,-16.481],[-80.215,-16.957],[-80.185,-17.434],[-80.154,-17.91],[-80.029,-18.381],[-79.903,-18.853],[-79.777,-19.325],[-79.65,-19.796],[-79.522,-20.267],[-79.393,-20.738],[-79.264,-21.21],[-79.133,-21.681],[-79.002,-22.151],[-78.87,-22.622],[-78.737,-23.093],[-78.603,-23.563],[-78.469,-24.034],[-78.333,-24.504],[-78.196,-24.975],[-78.058,-25.445],[-77.967,-25.803],[-77.876,-26.162]]}},{"type":"Feature","properties":{"boundary_type":"subduction","feature_type":"gpml:SubductionZone","polarity":"Right","overriding_plate_id":701,"subducting_plate_id":90107,"plate_ids":[701,90107],"name":"SaoFrancisco_SZ"},"geometry":{"type":"LineString","coordinates":[[-77.876,-26.162],[-77.755,-26.632],[-77.633,-27.102],[-77.511,-27.571],[-77.387,-28.041],[-77.262,-28.51],[-77.136,-28.98],[-77.009,-29.449],[-76.881,-29.918],[-76.752,-30.387],[-76.621,-30.856],[-76.489,-31.324],[-76.312,-31.786],[-76.132,-32.248],[-75.951,-32.71],[-75.768,-33.171],[-75.583,-33.632],[-75.396,-34.093],[-75.207,-34.554],[-75.016,-35.014],[-74.823,-35.474],[-74.628,-35.933],[-74.43,-36.393],[-74.23,-36.851],[-74.027,-37.31],[-73.822,-37.768],[-73.615,-38.226],[-73.404,-38.684],[-73.192,-39.141],[-72.976,-39.598],[-72.757,-40.054],[-72.536,-40.51],[-72.372,-40.968],[-72.206,-41.426],[-72.038,-41.883],[-71.867,-42.341],[-71.693,-42.798],[-71.517,-43.254],[-71.339,-43.711],[-71.158,-44.167],[-70.973,-44.623],[-70.786,-45.079],[-70.596,-45.534],[-70.403,-45.989],[-70.207,-46.444],[-70.007,-46.898],[-69.804,-47.352],[-69.597,-47.806],[-69.387,-48.259],[-69.106,-48.712],[-68.821,-49.165],[-68.53,-49.617],[-68.233,-50.068],[-67.931,-50.518],[-67.624,-50.968],[-67.31,-51.417],[-66.99,-51.865],[-66.663,-52.312],[-66.33,-52.758],[-65.99,-53.203],[-65.643,-53.647],[-65.288,-54.09],[-64.926,-54.532],[-64.556,-54.973],[-64.178,-55.413],[-63.791,-55.852],[-63.395,-56.289],[-62.974,-56.716],[-62.543,-57.141],[-62.103,-57.565]]}},{"type":"Feature","properties":{"boundary_type":"subduction","feature_type":"gpml:SubductionZone","polarity":"Left","overriding_plate_id":101,"subducting_plate_id":803,"plate_ids":[101,803],"name":"Baltica_SZ"},"geometry":{"type":"LineString","coordinates":[[-164.424,22.105],[-164.198,21.689],[-163.973,21.273],[-163.749,20.857],[-163.526,20.441],[-163.305,20.024],[-163.084,19.607],[-162.865,19.189],[-162.638,18.774],[-162.412,18.359],[-162.188,17.943],[-161.964,17.527],[-161.741,17.111],[-161.519,16.695],[-161.298,16.278],[-161.079,15.861],[-160.86,15.444],[-160.641,15.027],[-160.543,14.571],[-160.445,14.116],[-160.347,13.661],[-160.249,13.205],[-160.152,12.75],[-160.056,12.294],[-159.959,11.839],[-159.863,11.383],[-159.767,10.928],[-159.834,10.474],[-159.901,10.02],[-159.968,9.566],[-160.035,9.112],[-160.101,8.658],[-160.168,8.203],[-160.234,7.749],[-160.3,7.295],[-160.366,6.841],[-160.432,6.387],[-160.497,5.933],[-160.563,5.479],[-160.566,5.016],[-160.569,4.553],[-160.572,4.09],[-160.575,3.627],[-160.578,3.165],[-160.582,2.702],[-160.585,2.239],[-160.588,1.776],[-160.591,1.313],[-160.594,0.851],[-160.597,0.388],[-160.6,-0.075],[-160.529,-0.525],[-160.459,-0.976],[-160.388,-1.426],[-160.317,-1.877],[-160.246,-2.327],[-160.175,-2.778],[-160.105,-3.228],[-160.034,-3.679],[-159.963,-4.129],[-159.891,-4.58],[-159.721,-5.001],[-159.551,-5.421],[-159.381,-5.842],[-159.21,-6.263]]}},{"type":"Feature","properties":{"boundary_type":"ridge","feature_type":"gpml:MidOceanRidge","polarity":null,"overriding_plate_id":null,"subducting_plate_id":null,"plate_ids":[803,90105],"name":""},"geometry":{"type":"LineString","coordinates":[[134.918,18.533],[134.888,18.553]]}},{"type":"Feature","properties":{"boundary_type":"ridge","feature_type":"gpml:MidOceanRidge","polarity":null,"overriding_plate_id":null,"subducting_plate_id":null,"plate_ids":[90105,90106],"name":""},"geometry":{"type":"LineString","coordinates":[[134.888,18.553],[134.462,18.845],[134.034,19.137],[133.605,19.427],[133.175,19.716],[132.743,20.004],[132.309,20.291],[131.874,20.577],[131.437,20.862],[130.999,21.146],[130.558,21.428],[130.117,21.71],[129.673,21.99],[129.227,22.269],[128.78,22.547],[128.331,22.824],[127.881,23.099],[127.428,23.374],[126.973,23.646],[126.517,23.918],[126.059,24.188],[125.598,24.457],[125.136,24.724],[124.672,24.99],[124.206,25.255],[123.737,25.518],[123.267,25.779],[122.795,26.039],[122.32,26.298],[121.844,26.554],[121.365,26.81],[120.884,27.063],[120.401,27.316],[119.916,27.566],[119.428,27.815],[118.939,28.062],[118.447,28.307],[117.953,28.55],[117.456,28.792],[116.957,29.032],[116.456,29.27],[115.953,29.506],[115.447,29.74],[114.939,29.972],[114.428,30.203],[113.916,30.431],[113.4,30.657],[112.883,30.881],[112.363,31.104],[111.84,31.324],[111.315,31.542],[110.788,31.757],[110.258,31.971],[109.726,32.183],[109.191,32.392],[108.653,32.599],[108.114,32.803],[107.572,33.006],[107.027,33.205],[106.48,33.403],[105.93,33.598],[105.378,33.791],[104.823,33.981],[104.266,34.169],[103.707,34.354],[103.145,34.537],[102.58,34.717],[102.014,34.894],[101.851,34.416],[101.69,33.937],[101.531,33.458],[101.374,32.98],[101.219,32.5],[101.065,32.021],[100.913,31.542],[100.762,31.062],[100.613,30.582],[100.465,30.102],[100.319,29.622],[100.174,29.141],[100.031,28.661],[99.889,28.18],[99.748,27.699],[99.608,27.218],[99.469,26.737],[99.332,26.256],[99.196,25.775],[99.061,25.293],[98.927,24.812],[98.794,24.33],[98.254,24.392],[97.714,24.452],[97.174,24.511],[96.633,24.567],[96.091,24.622],[95.549,24.674],[95.007,24.725],[94.464,24.774],[93.921,24.82],[93.377,24.865],[92.833,24.908],[92.289,24.949],[91.744,24.988],[91.199,25.024],[90.653,25.059],[90.108,25.092],[89.562,25.123],[89.015,25.152],[88.469,25.179],[87.922,25.204],[87.375,25.226],[86.828,25.247],[86.281,25.266],[85.733,25.283],[85.185,25.298],[84.638,25.31],[84.09,25.321],[83.542,25.33],[82.994,25.336],[82.446,25.341],[81.897,25.344],[81.349,25.344],[80.801,25.343],[80.253,25.339],[79.705,25.334],[79.157,25.326],[79.188,24.834],[79.219,24.343],[79.25,23.851],[79.28,23.359],[79.311,22.867],[79.341,22.375],[79.371,21.883],[79.4,21.391],[79.43,20.899],[79.459,20.407],[79.488,19.915],[78.972,19.806],[78.456,19.695],[77.942,19.582],[77.427,19.468],[76.914,19.353],[76.402,19.236],[75.89,19.118],[75.378,18.998],[74.868,18.877],[74.358,18.755],[73.85,18.631],[73.341,18.506],[72.834,18.379],[72.327,18.251],[71.821,18.122],[71.316,17.991],[70.812,17.86],[70.308,17.726],[69.805,17.592],[69.303,17.456],[68.801,17.319],[68.301,17.181],[67.801,17.042],[67.302,16.901],[66.803,16.759],[66.306,16.616],[65.809,16.472],[65.312,16.327],[64.817,16.18],[64.322,16.032],[63.828,15.883],[63.335,15.733],[62.843,15.582],[62.351,15.43],[61.86,15.277],[61.369,15.123],[60.88,14.967],[60.391,14.811],[59.903,14.653],[59.415,14.495],[58.928,14.335],[58.442,14.175],[57.957,14.014],[57.472,13.851],[56.988,13.688],[56.504,13.524],[56.022,13.358],[55.54,13.192],[55.058,13.025],[54.578,12.857],[54.097,12.688],[53.618,12.519],[53.139,12.348],[52.661,12.177],[52.825,11.733],[52.989,11.29],[53.153,10.846],[53.315,10.402],[53.478,9.958],[53.64,9.514],[53.801,9.07],[53.963,8.626],[54.123,8.181],[54.284,7.737],[54.444,7.293],[54.604,6.848],[54.763,6.404],[54.277,6.287],[53.79,6.17],[53.304,6.053],[52.818,5.935],[52.332,5.816],[51.847,5.698],[51.362,5.578],[50.876,5.459],[50.392,5.339],[49.907,5.219],[49.422,5.098],[48.938,4.977],[48.454,4.855],[47.97,4.734],[47.486,4.612],[47.002,4.489],[46.519,4.366],[46.035,4.243],[45.552,4.12],[45.069,3.996],[44.586,3.873],[44.103,3.748],[43.621,3.624],[43.138,3.499],[42.656,3.374],[42.174,3.249],[41.692,3.124],[41.21,2.998],[40.728,2.872],[40.246,2.746],[39.764,2.62],[39.283,2.493],[38.801,2.367],[38.32,2.24],[37.838,2.113],[37.357,1.986],[36.876,1.859],[36.395,1.731],[35.914,1.604],[35.433,1.476],[34.952,1.348],[34.471,1.221],[33.99,1.093],[33.509,0.965],[33.029,0.837],[32.548,0.709],[32.067,0.58],[31.587,0.452],[31.106,0.324],[30.625,0.196],[30.145,0.068],[29.664,-0.061],[29.183,-0.189],[28.703,-0.317],[28.222,-0.445],[27.741,-0.574],[27.261,-0.702],[26.78,-0.83],[26.299,-0.958],[25.818,-1.086],[25.338,-1.214],[24.857,-1.341],[24.376,-1.469],[23.895,-1.597],[23.414,-1.724],[22.933,-1.852],[22.452,-1.979],[21.97,-2.106],[21.489,-2.233],[21.008,-2.36],[20.526,-2.486],[20.045,-2.613],[19.563,-2.739],[19.081,-2.865],[18.599,-2.991],[18.117,-3.117],[17.635,-3.242],[17.153,-3.367],[16.671,-3.492],[16.188,-3.617],[15.705,-3.742],[15.223,-3.866],[14.74,-3.99],[14.257,-4.113],[13.774,-4.237],[13.29,-4.36],[12.807,-4.483]]}},{"type":"Feature","properties":{"boundary_type":"subduction","feature_type":"gpml:SubductionZone","polarity":"Right","overriding_plate_id":80104,"subducting_plate_id":811001,"plate_ids":[80104,811001],"name":""},"geometry":{"type":"LineString","coordinates":[[-85.262,42.314],[-84.77,41.973],[-84.283,41.631],[-83.801,41.286],[-83.324,40.94],[-82.853,40.592],[-82.386,40.241],[-81.924,39.889],[-81.467,39.535],[-81.015,39.179],[-80.567,38.822],[-80.123,38.463],[-79.973,38.026],[-79.824,37.59],[-79.677,37.154],[-79.531,36.717],[-79.387,36.28],[-79.245,35.843],[-79.105,35.406],[-78.965,34.969],[-78.828,34.532],[-78.692,34.094],[-78.72,33.664],[-78.749,33.235],[-78.777,32.805],[-78.805,32.376],[-78.832,31.946],[-78.86,31.517],[-78.887,31.087]]}},{"type":"Feature","properties":{"boundary_type":"subduction","feature_type":"gpml:SubductionZone","polarity":"Right","overriding_plate_id":80104,"subducting_plate_id":90107,"plate_ids":[80104,90107],"name":""},"geometry":{"type":"LineString","coordinates":[[-78.887,31.087],[-78.912,30.684],[-78.937,30.28],[-78.962,29.877],[-78.986,29.474],[-79.025,29.01],[-79.064,28.546],[-79.103,28.081],[-79.141,27.617],[-79.179,27.153],[-79.217,26.689],[-79.255,26.225],[-79.477,25.819],[-79.697,25.412],[-79.916,25.006],[-80.134,24.599],[-80.35,24.191],[-80.565,23.784],[-80.779,23.376],[-80.991,22.968],[-81.368,22.795],[-81.743,22.621],[-82.118,22.446],[-82.576,22.257],[-83.033,22.067]]}},{"type":"Feature","properties":{"boundary_type":"subduction","feature_type":"gpml:SubductionZone","polarity":"Right","overriding_plate_id":80101,"subducting_plate_id":90106,"plate_ids":[80101,90106],"name":""},"geometry":{"type":"LineString","coordinates":[[-29.79,55.512],[-29.362,55.13],[-28.942,54.746],[-28.531,54.361],[-28.126,53.974],[-27.73,53.586],[-27.34,53.197],[-27.085,52.759],[-26.835,52.321],[-26.59,51.882],[-26.35,51.443],[-26.114,51.004],[-25.883,50.564],[-25.656,50.123],[-25.433,49.682],[-25.214,49.241],[-25.17,48.747],[-25.126,48.254],[-25.083,47.761],[-25.041,47.267],[-24.999,46.774],[-24.959,46.281],[-24.919,45.787],[-25.173,45.377],[-25.423,44.965],[-25.669,44.554],[-25.913,44.141],[-26.152,43.728],[-26.389,43.315],[-26.622,42.901],[-26.852,42.487],[-27.18,42.07],[-27.503,41.652],[-27.822,41.233],[-28.137,40.813],[-28.447,40.392],[-28.754,39.971],[-29.058,39.548],[-29.357,39.125],[-29.653,38.701],[-29.98,38.406]]}},{"type":"Feature","properties":{"boundary_type":"subduction","feature_type":"gpml:SubductionZone","polarity":"Right","overriding_plate_id":80101,"subducting_plate_id":90107,"plate_ids":[80101,90107],"name":""},"geometry":{"type":"LineString","coordinates":[[-29.98,38.406],[-30.372,38.047],[-30.759,37.687],[-31.143,37.326],[-31.524,36.964],[-31.9,36.601],[-32.273,36.236],[-32.643,35.87],[-33.009,35.504],[-33.452,35.196],[-33.892,34.886],[-34.329,34.575],[-34.762,34.263],[-35.193,33.949],[-35.619,33.633],[-36.043,33.317],[-36.464,32.998],[-36.882,32.678],[-37.413,32.504],[-37.943,32.327],[-38.47,32.148],[-38.995,31.967],[-39.518,31.783],[-40.039,31.598],[-40.558,31.41],[-41.075,31.22],[-41.59,31.029],[-42.103,30.835],[-42.613,30.639],[-43.122,30.441],[-43.628,30.241]]}},{"type":"Feature","properties":{"boundary_type":"transform","feature_type":"gpml:Transform","polarity":null,"overriding_plate_id":null,"subducting_plate_id":null,"plate_ids":[90107,811001],"name":""},"geometry":{"type":"LineString","coordinates":[[-78.887,31.087],[-78.317,31.151],[-77.747,31.213],[-77.176,31.272],[-76.604,31.329],[-76.032,31.383],[-75.459,31.435],[-74.885,31.484],[-74.311,31.531],[-73.736,31.575],[-73.161,31.616],[-72.585,31.655],[-72.009,31.691],[-71.432,31.725]]}},{"type":"Feature","properties":{"boundary_type":"transform","feature_type":"gpml:Transform","polarity":null,"overriding_plate_id":null,"subducting_plate_id":null,"plate_ids":[80101,90107],"name":""},"geometry":{"type":"LineString","coordinates":[[-71.432,31.725],[-70.85,31.756],[-70.267,31.785],[-69.684,31.811],[-69.101,31.834],[-68.517,31.855],[-67.933,31.873],[-67.349,31.888],[-66.765,31.901],[-66.18,31.911],[-65.596,31.918],[-65.011,31.923],[-64.427,31.925],[-63.842,31.924],[-63.257,31.921],[-62.673,31.915],[-62.088,31.906],[-61.504,31.894],[-60.92,31.88],[-60.336,31.864],[-59.752,31.844],[-59.169,31.822],[-58.585,31.797],[-58.002,31.77],[-57.42,31.74],[-56.838,31.707],[-56.256,31.672],[-55.675,31.634],[-55.094,31.593],[-54.514,31.55],[-53.934,31.504],[-53.355,31.456],[-52.777,31.405],[-52.199,31.351],[-51.622,31.295],[-51.045,31.236],[-50.47,31.175],[-49.895,31.111],[-49.321,31.044],[-48.747,30.975],[-48.175,30.904],[-47.603,30.829],[-47.033,30.753],[-46.463,30.674],[-45.894,30.592],[-45.326,30.508],[-44.759,30.422],[-44.193,30.333],[-43.628,30.241]]}},{"type":"Feature","properties":{"boundary_type":"ridge","feature_type":"gpml:MidOceanRidge","polarity":null,"overriding_plate_id":null,"subducting_plate_id":null,"plate_ids":[80101,811001],"name":""},"geometry":{"type":"LineString","coordinates":[[-65.583,64.766],[-65.515,64.27],[-65.449,63.774],[-65.385,63.279],[-65.323,62.783],[-65.264,62.287],[-65.206,61.792],[-65.15,61.296],[-65.096,60.8],[-65.044,60.304],[-64.993,59.808],[-64.943,59.313],[-64.895,58.817],[-64.849,58.321],[-64.803,57.825],[-64.759,57.329],[-64.716,56.833],[-65.51,56.769],[-66.3,56.7],[-67.088,56.625],[-67.872,56.546],[-68.654,56.462],[-69.431,56.373],[-70.205,56.279],[-70.975,56.181],[-70.832,55.733],[-70.693,55.284],[-70.557,54.836],[-70.424,54.387],[-70.294,53.939],[-70.166,53.49],[-70.042,53.041],[-69.919,52.592],[-69.8,52.142],[-70.517,52.059],[-71.232,51.971],[-71.944,51.878],[-72.653,51.782],[-73.359,51.681],[-73.294,51.195],[-73.23,50.708],[-73.167,50.222],[-73.106,49.736],[-73.046,49.249],[-72.988,48.763],[-72.93,48.276],[-72.873,47.79],[-72.818,47.303],[-72.763,46.817],[-72.71,46.33],[-72.657,45.844],[-72.606,45.357],[-72.555,44.87],[-72.505,44.384],[-72.456,43.897],[-72.407,43.41],[-72.36,42.924],[-72.313,42.437],[-72.267,41.95],[-72.222,41.463],[-72.177,40.977],[-72.133,40.49],[-72.089,40.003],[-72.047,39.516],[-72.004,39.029],[-71.963,38.542],[-71.922,38.055],[-71.881,37.569],[-71.841,37.082],[-71.802,36.595],[-71.763,36.108],[-71.724,35.621],[-71.686,35.134],[-71.649,34.647],[-71.612,34.16],[-71.575,33.673],[-71.538,33.186],[-71.503,32.699],[-71.467,32.212],[-71.432,31.725]]}},{"type":"Feature","properties":{"boundary_type":"subduction","feature_type":"gpml:SubductionZone","polarity":"Right","overriding_plate_id":811001,"subducting_plate_id":90106,"plate_ids":[90106,811001],"name":""},"geometry":{"type":"LineString","coordinates":[[-69.449,65.031],[-68.475,64.974],[-67.506,64.911],[-66.542,64.841],[-65.583,64.766]]}},{"type":"Feature","properties":{"boundary_type":"subduction","feature_type":"gpml:SubductionZone","polarity":"Right","overriding_plate_id":80101,"subducting_plate_id":90106,"plate_ids":[80101,90106],"name":""},"geometry":{"type":"LineString","coordinates":[[-65.583,64.766],[-64.453,64.668],[-63.33,64.561],[-62.217,64.446],[-61.113,64.323],[-60.02,64.191],[-58.937,64.052],[-57.865,63.904],[-56.805,63.749],[-55.756,63.586],[-54.72,63.415],[-53.696,63.237],[-52.686,63.051],[-51.688,62.859],[-50.703,62.66],[-49.732,62.453],[-48.774,62.24],[-47.83,62.021],[-46.9,61.795],[-45.983,61.563],[-45.081,61.325],[-44.191,61.081],[-43.316,60.832],[-42.455,60.576],[-41.607,60.316],[-40.772,60.05],[-39.951,59.779],[-39.144,59.502],[-38.35,59.221],[-37.568,58.935],[-36.8,58.645],[-36.045,58.35],[-35.302,58.05],[-34.571,57.747],[-33.853,57.439],[-33.147,57.127],[-32.453,56.812],[-31.77,56.492],[-31.099,56.169],[-30.439,55.842],[-29.79,55.512]]}},{"type":"Feature","properties":{"boundary_type":"ridge","feature_type":"gpml:MidOceanRidge","polarity":null,"overriding_plate_id":null,"subducting_plate_id":null,"plate_ids":[90106,90107],"name":""},"geometry":{"type":"LineString","coordinates":[[14.851,-0.206],[14.516,0.156],[14.181,0.518],[13.846,0.879],[13.511,1.241],[13.175,1.602],[12.84,1.964],[12.505,2.325],[12.169,2.687],[11.833,3.048],[11.497,3.409],[11.161,3.77],[10.824,4.131],[10.487,4.492],[10.15,4.853],[9.812,5.213],[9.474,5.574],[9.136,5.934],[8.797,6.294],[8.457,6.653],[8.118,7.013],[7.777,7.372],[7.436,7.731],[7.095,8.09],[6.753,8.448],[6.41,8.806],[6.067,9.164],[5.722,9.521],[5.378,9.878],[5.032,10.235],[4.686,10.592],[4.339,10.948],[3.991,11.303],[3.642,11.659],[3.292,12.013],[2.941,12.368],[2.59,12.722],[2.237,13.075],[1.884,13.428],[1.529,13.781],[1.173,14.133],[0.816,14.484],[0.458,14.835],[0.099,15.185],[-0.261,15.535],[-0.623,15.884],[-1.052,15.605],[-1.48,15.325],[-1.907,15.044],[-2.333,14.763],[-2.758,14.481],[-3.181,14.197],[-3.604,13.914],[-4.026,13.629],[-4.446,13.344],[-4.866,13.058],[-5.284,12.771],[-5.702,12.484],[-6.119,12.196],[-6.535,11.907],[-6.86,12.284],[-7.186,12.661],[-7.513,13.037],[-7.841,13.412],[-8.17,13.788],[-8.5,14.163],[-8.831,14.537],[-9.163,14.911],[-9.497,15.284],[-9.831,15.657],[-10.167,16.03],[-10.504,16.402],[-10.843,16.773],[-11.183,17.144],[-11.524,17.514],[-11.866,17.884],[-12.21,18.253],[-12.556,18.621],[-12.902,18.989],[-13.251,19.356],[-13.601,19.723],[-13.952,20.088],[-14.306,20.453],[-14.661,20.818],[-15.017,21.181],[-15.376,21.544],[-15.736,21.907],[-16.098,22.268],[-16.462,22.628],[-16.149,22.957],[-15.835,23.286],[-15.519,23.613],[-15.202,23.94],[-14.883,24.267],[-15.219,24.648],[-15.557,25.03],[-15.897,25.41],[-16.24,25.789],[-16.584,26.168],[-16.931,26.546],[-17.28,26.923],[-17.632,27.299],[-17.986,27.675],[-18.342,28.049],[-18.701,28.423],[-19.062,28.795],[-19.426,29.167],[-19.793,29.537],[-20.162,29.907],[-20.534,30.275],[-20.909,30.643],[-21.286,31.009],[-21.667,31.375],[-22.05,31.739],[-22.437,32.102],[-22.827,32.464],[-23.219,32.824],[-23.615,33.184],[-24.014,33.542],[-24.417,33.898],[-24.823,34.254],[-25.232,34.608],[-25.645,34.961],[-26.062,35.312],[-26.482,35.662],[-26.905,36.011],[-27.333,36.358],[-27.764,36.703],[-28.199,37.047],[-28.638,37.389],[-29.082,37.73],[-29.529,38.069],[-29.98,38.406]]}}]}