{"type":"FeatureCollection","meta":{"model":"Cao2024","reconstruction_time_ma":1720.0,"anchor_plate_id":0,"pygplates_version":"1.0.0","tessellate_degrees":0.5,"polarity_convention":"gpml:subductionPolarity. 'Left'/'Right' names the side of the line, in vertex order, on which the OVERRIDING plate lies. Triangles are drawn on that side.","antimeridian":"Lines are NOT split at +/-180 deg. The renderer works in 3D unit vectors where the dateline is not special; splitting would only add spurious breaks. Do not treat this as RFC 7946 GIS-ready 2D data."},"features":[{"type":"Feature","properties":{"boundary_type":"subduction","feature_type":"gpml:SubductionZone","polarity":"Left","overriding_plate_id":101,"subducting_plate_id":10103,"plate_ids":[101,10103],"name":"eastern Laurentia-greenland-western baltica"},"geometry":{"type":"LineString","coordinates":[[-128.495,68.572],[-129.779,68.517],[-131.057,68.452],[-132.326,68.378],[-133.587,68.294],[-134.838,68.201],[-136.078,68.098],[-137.307,67.986],[-138.523,67.865],[-139.727,67.735],[-140.916,67.597],[-142.092,67.383],[-143.246,67.161],[-144.378,66.931],[-145.489,66.693],[-146.579,66.447],[-147.647,66.194],[-148.693,65.934],[-149.718,65.666],[-150.722,65.392],[-151.705,65.112],[-152.667,64.825],[-153.609,64.532],[-154.53,64.233],[-155.432,63.928],[-156.314,63.618],[-157.177,63.303],[-158.021,62.982]]}},{"type":"Feature","properties":{"boundary_type":"subduction","feature_type":"gpml:SubductionZone","polarity":"Left","overriding_plate_id":101,"subducting_plate_id":90106,"plate_ids":[101,90106],"name":"eastern Laurentia-greenland-western baltica"},"geometry":{"type":"LineString","coordinates":[[-158.021,62.982],[-158.826,62.665],[-159.614,62.344],[-160.385,62.017],[-161.14,61.687],[-161.879,61.353],[-162.497,60.985],[-163.102,60.614],[-163.692,60.241],[-164.27,59.865],[-164.834,59.486],[-165.386,59.105],[-165.925,58.722],[-166.453,58.337],[-166.97,57.95],[-167.475,57.56],[-167.969,57.169],[-168.454,56.775],[-168.727,56.323],[-168.994,55.871],[-169.254,55.418],[-169.509,54.964],[-169.758,54.51],[-170.002,54.055],[-170.24,53.6],[-170.473,53.144],[-170.701,52.688],[-170.925,52.232],[-171.144,51.775],[-171.359,51.317],[-171.569,50.86],[-171.775,50.402],[-171.978,49.943],[-172.176,49.484],[-172.371,49.025],[-172.562,48.566],[-172.772,48.116],[-172.977,47.667],[-173.179,47.217],[-173.377,46.766],[-173.573,46.315],[-173.765,45.864],[-173.954,45.413],[-174.14,44.961],[-174.323,44.509]]}},{"type":"Feature","properties":{"boundary_type":"subduction","feature_type":"gpml:SubductionZone","polarity":"Left","overriding_plate_id":101,"subducting_plate_id":501001,"plate_ids":[101,501001],"name":"eastern Laurentia-greenland-western baltica"},"geometry":{"type":"LineString","coordinates":[[-174.323,44.509],[-174.498,44.069],[-174.671,43.628],[-174.842,43.187],[-175.01,42.746],[-175.176,42.304],[-175.339,41.862],[-175.5,41.42],[-175.659,40.978],[-175.816,40.536],[-175.971,40.093],[-176.123,39.65]]}},{"type":"Feature","properties":{"boundary_type":"subduction","feature_type":"gpml:SubductionZone","polarity":"Left","overriding_plate_id":302,"subducting_plate_id":501,"plate_ids":[302,501],"name":"Baltica_SZ"},"geometry":{"type":"LineString","coordinates":[[-162.588,-5.01],[-162.752,-5.482],[-162.916,-5.954],[-163.08,-6.426],[-163.244,-6.897],[-163.409,-7.369],[-163.574,-7.84],[-163.739,-8.312],[-163.905,-8.783],[-164.071,-9.254],[-164.237,-9.726],[-164.405,-10.197],[-164.572,-10.668],[-164.74,-11.139],[-164.909,-11.61],[-165.154,-12.041],[-165.401,-12.472],[-165.648,-12.903],[-165.896,-13.334],[-166.144,-13.765],[-166.394,-14.195],[-166.645,-14.625],[-166.897,-15.055],[-167.149,-15.484]]}},{"type":"Feature","properties":{"boundary_type":"subduction","feature_type":"gpml:SubductionZone","polarity":"Left","overriding_plate_id":101,"subducting_plate_id":501,"plate_ids":[101,501],"name":"Baltica_SZ"},"geometry":{"type":"LineString","coordinates":[[-167.149,-15.484],[-167.394,-15.898],[-167.64,-16.312],[-167.887,-16.726],[-168.135,-17.14],[-168.384,-17.553],[-168.634,-17.966],[-168.886,-18.378],[-169.139,-18.79],[-169.393,-19.202],[-169.648,-19.614],[-169.904,-20.025],[-170.162,-20.435],[-170.421,-20.846],[-170.682,-21.256],[-170.944,-21.665],[-171.207,-22.074],[-171.473,-22.483],[-171.739,-22.891]]}},{"type":"Feature","properties":{"boundary_type":"subduction","feature_type":"gpml:SubductionZone","polarity":"Right","overriding_plate_id":801,"subducting_plate_id":701,"plate_ids":[701,801],"name":"NorthChina_SZ"},"geometry":{"type":"LineString","coordinates":[[-86.85,2.972],[-86.691,2.559],[-86.532,2.145],[-86.373,1.732],[-86.214,1.318],[-86.056,0.905],[-86.025,0.431],[-85.995,-0.043],[-85.965,-0.517],[-85.935,-0.991],[-85.904,-1.465],[-85.874,-1.939],[-85.844,-2.413],[-85.813,-2.887],[-85.982,-3.328],[-86.151,-3.77],[-86.32,-4.211],[-86.49,-4.652],[-86.659,-5.094],[-86.829,-5.535],[-86.999,-5.976],[-87.17,-6.418],[-87.341,-6.859],[-87.512,-7.3],[-87.909,-7.546],[-88.307,-7.791],[-88.705,-8.036],[-89.104,-8.281],[-89.503,-8.525],[-89.903,-8.769],[-90.303,-9.012],[-90.704,-9.255],[-91.106,-9.498],[-91.508,-9.74],[-91.91,-9.982],[-92.314,-10.223],[-92.717,-10.463],[-93.18,-10.592],[-93.643,-10.719],[-94.106,-10.846],[-94.57,-10.972],[-95.034,-11.097],[-95.498,-11.222],[-95.963,-11.346],[-96.428,-11.469],[-96.894,-11.592],[-97.36,-11.714],[-97.826,-11.835],[-98.293,-11.955],[-98.76,-12.074]]}},{"type":"Feature","properties":{"boundary_type":"subduction","feature_type":"gpml:SubductionZone","polarity":"Right","overriding_plate_id":801,"subducting_plate_id":811001,"plate_ids":[801,811001],"name":"SouthAustralia_SZ"},"geometry":{"type":"LineString","coordinates":[[-73.084,30.416],[-73.265,30.051],[-73.471,29.627],[-73.675,29.202],[-73.877,28.777],[-74.078,28.352],[-74.277,27.927],[-74.475,27.501],[-74.671,27.076],[-74.865,26.649],[-75.237,26.279],[-75.607,25.907],[-75.974,25.534],[-76.339,25.161],[-76.702,24.786],[-77.063,24.411],[-77.422,24.035],[-77.778,23.658],[-78.133,23.28],[-78.485,22.901],[-78.836,22.522],[-79.184,22.142],[-79.531,21.761],[-79.957,21.511],[-80.382,21.26],[-80.805,21.008]]}},{"type":"Feature","properties":{"boundary_type":"subduction","feature_type":"gpml:SubductionZone","polarity":"Left","overriding_plate_id":90107,"subducting_plate_id":90106,"plate_ids":[90106,90107],"name":"Wyoming_SZ"},"geometry":{"type":"LineString","coordinates":[[-45.84,60.998],[-46.641,61.286],[-47.456,61.569],[-48.286,61.847],[-49.131,62.12],[-49.991,62.388],[-50.867,62.65],[-51.758,62.907],[-52.664,63.158],[-53.587,63.403],[-54.525,63.642],[-55.478,63.875],[-56.448,64.102],[-57.433,64.322]]}},{"type":"Feature","properties":{"boundary_type":"subduction","feature_type":"gpml:SubductionZone","polarity":"Left","overriding_plate_id":101,"subducting_plate_id":90106,"plate_ids":[101,90106],"name":"Wyoming_SZ"},"geometry":{"type":"LineString","coordinates":[[-57.433,64.322],[-58.42,64.533],[-59.422,64.736],[-60.439,64.933],[-61.47,65.123],[-62.516,65.306],[-63.577,65.481],[-64.651,65.649],[-65.74,65.809],[-66.841,65.961],[-67.955,66.106],[-69.082,66.242],[-70.221,66.37],[-71.37,66.489],[-72.531,66.6],[-73.702,66.703],[-74.881,66.796],[-76.005,66.986],[-77.147,67.168],[-78.305,67.342],[-79.48,67.507],[-80.67,67.664],[-81.877,67.811],[-83.098,67.95],[-84.333,68.08],[-85.582,68.2],[-86.843,68.311],[-88.116,68.412],[-89.4,68.503]]}},{"type":"Feature","properties":{"boundary_type":"subduction","feature_type":"gpml:SubductionZone","polarity":"Left","overriding_plate_id":101,"subducting_plate_id":10103,"plate_ids":[101,10103],"name":"Wyoming_SZ"},"geometry":{"type":"LineString","coordinates":[[-89.4,68.503],[-90.744,68.588],[-92.096,68.661],[-93.457,68.724],[-94.825,68.776],[-96.199,68.816],[-97.577,68.846],[-98.958,68.864],[-100.341,68.871],[-101.724,68.867],[-103.105,68.852],[-104.484,68.826],[-105.859,68.788],[-107.229,68.739],[-108.592,68.679],[-109.898,68.759],[-111.213,68.829],[-112.536,68.888],[-113.865,68.938],[-115.2,68.976],[-116.538,69.005],[-117.88,69.022],[-119.223,69.03],[-120.566,69.027],[-121.908,69.013],[-123.248,68.989],[-124.584,68.954],[-125.916,68.909],[-127.241,68.853],[-127.872,68.714],[-128.495,68.572]]}},{"type":"Feature","properties":{"boundary_type":"subduction","feature_type":"gpml:SubductionZone","polarity":"Left","overriding_plate_id":801,"subducting_plate_id":701,"plate_ids":[701,801],"name":"South_NorthAustralia_SZ"},"geometry":{"type":"LineString","coordinates":[[-86.85,2.972],[-86.556,3.353],[-86.261,3.734],[-85.967,4.115],[-85.672,4.496],[-85.377,4.877],[-85.082,5.258],[-84.786,5.638],[-84.49,6.019],[-84.193,6.399],[-83.896,6.779],[-83.599,7.159],[-83.301,7.538],[-83.002,7.918],[-82.703,8.297],[-82.403,8.676],[-82.103,9.055],[-81.802,9.433],[-81.501,9.812],[-81.409,10.198],[-81.316,10.585],[-81.224,10.971]]}},{"type":"Feature","properties":{"boundary_type":"subduction","feature_type":"gpml:SubductionZone","polarity":"Left","overriding_plate_id":801,"subducting_plate_id":811001,"plate_ids":[801,811001],"name":"South_NorthAustralia_SZ"},"geometry":{"type":"LineString","coordinates":[[-81.224,10.971],[-81.11,11.448],[-80.995,11.925],[-80.88,12.402],[-80.764,12.879],[-80.648,13.356],[-80.531,13.833],[-80.414,14.309],[-80.297,14.786],[-80.179,15.263],[-80.06,15.739],[-79.941,16.216],[-80.025,16.695],[-80.11,17.174],[-80.195,17.654],[-80.281,18.133],[-80.367,18.612],[-80.454,19.092],[-80.541,19.571],[-80.628,20.05],[-80.716,20.529],[-80.805,21.008]]}},{"type":"Feature","properties":{"boundary_type":"subduction","feature_type":"gpml:SubductionZone","polarity":"Left","overriding_plate_id":801,"subducting_plate_id":101,"plate_ids":[101,801],"name":"South_NorthAustralia_SZ"},"geometry":{"type":"LineString","coordinates":[[-57.363,61.711],[-58.288,61.648],[-59.208,61.58],[-60.124,61.505],[-61.036,61.424],[-61.942,61.337],[-62.844,61.245],[-63.74,61.146],[-64.63,61.041],[-65.475,60.759],[-66.305,60.471],[-67.121,60.178],[-67.922,59.881],[-68.709,59.578],[-69.481,59.271],[-70.24,58.96],[-70.985,58.644],[-71.716,58.324],[-72.435,58.0],[-73.14,57.671],[-73.833,57.339],[-74.513,57.004],[-75.181,56.664],[-75.791,56.296],[-76.389,55.924],[-76.976,55.55],[-77.552,55.173],[-78.117,54.793],[-78.671,54.411],[-79.216,54.026],[-79.75,53.639],[-80.274,53.25],[-80.789,52.858],[-81.295,52.464],[-81.792,52.068],[-82.28,51.67],[-82.759,51.27],[-83.23,50.868],[-83.693,50.464],[-84.149,50.058],[-84.534,49.625],[-84.912,49.19],[-85.284,48.753],[-85.649,48.316],[-86.009,47.878],[-86.362,47.438],[-86.709,46.997],[-87.051,46.556],[-87.387,46.113],[-87.717,45.669],[-88.043,45.224],[-88.363,44.779],[-88.679,44.332],[-88.969,43.894],[-89.254,43.455],[-89.535,43.015],[-89.813,42.574],[-90.086,42.133],[-90.356,41.691],[-90.622,41.248],[-90.884,40.805],[-91.143,40.361],[-91.399,39.917],[-91.651,39.472],[-91.9,39.026],[-92.202,38.62],[-92.5,38.212],[-92.795,37.804],[-93.087,37.395],[-93.376,36.985],[-93.661,36.575],[-93.944,36.164],[-94.224,35.752],[-94.5,35.34],[-94.774,34.927],[-95.184,34.57],[-95.591,34.211],[-95.994,33.852],[-96.394,33.491],[-96.79,33.128],[-97.183,32.765],[-97.573,32.4],[-97.96,32.034],[-98.344,31.667],[-98.724,31.298],[-99.102,30.929],[-99.477,30.558],[-99.849,30.187],[-100.205,29.799],[-100.558,29.41],[-100.909,29.021],[-101.256,28.63],[-101.602,28.239],[-101.944,27.847],[-102.285,27.454],[-102.623,27.06],[-102.958,26.665],[-103.291,26.269],[-103.622,25.873],[-103.681,25.399],[-103.74,24.925],[-103.798,24.451],[-103.856,23.977],[-103.913,23.502],[-103.97,23.028],[-104.027,22.554],[-104.083,22.08],[-104.139,21.606],[-104.194,21.131],[-104.249,20.657],[-104.304,20.183],[-104.358,19.708],[-104.412,19.234],[-104.466,18.76],[-104.519,18.285],[-104.464,17.809],[-104.409,17.332],[-104.354,16.855],[-104.299,16.379],[-104.245,15.902],[-104.191,15.425],[-104.137,14.948],[-104.083,14.472],[-104.03,13.995],[-103.976,13.518],[-103.923,13.041],[-103.871,12.564],[-103.818,12.088],[-103.709,11.75],[-103.6,11.412],[-103.491,11.074]]}},{"type":"Feature","properties":{"boundary_type":"subduction","feature_type":"gpml:SubductionZone","polarity":"Left","overriding_plate_id":101,"subducting_plate_id":302,"plate_ids":[101,302],"name":"EasternFennoscandia_SZ"},"geometry":{"type":"LineString","coordinates":[[-175.186,4.095],[-174.728,4.275],[-174.27,4.455],[-173.812,4.634],[-173.354,4.813],[-172.896,4.992],[-172.437,5.17],[-171.978,5.348],[-171.519,5.526],[-171.059,5.703],[-170.646,5.946],[-170.232,6.188],[-169.818,6.431],[-169.404,6.672],[-168.989,6.914],[-168.574,7.155],[-168.158,7.396],[-167.742,7.636],[-167.325,7.876],[-166.908,8.116],[-166.49,8.355],[-166.072,8.593],[-165.654,8.832],[-165.234,9.069],[-164.835,9.354],[-164.435,9.637],[-164.034,9.92],[-163.632,10.203],[-163.23,10.486],[-162.827,10.767],[-162.423,11.049],[-162.018,11.329],[-161.613,11.609],[-161.206,11.889],[-161.033,12.033]]}},{"type":"Feature","properties":{"boundary_type":"subduction","feature_type":"gpml:SubductionZone","polarity":"Left","overriding_plate_id":801,"subducting_plate_id":811001,"plate_ids":[801,811001],"name":"NorthwesternMawson_SZ"},"geometry":{"type":"LineString","coordinates":[[-73.084,30.416],[-72.543,30.56],[-72.0,30.701],[-71.456,30.84],[-70.91,30.977],[-70.362,31.112],[-69.822,31.212],[-69.281,31.309],[-68.739,31.404],[-68.195,31.497],[-67.651,31.588],[-67.105,31.676],[-66.559,31.762],[-66.011,31.846],[-65.491,31.949],[-64.97,32.05],[-64.448,32.149],[-63.924,32.245],[-63.4,32.34],[-62.874,32.432],[-62.38,32.628],[-61.883,32.823],[-61.385,33.015],[-60.884,33.205],[-60.381,33.394],[-59.876,33.58],[-59.549,33.972],[-59.22,34.362],[-58.888,34.751],[-58.552,35.14],[-58.213,35.528],[-58.177,35.995],[-58.14,36.462],[-58.103,36.928],[-58.065,37.395],[-58.026,37.862],[-57.988,38.329],[-57.948,38.796],[-57.909,39.263],[-57.868,39.73],[-57.978,40.187],[-58.089,40.644],[-58.201,41.102],[-58.316,41.559],[-58.432,42.016],[-58.549,42.473],[-58.668,42.929],[-58.789,43.386],[-58.912,43.843],[-59.037,44.299],[-59.164,44.755],[-59.156,45.231],[-59.148,45.707],[-59.141,46.183],[-59.133,46.659],[-59.125,47.135],[-59.116,47.611],[-59.108,48.087],[-59.099,48.563],[-59.091,49.039],[-59.082,49.515],[-59.073,49.991],[-59.063,50.467],[-58.936,50.94],[-58.806,51.414],[-58.673,51.887],[-58.537,52.36],[-58.399,52.833],[-58.257,53.305],[-58.112,53.778],[-57.964,54.25],[-57.813,54.722],[-57.658,55.194],[-57.499,55.666],[-57.336,56.138]]}},{"type":"Feature","properties":{"boundary_type":"subduction","feature_type":"gpml:SubductionZone","polarity":"Left","overriding_plate_id":801,"subducting_plate_id":90107,"plate_ids":[801,90107],"name":"NorthwesternMawson_SZ"},"geometry":{"type":"LineString","coordinates":[[-57.336,56.138],[-57.252,56.377],[-57.261,56.862],[-57.27,57.347],[-57.279,57.832],[-57.289,58.316],[-57.299,58.801],[-57.309,59.286],[-57.319,59.771],[-57.33,60.256],[-57.34,60.741],[-57.352,61.226],[-57.363,61.711]]}},{"type":"Feature","properties":{"boundary_type":"subduction","feature_type":"gpml:SubductionZone","polarity":"Left","overriding_plate_id":101,"subducting_plate_id":90107,"plate_ids":[101,90107],"name":"NorthwesternMawson_SZ"},"geometry":{"type":"LineString","coordinates":[[-57.363,61.711],[-57.374,62.146],[-57.385,62.581],[-57.397,63.016],[-57.408,63.452],[-57.421,63.887],[-57.433,64.322]]}},{"type":"Feature","properties":{"boundary_type":"subduction","feature_type":"gpml:SubductionZone","polarity":"Right","overriding_plate_id":801,"subducting_plate_id":701,"plate_ids":[701,801],"name":"Cathaysia_SZ"},"geometry":{"type":"LineString","coordinates":[[-98.76,-12.074],[-98.815,-12.571],[-98.869,-13.067],[-98.924,-13.563],[-98.979,-14.06],[-99.034,-14.556],[-99.09,-15.052],[-99.145,-15.549],[-99.201,-16.045],[-99.258,-16.541],[-99.314,-17.037],[-99.371,-17.534],[-99.428,-18.03],[-99.486,-18.526],[-99.465,-19.025],[-99.444,-19.524],[-99.424,-20.023],[-99.403,-20.522],[-99.382,-21.021],[-99.36,-21.52],[-99.339,-22.02],[-99.318,-22.519],[-99.296,-23.018],[-99.274,-23.517],[-99.252,-24.016],[-99.23,-24.515],[-99.208,-25.014],[-99.185,-25.513],[-99.162,-26.012],[-99.055,-26.322],[-98.947,-26.632]]}},{"type":"Feature","properties":{"boundary_type":"subduction","feature_type":"gpml:SubductionZone","polarity":"Left","overriding_plate_id":80101,"subducting_plate_id":90107,"plate_ids":[80101,90107],"name":""},"geometry":{"type":"LineString","coordinates":[[-15.484,20.676],[-15.478,21.158],[-15.473,21.641],[-15.467,22.123],[-15.461,22.606],[-15.456,23.088],[-15.45,23.571],[-15.444,24.053],[-15.439,24.536],[-15.433,25.019],[-15.427,25.501],[-15.421,25.984],[-15.415,26.466],[-15.409,26.949],[-15.403,27.431],[-15.454,27.896],[-15.506,28.361],[-15.558,28.826],[-15.61,29.291],[-15.663,29.756],[-15.717,30.221],[-15.771,30.685],[-15.825,31.15],[-15.88,31.615],[-15.936,32.08],[-15.992,32.544],[-16.049,33.009],[-16.106,33.474],[-16.164,33.938],[-16.223,34.403],[-16.488,34.824],[-16.757,35.244],[-17.028,35.663],[-17.302,36.082],[-17.579,36.5],[-17.858,36.917],[-18.141,37.334],[-18.428,37.75],[-18.717,38.165],[-19.01,38.58],[-19.306,38.994],[-19.605,39.407],[-19.908,39.82],[-20.302,40.17],[-20.7,40.52],[-21.102,40.868],[-21.508,41.214],[-21.919,41.559],[-22.334,41.903],[-22.753,42.245],[-23.177,42.585],[-23.606,42.924],[-24.039,43.262],[-24.478,43.597],[-24.921,43.931],[-25.369,44.264],[-25.832,44.602],[-26.301,44.938],[-26.776,45.272],[-27.256,45.604],[-27.741,45.934],[-28.233,46.262],[-28.73,46.588],[-29.233,46.911],[-29.743,47.233],[-30.258,47.552],[-30.78,47.869],[-31.309,48.183],[-31.844,48.495],[-32.385,48.804],[-32.933,49.111],[-33.569,49.353],[-34.21,49.591],[-34.858,49.825],[-35.513,50.056]]}},{"type":"Feature","properties":{"boundary_type":"subduction","feature_type":"gpml:SubductionZone","polarity":"Left","overriding_plate_id":811001,"subducting_plate_id":90107,"plate_ids":[90107,811001],"name":""},"geometry":{"type":"LineString","coordinates":[[-35.513,50.056],[-36.165,50.28],[-36.823,50.5],[-37.488,50.717],[-38.158,50.93],[-38.835,51.139],[-39.518,51.344],[-40.207,51.545],[-40.902,51.742],[-41.603,51.935],[-42.31,52.123],[-43.023,52.308],[-43.741,52.488],[-44.466,52.664],[-45.197,52.835],[-45.933,53.002],[-46.622,53.239],[-47.319,53.472],[-48.024,53.701],[-48.736,53.925],[-49.456,54.146],[-50.183,54.362],[-50.918,54.574],[-51.661,54.781],[-52.411,54.983],[-53.169,55.181],[-53.934,55.375],[-54.707,55.563],[-55.487,55.747],[-56.274,55.925],[-57.069,56.099],[-57.336,56.138]]}},{"type":"Feature","properties":{"boundary_type":"subduction","feature_type":"gpml:SubductionZone","polarity":"Left","overriding_plate_id":201,"subducting_plate_id":501001,"plate_ids":[201,501001],"name":"Amazonia_SZ"},"geometry":{"type":"LineString","coordinates":[[119.433,17.981],[119.161,17.556],[118.891,17.131],[118.622,16.705],[118.354,16.28],[118.088,15.853],[117.822,15.427],[117.558,15.0],[117.295,14.573],[117.033,14.146],[116.771,13.718],[116.511,13.29],[116.252,12.862],[115.993,12.433],[115.735,12.005],[115.479,11.576],[115.222,11.146],[114.967,10.717],[114.713,10.287],[114.459,9.858],[114.205,9.428],[113.953,8.997],[113.701,8.567],[113.449,8.137],[113.199,7.706],[112.948,7.275],[112.698,6.844],[112.449,6.413],[112.2,5.982],[111.951,5.551],[111.703,5.119],[111.455,4.688],[111.207,4.256],[110.96,3.824],[110.713,3.393],[110.466,2.961],[110.219,2.529],[109.973,2.097],[109.726,1.665],[109.48,1.233],[109.234,0.801],[108.988,0.369],[108.742,-0.063],[108.496,-0.495],[108.249,-0.927],[108.003,-1.359],[107.757,-1.791],[107.51,-2.223],[107.264,-2.655],[107.11,-3.111],[106.957,-3.567],[106.803,-4.023],[106.649,-4.48],[106.494,-4.936],[106.34,-5.392],[106.185,-5.848],[106.03,-6.304],[105.875,-6.76],[105.72,-7.216],[105.564,-7.672],[105.408,-8.128],[105.251,-8.584],[105.094,-9.039]]}},{"type":"Feature","properties":{"boundary_type":"subduction","feature_type":"gpml:SubductionZone","polarity":"Left","overriding_plate_id":201,"subducting_plate_id":90105,"plate_ids":[201,90105],"name":"Amazonia_SZ"},"geometry":{"type":"LineString","coordinates":[[105.094,-9.039],[104.934,-9.505],[104.772,-9.971],[104.611,-10.436],[104.449,-10.902],[104.286,-11.367],[104.123,-11.832],[103.959,-12.298],[103.943,-12.796],[103.927,-13.295],[103.91,-13.794],[103.894,-14.293],[103.877,-14.792],[103.861,-15.291],[103.844,-15.79],[103.827,-16.289],[103.81,-16.788],[103.793,-17.287],[103.776,-17.786],[103.759,-18.285],[103.742,-18.784],[103.725,-19.283],[103.707,-19.782],[103.69,-20.28],[103.672,-20.779],[103.654,-21.278],[103.799,-21.747],[103.945,-22.215],[104.092,-22.683],[104.24,-23.151],[104.389,-23.619],[104.539,-24.087],[104.69,-24.554],[104.843,-25.022],[104.996,-25.489],[105.151,-25.956],[105.307,-26.423],[105.464,-26.89],[105.622,-27.357],[105.782,-27.823],[105.943,-28.289],[106.106,-28.755],[106.27,-29.221],[106.436,-29.687],[106.603,-30.152],[106.771,-30.617],[107.127,-31.007],[107.485,-31.395],[107.846,-31.782],[108.211,-32.168],[108.578,-32.554],[108.949,-32.938],[109.322,-33.321],[109.699,-33.703],[110.08,-34.083],[110.464,-34.463],[110.851,-34.841],[111.242,-35.218],[111.637,-35.594],[112.035,-35.969],[112.437,-36.342],[112.843,-36.714],[113.253,-37.084],[113.667,-37.453],[114.085,-37.821],[114.507,-38.187],[114.933,-38.551],[115.364,-38.914],[115.799,-39.275],[116.239,-39.635],[116.683,-39.993],[117.132,-40.35],[117.586,-40.704],[118.044,-41.057],[118.508,-41.408],[118.976,-41.757],[119.45,-42.104],[119.929,-42.449],[120.413,-42.793],[120.902,-43.134],[121.397,-43.473],[121.898,-43.809],[122.404,-44.144],[122.916,-44.476],[123.434,-44.807],[123.957,-45.134],[124.487,-45.459],[125.023,-45.782],[125.565,-46.103],[126.114,-46.42],[126.668,-46.735],[127.23,-47.048],[127.798,-47.357],[128.372,-47.664],[128.953,-47.968],[129.542,-48.268],[130.137,-48.566],[130.739,-48.861],[131.348,-49.152],[131.964,-49.441],[132.588,-49.726],[133.219,-50.007],[133.857,-50.285],[134.503,-50.56],[135.156,-50.831],[135.817,-51.098],[136.485,-51.362],[137.162,-51.621],[137.846,-51.877],[138.357,-52.01],[138.871,-52.142]]}},{"type":"Feature","properties":{"boundary_type":"subduction","feature_type":"gpml:SubductionZone","polarity":"Left","overriding_plate_id":201,"subducting_plate_id":701,"plate_ids":[201,701],"name":"Amazonia_SZ"},"geometry":{"type":"LineString","coordinates":[[138.871,-52.142],[139.245,-52.235]]}},{"type":"Feature","properties":{"boundary_type":"transform","feature_type":"gpml:Transform","polarity":null,"overriding_plate_id":null,"subducting_plate_id":null,"plate_ids":[201,501001],"name":""},"geometry":{"type":"LineString","coordinates":[[119.433,17.981],[119.887,17.731],[120.34,17.48],[120.792,17.228],[121.242,16.975],[121.691,16.721],[122.14,16.465],[122.587,16.21],[123.032,15.953],[123.477,15.695],[123.921,15.436],[124.363,15.176],[124.804,14.916],[125.245,14.655],[125.684,14.392],[126.122,14.13],[126.559,13.866],[126.995,13.601],[127.43,13.336],[127.865,13.07],[128.298,12.803],[128.73,12.536],[129.162,12.268],[129.592,11.999],[130.022,11.729],[130.451,11.459],[130.879,11.189],[131.307,10.917],[131.733,10.645],[132.159,10.373],[132.584,10.1],[133.008,9.826],[133.432,9.552],[133.855,9.277],[134.277,9.002],[134.698,8.727],[135.119,8.45],[135.54,8.174],[135.96,7.897],[136.379,7.62],[136.797,7.342],[137.216,7.064],[137.633,6.785],[138.05,6.506],[138.467,6.227],[138.883,5.947],[139.299,5.667],[139.715,5.387],[140.13,5.107],[140.544,4.826],[140.959,4.545],[141.373,4.264],[141.787,3.982],[142.2,3.701],[142.613,3.419],[143.026,3.137],[143.439,2.855],[143.851,2.572],[144.264,2.29],[144.676,2.007],[145.088,1.725],[145.502,1.456],[145.916,1.187],[146.33,0.918],[146.744,0.649],[147.158,0.38],[147.572,0.111],[147.986,-0.158],[148.4,-0.427],[148.814,-0.696],[149.228,-0.965],[149.642,-1.233],[150.056,-1.502],[150.47,-1.771],[150.885,-2.04],[151.299,-2.308],[151.714,-2.577],[152.129,-2.845],[152.544,-3.113],[152.959,-3.381],[153.374,-3.649],[153.79,-3.917],[154.206,-4.184],[154.622,-4.451],[155.039,-4.718],[155.456,-4.985],[155.873,-5.251],[156.291,-5.517],[156.709,-5.783],[157.127,-6.049],[157.546,-6.314],[157.965,-6.579],[158.385,-6.844],[158.805,-7.108],[159.225,-7.372],[159.646,-7.635],[160.068,-7.898],[160.49,-8.161],[160.913,-8.423],[161.336,-8.685],[161.76,-8.946],[162.185,-9.207],[162.61,-9.467],[163.035,-9.727],[163.462,-9.986],[163.889,-10.244],[164.317,-10.503],[164.745,-10.76],[165.174,-11.017],[165.604,-11.273],[166.035,-11.529],[166.467,-11.784],[166.899,-12.039],[167.332,-12.292],[167.766,-12.546],[168.201,-12.798],[168.637,-13.05],[169.073,-13.301],[169.511,-13.551]]}},{"type":"Feature","properties":{"boundary_type":"transform","feature_type":"gpml:Transform","polarity":null,"overriding_plate_id":null,"subducting_plate_id":null,"plate_ids":[201,501],"name":""},"geometry":{"type":"LineString","coordinates":[[169.511,-13.551],[169.946,-13.798],[170.382,-14.045],[170.818,-14.291],[171.256,-14.536],[171.695,-14.78],[172.135,-15.024],[172.575,-15.267],[173.017,-15.508],[173.46,-15.749],[173.904,-15.989],[174.349,-16.228],[174.795,-16.467],[175.242,-16.704],[175.69,-16.94],[176.139,-17.175],[176.59,-17.41],[177.041,-17.643],[177.494,-17.875],[177.948,-18.106],[178.403,-18.336],[178.86,-18.565],[179.317,-18.793],[179.776,-19.02],[-179.764,-19.246],[-179.302,-19.47],[-178.84,-19.694],[-178.376,-19.916],[-177.911,-20.137],[-177.444,-20.357],[-176.976,-20.575],[-176.507,-20.792],[-176.037,-21.008],[-175.565,-21.223],[-175.091,-21.436],[-174.617,-21.648],[-174.141,-21.859],[-173.663,-22.068],[-173.184,-22.276],[-172.704,-22.483],[-172.222,-22.688],[-171.739,-22.891]]}},{"type":"Feature","properties":{"boundary_type":"transform","feature_type":"gpml:Transform","polarity":null,"overriding_plate_id":null,"subducting_plate_id":null,"plate_ids":[101,201],"name":""},"geometry":{"type":"LineString","coordinates":[[-171.739,-22.891],[-171.25,-23.096],[-170.758,-23.299],[-170.266,-23.5],[-169.771,-23.7],[-169.276,-23.898],[-168.778,-24.094],[-168.28,-24.289],[-167.779,-24.482],[-167.277,-24.674],[-166.774,-24.864]]}},{"type":"Feature","properties":{"boundary_type":"transform","feature_type":"gpml:Transform","polarity":null,"overriding_plate_id":null,"subducting_plate_id":null,"plate_ids":[101,302],"name":""},"geometry":{"type":"LineString","coordinates":[[-161.033,12.033],[-160.737,12.402],[-160.441,12.771],[-160.144,13.139],[-159.845,13.506],[-159.546,13.874],[-159.246,14.241],[-158.945,14.607],[-158.643,14.974],[-158.34,15.339],[-158.036,15.705],[-157.731,16.07],[-157.424,16.434],[-156.989,16.65],[-156.552,16.865],[-156.114,17.079],[-155.676,17.292],[-155.236,17.503],[-154.795,17.714],[-154.354,17.924],[-153.911,18.133],[-153.436,18.072],[-152.962,18.009],[-152.489,17.945],[-152.015,17.88],[-151.542,17.814],[-151.07,17.746],[-150.597,17.678],[-150.125,17.608],[-149.654,17.538],[-149.259,17.285],[-148.866,17.031],[-148.473,16.777],[-148.082,16.522],[-147.692,16.267],[-147.303,16.01],[-146.915,15.753],[-146.527,15.495],[-146.141,15.237],[-145.756,14.978],[-145.51,14.561],[-145.265,14.143],[-145.02,13.726],[-144.777,13.308],[-144.535,12.889],[-144.293,12.471],[-144.052,12.052],[-143.812,11.634],[-143.573,11.215]]}},{"type":"Feature","properties":{"boundary_type":"ridge","feature_type":"gpml:MidOceanRidge","polarity":null,"overriding_plate_id":null,"subducting_plate_id":null,"plate_ids":[101,302],"name":""},"geometry":{"type":"LineString","coordinates":[[-143.573,11.215],[-143.859,10.823],[-144.145,10.431],[-144.43,10.039],[-144.714,9.647],[-144.997,9.254],[-145.28,8.861],[-145.563,8.468],[-145.844,8.075],[-146.125,7.681],[-146.406,7.288],[-146.686,6.894],[-146.966,6.5],[-146.577,6.206],[-146.188,5.912],[-145.8,5.617],[-145.412,5.322],[-145.024,5.027],[-144.637,4.732],[-144.25,4.436],[-143.864,4.141],[-144.077,3.689],[-144.291,3.238],[-144.504,2.786],[-144.717,2.334],[-144.93,1.883],[-145.142,1.431],[-145.355,0.979],[-145.567,0.528],[-145.78,0.076],[-145.992,-0.376],[-146.205,-0.827],[-146.418,-1.279],[-146.63,-1.731],[-146.843,-2.182],[-147.056,-2.634],[-147.269,-3.086],[-147.482,-3.537],[-147.696,-3.989],[-147.909,-4.44],[-148.123,-4.891],[-148.338,-5.343],[-148.552,-5.794],[-148.767,-6.245],[-148.982,-6.696],[-149.198,-7.147],[-149.414,-7.598],[-149.631,-8.049],[-149.848,-8.5],[-150.065,-8.95],[-150.283,-9.4],[-150.502,-9.851],[-150.721,-10.301],[-150.941,-10.751],[-151.162,-11.201],[-151.383,-11.65],[-151.605,-12.1],[-151.827,-12.549],[-152.051,-12.998],[-152.487,-12.782],[-152.922,-12.564],[-153.357,-12.346],[-153.791,-12.128],[-154.224,-11.908],[-154.656,-11.688],[-155.088,-11.467],[-155.519,-11.246],[-155.949,-11.024],[-156.379,-10.801],[-156.808,-10.578],[-157.237,-10.355],[-157.664,-10.13],[-157.94,-10.512],[-158.216,-10.893],[-158.493,-11.274],[-158.771,-11.655],[-159.05,-12.036],[-159.466,-11.769],[-159.882,-11.502],[-160.297,-11.235],[-160.712,-10.967],[-161.125,-10.698],[-161.538,-10.429],[-161.951,-10.159],[-162.362,-9.889],[-162.773,-9.618],[-163.059,-10.011],[-163.346,-10.404],[-163.633,-10.797],[-163.921,-11.189],[-164.21,-11.581],[-164.5,-11.973],[-164.79,-12.364],[-165.082,-12.755],[-165.374,-13.146],[-165.668,-13.537],[-165.962,-13.927],[-166.257,-14.317],[-166.553,-14.706],[-166.851,-15.095],[-167.149,-15.484]]}},{"type":"Feature","properties":{"boundary_type":"transform","feature_type":"gpml:Transform","polarity":null,"overriding_plate_id":null,"subducting_plate_id":null,"plate_ids":[101,701],"name":""},"geometry":{"type":"LineString","coordinates":[[-159.631,-24.93],[-159.151,-25.139],[-158.67,-25.347],[-158.187,-25.553],[-157.702,-25.757],[-157.215,-25.96],[-156.727,-26.161],[-156.237,-26.361],[-155.746,-26.559],[-155.253,-26.755],[-154.758,-26.949],[-154.261,-27.142],[-153.763,-27.333]]}},{"type":"Feature","properties":{"boundary_type":"transform","feature_type":"gpml:Transform","polarity":null,"overriding_plate_id":null,"subducting_plate_id":null,"plate_ids":[401,701],"name":""},"geometry":{"type":"LineString","coordinates":[[-153.763,-27.333],[-153.353,-27.488],[-152.943,-27.642],[-152.531,-27.795],[-152.118,-27.946],[-151.586,-28.083],[-151.052,-28.218],[-150.517,-28.351],[-149.981,-28.482],[-149.443,-28.611],[-148.904,-28.738],[-148.364,-28.862],[-147.822,-28.985],[-147.279,-29.105],[-146.735,-29.223],[-146.19,-29.339],[-145.643,-29.452],[-145.095,-29.563],[-144.546,-29.672],[-143.996,-29.779],[-143.445,-29.884],[-142.892,-29.986],[-142.339,-30.086],[-141.784,-30.183],[-141.228,-30.279],[-140.671,-30.372],[-140.113,-30.462],[-139.554,-30.55],[-138.995,-30.636],[-138.434,-30.719],[-137.872,-30.8],[-137.309,-30.879],[-136.745,-30.955],[-136.181,-31.028],[-135.615,-31.1],[-135.049,-31.168],[-134.482,-31.235],[-133.914,-31.298],[-133.345,-31.359],[-132.776,-31.418],[-132.204,-31.412],[-131.633,-31.402],[-131.061,-31.391],[-130.49,-31.377],[-129.918,-31.36],[-129.348,-31.341],[-128.777,-31.319],[-128.206,-31.294],[-127.636,-31.268],[-127.066,-31.238],[-126.497,-31.206],[-125.928,-31.172],[-125.359,-31.135],[-124.791,-31.096],[-124.224,-31.054],[-123.657,-31.01],[-123.09,-30.963],[-122.524,-30.913],[-121.959,-30.862],[-121.394,-30.807],[-120.83,-30.751],[-120.266,-30.692],[-119.703,-30.63],[-119.141,-30.566],[-118.58,-30.5],[-118.02,-30.431],[-117.46,-30.36],[-116.901,-30.287],[-116.343,-30.211],[-115.786,-30.132],[-115.23,-30.052],[-114.674,-29.969],[-114.12,-29.884],[-113.566,-29.796]]}},{"type":"Feature","properties":{"boundary_type":"transform","feature_type":"gpml:Transform","polarity":null,"overriding_plate_id":null,"subducting_plate_id":null,"plate_ids":[701,801],"name":""},"geometry":{"type":"LineString","coordinates":[[-113.566,-29.796],[-113.259,-29.746],[-112.952,-29.696],[-112.4,-29.605],[-111.848,-29.512],[-111.297,-29.417],[-110.747,-29.32],[-110.198,-29.22],[-109.651,-29.118],[-109.104,-29.014],[-108.559,-28.907],[-108.014,-28.799],[-107.471,-28.688],[-106.929,-28.575],[-106.388,-28.46],[-105.849,-28.343],[-105.31,-28.223],[-104.773,-28.102],[-104.237,-27.978],[-103.702,-27.853],[-103.169,-27.725],[-102.636,-27.595],[-102.105,-27.464],[-101.576,-27.33],[-101.047,-27.194],[-100.52,-27.056],[-99.994,-26.917],[-99.47,-26.775],[-98.947,-26.632]]}},{"type":"Feature","properties":{"boundary_type":"transform","feature_type":"gpml:Transform","polarity":null,"overriding_plate_id":null,"subducting_plate_id":null,"plate_ids":[101,401],"name":""},"geometry":{"type":"LineString","coordinates":[[-144.243,-6.526],[-143.746,-6.554],[-143.25,-6.581],[-142.753,-6.608],[-142.256,-6.635],[-141.759,-6.661],[-141.263,-6.686],[-140.766,-6.711],[-140.269,-6.735],[-139.772,-6.759],[-139.275,-6.783],[-138.778,-6.806],[-138.281,-6.828],[-137.783,-6.85],[-137.286,-6.872],[-136.789,-6.893],[-136.292,-6.913],[-135.794,-6.933],[-135.297,-6.952],[-134.799,-6.971],[-134.302,-6.989],[-133.804,-7.007],[-133.307,-7.024],[-132.809,-7.041],[-132.312,-7.057],[-131.814,-7.073],[-131.316,-7.088],[-130.819,-7.103],[-130.321,-7.117],[-129.823,-7.131],[-129.325,-7.144],[-128.827,-7.156],[-128.33,-7.168],[-127.832,-7.18],[-127.334,-7.191],[-126.836,-7.201],[-126.338,-7.211],[-125.84,-7.22],[-125.342,-7.229],[-124.844,-7.237],[-124.346,-7.245],[-123.848,-7.252],[-123.35,-7.258],[-122.852,-7.264],[-122.354,-7.27],[-121.855,-7.275],[-121.357,-7.279],[-120.859,-7.283],[-120.361,-7.286],[-119.863,-7.289],[-119.365,-7.291],[-118.867,-7.293],[-118.368,-7.294],[-117.87,-7.295],[-117.372,-7.295],[-116.874,-7.295],[-116.376,-7.293]]}},{"type":"Feature","properties":{"boundary_type":"transform","feature_type":"gpml:Transform","polarity":null,"overriding_plate_id":null,"subducting_plate_id":null,"plate_ids":[101,801],"name":""},"geometry":{"type":"LineString","coordinates":[[-116.376,-7.293],[-115.908,-7.292],[-115.44,-7.29],[-114.972,-7.288],[-114.504,-7.285],[-114.036,-7.281],[-113.568,-7.277],[-113.1,-7.273],[-112.632,-7.268],[-112.164,-7.263]]}},{"type":"Feature","properties":{"boundary_type":"subduction","feature_type":"gpml:SubductionZone","polarity":"Left","overriding_plate_id":401,"subducting_plate_id":101,"plate_ids":[101,401],"name":""},"geometry":{"type":"LineString","coordinates":[[-144.243,-6.526],[-144.54,-6.891],[-144.838,-7.255],[-145.137,-7.62],[-145.436,-7.984],[-145.735,-8.348],[-146.035,-8.711],[-146.336,-9.075],[-146.637,-9.438],[-146.88,-9.867],[-147.124,-10.295],[-147.368,-10.723],[-147.613,-11.151],[-147.858,-11.579],[-148.105,-12.006],[-148.352,-12.434],[-148.6,-12.861],[-148.848,-13.288],[-149.098,-13.714],[-149.25,-14.177],[-149.402,-14.64],[-149.555,-15.103],[-149.708,-15.565],[-149.862,-16.028],[-150.017,-16.49],[-150.173,-16.953],[-150.33,-17.415],[-150.487,-17.877],[-150.645,-18.339],[-150.804,-18.801],[-150.964,-19.262],[-151.124,-19.724],[-151.286,-20.185],[-151.448,-20.646],[-151.612,-21.107],[-151.759,-21.553],[-151.907,-21.999],[-152.056,-22.444],[-152.206,-22.889],[-152.356,-23.334],[-152.508,-23.779],[-152.661,-24.224],[-152.815,-24.669],[-152.97,-25.113],[-153.126,-25.557],[-153.284,-26.002],[-153.442,-26.446],[-153.602,-26.889],[-153.763,-27.333]]}},{"type":"Feature","properties":{"boundary_type":"subduction","feature_type":"gpml:SubductionZone","polarity":"Left","overriding_plate_id":801,"subducting_plate_id":101,"plate_ids":[101,801],"name":""},"geometry":{"type":"LineString","coordinates":[[-103.491,11.074],[-103.797,10.7],[-104.102,10.325],[-104.406,9.949],[-104.71,9.574],[-105.013,9.198],[-105.315,8.822],[-105.617,8.445],[-105.918,8.069],[-106.219,7.692],[-106.519,7.315],[-106.819,6.938],[-107.118,6.561],[-107.417,6.183],[-107.715,5.805],[-108.013,5.427],[-108.192,4.968],[-108.372,4.508],[-108.551,4.049],[-108.73,3.589],[-108.909,3.129],[-109.088,2.67],[-109.266,2.21],[-109.445,1.75],[-109.623,1.29],[-109.801,0.831],[-109.98,0.371],[-110.158,-0.089],[-110.336,-0.549],[-110.514,-1.009],[-110.693,-1.468],[-110.871,-1.928],[-111.05,-2.388],[-111.228,-2.848],[-111.321,-3.289],[-111.414,-3.731],[-111.508,-4.172],[-111.601,-4.614],[-111.694,-5.055],[-111.788,-5.497],[-111.882,-5.938],[-111.976,-6.38],[-112.07,-6.821],[-112.164,-7.263]]}},{"type":"Feature","properties":{"boundary_type":"ridge","feature_type":"gpml:MidOceanRidge","polarity":null,"overriding_plate_id":null,"subducting_plate_id":null,"plate_ids":[401,801],"name":""},"geometry":{"type":"LineString","coordinates":[[-113.566,-29.796],[-113.636,-29.308],[-113.705,-28.82],[-113.774,-28.332],[-113.842,-27.844],[-113.909,-27.356],[-113.976,-26.868],[-114.042,-26.38],[-114.108,-25.891],[-114.173,-25.403],[-114.237,-24.915],[-114.301,-24.427],[-114.365,-23.938],[-114.428,-23.45],[-114.49,-22.962],[-114.552,-22.473],[-114.614,-21.985],[-114.675,-21.496],[-114.736,-21.008],[-114.797,-20.52],[-114.857,-20.031],[-114.916,-19.543],[-114.976,-19.054],[-115.035,-18.565],[-115.093,-18.077],[-115.152,-17.588],[-115.21,-17.1],[-115.669,-17.116],[-116.127,-17.132],[-116.586,-17.146],[-116.575,-16.654],[-116.564,-16.161],[-116.554,-15.668],[-116.543,-15.176],[-116.532,-14.683],[-116.521,-14.19],[-116.511,-13.698],[-116.5,-13.205],[-116.49,-12.713],[-116.479,-12.22],[-116.469,-11.727],[-116.458,-11.235],[-116.448,-10.742],[-116.437,-10.249],[-116.427,-9.757],[-116.417,-9.264],[-116.407,-8.771],[-116.396,-8.279],[-116.386,-7.786],[-116.376,-7.293]]}},{"type":"Feature","properties":{"boundary_type":"transform","feature_type":"gpml:Transform","polarity":null,"overriding_plate_id":null,"subducting_plate_id":null,"plate_ids":[101,302],"name":""},"geometry":{"type":"LineString","coordinates":[[-175.186,4.095],[-174.905,3.893],[-174.624,3.691],[-174.344,3.489]]}},{"type":"Feature","properties":{"boundary_type":"transform","feature_type":"gpml:Transform","polarity":null,"overriding_plate_id":null,"subducting_plate_id":null,"plate_ids":[302,501],"name":""},"geometry":{"type":"LineString","coordinates":[[-174.344,3.489],[-173.938,3.197],[-173.532,2.904],[-173.127,2.611],[-172.722,2.318],[-172.316,2.024],[-171.911,1.731],[-171.507,1.438],[-171.102,1.144],[-170.697,0.851],[-170.293,0.557],[-169.888,0.263],[-169.483,-0.03],[-169.079,-0.324],[-168.674,-0.618],[-168.27,-0.911],[-167.865,-1.205],[-167.46,-1.498],[-167.055,-1.792],[-166.65,-2.085],[-166.245,-2.378],[-165.84,-2.672],[-165.434,-2.964],[-165.029,-3.257],[-164.623,-3.55],[-164.216,-3.843],[-163.81,-4.135],[-163.403,-4.427],[-162.996,-4.719],[-162.588,-5.01]]}},{"type":"Feature","properties":{"boundary_type":"ridge","feature_type":"gpml:MidOceanRidge","polarity":null,"overriding_plate_id":null,"subducting_plate_id":null,"plate_ids":[90106,501001],"name":""},"geometry":{"type":"LineString","coordinates":[[-174.323,44.509],[-174.99,44.633],[-175.661,44.752],[-176.334,44.868],[-177.009,44.98],[-177.688,45.087],[-178.369,45.191],[-179.052,45.29],[-179.737,45.386],[179.575,45.477],[178.885,45.565],[178.193,45.648],[177.498,45.726],[176.802,45.801],[176.104,45.871],[175.405,45.938],[174.704,45.999],[174.001,46.057],[173.297,46.11],[172.591,46.159],[171.885,46.204],[171.177,46.244],[170.468,46.28],[169.759,46.311],[169.048,46.338],[168.337,46.361],[167.626,46.379],[166.914,46.393],[166.201,46.403],[165.489,46.408],[164.776,46.408],[164.064,46.404],[163.352,46.396],[162.64,46.383],[161.928,46.366],[161.217,46.345],[160.506,46.319],[159.797,46.288],[159.088,46.254],[158.38,46.215],[157.673,46.171],[156.967,46.123],[156.262,46.071],[155.559,46.015],[154.858,45.954],[154.158,45.889],[153.459,45.819],[152.763,45.746],[152.068,45.668],[151.734,45.259],[151.405,44.848],[151.081,44.437],[150.761,44.024],[150.446,43.611],[150.135,43.197],[149.828,42.782],[149.525,42.366],[149.226,41.95],[148.931,41.533],[148.64,41.114],[148.353,40.696],[148.069,40.276],[147.789,39.856],[147.512,39.435],[147.238,39.014],[146.618,39.121],[145.997,39.225],[145.373,39.326],[144.748,39.423],[144.122,39.517],[143.493,39.607],[142.863,39.694],[142.231,39.778],[141.598,39.858],[140.963,39.935],[140.327,40.009],[139.69,40.079],[139.051,40.145],[138.412,40.208],[137.771,40.267],[137.129,40.323],[136.485,40.375],[135.841,40.424],[135.196,40.469],[134.551,40.511],[133.904,40.548],[133.257,40.583],[132.609,40.613],[131.96,40.641],[131.311,40.664],[130.662,40.684],[130.012,40.7],[129.961,40.208],[129.911,39.716],[129.862,39.224],[129.813,38.732],[129.765,38.24],[129.717,37.748],[129.671,37.256],[129.624,36.764],[129.579,36.272],[129.534,35.78],[129.489,35.288],[129.445,34.796],[129.402,34.304],[129.359,33.812],[129.316,33.32],[129.274,32.827],[129.233,32.335],[129.192,31.843],[129.151,31.351],[129.111,30.859],[129.071,30.366],[129.032,29.874],[128.463,29.848],[127.894,29.819],[127.326,29.788],[126.758,29.755],[126.191,29.719],[125.624,29.68],[125.057,29.639],[124.491,29.596],[123.926,29.551],[123.361,29.503],[122.796,29.452],[122.232,29.399],[121.669,29.344],[121.106,29.287],[120.544,29.227],[119.983,29.165],[119.422,29.1],[118.862,29.033],[118.303,28.964],[117.744,28.893],[117.187,28.819],[116.63,28.743],[116.074,28.665],[115.519,28.584],[114.964,28.501],[114.411,28.416],[113.858,28.329],[113.306,28.239],[112.756,28.147],[112.206,28.053],[111.657,27.957],[111.109,27.859],[110.563,27.758],[110.017,27.655],[109.472,27.551],[108.928,27.444],[108.386,27.335],[107.844,27.224],[107.304,27.11],[106.764,26.995],[106.226,26.878],[105.689,26.759],[105.153,26.637],[104.618,26.514],[104.084,26.388],[103.552,26.261],[103.02,26.132]]}},{"type":"Feature","properties":{"boundary_type":"ridge","feature_type":"gpml:MidOceanRidge","polarity":null,"overriding_plate_id":null,"subducting_plate_id":null,"plate_ids":[90105,501001],"name":""},"geometry":{"type":"LineString","coordinates":[[107.616,25.524],[107.16,25.245],[106.706,24.965],[106.255,24.683],[105.805,24.4],[105.357,24.116],[104.912,23.83],[104.468,23.543],[104.026,23.255],[103.586,22.966],[103.148,22.675],[102.712,22.383],[102.278,22.09],[101.846,21.796],[101.415,21.501],[100.986,21.204],[100.559,20.907],[100.133,20.609],[99.709,20.309],[99.287,20.009],[98.866,19.707],[98.447,19.405],[98.03,19.101],[97.614,18.797],[97.199,18.491],[96.786,18.185],[96.375,17.878],[95.965,17.57],[95.556,17.261],[95.149,16.952],[94.743,16.641],[94.338,16.33],[93.935,16.018],[93.533,15.705],[93.132,15.392],[92.732,15.078],[92.334,14.763],[91.936,14.447],[91.54,14.131],[91.145,13.814],[90.751,13.497],[90.358,13.178],[89.966,12.86],[89.575,12.54],[89.185,12.221],[88.796,11.9],[88.408,11.579],[88.773,11.241],[89.138,10.903],[89.502,10.564],[89.865,10.225],[90.228,9.885],[90.589,9.545],[90.95,9.204],[91.311,8.863],[91.67,8.522],[92.029,8.181],[92.387,7.839],[92.745,7.497],[93.102,7.154],[93.459,6.812],[93.815,6.469],[94.171,6.126],[94.526,5.782],[94.881,5.439],[95.235,5.095],[95.589,4.751],[95.943,4.406],[96.296,4.062],[96.649,3.718],[97.002,3.373],[97.354,3.028],[97.707,2.683],[98.059,2.338],[98.411,1.993],[98.762,1.648],[99.114,1.303],[99.465,0.957],[99.817,0.612],[100.168,0.266],[100.52,-0.079],[100.871,-0.424],[101.222,-0.77],[101.574,-1.115],[101.302,-1.475],[101.03,-1.835],[100.757,-2.195],[100.485,-2.554],[100.212,-2.914],[99.94,-3.274],[100.259,-3.635],[100.579,-3.997],[100.898,-4.358],[101.219,-4.719],[101.539,-5.081],[101.86,-5.441],[102.181,-5.802],[102.503,-6.163],[102.825,-6.523],[103.148,-6.883],[103.471,-7.243],[103.794,-7.603],[104.118,-7.963],[104.443,-8.322],[104.768,-8.681],[105.094,-9.039]]}},{"type":"Feature","properties":{"boundary_type":"subduction","feature_type":"gpml:SubductionZone","polarity":"Right","overriding_plate_id":701,"subducting_plate_id":90105,"plate_ids":[701,90105],"name":""},"geometry":{"type":"LineString","coordinates":[[32.51,-74.354],[34.097,-74.612],[35.736,-74.859],[37.427,-75.094],[39.169,-75.316],[40.962,-75.525],[42.804,-75.719],[44.695,-75.899],[46.631,-76.064],[48.61,-76.214],[50.63,-76.347],[52.686,-76.463],[54.775,-76.563],[56.891,-76.645],[59.031,-76.709],[61.188,-76.755],[63.356,-76.783],[65.531,-76.793],[67.706,-76.784],[69.876,-76.757],[72.033,-76.712],[74.174,-76.649],[76.292,-76.568],[78.382,-76.469],[80.44,-76.353],[82.462,-76.221],[84.443,-76.073],[86.382,-75.909],[88.275,-75.729],[90.117,-75.545],[91.911,-75.346],[93.658,-75.134],[95.355,-74.91],[97.001,-74.673],[98.598,-74.424],[100.145,-74.164],[101.642,-73.894],[103.09,-73.614],[104.49,-73.324],[105.843,-73.024],[107.149,-72.717],[108.411,-72.401],[109.629,-72.077],[110.804,-71.746],[111.939,-71.408],[113.034,-71.064],[114.092,-70.713],[115.112,-70.356],[116.097,-69.994],[117.049,-69.627],[117.968,-69.255],[118.856,-68.878],[119.714,-68.496],[120.543,-68.11],[121.345,-67.721],[122.12,-67.327],[122.87,-66.93],[123.596,-66.529],[124.299,-66.125],[124.98,-65.718],[125.64,-65.308],[126.279,-64.896],[126.899,-64.48],[127.5,-64.063],[128.084,-63.642],[128.651,-63.22],[129.201,-62.795],[129.735,-62.368],[130.254,-61.939],[130.759,-61.508],[131.251,-61.076],[131.729,-60.642],[132.194,-60.206],[132.647,-59.768],[133.088,-59.329],[133.518,-58.888],[133.937,-58.447],[134.346,-58.003],[134.744,-57.559],[135.133,-57.113],[135.513,-56.666],[135.884,-56.218],[136.246,-55.769],[136.6,-55.319],[136.946,-54.868],[137.285,-54.415],[137.616,-53.962],[137.94,-53.508],[138.257,-53.054],[138.567,-52.598],[138.871,-52.142]]}},{"type":"Feature","properties":{"boundary_type":"ridge","feature_type":"gpml:MidOceanRidge","polarity":null,"overriding_plate_id":null,"subducting_plate_id":null,"plate_ids":[701,90107],"name":""},"geometry":{"type":"LineString","coordinates":[[-10.824,-52.774],[-10.821,-52.803]]}},{"type":"Feature","properties":{"boundary_type":"ridge","feature_type":"gpml:MidOceanRidge","polarity":null,"overriding_plate_id":null,"subducting_plate_id":null,"plate_ids":[701,90105],"name":""},"geometry":{"type":"LineString","coordinates":[[-10.821,-52.803],[-10.771,-53.301],[-10.72,-53.799],[-10.669,-54.297],[-10.615,-54.795],[-10.561,-55.293],[-10.505,-55.791],[-10.447,-56.288],[-10.389,-56.786],[-10.328,-57.284],[-10.266,-57.782],[-10.202,-58.279],[-10.136,-58.777],[-10.069,-59.275],[-9.999,-59.772],[-9.927,-60.27],[-9.853,-60.767],[-9.777,-61.265],[-9.698,-61.762],[-9.617,-62.259],[-9.533,-62.757],[-9.446,-63.254],[-9.356,-63.751],[-9.263,-64.248],[-9.166,-64.745],[-8.042,-64.726],[-6.92,-64.699],[-5.801,-64.663],[-4.685,-64.619],[-3.573,-64.566],[-3.287,-65.025],[-2.99,-65.484],[-2.683,-65.942],[-2.365,-66.399],[-2.035,-66.855],[-1.693,-67.311],[-1.337,-67.766],[-0.967,-68.221],[-0.582,-68.674],[-0.182,-69.126],[0.236,-69.578],[0.671,-70.029],[1.126,-70.478],[1.602,-70.926],[2.099,-71.373],[3.323,-71.657],[4.583,-71.933],[5.88,-72.201],[7.215,-72.46],[8.588,-72.709],[9.999,-72.949],[11.449,-73.179],[12.937,-73.399],[14.462,-73.608],[16.024,-73.805],[17.623,-73.991],[19.258,-74.165],[20.926,-74.326],[22.627,-74.474],[24.358,-74.609],[26.118,-74.731],[27.904,-74.838],[29.47,-74.687],[31.006,-74.526],[32.51,-74.354]]}},{"type":"Feature","properties":{"boundary_type":"ridge","feature_type":"gpml:MidOceanRidge","polarity":null,"overriding_plate_id":null,"subducting_plate_id":null,"plate_ids":[90105,501001],"name":""},"geometry":{"type":"LineString","coordinates":[[107.616,25.524],[107.108,25.599],[106.599,25.672],[106.089,25.743],[105.579,25.812],[105.069,25.88],[104.557,25.945],[104.046,26.009],[103.533,26.072],[103.02,26.132]]}},{"type":"Feature","properties":{"boundary_type":"ridge","feature_type":"gpml:MidOceanRidge","polarity":null,"overriding_plate_id":null,"subducting_plate_id":null,"plate_ids":[90105,90106],"name":""},"geometry":{"type":"LineString","coordinates":[[103.02,26.132],[102.468,26.195],[101.915,26.256],[101.361,26.314],[100.807,26.371],[100.252,26.425],[99.697,26.477],[99.142,26.527],[98.585,26.575],[98.029,26.621],[97.472,26.665],[96.914,26.706],[96.356,26.746],[95.798,26.783],[95.239,26.818],[94.681,26.85],[94.121,26.881],[93.562,26.909],[93.002,26.935],[92.442,26.959],[91.882,26.981],[91.321,27.0],[90.761,27.017],[90.2,27.032],[89.639,27.045],[89.078,27.056],[88.516,27.064],[87.955,27.07],[87.394,27.074],[86.833,27.076],[86.271,27.075],[85.71,27.072],[85.149,27.067],[84.587,27.06],[84.026,27.051],[83.465,27.039],[83.496,27.454],[83.527,27.87],[83.559,28.285],[82.992,28.271],[82.425,28.255],[81.859,28.237],[81.293,28.216],[80.727,28.193],[80.162,28.167],[79.597,28.139],[79.032,28.109],[78.467,28.077],[77.903,28.042],[77.339,28.005],[76.775,27.965],[76.212,27.924],[75.649,27.88],[75.087,27.833],[74.526,27.785],[73.964,27.734],[73.404,27.681],[72.844,27.626],[72.284,27.568],[71.725,27.508],[71.167,27.446],[70.609,27.382],[70.052,27.316],[69.496,27.247],[68.94,27.176],[68.385,27.103],[67.831,27.028],[67.278,26.95],[66.725,26.871],[66.173,26.789],[65.622,26.705],[65.072,26.619],[64.523,26.531],[63.974,26.441],[63.427,26.349],[63.333,26.82],[63.239,27.291],[63.144,27.762],[63.048,28.232],[62.952,28.703],[62.854,29.174],[62.756,29.644],[62.657,30.115],[62.556,30.585],[62.455,31.055],[61.875,31.012],[61.295,30.966],[60.716,30.917],[60.137,30.866],[59.559,30.813],[58.981,30.756],[58.405,30.698],[57.829,30.636],[57.254,30.572],[56.679,30.506],[56.105,30.437],[55.533,30.365],[54.961,30.292],[54.39,30.215],[53.819,30.136],[53.25,30.055],[52.682,29.971],[52.114,29.885],[51.548,29.796],[50.983,29.705],[50.418,29.612],[49.855,29.516],[49.293,29.418],[48.732,29.317],[48.172,29.214],[47.613,29.109],[47.055,29.001],[46.499,28.891],[45.944,28.779],[45.389,28.665],[44.837,28.548],[44.285,28.429],[43.735,28.308],[43.185,28.185],[42.638,28.059],[42.091,27.932],[41.546,27.802],[41.002,27.67],[40.459,27.536],[39.918,27.4],[39.378,27.262],[38.839,27.121],[38.302,26.979],[37.766,26.835],[37.232,26.688],[36.698,26.54],[36.167,26.389],[35.636,26.237],[35.107,26.083],[34.58,25.926],[34.054,25.768],[33.529,25.608],[33.006,25.446],[32.484,25.283]]}},{"type":"Feature","properties":{"boundary_type":"subduction","feature_type":"gpml:SubductionZone","polarity":"Right","overriding_plate_id":201,"subducting_plate_id":701,"plate_ids":[201,701],"name":""},"geometry":{"type":"LineString","coordinates":[[-169.421,-24.51],[-169.746,-24.913],[-170.073,-25.314],[-170.402,-25.716],[-170.734,-26.116],[-171.067,-26.516],[-171.404,-26.915],[-171.742,-27.313],[-172.083,-27.71],[-172.426,-28.106],[-172.772,-28.502],[-173.121,-28.897],[-173.472,-29.291],[-173.826,-29.683],[-174.183,-30.075],[-174.543,-30.466],[-174.905,-30.856],[-175.27,-31.245],[-175.639,-31.633],[-176.01,-32.02],[-176.385,-32.406],[-176.763,-32.79],[-177.144,-33.174],[-177.529,-33.556],[-177.917,-33.937],[-178.308,-34.317],[-178.703,-34.695],[-179.102,-35.073],[-179.504,-35.449],[-179.91,-35.823],[179.68,-36.197],[179.266,-36.569],[178.849,-36.939],[178.427,-37.308],[178.001,-37.675],[177.57,-38.041],[177.12,-38.381],[176.665,-38.719],[176.207,-39.054],[175.743,-39.389],[175.275,-39.721],[174.803,-40.051],[174.326,-40.38],[173.845,-40.706],[173.359,-41.031],[172.868,-41.353],[172.372,-41.674],[171.871,-41.992],[171.365,-42.308],[170.854,-42.621],[170.338,-42.933],[169.817,-43.242],[169.29,-43.549],[168.758,-43.853],[168.221,-44.155],[167.678,-44.454],[167.129,-44.75],[166.575,-45.044],[166.015,-45.336],[165.45,-45.624],[164.878,-45.91],[164.301,-46.192],[163.718,-46.472],[163.128,-46.749],[162.533,-47.023],[161.932,-47.294],[161.324,-47.561],[160.71,-47.825],[160.09,-48.086],[159.464,-48.344],[158.832,-48.598],[158.193,-48.849],[157.547,-49.096],[156.862,-49.295],[156.171,-49.489],[155.474,-49.68],[154.772,-49.866],[154.065,-50.048],[153.352,-50.226],[152.634,-50.399],[151.911,-50.568],[151.182,-50.733],[150.449,-50.893],[149.71,-51.048],[148.967,-51.198],[148.219,-51.344],[147.466,-51.485],[146.709,-51.621],[145.947,-51.753],[145.181,-51.879],[144.411,-52.0],[143.676,-52.047],[142.941,-52.09],[142.204,-52.128],[141.466,-52.162],[140.726,-52.191],[139.986,-52.215],[139.245,-52.235]]}},{"type":"Feature","properties":{"boundary_type":"ridge","feature_type":"gpml:MidOceanRidge","polarity":null,"overriding_plate_id":null,"subducting_plate_id":null,"plate_ids":[90106,90107],"name":""},"geometry":{"type":"LineString","coordinates":[[32.732,25.642],[32.399,26.026],[32.065,26.409],[31.728,26.792],[31.389,27.173],[31.048,27.554],[30.704,27.934],[30.358,28.312],[30.009,28.691],[29.658,29.068],[29.304,29.444],[28.948,29.819],[28.589,30.194],[28.227,30.567],[27.862,30.94],[27.495,31.311],[27.125,31.681],[26.751,32.05],[26.375,32.418],[25.996,32.785],[25.613,33.151],[25.227,33.516],[24.838,33.879],[24.446,34.242],[24.881,34.56],[25.319,34.877],[25.761,35.193],[26.206,35.507],[26.655,35.819],[27.107,36.13],[26.736,36.529],[26.361,36.928],[25.982,37.326],[25.599,37.722],[25.212,38.117],[24.821,38.51],[24.426,38.903],[24.026,39.294],[23.622,39.683],[23.213,40.072],[22.8,40.458],[22.382,40.844],[21.958,41.227],[21.53,41.61],[21.097,41.99],[20.659,42.369],[20.215,42.746],[19.766,43.122],[19.311,43.496],[18.851,43.867],[18.385,44.237],[17.913,44.606],[17.435,44.972],[16.95,45.336],[16.46,45.698],[15.963,46.058],[15.46,46.415],[14.95,46.771],[14.434,47.124],[13.91,47.475],[13.38,47.823],[12.842,48.169],[12.297,48.513],[11.745,48.854],[11.185,49.192],[10.617,49.527],[10.042,49.86],[9.459,50.19],[8.867,50.516],[8.268,50.84],[7.66,51.161],[7.043,51.478],[6.418,51.792],[5.785,52.103],[5.142,52.41],[4.491,52.714],[3.83,53.014],[3.16,53.31],[2.481,53.603],[1.793,53.892],[1.095,54.177],[0.387,54.457],[-0.33,54.734],[-1.057,55.006],[-1.794,55.274],[-2.541,55.537],[-3.298,55.796],[-4.065,56.05],[-4.842,56.299],[-5.629,56.543],[-6.426,56.782],[-7.233,57.016],[-8.051,57.245],[-8.878,57.468],[-9.716,57.686],[-10.563,57.899],[-11.421,58.105],[-12.288,58.306],[-13.165,58.501],[-14.052,58.69],[-14.948,58.872],[-15.854,59.049],[-16.768,59.219],[-17.692,59.382],[-18.625,59.539],[-19.566,59.689],[-20.515,59.833],[-21.472,59.969],[-22.437,60.099],[-23.41,60.222],[-24.389,60.337],[-25.376,60.445],[-26.368,60.546],[-27.367,60.639],[-28.371,60.725],[-29.38,60.803],[-30.395,60.874],[-31.413,60.937],[-32.435,60.992],[-33.46,61.04],[-34.488,61.08],[-35.519,61.111],[-36.551,61.136],[-37.585,61.152],[-38.62,61.16],[-39.654,61.16],[-40.689,61.153],[-41.723,61.138],[-42.755,61.114],[-43.786,61.083],[-44.814,61.044],[-45.84,60.998]]}},{"type":"Feature","properties":{"boundary_type":"ridge","feature_type":"gpml:MidOceanRidge","polarity":null,"overriding_plate_id":null,"subducting_plate_id":null,"plate_ids":[701,90107],"name":""},"geometry":{"type":"LineString","coordinates":[[-10.824,-52.774],[-11.632,-52.774],[-12.441,-52.768],[-13.249,-52.757],[-14.056,-52.741],[-14.863,-52.719],[-15.669,-52.691],[-16.474,-52.658],[-17.278,-52.62],[-18.08,-52.576],[-18.88,-52.527],[-19.679,-52.472],[-20.475,-52.412],[-21.269,-52.347],[-22.061,-52.276],[-22.85,-52.201],[-23.636,-52.119],[-24.42,-52.033],[-25.2,-51.942],[-25.977,-51.845],[-26.751,-51.743],[-27.521,-51.636],[-27.424,-51.145],[-27.329,-50.653],[-27.236,-50.161],[-27.145,-49.67],[-27.056,-49.178],[-26.968,-48.686],[-26.883,-48.194],[-26.799,-47.702],[-26.716,-47.209],[-26.635,-46.717],[-26.555,-46.225],[-26.477,-45.733],[-26.401,-45.24],[-26.325,-44.748],[-26.251,-44.255],[-26.178,-43.763],[-26.106,-43.27],[-26.036,-42.778],[-25.966,-42.285],[-25.898,-41.792],[-25.83,-41.3],[-25.764,-40.807],[-25.699,-40.314],[-25.634,-39.821],[-25.571,-39.328],[-25.508,-38.835],[-25.446,-38.342],[-25.386,-37.849],[-25.325,-37.356],[-25.266,-36.863],[-25.208,-36.37],[-25.15,-35.877],[-25.093,-35.384],[-25.036,-34.891],[-24.98,-34.398],[-24.925,-33.905],[-24.871,-33.411],[-24.817,-32.918],[-24.764,-32.425],[-25.302,-32.282],[-25.839,-32.138],[-26.374,-31.991],[-26.907,-31.841],[-27.439,-31.69],[-27.969,-31.536],[-28.497,-31.38],[-29.023,-31.222],[-29.548,-31.062],[-30.071,-30.9],[-30.592,-30.736],[-31.111,-30.569],[-31.628,-30.401],[-32.144,-30.23],[-32.658,-30.058],[-33.17,-29.883],[-33.68,-29.707],[-34.189,-29.528],[-34.695,-29.348],[-34.493,-28.886],[-34.293,-28.424],[-34.094,-27.962],[-33.897,-27.499],[-33.702,-27.036],[-33.508,-26.573],[-33.316,-26.11],[-33.125,-25.646],[-32.936,-25.182],[-32.748,-24.718],[-32.562,-24.254],[-32.377,-23.789],[-32.193,-23.324],[-32.011,-22.859],[-31.83,-22.394],[-31.65,-21.929],[-31.471,-21.463],[-31.293,-20.997],[-31.117,-20.531],[-30.941,-20.065],[-30.767,-19.599],[-30.594,-19.132],[-30.421,-18.665],[-30.25,-18.199],[-30.079,-17.732],[-29.91,-17.264],[-29.741,-16.797],[-29.573,-16.33],[-29.406,-15.862],[-29.239,-15.395],[-29.074,-14.927],[-28.909,-14.459],[-28.744,-13.991],[-28.581,-13.523],[-28.418,-13.054],[-28.256,-12.586],[-28.094,-12.118],[-27.933,-11.649],[-27.772,-11.18],[-27.612,-10.712],[-27.452,-10.243],[-27.293,-9.774],[-27.134,-9.305],[-26.976,-8.836],[-26.818,-8.367],[-26.661,-7.898],[-26.504,-7.429],[-26.347,-6.959],[-26.19,-6.49],[-26.034,-6.021],[-25.878,-5.551],[-25.723,-5.082],[-25.567,-4.612],[-25.412,-4.143],[-25.257,-3.673],[-25.102,-3.204],[-24.947,-2.734],[-24.793,-2.265],[-24.638,-1.795],[-24.484,-1.325],[-24.329,-0.856],[-24.175,-0.386],[-24.021,0.084],[-23.866,0.553],[-23.712,1.023],[-23.558,1.493]]}},{"type":"Feature","properties":{"boundary_type":"ridge","feature_type":"gpml:MidOceanRidge","polarity":null,"overriding_plate_id":null,"subducting_plate_id":null,"plate_ids":[90106,90107],"name":""},"geometry":{"type":"LineString","coordinates":[[32.732,25.642],[32.484,25.283]]}},{"type":"Feature","properties":{"boundary_type":"ridge","feature_type":"gpml:MidOceanRidge","polarity":null,"overriding_plate_id":null,"subducting_plate_id":null,"plate_ids":[90105,90107],"name":""},"geometry":{"type":"LineString","coordinates":[[32.484,25.283],[32.197,24.864],[31.912,24.445],[31.629,24.025],[31.348,23.604],[31.068,23.183],[30.791,22.762],[30.515,22.34],[30.241,21.918],[29.968,21.495],[29.697,21.072],[29.428,20.648],[29.16,20.224],[28.893,19.8],[28.628,19.375],[28.364,18.95],[28.102,18.524],[27.841,18.098],[27.581,17.672],[27.322,17.245],[27.065,16.818],[26.809,16.391],[26.553,15.963],[26.299,15.535],[26.046,15.107],[25.794,14.679],[25.543,14.25],[25.293,13.821],[25.044,13.392],[24.796,12.962],[24.549,12.532],[24.302,12.102],[24.727,11.831],[25.151,11.559],[25.574,11.287],[25.996,11.014],[26.418,10.74],[26.839,10.466],[27.259,10.192],[27.678,9.916],[28.096,9.641],[28.514,9.364],[28.932,9.088],[29.348,8.81],[29.764,8.533],[30.179,8.255],[30.594,7.976],[31.008,7.697],[31.422,7.418],[31.835,7.138],[32.248,6.858],[32.66,6.578],[33.072,6.297],[33.483,6.016],[33.894,5.734],[34.304,5.453],[34.035,5.039],[33.765,4.625],[33.497,4.211],[33.228,3.797],[32.96,3.383],[32.692,2.969],[32.424,2.554],[32.156,2.14],[31.888,1.726],[31.621,1.311],[31.353,0.897],[31.086,0.482],[30.819,0.068],[30.552,-0.347],[30.284,-0.761],[30.017,-1.176],[29.749,-1.59],[29.482,-2.004],[29.214,-2.419],[28.946,-2.833],[28.678,-3.247],[28.41,-3.662],[28.142,-4.076],[27.873,-4.49],[27.604,-4.903],[27.334,-5.317],[27.064,-5.731],[26.794,-6.144],[26.524,-6.558],[26.253,-6.971],[25.981,-7.384],[25.709,-7.797],[25.436,-8.21],[25.163,-8.623],[24.89,-9.035],[24.615,-9.447],[24.34,-9.859],[24.065,-10.271],[23.788,-10.682],[23.511,-11.094],[23.233,-11.505],[22.954,-11.915],[22.675,-12.326],[22.394,-12.736],[22.113,-13.146],[21.83,-13.556],[21.547,-13.965],[21.263,-14.374],[20.977,-14.782],[20.691,-15.191],[20.403,-15.599],[20.115,-16.006],[19.825,-16.413],[19.534,-16.82],[19.241,-17.226],[18.948,-17.632],[18.653,-18.038],[18.356,-18.443],[18.059,-18.847],[17.76,-19.251],[17.459,-19.655],[17.157,-20.058],[16.853,-20.461],[16.548,-20.863],[16.241,-21.264],[15.932,-21.665],[15.622,-22.065],[16.011,-22.379],[16.401,-22.691],[16.793,-23.003],[17.187,-23.314],[17.583,-23.623],[17.981,-23.932],[18.381,-24.24],[18.782,-24.546],[19.186,-24.852],[19.592,-25.156],[19.999,-25.46],[20.409,-25.762],[20.821,-26.063],[21.235,-26.363],[21.651,-26.661],[22.069,-26.959],[22.489,-27.255],[22.122,-27.625],[21.753,-27.994],[21.382,-28.362],[21.007,-28.729],[20.63,-29.095],[20.251,-29.46],[19.868,-29.823],[19.483,-30.186],[19.095,-30.548],[18.705,-30.908],[18.311,-31.267],[17.914,-31.625],[17.514,-31.982],[17.111,-32.338],[16.705,-32.692],[16.295,-33.045],[15.883,-33.396],[15.467,-33.746],[15.047,-34.095],[14.624,-34.442],[14.198,-34.788],[13.768,-35.133],[13.334,-35.475],[12.897,-35.817],[12.456,-36.156],[12.011,-36.494],[11.562,-36.831],[11.109,-37.165],[10.652,-37.498],[10.192,-37.829],[9.727,-38.159],[9.257,-38.486],[8.784,-38.812],[9.144,-39.186],[9.508,-39.559],[9.875,-39.93],[10.247,-40.301],[10.623,-40.67],[11.003,-41.038],[11.387,-41.405],[11.776,-41.771],[12.169,-42.135],[11.678,-42.468],[11.181,-42.798],[10.679,-43.126],[10.172,-43.452],[9.659,-43.776],[9.141,-44.098],[8.617,-44.417],[8.087,-44.733],[7.552,-45.048],[7.011,-45.359],[6.463,-45.668],[5.91,-45.975],[5.35,-46.279],[4.784,-46.58],[4.212,-46.878],[3.634,-47.173],[3.049,-47.465],[2.458,-47.755],[1.86,-48.041],[1.255,-48.324],[0.644,-48.604],[0.026,-48.881],[-0.599,-49.154],[-1.231,-49.424],[-1.869,-49.69],[-2.515,-49.953],[-3.168,-50.212],[-3.828,-50.468],[-4.494,-50.72],[-5.169,-50.968],[-5.85,-51.212],[-6.538,-51.452],[-7.234,-51.688],[-7.937,-51.919],[-8.647,-52.147],[-9.364,-52.37],[-10.089,-52.589],[-10.821,-52.803]]}},{"type":"Feature","properties":{"boundary_type":"subduction","feature_type":"gpml:SubductionZone","polarity":"Left","overriding_plate_id":10103,"subducting_plate_id":90106,"plate_ids":[10103,90106],"name":""},"geometry":{"type":"LineString","coordinates":[[-89.4,68.503],[-89.486,68.998],[-89.576,69.493],[-89.669,69.987],[-89.768,70.482],[-89.871,70.976],[-89.98,71.471],[-90.094,71.965],[-90.214,72.459],[-90.342,72.954],[-90.476,73.448],[-90.619,73.942],[-90.771,74.436],[-90.932,74.93],[-91.104,75.423],[-91.287,75.917],[-92.821,76.211],[-94.418,76.495],[-96.082,76.768],[-97.813,77.03],[-99.613,77.28],[-101.482,77.518],[-103.42,77.742],[-105.427,77.952],[-107.501,78.148],[-109.642,78.328],[-111.845,78.491],[-114.108,78.637],[-116.425,78.766],[-118.792,78.877],[-121.201,78.968],[-123.646,79.041],[-126.119,79.093],[-128.35,78.871],[-130.493,78.633],[-132.546,78.381],[-134.51,78.114],[-136.387,77.835],[-138.18,77.543],[-139.89,77.24],[-141.521,76.927],[-143.076,76.604],[-144.558,76.272],[-145.971,75.931],[-147.317,75.583],[-148.6,75.227],[-149.824,74.865],[-150.991,74.496],[-152.105,74.121],[-153.169,73.741],[-154.185,73.356],[-155.156,72.966],[-156.085,72.572],[-156.973,72.174],[-157.824,71.771],[-158.004,71.299],[-158.176,70.827],[-158.34,70.355],[-158.496,69.882],[-158.646,69.41],[-158.789,68.937],[-158.926,68.464],[-159.057,67.991],[-159.183,67.518],[-159.304,67.045],[-159.421,66.571],[-159.533,66.098],[-159.641,65.625],[-159.746,65.151],[-159.846,64.678],[-159.369,64.256],[-158.906,63.833],[-158.457,63.408],[-158.021,62.982]]}},{"type":"Feature","properties":{"boundary_type":"subduction","feature_type":"gpml:SubductionZone","polarity":"Left","overriding_plate_id":101,"subducting_plate_id":501001,"plate_ids":[101,501001],"name":"Baltica_SZ"},"geometry":{"type":"LineString","coordinates":[[-176.123,39.65],[-176.02,39.191],[-175.917,38.733],[-175.816,38.274],[-175.717,37.814],[-175.618,37.355],[-175.521,36.896],[-175.425,36.437],[-175.319,35.977],[-175.214,35.518],[-175.111,35.058],[-175.008,34.598],[-174.907,34.139],[-174.807,33.679],[-174.708,33.219],[-174.609,32.759],[-174.512,32.298],[-174.416,31.838],[-174.392,31.373],[-174.369,30.907],[-174.345,30.442],[-174.322,29.976],[-174.299,29.511],[-174.276,29.045],[-174.254,28.58],[-174.232,28.114],[-174.209,27.649],[-174.188,27.183],[-174.166,26.718],[-174.144,26.252],[-174.094,25.767],[-174.045,25.283],[-173.995,24.798],[-173.947,24.313],[-173.898,23.829],[-173.85,23.344],[-173.802,22.859],[-173.755,22.374],[-173.708,21.89],[-173.661,21.405],[-173.672,20.914],[-173.683,20.424],[-173.694,19.934],[-173.705,19.443],[-173.716,18.953],[-173.726,18.463],[-173.737,17.972],[-173.748,17.482],[-173.758,16.991],[-173.769,16.501]]}},{"type":"Feature","properties":{"boundary_type":"subduction","feature_type":"gpml:SubductionZone","polarity":"Left","overriding_plate_id":101,"subducting_plate_id":501,"plate_ids":[101,501],"name":"Baltica_SZ"},"geometry":{"type":"LineString","coordinates":[[-173.769,16.501],[-173.778,16.039],[-173.788,15.577],[-173.798,15.115],[-173.808,14.653],[-173.869,14.164],[-173.929,13.675],[-173.99,13.186],[-174.05,12.697],[-174.11,12.209],[-174.17,11.72],[-174.229,11.231],[-174.289,10.742],[-174.348,10.253],[-174.407,9.764],[-174.465,9.275],[-174.524,8.787],[-174.507,8.305],[-174.491,7.823],[-174.475,7.342],[-174.458,6.86],[-174.442,6.379],[-174.425,5.897],[-174.409,5.416],[-174.393,4.934],[-174.376,4.453],[-174.36,3.971],[-174.344,3.489]]}},{"type":"Feature","properties":{"boundary_type":"subduction","feature_type":"gpml:SubductionZone","polarity":"Left","overriding_plate_id":201,"subducting_plate_id":701,"plate_ids":[201,701],"name":""},"geometry":{"type":"LineString","coordinates":[[-169.421,-24.51],[-168.892,-24.584],[-168.364,-24.657],[-167.834,-24.728],[-167.305,-24.797],[-166.774,-24.864]]}},{"type":"Feature","properties":{"boundary_type":"subduction","feature_type":"gpml:SubductionZone","polarity":"Left","overriding_plate_id":101,"subducting_plate_id":701,"plate_ids":[101,701],"name":""},"geometry":{"type":"LineString","coordinates":[[-166.774,-24.864],[-166.26,-24.927],[-165.746,-24.988],[-165.231,-25.048],[-164.716,-25.106],[-164.2,-25.162],[-163.684,-25.216],[-163.167,-25.269],[-162.65,-25.319],[-162.132,-25.368],[-161.614,-25.415],[-161.117,-25.296],[-160.621,-25.176],[-160.125,-25.054],[-159.631,-24.93]]}},{"type":"Feature","properties":{"boundary_type":"ridge","feature_type":"gpml:MidOceanRidge","polarity":null,"overriding_plate_id":null,"subducting_plate_id":null,"plate_ids":[80101,811001],"name":""},"geometry":{"type":"LineString","coordinates":[[-60.143,10.482],[-60.001,10.447]]}},{"type":"Feature","properties":{"boundary_type":"ridge","feature_type":"gpml:MidOceanRidge","polarity":null,"overriding_plate_id":null,"subducting_plate_id":null,"plate_ids":[701,80101],"name":""},"geometry":{"type":"LineString","coordinates":[[-60.001,10.447],[-59.523,10.33],[-59.046,10.213],[-58.568,10.094],[-58.091,9.975],[-57.615,9.855],[-57.139,9.734],[-56.663,9.613],[-56.187,9.491],[-55.712,9.369],[-55.237,9.246],[-54.763,9.122],[-54.289,8.998],[-53.815,8.873],[-53.341,8.747],[-53.495,8.309],[-53.648,7.871],[-53.8,7.433],[-53.953,6.995],[-54.105,6.557],[-54.257,6.118],[-54.408,5.68],[-54.56,5.242],[-54.066,5.191],[-53.572,5.141],[-53.078,5.09],[-52.584,5.039],[-52.091,4.987],[-51.597,4.935],[-51.104,4.882],[-50.61,4.83],[-50.117,4.776],[-49.624,4.723],[-49.13,4.669],[-48.637,4.615],[-48.144,4.56],[-47.651,4.505],[-47.158,4.45],[-46.666,4.395],[-46.173,4.339],[-45.68,4.283],[-45.188,4.226],[-44.695,4.169],[-44.203,4.112],[-43.71,4.055],[-43.218,3.997],[-42.726,3.939],[-42.233,3.881],[-41.741,3.822],[-41.249,3.763],[-40.757,3.704],[-40.265,3.645],[-39.773,3.585],[-39.282,3.525],[-38.79,3.465],[-38.298,3.404],[-37.807,3.344],[-37.315,3.283],[-36.824,3.221],[-36.332,3.16],[-35.841,3.098],[-35.35,3.036],[-34.858,2.974],[-34.367,2.912],[-33.876,2.849],[-33.385,2.787],[-32.894,2.724],[-32.403,2.66],[-31.912,2.597],[-31.421,2.534],[-30.93,2.47],[-30.44,2.406],[-29.949,2.342],[-29.458,2.278],[-28.967,2.213],[-28.477,2.148],[-27.986,2.084],[-27.496,2.019],[-27.005,1.954],[-26.515,1.889],[-26.024,1.823],[-25.534,1.758],[-25.044,1.692]]}},{"type":"Feature","properties":{"boundary_type":"ridge","feature_type":"gpml:MidOceanRidge","polarity":null,"overriding_plate_id":null,"subducting_plate_id":null,"plate_ids":[701,90107],"name":""},"geometry":{"type":"LineString","coordinates":[[-25.044,1.692],[-24.548,1.626],[-24.053,1.559],[-23.558,1.493]]}},{"type":"Feature","properties":{"boundary_type":"ridge","feature_type":"gpml:MidOceanRidge","polarity":null,"overriding_plate_id":null,"subducting_plate_id":null,"plate_ids":[80101,811001],"name":""},"geometry":{"type":"LineString","coordinates":[[-35.513,50.056],[-36.023,49.697],[-36.526,49.337],[-37.022,48.974],[-37.51,48.609],[-37.991,48.243],[-38.466,47.874],[-38.934,47.503],[-39.395,47.131],[-39.85,46.756],[-40.298,46.38],[-40.741,46.002],[-41.177,45.623],[-41.608,45.242],[-42.032,44.859],[-42.451,44.474],[-42.865,44.088],[-43.273,43.701],[-43.676,43.312],[-44.074,42.922],[-44.467,42.531],[-44.855,42.138],[-45.238,41.744],[-45.616,41.348],[-45.99,40.952],[-46.36,40.554],[-46.725,40.155],[-47.086,39.755],[-46.64,39.448],[-46.198,39.139],[-45.761,38.828],[-45.327,38.516],[-44.897,38.203],[-44.47,37.888],[-44.047,37.571],[-44.41,37.163],[-44.769,36.755],[-45.125,36.345],[-45.476,35.935],[-45.824,35.523],[-46.168,35.11],[-46.509,34.697],[-46.846,34.282],[-47.181,33.867],[-47.511,33.45],[-47.839,33.033],[-48.164,32.615],[-48.485,32.196],[-48.804,31.776],[-48.386,31.546],[-47.97,31.314],[-47.557,31.081],[-47.145,30.846],[-46.735,30.611],[-46.328,30.373],[-46.672,29.972],[-47.013,29.57],[-47.351,29.167],[-47.687,28.763],[-48.02,28.358],[-48.351,27.952],[-48.679,27.546],[-49.004,27.139],[-49.328,26.731],[-49.649,26.322],[-49.968,25.913],[-50.284,25.503],[-50.598,25.092],[-50.911,24.681],[-51.221,24.269],[-51.529,23.856],[-51.835,23.443],[-52.14,23.029],[-52.442,22.615],[-52.743,22.2],[-53.042,21.784],[-53.339,21.368],[-53.635,20.951],[-53.928,20.534],[-54.221,20.117],[-54.511,19.699],[-54.8,19.28],[-55.088,18.861],[-55.332,18.448],[-55.574,18.035],[-55.815,17.622],[-56.055,17.208],[-56.294,16.795],[-56.532,16.38],[-56.769,15.966],[-57.005,15.551],[-57.24,15.136],[-57.474,14.721],[-57.708,14.306],[-57.94,13.89],[-58.172,13.474],[-58.402,13.058],[-58.632,12.642],[-58.862,12.225],[-59.119,11.877],[-59.376,11.529],[-59.632,11.18],[-59.888,10.831],[-60.143,10.482]]}},{"type":"Feature","properties":{"boundary_type":"subduction","feature_type":"gpml:SubductionZone","polarity":"Right","overriding_plate_id":80101,"subducting_plate_id":90107,"plate_ids":[80101,90107],"name":""},"geometry":{"type":"LineString","coordinates":[[-15.484,20.676],[-15.619,20.261],[-15.753,19.847],[-15.887,19.432],[-16.02,19.018],[-16.152,18.603],[-16.284,18.188],[-16.508,17.737],[-16.732,17.284],[-16.954,16.832],[-17.175,16.379],[-17.395,15.926],[-17.614,15.473],[-17.832,15.02],[-18.049,14.566],[-18.265,14.113],[-18.48,13.659],[-18.695,13.205],[-18.909,12.75],[-19.121,12.296],[-19.334,11.841],[-19.545,11.387],[-19.756,10.932],[-19.999,10.497],[-20.241,10.063],[-20.483,9.628],[-20.724,9.194],[-20.964,8.759],[-21.204,8.324],[-21.443,7.889],[-21.682,7.453],[-21.921,7.018],[-22.158,6.582],[-22.396,6.146],[-22.633,5.711],[-22.87,5.275],[-23.106,4.839],[-23.342,4.403],[-23.578,3.966],[-23.814,3.53],[-24.06,3.163],[-24.306,2.795],[-24.552,2.428],[-24.798,2.06],[-25.044,1.692]]}},{"type":"Feature","properties":{"boundary_type":"ridge","feature_type":"gpml:MidOceanRidge","polarity":null,"overriding_plate_id":null,"subducting_plate_id":null,"plate_ids":[701,811001],"name":""},"geometry":{"type":"LineString","coordinates":[[-81.224,10.971],[-80.722,11.012],[-80.22,11.051],[-79.718,11.09],[-79.215,11.128],[-78.713,11.165],[-78.21,11.202],[-77.708,11.237],[-77.205,11.272],[-76.702,11.306],[-76.199,11.339],[-75.696,11.371],[-75.192,11.402],[-74.689,11.433],[-74.185,11.462],[-73.682,11.491],[-73.178,11.519],[-72.674,11.546],[-72.17,11.572],[-71.666,11.597],[-71.162,11.621],[-70.658,11.645],[-70.154,11.667],[-69.649,11.689],[-69.659,11.313],[-69.669,10.937],[-69.679,10.561],[-69.688,10.186],[-69.204,10.205],[-68.72,10.225],[-68.236,10.243],[-67.752,10.261],[-67.268,10.278],[-66.784,10.294],[-66.3,10.31],[-65.815,10.325],[-65.331,10.339],[-64.847,10.353],[-64.362,10.365],[-63.878,10.377],[-63.393,10.389],[-62.909,10.399],[-62.424,10.409],[-61.94,10.418],[-61.455,10.427],[-60.971,10.434],[-60.486,10.441],[-60.001,10.447]]}},{"type":"Feature","properties":{"boundary_type":"subduction","feature_type":"gpml:SubductionZone","polarity":"Left","overriding_plate_id":501,"subducting_plate_id":501001,"plate_ids":[501,501001],"name":""},"geometry":{"type":"LineString","coordinates":[[-173.769,16.501],[-173.883,16.173],[-173.997,15.846],[-174.111,15.518],[-174.323,15.066],[-174.534,14.613],[-174.745,14.161],[-174.955,13.708],[-175.164,13.255],[-175.372,12.802],[-175.579,12.348],[-175.786,11.895],[-175.992,11.441],[-176.197,10.987],[-176.402,10.533],[-176.606,10.079],[-176.809,9.625],[-177.012,9.171],[-177.215,8.716],[-177.417,8.262],[-177.662,7.835],[-177.907,7.409],[-178.152,6.982],[-178.396,6.555],[-178.639,6.128],[-178.883,5.701],[-179.126,5.274],[-179.368,4.846],[-179.611,4.419],[-179.853,3.992],[179.906,3.564],[179.664,3.136],[179.423,2.709],[179.181,2.281],[178.94,1.853],[178.699,1.426],[178.459,0.998],[178.218,0.57],[177.977,0.142],[177.736,-0.286],[177.496,-0.713],[177.255,-1.141],[177.014,-1.569],[176.773,-1.997],[176.532,-2.424],[176.291,-2.852],[176.049,-3.28],[175.808,-3.707],[175.566,-4.135],[175.324,-4.562],[175.065,-4.973],[174.806,-5.383],[174.546,-5.793],[174.286,-6.203],[174.026,-6.612],[173.765,-7.022],[173.504,-7.432],[173.242,-7.841],[172.98,-8.25],[172.717,-8.659],[172.454,-9.068],[172.19,-9.477],[171.925,-9.885],[171.66,-10.293],[171.394,-10.701],[171.127,-11.109],[170.86,-11.517],[170.592,-11.924],[170.323,-12.331],[170.053,-12.738],[169.782,-13.145],[169.511,-13.551]]}}]}