{"type":"FeatureCollection","meta":{"model":"Cao2024","reconstruction_time_ma":1580.0,"anchor_plate_id":0,"pygplates_version":"1.0.0","tessellate_degrees":0.5,"polarity_convention":"gpml:subductionPolarity. 'Left'/'Right' names the side of the line, in vertex order, on which the OVERRIDING plate lies. Triangles are drawn on that side.","antimeridian":"Lines are NOT split at +/-180 deg. The renderer works in 3D unit vectors where the dateline is not special; splitting would only add spurious breaks. Do not treat this as RFC 7946 GIS-ready 2D data."},"features":[{"type":"Feature","properties":{"boundary_type":"subduction","feature_type":"gpml:SubductionZone","polarity":"Left","overriding_plate_id":101,"subducting_plate_id":90106,"plate_ids":[101,90106],"name":"eastern Laurentia-greenland-western baltica"},"geometry":{"type":"LineString","coordinates":[[-164.944,36.671],[-165.004,36.328],[-164.931,35.855],[-164.858,35.382],[-164.787,34.91],[-164.716,34.437],[-164.646,33.964],[-164.577,33.491],[-164.509,33.018],[-164.441,32.545],[-164.375,32.072],[-164.308,31.599],[-164.243,31.126],[-164.178,30.652],[-164.114,30.179],[-164.05,29.706],[-163.987,29.233],[-163.925,28.76],[-163.863,28.286],[-163.801,27.813],[-163.759,27.334],[-163.717,26.856],[-163.675,26.377],[-163.634,25.899],[-163.592,25.42],[-163.552,24.942],[-163.511,24.463],[-163.471,23.984]]}},{"type":"Feature","properties":{"boundary_type":"subduction","feature_type":"gpml:SubductionZone","polarity":"Left","overriding_plate_id":101,"subducting_plate_id":201,"plate_ids":[101,201],"name":"eastern Laurentia-greenland-western baltica"},"geometry":{"type":"LineString","coordinates":[[-163.471,23.984],[-163.43,23.492],[-163.389,23.0],[-163.349,22.507],[-163.309,22.015],[-163.269,21.522],[-163.23,21.03],[-163.19,20.537],[-163.151,20.045],[-163.112,19.552],[-163.074,19.06],[-163.035,18.567]]}},{"type":"Feature","properties":{"boundary_type":"subduction","feature_type":"gpml:SubductionZone","polarity":"Left","overriding_plate_id":101,"subducting_plate_id":911001,"plate_ids":[101,911001],"name":"Indo-Antarctica_SZ"},"geometry":{"type":"LineString","coordinates":[[-156.426,-10.378],[-156.424,-10.836],[-156.422,-11.294],[-156.419,-11.752],[-156.417,-12.21],[-156.415,-12.668],[-156.413,-13.126],[-156.411,-13.584],[-156.596,-14.029],[-156.782,-14.475],[-156.969,-14.92],[-157.157,-15.364],[-157.345,-15.809],[-157.534,-16.254],[-157.724,-16.698],[-157.915,-17.142],[-158.107,-17.586],[-158.3,-18.03],[-158.494,-18.474],[-158.688,-18.917],[-158.884,-19.36],[-159.081,-19.803],[-159.3,-20.249],[-159.52,-20.694],[-159.741,-21.139],[-159.963,-21.584],[-160.187,-22.029],[-160.412,-22.473],[-160.639,-22.917],[-160.867,-23.361],[-161.097,-23.804],[-161.328,-24.247],[-161.561,-24.69],[-161.795,-25.132],[-161.93,-25.613],[-162.065,-26.093],[-162.202,-26.574],[-162.34,-27.054],[-162.479,-27.534],[-162.619,-28.015],[-162.76,-28.494],[-162.903,-28.974],[-163.047,-29.454],[-163.192,-29.934],[-163.339,-30.413],[-163.487,-30.892],[-163.637,-31.371],[-163.788,-31.85],[-163.774,-32.31],[-163.76,-32.77],[-163.745,-33.23],[-163.73,-33.69],[-163.716,-34.15],[-163.701,-34.61]]}},{"type":"Feature","properties":{"boundary_type":"subduction","feature_type":"gpml:SubductionZone","polarity":"Right","overriding_plate_id":101,"subducting_plate_id":90107,"plate_ids":[101,90107],"name":"NorthChina_SZ"},"geometry":{"type":"LineString","coordinates":[[-82.563,22.643],[-82.285,22.431],[-82.009,22.218],[-81.731,21.819],[-81.454,21.42],[-81.179,21.02],[-80.906,20.62],[-80.634,20.219],[-80.363,19.818],[-80.094,19.416],[-79.826,19.014],[-79.761,18.546],[-79.695,18.077],[-79.63,17.609],[-79.566,17.14],[-79.501,16.671],[-79.437,16.203],[-79.374,15.734],[-79.31,15.266],[-79.247,14.797],[-79.184,14.328],[-79.421,13.924],[-79.656,13.52],[-79.891,13.116],[-80.124,12.711],[-80.357,12.306],[-80.59,11.901],[-80.822,11.496],[-81.053,11.09],[-81.283,10.685],[-81.513,10.279],[-81.742,9.873],[-81.97,9.467],[-82.199,9.06],[-82.539,8.716],[-82.878,8.372],[-83.217,8.028],[-83.555,7.683],[-83.893,7.338],[-84.23,6.992],[-84.567,6.647],[-84.903,6.301],[-85.239,5.955],[-85.575,5.608]]}},{"type":"Feature","properties":{"boundary_type":"subduction","feature_type":"gpml:SubductionZone","polarity":"Right","overriding_plate_id":101,"subducting_plate_id":80101,"plate_ids":[101,80101],"name":"SouthAustralia_SZ"},"geometry":{"type":"LineString","coordinates":[[-88.998,53.753],[-88.836,53.367],[-88.648,52.921],[-88.464,52.475],[-88.283,52.028],[-88.106,51.581],[-87.933,51.134],[-87.763,50.687],[-87.596,50.239],[-87.432,49.791],[-87.521,49.301],[-87.608,48.811],[-87.693,48.321],[-87.777,47.831],[-87.859,47.341],[-87.94,46.851],[-88.019,46.361],[-88.097,45.871],[-88.173,45.38],[-88.249,44.89],[-88.323,44.4],[-88.395,43.909],[-88.467,43.419]]}},{"type":"Feature","properties":{"boundary_type":"subduction","feature_type":"gpml:SubductionZone","polarity":"Left","overriding_plate_id":201,"subducting_plate_id":90106,"plate_ids":[201,90106],"name":"Amazonia_SZ"},"geometry":{"type":"LineString","coordinates":[[-163.471,23.984],[-163.992,23.939],[-164.513,23.893],[-165.033,23.844],[-165.55,23.689],[-166.066,23.532],[-166.581,23.374],[-167.095,23.213],[-167.607,23.051],[-168.119,22.887],[-168.629,22.722],[-169.137,22.555],[-169.645,22.387],[-170.151,22.217],[-170.656,22.045],[-171.16,21.872],[-171.662,21.697],[-172.164,21.521],[-172.664,21.343],[-173.163,21.164],[-173.661,20.983],[-174.157,20.801],[-174.652,20.617],[-175.146,20.432],[-175.639,20.246],[-176.131,20.058],[-176.622,19.869],[-177.111,19.679],[-177.599,19.487],[-178.086,19.294],[-178.572,19.1],[-179.057,18.904],[-179.541,18.707],[179.977,18.509],[179.496,18.31],[179.015,18.11],[178.536,17.908],[178.058,17.705],[177.581,17.501],[177.105,17.296],[176.63,17.09],[176.157,16.882],[175.684,16.674],[175.212,16.464],[174.741,16.254],[174.272,16.042],[173.803,15.829],[173.335,15.616],[172.869,15.401],[172.403,15.185],[171.938,14.969],[171.474,14.751],[171.011,14.533],[170.549,14.314],[170.088,14.093],[169.628,13.872],[169.169,13.65],[168.71,13.428],[168.252,13.204],[167.796,12.979],[167.34,12.754],[166.884,12.528],[166.43,12.301],[165.977,12.074],[165.524,11.846],[165.072,11.617],[164.62,11.387],[164.17,11.157],[163.72,10.926],[163.271,10.694],[162.822,10.462],[162.375,10.229],[161.927,9.995],[161.481,9.761],[161.035,9.526],[160.59,9.291],[160.145,9.055],[159.701,8.819],[159.258,8.582],[158.815,8.344],[158.372,8.106],[157.93,7.868],[157.489,7.629],[157.048,7.39],[156.608,7.15]]}},{"type":"Feature","properties":{"boundary_type":"subduction","feature_type":"gpml:SubductionZone","polarity":"Left","overriding_plate_id":201,"subducting_plate_id":90105,"plate_ids":[201,90105],"name":"Amazonia_SZ"},"geometry":{"type":"LineString","coordinates":[[156.608,7.15],[156.184,6.919],[155.762,6.688],[155.339,6.456],[154.917,6.224],[154.496,5.992],[154.075,5.759],[153.654,5.526],[153.233,5.293],[152.813,5.059],[152.393,4.825],[151.974,4.591],[151.554,4.357],[151.135,4.122],[150.716,3.887],[150.298,3.652],[149.879,3.417],[149.461,3.182],[149.043,2.946],[148.625,2.71],[148.208,2.474],[147.79,2.238],[147.468,1.858],[147.146,1.477],[146.824,1.096],[146.502,0.715],[146.181,0.334],[145.859,-0.047],[145.537,-0.428],[145.216,-0.809],[144.894,-1.189],[144.572,-1.57],[144.25,-1.951],[143.928,-2.332],[143.605,-2.712],[143.283,-3.093],[142.96,-3.473],[142.637,-3.854],[142.314,-4.234],[141.99,-4.614],[141.666,-4.994],[141.342,-5.374],[141.017,-5.753],[140.692,-6.133],[140.366,-6.512],[140.04,-6.891],[139.713,-7.27],[139.386,-7.649],[139.058,-8.027],[138.73,-8.405],[138.401,-8.783],[138.071,-9.16],[137.741,-9.538],[137.41,-9.914],[137.078,-10.291],[136.745,-10.667],[136.412,-11.043],[136.077,-11.419],[135.742,-11.794],[135.406,-12.169],[135.069,-12.543],[134.731,-12.917],[134.391,-13.29],[134.051,-13.663],[133.71,-14.036],[133.368,-14.408],[133.024,-14.78],[132.679,-15.151],[132.334,-15.521],[131.986,-15.891],[131.638,-16.261],[131.288,-16.63],[130.937,-16.998],[130.585,-17.366],[130.231,-17.733],[129.876,-18.099],[129.519,-18.465],[129.16,-18.83],[128.801,-19.194],[128.582,-19.648],[128.361,-20.1],[128.14,-20.553],[127.917,-21.005],[127.693,-21.458],[127.468,-21.909],[127.241,-22.361],[127.012,-22.812],[126.782,-23.263],[126.551,-23.713],[126.318,-24.163],[126.083,-24.613],[125.847,-25.063],[125.609,-25.512],[125.369,-25.96],[125.127,-26.408],[124.883,-26.856],[124.638,-27.304],[124.39,-27.751],[124.23,-28.207],[124.069,-28.664],[123.907,-29.12],[123.743,-29.576],[123.577,-30.032],[123.41,-30.488],[123.242,-30.943],[123.072,-31.398],[122.9,-31.854],[122.726,-32.308],[122.551,-32.763],[122.374,-33.217],[122.195,-33.671],[122.014,-34.125],[121.832,-34.578],[121.647,-35.032],[121.46,-35.485],[121.271,-35.937],[121.08,-36.39],[121.045,-36.879],[121.009,-37.369],[120.973,-37.858],[120.937,-38.347],[120.9,-38.837],[120.862,-39.326],[120.824,-39.815],[120.785,-40.305],[120.746,-40.794],[120.706,-41.284],[120.666,-41.773],[120.625,-42.262],[120.583,-42.751],[120.541,-43.241],[120.498,-43.73],[120.617,-44.198],[120.739,-44.666],[120.862,-45.134],[120.987,-45.602],[121.115,-46.069],[121.244,-46.537],[121.376,-47.004],[121.51,-47.471],[121.647,-47.938],[121.786,-48.405],[121.928,-48.871],[122.072,-49.338],[122.219,-49.804],[122.369,-50.27],[122.522,-50.736],[122.678,-51.202],[123.093,-51.619],[123.516,-52.035],[123.946,-52.45],[124.385,-52.862],[124.833,-53.274],[125.289,-53.683],[125.754,-54.091],[126.228,-54.497],[126.711,-54.901],[127.205,-55.303],[127.708,-55.703],[128.222,-56.101],[128.747,-56.496],[129.282,-56.89],[129.829,-57.281],[130.388,-57.67],[130.959,-58.056],[131.542,-58.439],[132.138,-58.82],[132.747,-59.198],[133.37,-59.574],[134.006,-59.946],[134.657,-60.315],[135.323,-60.681],[136.005,-61.043],[136.701,-61.402],[137.414,-61.757],[138.144,-62.108],[138.891,-62.456],[139.655,-62.799],[140.436,-63.138],[141.237,-63.473],[142.056,-63.803],[142.894,-64.129],[143.752,-64.449],[144.631,-64.765],[145.53,-65.075],[146.449,-65.38],[147.391,-65.678],[148.354,-65.971],[149.339,-66.258]]}},{"type":"Feature","properties":{"boundary_type":"subduction","feature_type":"gpml:SubductionZone","polarity":"Left","overriding_plate_id":101,"subducting_plate_id":90106,"plate_ids":[101,90106],"name":"Eastern_Laurentia_SZ"},"geometry":{"type":"LineString","coordinates":[[-162.596,75.393],[-163.514,75.108],[-164.192,74.668],[-164.834,74.226],[-165.442,73.783],[-166.018,73.337],[-166.565,72.891],[-167.085,72.443],[-167.579,71.993],[-168.051,71.543],[-168.229,71.079],[-168.399,70.616],[-168.561,70.153],[-168.717,69.689],[-168.865,69.225],[-169.008,68.761],[-169.144,68.297],[-169.276,67.833],[-169.402,67.369],[-169.523,66.905],[-169.64,66.441],[-169.752,65.976],[-169.861,65.512],[-169.957,65.018],[-170.049,64.525],[-170.139,64.032],[-170.225,63.539],[-170.308,63.045],[-170.389,62.552],[-170.467,62.058],[-170.542,61.565],[-170.615,61.071],[-170.686,60.577],[-170.755,60.084],[-170.821,59.59],[-170.9,59.129],[-170.977,58.668],[-171.051,58.207],[-171.124,57.745],[-171.194,57.284],[-171.263,56.823],[-171.331,56.362],[-171.397,55.9],[-171.461,55.439],[-171.524,54.977],[-171.585,54.516],[-171.454,54.039],[-171.325,53.563],[-171.2,53.087],[-171.077,52.61],[-170.957,52.133],[-170.84,51.656],[-170.725,51.179],[-170.612,50.702],[-170.502,50.225],[-170.394,49.747],[-170.288,49.27],[-170.06,48.804],[-169.837,48.337],[-169.617,47.87],[-169.402,47.403],[-169.19,46.935],[-168.982,46.466],[-168.778,45.998],[-168.577,45.529],[-168.38,45.059],[-168.185,44.59],[-167.994,44.12],[-167.806,43.649],[-167.62,43.179],[-167.438,42.708],[-167.23,42.245],[-167.024,41.783],[-166.822,41.32],[-166.623,40.856],[-166.426,40.392],[-166.232,39.928],[-166.041,39.464],[-165.852,38.999],[-165.666,38.534],[-165.482,38.069],[-165.3,37.603],[-165.121,37.137],[-164.944,36.671]]}},{"type":"Feature","properties":{"boundary_type":"subduction","feature_type":"gpml:SubductionZone","polarity":"Left","overriding_plate_id":101,"subducting_plate_id":90107,"plate_ids":[101,90107],"name":"South_NorthAustralia_SZ"},"geometry":{"type":"LineString","coordinates":[[-82.563,22.643],[-82.512,23.106],[-82.46,23.568],[-82.408,24.031],[-82.356,24.494],[-82.303,24.957],[-82.25,25.419],[-82.197,25.882],[-82.143,26.345],[-82.088,26.807],[-82.034,27.27],[-81.978,27.732],[-81.923,28.195]]}},{"type":"Feature","properties":{"boundary_type":"subduction","feature_type":"gpml:SubductionZone","polarity":"Left","overriding_plate_id":101,"subducting_plate_id":90106,"plate_ids":[101,90106],"name":"South_NorthAustralia_SZ"},"geometry":{"type":"LineString","coordinates":[[-81.923,28.195],[-81.863,28.69],[-81.802,29.185],[-81.74,29.68],[-81.679,30.175],[-81.616,30.67],[-81.553,31.165],[-81.489,31.66],[-81.424,32.155],[-81.359,32.649],[-81.293,33.144]]}},{"type":"Feature","properties":{"boundary_type":"subduction","feature_type":"gpml:SubductionZone","polarity":"Left","overriding_plate_id":101,"subducting_plate_id":80101,"plate_ids":[101,80101],"name":"South_NorthAustralia_SZ"},"geometry":{"type":"LineString","coordinates":[[-81.293,33.144],[-81.273,33.294],[-81.426,33.761],[-81.581,34.227],[-81.738,34.693],[-81.896,35.16],[-82.056,35.625],[-82.218,36.091],[-82.382,36.556],[-82.548,37.022],[-82.716,37.486],[-82.887,37.951],[-83.059,38.416],[-83.234,38.88],[-83.41,39.344],[-83.59,39.807],[-83.771,40.271],[-83.955,40.734],[-84.438,41.041],[-84.925,41.346],[-85.417,41.648],[-85.913,41.949],[-86.414,42.247],[-86.92,42.544],[-87.431,42.838],[-87.946,43.129],[-88.467,43.419]]}},{"type":"Feature","properties":{"boundary_type":"subduction","feature_type":"gpml:SubductionZone","polarity":"Left","overriding_plate_id":101,"subducting_plate_id":80101,"plate_ids":[101,80101],"name":"NorthwesternMawson_SZ"},"geometry":{"type":"LineString","coordinates":[[-88.998,53.753],[-88.516,54.15],[-88.024,54.545],[-87.523,54.937],[-87.012,55.328],[-86.49,55.717],[-85.913,56.087],[-85.324,56.454],[-84.723,56.818],[-84.111,57.179],[-83.487,57.537]]}},{"type":"Feature","properties":{"boundary_type":"subduction","feature_type":"gpml:SubductionZone","polarity":"Left","overriding_plate_id":101,"subducting_plate_id":90106,"plate_ids":[101,90106],"name":"NorthwesternMawson_SZ"},"geometry":{"type":"LineString","coordinates":[[-83.487,57.537],[-82.916,57.857],[-82.335,58.173],[-81.743,58.487],[-81.16,58.824],[-80.566,59.158],[-79.959,59.49],[-79.341,59.818],[-78.711,60.144],[-78.068,60.467],[-77.579,60.86],[-77.077,61.251],[-76.563,61.641],[-76.035,62.029],[-75.494,62.414],[-74.939,62.798],[-74.897,63.273],[-74.854,63.749],[-74.809,64.225],[-74.763,64.701],[-74.715,65.176],[-75.272,65.582],[-75.847,65.986],[-76.44,66.388],[-77.053,66.788],[-77.686,67.185],[-78.34,67.58],[-79.016,67.971],[-79.715,68.36],[-80.438,68.746],[-81.419,69.049],[-82.428,69.346],[-83.464,69.636],[-84.528,69.921],[-85.622,70.199],[-86.745,70.47],[-87.898,70.734],[-89.081,70.991],[-90.295,71.239],[-91.54,71.48],[-92.816,71.713],[-93.976,72.023],[-95.174,72.326],[-96.412,72.622],[-97.692,72.91],[-99.013,73.19],[-100.377,73.461],[-101.784,73.723],[-103.235,73.975],[-104.73,74.217],[-106.27,74.449],[-107.854,74.67],[-109.483,74.879],[-110.972,75.134],[-112.512,75.379],[-114.102,75.613],[-115.742,75.837],[-117.432,76.049],[-119.173,76.249],[-120.961,76.437],[-122.798,76.611],[-124.68,76.772],[-126.605,76.919],[-128.571,77.051],[-130.575,77.168],[-132.613,77.27],[-134.802,77.262],[-136.986,77.235],[-139.158,77.191],[-141.312,77.129],[-143.443,77.05],[-145.546,76.954],[-147.616,76.841],[-149.649,76.711],[-151.641,76.566],[-153.59,76.406],[-155.491,76.23],[-157.344,76.041],[-159.146,75.838],[-160.897,75.622],[-162.596,75.393]]}},{"type":"Feature","properties":{"boundary_type":"ridge","feature_type":"gpml:MidOceanRidge","polarity":null,"overriding_plate_id":null,"subducting_plate_id":null,"plate_ids":[101,77021],"name":"Azania-Congo ridge"},"geometry":{"type":"LineString","coordinates":[[-142.508,-71.392],[-141.952,-70.929],[-141.421,-70.465],[-140.913,-69.999],[-140.428,-69.532],[-139.963,-69.064],[-139.518,-68.595],[-139.092,-68.124],[-138.682,-67.652],[-138.289,-67.18],[-137.91,-66.706],[-137.546,-66.232],[-137.195,-65.756],[-136.857,-65.28],[-136.531,-64.804],[-136.217,-64.326],[-135.913,-63.848],[-135.619,-63.369],[-135.335,-62.89],[-135.06,-62.41],[-134.794,-61.93],[-134.536,-61.449],[-134.286,-60.967],[-134.043,-60.486],[-133.807,-60.003],[-133.578,-59.521],[-133.356,-59.038],[-133.14,-58.554],[-132.929,-58.07],[-132.725,-57.586],[-132.525,-57.102],[-132.331,-56.617],[-132.142,-56.132],[-131.957,-55.647],[-131.777,-55.161],[-131.602,-54.675],[-131.43,-54.189],[-131.263,-53.703],[-131.099,-53.216],[-130.939,-52.73],[-130.782,-52.243],[-130.629,-51.755],[-130.479,-51.268],[-130.333,-50.78],[-130.189,-50.293],[-129.426,-50.185],[-128.667,-50.072],[-127.912,-49.955],[-127.907,-49.459],[-127.902,-48.963],[-127.898,-48.467],[-127.894,-47.971],[-127.889,-47.475],[-127.885,-46.979],[-127.881,-46.483],[-127.877,-45.987],[-127.873,-45.491],[-127.869,-44.995],[-127.865,-44.499],[-127.861,-44.003],[-127.858,-43.507],[-127.854,-43.011],[-127.85,-42.515],[-127.847,-42.019],[-127.216,-41.956],[-126.587,-41.889],[-126.645,-41.415],[-126.701,-40.941],[-126.757,-40.468],[-126.812,-39.994],[-126.866,-39.52],[-126.92,-39.046],[-126.973,-38.572],[-127.025,-38.099],[-127.076,-37.625],[-127.127,-37.151],[-127.177,-36.677],[-127.227,-36.203],[-127.276,-35.729],[-127.695,-35.77],[-128.115,-35.81],[-128.536,-35.849],[-128.608,-35.369],[-128.679,-34.889],[-128.749,-34.409]]}},{"type":"Feature","properties":{"boundary_type":"subduction","feature_type":"gpml:SubductionZone","polarity":"Right","overriding_plate_id":101,"subducting_plate_id":90107,"plate_ids":[101,90107],"name":"SaoFrancisco_SZ"},"geometry":{"type":"LineString","coordinates":[[-74.707,-13.761],[-74.582,-14.243],[-74.456,-14.724],[-74.33,-15.205],[-74.203,-15.686],[-74.075,-16.167],[-73.947,-16.647],[-73.818,-17.128],[-73.741,-17.62],[-73.664,-18.112],[-73.586,-18.604],[-73.508,-19.095],[-73.43,-19.587],[-73.35,-20.079],[-73.271,-20.57],[-73.191,-21.062],[-73.11,-21.554],[-73.029,-22.045],[-72.947,-22.537],[-72.865,-23.028],[-72.782,-23.52],[-72.698,-24.011],[-72.614,-24.502],[-72.529,-24.994],[-72.443,-25.485],[-72.357,-25.976],[-72.27,-26.467],[-72.182,-26.958],[-72.094,-27.449],[-72.005,-27.94],[-71.915,-28.431],[-71.824,-28.922],[-71.649,-29.384],[-71.473,-29.846],[-71.296,-30.308],[-71.116,-30.769],[-70.935,-31.23],[-70.753,-31.691],[-70.568,-32.152],[-70.382,-32.612],[-70.193,-33.072],[-70.003,-33.532],[-69.811,-33.992],[-69.616,-34.451],[-69.419,-34.91],[-69.221,-35.368],[-69.02,-35.826],[-68.816,-36.284],[-68.61,-36.742],[-68.402,-37.199],[-68.189,-37.646],[-67.973,-38.092],[-67.755,-38.537],[-67.534,-38.982],[-67.31,-39.427],[-67.084,-39.871],[-66.854,-40.315],[-66.621,-40.759],[-66.386,-41.202],[-66.147,-41.644],[-65.904,-42.086],[-65.659,-42.527],[-65.41,-42.968],[-65.157,-43.409],[-64.9,-43.848],[-64.64,-44.288],[-64.376,-44.726],[-64.227,-45.206],[-64.076,-45.686],[-63.922,-46.165],[-63.765,-46.644],[-63.606,-47.123],[-63.444,-47.602],[-63.278,-48.08],[-63.11,-48.559],[-62.938,-49.037],[-62.763,-49.514],[-62.585,-49.992],[-62.403,-50.469],[-62.217,-50.946],[-62.028,-51.423],[-61.834,-51.899],[-61.636,-52.375],[-61.434,-52.85],[-61.228,-53.326],[-61.017,-53.801],[-60.801,-54.275],[-60.58,-54.749],[-60.354,-55.223],[-60.122,-55.696],[-59.885,-56.169],[-59.964,-56.666],[-60.046,-57.163],[-60.13,-57.66],[-60.216,-58.157],[-60.305,-58.654],[-60.396,-59.151],[-60.49,-59.647],[-60.587,-60.144],[-60.687,-60.641],[-60.79,-61.137],[-60.896,-61.634],[-61.005,-62.13],[-61.119,-62.626],[-61.236,-63.122],[-61.357,-63.618],[-61.482,-64.114],[-61.613,-64.61],[-61.747,-65.106],[-61.887,-65.601],[-62.033,-66.097],[-62.184,-66.592],[-62.342,-67.087],[-62.506,-67.582],[-62.677,-68.077],[-63.394,-68.5],[-64.139,-68.921],[-64.913,-69.338],[-65.717,-69.751],[-66.553,-70.16],[-67.422,-70.566],[-68.327,-70.967],[-69.27,-71.364],[-70.251,-71.755],[-71.274,-72.142],[-72.34,-72.523],[-73.452,-72.898],[-74.612,-73.266],[-75.822,-73.628],[-77.084,-73.983],[-78.402,-74.33],[-79.777,-74.669],[-81.212,-74.999],[-82.709,-75.319],[-84.256,-75.573],[-85.856,-75.817],[-87.51,-76.05],[-89.217,-76.271],[-90.978,-76.48],[-92.791,-76.677]]}},{"type":"Feature","properties":{"boundary_type":"subduction","feature_type":"gpml:SubductionZone","polarity":"Right","overriding_plate_id":101,"subducting_plate_id":90105,"plate_ids":[101,90105],"name":"SaoFrancisco_SZ"},"geometry":{"type":"LineString","coordinates":[[-92.791,-76.677],[-94.791,-76.872],[-96.847,-77.052],[-98.957,-77.215],[-101.119,-77.361],[-103.327,-77.49],[-105.576,-77.6],[-107.862,-77.691],[-110.178,-77.763],[-112.517,-77.815],[-114.873,-77.847],[-117.236,-77.86]]}},{"type":"Feature","properties":{"boundary_type":"subduction","feature_type":"gpml:SubductionZone","polarity":"Right","overriding_plate_id":101,"subducting_plate_id":90107,"plate_ids":[101,90107],"name":"Cathaysia_SZ"},"geometry":{"type":"LineString","coordinates":[[-85.575,5.608],[-85.45,5.154],[-85.326,4.699],[-85.201,4.244],[-85.077,3.789],[-84.953,3.334],[-84.829,2.88],[-84.705,2.425],[-84.582,1.97],[-84.458,1.515],[-84.334,1.06],[-84.211,0.605],[-84.087,0.15],[-83.964,-0.304],[-83.84,-0.759],[-83.717,-1.214],[-83.438,-1.629],[-83.159,-2.043],[-82.88,-2.458],[-82.601,-2.872],[-82.322,-3.287],[-82.043,-3.701],[-81.763,-4.115],[-81.483,-4.529],[-81.202,-4.943],[-80.922,-5.357],[-80.641,-5.771],[-80.359,-6.185],[-80.077,-6.598],[-79.795,-7.011],[-79.512,-7.424],[-79.217,-7.828],[-78.922,-8.231],[-78.627,-8.634],[-78.331,-9.036],[-78.034,-9.439],[-77.736,-9.841],[-77.438,-10.242],[-77.139,-10.644],[-76.839,-11.045],[-76.538,-11.446],[-76.237,-11.847],[-75.934,-12.247],[-75.631,-12.647],[-75.327,-13.047],[-75.022,-13.446],[-74.707,-13.761]]}},{"type":"Feature","properties":{"boundary_type":"ridge","feature_type":"gpml:MidOceanRidge","polarity":null,"overriding_plate_id":null,"subducting_plate_id":null,"plate_ids":[201,911001],"name":""},"geometry":{"type":"LineString","coordinates":[[-158.469,-2.141],[-158.968,-2.171],[-159.468,-2.201],[-159.967,-2.231],[-160.467,-2.261],[-160.966,-2.29],[-161.465,-2.319],[-161.965,-2.348],[-162.464,-2.377],[-162.964,-2.406],[-163.463,-2.434],[-163.963,-2.463],[-164.463,-2.491],[-164.962,-2.519],[-165.462,-2.547],[-165.961,-2.574],[-166.461,-2.602],[-166.961,-2.629],[-167.46,-2.656],[-167.96,-2.683],[-168.46,-2.709],[-168.96,-2.735],[-169.459,-2.762],[-169.959,-2.788],[-170.459,-2.813],[-170.959,-2.839],[-171.459,-2.864],[-171.959,-2.889],[-172.459,-2.914],[-172.959,-2.939],[-173.459,-2.963],[-173.959,-2.987],[-174.459,-3.011],[-174.959,-3.035],[-175.459,-3.059],[-175.959,-3.082],[-176.052,-3.573],[-176.145,-4.063],[-176.238,-4.554],[-176.331,-5.045],[-176.425,-5.536],[-176.518,-6.027],[-176.612,-6.517],[-176.706,-7.008],[-176.8,-7.499],[-176.895,-7.989],[-176.989,-8.48],[-177.084,-8.971],[-177.179,-9.461],[-177.274,-9.952],[-177.37,-10.442],[-177.466,-10.933],[-177.562,-11.423],[-177.659,-11.914],[-177.756,-12.404],[-177.853,-12.895],[-177.951,-13.385],[-178.049,-13.875],[-178.147,-14.366],[-178.246,-14.856],[-178.346,-15.346],[-177.875,-15.414],[-177.404,-15.481],[-176.933,-15.547],[-176.461,-15.612],[-175.989,-15.676],[-175.517,-15.739],[-175.045,-15.801],[-174.572,-15.862],[-174.099,-15.922],[-173.626,-15.981],[-173.727,-16.466],[-173.829,-16.95],[-173.931,-17.435],[-174.034,-17.919],[-174.137,-18.404],[-174.241,-18.888],[-174.346,-19.372],[-174.451,-19.857],[-174.557,-20.341],[-174.664,-20.825],[-174.771,-21.309],[-174.879,-21.793],[-174.988,-22.277],[-175.097,-22.761],[-175.207,-23.244],[-175.318,-23.728],[-175.43,-24.212],[-175.543,-24.695],[-175.656,-25.179],[-175.771,-25.662],[-175.886,-26.145],[-176.003,-26.628],[-176.12,-27.111],[-176.238,-27.594],[-176.358,-28.077],[-176.478,-28.56],[-176.6,-29.043],[-176.723,-29.525],[-176.847,-30.008],[-176.972,-30.49],[-177.098,-30.972],[-177.226,-31.454],[-177.355,-31.936],[-177.485,-32.418],[-177.617,-32.9],[-177.75,-33.381],[-177.885,-33.863],[-178.449,-33.744],[-179.011,-33.623],[-179.572,-33.5],[179.869,-33.374],[179.736,-33.861],[179.602,-34.348],[179.467,-34.835],[179.329,-35.322],[179.19,-35.809],[179.05,-36.296],[178.907,-36.782],[178.763,-37.268],[178.617,-37.754],[178.469,-38.24],[178.319,-38.726],[178.167,-39.211],[178.013,-39.697],[177.857,-40.182],[177.698,-40.667],[177.537,-41.151],[177.374,-41.636],[177.208,-42.12],[177.04,-42.604],[176.869,-43.088],[176.695,-43.571],[176.518,-44.055],[176.339,-44.537],[176.157,-45.02],[175.971,-45.502],[175.782,-45.985],[175.59,-46.466],[175.395,-46.948],[175.196,-47.429],[174.993,-47.909],[174.787,-48.39],[174.576,-48.87],[174.362,-49.349],[174.143,-49.828],[173.92,-50.307],[173.692,-50.786],[173.46,-51.263],[173.223,-51.741],[172.981,-52.218],[172.733,-52.694],[172.48,-53.17],[172.222,-53.645],[171.957,-54.12],[171.686,-54.594],[171.409,-55.068],[171.126,-55.541],[170.835,-56.013],[170.537,-56.484],[170.232,-56.955],[169.919,-57.425],[169.598,-57.895],[169.268,-58.363],[168.93,-58.83],[168.582,-59.297],[168.224,-59.763],[167.857,-60.227],[167.479,-60.691],[167.09,-61.154],[166.689,-61.615],[166.276,-62.075],[165.851,-62.534],[165.412,-62.992],[164.959,-63.448],[164.492,-63.903],[164.009,-64.356],[163.51,-64.807],[162.994,-65.257],[162.46,-65.705],[161.908,-66.151],[161.336,-66.595],[160.743,-67.037],[160.128,-67.476],[159.49,-67.913],[158.827,-68.348],[158.139,-68.78]]}},{"type":"Feature","properties":{"boundary_type":"subduction","feature_type":"gpml:SubductionZone","polarity":"Left","overriding_plate_id":77021,"subducting_plate_id":911001,"plate_ids":[77021,911001],"name":""},"geometry":{"type":"LineString","coordinates":[[-158.967,-35.194],[-159.004,-35.684],[-159.041,-36.174],[-159.079,-36.663],[-159.118,-37.153],[-159.157,-37.643],[-159.196,-38.133],[-159.236,-38.623],[-159.277,-39.113],[-159.318,-39.603],[-159.36,-40.092],[-159.402,-40.582],[-159.446,-41.072],[-159.412,-41.57],[-159.379,-42.068],[-159.345,-42.566],[-159.31,-43.064],[-159.275,-43.562],[-159.239,-44.059],[-159.203,-44.557],[-159.166,-45.055],[-159.128,-45.553],[-159.089,-46.051],[-159.05,-46.549],[-159.011,-47.046],[-158.97,-47.544],[-158.929,-48.042],[-158.887,-48.54],[-158.844,-49.037],[-158.8,-49.535],[-158.755,-50.033],[-158.709,-50.53],[-158.663,-51.028],[-158.615,-51.526],[-158.458,-52.011],[-158.297,-52.496],[-158.132,-52.981],[-157.964,-53.466],[-157.791,-53.951],[-157.615,-54.435],[-157.435,-54.919],[-157.25,-55.402],[-157.061,-55.886],[-156.866,-56.369],[-156.667,-56.852],[-156.334,-57.288],[-155.992,-57.724],[-155.642,-58.158],[-155.284,-58.592],[-154.916,-59.024],[-154.539,-59.456],[-154.153,-59.886],[-153.756,-60.315],[-153.349,-60.743],[-152.942,-61.184],[-152.524,-61.624],[-152.094,-62.062],[-151.651,-62.499],[-151.196,-62.935]]}},{"type":"Feature","properties":{"boundary_type":"transform","feature_type":"gpml:Transform","polarity":null,"overriding_plate_id":null,"subducting_plate_id":null,"plate_ids":[101,911001],"name":""},"geometry":{"type":"LineString","coordinates":[[-163.701,-34.61],[-163.113,-34.693],[-162.524,-34.773],[-161.933,-34.851],[-161.342,-34.925],[-160.75,-34.996],[-160.156,-35.065],[-159.562,-35.131],[-158.967,-35.194]]}},{"type":"Feature","properties":{"boundary_type":"transform","feature_type":"gpml:Transform","polarity":null,"overriding_plate_id":null,"subducting_plate_id":null,"plate_ids":[101,77021],"name":""},"geometry":{"type":"LineString","coordinates":[[-158.967,-35.194],[-158.366,-35.254],[-157.765,-35.311],[-157.163,-35.366],[-156.561,-35.417],[-155.957,-35.465],[-155.353,-35.511],[-154.749,-35.553],[-154.143,-35.592],[-153.537,-35.629],[-152.931,-35.662],[-152.324,-35.692],[-151.716,-35.719],[-151.109,-35.743],[-150.5,-35.764],[-149.892,-35.782],[-149.283,-35.797],[-148.674,-35.809],[-148.065,-35.818],[-147.456,-35.824],[-146.847,-35.826],[-146.238,-35.826],[-145.628,-35.822],[-145.019,-35.816],[-144.41,-35.806],[-143.801,-35.793],[-143.193,-35.777],[-142.584,-35.759],[-141.976,-35.737],[-141.369,-35.712],[-140.761,-35.684],[-140.155,-35.652],[-139.548,-35.618],[-138.942,-35.581],[-138.337,-35.541],[-137.733,-35.498],[-137.129,-35.451],[-136.524,-35.396],[-135.919,-35.338],[-135.316,-35.277],[-134.714,-35.213],[-134.112,-35.146],[-133.512,-35.075],[-132.912,-35.002],[-132.314,-34.926],[-131.717,-34.847],[-131.121,-34.765],[-130.526,-34.681],[-129.933,-34.593],[-129.34,-34.503],[-128.749,-34.409]]}},{"type":"Feature","properties":{"boundary_type":"subduction","feature_type":"gpml:SubductionZone","polarity":"Right","overriding_plate_id":101,"subducting_plate_id":90105,"plate_ids":[101,90105],"name":""},"geometry":{"type":"LineString","coordinates":[[-117.236,-77.86],[-119.272,-77.614],[-121.228,-77.355],[-123.105,-77.081],[-124.903,-76.795],[-126.625,-76.496],[-128.272,-76.187],[-129.848,-75.867],[-131.354,-75.537],[-132.793,-75.198],[-134.168,-74.85],[-135.483,-74.495],[-136.739,-74.132],[-137.94,-73.762],[-139.089,-73.385],[-139.835,-72.991],[-140.547,-72.595],[-141.23,-72.196],[-141.883,-71.795],[-142.508,-71.392]]}},{"type":"Feature","properties":{"boundary_type":"subduction","feature_type":"gpml:SubductionZone","polarity":"Right","overriding_plate_id":77021,"subducting_plate_id":90105,"plate_ids":[77021,90105],"name":""},"geometry":{"type":"LineString","coordinates":[[-142.508,-71.392],[-143.114,-70.983],[-143.694,-70.572],[-144.252,-70.16],[-144.787,-69.746],[-145.302,-69.33],[-145.798,-68.913],[-146.275,-68.494]]}},{"type":"Feature","properties":{"boundary_type":"subduction","feature_type":"gpml:SubductionZone","polarity":"Right","overriding_plate_id":77021,"subducting_plate_id":911001,"plate_ids":[77021,911001],"name":""},"geometry":{"type":"LineString","coordinates":[[-146.275,-68.494],[-146.774,-68.038],[-147.254,-67.579],[-147.715,-67.12],[-148.159,-66.659],[-148.587,-66.197],[-149.0,-65.734],[-149.398,-65.27],[-149.782,-64.805],[-150.154,-64.338],[-150.512,-63.871],[-150.86,-63.403],[-151.196,-62.935]]}},{"type":"Feature","properties":{"boundary_type":"subduction","feature_type":"gpml:SubductionZone","polarity":"Left","overriding_plate_id":101,"subducting_plate_id":201,"plate_ids":[101,201],"name":"Baltica_SZ"},"geometry":{"type":"LineString","coordinates":[[-163.035,18.567],[-162.798,18.16],[-162.563,17.752],[-162.328,17.343],[-162.094,16.934],[-161.861,16.526],[-161.63,16.116],[-161.399,15.707],[-161.16,15.3],[-160.922,14.893],[-160.685,14.486],[-160.449,14.078],[-160.214,13.67],[-159.98,13.262],[-159.746,12.854],[-159.514,12.446],[-159.281,12.037],[-159.05,11.628],[-158.935,11.177],[-158.82,10.726],[-158.705,10.274],[-158.591,9.823],[-158.477,9.372],[-158.364,8.92],[-158.25,8.469],[-158.137,8.017],[-158.024,7.566],[-158.073,7.109],[-158.121,6.653],[-158.17,6.197],[-158.218,5.741],[-158.266,5.284],[-158.314,4.828],[-158.363,4.372],[-158.411,3.915],[-158.459,3.459],[-158.507,3.003],[-158.554,2.546],[-158.602,2.09],[-158.588,1.62],[-158.573,1.15],[-158.558,0.68],[-158.543,0.209],[-158.528,-0.261],[-158.514,-0.731],[-158.499,-1.201],[-158.484,-1.671],[-158.469,-2.141]]}},{"type":"Feature","properties":{"boundary_type":"subduction","feature_type":"gpml:SubductionZone","polarity":"Left","overriding_plate_id":101,"subducting_plate_id":911001,"plate_ids":[101,911001],"name":"Baltica_SZ"},"geometry":{"type":"LineString","coordinates":[[-158.469,-2.141],[-158.455,-2.581],[-158.441,-3.021],[-158.427,-3.461],[-158.339,-3.908],[-158.251,-4.356],[-158.163,-4.803],[-158.075,-5.251],[-157.986,-5.698],[-157.897,-6.145],[-157.809,-6.593],[-157.72,-7.04],[-157.631,-7.488],[-157.541,-7.935],[-157.356,-8.342],[-157.171,-8.75],[-156.985,-9.157],[-156.799,-9.564],[-156.613,-9.971],[-156.426,-10.378]]}},{"type":"Feature","properties":{"boundary_type":"subduction","feature_type":"gpml:SubductionZone","polarity":"Right","overriding_plate_id":80101,"subducting_plate_id":90106,"plate_ids":[80101,90106],"name":""},"geometry":{"type":"LineString","coordinates":[[-31.169,55.228],[-31.109,55.011],[-31.004,54.557],[-30.901,54.103],[-30.801,53.649],[-30.703,53.195],[-30.606,52.74],[-30.512,52.286],[-30.42,51.832],[-30.329,51.377],[-30.371,50.89],[-30.412,50.402],[-30.453,49.914],[-30.492,49.426],[-30.531,48.938],[-30.569,48.451],[-30.606,47.963],[-30.643,47.475],[-30.679,46.987],[-30.992,46.591],[-31.301,46.193],[-31.605,45.795],[-31.905,45.396],[-32.201,44.997],[-32.492,44.597],[-32.78,44.195],[-33.064,43.794],[-33.344,43.391],[-33.62,42.988],[-34.008,42.588],[-34.391,42.187],[-34.769,41.785],[-35.143,41.382],[-35.512,40.977],[-35.876,40.572],[-36.236,40.165],[-36.592,39.757],[-36.943,39.348],[-37.291,38.938],[-37.739,38.587],[-38.184,38.235],[-38.624,37.881],[-39.059,37.525],[-39.491,37.168],[-39.919,36.81],[-40.342,36.45],[-40.762,36.088],[-41.27,35.835],[-41.775,35.579],[-42.276,35.322],[-42.774,35.062],[-43.269,34.8],[-43.761,34.536],[-44.25,34.271],[-44.736,34.003],[-45.219,33.734],[-45.653,33.575],[-46.085,33.414],[-46.515,33.252]]}},{"type":"Feature","properties":{"boundary_type":"transform","feature_type":"gpml:Transform","polarity":null,"overriding_plate_id":null,"subducting_plate_id":null,"plate_ids":[80101,90106],"name":""},"geometry":{"type":"LineString","coordinates":[[-83.487,57.537],[-82.603,57.688],[-81.711,57.832],[-80.812,57.971],[-79.907,58.102],[-78.995,58.228],[-78.077,58.346],[-77.152,58.458],[-76.222,58.564],[-75.287,58.662],[-74.346,58.754],[-73.401,58.839],[-72.451,58.917],[-71.497,58.988],[-70.539,59.052],[-69.578,59.109],[-68.614,59.159],[-67.648,59.201],[-66.679,59.237],[-65.708,59.265],[-64.736,59.286],[-63.763,59.299],[-62.789,59.306],[-61.815,59.305],[-60.842,59.297],[-59.869,59.282],[-58.897,59.259],[-57.927,59.229],[-56.958,59.192],[-55.992,59.148],[-55.029,59.097],[-54.069,59.038],[-53.112,58.973],[-52.159,58.9],[-51.21,58.82],[-50.265,58.734],[-49.326,58.64],[-48.392,58.54],[-47.463,58.433],[-46.54,58.32],[-45.623,58.2],[-44.713,58.073],[-43.809,57.94],[-42.912,57.8],[-42.022,57.654],[-41.139,57.502],[-40.264,57.344],[-39.396,57.18],[-38.536,57.01],[-37.684,56.834],[-36.841,56.652],[-36.005,56.465],[-35.178,56.272],[-34.359,56.074],[-33.549,55.87],[-32.747,55.661],[-31.954,55.447],[-31.169,55.228]]}},{"type":"Feature","properties":{"boundary_type":"transform","feature_type":"gpml:Transform","polarity":null,"overriding_plate_id":null,"subducting_plate_id":null,"plate_ids":[80101,90106],"name":""},"geometry":{"type":"LineString","coordinates":[[-81.293,33.144],[-80.705,33.229],[-80.116,33.311],[-79.526,33.39],[-78.934,33.467],[-78.342,33.54],[-77.749,33.611],[-77.154,33.679],[-76.559,33.744],[-75.963,33.806],[-75.366,33.866],[-74.768,33.922],[-74.17,33.976],[-73.571,34.026],[-72.971,34.074],[-72.37,34.119],[-71.769,34.161],[-71.167,34.2],[-70.565,34.236],[-69.962,34.269],[-69.358,34.299],[-68.755,34.327],[-68.151,34.351],[-67.546,34.372],[-66.941,34.39],[-66.337,34.406],[-65.731,34.418],[-65.126,34.427],[-64.521,34.434],[-63.915,34.437],[-63.31,34.438],[-62.704,34.435],[-62.099,34.429],[-61.493,34.421],[-60.888,34.409],[-60.283,34.395],[-59.679,34.377],[-59.074,34.357],[-58.47,34.334],[-57.866,34.307],[-57.263,34.278],[-56.66,34.246],[-56.057,34.21],[-55.455,34.172],[-54.854,34.131],[-54.253,34.087],[-53.653,34.04],[-53.053,33.99],[-52.455,33.937],[-51.857,33.882],[-51.259,33.823],[-50.663,33.761],[-50.068,33.697],[-49.473,33.63],[-48.88,33.56],[-48.287,33.487],[-47.695,33.412],[-47.105,33.333],[-46.515,33.252]]}},{"type":"Feature","properties":{"boundary_type":"subduction","feature_type":"gpml:SubductionZone","polarity":"Left","overriding_plate_id":201,"subducting_plate_id":90105,"plate_ids":[201,90105],"name":"Amazonia_SZ"},"geometry":{"type":"LineString","coordinates":[[149.339,-66.258],[150.086,-66.56],[150.851,-66.859],[151.635,-67.153],[152.438,-67.444],[153.261,-67.731],[154.104,-68.013],[155.087,-68.214],[156.088,-68.409],[157.105,-68.597],[158.139,-68.78]]}},{"type":"Feature","properties":{"boundary_type":"subduction","feature_type":"gpml:SubductionZone","polarity":"Left","overriding_plate_id":911001,"subducting_plate_id":90105,"plate_ids":[90105,911001],"name":"Amazonia_SZ"},"geometry":{"type":"LineString","coordinates":[[158.139,-68.78],[159.371,-68.985],[160.625,-69.181],[161.902,-69.368],[163.201,-69.546],[164.521,-69.714],[165.861,-69.871],[167.22,-70.019],[168.599,-70.155],[169.995,-70.281],[171.408,-70.397],[172.835,-70.501],[174.277,-70.594],[175.731,-70.675],[177.197,-70.744],[178.671,-70.802],[-179.847,-70.848],[-178.358,-70.883],[-176.866,-70.905],[-175.371,-70.915],[-173.875,-70.913],[-172.381,-70.899],[-170.89,-70.873],[-169.403,-70.835],[-167.923,-70.785],[-166.452,-70.723],[-164.99,-70.65],[-163.54,-70.565],[-162.102,-70.468],[-160.679,-70.36],[-159.272,-70.242],[-157.881,-70.112],[-156.509,-69.972],[-155.155,-69.821],[-153.822,-69.66],[-152.509,-69.489],[-151.217,-69.309],[-149.948,-69.119],[-148.7,-68.919],[-147.476,-68.711],[-146.275,-68.494]]}},{"type":"Feature","properties":{"boundary_type":"ridge","feature_type":"gpml:MidOceanRidge","polarity":null,"overriding_plate_id":null,"subducting_plate_id":null,"plate_ids":[90106,90107],"name":""},"geometry":{"type":"LineString","coordinates":[[-81.923,28.195],[-81.358,28.21],[-80.793,28.222],[-80.228,28.232],[-79.663,28.24],[-79.098,28.245],[-78.532,28.249],[-77.967,28.249],[-77.402,28.248],[-76.836,28.244],[-76.271,28.238],[-75.706,28.229],[-75.141,28.218],[-74.576,28.205],[-74.011,28.19],[-73.447,28.172],[-72.883,28.152],[-72.318,28.129],[-71.754,28.105],[-71.191,28.078],[-70.628,28.048],[-70.065,28.017],[-69.502,27.983],[-68.94,27.947],[-68.378,27.908],[-67.816,27.867],[-67.255,27.824],[-66.695,27.779],[-66.134,27.731],[-65.575,27.682],[-65.016,27.629],[-64.457,27.575],[-63.899,27.519],[-63.342,27.46],[-62.785,27.399],[-62.229,27.336],[-61.673,27.27],[-61.118,27.203],[-60.564,27.133],[-60.011,27.061],[-59.458,26.987],[-58.906,26.911],[-58.355,26.832],[-57.804,26.752],[-57.254,26.669],[-56.705,26.584],[-56.157,26.497],[-55.61,26.408],[-55.064,26.317],[-54.518,26.224],[-53.973,26.129],[-53.43,26.032],[-52.887,25.933],[-52.345,25.831],[-51.804,25.728],[-51.264,25.623],[-50.725,25.516],[-50.187,25.406],[-49.65,25.295],[-49.114,25.182],[-48.578,25.067],[-48.044,24.95],[-47.511,24.831],[-46.979,24.711],[-46.448,24.588],[-45.918,24.464],[-45.389,24.337],[-44.861,24.209],[-44.335,24.079],[-43.809,23.947],[-43.284,23.814],[-42.761,23.679],[-42.238,23.542],[-41.717,23.403],[-41.197,23.262],[-40.677,23.12],[-40.159,22.976],[-39.642,22.83],[-39.127,22.683],[-38.612,22.534],[-38.098,22.384],[-37.586,22.231],[-37.074,22.078],[-36.564,21.922],[-36.055,21.765],[-35.547,21.607],[-35.04,21.447],[-34.534,21.285],[-34.03,21.122],[-33.526,20.958],[-33.024,20.792],[-32.522,20.624],[-32.022,20.455],[-31.523,20.285],[-31.025,20.113],[-30.528,19.94],[-30.032,19.765],[-29.537,19.59],[-29.044,19.412],[-28.551,19.234],[-28.06,19.054],[-27.569,18.873],[-27.08,18.69],[-26.592,18.506],[-26.104,18.321],[-25.822,18.739],[-25.538,19.156],[-25.253,19.573],[-24.966,19.989],[-24.678,20.405],[-24.389,20.82],[-24.097,21.235],[-23.804,21.649],[-23.51,22.063],[-23.213,22.476],[-22.915,22.888],[-22.615,23.3],[-22.314,23.712],[-22.01,24.123],[-21.704,24.533],[-21.397,24.943],[-21.087,25.352],[-20.775,25.761],[-20.461,26.168],[-20.145,26.575],[-19.658,26.333],[-19.173,26.088],[-18.69,25.843],[-18.21,25.595],[-17.731,25.346],[-17.254,25.095],[-16.779,24.843],[-16.306,24.59],[-15.835,24.335],[-15.366,24.078],[-14.899,23.82],[-14.434,23.561],[-13.97,23.3],[-13.509,23.038],[-13.049,22.775],[-12.59,22.51],[-12.134,22.244],[-11.679,21.977],[-11.227,21.708],[-10.775,21.438],[-10.326,21.168],[-9.878,20.895],[-9.432,20.622],[-8.987,20.348],[-8.544,20.072],[-8.102,19.795],[-7.662,19.518],[-7.224,19.239],[-6.787,18.959],[-6.351,18.678],[-5.917,18.396],[-5.484,18.113],[-5.053,17.83],[-4.623,17.545],[-4.195,17.259],[-3.767,16.973],[-3.341,16.685],[-2.917,16.397],[-2.493,16.108],[-2.231,16.458],[-1.969,16.808],[-1.705,17.157],[-1.278,16.873],[-0.852,16.588],[-0.427,16.302],[-0.004,16.015],[0.418,15.728],[0.839,15.439],[1.259,15.15],[1.677,14.86],[2.094,14.569],[2.511,14.278],[2.926,13.986],[3.34,13.693],[3.753,13.399],[4.166,13.105],[4.577,12.81],[4.987,12.514],[5.396,12.218],[5.804,11.922],[6.212,11.624],[6.618,11.326],[7.024,11.028],[7.429,10.729],[7.833,10.429],[8.237,10.129],[8.639,9.829],[9.041,9.528],[9.442,9.226],[9.842,8.924],[10.242,8.622],[10.641,8.319],[11.04,8.016],[11.438,7.712],[11.835,7.408],[12.232,7.104],[12.628,6.8],[13.024,6.495],[13.419,6.189],[13.814,5.884],[14.209,5.578],[14.603,5.272],[14.996,4.966],[15.39,4.659],[15.782,4.352],[16.175,4.045],[16.567,3.738],[16.959,3.431],[17.351,3.123],[17.743,2.816],[18.134,2.508],[18.525,2.2],[18.916,1.892],[19.307,1.584],[19.698,1.276],[20.088,0.968],[20.479,0.66],[20.869,0.351],[21.26,0.043],[21.65,-0.265],[22.041,-0.574],[22.431,-0.882],[22.822,-1.19],[23.213,-1.498],[23.603,-1.806],[23.994,-2.114],[24.385,-2.422],[24.777,-2.73],[25.168,-3.038]]}},{"type":"Feature","properties":{"boundary_type":"ridge","feature_type":"gpml:MidOceanRidge","polarity":null,"overriding_plate_id":null,"subducting_plate_id":null,"plate_ids":[90105,90107],"name":""},"geometry":{"type":"LineString","coordinates":[[26.783,-2.601],[26.69,-3.085],[26.597,-3.569],[26.504,-4.053],[26.411,-4.537],[26.318,-5.021],[26.224,-5.505],[26.131,-5.989],[26.037,-6.473],[25.943,-6.958],[25.849,-7.442],[25.755,-7.926],[25.66,-8.41],[25.566,-8.894],[25.471,-9.378],[25.375,-9.861],[25.28,-10.345],[25.184,-10.829],[25.088,-11.313],[24.992,-11.797],[24.895,-12.281],[24.798,-12.764],[24.7,-13.248],[24.602,-13.732],[24.504,-14.215],[24.405,-14.699],[24.306,-15.183],[24.206,-15.666],[24.106,-16.15],[24.006,-16.633],[23.905,-17.116],[23.803,-17.6],[23.701,-18.083],[23.598,-18.566],[23.495,-19.049],[23.391,-19.532],[23.286,-20.015],[23.181,-20.498],[23.075,-20.981],[22.969,-21.464],[22.861,-21.947],[22.753,-22.43],[22.645,-22.912],[22.535,-23.395],[22.425,-23.877],[22.314,-24.36],[22.202,-24.842],[22.089,-25.324],[21.975,-25.806],[21.86,-26.288],[21.745,-26.77],[21.628,-27.252],[21.51,-27.734],[21.392,-28.216],[21.272,-28.697],[21.151,-29.179],[21.029,-29.66],[20.906,-30.141],[20.782,-30.623],[20.656,-31.104],[20.529,-31.584],[20.401,-32.065],[20.271,-32.546],[20.14,-33.026],[20.008,-33.507],[19.874,-33.987],[19.738,-34.467],[19.165,-34.368],[18.594,-34.265],[18.024,-34.161],[17.455,-34.053],[16.888,-33.943],[16.322,-33.831],[16.16,-34.307],[15.996,-34.783],[15.83,-35.258],[15.662,-35.734],[15.492,-36.209],[15.32,-36.684],[15.146,-37.159],[14.97,-37.633],[14.792,-38.107],[14.611,-38.581],[14.428,-39.055],[14.242,-39.528],[14.054,-40.001],[13.863,-40.474],[13.67,-40.946],[13.473,-41.419],[13.274,-41.89],[13.072,-42.362],[12.867,-42.833],[12.658,-43.303],[12.447,-43.774],[12.232,-44.244],[12.013,-44.713],[11.791,-45.182],[11.565,-45.651],[11.336,-46.119],[11.102,-46.587],[10.865,-47.054],[10.623,-47.521],[10.377,-47.987],[10.127,-48.452],[9.872,-48.917],[9.612,-49.382],[9.347,-49.846],[9.077,-50.309],[8.801,-50.772],[8.52,-51.234],[8.234,-51.695],[7.941,-52.156],[7.643,-52.616],[7.338,-53.075],[7.027,-53.533],[6.708,-53.991],[6.383,-54.447],[6.05,-54.903],[6.845,-55.072],[7.646,-55.235],[8.454,-55.393],[9.268,-55.545],[8.952,-56.008],[8.628,-56.47],[8.295,-56.932],[7.955,-57.392],[7.606,-57.851],[7.248,-58.31],[6.881,-58.767],[6.503,-59.223],[6.116,-59.679],[5.718,-60.133],[5.308,-60.586],[4.888,-61.037],[4.455,-61.487],[4.009,-61.936],[3.55,-62.383],[3.077,-62.829],[2.59,-63.273],[2.087,-63.715],[1.569,-64.156],[1.033,-64.595],[0.481,-65.031],[-0.09,-65.466],[-0.681,-65.898],[-1.291,-66.328],[-1.923,-66.756],[-2.577,-67.181],[-3.254,-67.603],[-3.956,-68.022],[-4.684,-68.438],[-5.439,-68.851],[-6.222,-69.26],[-7.035,-69.666],[-7.88,-70.068],[-8.758,-70.465],[-9.671,-70.859],[-10.621,-71.247],[-11.609,-71.631],[-12.637,-72.009],[-13.708,-72.381],[-14.823,-72.748],[-15.985,-73.108],[-17.195,-73.462],[-18.456,-73.808],[-19.77,-74.146],[-21.139,-74.476],[-22.565,-74.797],[-24.05,-75.109],[-25.597,-75.411],[-27.206,-75.703],[-28.88,-75.983],[-30.619,-76.251],[-32.424,-76.506],[-34.296,-76.749],[-36.234,-76.977],[-38.237,-77.19],[-40.305,-77.387],[-42.435,-77.568],[-44.624,-77.732],[-46.867,-77.879],[-49.162,-78.006],[-51.501,-78.115],[-53.879,-78.204],[-56.289,-78.273],[-58.723,-78.322],[-61.172,-78.35],[-63.629,-78.357],[-66.084,-78.343],[-68.53,-78.309],[-70.957,-78.254],[-73.358,-78.179],[-75.725,-78.084],[-78.051,-77.969],[-80.331,-77.836],[-82.559,-77.684],[-84.73,-77.515],[-86.841,-77.329],[-88.889,-77.127],[-90.873,-76.909],[-92.791,-76.677]]}},{"type":"Feature","properties":{"boundary_type":"ridge","feature_type":"gpml:MidOceanRidge","polarity":null,"overriding_plate_id":null,"subducting_plate_id":null,"plate_ids":[90106,90107],"name":""},"geometry":{"type":"LineString","coordinates":[[25.168,-3.038],[25.572,-2.929],[25.976,-2.819],[26.379,-2.71],[26.783,-2.601]]}},{"type":"Feature","properties":{"boundary_type":"ridge","feature_type":"gpml:MidOceanRidge","polarity":null,"overriding_plate_id":null,"subducting_plate_id":null,"plate_ids":[90105,90106],"name":""},"geometry":{"type":"LineString","coordinates":[[26.783,-2.601],[27.262,-2.47],[27.742,-2.339],[28.222,-2.209],[28.701,-2.078],[29.181,-1.947],[29.66,-1.816],[30.14,-1.684],[30.619,-1.553],[31.098,-1.421],[31.577,-1.29],[32.056,-1.158],[32.535,-1.026],[33.014,-0.894],[33.493,-0.762],[33.972,-0.63],[34.451,-0.498],[34.93,-0.366],[35.409,-0.234],[35.888,-0.102],[36.367,0.03],[36.846,0.162],[37.325,0.295],[37.804,0.427],[38.283,0.559],[38.762,0.691],[39.241,0.823],[39.72,0.955],[40.199,1.086],[40.678,1.218],[41.157,1.35],[41.636,1.482],[42.115,1.613],[42.595,1.744],[43.074,1.876],[43.553,2.007],[44.033,2.138],[44.513,2.269],[44.992,2.399],[45.472,2.53],[45.952,2.66],[46.432,2.79],[46.912,2.92],[47.392,3.05],[47.872,3.18],[48.353,3.309],[48.833,3.438],[49.314,3.567],[49.795,3.695],[50.276,3.824],[50.757,3.952],[51.238,4.08],[51.72,4.207],[52.201,4.334],[52.092,4.822],[51.983,5.309],[51.874,5.796],[51.764,6.283],[51.654,6.771],[51.544,7.258],[51.434,7.745],[51.324,8.232],[51.213,8.719],[51.102,9.206],[50.99,9.693],[50.879,10.18],[50.767,10.667],[50.654,11.154],[50.541,11.641],[50.428,12.128],[50.315,12.615],[50.201,13.102],[50.086,13.588],[50.585,13.69],[51.084,13.79],[51.584,13.89],[52.084,13.988],[52.584,14.085],[53.085,14.182],[53.586,14.277],[54.088,14.371],[54.59,14.464],[55.093,14.556],[55.596,14.647],[56.099,14.737],[56.603,14.826],[57.107,14.914],[57.612,15.001],[58.117,15.086],[58.622,15.171],[59.128,15.254],[59.634,15.336],[60.141,15.417],[60.648,15.497],[61.155,15.576],[61.663,15.653],[62.171,15.73],[62.68,15.805],[63.189,15.879],[63.698,15.952],[64.208,16.023],[64.718,16.094],[65.228,16.163],[65.739,16.231],[66.25,16.298],[66.761,16.363],[67.273,16.428],[67.785,16.491],[68.298,16.553],[68.81,16.613],[69.324,16.673],[69.837,16.731],[70.351,16.787],[70.865,16.843],[71.379,16.897],[71.894,16.95],[72.409,17.002],[72.924,17.052],[73.439,17.101],[73.955,17.149],[74.471,17.196],[74.987,17.241],[75.504,17.285],[76.02,17.327],[76.537,17.368],[77.054,17.408],[77.572,17.447],[78.089,17.484],[78.607,17.52],[79.125,17.554],[79.644,17.587],[80.162,17.619],[80.681,17.649],[81.199,17.679],[81.718,17.706],[82.237,17.733],[82.757,17.758],[83.276,17.781],[83.796,17.804],[84.315,17.824],[84.835,17.844],[85.355,17.862],[85.875,17.879],[86.395,17.894],[86.915,17.908],[87.435,17.921],[87.955,17.932],[88.476,17.942],[88.996,17.95],[89.517,17.958],[90.037,17.963],[90.558,17.968],[91.078,17.97],[91.599,17.972],[92.119,17.972],[92.64,17.971],[93.16,17.968],[93.681,17.964],[94.201,17.959],[94.722,17.952],[95.242,17.944],[95.763,17.934],[96.283,17.923],[96.803,17.911],[97.323,17.897],[97.844,17.882],[98.364,17.866],[98.883,17.848],[99.403,17.829],[99.923,17.808],[100.442,17.786],[100.962,17.763],[101.481,17.738],[102.0,17.712],[102.519,17.685],[103.038,17.656],[103.075,17.256],[103.112,16.857],[103.148,16.458],[103.185,16.058],[103.221,15.659],[103.738,15.633],[104.256,15.607],[104.773,15.579],[105.29,15.549],[105.807,15.519],[106.324,15.487],[106.84,15.455],[107.357,15.421],[107.873,15.385],[108.389,15.349],[108.905,15.312],[109.42,15.273],[109.936,15.233],[110.451,15.192],[110.966,15.15],[111.481,15.106],[111.996,15.062],[112.51,15.016],[113.024,14.969],[113.538,14.921],[114.052,14.872],[114.566,14.821],[115.079,14.77],[115.592,14.717],[116.105,14.663],[116.617,14.608],[117.13,14.553],[117.642,14.495],[118.153,14.437],[118.665,14.378],[119.176,14.317],[119.687,14.256],[120.197,14.193],[120.708,14.13],[121.218,14.065],[121.728,13.999],[122.237,13.932],[122.746,13.864],[123.255,13.795],[123.764,13.725],[124.272,13.654],[124.78,13.582],[125.288,13.509],[125.795,13.435],[126.302,13.36],[126.809,13.283],[127.315,13.206],[127.821,13.128],[128.327,13.049],[128.832,12.969],[129.337,12.888],[129.842,12.806],[130.347,12.722],[130.851,12.638],[131.354,12.554],[131.858,12.468],[132.361,12.381],[132.864,12.293],[133.366,12.204],[133.868,12.115],[134.37,12.024],[134.871,11.933],[135.372,11.841],[135.873,11.748],[136.374,11.654],[136.874,11.559],[137.373,11.463],[137.873,11.366],[138.372,11.269],[138.87,11.171],[139.369,11.072],[139.867,10.972],[140.364,10.871],[140.862,10.77],[141.359,10.667],[141.855,10.564],[142.352,10.46],[142.848,10.356],[143.343,10.25],[143.839,10.144],[144.334,10.037],[144.828,9.93],[145.323,9.822],[145.817,9.712],[146.31,9.603],[146.804,9.492],[147.297,9.381],[147.79,9.269],[148.282,9.157],[148.774,9.044],[149.266,8.93],[149.757,8.815],[150.249,8.7],[150.74,8.585],[151.23,8.468],[151.72,8.351],[152.21,8.234],[152.7,8.116],[153.19,7.997],[153.679,7.877],[154.167,7.758],[154.656,7.637],[155.144,7.516],[155.632,7.395],[156.12,7.273],[156.608,7.15]]}}]}