{"type":"FeatureCollection","meta":{"model":"Cao2024","reconstruction_time_ma":450.0,"anchor_plate_id":0,"pygplates_version":"1.0.0","tessellate_degrees":0.5,"polarity_convention":"gpml:subductionPolarity. 'Left'/'Right' names the side of the line, in vertex order, on which the OVERRIDING plate lies. Triangles are drawn on that side.","antimeridian":"Lines are NOT split at +/-180 deg. The renderer works in 3D unit vectors where the dateline is not special; splitting would only add spurious breaks. Do not treat this as RFC 7946 GIS-ready 2D data."},"features":[{"type":"Feature","properties":{"boundary_type":"subduction","feature_type":"gpml:SubductionZone","polarity":"Right","overriding_plate_id":580,"subducting_plate_id":902,"plate_ids":[580,902],"name":"Tarim transform"},"geometry":{"type":"LineString","coordinates":[[2.803,9.454],[3.283,9.491],[3.764,9.527],[4.244,9.563],[4.725,9.597],[5.206,9.632],[5.686,9.665],[6.167,9.698],[6.648,9.73],[7.129,9.762],[7.611,9.792],[8.092,9.823],[8.573,9.852],[9.055,9.881],[9.536,9.909],[10.018,9.936]]}},{"type":"Feature","properties":{"boundary_type":"subduction","feature_type":"gpml:SubductionZone","polarity":"Right","overriding_plate_id":580,"subducting_plate_id":926,"plate_ids":[580,926],"name":"Tarim transform"},"geometry":{"type":"LineString","coordinates":[[10.018,9.936],[10.518,9.964],[11.018,9.991],[11.518,10.017],[12.019,10.043],[12.519,10.067],[13.02,10.091],[13.52,10.115],[14.021,10.137],[14.507,10.117],[14.993,10.096],[15.479,10.074],[15.964,10.051],[16.45,10.028],[16.936,10.004],[17.421,9.979],[17.907,9.954],[18.392,9.928],[18.878,9.901],[19.363,9.874],[19.848,9.846],[20.333,9.817],[20.818,9.788],[21.303,9.757],[21.788,9.726],[22.273,9.695],[22.757,9.663],[23.242,9.63],[23.726,9.596],[24.211,9.562],[24.695,9.527],[25.119,9.388],[25.544,9.249],[25.968,9.109],[26.391,8.969],[26.814,8.829],[27.237,8.688],[27.66,8.546],[28.082,8.404]]}},{"type":"Feature","properties":{"boundary_type":"subduction","feature_type":"gpml:SubductionZone","polarity":"Right","overriding_plate_id":451,"subducting_plate_id":926,"plate_ids":[451,926],"name":"Tarim transform"},"geometry":{"type":"LineString","coordinates":[[28.082,8.404],[28.53,8.253],[28.977,8.101],[29.423,7.949],[29.87,7.797],[30.316,7.644],[30.761,7.49]]}},{"type":"Feature","properties":{"boundary_type":"subduction","feature_type":"gpml:SubductionZone","polarity":"Right","overriding_plate_id":456,"subducting_plate_id":926,"plate_ids":[456,926],"name":"Tarim transform"},"geometry":{"type":"LineString","coordinates":[[30.761,7.49],[31.209,7.336],[31.656,7.181],[32.102,7.025],[32.549,6.869],[33.004,6.77],[33.459,6.671],[33.914,6.571],[34.369,6.47],[34.824,6.37],[35.278,6.269]]}},{"type":"Feature","properties":{"boundary_type":"subduction","feature_type":"gpml:SubductionZone","polarity":"Right","overriding_plate_id":457,"subducting_plate_id":926,"plate_ids":[457,926],"name":"Tarim transform"},"geometry":{"type":"LineString","coordinates":[[35.278,6.269],[35.744,6.164],[36.21,6.06],[36.676,5.955],[37.141,5.85],[37.525,5.821],[37.909,5.791],[38.292,5.762],[38.675,5.732]]}},{"type":"Feature","properties":{"boundary_type":"subduction","feature_type":"gpml:SubductionZone","polarity":"Right","overriding_plate_id":580,"subducting_plate_id":926,"plate_ids":[580,926],"name":"Tarim transform"},"geometry":{"type":"LineString","coordinates":[[38.675,5.732],[39.129,5.697],[39.582,5.661],[40.035,5.625],[40.488,5.589],[40.942,5.552],[41.395,5.515],[41.848,5.477],[42.326,5.561],[42.805,5.645],[43.283,5.728],[43.762,5.811],[44.241,5.894],[44.721,5.976],[45.2,6.058],[45.679,6.139],[46.16,6.247],[46.64,6.354],[47.121,6.461],[47.602,6.568],[48.084,6.674],[48.565,6.779],[49.047,6.884],[49.529,6.989],[50.011,7.093]]}},{"type":"Feature","properties":{"boundary_type":"subduction","feature_type":"gpml:SubductionZone","polarity":"Right","overriding_plate_id":101,"subducting_plate_id":902,"plate_ids":[101,902],"name":"SZ outboard of Laurentia"},"geometry":{"type":"LineString","coordinates":[[-143.984,13.067],[-143.596,13.364],[-143.207,13.662],[-142.818,13.958],[-142.427,14.254],[-142.036,14.549],[-141.643,14.844],[-141.249,15.138],[-140.855,15.431],[-140.459,15.724],[-139.992,15.93],[-139.525,16.136],[-139.056,16.34],[-138.587,16.544],[-138.116,16.746],[-137.645,16.947],[-137.172,17.148],[-136.698,17.347],[-136.224,17.545],[-135.748,17.742],[-135.272,17.938],[-134.794,18.132],[-134.315,18.326],[-133.835,18.518],[-133.355,18.709],[-132.873,18.899],[-132.39,19.087],[-131.905,19.274],[-131.42,19.46],[-130.934,19.645],[-130.446,19.828],[-129.958,20.01],[-129.468,20.191],[-128.977,20.37],[-128.485,20.548],[-127.992,20.725],[-127.498,20.9],[-127.002,21.074],[-126.506,21.246],[-126.008,21.417],[-125.509,21.586],[-125.009,21.754],[-124.508,21.921],[-124.0,22.081],[-123.491,22.239],[-122.982,22.396],[-122.471,22.551],[-121.958,22.705],[-121.445,22.857],[-120.931,23.008],[-120.415,23.156],[-119.899,23.303],[-119.381,23.449],[-118.862,23.592],[-118.342,23.734],[-117.821,23.875],[-117.298,24.013],[-116.775,24.15],[-116.25,24.284],[-115.724,24.418],[-115.198,24.549],[-114.67,24.678],[-114.141,24.806],[-113.611,24.931],[-113.08,25.055],[-112.548,25.177],[-112.014,25.297],[-111.48,25.415],[-110.945,25.531],[-110.408,25.646],[-109.871,25.758],[-109.333,25.868],[-108.793,25.976],[-108.253,26.083],[-107.712,26.187],[-107.157,26.185],[-106.603,26.18],[-106.048,26.174],[-105.494,26.165],[-104.94,26.155],[-104.386,26.142],[-103.832,26.127],[-103.278,26.11],[-102.724,26.091],[-102.171,26.07],[-101.617,26.046],[-101.064,26.021],[-100.512,25.993],[-99.959,25.964],[-99.407,25.932],[-98.855,25.898],[-98.303,25.862],[-97.752,25.824],[-97.201,25.784],[-96.651,25.742],[-96.101,25.698],[-95.551,25.651],[-95.002,25.603],[-94.453,25.552],[-93.905,25.5],[-93.357,25.446],[-92.81,25.389],[-92.263,25.33],[-91.717,25.27],[-91.246,25.027],[-90.777,24.782],[-90.31,24.536],[-89.845,24.289],[-89.382,24.04],[-88.921,23.79],[-88.461,23.538],[-88.003,23.285],[-87.547,23.031],[-87.092,22.775],[-86.64,22.518],[-86.189,22.26],[-85.739,22.001],[-85.292,21.74],[-84.845,21.478],[-84.401,21.215],[-83.958,20.951],[-83.517,20.686],[-83.077,20.419],[-82.639,20.152],[-82.202,19.883],[-81.766,19.614],[-81.299,19.396],[-80.833,19.177],[-80.368,18.956],[-79.905,18.735],[-79.443,18.512],[-78.981,18.288],[-78.522,18.063],[-78.063,17.837],[-77.605,17.61],[-77.149,17.382],[-76.694,17.153],[-76.239,16.923],[-75.786,16.692],[-75.334,16.46],[-74.884,16.227],[-74.434,15.993],[-73.985,15.758],[-73.537,15.522],[-73.091,15.285],[-72.645,15.048]]}},{"type":"Feature","properties":{"boundary_type":"subduction","feature_type":"gpml:SubductionZone","polarity":"Right","overriding_plate_id":108,"subducting_plate_id":302,"plate_ids":[108,302],"name":"Popelogan-Victoria subduction zone"},"geometry":{"type":"LineString","coordinates":[[-90.774,-22.967],[-90.722,-23.011],[-90.326,-23.333],[-89.929,-23.654],[-89.53,-23.974],[-89.128,-24.293],[-88.725,-24.611],[-88.319,-24.927],[-87.912,-25.243],[-87.502,-25.557],[-87.09,-25.87],[-86.676,-26.183],[-86.279,-26.412],[-85.879,-26.641],[-85.478,-26.869],[-85.076,-27.095]]}},{"type":"Feature","properties":{"boundary_type":"subduction","feature_type":"gpml:SubductionZone","polarity":"Right","overriding_plate_id":315,"subducting_plate_id":302,"plate_ids":[302,315],"name":"East Avalonia subduction (Tornquist)"},"geometry":{"type":"LineString","coordinates":[[-76.366,-35.631],[-75.943,-35.575],[-75.451,-35.604],[-74.958,-35.63],[-74.465,-35.654],[-73.972,-35.676],[-73.478,-35.697],[-72.961,-35.941],[-72.441,-36.183],[-71.918,-36.422],[-71.391,-36.66],[-70.862,-36.895],[-70.329,-37.128],[-69.83,-37.297],[-69.329,-37.464],[-68.826,-37.629],[-68.32,-37.791],[-67.813,-37.952],[-67.3,-38.186],[-66.783,-38.418],[-66.264,-38.648],[-65.741,-38.876],[-65.214,-39.101],[-64.685,-39.324],[-64.096,-39.529],[-63.503,-39.731],[-62.907,-39.931],[-62.307,-40.127],[-61.704,-40.32],[-61.157,-40.526],[-60.608,-40.73],[-60.054,-40.931],[-59.498,-41.13],[-58.938,-41.326],[-58.409,-41.597],[-57.876,-41.866],[-57.338,-42.132],[-56.886,-42.423],[-56.43,-42.712],[-55.97,-42.999],[-55.505,-43.285],[-55.036,-43.568],[-54.683,-43.923],[-54.325,-44.276],[-53.963,-44.629],[-53.753,-45.009],[-53.54,-45.388],[-53.324,-45.768],[-53.297,-46.191],[-53.27,-46.614],[-53.232,-46.96],[-53.193,-47.306],[-53.154,-47.652],[-53.199,-48.144],[-53.244,-48.635],[-53.291,-49.126],[-53.338,-49.617],[-53.386,-50.109],[-53.436,-50.6],[-53.486,-51.091],[-53.538,-51.582],[-53.714,-52.007],[-53.894,-52.431],[-54.077,-52.854],[-54.264,-53.278],[-54.455,-53.701],[-54.649,-54.124],[-54.848,-54.546]]}},{"type":"Feature","properties":{"boundary_type":"subduction","feature_type":"gpml:SubductionZone","polarity":"Left","overriding_plate_id":185,"subducting_plate_id":108,"plate_ids":[108,185],"name":"Carolinia subduction"},"geometry":{"type":"LineString","coordinates":[[-125.848,-20.095],[-125.418,-20.222],[-124.988,-20.347],[-124.557,-20.471],[-124.125,-20.594],[-123.693,-20.716],[-123.259,-20.837],[-122.831,-21.042],[-122.401,-21.245],[-121.97,-21.448],[-121.538,-21.649],[-121.105,-21.849],[-120.67,-22.048],[-120.237,-22.198],[-119.802,-22.347],[-119.367,-22.495],[-118.93,-22.642],[-118.493,-22.787],[-118.055,-22.931],[-117.54,-22.981],[-117.024,-23.029],[-116.509,-23.076],[-115.993,-23.121],[-115.476,-23.164]]}},{"type":"Feature","properties":{"boundary_type":"subduction","feature_type":"gpml:SubductionZone","polarity":"Right","overriding_plate_id":902,"subducting_plate_id":302,"plate_ids":[302,902],"name":"Laurentian subduction zone"},"geometry":{"type":"LineString","coordinates":[[-63.858,22.059],[-64.132,21.841],[-64.406,21.623],[-64.678,21.404],[-65.09,21.117],[-65.501,20.83],[-65.91,20.541],[-66.317,20.252],[-66.723,19.961],[-67.127,19.67],[-67.53,19.377],[-67.932,19.084],[-68.332,18.79],[-68.73,18.495],[-69.128,18.199],[-69.524,17.903],[-69.918,17.605],[-70.312,17.307],[-70.704,17.008],[-71.094,16.709],[-71.484,16.408],[-71.872,16.107],[-72.131,15.754],[-72.388,15.401],[-72.645,15.048]]}},{"type":"Feature","properties":{"boundary_type":"subduction","feature_type":"gpml:SubductionZone","polarity":"Right","overriding_plate_id":101,"subducting_plate_id":302,"plate_ids":[101,302],"name":"Laurentian subduction zone"},"geometry":{"type":"LineString","coordinates":[[-72.645,15.048],[-72.91,14.681],[-73.174,14.315],[-73.437,13.948],[-73.699,13.581],[-73.96,13.214],[-74.221,12.846],[-74.481,12.478],[-74.74,12.11],[-74.998,11.741],[-75.046,11.28],[-75.095,10.819],[-75.143,10.358],[-75.19,9.897],[-75.238,9.436],[-75.286,8.975],[-75.333,8.514],[-75.381,8.053],[-75.428,7.592],[-75.475,7.131],[-75.39,6.64],[-75.306,6.148],[-75.221,5.656],[-75.137,5.165],[-75.053,4.673],[-75.054,4.245],[-75.055,3.817],[-75.056,3.388],[-75.058,2.96],[-75.059,2.532],[-75.06,2.104],[-75.127,1.684],[-75.193,1.264],[-75.259,0.844],[-75.326,0.423],[-75.392,0.003],[-75.458,-0.417],[-75.632,-0.872],[-75.806,-1.327],[-75.98,-1.782],[-76.154,-2.238],[-76.328,-2.635],[-76.503,-3.033],[-76.677,-3.43],[-76.851,-3.828],[-77.026,-4.225],[-77.201,-4.623],[-77.473,-4.974],[-77.746,-5.325],[-78.019,-5.676],[-78.293,-6.026],[-78.566,-6.377],[-78.75,-6.832],[-78.934,-7.288],[-79.118,-7.744],[-79.303,-8.199],[-79.488,-8.654],[-79.647,-9.049],[-79.806,-9.444],[-79.965,-9.839],[-80.124,-10.234],[-80.284,-10.629],[-80.445,-11.023],[-80.528,-11.476],[-80.611,-11.929],[-80.694,-12.383],[-80.777,-12.836],[-80.861,-13.289],[-80.945,-13.742],[-81.03,-14.195],[-81.114,-14.648],[-80.991,-15.096],[-80.867,-15.545],[-80.742,-15.993],[-80.616,-16.441],[-80.491,-16.89],[-80.364,-17.338],[-80.531,-17.728],[-80.699,-18.119],[-80.867,-18.509],[-81.037,-18.899],[-81.48,-19.134],[-81.924,-19.368],[-82.369,-19.6],[-82.816,-19.832],[-83.264,-20.063],[-83.628,-20.384],[-83.992,-20.704],[-84.359,-21.023],[-84.727,-21.342],[-85.096,-21.659],[-85.467,-21.976],[-85.868,-22.189],[-86.27,-22.401],[-86.673,-22.612],[-87.078,-22.822],[-87.483,-23.031],[-87.89,-23.238],[-88.335,-23.188],[-88.78,-23.137],[-89.224,-23.084],[-89.668,-23.031],[-90.037,-23.01],[-90.405,-22.989],[-90.774,-22.967]]}},{"type":"Feature","properties":{"boundary_type":"subduction","feature_type":"gpml:SubductionZone","polarity":"Right","overriding_plate_id":101,"subducting_plate_id":108,"plate_ids":[101,108],"name":"Laurentian subduction zone"},"geometry":{"type":"LineString","coordinates":[[-90.774,-22.967],[-91.226,-22.94],[-91.677,-22.91],[-92.129,-22.88],[-92.58,-22.848],[-93.03,-22.815],[-93.481,-22.78],[-93.987,-22.747],[-94.493,-22.711],[-94.998,-22.674],[-95.503,-22.635],[-96.008,-22.595],[-96.513,-22.677],[-97.018,-22.757],[-97.525,-22.836],[-98.031,-22.913],[-98.539,-22.989],[-99.046,-23.063],[-99.51,-22.93],[-99.972,-22.796],[-100.434,-22.661],[-100.894,-22.524],[-101.354,-22.386],[-101.812,-22.247],[-102.297,-22.234],[-102.782,-22.22],[-103.267,-22.204],[-103.751,-22.186],[-104.235,-22.168],[-104.739,-22.165],[-105.242,-22.162],[-105.745,-22.156],[-106.248,-22.149],[-106.751,-22.141],[-107.267,-22.12],[-107.783,-22.097],[-108.299,-22.072],[-108.814,-22.046],[-109.33,-22.019],[-109.845,-21.989],[-110.145,-21.995],[-110.446,-22.0]]}},{"type":"Feature","properties":{"boundary_type":"subduction","feature_type":"gpml:SubductionZone","polarity":"Right","overriding_plate_id":null,"subducting_plate_id":null,"plate_ids":[101],"name":"Laurentian subduction zone"},"geometry":{"type":"LineString","coordinates":[[-110.446,-22.0],[-110.945,-22.007],[-111.445,-22.013],[-111.944,-22.018],[-112.411,-21.97],[-112.877,-21.921],[-113.343,-21.87],[-113.809,-21.819],[-114.274,-21.766],[-114.68,-21.71],[-115.086,-21.653],[-115.492,-21.596],[-115.897,-21.537]]}},{"type":"Feature","properties":{"boundary_type":"subduction","feature_type":"gpml:SubductionZone","polarity":"Right","overriding_plate_id":701,"subducting_plate_id":926,"plate_ids":[701,926],"name":"SZ along eastern Gondwanaland"},"geometry":{"type":"LineString","coordinates":[[89.434,28.783],[89.921,29.001],[90.41,29.217],[90.901,29.431],[91.394,29.643],[91.889,29.854],[92.386,30.063],[92.885,30.27],[93.386,30.475],[93.89,30.678],[94.395,30.879],[94.903,31.078],[95.413,31.275],[95.924,31.47],[96.485,31.527],[97.046,31.582],[97.607,31.634],[98.169,31.684],[98.732,31.731],[99.296,31.776],[99.859,31.819],[100.424,31.859],[100.989,31.896],[101.554,31.931],[102.12,31.963],[102.686,31.993],[103.252,32.021],[103.819,32.046],[104.386,32.068],[104.953,32.088],[105.45,31.83],[105.943,31.571],[106.434,31.309],[106.922,31.046],[107.407,30.781],[107.89,30.514],[108.369,30.245],[108.847,29.975],[109.321,29.703],[109.794,29.429],[110.18,29.091],[110.564,28.751],[110.946,28.411],[111.325,28.069],[111.701,27.726],[112.076,27.383],[112.448,27.038],[112.817,26.693],[113.185,26.346],[113.55,25.998],[113.957,25.796],[114.362,25.592],[114.766,25.387],[115.169,25.181],[115.57,24.974],[115.97,24.765]]}},{"type":"Feature","properties":{"boundary_type":"subduction","feature_type":"gpml:SubductionZone","polarity":"Left","overriding_plate_id":701,"subducting_plate_id":919,"plate_ids":[701,919],"name":"New Zealand SZ (SE eastern Gondwanaland)"},"geometry":{"type":"LineString","coordinates":[[146.563,-2.278],[146.074,-2.242],[145.746,-1.902],[145.418,-1.562],[145.089,-1.222],[144.761,-0.882],[144.433,-0.541],[144.105,-0.201],[143.777,0.139],[143.449,0.479],[143.049,0.774],[142.649,1.068],[142.249,1.363],[141.849,1.657],[141.449,1.952],[141.048,2.246],[140.648,2.54],[140.247,2.834],[139.846,3.128],[139.525,3.481],[139.203,3.834],[138.882,4.187],[138.56,4.539],[138.237,4.892],[137.914,5.244],[137.591,5.596],[137.268,5.948],[136.944,6.3],[136.725,6.706],[136.505,7.112],[136.285,7.518],[136.064,7.924],[135.844,8.329],[135.622,8.735],[135.4,9.14],[135.178,9.545],[134.955,9.951],[134.732,10.356],[134.508,10.76],[134.209,11.138],[133.91,11.515],[133.61,11.892],[133.309,12.268],[133.007,12.644],[132.704,13.02],[132.4,13.395],[132.096,13.77],[131.79,14.145],[131.484,14.519],[131.176,14.893],[130.867,15.267],[130.557,15.64],[130.247,16.012],[130.027,16.229]]}},{"type":"Feature","properties":{"boundary_type":"subduction","feature_type":"gpml:SubductionZone","polarity":"Left","overriding_plate_id":701,"subducting_plate_id":926,"plate_ids":[701,926],"name":"New Zealand SZ (SE eastern Gondwanaland)"},"geometry":{"type":"LineString","coordinates":[[130.027,16.229],[129.685,16.564],[129.342,16.899],[128.998,17.233],[128.653,17.567],[128.306,17.9],[127.959,18.232],[127.609,18.564],[127.259,18.895],[126.907,19.226],[126.553,19.556],[126.198,19.885],[125.842,20.213],[125.552,20.553],[125.26,20.892],[124.966,21.231],[124.672,21.57],[124.376,21.907],[124.079,22.245],[123.78,22.581],[123.319,22.78],[122.858,22.978],[122.369,23.113],[121.88,23.247],[121.389,23.38],[120.898,23.511],[120.406,23.64],[119.913,23.768],[119.418,23.894],[118.923,24.019],[118.427,24.142],[117.93,24.264],[117.432,24.383],[116.933,24.502],[116.433,24.618],[115.97,24.765]]}},{"type":"Feature","properties":{"boundary_type":"subduction","feature_type":"gpml:SubductionZone","polarity":"Left","overriding_plate_id":701,"subducting_plate_id":919,"plate_ids":[701,919],"name":"West Gondwana (Panthalassa) subduction zone"},"geometry":{"type":"LineString","coordinates":[[159.133,-10.597],[158.754,-10.327],[158.375,-10.057],[157.997,-9.787],[157.619,-9.516],[157.242,-9.245],[156.866,-8.973],[156.49,-8.701],[156.115,-8.429],[155.637,-8.296],[155.16,-8.162],[154.683,-8.028],[154.206,-7.893],[153.73,-7.758],[153.254,-7.622],[152.778,-7.485],[152.302,-7.349],[151.827,-7.211],[151.352,-7.073],[150.878,-6.935],[150.404,-6.796],[149.929,-6.657],[149.456,-6.517],[148.982,-6.377],[148.509,-6.236],[148.036,-6.095],[147.872,-5.671],[147.707,-5.247],[147.543,-4.823],[147.38,-4.399],[147.216,-3.975],[147.053,-3.55],[146.89,-3.126],[146.726,-2.702],[146.563,-2.278]]}},{"type":"Feature","properties":{"boundary_type":"subduction","feature_type":"gpml:SubductionZone","polarity":"Left","overriding_plate_id":701,"subducting_plate_id":919,"plate_ids":[701,919],"name":"Famatina subduction zone"},"geometry":{"type":"LineString","coordinates":[[-162.58,-25.454],[-163.068,-25.41],[-163.555,-25.364],[-164.042,-25.317],[-164.529,-25.268],[-165.015,-25.218],[-165.528,-25.166],[-166.041,-25.113],[-166.553,-25.058],[-167.064,-25.001],[-167.575,-24.942],[-168.085,-24.882],[-168.595,-24.82],[-169.105,-24.756],[-169.614,-24.69],[-170.122,-24.623],[-170.54,-24.387],[-170.957,-24.15],[-171.372,-23.911],[-171.786,-23.672],[-172.198,-23.431],[-172.608,-23.189],[-173.017,-22.946],[-173.297,-22.579],[-173.576,-22.211],[-173.853,-21.843],[-174.129,-21.474],[-174.404,-21.105],[-174.677,-20.736],[-174.949,-20.366],[-175.219,-19.995],[-175.488,-19.624],[-175.733,-19.223],[-175.977,-18.821],[-176.22,-18.419],[-176.461,-18.016],[-176.702,-17.613],[-176.941,-17.21],[-177.179,-16.807],[-177.417,-16.403],[-177.653,-15.999],[-177.889,-15.595],[-178.123,-15.19],[-178.49,-14.871],[-178.855,-14.551],[-179.22,-14.231],[-179.584,-13.91],[-179.946,-13.588],[179.692,-13.266],[179.332,-12.944],[178.972,-12.621],[178.613,-12.297],[178.255,-11.973],[177.898,-11.649],[177.546,-11.386],[177.194,-11.124],[176.843,-10.861],[176.492,-10.597],[176.027,-10.53],[175.562,-10.462],[175.097,-10.393],[174.64,-10.424],[174.183,-10.454],[173.726,-10.483],[173.269,-10.512],[172.812,-10.54],[172.376,-10.604],[171.94,-10.668],[171.503,-10.732],[171.067,-10.794],[170.63,-10.857],[170.193,-10.918],[169.756,-10.979],[169.286,-10.919],[168.815,-10.858],[168.345,-10.797],[167.876,-10.735],[167.406,-10.673],[166.937,-10.609],[166.488,-10.544],[166.041,-10.479],[165.593,-10.413],[165.145,-10.346],[164.698,-10.278],[164.251,-10.21],[163.804,-10.142],[163.337,-10.19],[162.871,-10.238],[162.404,-10.285],[161.937,-10.332],[161.47,-10.378],[161.003,-10.423],[160.536,-10.467],[160.068,-10.511],[159.601,-10.554],[159.133,-10.597]]}},{"type":"Feature","properties":{"boundary_type":"subduction","feature_type":"gpml:SubductionZone","polarity":"Right","overriding_plate_id":457,"subducting_plate_id":580,"plate_ids":[457,580],"name":"Qilian Subduction Zone"},"geometry":{"type":"LineString","coordinates":[[43.135,-10.01],[42.856,-9.685],[42.578,-9.36],[42.377,-9.085],[42.176,-8.81],[41.976,-8.535],[41.655,-8.317],[41.335,-8.099],[41.015,-7.88],[40.696,-7.661]]}},{"type":"Feature","properties":{"boundary_type":"subduction","feature_type":"gpml:SubductionZone","polarity":"Right","overriding_plate_id":456,"subducting_plate_id":580,"plate_ids":[456,580],"name":"Qilian Subduction Zone"},"geometry":{"type":"LineString","coordinates":[[40.696,-7.661],[40.499,-7.527],[40.137,-7.29],[39.775,-7.053],[39.364,-6.786],[38.953,-6.518],[38.543,-6.25],[38.134,-5.982],[37.724,-5.713],[37.315,-5.444],[36.92,-5.206],[36.526,-4.967],[36.132,-4.729],[35.738,-4.49]]}},{"type":"Feature","properties":{"boundary_type":"subduction","feature_type":"gpml:SubductionZone","polarity":"Right","overriding_plate_id":457,"subducting_plate_id":580,"plate_ids":[457,580],"name":"West Kunlun SZ"},"geometry":{"type":"LineString","coordinates":[[47.065,-16.0],[46.855,-15.551],[46.645,-15.102],[46.436,-14.653],[46.228,-14.203],[46.02,-13.753],[45.814,-13.303],[45.608,-12.853],[45.479,-12.413],[45.351,-11.973],[45.174,-11.513],[44.998,-11.052],[44.736,-10.876],[44.475,-10.7],[44.028,-10.47],[43.581,-10.241],[43.135,-10.01]]}},{"type":"Feature","properties":{"boundary_type":"subduction","feature_type":"gpml:SubductionZone","polarity":"Left","overriding_plate_id":4100,"subducting_plate_id":902,"plate_ids":[902,4100],"name":"South Amuria subduction zone"},"geometry":{"type":"LineString","coordinates":[[-12.503,24.652],[-12.886,24.691],[-13.269,24.729],[-13.652,24.766],[-14.178,24.816],[-14.705,24.864],[-15.231,24.91],[-15.759,24.955],[-16.286,24.997],[-16.814,25.038],[-17.342,25.077],[-17.871,25.114],[-18.4,25.149],[-18.929,25.182],[-19.458,25.213],[-19.988,25.243],[-20.518,25.27],[-21.048,25.296],[-21.583,25.235],[-22.118,25.173],[-22.653,25.109],[-23.187,25.042],[-23.72,24.974],[-24.252,24.904],[-24.784,24.832],[-25.316,24.758],[-25.847,24.683],[-26.377,24.605],[-26.906,24.526],[-27.435,24.444],[-27.963,24.361],[-28.49,24.276],[-29.022,24.158],[-29.553,24.038],[-30.083,23.916],[-30.612,23.792],[-31.14,23.666],[-31.667,23.539],[-32.193,23.41],[-32.718,23.279],[-33.242,23.146],[-33.765,23.012],[-34.287,22.876],[-34.808,22.738],[-35.327,22.598],[-35.815,22.405],[-36.302,22.211],[-36.787,22.015],[-37.27,21.817],[-37.753,21.619],[-38.234,21.418],[-38.713,21.217],[-39.188,20.992],[-39.662,20.767],[-40.134,20.539],[-40.605,20.311],[-41.074,20.081],[-41.542,19.851],[-42.008,19.619],[-42.474,19.385],[-42.853,19.092],[-43.231,18.798],[-43.607,18.503],[-43.982,18.207],[-44.356,17.911],[-44.729,17.614],[-45.101,17.316],[-45.471,17.018]]}},{"type":"Feature","properties":{"boundary_type":"subduction","feature_type":"gpml:SubductionZone","polarity":"Left","overriding_plate_id":4100,"subducting_plate_id":302,"plate_ids":[302,4100],"name":"South Amuria subduction zone"},"geometry":{"type":"LineString","coordinates":[[-45.471,17.018],[-45.822,16.733],[-46.172,16.448],[-46.521,16.163],[-46.869,15.877],[-47.216,15.59]]}},{"type":"Feature","properties":{"boundary_type":"subduction","feature_type":"gpml:SubductionZone","polarity":"Left","overriding_plate_id":401,"subducting_plate_id":580,"plate_ids":[401,580],"name":"Southwest 'Greater Siberia' subduction zone"},"geometry":{"type":"LineString","coordinates":[[-1.195,-7.801],[-1.048,-7.353],[-0.901,-6.905],[-0.754,-6.457],[-0.607,-6.01],[-0.46,-5.562],[-0.314,-5.114],[-0.168,-4.666],[-0.022,-4.218],[0.124,-3.77],[0.293,-3.31],[0.463,-2.85],[0.632,-2.39],[0.801,-1.93],[0.97,-1.47],[1.139,-1.01],[1.308,-0.55],[1.477,-0.09],[1.646,0.37],[1.717,0.831],[1.787,1.293],[1.857,1.754],[1.927,2.215],[1.998,2.676],[2.068,3.138],[2.151,3.572],[2.233,4.006],[2.315,4.44],[2.398,4.874],[2.48,5.308],[2.563,5.742],[2.646,6.176],[2.668,6.644],[2.691,7.113],[2.713,7.581],[2.735,8.049],[2.758,8.518],[2.78,8.986],[2.803,9.454]]}},{"type":"Feature","properties":{"boundary_type":"subduction","feature_type":"gpml:SubductionZone","polarity":"Left","overriding_plate_id":401,"subducting_plate_id":902,"plate_ids":[401,902],"name":"Southwest 'Greater Siberia' subduction zone"},"geometry":{"type":"LineString","coordinates":[[2.803,9.454],[2.825,9.91],[2.847,10.367],[2.869,10.823],[2.715,11.261],[2.56,11.699],[2.404,12.137],[2.248,12.576],[2.091,13.014],[1.934,13.451],[1.776,13.889],[1.618,14.327],[1.459,14.765],[1.224,15.156],[0.988,15.546],[0.751,15.937],[0.513,16.327],[0.274,16.717],[0.034,17.107],[-0.207,17.496],[-0.449,17.885],[-0.692,18.274],[-0.936,18.663],[-1.302,18.988],[-1.669,19.313],[-2.038,19.638],[-2.409,19.961],[-2.781,20.284],[-3.154,20.606],[-3.529,20.927],[-3.906,21.248],[-4.284,21.567],[-4.702,21.762],[-5.121,21.956],[-5.542,22.149],[-5.963,22.341],[-6.386,22.532],[-6.81,22.722],[-7.235,22.91]]}},{"type":"Feature","properties":{"boundary_type":"subduction","feature_type":"gpml:SubductionZone","polarity":"Right","overriding_plate_id":580,"subducting_plate_id":926,"plate_ids":[580,926],"name":"Bainaimiao-Ondor Sum subduction zone"},"geometry":{"type":"LineString","coordinates":[[49.617,-3.553],[50.037,-3.475],[50.457,-3.397],[50.877,-3.319],[51.296,-3.24],[51.76,-3.246]]}},{"type":"Feature","properties":{"boundary_type":"subduction","feature_type":"gpml:SubductionZone","polarity":"Right","overriding_plate_id":601,"subducting_plate_id":926,"plate_ids":[601,926],"name":"Bainaimiao-Ondor Sum subduction zone"},"geometry":{"type":"LineString","coordinates":[[51.76,-3.246],[52.232,-3.252],[52.704,-3.258],[53.176,-3.264],[53.648,-3.269],[54.121,-3.274],[54.588,-3.257],[55.055,-3.24],[55.521,-3.223],[55.988,-3.205],[56.455,-3.187],[56.922,-3.169],[57.395,-3.146],[57.868,-3.122],[58.341,-3.099],[58.814,-3.075],[59.287,-3.051],[59.759,-3.026],[60.232,-3.002],[60.705,-2.977],[61.178,-2.952],[61.651,-2.927],[62.097,-2.849],[62.543,-2.771],[62.989,-2.693],[63.435,-2.615],[63.881,-2.537],[64.327,-2.458],[64.772,-2.38],[65.218,-2.301],[65.664,-2.222],[66.073,-2.005],[66.483,-1.787],[66.892,-1.57],[67.301,-1.353],[67.748,-1.324],[68.195,-1.295],[68.642,-1.267],[69.082,-1.258],[69.522,-1.25],[69.962,-1.241],[70.39,-1.373],[70.818,-1.506],[71.247,-1.638],[71.675,-1.77],[72.103,-1.903],[72.532,-2.035],[72.961,-2.167],[73.355,-2.115]]}},{"type":"Feature","properties":{"boundary_type":"subduction","feature_type":"gpml:SubductionZone","polarity":"Right","overriding_plate_id":401,"subducting_plate_id":580,"plate_ids":[401,580],"name":"Guberlya / Tagil subduction zone"},"geometry":{"type":"LineString","coordinates":[[-0.358,-11.804],[-0.808,-11.964],[-1.259,-12.122],[-1.71,-12.28],[-2.181,-12.446],[-2.653,-12.611],[-3.125,-12.775],[-3.597,-12.939],[-4.071,-13.101],[-4.545,-13.263],[-5.019,-13.423],[-5.495,-13.583],[-5.971,-13.742],[-6.447,-13.9],[-6.959,-13.954],[-7.471,-14.007],[-7.983,-14.059],[-8.495,-14.11],[-9.008,-14.159],[-9.521,-14.208],[-10.015,-14.203],[-10.509,-14.196],[-11.003,-14.189],[-11.497,-14.18],[-11.991,-14.171],[-12.485,-14.161],[-12.979,-14.149]]}},{"type":"Feature","properties":{"boundary_type":"subduction","feature_type":"gpml:SubductionZone","polarity":"Right","overriding_plate_id":401,"subducting_plate_id":302,"plate_ids":[302,401],"name":"Guberlya / Tagil subduction zone"},"geometry":{"type":"LineString","coordinates":[[-12.979,-14.149],[-13.399,-14.139],[-13.82,-14.127],[-14.328,-14.149],[-14.837,-14.17],[-15.346,-14.19],[-15.855,-14.209],[-16.364,-14.227],[-16.874,-14.244],[-17.383,-14.259],[-17.892,-14.274],[-18.402,-14.288],[-18.911,-14.3],[-19.421,-14.311],[-19.93,-14.321],[-20.404,-14.281],[-20.878,-14.24],[-21.351,-14.198],[-21.825,-14.155],[-22.298,-14.111],[-22.771,-14.066],[-23.244,-14.02],[-23.716,-13.973],[-24.189,-13.926],[-24.661,-13.877],[-25.133,-13.828],[-25.632,-13.731],[-26.131,-13.633],[-26.629,-13.534],[-27.127,-13.435],[-27.624,-13.334],[-28.121,-13.232],[-28.618,-13.13],[-29.114,-13.026],[-29.61,-12.922],[-30.105,-12.816],[-30.6,-12.71],[-31.082,-12.581],[-31.563,-12.452],[-32.044,-12.321],[-32.524,-12.19],[-33.004,-12.058],[-33.484,-11.925]]}},{"type":"Feature","properties":{"boundary_type":"subduction","feature_type":"gpml:SubductionZone","polarity":"Left","overriding_plate_id":457,"subducting_plate_id":456,"plate_ids":[456,457],"name":"Kunlun-Qaidam suture"},"geometry":{"type":"LineString","coordinates":[[35.278,6.269],[35.277,5.982],[35.275,5.696],[35.384,5.438],[35.492,5.18],[35.649,4.725],[35.806,4.271],[35.962,3.816],[36.118,3.361],[36.274,2.906],[36.43,2.452],[36.586,1.997],[36.742,1.542],[36.989,1.11],[37.236,0.678],[37.483,0.246],[37.729,-0.185],[38.042,-0.557],[38.355,-0.928],[38.668,-1.299],[38.981,-1.67],[39.294,-2.041],[39.608,-2.412],[39.743,-2.85],[39.879,-3.288],[40.015,-3.726],[40.151,-4.163],[40.287,-4.601],[40.423,-5.039],[40.56,-5.477],[40.697,-5.914],[40.834,-6.352],[40.788,-6.789],[40.742,-7.225],[40.696,-7.661]]}},{"type":"Feature","properties":{"boundary_type":"subduction","feature_type":"gpml:SubductionZone","polarity":"Left","overriding_plate_id":451,"subducting_plate_id":456,"plate_ids":[451,456],"name":"Alxa back arc closure"},"geometry":{"type":"LineString","coordinates":[[33.351,-4.712],[33.359,-4.347],[33.395,-3.905],[33.43,-3.463],[33.366,-3.078],[33.303,-2.693],[33.239,-2.308],[33.226,-1.83],[33.213,-1.351],[33.201,-0.872],[33.103,-0.416],[33.006,0.04],[32.909,0.497],[32.812,0.953],[32.598,1.376],[32.383,1.799],[32.169,2.222],[31.977,2.608],[31.785,2.994],[31.593,3.38],[31.401,3.766],[31.209,4.152],[31.017,4.539],[30.824,4.925],[30.814,5.352],[30.803,5.78],[30.793,6.207],[30.782,6.635],[30.772,7.063],[30.761,7.49]]}},{"type":"Feature","properties":{"boundary_type":"subduction","feature_type":"gpml:SubductionZone","polarity":"Left","overriding_plate_id":580,"subducting_plate_id":60112,"plate_ids":[580,60112],"name":"Qinling SZ"},"geometry":{"type":"LineString","coordinates":[[49.361,-13.142],[49.683,-13.232],[50.006,-13.322],[50.126,-13.302]]}},{"type":"Feature","properties":{"boundary_type":"subduction","feature_type":"gpml:SubductionZone","polarity":"Left","overriding_plate_id":601,"subducting_plate_id":60112,"plate_ids":[601,60112],"name":"Qinling SZ"},"geometry":{"type":"LineString","coordinates":[[50.126,-13.302],[50.534,-13.236]]}},{"type":"Feature","properties":{"boundary_type":"subduction","feature_type":"gpml:SubductionZone","polarity":"Left","overriding_plate_id":6013,"subducting_plate_id":60112,"plate_ids":[6013,60112],"name":"Qinling SZ"},"geometry":{"type":"LineString","coordinates":[[50.534,-13.236],[50.951,-13.167],[51.369,-13.097],[51.808,-13.116],[52.247,-13.133],[52.687,-13.15],[53.066,-13.309],[53.446,-13.466],[53.826,-13.623],[54.258,-13.713],[54.69,-13.803],[55.123,-13.891],[55.506,-14.164],[55.891,-14.435],[56.276,-14.706],[56.663,-14.977],[57.05,-15.246],[57.438,-15.515],[57.828,-15.784],[58.218,-16.076],[58.609,-16.368],[59.001,-16.659],[59.394,-16.949],[59.789,-17.238],[60.177,-17.313],[60.565,-17.387],[60.84,-17.584],[61.115,-17.78],[61.585,-17.949],[62.055,-18.116],[62.526,-18.283],[62.968,-18.42],[63.41,-18.556],[63.854,-18.691],[64.298,-18.825],[64.742,-18.958],[65.188,-19.09],[65.605,-19.135],[66.023,-19.178],[66.441,-19.221],[66.859,-19.263],[67.347,-19.365],[67.835,-19.465],[68.324,-19.564],[68.813,-19.662],[69.304,-19.74],[69.795,-19.816],[70.286,-19.892],[70.779,-19.966]]}},{"type":"Feature","properties":{"boundary_type":"subduction","feature_type":"gpml:SubductionZone","polarity":"Left","overriding_plate_id":601,"subducting_plate_id":60112,"plate_ids":[601,60112],"name":"Qinling SZ"},"geometry":{"type":"LineString","coordinates":[[70.779,-19.966],[71.122,-20.017],[71.465,-20.067],[71.883,-20.152],[72.3,-20.236],[72.718,-20.319]]}},{"type":"Feature","properties":{"boundary_type":"subduction","feature_type":"gpml:SubductionZone","polarity":"Left","overriding_plate_id":460,"subducting_plate_id":580,"plate_ids":[460,580],"name":"Central Tianshan Arc"},"geometry":{"type":"LineString","coordinates":[[-0.944,-14.991],[-0.514,-15.076],[-0.11,-15.315],[0.295,-15.553],[0.701,-15.79],[1.108,-16.027],[1.516,-16.263],[1.925,-16.498],[2.334,-16.732],[2.745,-16.965],[3.157,-17.198],[3.611,-17.407],[4.065,-17.614],[4.521,-17.821],[4.978,-18.027],[5.436,-18.231],[5.894,-18.435],[6.354,-18.637],[6.848,-18.694],[7.343,-18.749],[7.837,-18.804],[8.332,-18.856],[8.828,-18.908],[9.323,-18.958],[9.819,-19.007],[10.315,-19.054],[10.812,-19.101],[11.308,-19.146],[11.805,-19.189],[12.303,-19.231],[12.8,-19.272],[13.284,-19.22],[13.767,-19.167],[14.251,-19.113],[14.733,-19.057],[15.137,-18.821],[15.54,-18.585],[15.941,-18.347],[16.335,-18.059],[16.727,-17.77],[17.119,-17.48],[17.509,-17.189],[17.897,-16.898],[18.285,-16.606],[18.671,-16.313],[19.056,-16.02],[19.44,-15.726],[19.823,-15.431],[20.233,-15.176],[20.642,-14.921],[21.049,-14.665],[21.456,-14.408],[21.862,-14.151],[22.266,-13.893],[22.67,-13.634],[23.073,-13.374],[23.459,-13.07],[23.843,-12.765],[24.226,-12.46],[24.609,-12.154],[24.99,-11.847],[25.371,-11.54]]}},{"type":"Feature","properties":{"boundary_type":"subduction","feature_type":"gpml:SubductionZone","polarity":"Right","overriding_plate_id":601,"subducting_plate_id":601,"plate_ids":[601,601],"name":"Proto Japan"},"geometry":{"type":"LineString","coordinates":[[72.351,-2.33],[72.685,-2.256],[73.02,-2.182],[73.354,-2.109]]}},{"type":"Feature","properties":{"boundary_type":"subduction","feature_type":"gpml:SubductionZone","polarity":"Right","overriding_plate_id":601,"subducting_plate_id":926,"plate_ids":[601,926],"name":"Proto Japan"},"geometry":{"type":"LineString","coordinates":[[73.354,-2.109],[73.812,-2.007],[74.27,-1.906],[74.708,-1.873],[75.146,-1.84],[75.584,-1.808],[76.021,-1.775],[76.459,-1.742],[76.897,-1.708],[77.335,-1.675],[77.773,-1.642],[78.264,-1.666],[78.755,-1.69],[79.246,-1.715],[79.737,-1.739],[80.228,-1.762],[80.719,-1.786],[81.21,-1.81],[81.701,-1.833],[82.151,-1.904],[82.6,-1.974],[83.05,-2.045],[83.499,-2.115],[83.949,-2.185],[84.399,-2.255],[84.848,-2.325],[85.298,-2.394],[85.694,-2.487],[86.09,-2.58],[86.53,-2.778],[86.97,-2.975],[87.411,-3.172],[87.851,-3.369],[88.292,-3.566],[88.733,-3.762],[89.057,-3.977],[89.38,-4.192],[89.703,-4.406],[90.027,-4.621],[90.375,-4.87],[90.724,-5.118],[91.073,-5.367],[91.422,-5.615],[91.771,-5.863]]}},{"type":"Feature","properties":{"boundary_type":"subduction","feature_type":"gpml:SubductionZone","polarity":"Left","overriding_plate_id":580,"subducting_plate_id":451,"plate_ids":[451,580],"name":"Dunhuang-Hanshan subduction"},"geometry":{"type":"LineString","coordinates":[[30.933,-5.004],[30.909,-4.982],[30.615,-4.645],[30.321,-4.308],[30.027,-3.97],[29.733,-3.633],[29.481,-3.253],[29.228,-2.873],[28.949,-2.521],[28.67,-2.169],[28.453,-1.813],[28.236,-1.456],[28.02,-1.1],[27.803,-0.744],[27.586,-0.387],[27.487,0.012],[27.388,0.411],[27.288,0.81],[27.189,1.209],[27.221,1.636],[27.254,2.062],[27.286,2.489],[27.318,2.915],[27.36,3.389],[27.402,3.863],[27.444,4.337],[27.547,4.748],[27.651,5.159],[27.754,5.57],[27.858,5.981],[27.962,6.392],[27.986,6.795],[28.01,7.197],[28.034,7.599],[28.058,8.002],[28.082,8.404]]}},{"type":"Feature","properties":{"boundary_type":"subduction","feature_type":"gpml:SubductionZone","polarity":"Left","overriding_plate_id":457,"subducting_plate_id":580,"plate_ids":[457,580],"name":"Kunlun subduction zone"},"geometry":{"type":"LineString","coordinates":[[48.319,-14.768],[48.237,-14.322],[48.154,-13.876],[48.072,-13.43],[47.991,-12.984],[47.909,-12.538],[47.828,-12.092],[47.747,-11.646],[47.666,-11.2],[47.392,-10.806],[47.118,-10.411],[46.844,-10.016],[46.572,-9.621],[46.3,-9.226],[46.028,-8.831],[45.758,-8.435],[45.487,-8.039],[45.218,-7.643],[44.949,-7.247],[44.674,-6.851],[44.401,-6.455],[44.128,-6.059],[43.855,-5.662],[43.582,-5.265],[43.31,-4.869],[43.039,-4.472],[42.84,-4.026],[42.641,-3.581],[42.443,-3.135],[42.245,-2.689],[42.047,-2.244],[41.849,-1.798],[41.652,-1.352],[41.454,-0.906],[41.256,-0.461],[41.059,-0.015],[40.861,0.431],[40.664,0.877],[40.466,1.322],[40.268,1.768],[40.07,2.214],[39.872,2.66],[39.687,3.049],[39.501,3.438],[39.315,3.827],[39.188,4.208],[39.06,4.589],[38.932,4.97],[38.804,5.351],[38.675,5.732]]}},{"type":"Feature","properties":{"boundary_type":"subduction","feature_type":"gpml:SubductionZone","polarity":"Right","overriding_plate_id":6013,"subducting_plate_id":601,"plate_ids":[601,6013],"name":"Qinling SZ"},"geometry":{"type":"LineString","coordinates":[[51.335,-11.915],[51.832,-12.011],[52.33,-12.106],[52.828,-12.201],[53.326,-12.294],[53.825,-12.387],[54.232,-12.574],[54.639,-12.76],[55.047,-12.946],[55.456,-13.131],[55.865,-13.316],[56.275,-13.5],[56.628,-13.738],[56.982,-13.976],[57.337,-14.213],[57.693,-14.45],[58.05,-14.686],[58.407,-14.922],[58.863,-15.104],[59.319,-15.285],[59.777,-15.465],[60.235,-15.644],[60.615,-15.754],[60.995,-15.864],[61.375,-15.974],[61.756,-16.082],[62.059,-16.27],[62.364,-16.458],[62.776,-16.484],[63.189,-16.509],[63.601,-16.533],[64.014,-16.557],[64.497,-16.536],[64.979,-16.515],[65.461,-16.492],[65.962,-16.474],[66.463,-16.455],[66.964,-16.435],[67.464,-16.414],[67.965,-16.391],[68.406,-16.443],[68.848,-16.494],[69.29,-16.544],[69.731,-16.576],[70.173,-16.607],[70.615,-16.637],[71.057,-16.666],[71.499,-16.694],[71.941,-16.722],[72.201,-16.74]]}},{"type":"Feature","properties":{"boundary_type":"ridge","feature_type":"gpml:MidOceanRidge","polarity":null,"overriding_plate_id":null,"subducting_plate_id":null,"plate_ids":[101,701],"name":"Laurentia-Gondwana ridge"},"geometry":{"type":"LineString","coordinates":[[-133.927,-30.192],[-134.485,-30.098],[-135.043,-30.002],[-135.6,-29.904],[-136.156,-29.803],[-136.71,-29.7],[-137.263,-29.595],[-137.815,-29.487],[-138.366,-29.377],[-138.916,-29.265],[-139.465,-29.15],[-140.012,-29.033],[-140.558,-28.914],[-141.103,-28.793],[-140.956,-28.385],[-140.81,-27.976],[-141.317,-27.865],[-141.823,-27.753],[-142.328,-27.638],[-142.832,-27.522],[-143.335,-27.404],[-143.836,-27.285],[-144.337,-27.163],[-144.836,-27.04],[-145.335,-26.915],[-145.486,-27.311],[-145.639,-27.707],[-146.15,-27.588],[-146.66,-27.467],[-147.168,-27.345],[-147.676,-27.221],[-148.182,-27.095],[-148.687,-26.967],[-149.192,-26.837],[-149.694,-26.706],[-150.196,-26.572],[-150.697,-26.437],[-151.196,-26.301],[-151.694,-26.162],[-152.191,-26.022],[-152.027,-25.576],[-151.863,-25.129],[-152.337,-24.975],[-152.809,-24.82],[-153.28,-24.663],[-153.75,-24.504],[-154.219,-24.344],[-154.687,-24.183],[-155.153,-24.02],[-155.619,-23.856],[-156.083,-23.691],[-156.546,-23.524]]}},{"type":"Feature","properties":{"boundary_type":"ridge","feature_type":"gpml:MidOceanRidge","polarity":null,"overriding_plate_id":null,"subducting_plate_id":null,"plate_ids":[701,919],"name":"Laurentia-Gondwana ridge"},"geometry":{"type":"LineString","coordinates":[[-156.546,-23.524],[-157.002,-23.357],[-156.88,-23.032],[-156.76,-22.707],[-156.639,-22.382],[-157.07,-22.216],[-157.5,-22.048],[-157.929,-21.88],[-158.357,-21.711],[-158.784,-21.54]]}},{"type":"Feature","properties":{"boundary_type":"ridge","feature_type":"gpml:MidOceanRidge","polarity":null,"overriding_plate_id":null,"subducting_plate_id":null,"plate_ids":[902,919],"name":"Panthalassa"},"geometry":{"type":"LineString","coordinates":[[-177.5,69.921],[-178.716,69.659],[-179.902,69.389],[178.943,69.111],[177.816,68.825],[176.719,68.532],[175.65,68.232],[174.609,67.925],[173.596,67.612],[172.609,67.293],[171.648,66.968],[170.713,66.637],[169.803,66.301],[168.917,65.96],[168.055,65.614],[167.215,65.262],[166.397,64.907],[165.601,64.547],[164.826,64.183],[164.071,63.815],[163.336,63.443],[162.62,63.067],[161.922,62.688],[161.242,62.305],[160.578,61.92],[159.932,61.531],[159.301,61.139],[158.686,60.744],[158.086,60.347],[157.501,59.946],[156.93,59.544],[156.372,59.139]]}},{"type":"Feature","properties":{"boundary_type":"ridge","feature_type":"gpml:MidOceanRidge","polarity":null,"overriding_plate_id":null,"subducting_plate_id":null,"plate_ids":[919,926],"name":"Panthalassa"},"geometry":{"type":"LineString","coordinates":[[156.372,59.139],[155.822,58.728],[155.285,58.314],[154.761,57.899],[154.249,57.482],[153.749,57.062],[153.259,56.64],[152.781,56.217],[152.313,55.792],[151.855,55.365],[151.407,54.936],[150.968,54.506],[150.538,54.074],[150.118,53.641],[149.449,53.923],[148.772,54.201],[148.085,54.476],[147.389,54.747],[146.684,55.013],[145.969,55.275],[145.245,55.534],[144.91,55.072],[144.582,54.609],[144.261,54.145],[143.948,53.68],[143.642,53.215],[143.342,52.748],[143.048,52.281],[142.761,51.814],[142.479,51.345],[142.204,50.876],[141.933,50.407],[141.668,49.936],[141.408,49.465],[141.153,48.994],[140.903,48.522],[140.658,48.049],[140.417,47.576],[140.18,47.103],[139.948,46.629],[139.719,46.154],[139.494,45.679],[139.274,45.204],[139.056,44.728],[138.843,44.252],[138.633,43.776],[138.426,43.299],[138.222,42.821],[138.022,42.344],[137.824,41.866],[137.63,41.387],[137.438,40.908],[137.249,40.429],[137.063,39.95],[136.879,39.471],[136.698,38.991],[136.519,38.511],[136.343,38.03],[136.169,37.549],[135.997,37.069],[135.827,36.587],[135.66,36.106],[135.494,35.624],[135.331,35.142],[135.169,34.66],[135.009,34.178],[134.851,33.696],[134.695,33.213],[134.541,32.73],[134.388,32.247],[134.237,31.764],[134.087,31.28],[133.939,30.797],[133.792,30.313],[133.647,29.829],[133.504,29.345],[133.361,28.86],[133.22,28.376],[133.08,27.892],[132.942,27.407],[132.804,26.922],[132.668,26.437],[132.533,25.952],[132.399,25.467],[132.266,24.982],[132.135,24.496],[132.004,24.011],[131.874,23.525],[131.745,23.039],[131.617,22.553],[131.49,22.067],[131.364,21.581],[131.239,21.095],[131.115,20.609],[130.991,20.122],[130.868,19.636],[130.746,19.149],[130.624,18.663],[130.504,18.176],[130.383,17.689],[130.264,17.203],[130.145,16.716],[130.027,16.229]]}},{"type":"Feature","properties":{"boundary_type":"ridge","feature_type":"gpml:MidOceanRidge","polarity":null,"overriding_plate_id":null,"subducting_plate_id":null,"plate_ids":[902,926],"name":"Panthalassa"},"geometry":{"type":"LineString","coordinates":[[156.372,59.139],[155.744,59.51],[155.102,59.879],[154.446,60.245],[153.775,60.607],[153.089,60.966],[152.388,61.321],[151.67,61.673],[150.936,62.02],[150.185,62.364],[149.417,62.704],[148.631,63.039],[147.827,63.37],[147.005,63.696],[146.163,64.018],[145.302,64.334],[144.421,64.645],[143.519,64.951],[142.598,65.252],[141.655,65.546],[140.69,65.835],[139.705,66.117],[138.697,66.393],[137.667,66.662],[136.614,66.925],[135.539,67.18],[134.442,67.428],[133.321,67.669],[132.178,67.901],[131.012,68.125],[129.824,68.341],[128.613,68.549],[127.381,68.747],[126.126,68.937],[124.851,69.117],[123.555,69.287],[122.239,69.448],[120.903,69.598],[119.55,69.739],[118.179,69.868],[117.725,69.445],[117.29,69.021],[116.87,68.595],[116.467,68.168],[116.078,67.741],[115.703,67.312],[114.43,67.413],[113.147,67.503],[111.855,67.583],[110.555,67.653],[109.248,67.712],[107.935,67.76],[106.616,67.799],[105.294,67.826],[103.97,67.843],[102.644,67.849],[101.318,67.844],[99.994,67.829],[98.672,67.803],[97.353,67.766],[96.039,67.719],[94.731,67.661],[93.429,67.593],[92.136,67.514],[90.852,67.425],[89.578,67.326],[88.315,67.217],[87.064,67.099],[85.826,66.97],[84.601,66.832],[83.39,66.685],[82.195,66.528],[81.014,66.362],[79.849,66.188],[78.701,66.005],[77.57,65.814],[76.455,65.614],[75.358,65.406],[74.279,65.191],[73.217,64.967],[72.173,64.737],[71.147,64.499],[70.139,64.254],[69.149,64.003],[68.177,63.744],[67.222,63.48],[66.286,63.209],[65.367,62.932],[64.465,62.649],[63.58,62.361],[62.713,62.067],[61.862,61.767],[61.028,61.463],[60.21,61.153],[59.408,60.839],[58.622,60.52],[57.851,60.197],[57.096,59.869],[56.355,59.537],[55.629,59.2],[54.917,58.86],[54.219,58.516],[53.535,58.168],[52.864,57.817],[52.206,57.462],[51.56,57.104],[50.927,56.742],[50.307,56.378],[49.698,56.01],[49.1,55.64],[48.514,55.266],[47.939,54.89],[47.374,54.511],[46.82,54.13],[46.276,53.746],[45.742,53.359],[45.217,52.971],[44.702,52.58],[44.196,52.187],[43.699,51.791],[43.211,51.394],[42.731,50.995],[42.259,50.593],[41.795,50.19],[41.339,49.785],[40.891,49.378],[40.449,48.97],[40.016,48.56],[39.589,48.148],[39.169,47.735],[38.755,47.32],[38.348,46.904],[37.947,46.486],[37.553,46.067],[36.945,46.306],[36.333,46.541],[35.715,46.773],[35.092,47.001],[34.687,46.596],[34.287,46.19],[33.894,45.782],[33.507,45.373],[33.125,44.962],[32.748,44.551],[32.377,44.138],[32.011,43.724],[31.65,43.309],[31.294,42.892],[30.942,42.475],[30.596,42.057],[30.253,41.637],[29.916,41.217],[29.582,40.795],[29.253,40.373],[28.928,39.949],[28.607,39.525],[28.29,39.1],[27.976,38.674],[27.667,38.247],[27.361,37.82],[27.058,37.392],[26.759,36.962],[26.463,36.533],[26.171,36.102],[25.882,35.671],[25.596,35.239],[25.312,34.806],[25.032,34.373],[24.755,33.939],[24.481,33.504],[24.209,33.069],[23.94,32.634],[23.673,32.197],[23.409,31.76],[23.148,31.323],[22.889,30.885],[22.632,30.447],[22.378,30.008],[22.126,29.569],[21.876,29.129],[21.628,28.688],[21.383,28.248],[21.139,27.806],[20.897,27.365],[20.658,26.923],[20.42,26.48],[20.184,26.037],[19.949,25.594],[19.442,25.72],[18.934,25.843],[18.425,25.965],[17.915,26.085],[17.404,26.204],[17.177,25.756],[16.951,25.309],[16.727,24.86],[16.505,24.412],[16.284,23.963],[16.065,23.514],[15.847,23.065],[15.63,22.616],[15.416,22.166],[15.202,21.715],[14.99,21.265],[14.779,20.814],[14.569,20.363],[14.361,19.912],[14.153,19.461],[13.947,19.009],[13.742,18.557],[13.538,18.105],[13.336,17.653],[13.134,17.2],[12.933,16.747],[12.733,16.294],[12.534,15.841],[12.336,15.388],[12.139,14.934],[11.942,14.481],[11.747,14.027],[11.552,13.573],[11.358,13.119],[11.164,12.665],[10.972,12.21],[10.78,11.756],[10.588,11.301],[10.398,10.846],[10.207,10.391],[10.018,9.936]]}},{"type":"Feature","properties":{"boundary_type":"ridge","feature_type":"gpml:MidOceanRidge","polarity":null,"overriding_plate_id":null,"subducting_plate_id":null,"plate_ids":[601,701],"name":"South China-Gondwana MoR"},"geometry":{"type":"LineString","coordinates":[[99.114,-18.706],[98.723,-18.983],[98.33,-19.259],[97.936,-19.535],[97.541,-19.81],[97.144,-20.084],[97.306,-20.549],[97.47,-21.014],[97.042,-21.306],[96.614,-21.596],[96.183,-21.886],[95.751,-22.174],[95.316,-22.461],[94.88,-22.747],[95.062,-23.152],[95.245,-23.557],[94.866,-23.782],[94.487,-24.007],[94.106,-24.231],[93.724,-24.453],[93.34,-24.675],[93.515,-25.064],[93.691,-25.452],[93.28,-25.667],[92.867,-25.881],[92.452,-26.094],[92.036,-26.306],[91.619,-26.517],[91.2,-26.726],[90.779,-26.935],[90.936,-27.3],[91.095,-27.665],[91.254,-28.029],[91.414,-28.394],[90.953,-28.616],[90.489,-28.836],[90.024,-29.055],[89.556,-29.272],[89.087,-29.487],[88.615,-29.701],[88.141,-29.914],[87.666,-30.124],[87.188,-30.333],[86.709,-30.54],[86.227,-30.745],[85.744,-30.949],[85.258,-31.15],[84.986,-30.733],[84.716,-30.315],[84.449,-29.896],[84.184,-29.477],[83.921,-29.058],[83.66,-28.638],[83.402,-28.217],[83.145,-27.796],[82.89,-27.375],[82.638,-26.953],[82.387,-26.53],[82.138,-26.108],[81.891,-25.684],[81.645,-25.261],[81.402,-24.837],[80.94,-25.051],[80.476,-25.264],[80.011,-25.475],[79.544,-25.685],[79.075,-25.894],[78.605,-26.101],[78.133,-26.306],[77.66,-26.51],[77.185,-26.713],[77.302,-27.05],[77.419,-27.388],[76.972,-27.604],[76.523,-27.818],[76.072,-28.031],[75.62,-28.243]]}},{"type":"Feature","properties":{"boundary_type":"ridge","feature_type":"gpml:MidOceanRidge","polarity":null,"overriding_plate_id":null,"subducting_plate_id":null,"plate_ids":[701,60112],"name":"South China-Gondwana MoR"},"geometry":{"type":"LineString","coordinates":[[75.62,-28.243],[75.172,-28.451],[74.721,-28.657],[74.269,-28.861],[73.816,-29.064],[73.36,-29.266],[72.903,-29.466],[73.11,-29.854],[73.32,-30.241],[72.84,-30.466],[72.358,-30.689],[71.874,-30.91],[71.388,-31.129],[70.899,-31.346],[70.408,-31.562],[69.915,-31.775],[69.42,-31.987],[68.922,-32.197],[68.422,-32.405],[67.92,-32.61],[67.416,-32.814],[66.909,-33.016],[66.4,-33.216],[65.888,-33.413],[65.374,-33.609],[64.858,-33.802],[65.104,-34.103],[65.351,-34.403],[65.601,-34.702],[65.08,-34.918],[64.557,-35.131],[64.032,-35.342],[63.503,-35.551],[62.972,-35.758],[62.438,-35.962],[61.902,-36.164],[61.362,-36.363],[60.82,-36.56],[60.275,-36.754],[59.727,-36.946],[59.177,-37.136],[58.624,-37.322],[58.068,-37.507],[57.509,-37.688],[57.659,-37.966],[57.809,-38.243],[57.748,-38.249]]}},{"type":"Feature","properties":{"boundary_type":"ridge","feature_type":"gpml:MidOceanRidge","polarity":null,"overriding_plate_id":null,"subducting_plate_id":null,"plate_ids":[60112],"name":"South China-Gondwana MoR"},"geometry":{"type":"LineString","coordinates":[[57.748,-38.249],[57.421,-38.283],[57.093,-38.316]]}},{"type":"Feature","properties":{"boundary_type":"ridge","feature_type":"gpml:MidOceanRidge","polarity":null,"overriding_plate_id":null,"subducting_plate_id":null,"plate_ids":[302,701],"name":"Ran Ocean Ridge"},"geometry":{"type":"LineString","coordinates":[[-52.797,-65.382],[-51.678,-65.236],[-50.573,-65.082],[-49.48,-64.92],[-48.4,-64.75],[-47.335,-64.573],[-46.283,-64.388],[-45.246,-64.195],[-44.224,-63.995],[-43.216,-63.788],[-42.223,-63.574],[-41.245,-63.354],[-40.283,-63.127],[-39.335,-62.893],[-39.81,-62.504],[-40.273,-62.114],[-40.723,-61.722],[-41.163,-61.329],[-41.591,-60.934],[-40.774,-60.645],[-39.971,-60.352],[-39.182,-60.053],[-38.407,-59.75],[-37.647,-59.442],[-36.9,-59.13],[-36.167,-58.814],[-35.448,-58.493],[-34.741,-58.169],[-34.047,-57.841],[-33.366,-57.509],[-32.697,-57.174],[-32.041,-56.835],[-31.396,-56.492],[-30.762,-56.147],[-30.141,-55.798],[-29.53,-55.446],[-28.93,-55.091],[-28.34,-54.733],[-27.761,-54.373],[-27.192,-54.009],[-26.633,-53.644],[-26.084,-53.275],[-25.544,-52.904],[-25.013,-52.531],[-24.491,-52.155],[-23.978,-51.777],[-23.474,-51.397],[-22.978,-51.015],[-22.489,-50.63],[-22.009,-50.244],[-21.537,-49.855],[-20.814,-49.952],[-20.089,-50.044],[-19.361,-50.132],[-19.031,-49.682],[-18.708,-49.232],[-18.391,-48.78],[-18.08,-48.328],[-17.774,-47.875],[-17.473,-47.421],[-17.177,-46.966],[-16.886,-46.51],[-16.601,-46.054],[-16.32,-45.597],[-16.043,-45.139],[-15.771,-44.681],[-15.503,-44.222],[-15.239,-43.763],[-14.98,-43.302],[-14.724,-42.842],[-14.472,-42.38],[-14.223,-41.919],[-13.979,-41.456],[-13.737,-40.993]]}},{"type":"Feature","properties":{"boundary_type":"ridge","feature_type":"gpml:MidOceanRidge","polarity":null,"overriding_plate_id":null,"subducting_plate_id":null,"plate_ids":[302,315],"name":"West-East Avalonia Ridge"},"geometry":{"type":"LineString","coordinates":[[-77.673,-33.651],[-78.037,-33.942],[-78.403,-34.232],[-78.771,-34.521],[-79.142,-34.809],[-79.516,-35.095],[-79.164,-35.331],[-78.811,-35.566],[-78.456,-35.8],[-78.75,-36.1],[-79.047,-36.399],[-79.345,-36.697]]}},{"type":"Feature","properties":{"boundary_type":"ridge","feature_type":"gpml:MidOceanRidge","polarity":null,"overriding_plate_id":null,"subducting_plate_id":null,"plate_ids":[108,315],"name":"West-East Avalonia Ridge"},"geometry":{"type":"LineString","coordinates":[[-79.345,-36.697],[-79.604,-36.953],[-79.23,-37.238],[-78.854,-37.522],[-78.475,-37.805],[-78.796,-38.135],[-79.12,-38.465],[-79.446,-38.794],[-79.776,-39.121],[-80.109,-39.448]]}},{"type":"Feature","properties":{"boundary_type":"ridge","feature_type":"gpml:MidOceanRidge","polarity":null,"overriding_plate_id":null,"subducting_plate_id":null,"plate_ids":[401,902],"name":"Mongol-Okhotsk ridge"},"geometry":{"type":"LineString","coordinates":[[-7.235,22.91],[-7.606,22.627],[-7.977,22.343],[-8.345,22.059],[-8.712,21.773],[-9.078,21.487],[-9.443,21.2],[-9.806,20.912],[-10.013,21.093],[-10.221,21.273],[-10.548,21.016],[-10.874,20.758]]}},{"type":"Feature","properties":{"boundary_type":"ridge","feature_type":"gpml:MidOceanRidge","polarity":null,"overriding_plate_id":null,"subducting_plate_id":null,"plate_ids":[401,4100],"name":"Mongol-Okhotsk ridge"},"geometry":{"type":"LineString","coordinates":[[-10.874,20.758],[-11.213,20.488],[-11.551,20.217],[-11.888,19.945],[-12.223,19.673],[-12.577,20.043],[-12.931,20.412],[-13.311,20.146],[-13.69,19.88],[-14.067,19.612],[-14.444,19.344],[-14.819,19.075],[-15.192,18.806],[-15.515,19.139],[-15.839,19.471],[-16.187,19.203],[-16.533,18.934],[-16.878,18.665],[-17.152,19.002],[-17.428,19.339],[-17.82,19.022],[-18.21,18.703],[-18.6,18.383],[-18.92,18.731],[-19.243,19.078],[-19.594,18.868],[-19.945,18.657],[-20.294,18.446],[-20.462,18.677],[-20.629,18.908],[-20.99,18.667],[-21.35,18.427],[-21.709,18.185],[-22.067,17.943],[-22.424,17.7],[-22.617,17.97],[-22.811,18.239],[-23.236,17.962],[-23.661,17.683],[-24.083,17.404],[-24.505,17.124],[-24.661,17.367],[-24.817,17.61],[-25.215,17.367],[-25.612,17.123],[-26.007,16.877],[-26.401,16.631],[-26.648,17.032],[-26.896,17.433],[-27.32,17.195],[-27.743,16.957],[-28.164,16.717],[-28.584,16.477],[-29.004,16.236],[-29.206,16.592],[-29.409,16.948],[-29.843,16.709],[-30.275,16.47],[-30.706,16.23],[-31.137,15.99],[-31.566,15.748],[-31.994,15.505],[-32.245,15.855],[-32.496,16.203],[-32.92,15.947],[-33.343,15.691],[-33.766,15.433],[-34.187,15.174],[-34.607,14.915],[-35.026,14.655],[-35.445,14.394],[-35.862,14.133],[-36.278,13.871],[-36.694,13.608],[-36.997,13.983],[-37.302,14.359],[-37.607,14.733],[-38.027,14.462],[-38.445,14.189],[-38.863,13.916],[-39.279,13.642],[-39.694,13.367],[-40.109,13.092],[-40.523,12.816],[-40.935,12.539],[-41.347,12.262],[-41.758,11.984],[-41.944,12.402],[-42.131,12.821],[-42.318,13.239],[-42.739,12.995],[-43.159,12.751],[-43.578,12.505],[-43.996,12.259],[-44.414,12.012],[-44.83,11.765],[-45.246,11.517],[-45.661,11.268]]}},{"type":"Feature","properties":{"boundary_type":"ridge","feature_type":"gpml:MidOceanRidge","polarity":null,"overriding_plate_id":null,"subducting_plate_id":null,"plate_ids":[302,401],"name":"Mongol-Okhotsk ridge"},"geometry":{"type":"LineString","coordinates":[[-45.661,11.268],[-45.777,11.199]]}},{"type":"Feature","properties":{"boundary_type":"ridge","feature_type":"gpml:MidOceanRidge","polarity":null,"overriding_plate_id":null,"subducting_plate_id":null,"plate_ids":[580],"name":"South China-Kunlun MoR"},"geometry":{"type":"LineString","coordinates":[[57.261,-38.622],[57.093,-38.316]]}},{"type":"Feature","properties":{"boundary_type":"ridge","feature_type":"gpml:MidOceanRidge","polarity":null,"overriding_plate_id":null,"subducting_plate_id":null,"plate_ids":[580,60112],"name":"South China-Kunlun MoR"},"geometry":{"type":"LineString","coordinates":[[57.093,-38.316],[56.849,-37.865],[56.608,-37.413],[56.369,-36.962],[56.134,-36.509],[55.901,-36.056],[55.671,-35.603],[55.443,-35.15],[55.218,-34.696],[54.995,-34.241],[54.448,-34.35],[54.316,-33.877],[54.186,-33.405],[54.058,-32.932],[53.931,-32.459],[53.805,-31.986],[53.68,-31.513],[53.557,-31.039],[53.435,-30.566],[53.314,-30.092],[53.194,-29.619],[53.075,-29.145],[52.958,-28.671],[52.841,-28.197],[52.726,-27.723],[52.611,-27.249],[52.498,-26.774],[52.385,-26.3],[52.274,-25.826],[52.163,-25.351],[52.053,-24.877],[51.944,-24.402],[51.836,-23.927],[51.405,-23.988],[51.333,-23.503],[51.261,-23.017],[51.191,-22.532],[51.12,-22.046],[51.05,-21.561],[50.981,-21.075],[50.912,-20.59],[50.843,-20.104],[50.775,-19.618],[50.708,-19.133],[50.64,-18.647],[50.573,-18.161],[50.507,-17.675],[50.441,-17.19],[50.143,-17.21],[49.844,-17.229],[49.79,-16.775],[49.735,-16.321],[49.681,-15.867],[49.627,-15.413],[49.573,-14.959],[49.52,-14.504],[49.467,-14.05],[49.414,-13.596],[49.361,-13.142]]}},{"type":"Feature","properties":{"boundary_type":"ridge","feature_type":"gpml:MidOceanRidge","polarity":null,"overriding_plate_id":null,"subducting_plate_id":null,"plate_ids":[902,919],"name":"Panthalassa"},"geometry":{"type":"LineString","coordinates":[[-177.5,69.921],[-176.263,69.669],[-175.055,69.409],[-173.877,69.14],[-172.727,68.863],[-171.607,68.579],[-170.514,68.288],[-169.45,67.99],[-168.413,67.685],[-167.403,67.373],[-166.419,67.055],[-165.46,66.732],[-164.527,66.403],[-163.618,66.068],[-162.733,65.728],[-161.871,65.383],[-161.032,65.034],[-160.214,64.68],[-159.418,64.321],[-158.642,63.958],[-157.886,63.591],[-157.15,63.221],[-156.432,62.846],[-157.233,62.536],[-158.017,62.222],[-158.784,61.903],[-159.536,61.58],[-160.272,61.253],[-160.992,60.922],[-161.698,60.587],[-162.389,60.249],[-163.066,59.907],[-162.33,59.578],[-161.609,59.245],[-160.901,58.908],[-160.207,58.568],[-159.527,58.224],[-158.86,57.876],[-158.205,57.525],[-157.563,57.17],[-156.934,56.812],[-156.316,56.451],[-155.71,56.088],[-155.116,55.721],[-154.532,55.351],[-153.959,54.979],[-153.397,54.604],[-152.845,54.226],[-152.304,53.846],[-151.772,53.464],[-151.249,53.079],[-150.736,52.692],[-150.232,52.303],[-149.736,51.912],[-149.25,51.519],[-148.771,51.124],[-148.301,50.726],[-147.839,50.327],[-147.384,49.926],[-146.937,49.524],[-146.497,49.12],[-146.064,48.714],[-145.639,48.306],[-145.22,47.897],[-144.807,47.487],[-144.401,47.074],[-144.977,46.789],[-145.547,46.5],[-146.111,46.209],[-146.668,45.914],[-147.22,45.617],[-147.766,45.318],[-148.307,45.016],[-148.841,44.711],[-149.37,44.404],[-149.893,44.095],[-150.411,43.783],[-150.924,43.469],[-151.431,43.152],[-151.933,42.834],[-152.43,42.513],[-152.921,42.19],[-153.408,41.865],[-152.983,41.51],[-152.562,41.155],[-152.145,40.797],[-151.733,40.438],[-151.326,40.078],[-150.923,39.716],[-150.524,39.353],[-150.129,38.989],[-149.738,38.623],[-149.351,38.256],[-148.968,37.888],[-148.589,37.518],[-148.214,37.147],[-147.842,36.775],[-147.474,36.402],[-147.11,36.028],[-146.749,35.653],[-146.391,35.277],[-146.85,34.965],[-147.305,34.651],[-147.758,34.335],[-148.206,34.018],[-148.652,33.7],[-149.094,33.38],[-149.533,33.058],[-149.968,32.734],[-150.401,32.41],[-150.83,32.083],[-151.256,31.756],[-151.68,31.426],[-152.1,31.096],[-152.517,30.764],[-152.932,30.431],[-153.344,30.096],[-153.753,29.761],[-154.159,29.424],[-154.562,29.085],[-154.963,28.746],[-155.361,28.405],[-155.003,28.032],[-154.647,27.658],[-154.293,27.283],[-153.942,26.908],[-153.593,26.531],[-153.246,26.153],[-152.902,25.775],[-152.56,25.396],[-152.22,25.016],[-151.882,24.635],[-151.546,24.254],[-151.212,23.872],[-150.88,23.489],[-150.55,23.105],[-150.222,22.721],[-149.896,22.336],[-149.572,21.951],[-149.249,21.564],[-148.928,21.178],[-148.609,20.79],[-148.291,20.402],[-147.975,20.014],[-147.66,19.625],[-147.347,19.235],[-147.637,18.989],[-147.926,18.742],[-148.215,18.496],[-147.904,18.111],[-147.596,17.725],[-147.288,17.339],[-146.982,16.953],[-146.677,16.566],[-146.373,16.179],[-146.071,15.791],[-145.769,15.403],[-145.469,15.015],[-145.17,14.626],[-144.872,14.237],[-144.575,13.847],[-144.279,13.457],[-143.984,13.067]]}},{"type":"Feature","properties":{"boundary_type":"ridge","feature_type":"gpml:MidOceanRidge","polarity":null,"overriding_plate_id":null,"subducting_plate_id":null,"plate_ids":[101,919],"name":"Panthalassa"},"geometry":{"type":"LineString","coordinates":[[-143.984,13.067],[-143.729,12.728],[-143.474,12.39],[-143.221,12.051],[-142.968,11.712],[-142.715,11.372],[-143.078,11.17],[-143.44,10.968],[-143.802,10.765],[-143.524,10.37],[-143.246,9.976],[-142.969,9.581],[-142.693,9.185],[-142.417,8.79],[-142.142,8.394],[-141.868,7.998],[-141.594,7.602],[-141.32,7.206],[-141.047,6.81],[-140.775,6.414],[-140.503,6.017],[-140.231,5.62],[-139.959,5.223],[-139.688,4.826],[-139.418,4.429],[-139.147,4.032],[-138.877,3.635],[-138.607,3.237]]}},{"type":"Feature","properties":{"boundary_type":"ridge","feature_type":"gpml:MidOceanRidge","polarity":null,"overriding_plate_id":null,"subducting_plate_id":null,"plate_ids":[302,580],"name":"MoR"},"geometry":{"type":"LineString","coordinates":[[-14.305,-40.848],[-13.737,-40.993]]}},{"type":"Feature","properties":{"boundary_type":"ridge","feature_type":"gpml:MidOceanRidge","polarity":null,"overriding_plate_id":null,"subducting_plate_id":null,"plate_ids":[580,701],"name":"MoR"},"geometry":{"type":"LineString","coordinates":[[-13.737,-40.993],[-13.111,-41.15],[-12.482,-41.303],[-11.85,-41.453],[-11.215,-41.599],[-10.577,-41.742],[-9.936,-41.881],[-9.293,-42.016],[-8.646,-42.148],[-7.997,-42.277],[-7.346,-42.401],[-6.692,-42.522],[-6.035,-42.639],[-5.377,-42.753],[-4.715,-42.862],[-4.052,-42.968],[-3.386,-43.07],[-2.718,-43.168],[-2.047,-43.263],[-1.375,-43.353],[-0.701,-43.439],[-0.025,-43.522],[0.653,-43.6],[1.332,-43.674],[2.014,-43.745],[2.696,-43.811],[3.381,-43.873],[4.066,-43.931],[4.753,-43.985],[5.441,-44.035],[6.13,-44.081],[6.821,-44.123],[7.512,-44.16],[7.484,-44.573],[7.456,-44.986],[7.428,-45.399],[7.399,-45.811],[8.098,-45.825],[8.797,-45.835],[9.496,-45.84],[10.195,-45.841],[10.894,-45.838],[11.593,-45.831],[12.292,-45.819],[12.991,-45.803],[13.689,-45.783],[14.386,-45.758],[15.083,-45.729],[15.779,-45.696],[16.474,-45.659],[17.168,-45.618],[17.862,-45.572],[18.553,-45.522],[19.244,-45.469],[19.933,-45.41],[20.621,-45.348],[21.307,-45.282],[21.992,-45.211],[22.675,-45.137],[23.356,-45.058],[24.035,-44.976],[24.712,-44.889],[25.387,-44.798],[26.06,-44.704],[26.731,-44.605],[27.399,-44.503],[28.065,-44.397],[28.728,-44.286],[29.389,-44.172],[30.048,-44.055],[30.703,-43.933],[31.356,-43.808],[32.006,-43.679],[32.654,-43.546],[33.298,-43.41],[33.59,-43.857],[33.886,-44.304],[34.187,-44.749],[34.492,-45.194],[34.802,-45.639],[35.117,-46.082],[35.763,-45.904],[36.404,-45.723],[37.041,-45.537],[37.675,-45.349],[38.303,-45.157],[38.928,-44.961],[39.548,-44.762],[40.164,-44.56],[40.776,-44.355],[41.383,-44.146],[41.986,-43.934],[42.585,-43.719],[43.179,-43.501],[43.77,-43.279],[44.355,-43.055],[44.937,-42.828],[45.514,-42.598],[46.087,-42.365],[46.656,-42.129],[47.22,-41.89],[47.78,-41.649],[48.336,-41.405],[48.888,-41.158],[49.436,-40.909],[49.87,-41.232],[50.309,-41.554],[50.753,-41.874],[51.2,-42.192],[51.652,-42.509],[52.145,-42.196],[52.633,-41.88],[53.117,-41.563],[53.595,-41.244],[54.069,-40.922],[54.538,-40.599],[55.003,-40.274],[55.463,-39.947],[55.919,-39.618],[56.371,-39.288],[56.818,-38.956],[57.261,-38.622]]}},{"type":"Feature","properties":{"boundary_type":"ridge","feature_type":"gpml:MidOceanRidge","polarity":null,"overriding_plate_id":null,"subducting_plate_id":null,"plate_ids":[701],"name":"MoR"},"geometry":{"type":"LineString","coordinates":[[57.261,-38.622],[57.505,-38.436],[57.748,-38.249]]}},{"type":"Feature","properties":{"boundary_type":"ridge","feature_type":"gpml:MidOceanRidge","polarity":null,"overriding_plate_id":null,"subducting_plate_id":null,"plate_ids":[108,701],"name":"Rheic ridge"},"geometry":{"type":"LineString","coordinates":[[-138.231,-33.528],[-137.693,-33.707],[-137.153,-33.885],[-136.681,-34.016],[-136.208,-34.145],[-135.734,-34.272],[-135.78,-34.646],[-135.827,-35.02],[-135.874,-35.394],[-135.334,-35.489],[-134.794,-35.581],[-134.252,-35.67],[-133.652,-35.745],[-133.052,-35.817],[-132.45,-35.886],[-132.443,-36.225],[-132.437,-36.563],[-132.43,-36.901],[-131.888,-36.951],[-131.346,-36.998],[-130.804,-37.043],[-130.238,-37.024],[-129.673,-37.003],[-129.109,-36.979],[-129.02,-37.382],[-128.931,-37.786],[-128.841,-38.189],[-128.75,-38.593],[-128.658,-38.996],[-128.098,-38.961],[-127.539,-38.923],[-126.98,-38.882],[-126.422,-38.839],[-125.902,-38.781],[-125.383,-38.722],[-124.865,-38.66],[-124.348,-38.595],[-124.145,-39.032],[-123.941,-39.468],[-123.733,-39.905],[-123.523,-40.34],[-123.311,-40.776],[-123.095,-41.211],[-122.877,-41.645],[-122.656,-42.079],[-122.431,-42.513],[-122.204,-42.946],[-121.973,-43.379],[-121.739,-43.812],[-121.501,-44.243],[-120.946,-44.114],[-120.392,-43.983],[-119.841,-43.848],[-119.293,-43.711],[-118.747,-43.571],[-118.134,-43.375],[-117.525,-43.176],[-116.92,-42.973],[-116.319,-42.767],[-116.009,-43.193],[-115.694,-43.619],[-115.376,-44.043],[-115.052,-44.467],[-114.724,-44.889],[-114.391,-45.311],[-114.053,-45.732],[-113.71,-46.151],[-113.361,-46.57],[-113.008,-46.988],[-112.648,-47.404],[-112.283,-47.819],[-111.912,-48.234],[-111.535,-48.646],[-111.152,-49.058],[-110.578,-48.834],[-110.009,-48.608],[-109.573,-49.011],[-109.13,-49.412],[-108.68,-49.811],[-108.223,-50.209],[-107.758,-50.605],[-107.285,-50.999],[-106.804,-51.391],[-106.315,-51.781],[-105.817,-52.169],[-105.472,-52.006],[-105.13,-51.841],[-104.631,-52.234],[-104.123,-52.625],[-103.605,-53.013],[-103.078,-53.399],[-102.542,-53.783],[-101.996,-54.164],[-101.439,-54.543],[-100.872,-54.919],[-100.295,-55.293],[-99.706,-55.663],[-99.219,-55.449],[-98.738,-55.232],[-98.153,-55.582],[-97.557,-55.929],[-96.951,-56.274],[-96.334,-56.615],[-95.706,-56.953],[-95.066,-57.289],[-94.414,-57.62],[-93.955,-57.35],[-93.502,-57.078],[-93.055,-56.804],[-92.358,-57.117],[-91.65,-57.426],[-90.929,-57.732],[-90.196,-58.033],[-89.451,-58.33],[-88.693,-58.622],[-87.923,-58.91],[-87.139,-59.193],[-86.343,-59.472],[-85.534,-59.745],[-84.711,-60.013],[-84.237,-59.576],[-83.38,-59.824],[-82.51,-60.067],[-81.627,-60.303],[-80.732,-60.534],[-79.824,-60.759],[-78.903,-60.977],[-77.97,-61.189],[-77.024,-61.395],[-76.066,-61.594],[-75.096,-61.786],[-74.114,-61.972],[-73.12,-62.15],[-72.114,-62.321],[-72.44,-62.704],[-71.509,-62.824],[-70.57,-62.938],[-69.624,-63.045],[-68.671,-63.146],[-67.711,-63.241],[-66.746,-63.33],[-65.775,-63.411]]}},{"type":"Feature","properties":{"boundary_type":"ridge","feature_type":"gpml:MidOceanRidge","polarity":null,"overriding_plate_id":null,"subducting_plate_id":null,"plate_ids":[302,701],"name":"Rheic ridge"},"geometry":{"type":"LineString","coordinates":[[-65.775,-63.411],[-64.726,-63.492],[-63.671,-63.564],[-62.611,-63.629],[-61.546,-63.686],[-60.478,-63.736],[-59.406,-63.777],[-58.331,-63.81],[-57.254,-63.836],[-56.175,-63.853],[-55.096,-63.862],[-54.016,-63.863],[-52.936,-63.856],[-52.914,-64.238],[-52.891,-64.619],[-52.868,-65.001],[-52.844,-65.382],[-52.797,-65.382]]}},{"type":"Feature","properties":{"boundary_type":"ridge","feature_type":"gpml:MidOceanRidge","polarity":null,"overriding_plate_id":null,"subducting_plate_id":null,"plate_ids":[302,580],"name":"Baltica-Palaeotethys Ridge"},"geometry":{"type":"LineString","coordinates":[[-14.305,-40.848],[-14.125,-40.508],[-13.946,-40.169],[-14.418,-40.061],[-14.889,-39.951],[-15.359,-39.839],[-15.149,-39.373],[-14.942,-38.907],[-14.737,-38.44],[-14.535,-37.973],[-14.336,-37.506],[-14.139,-37.039],[-13.945,-36.571],[-13.753,-36.102],[-13.563,-35.634],[-13.375,-35.165],[-13.19,-34.696],[-13.007,-34.226],[-12.825,-33.757],[-12.646,-33.287],[-12.469,-32.817],[-12.293,-32.346],[-12.119,-31.876],[-11.947,-31.405],[-11.777,-30.933],[-11.609,-30.462],[-11.442,-29.991],[-11.276,-29.519],[-11.112,-29.047],[-10.95,-28.575],[-10.789,-28.102],[-10.63,-27.63],[-10.472,-27.157],[-10.315,-26.684],[-10.159,-26.211],[-10.005,-25.738],[-9.852,-25.264],[-9.7,-24.791],[-9.55,-24.317],[-9.4,-23.843],[-9.252,-23.369],[-9.104,-22.895],[-9.6,-22.766],[-10.094,-22.636],[-10.587,-22.504],[-11.08,-22.371],[-11.571,-22.236],[-12.062,-22.1],[-12.551,-21.962],[-13.04,-21.823],[-13.528,-21.683],[-14.014,-21.541],[-14.5,-21.397],[-14.985,-21.252],[-14.846,-20.779],[-14.708,-20.306],[-14.57,-19.833],[-14.434,-19.36],[-14.298,-18.887],[-14.163,-18.414],[-14.029,-17.94],[-13.895,-17.466],[-13.763,-16.993],[-13.631,-16.519],[-13.499,-16.045],[-13.368,-15.571],[-13.238,-15.097],[-13.108,-14.623],[-12.979,-14.149]]}},{"type":"Feature","properties":{"boundary_type":"transform","feature_type":"gpml:Transform","polarity":null,"overriding_plate_id":null,"subducting_plate_id":null,"plate_ids":[185],"name":"Laurentia-Cuyania transform"},"geometry":{"type":"LineString","coordinates":[[-111.459,-22.241],[-111.961,-22.177],[-112.435,-22.098],[-112.908,-22.017],[-113.38,-21.935],[-113.852,-21.852],[-114.324,-21.768],[-114.849,-21.692],[-115.373,-21.615],[-115.897,-21.537]]}},{"type":"Feature","properties":{"boundary_type":"transform","feature_type":"gpml:Transform","polarity":null,"overriding_plate_id":null,"subducting_plate_id":null,"plate_ids":[101,185],"name":"Laurentia-Cuyania transform"},"geometry":{"type":"LineString","coordinates":[[-115.897,-21.537],[-116.252,-21.483],[-116.607,-21.428],[-116.962,-21.372],[-117.428,-21.302],[-117.895,-21.23],[-118.361,-21.158],[-118.826,-21.084],[-119.291,-21.008],[-119.756,-20.932],[-120.261,-20.855],[-120.766,-20.777],[-121.27,-20.697],[-121.774,-20.616],[-122.277,-20.533],[-122.779,-20.449],[-123.253,-20.381],[-123.727,-20.31],[-124.2,-20.239],[-124.673,-20.166],[-125.065,-20.143],[-125.457,-20.12],[-125.848,-20.095]]}},{"type":"Feature","properties":{"boundary_type":"transform","feature_type":"gpml:Transform","polarity":null,"overriding_plate_id":null,"subducting_plate_id":null,"plate_ids":[101,108],"name":"Laurentia-Cuyania transform"},"geometry":{"type":"LineString","coordinates":[[-125.848,-20.095],[-126.197,-20.073],[-126.699,-20.137],[-127.202,-20.2],[-127.705,-20.261],[-128.145,-20.38],[-128.585,-20.499]]}},{"type":"Feature","properties":{"boundary_type":"transform","feature_type":"gpml:Transform","polarity":null,"overriding_plate_id":null,"subducting_plate_id":null,"plate_ids":[108,185],"name":"Carolinia-Ganderia transform"},"geometry":{"type":"LineString","coordinates":[[-115.476,-23.164],[-115.013,-23.055],[-114.549,-22.944],[-114.087,-22.833],[-113.56,-22.718],[-113.033,-22.601],[-112.508,-22.483],[-111.983,-22.363],[-111.459,-22.241]]}},{"type":"Feature","properties":{"boundary_type":"transform","feature_type":"gpml:Transform","polarity":null,"overriding_plate_id":null,"subducting_plate_id":null,"plate_ids":[108],"name":"Carolinia-Ganderia transform"},"geometry":{"type":"LineString","coordinates":[[-111.459,-22.241],[-110.952,-22.121],[-110.446,-22.0]]}},{"type":"Feature","properties":{"boundary_type":"transform","feature_type":"gpml:Transform","polarity":null,"overriding_plate_id":null,"subducting_plate_id":null,"plate_ids":[302,315],"name":"Baltica-Avalonia transform"},"geometry":{"type":"LineString","coordinates":[[-77.673,-33.651],[-77.417,-34.048],[-77.158,-34.445],[-76.896,-34.841],[-76.632,-35.236],[-76.366,-35.631]]}},{"type":"Feature","properties":{"boundary_type":"transform","feature_type":"gpml:Transform","polarity":null,"overriding_plate_id":null,"subducting_plate_id":null,"plate_ids":[101,108],"name":"Laurentia-greater Avalonia transform"},"geometry":{"type":"LineString","coordinates":[[-128.585,-20.499],[-129.103,-20.448],[-129.62,-20.395],[-130.137,-20.341],[-130.653,-20.285],[-131.17,-20.227]]}},{"type":"Feature","properties":{"boundary_type":"transform","feature_type":"gpml:Transform","polarity":null,"overriding_plate_id":null,"subducting_plate_id":null,"plate_ids":[101,108],"name":"Laurentia-greater Avalonia transform"},"geometry":{"type":"LineString","coordinates":[[-131.17,-20.227],[-131.213,-20.668],[-131.258,-21.108],[-131.302,-21.549],[-131.324,-22.036],[-131.346,-22.524],[-131.368,-23.011],[-131.391,-23.499],[-131.413,-23.986],[-131.436,-24.474],[-131.459,-24.961],[-131.589,-25.427],[-131.721,-25.893],[-131.854,-26.358],[-131.988,-26.824],[-132.123,-27.289],[-132.259,-27.754],[-132.397,-28.219],[-132.535,-28.684],[-132.675,-29.149],[-132.985,-29.411],[-133.298,-29.672],[-133.611,-29.933],[-133.927,-30.192]]}},{"type":"Feature","properties":{"boundary_type":"transform","feature_type":"gpml:Transform","polarity":null,"overriding_plate_id":null,"subducting_plate_id":null,"plate_ids":[108,701],"name":"Laurentia-greater Avalonia transform"},"geometry":{"type":"LineString","coordinates":[[-133.927,-30.192],[-134.343,-30.532],[-134.763,-30.871],[-135.186,-31.208],[-135.611,-31.544],[-136.04,-31.878],[-136.472,-32.211],[-136.907,-32.543],[-137.345,-32.872],[-137.787,-33.201],[-138.231,-33.528]]}},{"type":"Feature","properties":{"boundary_type":"transform","feature_type":"gpml:Transform","polarity":null,"overriding_plate_id":null,"subducting_plate_id":null,"plate_ids":[101,919],"name":"Laurentia transform"},"geometry":{"type":"LineString","coordinates":[[-156.546,-23.524],[-156.312,-23.139],[-156.079,-22.754],[-155.848,-22.369],[-155.618,-21.983],[-155.326,-21.577],[-155.035,-21.17],[-154.746,-20.762],[-154.459,-20.355],[-154.173,-19.946],[-153.888,-19.538],[-153.605,-19.128],[-153.323,-18.719],[-153.043,-18.309],[-152.764,-17.898],[-152.486,-17.488],[-152.21,-17.076],[-151.935,-16.665],[-151.661,-16.253],[-151.388,-15.841],[-151.116,-15.428],[-150.845,-15.015],[-150.576,-14.602],[-150.307,-14.188],[-150.039,-13.774],[-149.773,-13.36],[-149.507,-12.946],[-149.242,-12.531],[-148.978,-12.116],[-148.715,-11.701],[-148.452,-11.285],[-148.19,-10.869],[-147.929,-10.454],[-147.649,-10.053],[-147.369,-9.652],[-147.089,-9.251],[-146.811,-8.85],[-146.533,-8.449],[-146.255,-8.047],[-145.978,-7.646],[-145.702,-7.244],[-145.426,-6.842],[-145.15,-6.439],[-144.875,-6.037],[-144.601,-5.634],[-144.327,-5.232],[-144.053,-4.829],[-143.779,-4.426],[-143.506,-4.023],[-143.233,-3.62],[-142.96,-3.217],[-142.688,-2.814],[-142.415,-2.41],[-142.143,-2.007],[-141.871,-1.604],[-141.599,-1.2],[-141.327,-0.797],[-141.055,-0.393],[-140.784,0.01],[-140.512,0.414],[-140.24,0.817],[-139.968,1.221],[-139.696,1.624],[-139.424,2.027],[-139.152,2.431],[-138.88,2.834],[-138.607,3.237]]}},{"type":"Feature","properties":{"boundary_type":"transform","feature_type":"gpml:Transform","polarity":null,"overriding_plate_id":null,"subducting_plate_id":null,"plate_ids":[701,919],"name":"transform"},"geometry":{"type":"LineString","coordinates":[[-162.58,-25.454],[-162.225,-25.102],[-161.872,-24.749],[-161.522,-24.396],[-161.173,-24.042],[-160.826,-23.686],[-160.481,-23.331],[-160.138,-22.974],[-159.797,-22.617],[-159.457,-22.258],[-159.12,-21.9],[-158.784,-21.54]]}},{"type":"Feature","properties":{"boundary_type":"transform","feature_type":"gpml:Transform","polarity":null,"overriding_plate_id":null,"subducting_plate_id":null,"plate_ids":[580,601],"name":"transform"},"geometry":{"type":"LineString","coordinates":[[50.126,-13.302],[50.193,-12.807],[50.259,-12.312],[50.325,-11.816],[50.391,-11.321],[50.457,-10.826],[50.442,-10.35],[50.427,-9.875],[50.413,-9.4],[50.398,-8.925],[50.383,-8.449],[50.369,-7.974],[50.509,-7.502],[50.649,-7.029],[50.789,-6.556],[50.928,-6.083],[51.067,-5.611],[51.206,-5.138],[51.345,-4.665],[51.483,-4.192],[51.622,-3.719],[51.76,-3.246]]}},{"type":"Feature","properties":{"boundary_type":"transform","feature_type":"gpml:Transform","polarity":null,"overriding_plate_id":null,"subducting_plate_id":null,"plate_ids":[601,701],"name":"Transform b/w Gondwana and South China plates"},"geometry":{"type":"LineString","coordinates":[[99.114,-18.706],[98.858,-18.316],[98.602,-17.926],[98.348,-17.536],[98.095,-17.146],[97.842,-16.755],[97.591,-16.364],[97.341,-15.973],[97.092,-15.582],[96.844,-15.19],[96.596,-14.798],[96.35,-14.405],[96.13,-14.0],[95.912,-13.594],[95.694,-13.189],[95.476,-12.783],[95.26,-12.377],[95.044,-11.97],[94.828,-11.564],[94.614,-11.157],[94.399,-10.751],[94.186,-10.344],[93.973,-9.937],[93.751,-9.53],[93.529,-9.123],[93.308,-8.716],[93.087,-8.309],[92.867,-7.901],[92.647,-7.494],[92.427,-7.086],[92.208,-6.679],[91.99,-6.271],[91.771,-5.863]]}},{"type":"Feature","properties":{"boundary_type":"transform","feature_type":"gpml:Transform","polarity":null,"overriding_plate_id":null,"subducting_plate_id":null,"plate_ids":[701,926],"name":"Transform b/w Gondwana and South China plates"},"geometry":{"type":"LineString","coordinates":[[91.771,-5.863],[91.603,-5.549],[91.436,-5.235],[91.268,-4.921],[91.03,-4.535],[90.792,-4.148],[90.554,-3.761],[90.316,-3.375],[90.079,-2.988],[89.842,-2.601],[89.604,-2.214],[89.367,-1.827],[89.131,-1.44],[89.007,-1.08],[88.883,-0.72],[88.76,-0.359],[88.636,0.001],[88.671,0.463],[88.706,0.926],[88.741,1.389],[88.776,1.851],[88.899,2.305],[89.023,2.759],[89.146,3.214],[89.27,3.668]]}},{"type":"Feature","properties":{"boundary_type":"transform","feature_type":"gpml:Transform","polarity":null,"overriding_plate_id":null,"subducting_plate_id":null,"plate_ids":[601,601],"name":"South China-North China transform"},"geometry":{"type":"LineString","coordinates":[[72.635,-16.308],[72.631,-16.173],[72.612,-15.768],[72.594,-15.363],[72.575,-14.957],[72.556,-14.552],[72.538,-14.147],[72.634,-13.694],[72.73,-13.24],[72.726,-12.838],[72.723,-12.436],[72.72,-12.034],[72.716,-11.632],[72.713,-11.229],[72.676,-10.8],[72.639,-10.371],[72.602,-9.942],[72.565,-9.513],[72.528,-9.083],[72.491,-8.654],[72.455,-8.225],[72.411,-7.785],[72.367,-7.345],[72.323,-6.905],[72.279,-6.466],[72.235,-6.026],[72.192,-5.586],[72.253,-5.163],[72.314,-4.74],[72.374,-4.316],[72.435,-3.893],[72.496,-3.47],[72.448,-3.09],[72.399,-2.71],[72.351,-2.33]]}},{"type":"Feature","properties":{"boundary_type":"transform","feature_type":"gpml:Transform","polarity":null,"overriding_plate_id":null,"subducting_plate_id":null,"plate_ids":[601,6013],"name":"Qinling transform"},"geometry":{"type":"LineString","coordinates":[[50.534,-13.236],[50.546,-12.925],[50.682,-12.656],[50.819,-12.387],[51.124,-12.101],[51.335,-11.915]]}},{"type":"Feature","properties":{"boundary_type":"transform","feature_type":"gpml:Transform","polarity":null,"overriding_plate_id":null,"subducting_plate_id":null,"plate_ids":[302,401],"name":"Siberia-Baltica transform"},"geometry":{"type":"LineString","coordinates":[[-33.484,-11.925],[-33.743,-11.503],[-34.001,-11.081],[-34.258,-10.658],[-34.515,-10.235],[-34.771,-9.812],[-35.037,-9.39],[-35.302,-8.967],[-35.567,-8.545],[-35.831,-8.122],[-36.094,-7.699],[-36.357,-7.276],[-36.619,-6.853],[-36.881,-6.429],[-37.143,-6.006],[-37.404,-5.582],[-37.665,-5.158],[-37.925,-4.735],[-38.185,-4.311],[-38.445,-3.886],[-38.705,-3.462],[-38.964,-3.038],[-39.223,-2.614],[-39.482,-2.189],[-39.741,-1.765],[-39.945,-1.347],[-40.149,-0.928],[-40.353,-0.51],[-40.557,-0.091],[-40.761,0.328],[-40.964,0.746],[-41.168,1.165],[-41.372,1.583],[-41.577,2.002],[-41.781,2.42],[-41.985,2.838],[-42.19,3.257],[-42.394,3.675],[-42.62,4.111],[-42.846,4.546],[-43.072,4.982],[-43.299,5.417],[-43.525,5.852],[-43.753,6.287],[-43.98,6.722],[-44.208,7.157],[-44.436,7.592],[-44.665,8.026],[-44.895,8.461],[-45.124,8.895],[-45.254,9.356],[-45.384,9.817],[-45.515,10.278],[-45.646,10.739],[-45.777,11.199]]}},{"type":"Feature","properties":{"boundary_type":"transform","feature_type":"gpml:Transform","polarity":null,"overriding_plate_id":null,"subducting_plate_id":null,"plate_ids":[108,315],"name":"West-East Avalonia transform"},"geometry":{"type":"LineString","coordinates":[[-80.109,-39.448],[-80.009,-39.786],[-79.908,-40.123],[-79.807,-40.46],[-79.571,-40.908],[-79.332,-41.355],[-79.09,-41.801],[-78.844,-42.247],[-78.595,-42.692],[-78.342,-43.137],[-78.086,-43.581],[-77.825,-44.025],[-77.481,-44.431],[-77.132,-44.836],[-76.778,-45.241],[-76.419,-45.644],[-76.055,-46.045],[-75.685,-46.446],[-75.31,-46.846],[-74.929,-47.244],[-74.543,-47.641],[-74.075,-47.993],[-73.602,-48.343],[-73.122,-48.691],[-72.635,-49.037],[-72.141,-49.381],[-71.64,-49.723],[-71.123,-50.022],[-70.599,-50.319],[-70.068,-50.613],[-69.531,-50.905],[-68.987,-51.195],[-68.436,-51.482],[-68.076,-51.618],[-67.714,-51.754]]}},{"type":"Feature","properties":{"boundary_type":"transform","feature_type":"gpml:Transform","polarity":null,"overriding_plate_id":null,"subducting_plate_id":null,"plate_ids":[302,315],"name":"West-East Avalonia transform"},"geometry":{"type":"LineString","coordinates":[[-67.714,-51.754],[-67.074,-51.988],[-66.427,-52.219],[-65.774,-52.447],[-65.114,-52.671],[-64.447,-52.891],[-63.773,-53.108],[-63.093,-53.321],[-62.405,-53.529],[-61.616,-53.704],[-60.821,-53.874],[-60.019,-54.038],[-59.21,-54.197],[-58.396,-54.35],[-57.689,-54.397],[-56.981,-54.441],[-56.271,-54.48],[-55.56,-54.515],[-54.848,-54.546]]}},{"type":"Feature","properties":{"boundary_type":"transform","feature_type":"gpml:Transform","polarity":null,"overriding_plate_id":null,"subducting_plate_id":null,"plate_ids":[108,302],"name":"West Avalonia transform"},"geometry":{"type":"LineString","coordinates":[[-79.345,-36.697],[-79.608,-36.537],[-79.87,-36.377],[-80.268,-36.131],[-80.664,-35.884],[-81.057,-35.636],[-81.448,-35.387],[-81.836,-35.136],[-82.249,-34.834],[-82.659,-34.53],[-83.066,-34.225],[-83.47,-33.918],[-83.871,-33.61],[-83.999,-33.197],[-84.126,-32.783],[-84.252,-32.369],[-84.376,-31.955],[-84.5,-31.541],[-84.622,-31.126],[-84.689,-30.67],[-84.756,-30.214],[-84.822,-29.758],[-84.887,-29.302],[-84.952,-28.846],[-85.016,-28.39],[-85.08,-27.934],[-85.143,-27.478],[-85.076,-27.095]]}},{"type":"Feature","properties":{"boundary_type":"transform","feature_type":"gpml:Transform","polarity":null,"overriding_plate_id":null,"subducting_plate_id":null,"plate_ids":[108,302],"name":"West Avalonia transform"},"geometry":{"type":"LineString","coordinates":[[-67.714,-51.754],[-68.025,-51.838],[-68.333,-52.269],[-68.646,-52.698],[-68.966,-53.127],[-69.292,-53.555],[-69.624,-53.981],[-69.568,-54.467],[-69.51,-54.952],[-69.451,-55.437],[-69.39,-55.922],[-69.328,-56.408],[-69.264,-56.893],[-69.199,-57.378],[-68.982,-57.836],[-68.76,-58.293],[-68.532,-58.75],[-68.298,-59.207],[-68.058,-59.663],[-67.81,-60.119],[-67.571,-60.547],[-67.325,-60.974],[-67.072,-61.4],[-66.813,-61.827],[-66.546,-62.252],[-66.271,-62.678],[-65.989,-63.102],[-65.775,-63.411]]}},{"type":"Feature","properties":{"boundary_type":"transform","feature_type":"gpml:Transform","polarity":null,"overriding_plate_id":null,"subducting_plate_id":null,"plate_ids":[601,60112],"name":"South China-North China transform"},"geometry":{"type":"LineString","coordinates":[[75.62,-28.243],[75.435,-27.79],[75.251,-27.336],[75.069,-26.882],[74.888,-26.428],[74.708,-25.973],[74.53,-25.518],[74.354,-25.064],[74.178,-24.608],[74.004,-24.153],[73.831,-23.698],[73.659,-23.242],[73.489,-22.786],[73.359,-22.375],[73.229,-21.964],[73.1,-21.553],[72.972,-21.141],[72.845,-20.73],[72.718,-20.319]]}},{"type":"Feature","properties":{"boundary_type":"transform","feature_type":"gpml:Transform","polarity":null,"overriding_plate_id":null,"subducting_plate_id":null,"plate_ids":[601,601],"name":"South China-North China transform"},"geometry":{"type":"LineString","coordinates":[[72.718,-20.319],[72.579,-19.862],[72.44,-19.404],[72.462,-18.966],[72.484,-18.527],[72.506,-18.089],[72.527,-17.65],[72.549,-17.212],[72.571,-16.773],[72.635,-16.308]]}},{"type":"Feature","properties":{"boundary_type":"transform","feature_type":"gpml:Transform","polarity":null,"overriding_plate_id":null,"subducting_plate_id":null,"plate_ids":[457,580],"name":"Kunlun transform"},"geometry":{"type":"LineString","coordinates":[[47.065,-16.0],[47.38,-15.693],[47.694,-15.385],[48.007,-15.077],[48.319,-14.768]]}},{"type":"Feature","properties":{"boundary_type":"transform","feature_type":"gpml:Transform","polarity":null,"overriding_plate_id":null,"subducting_plate_id":null,"plate_ids":[401,460],"name":"Tianshan transform"},"geometry":{"type":"LineString","coordinates":[[0.438,-7.759],[0.314,-8.138],[0.189,-8.517],[0.064,-8.896],[-0.061,-9.275],[-0.108,-9.763],[-0.156,-10.25],[-0.204,-10.738],[-0.252,-11.226],[-0.305,-11.515],[-0.358,-11.804]]}},{"type":"Feature","properties":{"boundary_type":"transform","feature_type":"gpml:Transform","polarity":null,"overriding_plate_id":null,"subducting_plate_id":null,"plate_ids":[460,580],"name":"Tianshan transform"},"geometry":{"type":"LineString","coordinates":[[-0.358,-11.804],[-0.437,-12.235],[-0.517,-12.667],[-0.597,-13.098],[-0.677,-13.529],[-0.758,-13.96],[-0.82,-14.304],[-0.882,-14.647],[-0.944,-14.991]]}},{"type":"Feature","properties":{"boundary_type":"transform","feature_type":"gpml:Transform","polarity":null,"overriding_plate_id":null,"subducting_plate_id":null,"plate_ids":[701,926],"name":"Australia-Proto Tethys Transform"},"geometry":{"type":"LineString","coordinates":[[89.27,3.668],[89.23,4.127],[89.191,4.587],[89.151,5.047],[89.111,5.507],[89.071,5.966],[88.998,6.452],[88.925,6.937],[88.851,7.422],[88.777,7.907],[88.703,8.393],[88.629,8.878],[88.555,9.363],[88.481,9.848],[88.406,10.334],[88.331,10.819],[88.256,11.304],[88.18,11.789],[88.105,12.274],[88.029,12.759],[87.952,13.244],[87.876,13.729],[87.799,14.214],[87.819,14.689],[87.839,15.164],[87.859,15.639],[87.879,16.113],[87.899,16.588],[87.919,17.063],[87.939,17.537],[87.96,18.012],[87.98,18.487],[88.001,18.962],[88.022,19.436],[88.043,19.911],[88.064,20.386],[88.085,20.861],[88.106,21.335],[88.185,21.801],[88.264,22.267],[88.343,22.733],[88.424,23.198],[88.504,23.664],[88.586,24.13],[88.667,24.595],[88.75,25.061],[88.833,25.526],[88.917,25.992],[89.001,26.457],[89.086,26.922],[89.172,27.388],[89.259,27.853],[89.346,28.318],[89.434,28.783]]}},{"type":"Feature","properties":{"boundary_type":"transform","feature_type":"gpml:Transform","polarity":null,"overriding_plate_id":null,"subducting_plate_id":null,"plate_ids":[302,902],"name":"Baltica transform"},"geometry":{"type":"LineString","coordinates":[[-63.858,22.059],[-63.347,22.083],[-62.831,22.003],[-62.315,21.922],[-61.8,21.839],[-61.286,21.754],[-60.772,21.668],[-60.259,21.58],[-59.746,21.491],[-59.234,21.4],[-58.723,21.308],[-58.212,21.214],[-57.702,21.118],[-57.193,21.021],[-56.684,20.923],[-56.176,20.823],[-55.679,20.664],[-55.183,20.503],[-54.687,20.341],[-54.193,20.178],[-53.7,20.013],[-53.208,19.847],[-52.717,19.68],[-52.227,19.511],[-51.737,19.341],[-51.249,19.17],[-50.762,18.997],[-50.276,18.823],[-49.791,18.648],[-49.307,18.472],[-48.824,18.294],[-48.342,18.115],[-47.861,17.935],[-47.381,17.754],[-46.902,17.572],[-46.424,17.388],[-45.947,17.203],[-45.471,17.018]]}},{"type":"Feature","properties":{"boundary_type":"transform","feature_type":"gpml:Transform","polarity":null,"overriding_plate_id":null,"subducting_plate_id":null,"plate_ids":[451,580],"name":"Alxa-Tarim transform"},"geometry":{"type":"LineString","coordinates":[[30.933,-5.004],[31.31,-5.029],[31.688,-5.054],[32.065,-5.079],[32.494,-4.957],[32.922,-4.834],[33.351,-4.712]]}},{"type":"Feature","properties":{"boundary_type":"transform","feature_type":"gpml:Transform","polarity":null,"overriding_plate_id":null,"subducting_plate_id":null,"plate_ids":[456,580],"name":"Alxa-Tarim transform"},"geometry":{"type":"LineString","coordinates":[[33.351,-4.712],[33.665,-4.622],[33.978,-4.532],[34.418,-4.522],[34.858,-4.512],[35.298,-4.501],[35.738,-4.49]]}},{"type":"Feature","properties":{"boundary_type":"transform","feature_type":"gpml:Transform","polarity":null,"overriding_plate_id":null,"subducting_plate_id":null,"plate_ids":[460,580],"name":"Tianshan transform"},"geometry":{"type":"LineString","coordinates":[[25.009,-9.67],[24.99,-10.052],[24.962,-10.368],[24.933,-10.684],[25.113,-11.068],[25.293,-11.452],[25.371,-11.54]]}},{"type":"Feature","properties":{"boundary_type":"transform","feature_type":"gpml:Transform","polarity":null,"overriding_plate_id":null,"subducting_plate_id":null,"plate_ids":[601,6013],"name":"Qinling transform"},"geometry":{"type":"LineString","coordinates":[[70.779,-19.966],[70.916,-19.718],[71.054,-19.469],[71.194,-19.148],[71.334,-18.827],[71.473,-18.506],[71.647,-18.149],[71.82,-17.791],[71.992,-17.434],[72.097,-17.087],[72.201,-16.74]]}},{"type":"Feature","properties":{"boundary_type":"transform","feature_type":"gpml:Transform","polarity":null,"overriding_plate_id":null,"subducting_plate_id":null,"plate_ids":[601,926],"name":"South China-North China transform"},"geometry":{"type":"LineString","coordinates":[[73.355,-2.115],[73.354,-2.109]]}},{"type":"Feature","properties":{"boundary_type":"transform","feature_type":"gpml:Transform","polarity":null,"overriding_plate_id":null,"subducting_plate_id":null,"plate_ids":[302,4100],"name":"Siberia transform"},"geometry":{"type":"LineString","coordinates":[[-45.661,11.268],[-45.814,11.701],[-45.968,12.133],[-46.122,12.566],[-46.276,12.998],[-46.432,13.43],[-46.587,13.862],[-46.743,14.294],[-46.9,14.726],[-47.058,15.158],[-47.216,15.59]]}},{"type":"Feature","properties":{"boundary_type":"transform","feature_type":"gpml:Transform","polarity":null,"overriding_plate_id":null,"subducting_plate_id":null,"plate_ids":[580,926],"name":"North China transform"},"geometry":{"type":"LineString","coordinates":[[50.011,7.093],[49.985,6.963],[49.994,6.495],[50.003,6.027],[50.012,5.56],[50.022,5.092],[50.031,4.624],[50.04,4.157],[50.049,3.689],[50.058,3.221],[50.068,2.754],[50.077,2.286],[50.036,1.788],[49.996,1.289],[49.955,0.791],[49.915,0.293],[49.874,-0.205],[49.833,-0.703],[49.793,-1.202],[49.752,-1.7],[49.712,-2.198],[49.68,-2.65],[49.649,-3.102],[49.617,-3.553]]}},{"type":"Feature","properties":{"boundary_type":"transform","feature_type":"gpml:Transform","polarity":null,"overriding_plate_id":null,"subducting_plate_id":null,"plate_ids":[902,4100],"name":"Siberia transform"},"geometry":{"type":"LineString","coordinates":[[-10.874,20.758],[-11.058,21.133],[-11.244,21.508],[-11.42,21.958],[-11.598,22.408],[-11.776,22.857],[-11.956,23.306],[-12.137,23.755],[-12.32,24.204],[-12.503,24.652]]}},{"type":"Feature","properties":{"boundary_type":"transform","feature_type":"gpml:Transform","polarity":null,"overriding_plate_id":null,"subducting_plate_id":null,"plate_ids":[401,580],"name":"Chu Yili SZ (transform - no convergence)"},"geometry":{"type":"LineString","coordinates":[[-1.195,-7.801],[-0.707,-7.719],[-0.325,-7.733],[0.056,-7.746],[0.438,-7.759]]}},{"type":"Feature","properties":{"boundary_type":"transform","feature_type":"gpml:Transform","polarity":null,"overriding_plate_id":null,"subducting_plate_id":null,"plate_ids":[460,580],"name":"Chu Yili SZ (transform - no convergence)"},"geometry":{"type":"LineString","coordinates":[[0.438,-7.759],[0.528,-7.762],[0.978,-7.816],[1.427,-7.869],[1.876,-7.922],[2.325,-7.974],[2.775,-8.026],[3.181,-8.116],[3.587,-8.205],[3.994,-8.294],[4.4,-8.383],[4.807,-8.471],[5.287,-8.619],[5.768,-8.766],[6.25,-8.913],[6.732,-9.059],[7.2,-9.125],[7.669,-9.191],[8.138,-9.256],[8.607,-9.32],[8.975,-9.206],[9.343,-9.09],[9.711,-8.975],[10.163,-9.009],[10.614,-9.042],[11.066,-9.075],[11.521,-9.193],[11.976,-9.31],[12.432,-9.426],[12.887,-9.542],[13.343,-9.657],[13.732,-9.74],[14.122,-9.822],[14.511,-9.904],[14.901,-9.985],[15.298,-10.124],[15.695,-10.262],[16.092,-10.4],[16.49,-10.537],[16.898,-10.628],[17.307,-10.719],[17.715,-10.81],[18.124,-10.9],[18.533,-10.989],[18.92,-10.956],[19.307,-10.922],[19.694,-10.887],[20.08,-10.852],[20.54,-10.738],[21.0,-10.623],[21.459,-10.507],[21.904,-10.405],[22.348,-10.302],[22.792,-10.198],[23.236,-10.094],[23.68,-9.989],[24.123,-9.883],[24.566,-9.777],[25.009,-9.67]]}}]}