{"type":"FeatureCollection","meta":{"model":"Cao2024","reconstruction_time_ma":1390.0,"anchor_plate_id":0,"pygplates_version":"1.0.0","tessellate_degrees":0.5,"polarity_convention":"gpml:subductionPolarity. 'Left'/'Right' names the side of the line, in vertex order, on which the OVERRIDING plate lies. Triangles are drawn on that side.","antimeridian":"Lines are NOT split at +/-180 deg. The renderer works in 3D unit vectors where the dateline is not special; splitting would only add spurious breaks. Do not treat this as RFC 7946 GIS-ready 2D data."},"features":[{"type":"Feature","properties":{"boundary_type":"subduction","feature_type":"gpml:SubductionZone","polarity":"Left","overriding_plate_id":101,"subducting_plate_id":911001,"plate_ids":[101,911001],"name":"Indo-Antarctica_SZ"},"geometry":{"type":"LineString","coordinates":[[-151.264,-32.72],[-151.146,-33.167],[-151.027,-33.614],[-150.907,-34.061],[-150.785,-34.507],[-150.662,-34.954],[-150.537,-35.401],[-150.411,-35.847],[-150.508,-36.321],[-150.605,-36.795],[-150.704,-37.269],[-150.804,-37.742],[-150.905,-38.216],[-151.008,-38.689],[-151.112,-39.163],[-151.217,-39.636],[-151.324,-40.109],[-151.432,-40.582],[-151.542,-41.056],[-151.653,-41.528],[-151.766,-42.001],[-151.881,-42.474],[-152.022,-42.954],[-152.166,-43.433],[-152.312,-43.912],[-152.46,-44.391],[-152.611,-44.87],[-152.764,-45.349],[-152.92,-45.827],[-153.079,-46.306],[-153.24,-46.784],[-153.404,-47.261],[-153.571,-47.739],[-153.742,-48.216],[-153.767,-48.712],[-153.792,-49.207],[-153.818,-49.703],[-153.845,-50.199],[-153.872,-50.694],[-153.9,-51.19],[-153.928,-51.685],[-153.957,-52.181],[-153.987,-52.676],[-154.017,-53.172],[-154.048,-53.667],[-154.08,-54.163],[-154.112,-54.658],[-154.146,-55.154],[-153.927,-55.636],[-153.702,-56.117],[-153.472,-56.598],[-153.237,-57.079],[-152.994,-57.559],[-152.746,-58.039],[-152.491,-58.518],[-152.228,-58.997],[-151.958,-59.475],[-151.681,-59.952],[-151.395,-60.429],[-151.101,-60.906],[-150.798,-61.381],[-150.667,-61.489]]}},{"type":"Feature","properties":{"boundary_type":"subduction","feature_type":"gpml:SubductionZone","polarity":"Left","overriding_plate_id":null,"subducting_plate_id":null,"plate_ids":[911001],"name":"Indo-Antarctica_SZ"},"geometry":{"type":"LineString","coordinates":[[-150.667,-61.489],[-150.214,-61.852],[-149.75,-62.214],[-149.275,-62.574],[-148.788,-62.932],[-148.29,-63.289],[-147.778,-63.644]]}},{"type":"Feature","properties":{"boundary_type":"subduction","feature_type":"gpml:SubductionZone","polarity":"Right","overriding_plate_id":101,"subducting_plate_id":90107,"plate_ids":[101,90107],"name":"NorthChina_SZ"},"geometry":{"type":"LineString","coordinates":[[-92.968,24.094],[-92.612,24.022],[-92.257,23.95],[-91.807,23.712],[-91.36,23.474],[-90.913,23.233],[-90.469,22.992],[-90.025,22.749],[-89.584,22.505],[-89.144,22.26],[-88.706,22.014],[-88.42,21.623],[-88.137,21.231],[-87.855,20.838],[-87.574,20.445],[-87.295,20.052],[-87.017,19.658],[-86.741,19.264],[-86.465,18.869],[-86.192,18.474],[-85.919,18.079],[-85.951,17.615],[-85.984,17.152],[-86.016,16.688],[-86.048,16.225],[-86.079,15.762],[-86.111,15.298],[-86.142,14.835],[-86.174,14.371],[-86.205,13.908],[-86.236,13.444],[-86.267,12.981],[-86.298,12.517],[-86.328,12.054],[-86.489,11.599],[-86.649,11.145],[-86.808,10.69],[-86.967,10.235],[-87.126,9.78],[-87.284,9.325],[-87.442,8.87],[-87.599,8.415],[-87.756,7.96],[-87.913,7.505]]}},{"type":"Feature","properties":{"boundary_type":"subduction","feature_type":"gpml:SubductionZone","polarity":"Right","overriding_plate_id":801,"subducting_plate_id":80101,"plate_ids":[801,80101],"name":"SouthAustralia_SZ"},"geometry":{"type":"LineString","coordinates":[[-110.485,48.195],[-110.336,47.811],[-110.163,47.366],[-109.992,46.92],[-109.825,46.475],[-109.66,46.029],[-109.498,45.583],[-109.338,45.137],[-109.181,44.69],[-109.026,44.244],[-109.094,43.781],[-109.162,43.318],[-109.228,42.855],[-109.293,42.393],[-109.357,41.93],[-109.42,41.467],[-109.483,41.004],[-109.544,40.541],[-109.605,40.078],[-109.665,39.615]]}},{"type":"Feature","properties":{"boundary_type":"subduction","feature_type":"gpml:SubductionZone","polarity":"Left","overriding_plate_id":101,"subducting_plate_id":90106,"plate_ids":[101,90106],"name":"Eastern_Laurentia_SZ"},"geometry":{"type":"LineString","coordinates":[[-173.589,50.048],[-173.879,49.62],[-174.165,49.192],[-174.445,48.763],[-174.721,48.333],[-174.992,47.903],[-175.259,47.472],[-175.521,47.04],[-175.78,46.608],[-175.961,46.128],[-176.138,45.649],[-176.313,45.169],[-176.485,44.688],[-176.654,44.208],[-176.821,43.727],[-176.984,43.246],[-177.146,42.765],[-177.304,42.284]]}},{"type":"Feature","properties":{"boundary_type":"subduction","feature_type":"gpml:SubductionZone","polarity":"Left","overriding_plate_id":101,"subducting_plate_id":201,"plate_ids":[101,201],"name":"Eastern_Laurentia_SZ"},"geometry":{"type":"LineString","coordinates":[[-177.304,42.284],[-177.456,41.815],[-177.606,41.347],[-177.754,40.878],[-177.899,40.409],[-178.043,39.94],[-178.144,39.457],[-178.245,38.975],[-178.343,38.493],[-178.441,38.01],[-178.537,37.527],[-178.632,37.045],[-178.726,36.562],[-178.819,36.079],[-178.91,35.596],[-179.0,35.113],[-179.09,34.63],[-179.178,34.147],[-179.265,33.664],[-179.352,33.181],[-179.437,32.697],[-179.521,32.214],[-179.605,31.731],[-179.571,31.262],[-179.537,30.794],[-179.504,30.326],[-179.47,29.858],[-179.438,29.39],[-179.405,28.922],[-179.373,28.454],[-179.341,27.986],[-179.309,27.518],[-179.278,27.05],[-179.246,26.582],[-179.215,26.114],[-179.185,25.646],[-179.154,25.177],[-179.124,24.709],[-178.859,24.314],[-178.595,23.919],[-178.333,23.523],[-178.072,23.127],[-177.813,22.73],[-177.555,22.333],[-177.299,21.935],[-177.045,21.537],[-176.791,21.139],[-176.539,20.74],[-176.204,20.385],[-175.87,20.029],[-175.538,19.672],[-175.207,19.314],[-174.878,18.956],[-174.55,18.598],[-174.223,18.238],[-173.898,17.879],[-173.574,17.518],[-173.251,17.157],[-172.93,16.796],[-172.61,16.434],[-172.262,16.191],[-171.916,15.946],[-171.57,15.702],[-171.225,15.456]]}},{"type":"Feature","properties":{"boundary_type":"subduction","feature_type":"gpml:SubductionZone","polarity":"Left","overriding_plate_id":101,"subducting_plate_id":90107,"plate_ids":[101,90107],"name":"South_NorthAustralia_SZ"},"geometry":{"type":"LineString","coordinates":[[-92.968,24.094],[-93.167,24.554],[-93.368,25.015],[-93.57,25.475],[-93.773,25.935],[-93.978,26.395],[-94.185,26.854],[-94.393,27.313],[-94.603,27.772],[-94.815,28.231],[-95.029,28.689],[-95.245,29.147],[-95.462,29.604],[-95.682,30.061],[-95.903,30.518],[-96.127,30.975]]}},{"type":"Feature","properties":{"boundary_type":"subduction","feature_type":"gpml:SubductionZone","polarity":"Left","overriding_plate_id":101,"subducting_plate_id":80101,"plate_ids":[101,80101],"name":"South_NorthAustralia_SZ"},"geometry":{"type":"LineString","coordinates":[[-96.127,30.975],[-96.341,31.406],[-96.557,31.838],[-96.774,32.269],[-96.994,32.7],[-97.216,33.131],[-97.441,33.561],[-97.667,33.99],[-98.084,34.329],[-98.505,34.667],[-98.929,35.003],[-99.356,35.338],[-99.787,35.671],[-100.222,36.002],[-100.66,36.332],[-101.102,36.66],[-101.548,36.987],[-101.998,37.312],[-102.451,37.635],[-102.909,37.957],[-103.37,38.277],[-103.836,38.595],[-104.305,38.911],[-104.779,39.225],[-105.399,39.286],[-106.021,39.344],[-106.643,39.398],[-107.266,39.449],[-107.891,39.497]]}},{"type":"Feature","properties":{"boundary_type":"subduction","feature_type":"gpml:SubductionZone","polarity":"Left","overriding_plate_id":801,"subducting_plate_id":80101,"plate_ids":[801,80101],"name":"South_NorthAustralia_SZ"},"geometry":{"type":"LineString","coordinates":[[-107.891,39.497],[-108.481,39.539],[-109.073,39.579],[-109.665,39.615]]}},{"type":"Feature","properties":{"boundary_type":"subduction","feature_type":"gpml:SubductionZone","polarity":"Left","overriding_plate_id":801,"subducting_plate_id":80101,"plate_ids":[801,80101],"name":"NorthwesternMawson_SZ"},"geometry":{"type":"LineString","coordinates":[[-110.485,48.195],[-110.063,48.595],[-109.634,48.993],[-109.199,49.389],[-108.756,49.784],[-108.306,50.177],[-107.827,50.538],[-107.341,50.896],[-106.847,51.253],[-106.345,51.608],[-105.836,51.96],[-105.318,52.31],[-104.793,52.658],[-104.258,53.004],[-103.77,53.35],[-103.273,53.694],[-102.769,54.036],[-102.256,54.376],[-101.734,54.713],[-101.204,55.049],[-100.813,55.452],[-100.414,55.854],[-100.007,56.255],[-99.591,56.654],[-99.166,57.052],[-98.733,57.448],[-98.746,57.924],[-98.759,58.4],[-98.773,58.876],[-98.787,59.352],[-98.801,59.829],[-99.316,60.223],[-99.843,60.616],[-100.383,61.007]]}},{"type":"Feature","properties":{"boundary_type":"subduction","feature_type":"gpml:SubductionZone","polarity":"Left","overriding_plate_id":801,"subducting_plate_id":90106,"plate_ids":[801,90106],"name":"NorthwesternMawson_SZ"},"geometry":{"type":"LineString","coordinates":[[-100.383,61.007],[-100.931,61.391],[-101.492,61.773],[-102.067,62.153],[-102.657,62.53],[-103.262,62.905],[-103.883,63.277],[-104.701,63.564],[-105.535,63.847],[-106.386,64.124],[-107.254,64.396],[-108.14,64.664],[-109.043,64.925],[-109.963,65.181],[-110.901,65.432],[-111.858,65.676],[-112.832,65.915],[-113.824,66.147],[-114.718,66.459],[-115.635,66.766],[-116.575,67.067],[-117.538,67.363],[-118.525,67.652],[-119.537,67.936],[-120.573,68.213],[-121.634,68.484],[-122.721,68.748],[-123.833,69.004],[-124.972,69.254],[-126.136,69.495],[-127.177,69.782],[-128.247,70.063],[-129.345,70.337],[-130.473,70.604],[-131.631,70.864],[-132.819,71.116],[-134.037,71.361],[-135.286,71.598],[-136.567,71.827],[-137.878,72.046],[-139.219,72.257],[-140.592,72.459],[-141.994,72.65],[-143.532,72.743],[-145.085,72.824],[-146.651,72.893],[-148.228,72.95],[-149.815,72.995],[-151.408,73.027],[-153.006,73.047],[-154.607,73.054],[-156.208,73.049]]}},{"type":"Feature","properties":{"boundary_type":"ridge","feature_type":"gpml:MidOceanRidge","polarity":null,"overriding_plate_id":null,"subducting_plate_id":null,"plate_ids":[101,801],"name":"SouthAustralia-NorthAustralia ridge"},"geometry":{"type":"LineString","coordinates":[[-128.154,34.169],[-127.626,34.2],[-127.097,34.23],[-126.568,34.257],[-126.039,34.281],[-125.51,34.304],[-124.98,34.324],[-124.45,34.342],[-124.329,34.704],[-124.207,35.066],[-123.669,35.212],[-123.129,35.356],[-122.587,35.498],[-122.043,35.637],[-121.498,35.773],[-120.95,35.907],[-121.019,36.284],[-121.088,36.661],[-120.575,36.608],[-120.063,36.552],[-119.551,36.494],[-119.041,36.434],[-118.865,36.768],[-118.687,37.102],[-118.27,36.931],[-117.855,36.759],[-117.441,36.585],[-117.133,36.963],[-116.822,37.34],[-116.508,37.717],[-115.907,37.864],[-115.304,38.009],[-114.698,38.151],[-114.09,38.289],[-113.48,38.425],[-112.867,38.557],[-112.253,38.686],[-111.636,38.812],[-111.017,38.934],[-110.396,39.054],[-109.772,39.17],[-109.147,39.282],[-108.52,39.391],[-107.891,39.497]]}},{"type":"Feature","properties":{"boundary_type":"ridge","feature_type":"gpml:MidOceanRidge","polarity":null,"overriding_plate_id":null,"subducting_plate_id":null,"plate_ids":[101,801],"name":"Laurentia-SouthAustralia ridge"},"geometry":{"type":"LineString","coordinates":[[-128.154,34.169],[-128.198,34.633],[-128.243,35.098],[-128.288,35.563],[-128.334,36.027],[-128.38,36.492],[-128.427,36.956],[-129.002,37.079],[-129.58,37.198],[-130.159,37.315],[-130.74,37.429],[-131.322,37.54],[-131.907,37.648],[-132.493,37.754],[-133.081,37.856],[-133.67,37.955],[-134.261,38.052],[-134.854,38.145],[-135.447,38.236],[-136.043,38.324],[-136.64,38.408],[-137.238,38.49],[-137.838,38.568],[-138.438,38.644],[-139.04,38.716],[-139.037,39.181],[-139.034,39.645],[-139.031,40.11],[-139.027,40.575],[-139.024,41.04],[-139.02,41.505],[-139.017,41.969],[-139.637,42.019],[-140.258,42.066],[-140.88,42.109],[-141.503,42.149],[-142.126,42.186],[-142.75,42.219],[-143.375,42.249],[-144.001,42.275],[-144.626,42.298],[-145.253,42.318],[-145.19,42.79],[-145.126,43.262],[-145.061,43.734],[-144.995,44.206],[-144.929,44.678],[-144.861,45.15],[-144.791,45.622],[-144.721,46.094],[-144.65,46.566],[-144.577,47.038],[-144.503,47.509],[-144.427,47.981],[-144.351,48.453],[-144.272,48.924],[-144.949,49.132],[-145.631,49.335],[-146.318,49.534],[-147.012,49.729],[-147.71,49.92],[-148.415,50.107],[-149.124,50.29],[-149.839,50.468],[-150.56,50.642],[-151.286,50.811],[-152.017,50.976],[-152.753,51.136],[-152.6,51.589],[-152.443,52.043],[-152.284,52.496],[-152.122,52.948],[-151.955,53.401],[-151.786,53.853],[-151.612,54.305],[-151.435,54.757],[-151.254,55.209],[-152.09,55.361],[-152.933,55.507],[-153.782,55.647],[-154.637,55.781],[-155.497,55.909],[-156.363,56.032],[-157.235,56.148],[-158.111,56.258],[-158.993,56.362],[-159.879,56.459],[-160.769,56.55],[-160.598,56.994],[-160.423,57.438],[-160.243,57.882],[-160.059,58.325],[-159.87,58.768],[-159.676,59.211],[-160.485,59.426],[-161.304,59.636],[-162.133,59.841],[-162.972,60.04],[-163.821,60.234],[-164.68,60.422],[-165.549,60.605],[-166.427,60.783],[-167.315,60.954],[-168.213,61.12]]}},{"type":"Feature","properties":{"boundary_type":"subduction","feature_type":"gpml:SubductionZone","polarity":"Right","overriding_plate_id":101,"subducting_plate_id":90107,"plate_ids":[101,90107],"name":"SaoFrancisco_SZ"},"geometry":{"type":"LineString","coordinates":[[-69.967,-5.656],[-69.675,-6.017],[-69.382,-6.379],[-69.089,-6.74],[-68.796,-7.101],[-68.501,-7.461],[-68.207,-7.822],[-67.912,-8.182],[-67.616,-8.543],[-67.341,-8.959],[-67.065,-9.375],[-66.788,-9.791],[-66.511,-10.206],[-66.233,-10.621],[-65.954,-11.036],[-65.674,-11.451],[-65.393,-11.866],[-65.112,-12.28],[-64.83,-12.694],[-64.547,-13.108],[-64.263,-13.521],[-63.977,-13.934],[-63.691,-14.347],[-63.404,-14.759],[-63.116,-15.171],[-62.826,-15.583],[-62.536,-15.994],[-62.244,-16.405],[-61.951,-16.815],[-61.657,-17.225],[-61.361,-17.635],[-61.064,-18.044],[-60.766,-18.453],[-60.411,-18.804],[-60.054,-19.155],[-59.696,-19.505],[-59.336,-19.854],[-58.975,-20.202],[-58.612,-20.55],[-58.247,-20.897],[-57.881,-21.244],[-57.513,-21.589],[-57.143,-21.934],[-56.772,-22.278],[-56.398,-22.621],[-56.023,-22.963],[-55.646,-23.304],[-55.267,-23.644],[-54.886,-23.984],[-54.503,-24.322],[-54.117,-24.66],[-53.734,-24.986],[-53.348,-25.311],[-52.96,-25.636],[-52.57,-25.959],[-52.177,-26.281],[-51.783,-26.602],[-51.386,-26.922],[-50.988,-27.241],[-50.586,-27.559],[-50.183,-27.876],[-49.777,-28.191],[-49.369,-28.506],[-48.958,-28.819],[-48.545,-29.131],[-48.129,-29.441],[-47.711,-29.75],[-47.29,-30.058],[-46.932,-30.44],[-46.572,-30.821],[-46.208,-31.201],[-45.842,-31.579],[-45.472,-31.957],[-45.1,-32.333],[-44.724,-32.709],[-44.345,-33.083],[-43.963,-33.456],[-43.578,-33.828],[-43.189,-34.199],[-42.797,-34.569],[-42.401,-34.937],[-42.002,-35.304],[-41.6,-35.669],[-41.193,-36.034],[-40.783,-36.397],[-40.369,-36.758],[-39.951,-37.118],[-39.529,-37.477],[-39.102,-37.834],[-38.672,-38.189],[-38.238,-38.543],[-37.799,-38.895],[-37.542,-39.353],[-37.281,-39.81],[-37.017,-40.266],[-36.75,-40.722],[-36.478,-41.177],[-36.203,-41.631],[-35.924,-42.085],[-35.641,-42.538],[-35.354,-42.99],[-35.063,-43.441],[-34.767,-43.892],[-34.467,-44.342],[-34.162,-44.791],[-33.852,-45.24],[-33.538,-45.687],[-33.218,-46.134],[-32.893,-46.58],[-32.563,-47.025],[-32.227,-47.469],[-31.885,-47.912],[-31.538,-48.353],[-31.184,-48.794],[-30.825,-49.234],[-30.458,-49.672],[-30.4,-50.16],[-30.34,-50.648],[-30.279,-51.135],[-30.217,-51.623],[-30.153,-52.111],[-30.088,-52.598],[-30.022,-53.086],[-29.954,-53.573],[-29.884,-54.061]]}},{"type":"Feature","properties":{"boundary_type":"subduction","feature_type":"gpml:SubductionZone","polarity":"Right","overriding_plate_id":101,"subducting_plate_id":90105,"plate_ids":[101,90105],"name":"SaoFrancisco_SZ"},"geometry":{"type":"LineString","coordinates":[[-29.884,-54.061],[-29.817,-54.522],[-29.748,-54.983],[-29.677,-55.445],[-29.605,-55.906],[-29.531,-56.367],[-29.455,-56.828],[-29.378,-57.289],[-29.298,-57.75],[-29.216,-58.211],[-29.133,-58.672],[-29.046,-59.133],[-29.042,-59.599],[-29.037,-60.064],[-29.032,-60.529],[-29.027,-60.995],[-29.022,-61.46],[-29.016,-61.925],[-29.011,-62.391],[-29.005,-62.856],[-28.999,-63.321],[-28.993,-63.787],[-28.987,-64.252],[-28.98,-64.717],[-28.973,-65.183]]}},{"type":"Feature","properties":{"boundary_type":"subduction","feature_type":"gpml:SubductionZone","polarity":"Left","overriding_plate_id":201,"subducting_plate_id":90106,"plate_ids":[201,90106],"name":""},"geometry":{"type":"LineString","coordinates":[[-177.304,42.284],[-177.961,42.404],[-178.619,42.521],[-179.281,42.634],[-179.944,42.744],[179.39,42.849],[178.722,42.95],[178.051,43.048],[177.379,43.142],[176.704,43.232],[176.028,43.317],[175.35,43.399],[174.669,43.477],[173.988,43.551],[173.304,43.62],[172.619,43.686],[171.933,43.747],[171.245,43.805],[170.556,43.858],[169.866,43.907],[169.193,43.924],[168.519,43.937],[167.846,43.946],[167.172,43.951],[166.498,43.952],[165.824,43.949],[165.15,43.942],[164.476,43.931],[163.803,43.916],[163.13,43.898],[162.458,43.875],[161.786,43.848],[161.114,43.818],[160.444,43.783],[159.774,43.745],[159.105,43.702],[158.437,43.656],[157.771,43.606],[157.105,43.552],[156.441,43.494],[155.778,43.433],[155.116,43.367],[154.456,43.298],[153.797,43.225],[153.14,43.148],[152.485,43.067],[151.831,42.983],[151.179,42.895],[150.529,42.803],[149.881,42.708],[149.281,42.507],[148.685,42.303],[148.092,42.096],[147.503,41.886],[146.919,41.673],[146.338,41.457],[145.761,41.238],[145.188,41.016],[144.618,40.792],[144.053,40.564],[143.491,40.334],[142.934,40.102],[142.38,39.866],[141.83,39.628],[141.284,39.387],[140.741,39.144],[140.202,38.899],[139.667,38.651],[139.136,38.4],[138.608,38.147],[138.084,37.892],[137.564,37.634],[137.047,37.374],[136.534,37.112],[136.025,36.848],[135.519,36.582],[135.016,36.313],[134.517,36.042],[134.021,35.77],[133.529,35.495],[133.04,35.218],[132.555,34.94],[132.123,34.611],[131.696,34.28],[131.271,33.948],[130.85,33.615],[130.432,33.28],[130.018,32.943],[129.606,32.606],[129.198,32.267],[128.792,31.927],[128.39,31.585],[127.991,31.242],[127.594,30.898],[127.2,30.553],[126.81,30.207],[126.421,29.859],[126.036,29.51],[125.653,29.161],[125.273,28.81],[124.895,28.458],[124.52,28.105],[124.148,27.751],[123.777,27.396],[123.41,27.04],[123.044,26.683],[122.681,26.325],[122.32,25.967],[121.961,25.607],[121.604,25.247],[121.25,24.885],[121.157,24.443],[121.064,24.0],[120.973,23.557],[120.882,23.114],[120.791,22.671],[120.701,22.228],[120.612,21.785]]}},{"type":"Feature","properties":{"boundary_type":"subduction","feature_type":"gpml:SubductionZone","polarity":"Left","overriding_plate_id":201,"subducting_plate_id":90105,"plate_ids":[201,90105],"name":""},"geometry":{"type":"LineString","coordinates":[[120.612,21.785],[120.515,21.302],[120.419,20.819],[120.324,20.336],[120.229,19.853],[120.134,19.37],[120.041,18.887],[119.947,18.404],[119.855,17.921],[119.762,17.437],[119.671,16.954],[119.579,16.471],[119.489,15.987],[119.398,15.504],[119.308,15.02],[119.219,14.537],[119.13,14.053],[119.041,13.57],[118.953,13.086],[118.865,12.602],[118.777,12.119],[118.689,11.635],[118.602,11.151],[118.725,10.676],[118.847,10.2],[118.969,9.725],[119.091,9.249],[119.212,8.774],[119.333,8.298],[119.453,7.822],[119.573,7.347],[119.693,6.871],[119.813,6.395],[119.933,5.919],[120.052,5.443],[120.171,4.968],[120.29,4.492],[120.409,4.016],[120.528,3.54],[120.647,3.064],[120.765,2.588],[120.883,2.112],[121.002,1.636],[121.12,1.16],[121.238,0.684],[121.356,0.208],[121.475,-0.268],[121.593,-0.744],[121.711,-1.22],[121.829,-1.696],[121.948,-2.172],[122.066,-2.648],[122.185,-3.123],[122.305,-3.607],[122.426,-4.09],[122.546,-4.573],[122.667,-5.056],[122.788,-5.539],[122.909,-6.023],[123.031,-6.506],[123.153,-6.989],[123.274,-7.472],[123.397,-7.955],[123.519,-8.438],[123.642,-8.921],[123.765,-9.404],[123.889,-9.886],[124.012,-10.369],[124.137,-10.852],[124.261,-11.335],[124.386,-11.817],[124.512,-12.3],[124.638,-12.782],[124.764,-13.265],[124.891,-13.747],[125.019,-14.23],[125.147,-14.712],[125.275,-15.194]]}},{"type":"Feature","properties":{"boundary_type":"subduction","feature_type":"gpml:SubductionZone","polarity":"Right","overriding_plate_id":101,"subducting_plate_id":90107,"plate_ids":[101,90107],"name":"Cathaysia_SZ"},"geometry":{"type":"LineString","coordinates":[[-87.913,7.505],[-87.605,7.146],[-87.298,6.787],[-86.991,6.427],[-86.685,6.067],[-86.379,5.707],[-86.073,5.347],[-85.768,4.987],[-85.463,4.627],[-85.158,4.266],[-84.854,3.905],[-84.55,3.545],[-84.246,3.184],[-83.943,2.823],[-83.639,2.462],[-83.336,2.101],[-82.909,1.841],[-82.482,1.581],[-82.056,1.322],[-81.629,1.062],[-81.202,0.802],[-80.776,0.542],[-80.349,0.282],[-79.923,0.022],[-79.497,-0.238],[-79.07,-0.498],[-78.644,-0.758],[-78.217,-1.018],[-77.791,-1.278],[-77.364,-1.538],[-76.937,-1.798],[-76.504,-2.044],[-76.071,-2.29],[-75.638,-2.536],[-75.205,-2.782],[-74.772,-3.028],[-74.338,-3.274],[-73.904,-3.519],[-73.47,-3.764],[-73.036,-4.009],[-72.601,-4.254],[-72.167,-4.499],[-71.731,-4.743],[-71.296,-4.987],[-70.86,-5.23],[-70.424,-5.474],[-69.967,-5.656]]}},{"type":"Feature","properties":{"boundary_type":"subduction","feature_type":"gpml:SubductionZone","polarity":"Right","overriding_plate_id":101,"subducting_plate_id":90106,"plate_ids":[101,90106],"name":""},"geometry":{"type":"LineString","coordinates":[[-173.589,50.048],[-173.408,50.506],[-173.223,50.965],[-173.035,51.423],[-172.843,51.881],[-172.647,52.338],[-172.446,52.795],[-172.242,53.252],[-172.033,53.709],[-171.82,54.165],[-171.602,54.62],[-171.397,55.087],[-171.188,55.554],[-170.973,56.02],[-170.753,56.486],[-170.528,56.951],[-170.297,57.416],[-170.061,57.881],[-169.818,58.345],[-169.568,58.809],[-169.312,59.272],[-169.049,59.735],[-168.778,60.197],[-168.5,60.659],[-168.213,61.12]]}},{"type":"Feature","properties":{"boundary_type":"subduction","feature_type":"gpml:SubductionZone","polarity":"Right","overriding_plate_id":801,"subducting_plate_id":90106,"plate_ids":[801,90106],"name":""},"geometry":{"type":"LineString","coordinates":[[-168.213,61.12],[-167.927,61.566],[-167.633,62.012],[-167.33,62.457],[-167.018,62.902],[-166.696,63.346],[-166.364,63.789],[-166.022,64.231],[-165.668,64.672],[-165.303,65.113],[-164.925,65.553],[-164.535,65.991],[-164.131,66.429],[-163.712,66.866],[-163.278,67.301],[-162.86,67.752],[-162.425,68.202],[-161.972,68.65],[-161.502,69.097],[-161.011,69.543],[-160.5,69.988],[-159.966,70.431],[-159.409,70.872],[-158.827,71.311],[-158.217,71.749],[-157.579,72.184],[-156.91,72.618],[-156.208,73.049]]}},{"type":"Feature","properties":{"boundary_type":"subduction","feature_type":"gpml:SubductionZone","polarity":"Left","overriding_plate_id":101,"subducting_plate_id":201,"plate_ids":[101,201],"name":"Baltica_SZ"},"geometry":{"type":"LineString","coordinates":[[-165.975,-1.757],[-165.699,-2.132],[-165.422,-2.507],[-165.145,-2.882],[-164.867,-3.257],[-164.59,-3.632],[-164.312,-4.007],[-164.034,-4.381],[-163.756,-4.756],[-163.478,-5.13],[-163.199,-5.504],[-162.92,-5.878],[-162.64,-6.252],[-162.36,-6.626]]}},{"type":"Feature","properties":{"boundary_type":"subduction","feature_type":"gpml:SubductionZone","polarity":"Left","overriding_plate_id":101,"subducting_plate_id":911001,"plate_ids":[101,911001],"name":"Baltica_SZ"},"geometry":{"type":"LineString","coordinates":[[-162.36,-6.626],[-162.122,-6.943],[-161.884,-7.261],[-161.645,-7.578],[-161.406,-7.895],[-161.116,-8.264],[-160.825,-8.632],[-160.534,-9.001],[-160.243,-9.369],[-159.951,-9.737],[-159.658,-10.105],[-159.364,-10.472],[-159.07,-10.839],[-158.775,-11.206],[-158.479,-11.573],[-158.29,-11.999],[-158.1,-12.426],[-157.909,-12.852],[-157.718,-13.278],[-157.526,-13.704],[-157.333,-14.13],[-157.139,-14.556],[-156.945,-14.981],[-156.75,-15.407],[-156.717,-15.864],[-156.684,-16.322],[-156.651,-16.78],[-156.618,-17.238],[-156.584,-17.695],[-156.551,-18.153],[-156.517,-18.611],[-156.483,-19.068],[-156.449,-19.526],[-156.414,-19.984],[-156.38,-20.441],[-156.345,-20.899],[-156.243,-21.352],[-156.14,-21.805],[-156.036,-22.258],[-155.932,-22.71],[-155.827,-23.163],[-155.722,-23.615],[-155.616,-24.068],[-155.508,-24.52],[-155.401,-24.973],[-155.292,-25.425],[-155.183,-25.877],[-155.072,-26.329],[-154.884,-26.753],[-154.694,-27.176],[-154.502,-27.599],[-154.309,-28.022],[-154.115,-28.445],[-153.919,-28.867],[-153.721,-29.289],[-153.522,-29.711],[-153.321,-30.132],[-153.118,-30.553],[-152.815,-30.916],[-152.51,-31.278],[-152.202,-31.64],[-151.892,-32.001],[-151.579,-32.36],[-151.264,-32.72]]}},{"type":"Feature","properties":{"boundary_type":"subduction","feature_type":"gpml:SubductionZone","polarity":"Left","overriding_plate_id":101,"subducting_plate_id":201,"plate_ids":[101,201],"name":"Eastern_Laurentia_SZ"},"geometry":{"type":"LineString","coordinates":[[-171.225,15.456],[-170.919,15.073],[-170.613,14.688],[-170.309,14.304],[-170.006,13.919],[-169.703,13.534],[-169.402,13.148],[-169.102,12.762],[-168.802,12.375],[-168.503,11.989],[-168.206,11.602],[-168.063,11.15],[-167.921,10.699],[-167.779,10.247],[-167.638,9.795],[-167.497,9.344],[-167.356,8.892],[-167.216,8.44],[-167.076,7.988],[-166.936,7.536],[-166.797,7.084],[-166.658,6.632],[-166.519,6.18],[-166.381,5.728],[-166.368,5.261],[-166.355,4.794],[-166.342,4.326],[-166.329,3.859],[-166.316,3.392],[-166.303,2.925],[-166.29,2.457],[-166.277,1.99],[-166.264,1.523],[-166.252,1.056],[-166.239,0.589],[-166.226,0.121],[-166.163,-0.348],[-166.101,-0.818],[-166.038,-1.288],[-165.975,-1.757]]}},{"type":"Feature","properties":{"boundary_type":"subduction","feature_type":"gpml:SubductionZone","polarity":"Right","overriding_plate_id":80101,"subducting_plate_id":90106,"plate_ids":[80101,90106],"name":""},"geometry":{"type":"LineString","coordinates":[[-100.383,61.007],[-99.407,60.915],[-98.437,60.816],[-97.474,60.71],[-96.516,60.598],[-95.68,60.411],[-94.853,60.219],[-94.036,60.021],[-93.229,59.819],[-92.431,59.612],[-91.644,59.4],[-90.866,59.184],[-90.098,58.962],[-89.341,58.737]]}},{"type":"Feature","properties":{"boundary_type":"subduction","feature_type":"gpml:SubductionZone","polarity":"Right","overriding_plate_id":80101,"subducting_plate_id":90107,"plate_ids":[80101,90107],"name":""},"geometry":{"type":"LineString","coordinates":[[-89.341,58.737],[-88.802,58.572],[-88.328,58.195],[-87.865,57.818],[-87.411,57.438],[-86.967,57.057],[-86.531,56.674],[-86.105,56.29],[-85.687,55.904],[-85.277,55.517],[-84.875,55.129],[-84.481,54.739],[-84.182,54.28],[-83.89,53.82],[-83.603,53.36],[-83.324,52.899],[-83.049,52.437],[-82.781,51.975],[-82.518,51.512],[-82.261,51.048],[-82.008,50.584],[-81.761,50.12],[-81.67,49.628],[-81.582,49.136],[-81.495,48.644],[-81.41,48.152],[-81.326,47.66],[-81.244,47.168],[-81.163,46.676],[-81.084,46.184],[-81.195,45.707],[-81.305,45.23],[-81.412,44.753],[-81.518,44.276],[-81.622,43.799],[-81.724,43.322],[-81.825,42.844],[-81.924,42.367],[-82.022,41.889],[-82.193,41.516],[-82.362,41.143],[-82.53,40.769]]}},{"type":"Feature","properties":{"boundary_type":"transform","feature_type":"gpml:Transform","polarity":null,"overriding_plate_id":null,"subducting_plate_id":null,"plate_ids":[80101,90107],"name":""},"geometry":{"type":"LineString","coordinates":[[-96.127,30.975],[-95.724,31.323],[-95.319,31.671],[-94.91,32.018],[-94.499,32.363],[-94.084,32.706],[-93.666,33.049],[-93.245,33.39],[-92.82,33.729],[-92.393,34.067],[-91.961,34.404],[-91.526,34.739],[-91.088,35.072],[-90.646,35.404],[-90.201,35.735],[-89.751,36.063],[-89.298,36.39],[-88.842,36.715],[-88.381,37.039],[-87.916,37.36],[-87.448,37.68],[-86.975,37.998],[-86.498,38.314],[-86.017,38.628],[-85.532,38.94],[-85.043,39.25],[-84.549,39.558],[-84.051,39.864],[-83.548,40.168],[-83.041,40.47],[-82.53,40.769]]}},{"type":"Feature","properties":{"boundary_type":"ridge","feature_type":"gpml:MidOceanRidge","polarity":null,"overriding_plate_id":null,"subducting_plate_id":null,"plate_ids":[90105,90107],"name":""},"geometry":{"type":"LineString","coordinates":[[23.211,15.004],[22.982,14.559],[22.755,14.113],[22.528,13.666],[22.302,13.22],[22.077,12.774],[21.852,12.327],[21.629,11.88],[21.406,11.433],[21.184,10.986],[20.962,10.538],[20.742,10.091],[20.521,9.643],[20.302,9.195],[20.083,8.747],[19.864,8.299],[19.646,7.851],[19.429,7.402],[19.211,6.954],[18.995,6.505],[18.778,6.057],[18.562,5.608],[18.347,5.159],[18.131,4.71],[17.916,4.261],[17.702,3.812],[17.487,3.363],[17.273,2.914],[17.058,2.465],[16.844,2.016],[16.63,1.566],[16.417,1.117],[16.203,0.668],[15.989,0.219],[15.775,-0.231],[15.562,-0.68],[15.348,-1.129],[15.134,-1.578],[14.92,-2.028],[14.706,-2.477],[14.492,-2.926],[14.894,-3.16],[15.296,-3.395],[15.698,-3.629],[16.101,-3.863],[16.504,-4.097],[16.907,-4.33],[17.31,-4.564],[17.714,-4.797],[17.454,-5.222],[17.194,-5.647],[16.933,-6.072],[16.673,-6.497],[16.411,-6.921],[16.149,-7.346],[15.887,-7.77],[15.624,-8.194],[15.361,-8.618],[15.097,-9.042],[14.832,-9.466],[14.567,-9.889],[14.301,-10.313],[14.034,-10.736],[13.767,-11.158],[13.499,-11.581],[13.23,-12.003],[12.96,-12.425],[12.689,-12.847],[12.417,-13.269],[12.145,-13.69],[11.871,-14.111],[11.597,-14.531],[11.321,-14.952],[11.044,-15.372],[10.767,-15.791],[10.488,-16.211],[10.207,-16.63],[9.926,-17.048],[9.643,-17.466],[9.359,-17.884],[9.074,-18.301],[8.787,-18.718],[8.499,-19.135],[8.21,-19.551],[7.919,-19.966],[7.626,-20.381],[7.332,-20.796],[7.036,-21.21],[6.739,-21.623],[6.44,-22.036],[6.139,-22.449],[5.836,-22.861],[5.532,-23.272],[5.225,-23.683],[4.917,-24.093],[4.607,-24.503],[4.294,-24.912],[3.98,-25.32],[3.663,-25.727],[3.345,-26.134],[3.024,-26.54],[2.7,-26.946],[2.375,-27.35],[2.047,-27.754],[1.717,-28.158],[1.384,-28.56],[1.048,-28.961],[0.71,-29.362],[0.369,-29.762],[0.026,-30.161],[-0.32,-30.559],[-0.669,-30.956],[-1.021,-31.352],[-1.376,-31.748],[-1.734,-32.142],[-2.095,-32.535],[-2.46,-32.927],[-2.827,-33.318],[-3.198,-33.708],[-3.572,-34.097],[-3.95,-34.485],[-4.331,-34.872],[-4.716,-35.257],[-5.104,-35.641],[-5.496,-36.024],[-5.892,-36.406],[-6.292,-36.786],[-6.696,-37.165],[-6.324,-37.511],[-5.947,-37.856],[-5.568,-38.2],[-5.185,-38.542],[-4.798,-38.883],[-4.407,-39.223],[-4.013,-39.562],[-3.615,-39.899],[-3.212,-40.235],[-2.806,-40.57],[-2.396,-40.903],[-2.857,-41.248],[-3.322,-41.592],[-3.792,-41.934],[-4.268,-42.274],[-4.749,-42.611],[-5.234,-42.947],[-5.726,-43.281],[-6.222,-43.613],[-6.724,-43.942],[-7.232,-44.269],[-7.745,-44.594],[-8.264,-44.917],[-8.789,-45.237],[-9.32,-45.555],[-9.857,-45.87],[-10.4,-46.183],[-10.949,-46.493],[-11.504,-46.801],[-12.066,-47.105],[-12.634,-47.408],[-13.209,-47.707],[-13.79,-48.003],[-14.378,-48.296],[-14.973,-48.587],[-15.574,-48.874],[-16.183,-49.158],[-16.798,-49.439],[-17.421,-49.716],[-18.05,-49.99],[-18.687,-50.261],[-19.331,-50.528],[-19.982,-50.792],[-20.641,-51.051],[-21.307,-51.308],[-21.981,-51.56],[-22.662,-51.808],[-23.35,-52.053],[-24.046,-52.293],[-24.749,-52.529],[-25.46,-52.761],[-26.179,-52.989],[-26.905,-53.213],[-27.638,-53.432],[-28.379,-53.646],[-29.128,-53.856],[-29.884,-54.061]]}},{"type":"Feature","properties":{"boundary_type":"ridge","feature_type":"gpml:MidOceanRidge","polarity":null,"overriding_plate_id":null,"subducting_plate_id":null,"plate_ids":[90105,90106],"name":""},"geometry":{"type":"LineString","coordinates":[[25.433,11.554],[25.189,11.939],[24.945,12.323],[24.699,12.706],[24.453,13.09],[24.206,13.473],[23.959,13.856],[23.71,14.239],[23.461,14.622],[23.211,15.004]]}},{"type":"Feature","properties":{"boundary_type":"ridge","feature_type":"gpml:MidOceanRidge","polarity":null,"overriding_plate_id":null,"subducting_plate_id":null,"plate_ids":[90106,90107],"name":""},"geometry":{"type":"LineString","coordinates":[[23.211,15.004],[22.937,15.421],[22.662,15.837],[22.386,16.253],[22.108,16.669],[21.83,17.084],[21.55,17.499],[21.269,17.914],[20.987,18.328],[20.703,18.742],[20.418,19.155],[20.131,19.568],[19.843,19.98],[19.554,20.392],[19.263,20.804],[18.97,21.215],[18.676,21.625],[18.38,22.035],[18.082,22.444],[17.782,22.853],[17.481,23.262],[17.178,23.669],[16.873,24.076],[16.566,24.483],[16.257,24.889],[15.946,25.294],[15.633,25.699],[15.318,26.102],[15.001,26.506],[14.681,26.908],[14.359,27.31],[14.035,27.711],[13.708,28.111],[13.379,28.511],[13.047,28.909],[12.713,29.307],[12.377,29.704],[12.037,30.101],[11.695,30.496],[11.35,30.89],[11.002,31.284],[10.652,31.676],[10.298,32.068],[9.941,32.458],[9.581,32.848],[9.218,33.237],[8.852,33.624],[8.483,34.01],[8.11,34.396],[7.734,34.78],[7.354,35.163],[6.97,35.545],[6.583,35.925],[6.116,35.614],[5.653,35.301],[5.194,34.986],[4.738,34.67],[4.285,34.352],[3.836,34.032],[3.39,33.71],[2.948,33.387],[2.509,33.063],[2.073,32.737],[1.64,32.409],[1.21,32.08],[0.784,31.75],[0.436,32.146],[0.085,32.542],[-0.269,32.936],[-0.626,33.33],[-0.986,33.722],[-1.35,34.114],[-1.717,34.504],[-2.088,34.894],[-2.462,35.282],[-2.839,35.669],[-3.221,36.055],[-3.606,36.439],[-3.995,36.823],[-4.388,37.205],[-4.784,37.585],[-5.185,37.965],[-5.59,38.343],[-6.0,38.72],[-6.413,39.095],[-6.831,39.469],[-7.254,39.841],[-7.681,40.211],[-8.113,40.58],[-8.549,40.948],[-8.991,41.314],[-9.437,41.678],[-9.889,42.04],[-10.346,42.401],[-10.808,42.759],[-11.275,43.116],[-11.748,43.471],[-12.226,43.824],[-12.71,44.175],[-13.2,44.524],[-13.696,44.871],[-14.197,45.215],[-14.705,45.557],[-15.219,45.897],[-15.739,46.235],[-16.266,46.571],[-16.799,46.903],[-17.339,47.234],[-17.886,47.562],[-18.439,47.887],[-19.0,48.209],[-19.567,48.529],[-20.142,48.846],[-20.724,49.16],[-21.313,49.471],[-21.91,49.779],[-22.515,50.084],[-23.127,50.386],[-23.747,50.684],[-24.375,50.979],[-25.011,51.271],[-25.654,51.559],[-26.307,51.844],[-26.967,52.125],[-27.636,52.402],[-28.313,52.676],[-28.998,52.945],[-29.692,53.211],[-30.395,53.472],[-31.106,53.73],[-31.826,53.983],[-32.555,54.232],[-33.292,54.476],[-34.039,54.716],[-34.794,54.951],[-35.558,55.181],[-36.33,55.407],[-37.112,55.627],[-37.902,55.843],[-38.701,56.053],[-39.508,56.258],[-40.324,56.458],[-41.149,56.653],[-41.982,56.842],[-42.823,57.025],[-42.679,57.463],[-42.531,57.901],[-42.38,58.339],[-42.225,58.777],[-42.065,59.214],[-41.902,59.652],[-42.836,59.807],[-43.778,59.955],[-44.729,60.097],[-45.688,60.232],[-46.654,60.36],[-47.628,60.48],[-48.609,60.594],[-49.597,60.7],[-50.591,60.8],[-51.591,60.891],[-52.596,60.976],[-53.607,61.052],[-54.622,61.121],[-55.641,61.183],[-56.664,61.237],[-57.691,61.283],[-58.72,61.321],[-59.751,61.352],[-60.784,61.374],[-61.819,61.389],[-62.854,61.396],[-63.889,61.395],[-64.924,61.387],[-65.958,61.37],[-66.991,61.345],[-68.022,61.313],[-69.051,61.273],[-70.077,61.225],[-71.099,61.17],[-72.117,61.107],[-73.132,61.036],[-74.141,60.957],[-75.145,60.871],[-76.144,60.778],[-77.136,60.677],[-78.123,60.569],[-79.102,60.454],[-80.074,60.332],[-81.039,60.202],[-81.996,60.066],[-82.945,59.923],[-83.885,59.773],[-84.817,59.616],[-85.74,59.453],[-86.654,59.283],[-87.559,59.107],[-88.455,58.925],[-89.341,58.737]]}},{"type":"Feature","properties":{"boundary_type":"ridge","feature_type":"gpml:MidOceanRidge","polarity":null,"overriding_plate_id":null,"subducting_plate_id":null,"plate_ids":[90105,90106],"name":""},"geometry":{"type":"LineString","coordinates":[[25.433,11.554],[25.941,11.536],[26.448,11.518],[26.956,11.498],[27.463,11.477],[27.97,11.456],[28.478,11.433],[28.985,11.41],[29.492,11.386],[29.999,11.361],[30.506,11.335],[31.012,11.308],[31.519,11.281],[32.026,11.252],[32.532,11.223],[33.038,11.193],[33.545,11.162],[34.051,11.13],[34.557,11.097],[35.063,11.064],[35.569,11.029],[36.074,10.994],[36.58,10.958],[37.085,10.921],[37.591,10.883],[38.096,10.845],[38.601,10.805],[39.106,10.765],[39.61,10.724],[40.115,10.682],[40.62,10.64],[41.124,10.596],[41.628,10.552],[42.132,10.507],[42.636,10.461],[43.14,10.415],[43.644,10.367],[44.147,10.319],[44.65,10.27],[45.153,10.22],[45.196,10.71],[45.238,11.2],[45.281,11.691],[45.324,12.181],[45.367,12.671],[45.41,13.161],[45.454,13.651],[45.497,14.141],[45.541,14.631],[45.585,15.121],[45.629,15.611],[45.673,16.101],[45.718,16.591],[45.762,17.081],[45.808,17.571],[45.853,18.061],[45.898,18.551],[45.944,19.041],[45.99,19.531],[46.036,20.021],[46.083,20.511],[46.13,21.001],[46.177,21.49],[46.225,21.98],[46.273,22.47],[46.812,22.507],[47.352,22.541],[47.893,22.574],[48.433,22.605],[48.974,22.634],[49.515,22.662],[50.056,22.687],[50.597,22.711],[51.139,22.733],[51.68,22.753],[52.222,22.771],[52.764,22.788],[53.306,22.803],[53.849,22.815],[54.391,22.826],[54.933,22.835],[55.476,22.843],[56.018,22.848],[56.561,22.852],[57.104,22.854],[57.646,22.854],[58.189,22.852],[58.731,22.848],[59.274,22.842],[59.816,22.835],[60.359,22.826],[60.901,22.815],[61.443,22.802],[61.985,22.787],[62.527,22.77],[63.069,22.752],[63.611,22.732],[64.152,22.71],[64.694,22.686],[65.235,22.66],[65.776,22.632],[66.317,22.603],[66.857,22.572],[67.397,22.539],[67.937,22.504],[68.477,22.468],[69.016,22.429],[69.555,22.389],[70.094,22.347],[70.633,22.304],[71.171,22.258],[71.708,22.211],[72.246,22.162],[72.783,22.111],[73.319,22.059],[73.856,22.004],[74.391,21.948],[74.927,21.89],[75.462,21.831],[75.996,21.77],[76.53,21.707],[77.064,21.642],[77.597,21.576],[78.129,21.508],[78.661,21.438],[79.193,21.367],[79.724,21.294],[79.82,21.757],[79.917,22.22],[80.015,22.683],[80.113,23.146],[80.212,23.609],[80.311,24.072],[80.412,24.535],[80.513,24.998],[80.615,25.461],[80.718,25.923],[80.821,26.386],[80.925,26.849],[81.031,27.311],[81.137,27.773],[81.244,28.236],[81.351,28.698],[81.46,29.16],[82.031,29.136],[82.602,29.11],[83.172,29.081],[83.742,29.05],[84.311,29.016],[84.881,28.98],[85.449,28.942],[86.018,28.901],[86.586,28.858],[87.153,28.812],[87.72,28.764],[88.286,28.714],[88.852,28.661],[89.417,28.606],[89.982,28.549],[90.546,28.489],[91.109,28.427],[91.672,28.363],[92.234,28.296],[92.795,28.227],[93.355,28.156],[93.915,28.082],[94.474,28.007],[95.032,27.929],[95.59,27.848],[96.146,27.766],[96.702,27.681],[97.257,27.594],[97.811,27.505],[98.364,27.414],[98.916,27.32],[99.467,27.225],[100.017,27.127],[100.566,27.027],[101.114,26.925],[101.662,26.82],[102.208,26.714],[102.753,26.606],[103.297,26.495],[103.84,26.383],[104.382,26.268],[104.923,26.152],[105.463,26.033],[106.002,25.912],[106.539,25.79],[107.076,25.665],[107.611,25.539],[108.145,25.41],[108.679,25.28],[109.21,25.147],[109.741,25.013],[110.271,24.877],[110.799,24.739],[111.327,24.599],[111.853,24.458],[112.378,24.314],[112.901,24.169],[113.424,24.022],[113.945,23.873],[114.465,23.723],[114.984,23.57],[115.502,23.416],[116.018,23.261],[116.533,23.103],[117.048,22.944],[117.56,22.783],[118.072,22.621],[118.582,22.457],[119.092,22.291],[119.6,22.124],[120.106,21.956],[120.612,21.785]]}},{"type":"Feature","properties":{"boundary_type":"subduction","feature_type":"gpml:SubductionZone","polarity":"Right","overriding_plate_id":null,"subducting_plate_id":null,"plate_ids":[911001],"name":""},"geometry":{"type":"LineString","coordinates":[[-147.778,-63.644],[-148.568,-63.751],[-149.364,-63.854],[-150.166,-63.953]]}},{"type":"Feature","properties":{"boundary_type":"subduction","feature_type":"gpml:SubductionZone","polarity":"Right","overriding_plate_id":911001,"subducting_plate_id":90105,"plate_ids":[90105,911001],"name":""},"geometry":{"type":"LineString","coordinates":[[-150.166,-63.953],[-150.735,-64.02],[-151.306,-64.084],[-152.444,-64.116],[-153.585,-64.139],[-154.728,-64.153],[-155.871,-64.158],[-157.014,-64.155],[-158.156,-64.142],[-159.298,-64.12],[-160.437,-64.089],[-161.573,-64.05],[-162.705,-64.002],[-163.833,-63.945],[-164.957,-63.879],[-166.074,-63.804],[-167.186,-63.721],[-168.291,-63.63],[-169.388,-63.53],[-170.477,-63.421],[-171.558,-63.305],[-172.63,-63.18],[-173.692,-63.047],[-174.744,-62.907],[-175.786,-62.759],[-176.818,-62.603],[-177.838,-62.439],[-178.847,-62.268],[-179.844,-62.09],[179.17,-61.905],[178.197,-61.713],[177.236,-61.514],[176.287,-61.309],[175.351,-61.096],[174.427,-60.878],[173.517,-60.653],[172.619,-60.422],[171.734,-60.186],[170.861,-59.943],[170.002,-59.695],[169.155,-59.441],[168.321,-59.182],[167.5,-58.917],[166.691,-58.648],[165.895,-58.373],[165.111,-58.094],[164.34,-57.809],[163.58,-57.521],[162.833,-57.227],[162.098,-56.93],[161.374,-56.628],[160.662,-56.322],[159.961,-56.012],[159.272,-55.698],[158.593,-55.38],[157.926,-55.058],[157.269,-54.733],[156.622,-54.405],[155.986,-54.073],[155.36,-53.738],[154.744,-53.399],[154.138,-53.058],[153.542,-52.713],[152.954,-52.365],[152.376,-52.015],[151.807,-51.662],[151.247,-51.306],[150.696,-50.947],[150.21,-50.565],[149.732,-50.181],[149.261,-49.794],[148.798,-49.406],[148.342,-49.016],[147.894,-48.625],[147.452,-48.231],[147.017,-47.836],[146.589,-47.439],[146.167,-47.041],[145.751,-46.641],[145.341,-46.24],[144.938,-45.837],[144.54,-45.433],[144.148,-45.027],[143.761,-44.62],[143.38,-44.212],[143.004,-43.803],[142.633,-43.392],[142.267,-42.981],[141.906,-42.568],[141.55,-42.154],[141.199,-41.738],[140.852,-41.322],[140.509,-40.905],[140.171,-40.487],[139.836,-40.068],[139.506,-39.647],[139.18,-39.226],[138.858,-38.804],[138.54,-38.382],[138.225,-37.958],[137.914,-37.533],[137.606,-37.108],[137.302,-36.682]]}},{"type":"Feature","properties":{"boundary_type":"subduction","feature_type":"gpml:SubductionZone","polarity":"Right","overriding_plate_id":201,"subducting_plate_id":90105,"plate_ids":[201,90105],"name":""},"geometry":{"type":"LineString","coordinates":[[137.302,-36.682],[137.002,-36.256],[136.705,-35.829],[136.411,-35.401],[136.12,-34.973],[135.833,-34.543],[135.548,-34.114],[135.266,-33.683],[134.987,-33.252],[134.711,-32.82],[134.437,-32.388],[134.166,-31.955],[133.897,-31.522],[133.631,-31.088],[133.368,-30.653],[133.107,-30.218],[132.848,-29.783],[132.591,-29.347],[132.336,-28.91],[132.084,-28.473],[131.834,-28.036],[131.585,-27.598],[131.339,-27.159],[131.095,-26.72],[130.852,-26.281],[130.612,-25.842],[130.373,-25.402],[130.136,-24.961],[129.9,-24.52],[129.666,-24.079],[129.434,-23.638],[129.204,-23.196],[128.974,-22.754],[128.747,-22.311],[128.521,-21.869],[128.296,-21.425],[128.072,-20.982],[127.85,-20.538],[127.629,-20.094],[127.41,-19.65],[127.192,-19.206],[126.974,-18.761],[126.758,-18.316],[126.543,-17.87],[126.329,-17.425],[126.117,-16.979],[125.905,-16.533],[125.694,-16.087],[125.484,-15.641],[125.275,-15.194]]}},{"type":"Feature","properties":{"boundary_type":"ridge","feature_type":"gpml:MidOceanRidge","polarity":null,"overriding_plate_id":null,"subducting_plate_id":null,"plate_ids":[201,911001],"name":""},"geometry":{"type":"LineString","coordinates":[[137.302,-36.682],[137.904,-36.568],[138.503,-36.451],[139.101,-36.331],[139.697,-36.208],[140.291,-36.082],[140.883,-35.953],[141.474,-35.821],[142.062,-35.686],[142.648,-35.549],[143.232,-35.408],[143.814,-35.265],[144.394,-35.119],[144.972,-34.971],[145.548,-34.819],[146.122,-34.665],[146.694,-34.508],[147.263,-34.349],[147.83,-34.187],[148.395,-34.022],[148.958,-33.855],[149.519,-33.685],[150.077,-33.513],[150.633,-33.338],[151.187,-33.16],[151.739,-32.981],[152.288,-32.799],[152.835,-32.614],[153.38,-32.427],[153.923,-32.238],[154.463,-32.046],[155.001,-31.853],[155.537,-31.656],[156.07,-31.458],[156.602,-31.258],[157.131,-31.055],[157.657,-30.85],[158.182,-30.643],[158.704,-30.434],[159.224,-30.223],[159.742,-30.01],[160.257,-29.795],[160.771,-29.578],[160.971,-29.947],[161.172,-30.316],[161.375,-30.685],[161.58,-31.054],[161.786,-31.422],[162.294,-31.194],[162.799,-30.965],[163.302,-30.733],[163.803,-30.499],[164.301,-30.264],[164.797,-30.026],[165.29,-29.787],[165.782,-29.546],[166.27,-29.303],[166.757,-29.058],[167.241,-28.812],[167.723,-28.564],[168.202,-28.314],[168.679,-28.062],[169.155,-27.809],[169.627,-27.554],[170.098,-27.298],[170.567,-27.04],[171.033,-26.781],[171.497,-26.52],[171.959,-26.257],[172.419,-25.993],[172.877,-25.728],[173.333,-25.461],[173.787,-25.193],[174.239,-24.923],[174.688,-24.652],[175.136,-24.38],[175.582,-24.106],[176.026,-23.831],[176.469,-23.555],[176.909,-23.278],[177.347,-22.999],[177.784,-22.719],[177.507,-22.299],[177.232,-21.878],[176.958,-21.456],[176.686,-21.034],[176.416,-20.612],[176.147,-20.189],[175.879,-19.766],[175.613,-19.342],[175.348,-18.918],[175.783,-18.639],[176.216,-18.359],[176.648,-18.077],[177.079,-17.795],[177.508,-17.512],[177.936,-17.228],[178.363,-16.943],[178.788,-16.657],[179.212,-16.37],[179.635,-16.082],[-179.944,-15.794],[-179.523,-15.505],[-179.104,-15.215],[-178.686,-14.924],[-178.269,-14.632],[-177.853,-14.34],[-177.439,-14.047],[-177.025,-13.753],[-176.612,-13.459],[-176.201,-13.164],[-175.79,-12.868],[-175.381,-12.572],[-174.972,-12.275],[-174.564,-11.977],[-174.157,-11.679],[-173.751,-11.38],[-173.489,-11.727],[-173.227,-12.074],[-172.963,-12.42],[-172.699,-12.767],[-172.434,-13.113],[-172.169,-13.458],[-171.903,-13.804],[-171.495,-13.511],[-171.089,-13.217],[-170.684,-12.923],[-170.28,-12.628],[-169.876,-12.333],[-169.474,-12.037],[-169.073,-11.741],[-168.672,-11.443],[-168.272,-11.146],[-167.873,-10.848],[-167.475,-10.549],[-167.077,-10.25],[-166.681,-9.95],[-166.285,-9.65],[-165.89,-9.349],[-165.495,-9.048],[-165.101,-8.747],[-164.708,-8.445],[-164.315,-8.143],[-163.923,-7.84],[-163.532,-7.537],[-163.141,-7.234],[-162.75,-6.93],[-162.36,-6.626]]}},{"type":"Feature","properties":{"boundary_type":"transform","feature_type":"gpml:Transform","polarity":null,"overriding_plate_id":null,"subducting_plate_id":null,"plate_ids":[101,90105],"name":""},"geometry":{"type":"LineString","coordinates":[[-28.973,-65.183],[-29.17,-65.651],[-29.374,-66.12],[-29.586,-66.588],[-29.805,-67.056],[-30.034,-67.523],[-30.271,-67.991],[-30.519,-68.457],[-30.776,-68.924],[-31.045,-69.39],[-31.326,-69.856],[-31.619,-70.321],[-31.926,-70.785],[-32.61,-71.231],[-33.326,-71.675],[-34.076,-72.115],[-34.862,-72.553],[-35.687,-72.987],[-36.554,-73.418],[-37.466,-73.845],[-38.425,-74.268],[-39.436,-74.687],[-40.503,-75.1],[-41.628,-75.509],[-42.816,-75.912],[-44.073,-76.309],[-45.403,-76.699],[-46.81,-77.081],[-48.301,-77.456],[-49.881,-77.822],[-51.557,-78.179],[-53.333,-78.525],[-55.217,-78.859],[-57.213,-79.182],[-59.328,-79.49],[-61.567,-79.784],[-63.932,-80.062],[-66.428,-80.322],[-69.055,-80.563],[-71.813,-80.784],[-74.698,-80.982],[-77.704,-81.158],[-80.822,-81.308],[-84.039,-81.432],[-87.339,-81.529],[-90.705,-81.598],[-94.113,-81.637],[-97.541,-81.647],[-100.966,-81.628],[-104.364,-81.58],[-107.711,-81.502],[-110.988,-81.397],[-114.176,-81.264],[-117.26,-81.106],[-120.23,-80.924],[-123.076,-80.718],[-125.185,-80.36],[-127.141,-79.99],[-128.958,-79.61],[-130.646,-79.22],[-132.217,-78.821],[-133.68,-78.415],[-135.044,-78.003],[-136.318,-77.583],[-137.51,-77.159],[-138.626,-76.729],[-139.673,-76.295],[-140.656,-75.857],[-141.582,-75.414],[-142.454,-74.969],[-143.276,-74.52],[-144.054,-74.069],[-144.789,-73.614],[-145.486,-73.158],[-146.146,-72.699],[-146.774,-72.238],[-147.371,-71.775],[-147.939,-71.311],[-148.138,-70.821],[-148.327,-70.332],[-148.508,-69.842],[-148.68,-69.352],[-148.845,-68.862],[-149.003,-68.371],[-149.153,-67.881],[-149.298,-67.39],[-149.437,-66.899],[-149.57,-66.408],[-149.699,-65.918],[-149.822,-65.426],[-149.941,-64.935],[-150.055,-64.444],[-150.166,-63.953]]}},{"type":"Feature","properties":{"boundary_type":"transform","feature_type":"gpml:Transform","polarity":null,"overriding_plate_id":null,"subducting_plate_id":null,"plate_ids":[101],"name":""},"geometry":{"type":"LineString","coordinates":[[-150.166,-63.953],[-150.273,-63.46],[-150.376,-62.967],[-150.476,-62.474],[-150.573,-61.982],[-150.667,-61.489]]}}]}