{"type":"FeatureCollection","meta":{"model":"Cao2024","reconstruction_time_ma":350.0,"anchor_plate_id":0,"pygplates_version":"1.0.0","tessellate_degrees":0.5,"polarity_convention":"gpml:subductionPolarity. 'Left'/'Right' names the side of the line, in vertex order, on which the OVERRIDING plate lies. Triangles are drawn on that side.","antimeridian":"Lines are NOT split at +/-180 deg. The renderer works in 3D unit vectors where the dateline is not special; splitting would only add spurious breaks. Do not treat this as RFC 7946 GIS-ready 2D data."},"features":[{"type":"Feature","properties":{"boundary_type":"subduction","feature_type":"gpml:SubductionZone","polarity":"Left","overriding_plate_id":101,"subducting_plate_id":701,"plate_ids":[101,701],"name":"Scythian-Turan subduction zone"},"geometry":{"type":"LineString","coordinates":[[10.567,-12.7],[10.855,-12.403],[11.143,-12.105],[11.43,-11.807],[11.717,-11.509],[12.014,-11.211],[12.31,-10.913],[12.605,-10.615],[12.9,-10.316],[13.194,-10.018],[13.47,-9.603],[13.745,-9.188],[14.019,-8.773],[14.293,-8.357],[14.566,-7.942],[14.839,-7.526],[15.111,-7.11],[15.382,-6.694],[15.653,-6.278],[15.924,-5.861],[16.079,-5.404],[16.233,-4.947],[16.387,-4.49],[16.541,-4.033],[16.695,-3.576],[16.849,-3.119],[17.002,-2.662],[17.156,-2.205],[17.309,-1.748],[17.463,-1.291],[17.616,-0.833],[17.647,-0.752]]}},{"type":"Feature","properties":{"boundary_type":"subduction","feature_type":"gpml:SubductionZone","polarity":"Left","overriding_plate_id":101,"subducting_plate_id":9006,"plate_ids":[101,9006],"name":"Scythian-Turan subduction zone"},"geometry":{"type":"LineString","coordinates":[[17.647,-0.752],[17.821,-0.303],[17.996,0.146],[18.17,0.595],[18.344,1.044],[18.518,1.493],[18.693,1.943],[18.867,2.392],[19.041,2.841],[19.216,3.29],[19.418,3.68],[19.621,4.07],[19.824,4.459],[20.026,4.849],[20.23,5.239],[20.433,5.628],[20.637,6.018],[20.84,6.407],[21.061,6.802],[21.283,7.197],[21.505,7.591],[21.727,7.986],[21.949,8.381],[22.172,8.775],[22.396,9.169],[22.673,9.574],[22.95,9.978],[23.229,10.382],[23.508,10.786],[23.788,11.19],[24.068,11.593],[24.35,11.997],[24.632,12.399],[24.927,12.774],[25.222,13.149],[25.519,13.523],[25.816,13.897],[26.114,14.27],[26.413,14.643],[26.714,15.016],[27.015,15.388],[27.334,15.717],[27.654,16.046],[27.975,16.375],[28.297,16.702],[28.62,17.03],[28.944,17.356],[29.27,17.683],[29.596,18.008]]}},{"type":"Feature","properties":{"boundary_type":"transform","feature_type":"gpml:Transform","polarity":null,"overriding_plate_id":null,"subducting_plate_id":null,"plate_ids":[101,701],"name":"Laurussia-Gondwana transform"},"geometry":{"type":"LineString","coordinates":[[-73.733,-25.132],[-73.351,-25.484],[-72.968,-25.834],[-72.582,-26.183],[-72.194,-26.532],[-71.803,-26.879],[-71.41,-27.225],[-71.015,-27.57],[-70.617,-27.914],[-70.217,-28.257],[-69.814,-28.598],[-69.408,-28.939],[-69.0,-29.278],[-68.589,-29.616],[-68.175,-29.952],[-67.759,-30.288],[-67.339,-30.622],[-66.855,-30.856],[-66.368,-31.089],[-65.879,-31.319],[-65.387,-31.548],[-64.893,-31.775],[-64.397,-32.0],[-63.898,-32.223],[-63.396,-32.444],[-62.893,-32.663],[-62.387,-32.88],[-61.878,-33.095],[-61.367,-33.308],[-60.853,-33.519],[-60.337,-33.727],[-59.818,-33.934],[-59.297,-34.138],[-58.773,-34.34],[-58.247,-34.54],[-57.719,-34.738],[-57.187,-34.933],[-56.654,-35.126],[-56.082,-35.12],[-55.51,-35.112],[-54.939,-35.101],[-54.367,-35.087],[-53.796,-35.07],[-53.225,-35.051],[-52.654,-35.029],[-52.084,-35.005],[-51.514,-34.978],[-50.945,-34.948],[-50.376,-34.915],[-49.807,-34.88],[-49.219,-34.943],[-48.631,-35.002],[-48.041,-35.058],[-47.451,-35.112],[-46.86,-35.163],[-46.269,-35.211],[-45.677,-35.256],[-45.084,-35.298],[-44.49,-35.337],[-43.896,-35.374],[-43.302,-35.407],[-42.771,-35.31],[-42.242,-35.212],[-41.714,-35.11],[-41.187,-35.007],[-40.662,-34.901],[-40.138,-34.793],[-39.615,-34.683],[-39.094,-34.571],[-38.504,-34.517],[-37.915,-34.46],[-37.327,-34.401],[-36.74,-34.338],[-36.153,-34.273],[-35.568,-34.205],[-34.983,-34.134],[-34.4,-34.061],[-33.817,-33.984],[-33.236,-33.905],[-32.655,-33.824],[-32.076,-33.739],[-31.498,-33.652],[-30.921,-33.562],[-30.346,-33.47],[-29.771,-33.374],[-29.198,-33.277],[-28.626,-33.176],[-28.056,-33.073],[-27.487,-32.967],[-26.919,-32.859],[-26.353,-32.748],[-25.787,-32.598],[-25.222,-32.444],[-24.66,-32.288],[-24.099,-32.13],[-23.541,-31.969],[-22.984,-31.806],[-22.43,-31.64],[-21.877,-31.472],[-21.327,-31.302],[-20.778,-31.129],[-20.232,-30.954],[-19.687,-30.776],[-19.145,-30.597],[-18.604,-30.415],[-18.066,-30.231],[-17.53,-30.044],[-17.145,-29.77],[-16.763,-29.494],[-16.382,-29.217],[-16.004,-28.939],[-15.628,-28.66],[-15.253,-28.38],[-14.881,-28.099]]}},{"type":"Feature","properties":{"boundary_type":"subduction","feature_type":"gpml:SubductionZone","polarity":"Left","overriding_plate_id":401,"subducting_plate_id":101,"plate_ids":[101,401],"name":"Tagil arc / Altai Sayan subduction zone"},"geometry":{"type":"LineString","coordinates":[[-2.351,25.881],[-2.239,25.68],[-1.876,25.347],[-1.515,25.014],[-1.156,24.68],[-0.799,24.345],[-0.444,24.009],[-0.091,23.672],[0.261,23.334],[0.668,23.004],[1.074,22.672],[1.477,22.34],[1.879,22.006],[2.279,21.672],[2.676,21.336],[3.072,21.0],[3.467,20.662],[3.859,20.324],[4.304,20.074],[4.748,19.824],[5.19,19.572],[5.631,19.319],[6.071,19.065],[6.509,18.81],[6.946,18.554],[7.381,18.297],[7.815,18.039],[8.248,17.78],[8.68,17.52],[9.152,17.342],[9.622,17.162],[10.092,16.982],[10.561,16.801],[11.029,16.619],[11.496,16.435],[11.962,16.251],[12.457,16.186],[12.951,16.119],[13.446,16.052],[13.939,15.983],[14.433,15.914],[14.926,15.843],[15.419,15.771],[15.911,15.698],[16.404,15.624],[16.895,15.549],[17.387,15.472],[17.878,15.395],[18.368,15.316],[18.859,15.237],[19.349,15.156],[19.838,15.075],[20.327,14.992],[20.834,15.03],[21.34,15.066],[21.847,15.102],[22.354,15.136],[22.861,15.169],[23.369,15.201],[23.876,15.232],[24.384,15.262],[24.821,15.492],[25.259,15.721],[25.698,15.949],[26.138,16.176],[26.579,16.403],[27.021,16.628],[27.464,16.852],[27.908,17.076],[28.353,17.298],[28.799,17.52],[29.247,17.741],[29.596,18.008]]}},{"type":"Feature","properties":{"boundary_type":"subduction","feature_type":"gpml:SubductionZone","polarity":"Left","overriding_plate_id":401,"subducting_plate_id":9006,"plate_ids":[401,9006],"name":"Tagil arc / Altai Sayan subduction zone"},"geometry":{"type":"LineString","coordinates":[[29.596,18.008],[29.993,18.311],[30.392,18.613],[30.792,18.914],[31.193,19.214],[31.596,19.513],[32.001,19.812],[32.407,20.109],[32.814,20.405],[33.09,20.646],[33.368,20.885],[33.646,21.124],[33.986,21.508],[34.329,21.891]]}},{"type":"Feature","properties":{"boundary_type":"subduction","feature_type":"gpml:SubductionZone","polarity":"Left","overriding_plate_id":430,"subducting_plate_id":902,"plate_ids":[430,902],"name":""},"geometry":{"type":"LineString","coordinates":[[91.87,86.206],[87.46,86.419],[82.525,86.609],[77.051,86.771],[68.405,86.84],[59.585,86.834],[50.995,86.756],[42.982,86.608],[35.763,86.401],[29.417,86.143],[23.923,85.844],[19.202,85.512],[15.153,85.154],[11.673,84.776],[8.672,84.381],[6.071,83.972],[3.802,83.553],[1.812,83.125],[0.63,82.649],[-0.408,82.171],[-1.327,81.69],[-2.146,81.208],[-2.88,80.723],[-3.542,80.238],[-4.142,79.751],[-4.687,79.263],[-5.186,78.775],[-5.268,78.309],[-5.344,77.843],[-5.414,77.376],[-5.48,76.91],[-5.541,76.444],[-5.598,75.978],[-5.651,75.511],[-5.701,75.045],[-5.656,74.571],[-5.614,74.096],[-5.574,73.622],[-5.536,73.147],[-5.5,72.673],[-5.466,72.198],[-5.434,71.723],[-5.41,71.262],[-5.388,70.8],[-5.367,70.339],[-5.347,69.877],[-5.328,69.416],[-5.309,68.954],[-5.291,68.493]]}},{"type":"Feature","properties":{"boundary_type":"transform","feature_type":"gpml:Transform","polarity":null,"overriding_plate_id":null,"subducting_plate_id":null,"plate_ids":[602,926],"name":"Transform along eastern Australia"},"geometry":{"type":"LineString","coordinates":[[116.558,-1.104],[116.971,-1.382],[117.384,-1.66],[117.798,-1.938],[118.211,-2.215],[118.625,-2.493],[119.038,-2.77]]}},{"type":"Feature","properties":{"boundary_type":"transform","feature_type":"gpml:Transform","polarity":null,"overriding_plate_id":null,"subducting_plate_id":null,"plate_ids":[701,926],"name":"Transform along eastern Australia"},"geometry":{"type":"LineString","coordinates":[[119.038,-2.77],[119.425,-3.029],[119.811,-3.288],[120.198,-3.546],[120.649,-3.578],[121.1,-3.61],[121.551,-3.641],[122.003,-3.673],[122.454,-3.704],[122.905,-3.735],[123.356,-3.766],[123.808,-3.796],[124.259,-3.826],[124.71,-3.856],[125.204,-3.857],[125.698,-3.857],[126.192,-3.857],[126.686,-3.857],[127.18,-3.857],[127.674,-3.856],[128.169,-3.855],[128.663,-3.854],[129.157,-3.852],[129.651,-3.85],[130.145,-3.848],[130.639,-3.846],[131.133,-3.843],[131.627,-3.84],[132.121,-3.837],[132.615,-3.833],[133.109,-3.83],[133.603,-3.825],[134.097,-3.821],[134.56,-3.973],[135.024,-4.126],[135.488,-4.277],[135.952,-4.429],[136.416,-4.58],[136.88,-4.731],[137.345,-4.882],[137.809,-5.032],[138.274,-5.182],[138.739,-5.332],[139.205,-5.481],[139.671,-5.63],[140.136,-5.779],[140.596,-5.932],[141.056,-6.084],[141.516,-6.237],[141.976,-6.388],[142.437,-6.54],[142.897,-6.691],[143.359,-6.841],[143.82,-6.992],[144.282,-7.141],[144.744,-7.29],[145.206,-7.439],[145.669,-7.587],[146.132,-7.735],[146.595,-7.882],[147.058,-8.029],[147.522,-8.175],[147.987,-8.321],[148.413,-8.567],[148.839,-8.812],[149.266,-9.056],[149.694,-9.3],[150.122,-9.544],[150.551,-9.787],[150.981,-10.03],[151.411,-10.272],[151.65,-10.555],[151.889,-10.838]]}},{"type":"Feature","properties":{"boundary_type":"transform","feature_type":"gpml:Transform","polarity":null,"overriding_plate_id":null,"subducting_plate_id":null,"plate_ids":[701,919],"name":"Transform along eastern Australia"},"geometry":{"type":"LineString","coordinates":[[151.889,-10.838],[152.207,-11.213],[152.527,-11.589],[152.847,-11.964],[153.168,-12.339],[153.49,-12.713],[153.813,-13.087],[154.137,-13.46],[154.462,-13.833],[154.788,-14.206],[155.115,-14.578],[155.444,-14.95],[155.773,-15.321],[156.104,-15.692],[156.435,-16.062],[156.693,-16.454],[156.951,-16.846],[157.21,-17.237],[157.471,-17.628],[157.733,-18.019],[157.995,-18.41],[158.259,-18.8],[158.525,-19.189],[158.791,-19.578],[159.059,-19.967],[159.328,-20.356],[159.598,-20.744],[159.903,-21.14],[160.21,-21.535],[160.518,-21.93],[160.828,-22.325],[161.14,-22.718],[161.453,-23.111],[161.769,-23.504],[162.086,-23.896],[162.405,-24.287],[162.726,-24.677],[163.049,-25.067],[163.375,-25.456]]}},{"type":"Feature","properties":{"boundary_type":"subduction","feature_type":"gpml:SubductionZone","polarity":"Right","overriding_plate_id":701,"subducting_plate_id":919,"plate_ids":[701,919],"name":"SZ along eastern Australia"},"geometry":{"type":"LineString","coordinates":[[163.375,-25.456],[163.768,-25.785],[164.163,-26.112],[164.56,-26.438],[164.96,-26.763],[165.362,-27.086],[165.776,-27.397],[166.193,-27.707],[166.612,-28.016],[167.034,-28.323],[167.458,-28.629],[167.884,-28.934],[168.313,-29.237],[168.745,-29.539],[169.179,-29.839],[169.616,-30.138],[170.055,-30.436],[170.502,-30.725],[170.952,-31.013],[171.405,-31.299],[171.86,-31.583],[172.318,-31.866],[172.779,-32.148],[173.243,-32.427],[173.709,-32.705],[174.179,-32.981],[174.651,-33.255],[175.127,-33.528],[175.605,-33.799],[176.087,-34.068],[176.571,-34.335],[177.059,-34.6],[177.549,-34.863],[178.002,-35.114],[178.458,-35.365],[178.917,-35.613],[179.378,-35.86],[179.843,-36.105],[-179.69,-36.348],[-179.22,-36.589],[-178.747,-36.828],[-178.246,-37.077],[-177.742,-37.325],[-177.235,-37.569],[-176.724,-37.812],[-176.21,-38.053],[-175.693,-38.291],[-175.175,-38.549],[-174.654,-38.806],[-174.129,-39.06],[-173.6,-39.311],[-173.068,-39.56],[-172.532,-39.807],[-171.991,-40.051]]}},{"type":"Feature","properties":{"boundary_type":"subduction","feature_type":"gpml:SubductionZone","polarity":"Left","overriding_plate_id":430,"subducting_plate_id":902,"plate_ids":[430,902],"name":"ALX SZ"},"geometry":{"type":"LineString","coordinates":[[-5.291,68.493],[-6.29,68.166],[-7.261,67.833],[-8.204,67.495],[-9.12,67.152]]}},{"type":"Feature","properties":{"boundary_type":"subduction","feature_type":"gpml:SubductionZone","polarity":"Left","overriding_plate_id":9009,"subducting_plate_id":902,"plate_ids":[902,9009],"name":"ALX SZ"},"geometry":{"type":"LineString","coordinates":[[-9.12,67.152],[-9.977,66.816],[-10.81,66.477],[-11.621,66.133],[-12.41,65.784],[-13.178,65.432],[-13.926,65.076],[-14.653,64.717],[-15.362,64.354],[-16.052,63.987],[-16.724,63.618],[-17.378,63.245],[-17.975,62.838],[-18.556,62.429],[-19.121,62.017],[-19.671,61.603],[-20.206,61.187],[-20.727,60.769],[-21.235,60.349],[-21.73,59.927],[-22.212,59.503],[-22.683,59.077],[-23.142,58.65],[-23.589,58.221],[-24.026,57.791],[-24.453,57.359],[-24.87,56.926],[-25.277,56.491],[-25.675,56.055],[-26.064,55.618],[-26.445,55.18],[-26.817,54.74],[-27.181,54.3],[-27.538,53.858],[-27.887,53.415],[-28.228,52.972]]}},{"type":"Feature","properties":{"boundary_type":"subduction","feature_type":"gpml:SubductionZone","polarity":"Left","overriding_plate_id":16111,"subducting_plate_id":902,"plate_ids":[902,16111],"name":"ALX SZ"},"geometry":{"type":"LineString","coordinates":[[-28.228,52.972],[-28.534,52.566],[-28.834,52.16],[-29.129,51.753],[-29.418,51.345],[-29.702,50.937],[-29.982,50.528],[-30.461,50.163],[-30.933,49.797],[-31.399,49.429],[-31.857,49.059],[-32.308,48.687],[-32.753,48.314],[-33.191,47.939],[-33.623,47.562],[-34.049,47.183],[-34.469,46.803],[-34.883,46.422],[-35.291,46.039],[-35.795,45.709],[-36.294,45.377],[-36.787,45.043],[-37.274,44.706],[-37.755,44.368],[-38.231,44.028],[-38.701,43.685],[-39.167,43.341],[-39.626,42.995],[-40.081,42.647],[-40.531,42.297],[-40.975,41.946],[-41.415,41.593],[-41.85,41.238],[-42.28,40.881],[-42.712,40.547],[-43.14,40.212],[-43.564,39.874],[-43.984,39.535],[-44.399,39.195],[-44.811,38.853],[-45.219,38.51],[-45.622,38.165],[-46.022,37.819],[-46.419,37.472],[-46.811,37.123],[-47.2,36.773],[-47.585,36.422],[-48.003,36.064],[-48.416,35.705],[-48.826,35.344],[-49.232,34.982],[-49.635,34.619],[-50.034,34.254],[-50.43,33.888],[-50.822,33.521],[-51.211,33.152],[-51.597,32.783],[-51.979,32.412],[-52.359,32.04],[-52.678,31.648],[-52.995,31.256],[-53.309,30.862],[-53.621,30.468]]}},{"type":"Feature","properties":{"boundary_type":"subduction","feature_type":"gpml:SubductionZone","polarity":"Left","overriding_plate_id":16104,"subducting_plate_id":902,"plate_ids":[902,16104],"name":"ALX SZ"},"geometry":{"type":"LineString","coordinates":[[-53.621,30.468],[-53.921,30.084],[-54.22,29.699],[-54.516,29.314],[-54.809,28.928],[-55.101,28.541],[-55.39,28.154],[-55.678,27.766],[-55.963,27.378],[-56.247,26.989],[-56.528,26.599],[-56.688,26.157],[-56.847,25.715],[-57.005,25.272],[-57.162,24.83],[-57.317,24.387],[-57.472,23.944],[-57.625,23.5],[-57.778,23.057],[-57.929,22.614],[-58.08,22.17],[-58.229,21.726],[-58.378,21.282],[-58.525,20.838],[-58.672,20.394],[-58.629,19.899],[-58.586,19.403],[-58.543,18.908],[-58.5,18.412],[-58.458,17.917]]}},{"type":"Feature","properties":{"boundary_type":"subduction","feature_type":"gpml:SubductionZone","polarity":"Right","overriding_plate_id":401,"subducting_plate_id":101,"plate_ids":[101,401],"name":"Siberia SZ consuming Arctic seafloor"},"geometry":{"type":"LineString","coordinates":[[-2.351,25.881],[-2.78,26.139],[-3.211,26.396],[-3.644,26.652],[-4.079,26.906],[-4.516,27.159],[-4.954,27.41],[-5.42,27.673],[-5.888,27.934],[-6.359,28.194],[-6.831,28.452],[-7.306,28.708],[-7.784,28.963],[-8.263,29.216],[-8.745,29.467],[-9.23,29.716],[-9.717,29.964],[-10.206,30.21],[-10.698,30.454],[-10.941,30.815],[-11.187,31.176],[-11.435,31.536],[-11.684,31.896],[-11.935,32.255],[-12.189,32.614],[-12.394,32.902],[-12.601,33.191]]}},{"type":"Feature","properties":{"boundary_type":"subduction","feature_type":"gpml:SubductionZone","polarity":"Right","overriding_plate_id":401,"subducting_plate_id":16111,"plate_ids":[401,16111],"name":"Siberia SZ consuming Arctic seafloor"},"geometry":{"type":"LineString","coordinates":[[-12.601,33.191],[-12.908,33.614],[-13.218,34.036],[-13.531,34.458],[-13.847,34.879],[-14.166,35.299],[-14.489,35.718],[-14.815,36.136],[-15.144,36.554],[-15.478,36.97],[-15.814,37.386],[-16.155,37.801],[-16.499,38.214],[-16.848,38.627],[-17.2,39.038],[-17.557,39.449],[-17.787,39.909],[-18.021,40.368],[-18.257,40.828],[-18.497,41.286],[-18.741,41.744],[-18.988,42.202],[-19.239,42.659],[-19.493,43.116],[-19.751,43.572],[-20.013,44.027],[-20.279,44.482],[-20.549,44.936],[-20.824,45.389],[-21.103,45.842],[-21.387,46.294],[-21.675,46.746],[-21.868,47.212],[-22.064,47.679],[-22.263,48.145],[-22.466,48.611]]}},{"type":"Feature","properties":{"boundary_type":"transform","feature_type":"gpml:Transform","polarity":null,"overriding_plate_id":null,"subducting_plate_id":null,"plate_ids":[401,9009],"name":"Mongol-Okhotsk transform"},"geometry":{"type":"LineString","coordinates":[[-8.358,55.726],[-9.104,55.544],[-9.842,55.357],[-10.574,55.166],[-11.298,54.97],[-12.016,54.771],[-12.726,54.566],[-13.429,54.358],[-14.125,54.146],[-14.814,53.93],[-15.495,53.71],[-16.053,53.387],[-16.602,53.061],[-17.143,52.733],[-17.675,52.402],[-18.2,52.069],[-18.717,51.734],[-19.226,51.396],[-19.728,51.057],[-20.223,50.715]]}},{"type":"Feature","properties":{"boundary_type":"transform","feature_type":"gpml:Transform","polarity":null,"overriding_plate_id":null,"subducting_plate_id":null,"plate_ids":[401,16111],"name":"Mongol-Okhotsk transform"},"geometry":{"type":"LineString","coordinates":[[-20.223,50.715],[-20.66,50.407],[-21.091,50.097],[-21.443,49.727],[-21.789,49.356],[-22.13,48.984],[-22.466,48.611]]}},{"type":"Feature","properties":{"boundary_type":"subduction","feature_type":"gpml:SubductionZone","polarity":"Left","overriding_plate_id":401,"subducting_plate_id":9009,"plate_ids":[401,9009],"name":"Mongol-Okhotsk subducting beneath Siberia"},"geometry":{"type":"LineString","coordinates":[[39.3,42.075],[39.254,42.131],[38.756,42.423],[38.253,42.712],[37.746,42.999],[37.234,43.284],[36.717,43.566],[36.195,43.846],[35.668,44.124],[35.137,44.399],[34.6,44.672],[34.058,44.942],[33.512,45.209],[32.96,45.474],[32.403,45.736],[31.821,45.966],[31.234,46.193],[30.643,46.416],[30.046,46.636],[29.445,46.854],[28.839,47.068],[28.229,47.279],[27.613,47.487],[26.992,47.691],[26.367,47.892],[25.737,48.089],[25.102,48.283],[24.462,48.474],[23.817,48.661],[23.345,49.0],[22.866,49.337],[22.38,49.672],[21.888,50.006],[21.389,50.336],[20.883,50.665],[20.369,50.992],[19.849,51.316],[19.321,51.638],[18.785,51.958],[18.242,52.275],[17.691,52.589],[17.034,52.865],[16.369,53.136],[15.695,53.404],[15.012,53.667],[14.321,53.927],[13.622,54.183],[12.914,54.435],[12.197,54.682],[11.471,54.926],[10.737,55.165],[9.994,55.399],[9.242,55.629],[8.482,55.854],[7.712,56.075],[6.862,56.111],[6.01,56.141],[5.157,56.165],[4.303,56.183],[3.448,56.196],[2.593,56.202],[1.737,56.203],[0.882,56.198],[0.027,56.186],[-0.827,56.169],[-1.68,56.147],[-2.522,56.114],[-3.362,56.075],[-4.201,56.031],[-5.037,55.982],[-5.872,55.926],[-6.703,55.865],[-7.532,55.798],[-8.358,55.726]]}},{"type":"Feature","properties":{"boundary_type":"subduction","feature_type":"gpml:SubductionZone","polarity":"Right","overriding_plate_id":459,"subducting_plate_id":1002,"plate_ids":[459,1002],"name":"Kazakhstania subduction zone"},"geometry":{"type":"LineString","coordinates":[[48.919,31.555],[48.511,31.858],[48.1,32.161],[47.687,32.462],[47.271,32.762],[46.852,33.06]]}},{"type":"Feature","properties":{"boundary_type":"subduction","feature_type":"gpml:SubductionZone","polarity":"Right","overriding_plate_id":580,"subducting_plate_id":1002,"plate_ids":[580,1002],"name":"Kazakhstania subduction zone"},"geometry":{"type":"LineString","coordinates":[[46.852,33.06],[46.789,33.105],[46.339,33.391],[45.886,33.676],[45.43,33.96],[44.971,34.241],[44.508,34.521],[44.043,34.799],[43.575,35.075]]}},{"type":"Feature","properties":{"boundary_type":"subduction","feature_type":"gpml:SubductionZone","polarity":"Right","overriding_plate_id":459,"subducting_plate_id":580,"plate_ids":[459,580],"name":""},"geometry":{"type":"LineString","coordinates":[[46.852,33.06],[47.253,33.251],[47.655,33.44],[48.06,33.629],[48.466,33.815],[48.985,33.843],[49.504,33.868],[50.024,33.891],[50.544,33.911],[51.064,33.93],[51.584,33.946],[52.105,33.96],[52.535,33.616],[52.962,33.27],[53.385,32.923],[53.805,32.574],[54.222,32.224],[54.635,31.872],[55.046,31.519],[55.453,31.165],[55.858,30.81],[55.973,30.359],[56.087,29.907],[56.2,29.456],[56.313,29.004],[56.433,28.531],[56.553,28.058],[56.671,27.585],[56.789,27.112],[56.905,26.639],[57.02,26.165],[57.135,25.692],[57.249,25.218],[57.361,24.745],[57.473,24.271],[57.584,23.797],[57.695,23.323],[57.804,22.849],[57.664,22.555],[57.525,22.261]]}},{"type":"Feature","properties":{"boundary_type":"subduction","feature_type":"gpml:SubductionZone","polarity":"Left","overriding_plate_id":401,"subducting_plate_id":9006,"plate_ids":[401,9006],"name":""},"geometry":{"type":"LineString","coordinates":[[34.329,21.891],[34.777,22.116],[35.226,22.34],[35.677,22.563],[36.103,22.761],[36.529,22.957],[36.957,23.152],[37.387,23.346],[37.817,23.539],[38.249,23.731],[38.625,24.078],[39.002,24.424],[39.382,24.769],[39.588,25.174],[39.795,25.579],[40.003,25.983],[40.213,26.388],[40.366,26.676],[40.521,26.964],[40.621,27.3],[40.721,27.637]]}},{"type":"Feature","properties":{"boundary_type":"transform","feature_type":"gpml:Transform","polarity":null,"overriding_plate_id":null,"subducting_plate_id":null,"plate_ids":[401,9009],"name":""},"geometry":{"type":"LineString","coordinates":[[39.3,42.075],[39.916,42.188],[40.534,42.297],[41.155,42.403],[41.777,42.506],[42.402,42.605],[43.029,42.701],[43.581,42.775],[44.135,42.845],[44.69,42.913]]}},{"type":"Feature","properties":{"boundary_type":"transform","feature_type":"gpml:Transform","polarity":null,"overriding_plate_id":null,"subducting_plate_id":null,"plate_ids":[902,16104],"name":"Transform at S margin of East Klamath"},"geometry":{"type":"LineString","coordinates":[[-78.704,-0.175],[-78.344,-0.335],[-78.042,-0.625],[-77.74,-0.915],[-77.437,-1.205],[-77.182,-1.589],[-76.926,-1.973],[-76.67,-2.358],[-76.414,-2.742],[-76.223,-3.021],[-76.032,-3.3],[-75.841,-3.579]]}},{"type":"Feature","properties":{"boundary_type":"transform","feature_type":"gpml:Transform","polarity":null,"overriding_plate_id":null,"subducting_plate_id":null,"plate_ids":[101,902],"name":"Transform at S margin of East Klamath"},"geometry":{"type":"LineString","coordinates":[[-75.841,-3.579],[-75.704,-3.779],[-75.528,-4.137],[-75.352,-4.495],[-75.176,-4.852],[-74.999,-5.21],[-74.897,-5.606],[-74.795,-6.003],[-74.692,-6.399],[-74.691,-6.753],[-74.69,-7.106],[-74.689,-7.46],[-74.618,-7.871],[-74.548,-8.283],[-74.477,-8.694],[-74.405,-9.105],[-74.334,-9.516],[-74.263,-9.927],[-73.982,-10.313],[-73.701,-10.698],[-73.419,-11.083],[-73.136,-11.467],[-72.853,-11.852],[-72.569,-12.236],[-72.283,-12.62]]}},{"type":"Feature","properties":{"boundary_type":"transform","feature_type":"gpml:Transform","polarity":null,"overriding_plate_id":null,"subducting_plate_id":null,"plate_ids":[16104,16111],"name":"Alexander-YTT Transform"},"geometry":{"type":"LineString","coordinates":[[-53.621,30.468],[-53.156,30.211],[-52.693,29.953],[-52.233,29.693],[-51.776,29.432],[-51.32,29.169],[-50.91,28.884],[-50.503,28.599],[-50.097,28.312],[-49.694,28.023],[-49.292,27.734],[-48.893,27.443],[-48.496,27.151],[-48.184,26.935],[-47.874,26.717],[-47.564,26.499]]}},{"type":"Feature","properties":{"boundary_type":"transform","feature_type":"gpml:Transform","polarity":null,"overriding_plate_id":null,"subducting_plate_id":null,"plate_ids":[101,16111],"name":"Alexander-YTT Transform"},"geometry":{"type":"LineString","coordinates":[[-47.564,26.499],[-47.198,26.239],[-46.833,25.978],[-46.47,25.716],[-46.109,25.453]]}},{"type":"Feature","properties":{"boundary_type":"subduction","feature_type":"gpml:SubductionZone","polarity":"Right","overriding_plate_id":701,"subducting_plate_id":902,"plate_ids":[701,902],"name":"Gondwanna-Laurussia SZ"},"geometry":{"type":"LineString","coordinates":[[-74.743,-27.877],[-74.52,-27.583],[-74.298,-27.288],[-74.077,-26.992],[-73.99,-26.527],[-73.904,-26.062],[-73.818,-25.597],[-73.733,-25.132]]}},{"type":"Feature","properties":{"boundary_type":"subduction","feature_type":"gpml:SubductionZone","polarity":"Right","overriding_plate_id":101,"subducting_plate_id":902,"plate_ids":[101,902],"name":"Gondwanna-Laurussia SZ"},"geometry":{"type":"LineString","coordinates":[[-73.733,-25.132],[-73.644,-24.643],[-73.556,-24.153],[-73.468,-23.663],[-73.417,-23.186],[-73.365,-22.708],[-73.314,-22.231],[-73.264,-21.753],[-73.213,-21.276],[-73.163,-20.798],[-73.114,-20.321],[-73.064,-19.843],[-73.015,-19.366],[-72.966,-18.888],[-72.918,-18.411],[-72.87,-17.933],[-72.815,-17.45],[-72.761,-16.967],[-72.707,-16.484],[-72.653,-16.001],[-72.6,-15.518],[-72.546,-15.035],[-72.493,-14.552],[-72.441,-14.069],[-72.388,-13.586],[-72.336,-13.103],[-72.283,-12.62]]}},{"type":"Feature","properties":{"boundary_type":"subduction","feature_type":"gpml:SubductionZone","polarity":"Right","overriding_plate_id":16104,"subducting_plate_id":902,"plate_ids":[902,16104],"name":"YTT SZ"},"geometry":{"type":"LineString","coordinates":[[-78.704,-0.175],[-78.42,0.166],[-78.136,0.506],[-77.851,0.846],[-77.543,1.229],[-77.234,1.612],[-76.925,1.995],[-76.617,2.378],[-76.307,2.761],[-75.998,3.144],[-75.689,3.527],[-75.311,3.82],[-74.932,4.114],[-74.553,4.407],[-74.174,4.699],[-73.795,4.992],[-73.415,5.284],[-73.035,5.577],[-72.655,5.869],[-72.274,6.16],[-71.892,6.452],[-71.511,6.743],[-71.121,6.992],[-70.731,7.241],[-70.341,7.49],[-69.95,7.739],[-69.559,7.987],[-69.167,8.235],[-68.775,8.482],[-68.383,8.729],[-67.989,8.976],[-67.596,9.222],[-67.21,9.537],[-66.824,9.852],[-66.437,10.166],[-66.05,10.479],[-65.661,10.793],[-65.272,11.105],[-64.882,11.417],[-64.491,11.729],[-64.099,12.04],[-63.706,12.351],[-63.375,12.699],[-63.043,13.047],[-62.71,13.395],[-62.376,13.742],[-62.041,14.088],[-61.705,14.434],[-61.368,14.78],[-61.03,15.125],[-60.691,15.47],[-60.351,15.814],[-60.009,16.157],[-59.667,16.5],[-59.323,16.843],[-58.978,17.185],[-58.718,17.551],[-58.458,17.917]]}},{"type":"Feature","properties":{"boundary_type":"transform","feature_type":"gpml:Transform","polarity":null,"overriding_plate_id":null,"subducting_plate_id":null,"plate_ids":[101,701],"name":"Lizard/Giessen backarc transform east"},"geometry":{"type":"LineString","coordinates":[[10.567,-12.7],[10.958,-12.965],[11.35,-13.228],[11.634,-13.418]]}},{"type":"Feature","properties":{"boundary_type":"transform","feature_type":"gpml:Transform","polarity":null,"overriding_plate_id":null,"subducting_plate_id":null,"plate_ids":[101,701],"name":"Lizard/Giessen transform west"},"geometry":{"type":"LineString","coordinates":[[-11.939,-30.139],[-12.303,-29.888],[-12.666,-29.635],[-13.027,-29.382],[-13.386,-29.128],[-13.743,-28.872],[-14.124,-28.616],[-14.504,-28.358],[-14.881,-28.099]]}},{"type":"Feature","properties":{"boundary_type":"transform","feature_type":"gpml:Transform","polarity":null,"overriding_plate_id":null,"subducting_plate_id":null,"plate_ids":[701,902],"name":""},"geometry":{"type":"LineString","coordinates":[[-81.876,-27.579],[-81.329,-27.615],[-80.782,-27.649],[-80.234,-27.68],[-79.686,-27.71],[-79.138,-27.737],[-78.589,-27.762],[-78.04,-27.785],[-77.491,-27.806],[-76.942,-27.824],[-76.392,-27.841],[-75.843,-27.855],[-75.293,-27.867],[-74.743,-27.877]]}},{"type":"Feature","properties":{"boundary_type":"ridge","feature_type":"gpml:MidOceanRidge","polarity":null,"overriding_plate_id":null,"subducting_plate_id":null,"plate_ids":[101,16111],"name":"east of Alexander-Baltica MOR"},"geometry":{"type":"LineString","coordinates":[[-46.109,25.453],[-45.738,25.732],[-45.365,26.01],[-44.991,26.286],[-44.615,26.562],[-44.237,26.837],[-43.857,27.11],[-43.476,27.383],[-43.408,27.453],[-42.934,27.713],[-42.458,27.972],[-41.979,28.228],[-41.498,28.484],[-41.015,28.737],[-40.53,28.989],[-40.042,29.239],[-39.552,29.487],[-39.06,29.733],[-38.565,29.978],[-38.067,30.22],[-37.567,30.461],[-37.065,30.7],[-36.56,30.937],[-36.053,31.172],[-35.543,31.405],[-35.031,31.636],[-34.516,31.865],[-33.999,32.092],[-33.479,32.316],[-32.956,32.539],[-32.431,32.759],[-31.903,32.977],[-31.373,33.193],[-31.156,32.826],[-30.94,32.459],[-30.389,32.555],[-29.837,32.649],[-29.283,32.74],[-28.728,32.829],[-28.173,32.915],[-27.616,32.999],[-27.058,33.08],[-26.499,33.159],[-25.939,33.236],[-25.378,33.31],[-24.816,33.381],[-24.254,33.45],[-23.69,33.516],[-23.126,33.58],[-22.56,33.641],[-22.198,33.323],[-21.839,33.003],[-21.482,32.683],[-20.922,32.661],[-20.363,32.637],[-19.803,32.61],[-19.244,32.581],[-18.685,32.549]]}},{"type":"Feature","properties":{"boundary_type":"ridge","feature_type":"gpml:MidOceanRidge","polarity":null,"overriding_plate_id":null,"subducting_plate_id":null,"plate_ids":[101,16111],"name":"Alexander-Baltica MOR"},"geometry":{"type":"LineString","coordinates":[[-18.685,32.549],[-18.212,32.587],[-17.738,32.624],[-17.263,32.658],[-16.788,32.691],[-16.313,32.723],[-15.785,32.796],[-15.257,32.867],[-14.727,32.937],[-14.197,33.003],[-13.666,33.068],[-13.134,33.13],[-12.601,33.191]]}},{"type":"Feature","properties":{"boundary_type":"ridge","feature_type":"gpml:MidOceanRidge","polarity":null,"overriding_plate_id":null,"subducting_plate_id":null,"plate_ids":[602,701],"name":"S.China-Gondwana MOR"},"geometry":{"type":"LineString","coordinates":[[119.038,-2.77],[118.592,-2.931],[118.147,-3.091],[117.701,-3.251],[117.254,-3.411],[116.808,-3.571],[116.362,-3.73],[115.915,-3.89],[115.468,-4.049],[115.021,-4.208],[114.574,-4.366],[114.127,-4.524],[113.679,-4.682],[113.232,-4.84],[112.784,-4.998],[112.336,-5.155],[111.887,-5.312],[111.439,-5.468],[110.99,-5.624],[111.214,-6.063],[111.438,-6.501],[111.663,-6.939],[111.888,-7.377],[112.113,-7.815],[112.339,-8.253],[112.566,-8.691],[112.793,-9.128],[113.02,-9.565],[113.249,-10.003],[113.477,-10.44],[113.082,-10.684],[112.687,-10.928],[112.29,-11.171],[111.893,-11.413],[111.496,-11.655],[111.097,-11.897],[110.698,-12.138],[110.298,-12.378],[109.898,-12.618],[109.496,-12.857],[109.094,-13.095],[108.897,-12.727],[108.7,-12.358],[108.503,-11.989],[108.308,-11.62],[108.112,-11.251],[107.696,-11.486],[107.279,-11.72],[106.861,-11.954],[106.443,-12.187],[106.024,-12.419],[105.604,-12.651],[105.183,-12.882],[104.762,-13.112],[104.339,-13.342],[103.916,-13.571],[103.492,-13.799],[103.068,-14.027],[102.642,-14.254],[102.216,-14.48],[101.789,-14.705],[101.361,-14.93],[100.932,-15.153],[101.118,-15.583],[101.306,-16.012],[101.494,-16.442],[101.043,-16.587],[100.592,-16.731],[100.14,-16.874],[99.687,-17.016],[99.233,-17.157],[98.779,-17.297],[98.324,-17.436],[97.868,-17.574],[97.412,-17.711],[96.955,-17.846],[96.497,-17.981],[96.309,-17.647],[96.122,-17.313],[95.935,-16.979],[95.749,-16.644],[95.252,-16.585],[94.755,-16.525],[94.259,-16.464],[93.763,-16.402]]}},{"type":"Feature","properties":{"boundary_type":"subduction","feature_type":"gpml:SubductionZone","polarity":"Right","overriding_plate_id":701,"subducting_plate_id":101,"plate_ids":[101,701],"name":"Lizard/Giessen backarc SZ"},"geometry":{"type":"LineString","coordinates":[[-11.939,-30.139],[-11.707,-29.743],[-11.477,-29.346],[-11.249,-28.949],[-10.916,-28.592],[-10.584,-28.235],[-10.255,-27.876],[-9.929,-27.517],[-9.604,-27.158],[-9.281,-26.797],[-8.961,-26.436],[-8.642,-26.074],[-8.161,-25.828],[-7.682,-25.58],[-7.205,-25.33],[-6.73,-25.079],[-6.257,-24.826],[-5.786,-24.572],[-5.348,-24.415],[-4.911,-24.257],[-4.475,-24.098],[-4.041,-23.938],[-3.514,-24.055],[-2.987,-24.17],[-2.459,-24.283],[-1.93,-24.395],[-1.568,-24.532],[-1.206,-24.668],[-0.843,-24.803],[-0.447,-24.854],[-0.05,-24.904],[0.321,-24.74],[0.691,-24.575],[1.06,-24.409],[1.374,-24.119],[1.686,-23.828],[1.998,-23.536],[2.307,-23.244],[2.623,-22.861],[2.937,-22.477],[3.249,-22.093],[3.633,-21.952],[4.016,-21.81],[4.488,-21.79],[4.96,-21.768],[5.431,-21.745],[5.807,-21.651],[6.183,-21.557],[6.627,-21.337],[7.071,-21.117],[7.337,-20.88],[7.603,-20.643],[7.869,-20.405],[8.125,-20.062],[8.38,-19.719],[8.635,-19.376],[8.767,-18.953],[8.899,-18.529],[9.03,-18.106],[9.128,-17.645],[9.227,-17.184],[9.324,-16.723],[9.422,-16.261],[9.625,-15.847],[9.828,-15.432],[10.031,-15.017],[10.232,-14.601],[10.513,-14.308],[10.794,-14.015],[11.074,-13.721],[11.354,-13.57],[11.634,-13.418]]}},{"type":"Feature","properties":{"boundary_type":"other","feature_type":"gpml:ContinentalRift","polarity":null,"overriding_plate_id":null,"subducting_plate_id":null,"plate_ids":[101,16104],"name":"Slide Mountain Ocean rift"},"geometry":{"type":"LineString","coordinates":[[-47.564,26.499],[-47.83,26.195],[-48.094,25.891],[-48.357,25.587],[-48.618,25.281],[-48.832,24.915],[-49.045,24.548],[-49.257,24.18],[-49.468,23.813],[-49.62,23.437],[-49.771,23.061],[-49.921,22.685],[-50.07,22.309],[-50.218,21.933],[-50.316,21.446],[-50.413,20.958],[-50.509,20.471],[-50.605,19.983],[-50.7,19.495],[-50.744,19.064],[-50.789,18.632],[-50.833,18.2],[-50.876,17.769],[-50.92,17.337],[-50.963,16.905],[-51.236,16.521],[-51.508,16.137],[-51.779,15.752],[-52.049,15.367],[-52.318,14.981],[-52.586,14.595],[-52.853,14.209],[-53.064,13.818],[-53.275,13.427],[-53.485,13.036],[-53.695,12.645],[-54.018,12.326],[-54.341,12.006],[-54.662,11.686],[-54.984,11.366],[-55.304,11.046],[-55.624,10.725],[-55.943,10.404],[-56.286,10.049],[-56.628,9.694],[-56.969,9.338],[-57.31,8.982],[-57.65,8.626],[-57.989,8.269],[-58.328,7.912],[-58.666,7.555],[-59.004,7.198],[-59.341,6.84],[-59.678,6.482],[-60.014,6.124],[-60.35,5.766],[-60.685,5.407],[-61.02,5.049],[-61.354,4.69],[-61.689,4.331],[-61.923,4.661],[-62.158,4.99],[-62.435,4.713],[-62.712,4.436],[-62.989,4.158],[-63.265,3.881],[-63.567,4.195],[-63.869,4.51],[-64.171,4.824],[-64.474,5.138],[-64.777,5.452],[-65.08,5.766],[-65.384,6.079],[-65.798,5.824],[-66.213,5.569],[-66.626,5.313],[-67.04,5.057],[-67.453,4.801],[-67.865,4.544],[-68.108,4.839],[-68.35,5.134],[-68.593,5.428],[-68.899,5.092],[-69.204,4.756],[-69.509,4.419],[-69.813,4.082],[-70.118,3.746],[-70.422,3.409],[-70.726,3.072],[-71.03,2.735],[-71.333,2.398],[-71.6,1.994],[-71.866,1.591],[-72.132,1.187],[-72.398,0.783],[-72.664,0.379],[-72.93,-0.025],[-73.196,-0.429],[-73.462,-0.832],[-73.728,-1.236],[-74.03,-1.571],[-74.331,-1.906],[-74.633,-2.241],[-74.935,-2.575],[-75.237,-2.91],[-75.539,-3.244],[-75.841,-3.579]]}},{"type":"Feature","properties":{"boundary_type":"transform","feature_type":"gpml:Transform","polarity":null,"overriding_plate_id":null,"subducting_plate_id":null,"plate_ids":[919,28800],"name":"West Gondwana"},"geometry":{"type":"LineString","coordinates":[[-166.749,-31.563],[-166.953,-31.988],[-167.158,-32.412],[-167.365,-32.837],[-167.575,-33.261],[-167.786,-33.684],[-167.999,-34.108],[-168.215,-34.53],[-168.432,-34.953],[-168.711,-35.382],[-168.993,-35.81],[-169.278,-36.237],[-169.566,-36.664],[-169.857,-37.09],[-170.151,-37.515],[-170.449,-37.94],[-170.75,-38.364],[-171.055,-38.787],[-171.363,-39.209],[-171.675,-39.631],[-171.991,-40.051]]}},{"type":"Feature","properties":{"boundary_type":"transform","feature_type":"gpml:Transform","polarity":null,"overriding_plate_id":null,"subducting_plate_id":null,"plate_ids":[701,28800],"name":"West Gondwana"},"geometry":{"type":"LineString","coordinates":[[-171.991,-40.051],[-172.212,-40.341],[-172.434,-40.631],[-172.659,-40.92]]}},{"type":"Feature","properties":{"boundary_type":"ridge","feature_type":"gpml:MidOceanRidge","polarity":null,"overriding_plate_id":null,"subducting_plate_id":null,"plate_ids":[919,926],"name":"Izanagi-Farallon MOR"},"geometry":{"type":"LineString","coordinates":[[-159.022,20.987],[-159.06,21.43]]}},{"type":"Feature","properties":{"boundary_type":"ridge","feature_type":"gpml:MidOceanRidge","polarity":null,"overriding_plate_id":null,"subducting_plate_id":null,"plate_ids":[902,926],"name":"Izanagi-Farallon MOR"},"geometry":{"type":"LineString","coordinates":[[-159.06,21.43],[-159.102,21.922],[-159.144,22.414],[-159.187,22.907],[-159.23,23.399],[-159.273,23.891],[-159.317,24.384],[-159.361,24.876],[-159.405,25.368],[-159.45,25.86],[-159.495,26.353],[-159.54,26.845],[-159.586,27.337],[-159.633,27.829],[-159.679,28.322],[-159.726,28.814],[-159.774,29.306],[-159.822,29.798],[-159.871,30.29],[-159.92,30.782],[-159.969,31.274],[-160.019,31.766],[-160.07,32.258],[-160.121,32.75],[-160.172,33.242],[-160.225,33.734],[-160.278,34.226],[-160.331,34.718],[-160.912,34.631],[-161.492,34.542],[-162.071,34.449],[-162.648,34.354],[-163.224,34.256],[-163.799,34.156],[-164.372,34.053],[-164.944,33.947],[-165.514,33.838],[-166.083,33.727],[-166.244,34.205],[-166.407,34.682],[-166.572,35.159],[-166.739,35.636],[-166.908,36.113],[-167.079,36.59],[-167.252,37.066],[-167.427,37.542],[-167.605,38.018],[-167.784,38.493],[-167.967,38.968],[-168.151,39.443],[-168.338,39.918],[-168.528,40.392],[-168.721,40.866],[-168.916,41.34],[-169.114,41.813],[-169.315,42.286],[-169.519,42.759],[-169.726,43.231],[-169.937,43.703],[-170.151,44.175],[-170.368,44.646],[-170.589,45.116],[-170.813,45.587],[-171.042,46.057],[-171.274,46.526],[-171.51,46.995],[-171.751,47.463],[-171.995,47.931],[-172.245,48.398],[-172.498,48.865],[-172.757,49.331],[-173.021,49.797],[-173.289,50.262],[-173.563,50.726],[-173.843,51.19],[-174.128,51.653],[-174.419,52.115],[-174.716,52.577],[-175.377,52.401],[-176.032,52.22],[-176.682,52.037],[-177.327,51.849],[-177.966,51.659],[-178.6,51.464],[-179.229,51.267],[-179.852,51.066],[179.712,51.482],[179.268,51.896],[178.816,52.309],[178.355,52.72],[177.886,53.129],[177.407,53.536],[176.919,53.941],[176.422,54.344],[175.915,54.745],[175.398,55.144],[174.87,55.541],[174.332,55.936],[173.782,56.328],[173.221,56.717],[172.649,57.104],[172.064,57.488],[171.467,57.87],[170.858,58.249],[170.235,58.624],[169.598,58.997],[168.948,59.367],[168.284,59.733],[167.605,60.095],[166.911,60.455],[166.201,60.81],[165.476,61.162],[164.734,61.509],[163.976,61.853],[163.201,62.192],[162.408,62.527],[161.597,62.857],[160.768,63.183],[159.92,63.504],[159.053,63.819],[158.167,64.129],[157.26,64.434],[156.334,64.733],[155.387,65.026],[154.42,65.313],[153.431,65.593],[152.421,65.867],[151.389,66.135],[150.336,66.395],[149.261,66.648]]}},{"type":"Feature","properties":{"boundary_type":"ridge","feature_type":"gpml:MidOceanRidge","polarity":null,"overriding_plate_id":null,"subducting_plate_id":null,"plate_ids":[902,919],"name":"Phoenix-Farallon MOR"},"geometry":{"type":"LineString","coordinates":[[-159.06,21.43],[-158.659,21.157],[-158.26,20.883],[-157.863,20.608],[-157.466,20.333],[-157.786,19.942],[-158.104,19.55],[-158.42,19.158],[-158.735,18.765],[-159.048,18.372],[-159.36,17.978],[-159.67,17.583],[-159.979,17.189],[-160.287,16.793],[-160.594,16.398],[-160.899,16.002],[-161.203,15.605],[-161.506,15.208],[-161.1,14.9],[-160.695,14.592],[-160.292,14.283],[-159.889,13.974],[-159.488,13.663],[-159.087,13.352],[-158.688,13.041],[-158.289,12.729],[-157.892,12.416],[-157.496,12.102],[-157.1,11.789],[-156.705,11.474],[-156.312,11.159],[-155.919,10.844],[-155.527,10.528],[-155.136,10.211],[-154.745,9.894],[-154.355,9.577],[-153.967,9.259],[-153.578,8.941],[-153.191,8.622],[-152.804,8.303],[-152.417,7.984],[-152.032,7.664],[-151.647,7.344],[-151.262,7.023],[-150.878,6.702],[-150.494,6.381],[-150.111,6.06],[-149.729,5.738],[-149.347,5.417],[-148.965,5.094],[-148.583,4.772],[-148.202,4.45],[-147.822,4.127],[-147.441,3.804],[-147.061,3.481],[-146.681,3.158],[-146.302,2.834],[-145.923,2.511],[-145.543,2.187],[-145.164,1.864],[-144.785,1.54],[-144.407,1.216],[-144.028,0.892],[-143.649,0.568],[-143.271,0.244],[-142.892,-0.08],[-142.514,-0.404],[-142.135,-0.728],[-141.756,-1.052],[-141.378,-1.376],[-140.999,-1.699],[-140.62,-2.023],[-140.241,-2.347],[-139.861,-2.67],[-139.482,-2.994],[-139.075,-2.748],[-138.668,-2.502],[-138.261,-2.256],[-137.855,-2.009],[-137.448,-1.763],[-137.042,-1.516],[-136.636,-1.27],[-136.23,-1.023],[-135.893,-1.375],[-135.556,-1.726],[-135.218,-2.078],[-134.881,-2.429],[-134.544,-2.781],[-134.206,-3.132],[-133.868,-3.483],[-133.53,-3.834],[-133.191,-4.185],[-132.852,-4.536],[-132.513,-4.886],[-132.174,-5.237],[-131.834,-5.587],[-131.493,-5.937],[-131.153,-6.287],[-130.811,-6.636],[-130.47,-6.986],[-130.128,-7.335],[-129.785,-7.684],[-129.442,-8.032],[-129.098,-8.381],[-128.753,-8.729],[-128.408,-9.076],[-128.062,-9.424],[-127.716,-9.771],[-127.369,-10.117],[-127.021,-10.464],[-126.672,-10.81],[-126.322,-11.155],[-125.972,-11.5],[-125.621,-11.845],[-125.269,-12.189],[-124.916,-12.533],[-124.562,-12.877],[-124.207,-13.22],[-123.851,-13.562],[-123.494,-13.904],[-123.136,-14.245],[-122.764,-14.59],[-122.391,-14.935],[-122.017,-15.279],[-121.641,-15.622],[-121.264,-15.965],[-120.886,-16.307],[-120.507,-16.649],[-120.126,-16.989],[-119.744,-17.329],[-119.361,-17.669],[-118.976,-18.007],[-118.589,-18.345],[-118.201,-18.682],[-117.812,-19.018],[-117.421,-19.353],[-117.028,-19.688],[-116.634,-20.022],[-116.238,-20.354],[-115.84,-20.686],[-115.441,-21.017],[-115.04,-21.347],[-114.637,-21.676],[-114.232,-22.005],[-113.825,-22.332],[-113.416,-22.658],[-113.006,-22.983],[-112.593,-23.307],[-112.179,-23.63],[-111.762,-23.951],[-111.343,-24.272],[-110.923,-24.592],[-110.5,-24.91],[-110.074,-25.227],[-109.647,-25.543],[-109.217,-25.858],[-108.786,-26.171],[-108.351,-26.483],[-107.915,-26.794],[-107.476,-27.103],[-107.034,-27.412],[-106.59,-27.718],[-106.144,-28.023],[-105.695,-28.327],[-105.244,-28.63],[-104.79,-28.93],[-104.333,-29.23],[-103.874,-29.527],[-103.411,-29.823],[-102.947,-30.118],[-102.479,-30.411],[-102.009,-30.702],[-101.535,-30.992],[-101.059,-31.279],[-100.58,-31.565],[-100.098,-31.849],[-99.613,-32.132],[-99.125,-32.412],[-98.634,-32.691],[-98.14,-32.968],[-97.643,-33.242],[-97.143,-33.515],[-96.64,-33.786],[-96.133,-34.054],[-95.623,-34.321],[-95.11,-34.585],[-94.594,-34.848],[-94.074,-35.108],[-93.552,-35.366],[-93.025,-35.621],[-92.496,-35.874],[-91.963,-36.125],[-91.426,-36.374],[-90.887,-36.62],[-90.343,-36.864],[-89.797,-37.105],[-89.247,-37.344],[-88.693,-37.58],[-88.136,-37.813],[-87.575,-38.044],[-87.011,-38.272],[-86.443,-38.498],[-85.872,-38.721]]}},{"type":"Feature","properties":{"boundary_type":"ridge","feature_type":"gpml:MidOceanRidge","polarity":null,"overriding_plate_id":null,"subducting_plate_id":null,"plate_ids":[919,926],"name":"Phoenix-Izanagi MOR"},"geometry":{"type":"LineString","coordinates":[[-159.022,20.987],[-159.493,20.75],[-159.963,20.512],[-160.431,20.272],[-160.897,20.031],[-161.362,19.789],[-161.826,19.546],[-162.289,19.302],[-162.75,19.056],[-163.209,18.81],[-163.667,18.562],[-164.124,18.313],[-164.58,18.063],[-165.034,17.812],[-165.487,17.56],[-165.939,17.307],[-166.39,17.053],[-166.839,16.798],[-167.287,16.542],[-167.734,16.285],[-168.18,16.027],[-168.624,15.768],[-169.068,15.508],[-169.51,15.247],[-169.951,14.986],[-170.392,14.723],[-170.831,14.46],[-171.269,14.196],[-171.706,13.931],[-172.142,13.666],[-172.577,13.399],[-173.011,13.132],[-173.444,12.864],[-173.713,13.251],[-173.984,13.638],[-174.255,14.025],[-174.527,14.411],[-174.8,14.797],[-175.222,14.519],[-175.644,14.24],[-176.064,13.961],[-176.483,13.681],[-176.902,13.4],[-177.319,13.119],[-177.736,12.837],[-178.151,12.554],[-178.566,12.271],[-178.98,11.987],[-179.393,11.702],[-179.805,11.417],[179.784,11.131],[179.374,10.845],[178.964,10.558],[178.556,10.271],[178.147,9.983],[177.74,9.694],[177.333,9.405],[176.927,9.116],[176.522,8.826],[176.117,8.536],[175.713,8.245],[175.31,7.954],[174.907,7.663],[174.505,7.371],[174.103,7.079],[173.701,6.786],[173.301,6.494],[172.9,6.2],[172.5,5.907],[172.101,5.613],[171.702,5.319],[171.303,5.025],[170.905,4.73],[170.507,4.436],[170.109,4.141],[169.712,3.846],[169.315,3.55],[168.918,3.255],[168.521,2.959],[168.125,2.663],[167.728,2.367],[167.332,2.071],[166.936,1.775],[166.541,1.479],[166.145,1.183],[165.749,0.886],[165.354,0.59],[164.958,0.293],[164.563,-0.003],[164.167,-0.299],[163.772,-0.596],[163.376,-0.892],[162.981,-1.189],[162.585,-1.485],[162.189,-1.781],[161.793,-2.077],[161.397,-2.373],[161.001,-2.669],[160.605,-2.965],[160.208,-3.261],[159.811,-3.556],[159.414,-3.851],[159.017,-4.147],[158.619,-4.442],[158.221,-4.736],[157.823,-5.031],[157.424,-5.325],[157.025,-5.619],[156.625,-5.913],[156.225,-6.206],[155.825,-6.499],[155.804,-6.963],[155.783,-7.426],[155.761,-7.889],[155.74,-8.352],[155.357,-8.603],[154.974,-8.853],[154.591,-9.102],[154.206,-9.351],[153.822,-9.6],[153.436,-9.849],[153.05,-10.097],[152.664,-10.344],[152.277,-10.591],[151.889,-10.838]]}},{"type":"Feature","properties":{"boundary_type":"ridge","feature_type":"gpml:MidOceanRidge","polarity":null,"overriding_plate_id":null,"subducting_plate_id":null,"plate_ids":[701,9006],"name":"Annamia/Gondwana MOR"},"geometry":{"type":"LineString","coordinates":[[65.789,-12.434],[66.25,-12.405],[66.711,-12.375],[67.171,-12.344],[67.632,-12.312],[68.092,-12.28],[68.552,-12.247],[69.013,-12.213],[69.473,-12.179],[69.933,-12.143],[70.392,-12.107],[70.464,-12.517],[70.535,-12.927],[70.607,-13.337],[70.679,-13.748],[71.092,-13.637],[71.505,-13.526],[71.918,-13.414],[72.33,-13.301],[72.742,-13.188],[72.843,-13.559],[72.945,-13.929],[73.366,-13.815],[73.786,-13.7],[74.206,-13.584],[74.626,-13.468],[75.045,-13.351],[75.168,-13.75],[75.291,-14.149],[75.415,-14.548],[75.539,-14.947],[75.664,-15.345],[76.128,-15.247],[76.591,-15.147],[77.054,-15.046],[77.158,-15.402],[77.263,-15.759],[77.368,-16.115],[77.777,-16.035],[78.185,-15.955],[78.594,-15.874],[79.002,-15.792],[79.131,-16.171],[79.26,-16.55],[79.39,-16.93],[79.812,-16.825],[80.233,-16.72],[80.654,-16.614],[80.791,-17.065],[80.93,-17.516],[81.335,-17.39],[81.741,-17.262],[82.145,-17.134],[82.266,-17.529],[82.387,-17.923],[82.75,-17.818]]}},{"type":"Feature","properties":{"boundary_type":"ridge","feature_type":"gpml:MidOceanRidge","polarity":null,"overriding_plate_id":null,"subducting_plate_id":null,"plate_ids":[604,701],"name":"Annamia/Gondwana MOR"},"geometry":{"type":"LineString","coordinates":[[82.75,-17.818],[83.218,-17.681],[83.684,-17.542],[84.151,-17.403],[84.616,-17.262],[85.081,-17.121],[85.544,-16.978],[86.008,-16.835],[86.47,-16.69],[86.911,-16.782],[87.352,-16.873],[87.793,-16.962],[88.235,-17.051],[88.677,-17.139]]}},{"type":"Feature","properties":{"boundary_type":"ridge","feature_type":"gpml:MidOceanRidge","polarity":null,"overriding_plate_id":null,"subducting_plate_id":null,"plate_ids":[602,701],"name":"Annamia/Gondwana MOR"},"geometry":{"type":"LineString","coordinates":[[88.677,-17.139],[89.153,-17.233],[89.629,-17.325],[90.106,-17.416],[90.565,-17.293],[91.024,-17.169],[91.482,-17.044],[91.939,-16.917],[92.396,-16.79],[92.852,-16.662],[93.308,-16.532],[93.763,-16.402]]}},{"type":"Feature","properties":{"boundary_type":"transform","feature_type":"gpml:Transform","polarity":null,"overriding_plate_id":null,"subducting_plate_id":null,"plate_ids":[9009,16111],"name":"Transform"},"geometry":{"type":"LineString","coordinates":[[-28.228,52.972],[-27.525,52.848],[-26.826,52.72],[-26.139,52.536],[-25.458,52.349],[-24.783,52.157],[-24.114,51.962],[-23.451,51.763],[-22.794,51.561],[-22.142,51.355],[-21.496,51.145],[-20.857,50.932],[-20.223,50.715]]}},{"type":"Feature","properties":{"boundary_type":"subduction","feature_type":"gpml:SubductionZone","polarity":"Right","overriding_plate_id":430,"subducting_plate_id":9013,"plate_ids":[430,9013],"name":"Nuhetdavaa-Enshoo (Uliastai) subduction zone"},"geometry":{"type":"LineString","coordinates":[[126.666,77.444],[125.231,77.115],[123.867,76.778],[122.57,76.435],[121.337,76.085],[120.163,75.729],[119.046,75.368],[117.981,75.001],[116.967,74.63],[116.0,74.255],[115.199,73.829],[114.439,73.401],[113.715,72.97],[113.027,72.537],[112.371,72.101],[111.745,71.664],[111.147,71.224],[110.576,70.782],[110.03,70.339],[109.507,69.895],[109.005,69.448],[108.524,69.001],[108.062,68.552],[107.619,68.102],[107.192,67.65],[106.615,67.28],[106.055,66.908],[105.512,66.534],[104.985,66.158],[104.473,65.78],[103.977,65.401],[103.494,65.02],[102.959,64.576],[102.441,64.13],[101.939,63.683],[101.453,63.233],[100.982,62.782],[100.525,62.33],[100.081,61.876],[99.651,61.421],[99.233,60.965],[98.826,60.507],[98.432,60.048],[98.048,59.588],[97.674,59.126],[97.31,58.664],[96.956,58.201],[96.611,57.737],[96.275,57.272],[95.947,56.806],[95.549,56.361],[95.16,55.916],[94.781,55.469],[94.409,55.021],[94.046,54.573],[93.691,54.123],[93.344,53.672],[93.004,53.22],[92.671,52.767],[92.345,52.313]]}},{"type":"Feature","properties":{"boundary_type":"subduction","feature_type":"gpml:SubductionZone","polarity":"Left","overriding_plate_id":459,"subducting_plate_id":9006,"plate_ids":[459,9006],"name":"Kyrgyz Middle Tianshan-Chinese South Tianshan subduction zone"},"geometry":{"type":"LineString","coordinates":[[43.62,25.284],[43.899,24.905],[44.176,24.525],[44.452,24.146],[44.726,23.765],[45.07,23.412],[45.412,23.058],[45.752,22.703],[46.09,22.347],[46.427,21.991],[46.762,21.634],[47.096,21.276],[47.427,20.918],[47.942,20.783],[48.456,20.647],[48.969,20.509],[49.481,20.37],[49.993,20.229],[50.503,20.086],[51.012,19.943],[51.442,20.131],[51.874,20.319],[52.306,20.505],[52.74,20.69],[53.174,20.875],[53.61,21.058],[54.046,21.24],[54.403,21.519],[54.761,21.797],[55.121,22.074],[55.482,22.35],[55.844,22.626]]}},{"type":"Feature","properties":{"boundary_type":"subduction","feature_type":"gpml:SubductionZone","polarity":"Left","overriding_plate_id":459,"subducting_plate_id":9006,"plate_ids":[459,9006],"name":"Paleotethys/Kaz transform"},"geometry":{"type":"LineString","coordinates":[[55.844,22.626],[56.265,22.536],[56.686,22.446],[57.106,22.354],[57.525,22.261]]}},{"type":"Feature","properties":{"boundary_type":"subduction","feature_type":"gpml:SubductionZone","polarity":"Left","overriding_plate_id":580,"subducting_plate_id":9006,"plate_ids":[580,9006],"name":"Paleotethys/Kaz transform"},"geometry":{"type":"LineString","coordinates":[[57.525,22.261],[58.022,22.15],[58.518,22.037],[59.013,21.922],[59.507,21.806],[60.001,21.689],[60.493,21.57],[60.985,21.449],[61.476,21.328],[61.967,21.205],[62.456,21.08],[62.945,20.954],[63.46,20.827],[63.974,20.699],[64.487,20.569],[64.999,20.437],[65.51,20.304],[66.021,20.17],[66.531,20.034],[67.039,19.897],[67.547,19.758],[68.054,19.618],[68.56,19.476],[69.065,19.333],[69.57,19.189],[70.073,19.043],[70.575,18.896],[71.077,18.747],[71.578,18.597]]}},{"type":"Feature","properties":{"boundary_type":"transform","feature_type":"gpml:Transform","polarity":null,"overriding_plate_id":null,"subducting_plate_id":null,"plate_ids":[1002,9006],"name":""},"geometry":{"type":"LineString","coordinates":[[43.553,26.332],[43.136,26.646],[42.716,26.959],[42.295,27.271],[41.871,27.581],[41.444,27.89],[41.015,28.198]]}},{"type":"Feature","properties":{"boundary_type":"transform","feature_type":"gpml:Transform","polarity":null,"overriding_plate_id":null,"subducting_plate_id":null,"plate_ids":[604,9006],"name":"Annamia Transform"},"geometry":{"type":"LineString","coordinates":[[82.75,-17.818],[82.688,-17.326],[82.626,-16.834],[82.564,-16.343],[82.503,-15.851],[82.442,-15.359],[82.382,-14.867],[82.321,-14.376],[82.261,-13.884],[82.201,-13.392],[82.142,-12.9],[82.082,-12.408],[82.023,-11.916],[81.779,-11.491],[81.536,-11.066],[81.293,-10.641],[81.051,-10.215],[80.81,-9.79],[80.569,-9.364],[80.329,-8.938],[80.089,-8.512],[79.85,-8.085],[79.612,-7.659],[79.374,-7.232],[79.136,-6.805],[78.899,-6.379],[78.662,-5.952],[78.426,-5.525],[78.19,-5.097],[77.954,-4.67],[77.719,-4.243],[77.484,-3.815],[77.249,-3.388],[77.014,-2.961],[76.779,-2.533],[76.545,-2.105],[76.311,-1.678],[76.077,-1.25],[75.842,-0.822],[75.608,-0.395],[75.374,0.033],[75.14,0.461],[74.817,0.801],[74.493,1.141],[74.17,1.482],[73.846,1.822],[73.522,2.162],[73.198,2.502],[72.874,2.842],[72.549,3.182],[72.225,3.522],[71.9,3.862],[71.657,4.252],[71.415,4.641],[71.172,5.031],[70.929,5.421],[70.685,5.81],[70.442,6.199],[70.197,6.589],[70.108,7.031],[70.018,7.473],[69.928,7.916],[69.838,8.358],[69.747,8.8],[69.656,9.243],[69.566,9.685],[69.554,10.126],[69.542,10.566],[69.53,11.007],[69.518,11.448],[69.506,11.888],[69.494,12.329],[69.581,12.792],[69.668,13.256],[69.756,13.719],[69.843,14.182],[69.931,14.645],[70.074,15.108],[70.217,15.572],[70.361,16.035],[70.506,16.499],[70.651,16.962],[70.797,17.425],[70.944,17.888],[71.26,18.243],[71.578,18.597]]}},{"type":"Feature","properties":{"boundary_type":"transform","feature_type":"gpml:Transform","polarity":null,"overriding_plate_id":null,"subducting_plate_id":null,"plate_ids":[580,604],"name":"Annamia Transform"},"geometry":{"type":"LineString","coordinates":[[71.578,18.597],[71.875,18.927],[72.173,19.256],[72.472,19.584],[72.772,19.913],[73.074,20.24],[73.373,20.487]]}},{"type":"Feature","properties":{"boundary_type":"ridge","feature_type":"gpml:MidOceanRidge","polarity":null,"overriding_plate_id":null,"subducting_plate_id":null,"plate_ids":[701,9006],"name":"Paleotethys MOR"},"geometry":{"type":"LineString","coordinates":[[17.647,-0.752],[18.009,-1.096],[18.372,-1.44],[18.734,-1.784],[19.096,-2.128],[19.459,-2.472],[19.822,-2.815],[20.185,-3.159],[20.548,-3.502],[20.912,-3.846],[21.276,-4.189],[21.64,-4.532],[22.004,-4.874],[22.369,-5.217],[22.734,-5.559],[23.1,-5.901],[23.466,-6.243],[23.833,-6.585],[24.162,-6.232],[24.491,-5.879],[24.82,-5.526],[25.148,-5.173],[25.476,-4.82],[25.803,-4.466],[26.061,-4.796],[26.353,-4.445],[26.645,-4.095],[26.937,-3.744],[27.228,-3.393],[27.519,-3.042],[27.81,-2.691],[28.183,-3.008],[28.555,-3.325],[28.928,-3.641],[29.301,-3.957],[29.675,-4.274],[30.049,-4.59],[30.423,-4.905],[30.797,-5.221],[31.172,-5.536],[31.547,-5.851],[31.923,-6.166],[32.299,-6.481],[32.675,-6.795],[33.052,-7.109],[33.43,-7.423],[33.808,-7.737],[34.187,-8.05],[34.48,-7.724],[34.772,-7.399],[35.065,-7.073],[35.356,-6.748],[35.648,-6.422],[35.939,-6.095],[36.294,-6.379],[36.649,-6.662],[37.054,-6.406],[37.459,-6.149],[37.862,-5.892],[38.266,-5.635],[38.669,-5.378],[39.072,-5.12],[39.475,-4.862],[39.946,-5.027],[40.418,-5.191],[40.89,-5.355],[41.362,-5.519],[41.835,-5.683],[42.308,-5.846],[42.781,-6.009],[43.254,-6.171],[43.728,-6.333],[44.202,-6.495],[44.299,-6.129],[44.396,-5.764],[44.493,-5.398],[44.59,-5.033],[45.075,-5.113],[45.561,-5.194],[46.048,-5.273],[46.534,-5.353],[47.02,-5.432],[47.507,-5.51],[47.993,-5.588],[48.48,-5.666],[48.967,-5.743],[49.454,-5.82],[49.941,-5.897],[50.428,-5.973],[50.916,-6.049],[51.403,-6.124],[51.351,-6.557],[51.298,-6.991],[51.246,-7.424],[51.193,-7.858],[51.14,-8.291],[51.627,-8.419],[52.113,-8.545],[52.6,-8.671],[53.088,-8.796],[53.575,-8.921],[54.063,-9.045],[54.552,-9.169],[55.041,-9.291],[55.53,-9.413],[56.019,-9.535],[56.509,-9.656],[56.999,-9.776],[57.489,-9.895],[57.98,-10.014],[58.471,-10.132],[58.963,-10.249],[59.454,-10.365],[59.947,-10.481],[60.439,-10.596],[60.932,-10.71],[61.426,-10.824],[61.919,-10.936],[62.413,-11.048],[62.908,-11.159],[63.403,-11.269],[63.898,-11.379],[64.393,-11.487],[64.889,-11.595],[65.386,-11.702],[65.883,-11.808],[65.836,-12.121],[65.789,-12.434]]}},{"type":"Feature","properties":{"boundary_type":"transform","feature_type":"gpml:Transform","polarity":null,"overriding_plate_id":null,"subducting_plate_id":null,"plate_ids":[401,9006],"name":"transform"},"geometry":{"type":"LineString","coordinates":[[40.721,27.637],[40.868,27.917],[41.015,28.198]]}},{"type":"Feature","properties":{"boundary_type":"transform","feature_type":"gpml:Transform","polarity":null,"overriding_plate_id":null,"subducting_plate_id":null,"plate_ids":[401,1002],"name":"transform"},"geometry":{"type":"LineString","coordinates":[[41.015,28.198],[41.103,28.364],[41.26,28.675],[41.418,28.985],[41.578,29.296],[41.71,29.68],[41.843,30.065],[41.978,30.45],[42.113,30.834],[42.25,31.218],[42.374,31.637],[42.5,32.056],[42.626,32.474],[42.754,32.892],[42.915,33.329],[43.077,33.766],[43.241,34.203],[43.407,34.639],[43.575,35.075]]}},{"type":"Feature","properties":{"boundary_type":"transform","feature_type":"gpml:Transform","polarity":null,"overriding_plate_id":null,"subducting_plate_id":null,"plate_ids":[401,580],"name":"transform"},"geometry":{"type":"LineString","coordinates":[[43.575,35.075],[43.757,35.545],[43.942,36.014],[44.129,36.483],[44.318,36.951],[44.509,37.419],[44.703,37.887],[44.702,38.341],[44.701,38.795]]}},{"type":"Feature","properties":{"boundary_type":"transform","feature_type":"gpml:Transform","polarity":null,"overriding_plate_id":null,"subducting_plate_id":null,"plate_ids":[401,9009],"name":"transform"},"geometry":{"type":"LineString","coordinates":[[44.701,38.795],[44.7,39.253],[44.699,39.71],[44.698,40.168],[44.696,40.625],[44.695,41.083],[44.694,41.541],[44.693,41.998],[44.692,42.456],[44.69,42.913]]}},{"type":"Feature","properties":{"boundary_type":"ridge","feature_type":"gpml:MidOceanRidge","polarity":null,"overriding_plate_id":null,"subducting_plate_id":null,"plate_ids":[701,28800],"name":"Arequipa-Antofalla rifting"},"geometry":{"type":"LineString","coordinates":[[-172.659,-40.92],[-172.099,-41.124],[-171.535,-41.326],[-170.969,-41.524],[-170.398,-41.72],[-169.825,-41.913],[-169.247,-42.103],[-168.667,-42.291],[-168.083,-42.475],[-167.495,-42.656],[-167.587,-43.012],[-167.679,-43.367],[-167.053,-43.549],[-166.423,-43.728],[-165.789,-43.903],[-165.151,-44.075],[-164.51,-44.243],[-163.865,-44.408],[-163.216,-44.569],[-162.564,-44.726],[-161.909,-44.88],[-161.25,-45.029],[-160.587,-45.175],[-159.921,-45.317],[-160.056,-45.773],[-160.194,-46.229],[-160.333,-46.685],[-160.475,-47.141],[-160.62,-47.596],[-160.767,-48.051],[-160.916,-48.506],[-161.069,-48.961],[-160.408,-49.129],[-159.742,-49.293],[-159.073,-49.453],[-158.399,-49.61],[-157.72,-49.762],[-157.038,-49.911],[-156.351,-50.055],[-155.66,-50.196],[-154.965,-50.332],[-154.266,-50.464],[-153.564,-50.592],[-152.857,-50.716],[-152.198,-50.686],[-151.54,-50.653],[-150.882,-50.617],[-150.226,-50.576],[-149.571,-50.532],[-149.038,-50.805],[-148.499,-51.075],[-147.954,-51.342],[-147.402,-51.607],[-146.844,-51.869],[-146.279,-52.129],[-145.854,-51.749],[-145.436,-51.367],[-145.025,-50.985],[-144.62,-50.6],[-144.223,-50.215],[-143.831,-49.828],[-143.446,-49.44],[-143.067,-49.05],[-142.693,-48.66],[-141.966,-48.714],[-141.238,-48.763],[-140.508,-48.808],[-139.777,-48.848],[-139.044,-48.884],[-138.311,-48.915],[-137.577,-48.941],[-136.842,-48.963],[-136.107,-48.98],[-135.371,-48.992],[-134.613,-49.046],[-133.853,-49.095],[-133.092,-49.138],[-132.33,-49.177],[-131.567,-49.211],[-130.803,-49.239],[-130.037,-49.263],[-129.272,-49.281],[-128.505,-49.295],[-127.739,-49.303],[-126.972,-49.307],[-126.205,-49.305],[-125.439,-49.298],[-124.734,-49.464],[-124.025,-49.625],[-123.311,-49.782],[-122.593,-49.935],[-121.87,-50.083],[-121.143,-50.226],[-120.411,-50.365],[-119.675,-50.5],[-118.935,-50.63],[-118.191,-50.755],[-117.443,-50.875],[-116.691,-50.99],[-116.507,-50.58],[-116.325,-50.168],[-115.568,-50.276],[-114.809,-50.379],[-114.046,-50.477],[-113.279,-50.569],[-112.51,-50.657],[-111.738,-50.74],[-110.964,-50.817],[-110.187,-50.889],[-109.407,-50.957],[-108.626,-51.019],[-107.842,-51.075],[-107.057,-51.127],[-106.27,-51.173],[-105.481,-51.214],[-104.692,-51.25],[-103.901,-51.28],[-103.109,-51.305],[-102.316,-51.325],[-101.523,-51.339],[-100.729,-51.348],[-99.935,-51.351],[-99.936,-50.918],[-99.936,-50.484],[-99.936,-50.05],[-99.936,-49.617],[-99.184,-49.633],[-98.432,-49.645],[-97.679,-49.652],[-96.926,-49.653],[-96.173,-49.65],[-95.42,-49.642],[-94.667,-49.63],[-93.915,-49.612],[-93.164,-49.589],[-92.413,-49.562]]}},{"type":"Feature","properties":{"boundary_type":"ridge","feature_type":"gpml:MidOceanRidge","polarity":null,"overriding_plate_id":null,"subducting_plate_id":null,"plate_ids":[602,604],"name":"Indochina-SCB spreading"},"geometry":{"type":"LineString","coordinates":[[88.677,-17.139],[88.348,-16.773],[88.021,-16.407],[87.695,-16.039],[87.37,-15.672],[87.046,-15.304],[86.724,-14.935],[86.402,-14.566],[86.082,-14.197],[85.763,-13.827],[85.444,-13.457],[85.127,-13.086],[84.811,-12.715],[84.495,-12.343],[84.181,-11.972],[83.867,-11.599],[83.554,-11.227],[83.242,-10.854],[82.931,-10.481],[82.62,-10.108],[82.31,-9.734],[82.001,-9.36],[82.343,-9.005],[82.685,-8.65],[83.026,-8.295],[83.366,-7.939],[83.705,-7.584],[84.044,-7.228],[84.383,-6.871],[84.721,-6.515],[85.058,-6.158],[85.395,-5.801],[85.732,-5.444],[86.068,-5.086],[86.404,-4.729],[86.74,-4.371],[87.075,-4.013],[87.41,-3.655],[87.744,-3.297],[87.373,-2.987],[87.003,-2.677],[86.632,-2.367],[86.921,-1.964],[87.21,-1.561],[87.499,-1.158],[87.787,-0.756],[88.076,-0.353],[88.364,0.05],[88.653,0.453],[88.941,0.856],[89.23,1.259],[89.519,1.662],[89.109,1.921],[88.699,2.18],[88.289,2.439],[88.374,2.876],[88.458,3.313],[88.542,3.751],[88.627,4.188],[88.712,4.626],[88.796,5.063],[88.881,5.5],[88.455,5.704],[88.027,5.907],[87.792,6.295],[87.557,6.684],[87.321,7.072],[87.085,7.46],[86.848,7.849],[86.611,8.237],[86.373,8.624],[85.906,8.767],[85.823,9.236],[85.74,9.705],[85.657,10.174],[85.574,10.643],[85.491,11.111],[85.407,11.58],[85.323,12.049],[85.239,12.518],[85.154,12.987],[84.799,13.051],[84.443,13.114],[84.088,13.177],[83.822,13.601],[83.555,14.024],[83.287,14.446],[83.019,14.869],[82.749,15.291],[82.478,15.713],[82.206,16.134],[81.933,16.555],[81.658,16.976],[81.383,17.396],[80.979,17.398],[80.576,17.399],[80.3,17.797],[80.022,18.195],[79.744,18.592],[79.464,18.988],[79.182,19.385],[78.9,19.78],[78.616,20.176]]}},{"type":"Feature","properties":{"boundary_type":"subduction","feature_type":"gpml:SubductionZone","polarity":"Left","overriding_plate_id":602,"subducting_plate_id":926,"plate_ids":[602,926],"name":"Panthalassa SZ estern China"},"geometry":{"type":"LineString","coordinates":[[116.558,-1.104],[116.62,-0.695],[116.682,-0.286],[116.675,0.194],[116.668,0.674],[116.661,1.154],[116.654,1.634],[116.647,2.113],[116.64,2.593],[116.634,3.073],[116.627,3.553],[116.62,4.033],[116.632,4.501],[116.643,4.968],[116.655,5.436],[116.667,5.904],[116.679,6.372],[116.691,6.84],[116.86,7.221],[117.029,7.601],[117.198,7.981],[117.368,8.361],[117.538,8.741],[117.693,9.13],[117.849,9.519],[118.005,9.908],[118.162,10.296],[118.319,10.685],[118.476,11.073],[118.841,11.365],[119.208,11.657],[119.575,11.949],[119.942,12.24],[120.311,12.53],[120.681,12.82],[121.051,13.109],[121.422,13.398],[121.794,13.687],[122.185,13.751],[122.576,13.814],[122.967,13.877],[123.358,13.939]]}},{"type":"Feature","properties":{"boundary_type":"subduction","feature_type":"gpml:SubductionZone","polarity":"Left","overriding_plate_id":601,"subducting_plate_id":926,"plate_ids":[601,926],"name":"Panthalassa SZ estern China"},"geometry":{"type":"LineString","coordinates":[[123.358,13.939],[123.786,14.007],[124.215,14.073],[124.644,14.139],[125.073,14.204],[125.503,14.269],[125.961,14.451],[126.419,14.632],[126.879,14.812],[127.339,14.991],[127.8,15.169],[128.261,15.346],[128.724,15.523],[129.187,15.698],[129.651,15.872],[130.116,16.046],[130.534,16.336],[130.953,16.625],[131.374,16.913],[131.796,17.2],[132.219,17.487],[132.643,17.773],[133.069,18.057],[133.497,18.341],[133.925,18.624],[134.355,18.906],[134.787,19.187],[135.22,19.466],[135.654,19.745],[136.09,20.023],[136.528,20.3],[136.79,20.699],[137.054,21.099],[137.319,21.498],[137.585,21.896],[137.853,22.294],[138.123,22.692],[138.394,23.089],[138.667,23.485],[138.838,23.946],[139.009,24.406],[139.183,24.865],[139.357,25.325],[139.533,25.784],[139.71,26.243],[139.888,26.702],[140.068,27.161],[140.25,27.62],[140.433,28.078],[140.484,28.552],[140.536,29.027],[140.588,29.501]]}},{"type":"Feature","properties":{"boundary_type":"subduction","feature_type":"gpml:SubductionZone","polarity":"Left","overriding_plate_id":902013,"subducting_plate_id":926,"plate_ids":[926,902013],"name":"Panthalassa SZ estern China"},"geometry":{"type":"LineString","coordinates":[[140.588,29.501],[140.641,29.982],[140.695,30.462],[140.75,30.943],[140.805,31.423],[140.789,31.791],[140.773,32.158]]}},{"type":"Feature","properties":{"boundary_type":"subduction","feature_type":"gpml:SubductionZone","polarity":"Left","overriding_plate_id":9014,"subducting_plate_id":926,"plate_ids":[926,9014],"name":"Panthalassa SZ estern China"},"geometry":{"type":"LineString","coordinates":[[140.773,32.158],[140.753,32.632],[140.732,33.105],[140.712,33.579],[140.691,34.052],[140.669,34.525],[140.648,34.999],[140.626,35.472]]}},{"type":"Feature","properties":{"boundary_type":"ridge","feature_type":"gpml:MidOceanRidge","polarity":null,"overriding_plate_id":null,"subducting_plate_id":null,"plate_ids":[430,9009],"name":"Siberia-Amuria (Mongol-Okhotsk) MOR"},"geometry":{"type":"LineString","coordinates":[[59.215,44.612],[58.794,45.002],[58.367,45.39],[57.935,45.777],[57.496,46.162],[57.051,46.545],[56.6,46.926],[56.142,47.306],[55.678,47.684],[55.207,48.06],[54.729,48.434],[54.244,48.806],[53.752,49.176],[53.253,49.543],[52.746,49.909],[52.231,50.272],[51.708,50.633],[51.177,50.992],[50.638,51.348],[50.091,51.702],[49.535,52.053],[48.97,52.402],[48.396,52.747],[47.813,53.09],[47.221,53.43],[46.619,53.768],[46.008,54.102],[46.551,54.432],[47.102,54.76],[47.663,55.086],[48.232,55.409],[48.811,55.729],[48.165,56.041],[47.507,56.35],[46.84,56.656],[46.161,56.958],[45.471,57.256],[44.77,57.55],[44.058,57.841],[43.334,58.127],[42.599,58.409],[41.852,58.687],[41.093,58.96],[40.321,59.229],[39.538,59.494],[38.743,59.753],[37.935,60.008],[37.115,60.258],[36.282,60.502],[35.437,60.741],[34.579,60.975],[33.708,61.204],[32.825,61.426],[33.293,61.763],[33.771,62.097],[34.259,62.43],[34.759,62.762],[35.269,63.091],[34.339,63.348],[33.393,63.599],[32.429,63.843],[31.449,64.081],[30.453,64.312],[29.44,64.537],[28.41,64.754],[27.364,64.964],[26.301,65.167],[25.223,65.362],[24.129,65.549],[23.019,65.728],[21.894,65.899],[20.754,66.062],[19.601,66.216],[18.433,66.361],[17.252,66.498],[16.059,66.625],[14.853,66.744],[13.637,66.853],[12.41,66.953],[11.173,67.043],[9.928,67.124],[8.674,67.195],[7.414,67.256],[6.148,67.307],[4.878,67.348],[3.603,67.379],[2.326,67.4],[1.046,67.41],[-0.233,67.411],[-1.513,67.402],[-2.79,67.382],[-4.065,67.352],[-5.337,67.313],[-6.603,67.263],[-7.864,67.203],[-9.118,67.134],[-9.12,67.152]]}},{"type":"Feature","properties":{"boundary_type":"subduction","feature_type":"gpml:SubductionZone","polarity":"Left","overriding_plate_id":9014,"subducting_plate_id":926,"plate_ids":[926,9014],"name":"Paleoasian sz"},"geometry":{"type":"LineString","coordinates":[[149.41,34.851],[149.463,35.147],[149.516,35.442],[149.53,35.936],[149.545,36.43],[149.559,36.924],[149.574,37.418],[149.589,37.913],[149.605,38.407],[149.62,38.901],[149.636,39.395],[149.652,39.889],[149.668,40.383],[149.685,40.877],[149.702,41.371],[149.719,41.865],[149.736,42.359],[149.766,42.835],[149.796,43.31],[149.827,43.786],[149.858,44.261],[149.89,44.737],[149.922,45.212],[149.955,45.688],[149.989,46.163],[150.023,46.639],[150.058,47.114],[150.093,47.59],[150.129,48.065],[150.165,48.541],[150.203,49.016],[150.241,49.492],[150.279,49.967],[150.319,50.442],[150.359,50.918],[150.385,51.414],[150.412,51.91],[150.439,52.406],[150.467,52.902],[150.496,53.399],[150.525,53.895],[150.555,54.391],[150.585,54.887],[150.617,55.383],[150.649,55.879],[150.682,56.375],[150.716,56.871],[150.751,57.367],[150.786,57.864],[150.823,58.36],[150.861,58.856],[150.9,59.352],[150.94,59.848],[150.844,60.334],[150.744,60.821],[150.642,61.308],[150.536,61.794],[150.427,62.281],[150.315,62.767],[150.199,63.253],[150.078,63.739],[149.954,64.225]]}},{"type":"Feature","properties":{"boundary_type":"subduction","feature_type":"gpml:SubductionZone","polarity":"Left","overriding_plate_id":9013,"subducting_plate_id":926,"plate_ids":[926,9013],"name":"Paleoasian sz"},"geometry":{"type":"LineString","coordinates":[[149.954,64.225],[149.825,64.71],[149.692,65.195],[149.554,65.679],[149.41,66.164],[149.261,66.648]]}},{"type":"Feature","properties":{"boundary_type":"subduction","feature_type":"gpml:SubductionZone","polarity":"Left","overriding_plate_id":9013,"subducting_plate_id":902,"plate_ids":[902,9013],"name":"Paleoasian sz"},"geometry":{"type":"LineString","coordinates":[[149.261,66.648],[149.257,66.658],[149.074,67.114]]}},{"type":"Feature","properties":{"boundary_type":"transform","feature_type":"gpml:Transform","polarity":null,"overriding_plate_id":null,"subducting_plate_id":null,"plate_ids":[926,9014],"name":"PAO transform south"},"geometry":{"type":"LineString","coordinates":[[149.41,34.851],[148.862,34.939],[148.312,35.024],[147.762,35.107],[147.21,35.187],[146.657,35.265],[146.103,35.34],[145.549,35.412],[144.993,35.483],[144.436,35.55],[143.878,35.615],[143.335,35.597],[142.793,35.577],[142.251,35.555],[141.709,35.53],[141.167,35.502],[140.626,35.472]]}},{"type":"Feature","properties":{"boundary_type":"subduction","feature_type":"gpml:SubductionZone","polarity":"Right","overriding_plate_id":5801,"subducting_plate_id":9013,"plate_ids":[5801,9013],"name":"South Kunlun"},"geometry":{"type":"LineString","coordinates":[[98.819,44.345],[98.725,43.996],[98.633,43.648],[98.541,43.299],[98.305,42.905],[98.072,42.511],[97.841,42.116],[97.613,41.721],[97.388,41.325],[97.168,40.893],[96.95,40.46],[96.735,40.027],[96.523,39.593],[96.314,39.159],[96.107,38.724],[95.902,38.29],[95.66,37.837],[95.421,37.383],[95.184,36.929],[94.951,36.475],[94.72,36.02],[94.492,35.564],[94.266,35.109],[93.98,34.721],[93.697,34.332],[93.416,33.943],[93.137,33.553],[92.861,33.162],[92.588,32.771],[92.317,32.379],[92.048,31.987],[91.782,31.594],[91.488,31.22],[91.196,30.846],[90.907,30.471],[90.619,30.095],[90.334,29.718],[90.133,29.365],[89.932,29.012]]}},{"type":"Feature","properties":{"boundary_type":"transform","feature_type":"gpml:Transform","polarity":null,"overriding_plate_id":null,"subducting_plate_id":null,"plate_ids":[902,9013],"name":""},"geometry":{"type":"LineString","coordinates":[[121.563,70.298],[121.961,70.773],[122.378,71.248],[122.816,71.721],[123.276,72.194],[123.761,72.665],[124.272,73.135],[124.811,73.604],[125.382,74.071],[125.985,74.537],[126.625,75.001],[127.305,75.463],[128.029,75.923],[127.716,76.304],[127.386,76.685],[127.036,77.065],[126.666,77.444]]}},{"type":"Feature","properties":{"boundary_type":"transform","feature_type":"gpml:Transform","polarity":null,"overriding_plate_id":null,"subducting_plate_id":null,"plate_ids":[430,902],"name":""},"geometry":{"type":"LineString","coordinates":[[126.666,77.444],[126.199,77.893],[125.695,78.341],[125.153,78.789],[124.565,79.235],[123.928,79.679],[123.234,80.123],[122.476,80.565],[121.643,81.005],[120.727,81.443],[119.712,81.879],[118.583,82.312],[117.321,82.742],[115.677,83.174],[113.812,83.601],[111.685,84.019],[109.243,84.429],[106.421,84.826],[103.14,85.21],[99.305,85.574],[94.807,85.916],[91.87,86.206]]}},{"type":"Feature","properties":{"boundary_type":"transform","feature_type":"gpml:Transform","polarity":null,"overriding_plate_id":null,"subducting_plate_id":null,"plate_ids":[902,9013],"name":"PAO transform north"},"geometry":{"type":"LineString","coordinates":[[121.563,70.298],[122.967,70.267],[124.367,70.225],[125.76,70.173],[127.145,70.109],[128.521,70.036],[129.887,69.951],[131.241,69.856],[132.582,69.751],[133.91,69.636],[135.222,69.511],[136.519,69.376],[137.799,69.232],[139.019,69.056],[140.219,68.871],[141.399,68.678],[142.559,68.477],[143.697,68.268],[144.815,68.052],[145.911,67.828],[146.987,67.597],[148.041,67.358],[149.074,67.114]]}},{"type":"Feature","properties":{"boundary_type":"transform","feature_type":"gpml:Transform","polarity":null,"overriding_plate_id":null,"subducting_plate_id":null,"plate_ids":[601,602],"name":"SCB transform"},"geometry":{"type":"LineString","coordinates":[[104.776,13.189],[104.291,13.352],[103.805,13.515],[103.318,13.676],[102.831,13.837],[102.343,13.996],[101.855,14.155],[101.365,14.312],[100.875,14.469],[100.384,14.625],[99.893,14.779],[99.401,14.933],[98.908,15.085],[98.415,15.237],[97.92,15.387],[97.426,15.536],[96.93,15.684],[96.434,15.832],[95.936,15.977],[95.439,16.122],[94.94,16.266],[94.441,16.408],[93.941,16.549],[93.44,16.69],[92.939,16.828],[92.437,16.966],[91.934,17.102],[91.43,17.238],[90.926,17.371],[90.421,17.504],[89.915,17.636],[89.408,17.766]]}},{"type":"Feature","properties":{"boundary_type":"transform","feature_type":"gpml:Transform","polarity":null,"overriding_plate_id":null,"subducting_plate_id":null,"plate_ids":[602,9013],"name":"SCB transform"},"geometry":{"type":"LineString","coordinates":[[89.408,17.766],[88.901,17.894],[88.394,18.022],[87.886,18.148],[87.377,18.272],[86.867,18.395],[86.357,18.517],[85.846,18.638],[85.334,18.757],[84.821,18.875],[84.308,18.991],[83.794,19.106],[83.279,19.22],[82.764,19.332],[82.248,19.443],[81.731,19.552],[81.213,19.66],[80.695,19.766],[80.176,19.871],[79.657,19.974],[79.136,20.076],[78.616,20.176]]}},{"type":"Feature","properties":{"boundary_type":"transform","feature_type":"gpml:Transform","polarity":null,"overriding_plate_id":null,"subducting_plate_id":null,"plate_ids":[604,9013],"name":"SCB transform"},"geometry":{"type":"LineString","coordinates":[[78.616,20.176],[78.115,20.271]]}},{"type":"Feature","properties":{"boundary_type":"subduction","feature_type":"gpml:SubductionZone","polarity":"Left","overriding_plate_id":902013,"subducting_plate_id":9014,"plate_ids":[9014,902013],"name":"Carboniferous BAB north of NCB"},"geometry":{"type":"LineString","coordinates":[[140.773,32.158],[140.437,32.563],[140.097,32.967],[139.753,33.37],[139.407,33.773],[139.058,34.174],[138.705,34.574],[138.348,34.973],[137.828,35.17],[137.305,35.364],[136.78,35.557],[136.252,35.747],[135.722,35.934],[135.189,36.12],[134.654,36.303],[134.116,36.483],[133.576,36.661],[133.033,36.837],[132.487,37.01],[131.94,37.181],[131.389,37.349],[130.837,37.515],[130.287,37.697],[129.735,37.878],[129.18,38.055],[128.622,38.23],[128.062,38.402],[127.499,38.572],[126.933,38.739],[126.365,38.903],[125.794,39.065],[125.221,39.223],[124.645,39.379],[124.066,39.532]]}},{"type":"Feature","properties":{"boundary_type":"transform","feature_type":"gpml:Transform","polarity":null,"overriding_plate_id":null,"subducting_plate_id":null,"plate_ids":[9014,902013],"name":"Carboniferous BAB transform"},"geometry":{"type":"LineString","coordinates":[[124.066,39.532],[123.665,39.192],[123.269,38.851],[122.876,38.508],[122.486,38.164],[122.101,37.819],[121.676,37.474],[121.255,37.127],[120.839,36.779],[120.425,36.429],[120.016,36.078]]}},{"type":"Feature","properties":{"boundary_type":"transform","feature_type":"gpml:Transform","polarity":null,"overriding_plate_id":null,"subducting_plate_id":null,"plate_ids":[601,9014],"name":"Carboniferous BAB transform"},"geometry":{"type":"LineString","coordinates":[[120.016,36.078],[119.628,35.742],[119.244,35.404],[118.944,34.994],[118.647,34.584],[118.353,34.173],[118.061,33.762],[117.773,33.349]]}},{"type":"Feature","properties":{"boundary_type":"ridge","feature_type":"gpml:MidOceanRidge","polarity":null,"overriding_plate_id":null,"subducting_plate_id":null,"plate_ids":[601,902013],"name":"Carboniferous BAB spreading"},"geometry":{"type":"LineString","coordinates":[[140.588,29.501],[140.101,29.663],[139.613,29.824],[139.123,29.982],[138.632,30.139],[138.139,30.293],[137.644,30.446],[137.148,30.597],[136.651,30.746],[136.151,30.894],[136.366,31.34],[136.582,31.785],[136.067,31.92],[135.551,32.053],[135.033,32.184],[134.513,32.313],[133.992,32.44],[133.47,32.565],[132.946,32.687],[132.42,32.807],[131.894,32.925],[131.366,33.041],[130.836,33.155],[130.981,33.517],[131.128,33.879],[130.567,33.982],[130.005,34.083],[129.441,34.181],[128.877,34.276],[128.311,34.369],[127.743,34.46],[127.175,34.547],[126.605,34.632],[126.035,34.714],[125.463,34.794],[124.89,34.871],[124.316,34.945],[123.741,35.017],[123.165,35.086],[122.588,35.152],[122.01,35.215],[121.431,35.276],[120.851,35.334],[120.271,35.389],[120.358,35.704],[120.446,36.019],[120.016,36.078]]}},{"type":"Feature","properties":{"boundary_type":"ridge","feature_type":"gpml:MidOceanRidge","polarity":null,"overriding_plate_id":null,"subducting_plate_id":null,"plate_ids":[601,602],"name":"Mianlue east MOR"},"geometry":{"type":"LineString","coordinates":[[104.776,13.189],[104.877,13.656],[104.979,14.124],[105.08,14.592],[105.183,15.059],[105.285,15.527],[105.388,15.995],[105.492,16.462],[105.596,16.929],[105.701,17.397],[105.806,17.864],[106.308,17.826],[106.81,17.786],[107.312,17.745],[107.813,17.703],[108.314,17.66],[108.815,17.615],[109.316,17.569],[109.817,17.522],[110.317,17.474],[110.817,17.424],[111.317,17.373],[111.816,17.321],[112.315,17.267],[112.814,17.213],[113.312,17.157],[113.811,17.1],[114.308,17.041],[114.806,16.982],[115.303,16.921],[115.172,16.492],[115.041,16.063],[114.91,15.633],[114.78,15.204],[114.651,14.775],[115.165,14.734],[115.679,14.693],[116.192,14.65],[116.705,14.607],[117.218,14.562],[117.731,14.516],[118.244,14.469],[118.756,14.421],[119.269,14.372],[119.781,14.322],[120.293,14.27],[120.804,14.218],[121.315,14.164],[121.826,14.11],[122.337,14.054],[122.848,13.997],[123.358,13.939]]}},{"type":"Feature","properties":{"boundary_type":"transform","feature_type":"gpml:Transform","polarity":null,"overriding_plate_id":null,"subducting_plate_id":null,"plate_ids":[430,9013],"name":"Amuria transform"},"geometry":{"type":"LineString","coordinates":[[92.345,52.313],[91.624,52.209],[90.906,52.101],[90.193,51.989],[89.482,51.872],[88.685,51.805],[87.891,51.732],[87.099,51.655],[86.31,51.571],[85.524,51.483],[84.741,51.389],[83.961,51.29],[83.185,51.186],[82.412,51.077],[81.643,50.963],[80.878,50.844],[80.117,50.72],[79.359,50.591]]}},{"type":"Feature","properties":{"boundary_type":"transform","feature_type":"gpml:Transform","polarity":null,"overriding_plate_id":null,"subducting_plate_id":null,"plate_ids":[430,580],"name":"Amuria transform"},"geometry":{"type":"LineString","coordinates":[[79.359,50.591],[78.653,50.465],[77.951,50.335],[77.252,50.201],[76.558,50.063],[75.867,49.921],[75.181,49.775],[74.498,49.624],[73.821,49.47],[73.147,49.312],[72.478,49.149],[71.788,48.979],[71.104,48.805],[70.424,48.626],[69.749,48.444],[69.079,48.258],[68.414,48.068],[67.754,47.874],[67.099,47.676],[66.449,47.475],[65.804,47.27],[65.164,47.061],[64.529,46.849],[63.899,46.633],[63.274,46.414],[62.654,46.192],[62.039,45.966],[61.429,45.737],[60.824,45.505],[60.282,45.21],[59.746,44.912],[59.215,44.612]]}},{"type":"Feature","properties":{"boundary_type":"transform","feature_type":"gpml:Transform","polarity":null,"overriding_plate_id":null,"subducting_plate_id":null,"plate_ids":[580,9009],"name":"Amuria transform"},"geometry":{"type":"LineString","coordinates":[[59.215,44.612],[58.713,44.323],[58.215,44.032],[57.723,43.738],[57.235,43.443],[56.752,43.145],[56.274,42.845],[55.8,42.544],[55.331,42.24],[54.867,41.935],[54.407,41.628],[53.951,41.318],[53.353,41.183],[52.758,41.044],[52.165,40.902],[51.575,40.758],[50.987,40.61],[50.402,40.459],[49.82,40.305],[49.24,40.149],[48.663,39.989],[48.089,39.827],[47.517,39.662],[46.948,39.494],[46.382,39.323],[45.819,39.15],[45.259,38.974],[44.701,38.795]]}},{"type":"Feature","properties":{"boundary_type":"ridge","feature_type":"gpml:MidOceanRidge","polarity":null,"overriding_plate_id":null,"subducting_plate_id":null,"plate_ids":[580,5801],"name":"Mazar-Kangxiwar BAB spreading."},"geometry":{"type":"LineString","coordinates":[[94.761,46.237],[94.599,45.757],[94.439,45.276],[94.282,44.796],[94.128,44.315],[93.976,43.834],[93.826,43.353],[93.679,42.871],[93.534,42.39],[93.392,41.908],[93.251,41.426],[93.113,40.944],[92.976,40.461],[92.842,39.979],[92.709,39.496],[92.578,39.013],[92.449,38.53],[92.322,38.047],[91.9,38.199],[91.655,37.776],[91.412,37.352],[91.173,36.928],[90.936,36.503],[90.702,36.078],[90.47,35.653],[90.241,35.227],[90.014,34.8],[89.79,34.373],[89.567,33.946],[89.347,33.518],[89.129,33.09],[88.914,32.662],[89.361,32.495],[89.114,32.042],[88.869,31.588],[88.627,31.134],[88.387,30.68],[88.149,30.225],[87.913,29.769],[87.68,29.313],[87.448,28.857],[87.219,28.4],[86.991,27.943],[86.766,27.486],[86.542,27.028],[86.32,26.57]]}},{"type":"Feature","properties":{"boundary_type":"transform","feature_type":"gpml:Transform","polarity":null,"overriding_plate_id":null,"subducting_plate_id":null,"plate_ids":[5801,9013],"name":"TRM/Mazar-Kangxiwar transform"},"geometry":{"type":"LineString","coordinates":[[98.819,44.345],[98.535,44.495],[98.25,44.645],[97.726,44.901],[97.198,45.155],[96.665,45.406],[96.128,45.655],[95.585,45.901],[95.038,46.144],[94.761,46.237]]}},{"type":"Feature","properties":{"boundary_type":"transform","feature_type":"gpml:Transform","polarity":null,"overriding_plate_id":null,"subducting_plate_id":null,"plate_ids":[580,9013],"name":"TRM/Mazar-Kangxiwar transform"},"geometry":{"type":"LineString","coordinates":[[94.761,46.237],[94.126,46.446],[93.486,46.651],[92.842,46.853],[92.192,47.051],[91.538,47.246],[90.879,47.436],[90.215,47.623],[89.547,47.806],[88.904,48.019],[88.256,48.228],[87.602,48.433],[86.944,48.635],[86.28,48.833],[85.61,49.027],[84.936,49.217],[84.257,49.403],[83.572,49.585],[82.882,49.763],[82.187,49.937],[81.488,50.107],[80.783,50.272],[80.074,50.434],[79.359,50.591]]}},{"type":"Feature","properties":{"boundary_type":"transform","feature_type":"gpml:Transform","polarity":null,"overriding_plate_id":null,"subducting_plate_id":null,"plate_ids":[601,9014],"name":"NCB/PAO Transform"},"geometry":{"type":"LineString","coordinates":[[117.773,33.349],[117.29,33.496],[116.805,33.641],[116.318,33.783],[115.83,33.924],[115.341,34.063],[114.825,34.133],[114.309,34.202],[113.791,34.268],[113.273,34.332],[112.754,34.394],[112.243,34.474],[111.732,34.553],[111.219,34.629],[110.705,34.704],[110.19,34.776],[109.634,34.862],[109.077,34.946],[108.519,35.027],[107.959,35.105],[107.399,35.181],[106.837,35.254],[106.275,35.325],[105.712,35.393],[105.147,35.458],[104.639,35.538],[104.13,35.617],[103.62,35.693],[103.11,35.766],[102.598,35.838],[102.085,35.907]]}},{"type":"Feature","properties":{"boundary_type":"transform","feature_type":"gpml:Transform","polarity":null,"overriding_plate_id":null,"subducting_plate_id":null,"plate_ids":[601,9013],"name":"NCB/PAO Transform"},"geometry":{"type":"LineString","coordinates":[[102.085,35.907],[101.983,35.921],[101.491,36.069],[100.998,36.215],[100.502,36.359]]}},{"type":"Feature","properties":{"boundary_type":"transform","feature_type":"gpml:Transform","polarity":null,"overriding_plate_id":null,"subducting_plate_id":null,"plate_ids":[5801,9013],"name":"TRM Transform"},"geometry":{"type":"LineString","coordinates":[[89.932,29.012],[89.523,28.745],[89.116,28.478],[88.71,28.209],[88.307,27.938],[87.906,27.667],[87.506,27.394],[87.109,27.121],[86.714,26.846],[86.32,26.57]]}},{"type":"Feature","properties":{"boundary_type":"transform","feature_type":"gpml:Transform","polarity":null,"overriding_plate_id":null,"subducting_plate_id":null,"plate_ids":[580,9013],"name":"TRM Transform"},"geometry":{"type":"LineString","coordinates":[[86.32,26.57],[85.891,26.266],[85.463,25.96],[85.038,25.654],[84.614,25.346],[84.193,25.037],[83.775,24.727],[83.358,24.415],[82.943,24.102],[82.53,23.789],[82.12,23.474],[81.711,23.158],[81.304,22.841],[80.899,22.523],[80.496,22.204],[80.095,21.884],[79.695,21.563],[79.297,21.242],[78.901,20.919],[78.507,20.595],[78.115,20.271]]}},{"type":"Feature","properties":{"boundary_type":"transform","feature_type":"gpml:Transform","polarity":null,"overriding_plate_id":null,"subducting_plate_id":null,"plate_ids":[580,604],"name":"TRM Transform"},"geometry":{"type":"LineString","coordinates":[[78.115,20.271],[77.877,20.073],[77.64,19.875],[77.167,19.948],[76.694,20.02],[76.221,20.09],[75.747,20.16],[75.273,20.228],[74.799,20.295],[74.324,20.36],[73.849,20.424],[73.373,20.487]]}},{"type":"Feature","properties":{"boundary_type":"ridge","feature_type":"gpml:MidOceanRidge","polarity":null,"overriding_plate_id":null,"subducting_plate_id":null,"plate_ids":[601,9013],"name":"PAO mor south"},"geometry":{"type":"LineString","coordinates":[[100.502,36.359],[100.18,35.968],[99.861,35.577],[99.545,35.184],[99.232,34.791],[98.922,34.397],[98.615,34.003],[98.311,33.607],[98.01,33.211],[97.711,32.814],[97.415,32.416],[97.122,32.018],[96.831,31.619],[96.565,31.773],[96.298,31.927],[96.048,31.475],[95.8,31.024],[95.554,30.572],[95.31,30.119],[95.069,29.666],[94.83,29.213],[94.592,28.759],[94.357,28.304],[94.124,27.85],[93.893,27.395],[93.664,26.939],[93.437,26.484],[93.211,26.027],[92.987,25.571],[92.765,25.114],[92.545,24.657],[92.326,24.199],[92.109,23.742],[91.893,23.283],[91.679,22.825],[91.466,22.366],[91.254,21.907],[91.044,21.448],[90.836,20.989],[90.628,20.529],[90.422,20.069],[90.217,19.609],[90.013,19.148],[89.81,18.688],[89.609,18.227],[89.408,17.766]]}},{"type":"Feature","properties":{"boundary_type":"ridge","feature_type":"gpml:MidOceanRidge","polarity":null,"overriding_plate_id":null,"subducting_plate_id":null,"plate_ids":[9013,9014],"name":"PAO mor north"},"geometry":{"type":"LineString","coordinates":[[149.954,64.225],[148.991,64.044],[148.041,63.856],[147.104,63.662],[146.18,63.462],[145.269,63.256],[144.371,63.045],[143.486,62.828],[142.615,62.605],[141.756,62.377],[140.91,62.144],[141.573,61.772],[142.22,61.397],[142.851,61.019],[143.468,60.638],[142.612,60.374],[141.771,60.104],[140.943,59.829],[140.129,59.549],[139.329,59.264],[138.542,58.974],[137.768,58.68],[137.007,58.381],[136.259,58.077],[135.524,57.769],[134.801,57.457],[134.091,57.141],[133.393,56.821],[132.706,56.497],[132.032,56.17],[131.368,55.839],[130.743,56.148],[130.108,56.454],[129.463,56.757],[128.808,57.056],[128.141,57.352],[127.464,57.644],[126.776,57.933],[126.077,58.218],[125.367,58.499],[124.646,58.776],[123.912,59.049],[123.168,59.318],[122.411,59.582],[121.643,59.842],[120.862,60.097],[120.207,59.745],[119.566,59.389],[118.938,59.03],[118.322,58.668],[117.72,58.303],[117.13,57.936],[116.552,57.565],[115.986,57.193],[115.431,56.817],[114.887,56.44],[114.354,56.059],[113.831,55.677],[113.318,55.293],[112.816,54.906],[112.323,54.517],[111.839,54.127],[111.364,53.734],[110.898,53.34],[110.441,52.944],[109.992,52.546],[109.551,52.146],[109.117,51.745],[108.692,51.343],[108.274,50.938],[107.863,50.533],[108.512,50.317],[109.156,50.098],[109.793,49.875],[110.424,49.649],[111.05,49.419],[111.67,49.186],[112.284,48.95],[112.892,48.71],[112.465,48.315],[112.045,47.919],[111.631,47.521],[111.223,47.121],[110.821,46.72],[110.425,46.318],[110.035,45.914],[109.651,45.51],[109.272,45.103],[108.899,44.696],[108.531,44.287],[108.168,43.877],[107.809,43.467],[107.456,43.055],[107.108,42.641],[106.764,42.227],[106.424,41.812],[106.089,41.396],[105.758,40.979],[105.431,40.561],[105.109,40.142],[104.79,39.722],[104.475,39.301],[104.164,38.88],[103.857,38.457],[103.553,38.034],[103.253,37.61],[102.956,37.186],[102.662,36.76],[102.372,36.334],[102.085,35.907]]}},{"type":"Feature","properties":{"boundary_type":"subduction","feature_type":"gpml:SubductionZone","polarity":"Left","overriding_plate_id":28800,"subducting_plate_id":919,"plate_ids":[919,28800],"name":"Western Gondwana SZ"},"geometry":{"type":"LineString","coordinates":[[-88.354,-42.287],[-88.828,-42.601],[-89.308,-42.913],[-89.792,-43.223],[-90.281,-43.531],[-90.776,-43.837],[-91.275,-44.14],[-91.78,-44.442],[-92.289,-44.741],[-92.804,-45.038],[-93.325,-45.332],[-93.85,-45.624],[-94.381,-45.914],[-94.957,-46.149],[-95.536,-46.382],[-96.121,-46.612],[-96.711,-46.839],[-97.306,-47.062],[-97.906,-47.283],[-98.51,-47.5],[-99.12,-47.715],[-99.735,-47.926],[-100.355,-48.133],[-100.979,-48.338],[-101.691,-48.461],[-102.406,-48.579],[-103.124,-48.693],[-103.846,-48.803],[-104.57,-48.908],[-105.298,-49.008],[-106.028,-49.104],[-106.761,-49.195],[-107.497,-49.282],[-108.235,-49.364],[-108.976,-49.441],[-109.677,-49.381],[-110.376,-49.316],[-111.073,-49.247],[-111.768,-49.174],[-112.461,-49.097],[-113.152,-49.016],[-113.841,-48.931],[-114.527,-48.842],[-115.21,-48.748],[-115.891,-48.651],[-116.57,-48.549],[-117.245,-48.444],[-117.897,-48.251],[-118.544,-48.054],[-119.185,-47.853],[-119.822,-47.649],[-120.454,-47.442],[-121.081,-47.231],[-121.702,-47.016],[-122.319,-46.798],[-122.931,-46.577],[-123.537,-46.353],[-124.139,-46.126],[-124.736,-45.895],[-125.328,-45.662],[-125.914,-45.425],[-126.496,-45.185],[-127.073,-44.943],[-127.645,-44.697],[-128.238,-44.503],[-128.826,-44.306],[-129.41,-44.106],[-129.99,-43.903],[-130.566,-43.697],[-131.139,-43.488],[-131.707,-43.276],[-132.271,-43.062],[-132.832,-42.844],[-133.388,-42.624],[-133.941,-42.402],[-134.489,-42.177],[-135.034,-41.949],[-135.658,-41.776],[-136.278,-41.6],[-136.895,-41.421],[-137.508,-41.239],[-138.118,-41.053],[-138.724,-40.864],[-139.327,-40.672],[-139.927,-40.477],[-140.523,-40.279],[-141.116,-40.077],[-141.705,-39.873],[-142.29,-39.666],[-142.872,-39.456],[-143.45,-39.243],[-144.072,-39.192],[-144.693,-39.138],[-145.313,-39.08],[-145.932,-39.02],[-146.55,-38.956],[-147.167,-38.888],[-147.782,-38.818],[-148.396,-38.744],[-149.009,-38.667],[-149.621,-38.587],[-150.231,-38.504],[-150.84,-38.417],[-151.447,-38.328],[-152.052,-38.214],[-152.655,-38.098],[-153.255,-37.978],[-153.854,-37.855],[-154.451,-37.729],[-155.045,-37.601],[-155.638,-37.469],[-156.228,-37.334],[-156.817,-37.196],[-157.403,-37.056],[-157.987,-36.913],[-158.568,-36.766],[-159.105,-36.533],[-159.639,-36.297],[-160.169,-36.059],[-160.696,-35.819],[-161.22,-35.576],[-161.741,-35.331],[-162.258,-35.084],[-162.772,-34.835],[-163.284,-34.584],[-163.681,-34.253],[-164.075,-33.921],[-164.466,-33.587],[-164.853,-33.253],[-165.238,-32.917],[-165.62,-32.58],[-166.0,-32.242],[-166.376,-31.903],[-166.749,-31.563]]}},{"type":"Feature","properties":{"boundary_type":"transform","feature_type":"gpml:Transform","polarity":null,"overriding_plate_id":null,"subducting_plate_id":null,"plate_ids":[701,28800],"name":"Western Gondwana transform"},"geometry":{"type":"LineString","coordinates":[[-92.413,-49.562],[-92.126,-49.112],[-91.844,-48.661],[-91.567,-48.21],[-91.294,-47.757],[-91.027,-47.305],[-90.763,-46.851],[-90.505,-46.397],[-90.25,-45.943],[-90.0,-45.488],[-89.754,-45.032],[-89.511,-44.576],[-89.273,-44.119],[-89.038,-43.662],[-88.806,-43.204],[-88.578,-42.746],[-88.354,-42.287]]}},{"type":"Feature","properties":{"boundary_type":"transform","feature_type":"gpml:Transform","polarity":null,"overriding_plate_id":null,"subducting_plate_id":null,"plate_ids":[701,919],"name":"Western Gondwana transform"},"geometry":{"type":"LineString","coordinates":[[-88.354,-42.287],[-88.152,-41.869],[-87.952,-41.45],[-87.645,-41.062],[-87.341,-40.674],[-87.04,-40.285],[-86.743,-39.895],[-86.45,-39.504],[-86.159,-39.113],[-85.872,-38.721]]}},{"type":"Feature","properties":{"boundary_type":"transform","feature_type":"gpml:Transform","polarity":null,"overriding_plate_id":null,"subducting_plate_id":null,"plate_ids":[701,902],"name":"Western Gondwana transform"},"geometry":{"type":"LineString","coordinates":[[-85.872,-38.721],[-85.574,-38.309],[-85.28,-37.896],[-84.988,-37.482],[-84.7,-37.068],[-84.415,-36.653],[-84.133,-36.237],[-83.855,-35.821],[-83.579,-35.404],[-83.305,-34.986],[-83.035,-34.568],[-82.767,-34.149],[-82.699,-33.68],[-82.632,-33.211],[-82.566,-32.742],[-82.5,-32.273],[-82.435,-31.803],[-82.37,-31.334],[-82.306,-30.865],[-82.243,-30.395],[-82.181,-29.926],[-82.119,-29.457],[-82.057,-28.987],[-81.996,-28.518],[-81.936,-28.048],[-81.876,-27.579]]}},{"type":"Feature","properties":{"boundary_type":"transform","feature_type":"gpml:Transform","polarity":null,"overriding_plate_id":null,"subducting_plate_id":null,"plate_ids":[459,1002],"name":"Kazak SZ"},"geometry":{"type":"LineString","coordinates":[[48.919,31.555],[48.431,31.402],[47.944,31.247],[47.423,31.159],[46.902,31.068],[46.383,30.975],[45.864,30.879],[45.347,30.782],[44.831,30.683],[44.526,30.361],[44.223,30.039],[43.922,29.716],[43.623,29.392],[43.325,29.068],[43.364,28.638],[43.402,28.209],[43.44,27.779],[43.477,27.349],[43.515,26.92],[43.534,26.626],[43.553,26.332]]}},{"type":"Feature","properties":{"boundary_type":"transform","feature_type":"gpml:Transform","polarity":null,"overriding_plate_id":null,"subducting_plate_id":null,"plate_ids":[459,9006],"name":"Kazak SZ"},"geometry":{"type":"LineString","coordinates":[[43.553,26.332],[43.575,25.982],[43.598,25.633],[43.62,25.284]]}}]}