{"type":"FeatureCollection","meta":{"model":"Cao2024","reconstruction_time_ma":400.0,"anchor_plate_id":0,"pygplates_version":"1.0.0","tessellate_degrees":0.5,"polarity_convention":"gpml:subductionPolarity. 'Left'/'Right' names the side of the line, in vertex order, on which the OVERRIDING plate lies. Triangles are drawn on that side.","antimeridian":"Lines are NOT split at +/-180 deg. The renderer works in 3D unit vectors where the dateline is not special; splitting would only add spurious breaks. Do not treat this as RFC 7946 GIS-ready 2D data."},"features":[{"type":"Feature","properties":{"boundary_type":"subduction","feature_type":"gpml:SubductionZone","polarity":"Left","overriding_plate_id":701,"subducting_plate_id":919,"plate_ids":[701,919],"name":"New Zealand SZ (SE eastern Gondwanaland)"},"geometry":{"type":"LineString","coordinates":[[165.186,-28.94],[164.945,-28.502],[164.705,-28.064],[164.468,-27.625],[164.232,-27.186],[163.998,-26.747],[163.766,-26.307],[163.536,-25.867],[163.307,-25.426],[163.039,-25.034],[162.772,-24.641],[162.508,-24.248],[162.244,-23.855],[161.982,-23.461],[161.722,-23.066],[161.464,-22.671],[161.207,-22.276],[160.951,-21.88],[160.662,-21.498],[160.375,-21.115],[160.09,-20.731],[159.806,-20.348],[159.523,-19.963],[159.242,-19.578],[158.962,-19.193],[158.639,-18.859],[158.318,-18.524],[157.998,-18.189],[157.679,-17.853],[157.361,-17.517],[157.101,-17.131],[156.841,-16.745],[156.582,-16.358],[156.324,-15.971],[156.068,-15.583],[155.812,-15.196],[155.557,-14.808],[155.303,-14.42],[155.05,-14.031],[154.798,-13.642],[154.547,-13.253],[154.246,-12.882],[153.945,-12.511],[153.646,-12.139],[153.347,-11.767],[153.05,-11.394],[152.753,-11.022],[152.457,-10.649]]}},{"type":"Feature","properties":{"boundary_type":"subduction","feature_type":"gpml:SubductionZone","polarity":"Right","overriding_plate_id":430,"subducting_plate_id":9013,"plate_ids":[430,9013],"name":"Nuhetdavaa-Enshoo (Uliastai) subduction zone"},"geometry":{"type":"LineString","coordinates":[[6.104,50.978],[6.796,50.906],[7.486,50.829],[8.173,50.749],[8.899,50.846],[9.628,50.938],[10.36,51.026],[11.094,51.109],[11.831,51.188],[12.571,51.261],[13.312,51.331],[14.056,51.395],[14.802,51.455],[15.55,51.51],[16.299,51.56],[17.051,51.606],[17.803,51.647],[18.557,51.683],[19.312,51.714],[20.068,51.74],[20.762,51.707],[21.455,51.67],[22.147,51.629],[22.838,51.584],[23.527,51.535],[24.215,51.482],[24.901,51.425],[25.67,51.386],[26.438,51.343],[27.204,51.294],[27.968,51.241],[28.731,51.182],[29.491,51.119],[30.25,51.05],[31.006,50.977],[31.759,50.899],[32.51,50.816],[33.258,50.728],[34.004,50.636],[34.746,50.538],[35.485,50.436],[36.221,50.33],[36.954,50.218],[37.683,50.103],[38.408,49.982],[39.13,49.857],[39.848,49.728],[40.562,49.594],[41.272,49.456],[41.978,49.314],[42.6,49.108],[43.217,48.9],[43.828,48.688],[44.435,48.473],[45.036,48.255],[45.632,48.033],[46.223,47.809],[46.809,47.582],[47.389,47.351],[47.965,47.118],[48.535,46.882],[48.659,46.831]]}},{"type":"Feature","properties":{"boundary_type":"transform","feature_type":"gpml:Transform","polarity":null,"overriding_plate_id":null,"subducting_plate_id":null,"plate_ids":[101,902],"name":"WNAM Transform"},"geometry":{"type":"LineString","coordinates":[[-106.24,-14.474],[-106.124,-14.01],[-106.009,-13.545],[-105.894,-13.081],[-105.779,-12.617],[-105.665,-12.152],[-105.551,-11.688],[-105.438,-11.224],[-105.325,-10.759],[-104.98,-10.44],[-104.636,-10.121],[-104.292,-9.802],[-103.95,-9.482],[-103.608,-9.162],[-103.266,-8.841],[-102.925,-8.52],[-102.585,-8.199],[-102.245,-7.878],[-101.906,-7.556],[-101.567,-7.234],[-101.229,-6.912],[-100.81,-6.665],[-100.392,-6.418],[-99.975,-6.17],[-99.558,-5.922],[-99.141,-5.674],[-98.725,-5.426],[-98.309,-5.177],[-97.893,-4.928],[-97.477,-4.679],[-97.062,-4.429],[-96.63,-4.235],[-96.199,-4.04],[-95.767,-3.845],[-95.336,-3.65],[-94.904,-3.454],[-94.473,-3.259],[-94.043,-3.063],[-93.612,-2.867],[-93.181,-2.671],[-92.751,-2.475],[-92.321,-2.279],[-91.891,-2.082],[-91.461,-1.886],[-91.031,-1.689],[-90.697,-1.337],[-90.364,-0.985],[-90.03,-0.634],[-89.697,-0.282],[-89.364,0.07],[-89.03,0.422],[-88.697,0.774],[-88.364,1.125],[-88.03,1.477],[-87.697,1.829],[-87.363,2.181],[-87.029,2.532],[-86.695,2.884],[-86.361,3.235],[-86.027,3.586],[-85.692,3.937],[-85.357,4.288],[-85.021,4.639],[-84.686,4.99],[-84.35,5.341],[-84.013,5.691],[-83.677,6.041],[-83.339,6.391],[-83.002,6.741],[-82.664,7.09],[-82.325,7.44],[-81.986,7.789],[-81.646,8.137],[-81.305,8.486],[-80.914,8.788],[-80.521,9.09],[-80.128,9.391],[-79.734,9.692],[-79.34,9.992],[-78.945,10.292],[-78.549,10.592],[-78.152,10.891],[-77.754,11.189],[-77.356,11.487],[-76.957,11.784],[-76.557,12.081],[-76.156,12.378],[-75.754,12.673],[-75.351,12.968]]}},{"type":"Feature","properties":{"boundary_type":"transform","feature_type":"gpml:Transform","polarity":null,"overriding_plate_id":null,"subducting_plate_id":null,"plate_ids":[103,902],"name":"WNAM Transform"},"geometry":{"type":"LineString","coordinates":[[-75.351,12.968],[-74.951,13.26],[-74.551,13.551],[-74.149,13.841],[-73.725,14.113],[-73.3,14.385],[-72.874,14.655],[-72.446,14.925],[-72.018,15.193],[-71.589,15.461],[-71.158,15.729],[-70.727,15.995],[-70.438,16.036],[-70.149,16.076]]}},{"type":"Feature","properties":{"boundary_type":"subduction","feature_type":"gpml:SubductionZone","polarity":"Right","overriding_plate_id":701,"subducting_plate_id":919,"plate_ids":[701,919],"name":"southern WNAM SZ"},"geometry":{"type":"LineString","coordinates":[[-107.329,-40.656],[-107.427,-40.184],[-107.524,-39.711],[-107.62,-39.239],[-107.714,-38.766],[-107.807,-38.293],[-107.899,-37.821],[-107.99,-37.348],[-108.079,-36.875],[-108.168,-36.402],[-108.255,-35.929],[-108.216,-35.436],[-108.178,-34.942],[-108.14,-34.449],[-108.102,-33.956],[-108.065,-33.462]]}},{"type":"Feature","properties":{"boundary_type":"subduction","feature_type":"gpml:SubductionZone","polarity":"Right","overriding_plate_id":701,"subducting_plate_id":902,"plate_ids":[701,902],"name":"southern WNAM SZ"},"geometry":{"type":"LineString","coordinates":[[-108.065,-33.462],[-108.029,-32.975],[-107.993,-32.489],[-107.958,-32.002],[-107.922,-31.515]]}},{"type":"Feature","properties":{"boundary_type":"subduction","feature_type":"gpml:SubductionZone","polarity":"Right","overriding_plate_id":101,"subducting_plate_id":902,"plate_ids":[101,902],"name":"southern WNAM SZ"},"geometry":{"type":"LineString","coordinates":[[-107.922,-31.515],[-107.893,-31.105],[-107.864,-30.694],[-107.835,-30.284],[-107.807,-29.874],[-107.843,-29.391],[-107.879,-28.908],[-107.915,-28.426],[-107.95,-27.943],[-107.986,-27.461],[-108.02,-26.978],[-108.055,-26.495],[-108.089,-26.013],[-108.123,-25.53],[-108.157,-25.047],[-108.19,-24.565],[-108.223,-24.082],[-108.152,-23.591],[-108.082,-23.1],[-108.012,-22.609],[-107.943,-22.117],[-107.875,-21.626],[-107.806,-21.135],[-107.739,-20.643],[-107.671,-20.152],[-107.604,-19.661],[-107.538,-19.169],[-107.472,-18.678],[-107.406,-18.186],[-107.341,-17.695],[-107.275,-17.203],[-107.211,-16.712],[-107.146,-16.22],[-107.082,-15.729],[-106.801,-15.311],[-106.52,-14.892],[-106.24,-14.474]]}},{"type":"Feature","properties":{"boundary_type":"subduction","feature_type":"gpml:SubductionZone","polarity":"Left","overriding_plate_id":101,"subducting_plate_id":701,"plate_ids":[101,701],"name":"Scythian-Turan subduction zone"},"geometry":{"type":"LineString","coordinates":[[-12.816,-14.639],[-12.776,-14.349],[-12.737,-14.059],[-12.649,-13.617],[-12.561,-13.175],[-12.474,-12.732],[-12.387,-12.29],[-12.3,-11.847],[-12.214,-11.405],[-12.128,-10.962],[-12.042,-10.519],[-11.957,-10.077],[-11.846,-9.598],[-11.736,-9.118],[-11.626,-8.639],[-11.516,-8.16],[-11.407,-7.68],[-11.298,-7.201],[-11.189,-6.722],[-11.08,-6.242],[-10.972,-5.763],[-10.83,-5.347],[-10.688,-4.932],[-10.546,-4.516],[-10.404,-4.1],[-10.263,-3.685],[-10.121,-3.269],[-9.98,-2.853],[-9.839,-2.437],[-9.682,-2.014],[-9.525,-1.59],[-9.369,-1.166],[-9.212,-0.742],[-9.056,-0.318],[-8.899,0.106],[-8.743,0.529],[-8.502,0.921],[-8.261,1.313],[-8.02,1.705],[-7.778,2.097],[-7.537,2.489],[-7.296,2.881],[-7.054,3.273]]}},{"type":"Feature","properties":{"boundary_type":"subduction","feature_type":"gpml:SubductionZone","polarity":"Left","overriding_plate_id":16111,"subducting_plate_id":701,"plate_ids":[701,16111],"name":"Scythian-Turan subduction zone"},"geometry":{"type":"LineString","coordinates":[[-7.054,3.273],[-6.92,3.489],[-6.786,3.706]]}},{"type":"Feature","properties":{"boundary_type":"subduction","feature_type":"gpml:SubductionZone","polarity":"Right","overriding_plate_id":401,"subducting_plate_id":9006,"plate_ids":[401,9006],"name":"Magnitogorsk subduction zone"},"geometry":{"type":"LineString","coordinates":[[13.5,-3.301],[13.009,-3.294],[12.519,-3.287],[12.028,-3.279],[11.537,-3.271],[11.047,-3.263],[10.696,-3.204],[10.346,-3.146],[9.996,-3.087]]}},{"type":"Feature","properties":{"boundary_type":"subduction","feature_type":"gpml:SubductionZone","polarity":"Right","overriding_plate_id":401,"subducting_plate_id":701,"plate_ids":[401,701],"name":"Magnitogorsk subduction zone"},"geometry":{"type":"LineString","coordinates":[[9.996,-3.087],[9.53,-3.008],[9.064,-2.93],[8.599,-2.851],[8.133,-2.772],[7.668,-2.693],[7.202,-2.613],[6.737,-2.534],[6.343,-2.486],[5.949,-2.439],[5.555,-2.391],[5.161,-2.343]]}},{"type":"Feature","properties":{"boundary_type":"subduction","feature_type":"gpml:SubductionZone","polarity":"Right","overriding_plate_id":902003,"subducting_plate_id":701,"plate_ids":[701,902003],"name":"Magnitogorsk subduction zone"},"geometry":{"type":"LineString","coordinates":[[5.161,-2.343],[4.721,-2.29],[4.282,-2.237],[3.843,-2.183],[3.404,-2.129],[2.965,-2.076],[2.527,-2.022],[2.088,-1.968],[1.649,-1.913],[1.225,-1.717],[0.802,-1.521],[0.379,-1.325],[-0.044,-1.129],[-0.467,-0.933],[-0.891,-0.736],[-1.314,-0.54],[-1.737,-0.344],[-2.16,-0.147],[-2.583,0.049],[-3.006,0.246],[-3.429,0.442],[-3.764,0.769],[-4.099,1.095],[-4.435,1.422],[-4.77,1.749],[-5.106,2.075],[-5.442,2.401],[-5.777,2.728],[-6.114,3.054],[-6.45,3.38],[-6.786,3.706]]}},{"type":"Feature","properties":{"boundary_type":"subduction","feature_type":"gpml:SubductionZone","polarity":"Right","overriding_plate_id":902003,"subducting_plate_id":16111,"plate_ids":[16111,902003],"name":"Magnitogorsk subduction zone"},"geometry":{"type":"LineString","coordinates":[[-6.786,3.706],[-6.93,3.845],[-7.309,4.147],[-7.688,4.449],[-8.068,4.751],[-8.447,5.052],[-8.827,5.353],[-9.208,5.654],[-9.589,5.955],[-9.97,6.256],[-10.352,6.556],[-10.734,6.856],[-11.117,7.155],[-11.5,7.455],[-11.884,7.754],[-12.268,8.052],[-12.653,8.351],[-13.038,8.649]]}},{"type":"Feature","properties":{"boundary_type":"subduction","feature_type":"gpml:SubductionZone","polarity":"Right","overriding_plate_id":902003,"subducting_plate_id":902,"plate_ids":[902,902003],"name":"Magnitogorsk subduction zone"},"geometry":{"type":"LineString","coordinates":[[-13.038,8.649],[-13.167,8.748],[-13.434,9.151],[-13.702,9.553],[-13.971,9.956],[-14.241,10.358],[-14.511,10.76],[-14.782,11.162],[-15.053,11.563],[-15.326,11.965],[-15.599,12.366],[-15.873,12.766],[-16.148,13.167],[-16.424,13.567],[-16.701,13.967],[-16.979,14.366],[-17.182,14.818],[-17.386,15.27]]}},{"type":"Feature","properties":{"boundary_type":"subduction","feature_type":"gpml:SubductionZone","polarity":"Left","overriding_plate_id":402,"subducting_plate_id":9006,"plate_ids":[402,9006],"name":"Turgai arc subduction zone"},"geometry":{"type":"LineString","coordinates":[[46.816,6.702],[47.148,6.372],[47.479,6.042],[47.809,5.712],[48.139,5.381],[48.469,5.051],[48.798,4.72],[49.127,4.389],[49.456,4.058],[49.785,3.727],[50.113,3.395],[50.583,3.244],[51.052,3.093],[51.521,2.941],[51.991,2.789],[52.46,2.637],[52.929,2.484],[53.398,2.332],[53.866,2.179],[54.335,2.026]]}},{"type":"Feature","properties":{"boundary_type":"transform","feature_type":"gpml:Transform","polarity":null,"overriding_plate_id":null,"subducting_plate_id":null,"plate_ids":[101,701],"name":""},"geometry":{"type":"LineString","coordinates":[[-107.922,-31.515],[-107.526,-31.83],[-107.128,-32.143],[-106.726,-32.456],[-106.322,-32.767],[-105.915,-33.076],[-105.403,-33.333],[-104.889,-33.588],[-104.372,-33.841],[-103.851,-34.091],[-103.328,-34.339],[-102.801,-34.585],[-102.272,-34.829],[-101.739,-35.07],[-101.203,-35.309],[-100.664,-35.546],[-100.122,-35.78],[-99.576,-36.012],[-99.028,-36.241],[-98.476,-36.468],[-97.921,-36.692],[-97.351,-36.844],[-96.78,-36.993],[-96.206,-37.14],[-95.63,-37.283],[-95.052,-37.424],[-94.472,-37.562],[-93.889,-37.697],[-93.305,-37.829],[-92.718,-37.959],[-92.13,-38.085],[-91.539,-38.209],[-90.95,-38.341],[-90.359,-38.47],[-89.765,-38.596],[-89.17,-38.719],[-88.573,-38.839],[-87.973,-38.956],[-87.372,-39.07],[-86.769,-39.181],[-86.164,-39.289],[-85.604,-39.458],[-85.042,-39.625],[-84.478,-39.789],[-83.911,-39.951],[-83.341,-40.109],[-82.768,-40.265],[-82.193,-40.418],[-81.615,-40.568],[-81.035,-40.715],[-80.5,-40.976],[-79.96,-41.235],[-79.416,-41.492],[-78.868,-41.746],[-78.315,-41.997],[-77.759,-42.246],[-77.278,-42.51],[-76.793,-42.773],[-76.304,-43.033],[-75.811,-43.292],[-75.314,-43.548],[-74.813,-43.802],[-74.307,-44.054],[-73.797,-44.304],[-73.206,-44.4],[-72.614,-44.493],[-72.02,-44.583],[-71.424,-44.67],[-70.826,-44.754],[-70.226,-44.835],[-69.625,-44.912]]}},{"type":"Feature","properties":{"boundary_type":"transform","feature_type":"gpml:Transform","polarity":null,"overriding_plate_id":null,"subducting_plate_id":null,"plate_ids":[103,16111],"name":""},"geometry":{"type":"LineString","coordinates":[[-47.055,14.762],[-47.367,14.625],[-47.679,14.487],[-47.979,14.329]]}},{"type":"Feature","properties":{"boundary_type":"transform","feature_type":"gpml:Transform","polarity":null,"overriding_plate_id":null,"subducting_plate_id":null,"plate_ids":[101,103],"name":""},"geometry":{"type":"LineString","coordinates":[[-47.979,14.329],[-48.411,14.101],[-48.841,13.872],[-49.271,13.642],[-49.7,13.411],[-50.128,13.18],[-50.555,12.948],[-50.981,12.715],[-51.407,12.481],[-51.832,12.247],[-52.256,12.012],[-52.679,11.777],[-53.102,11.541],[-53.524,11.304],[-53.945,11.067],[-54.366,10.829],[-54.786,10.591],[-55.205,10.352],[-55.624,10.112],[-56.038,9.861],[-56.452,9.61],[-56.866,9.358],[-57.278,9.106],[-57.69,8.853],[-58.102,8.6],[-58.513,8.346],[-58.923,8.092],[-59.333,7.838],[-59.743,7.583],[-60.152,7.327],[-60.56,7.072],[-60.968,6.816],[-61.376,6.56],[-61.783,6.303],[-62.19,6.046],[-62.597,5.789],[-63.003,5.531],[-63.408,5.273],[-63.806,5.001],[-64.203,4.728],[-64.599,4.455],[-64.996,4.182],[-65.392,3.908],[-65.788,3.635],[-66.184,3.361],[-66.579,3.087],[-66.974,2.813],[-67.369,2.538],[-67.764,2.264],[-68.159,1.99],[-68.554,1.715],[-68.948,1.44],[-69.342,1.166],[-69.737,0.891],[-70.131,0.616]]}},{"type":"Feature","properties":{"boundary_type":"subduction","feature_type":"gpml:SubductionZone","polarity":"Left","overriding_plate_id":103,"subducting_plate_id":101,"plate_ids":[101,103],"name":"Arctic Alaska subduction zone"},"geometry":{"type":"LineString","coordinates":[[-75.351,12.968],[-75.277,12.593],[-75.203,12.217],[-75.093,11.758],[-74.984,11.298],[-74.874,10.838],[-74.766,10.378],[-74.657,9.918],[-74.549,9.458],[-74.441,8.998],[-74.333,8.538],[-74.226,8.078],[-74.119,7.618],[-74.012,7.158],[-73.799,6.728],[-73.586,6.299],[-73.374,5.869],[-73.162,5.439],[-72.95,5.009],[-72.739,4.579],[-72.527,4.149],[-72.316,3.718],[-72.106,3.288],[-71.895,2.858],[-71.685,2.428],[-71.475,1.997],[-71.264,1.567],[-70.887,1.25],[-70.509,0.933],[-70.131,0.616]]}},{"type":"Feature","properties":{"boundary_type":"transform","feature_type":"gpml:Transform","polarity":null,"overriding_plate_id":null,"subducting_plate_id":null,"plate_ids":[401,402],"name":""},"geometry":{"type":"LineString","coordinates":[[44.334,8.574],[44.435,8.899],[44.535,9.223],[44.674,9.689],[44.813,10.156],[44.953,10.622],[45.093,11.088],[45.233,11.554],[45.374,12.02],[45.515,12.486],[45.657,12.952],[45.8,13.418],[45.942,13.745],[46.085,14.071],[46.228,14.397],[46.269,14.829],[46.311,15.26],[46.353,15.692],[46.395,16.124],[46.43,16.591],[46.465,17.058],[46.5,17.525],[46.535,17.993],[46.571,18.46],[46.606,18.927],[46.671,19.189],[46.736,19.451]]}},{"type":"Feature","properties":{"boundary_type":"subduction","feature_type":"gpml:SubductionZone","polarity":"Left","overriding_plate_id":401,"subducting_plate_id":9006,"plate_ids":[401,9006],"name":"Tagil arc / Altai Sayan subduction zone"},"geometry":{"type":"LineString","coordinates":[[13.5,-3.301],[13.937,-3.516],[14.373,-3.73],[14.81,-3.944],[15.247,-4.158],[15.685,-4.372],[16.122,-4.585],[16.56,-4.799],[16.998,-5.012],[17.437,-5.224],[17.901,-5.297],[18.364,-5.37],[18.828,-5.443],[19.292,-5.515],[19.756,-5.587],[20.221,-5.658],[20.685,-5.729],[21.149,-5.8],[21.614,-5.871],[22.079,-5.94],[22.544,-6.01],[23.008,-6.079],[23.474,-6.148],[23.969,-6.153],[24.464,-6.157],[24.96,-6.16],[25.455,-6.164],[25.951,-6.166],[26.446,-6.169],[26.942,-6.171],[27.437,-6.172],[27.933,-6.173],[28.428,-6.173],[28.924,-6.173],[29.419,-6.173],[29.833,-5.974],[30.246,-5.775],[30.659,-5.575],[31.072,-5.376],[31.484,-5.176],[31.896,-4.975],[32.308,-4.775],[32.72,-4.574],[33.131,-4.373],[33.542,-4.171],[33.953,-3.97],[34.331,-3.67],[34.708,-3.37],[35.085,-3.07],[35.461,-2.769],[35.838,-2.469],[36.214,-2.168],[36.59,-1.868],[36.966,-1.567],[37.342,-1.266],[37.718,-0.965],[38.051,-0.63],[38.384,-0.295],[38.717,0.04],[39.05,0.375],[39.383,0.71],[39.716,1.045],[40.049,1.38],[40.382,1.714],[40.715,2.049],[41.049,2.384],[41.382,2.719],[41.617,3.102],[41.852,3.486],[42.087,3.869],[42.323,4.252],[42.558,4.636],[42.794,5.019],[43.03,5.402],[43.267,5.785],[43.504,6.168],[43.641,6.57],[43.778,6.971],[43.916,7.373],[44.054,7.774],[44.192,8.176],[44.33,8.577]]}},{"type":"Feature","properties":{"boundary_type":"transform","feature_type":"gpml:Transform","polarity":null,"overriding_plate_id":null,"subducting_plate_id":null,"plate_ids":[401,9006],"name":""},"geometry":{"type":"LineString","coordinates":[[44.33,8.577],[44.334,8.574]]}},{"type":"Feature","properties":{"boundary_type":"transform","feature_type":"gpml:Transform","polarity":null,"overriding_plate_id":null,"subducting_plate_id":null,"plate_ids":[402,9006],"name":""},"geometry":{"type":"LineString","coordinates":[[44.334,8.574],[44.403,8.513],[44.749,8.255],[45.095,7.997],[45.44,7.738],[45.785,7.48],[46.129,7.221],[46.473,6.961],[46.816,6.702]]}},{"type":"Feature","properties":{"boundary_type":"transform","feature_type":"gpml:Transform","polarity":null,"overriding_plate_id":null,"subducting_plate_id":null,"plate_ids":[402,9013],"name":"Trasnform bounding Paleo-Tianshan Ocean north"},"geometry":{"type":"LineString","coordinates":[[46.438,19.865],[46.882,20.059],[47.327,20.251],[47.773,20.442],[48.219,20.632],[48.701,20.829],[49.183,21.024],[49.667,21.218],[50.152,21.41],[50.638,21.601],[51.126,21.791],[51.615,21.979],[52.105,22.166],[52.596,22.351],[53.089,22.535],[53.583,22.717],[54.078,22.898],[54.588,22.983],[55.098,23.067],[55.609,23.149],[56.12,23.23],[56.632,23.309],[57.145,23.386],[57.658,23.461],[58.172,23.535],[58.686,23.608],[59.201,23.678],[59.716,23.747],[60.232,23.814],[60.749,23.879],[61.266,23.943],[61.783,24.005],[62.302,24.065],[62.82,24.123],[62.857,24.13]]}},{"type":"Feature","properties":{"boundary_type":"transform","feature_type":"gpml:Transform","polarity":null,"overriding_plate_id":null,"subducting_plate_id":null,"plate_ids":[902,9013],"name":""},"geometry":{"type":"LineString","coordinates":[[53.466,59.906],[52.638,60.075],[51.802,60.239],[50.958,60.398],[50.106,60.552],[49.246,60.7],[48.378,60.843],[47.503,60.98],[46.62,61.111],[45.608,61.125],[44.596,61.132],[43.584,61.132],[42.572,61.124],[41.561,61.108],[40.551,61.085],[39.543,61.054],[38.537,61.016],[37.534,60.97],[36.533,60.917],[35.537,60.857],[34.544,60.789],[33.556,60.714],[32.572,60.632],[31.594,60.542],[30.621,60.445],[29.655,60.342],[28.695,60.231],[27.791,60.068],[26.897,59.9],[26.013,59.725],[25.137,59.544],[24.271,59.358],[23.415,59.166],[22.568,58.968],[21.731,58.765],[20.904,58.557],[20.087,58.343],[19.28,58.124],[18.482,57.901],[17.695,57.672],[16.918,57.438],[16.15,57.2],[15.393,56.957],[14.645,56.709],[13.908,56.457],[13.18,56.201],[12.462,55.941],[11.901,55.604],[11.349,55.264],[10.807,54.921],[10.274,54.577],[9.75,54.23],[9.234,53.881],[8.728,53.529],[8.229,53.176],[7.739,52.82],[7.257,52.463],[6.961,52.093],[6.671,51.722],[6.385,51.351],[6.104,50.978]]}},{"type":"Feature","properties":{"boundary_type":"transform","feature_type":"gpml:Transform","polarity":null,"overriding_plate_id":null,"subducting_plate_id":null,"plate_ids":[430,902],"name":""},"geometry":{"type":"LineString","coordinates":[[6.104,50.978],[5.811,50.584],[5.524,50.189],[5.241,49.793],[4.963,49.397],[4.689,49.0],[4.419,48.602],[4.304,48.111],[4.192,47.619],[4.081,47.127],[3.972,46.635],[3.865,46.143],[3.761,45.65],[3.658,45.158],[3.556,44.666],[3.457,44.173],[3.359,43.68],[3.263,43.188],[3.168,42.695],[3.075,42.202],[2.983,41.709],[2.893,41.216],[2.804,40.723],[2.716,40.23],[2.629,39.737],[2.544,39.243],[2.46,38.75],[2.377,38.257],[2.295,37.763],[2.215,37.27],[2.135,36.776],[2.056,36.283],[1.979,35.789],[1.902,35.295],[1.826,34.801],[1.751,34.308],[1.677,33.814],[1.604,33.32],[1.532,32.826],[1.461,32.332],[1.39,31.838],[1.32,31.344],[1.4,30.938],[1.479,30.532],[1.557,30.126],[1.635,29.72],[1.713,29.314]]}},{"type":"Feature","properties":{"boundary_type":"transform","feature_type":"gpml:Transform","polarity":null,"overriding_plate_id":null,"subducting_plate_id":null,"plate_ids":[401,430],"name":""},"geometry":{"type":"LineString","coordinates":[[1.713,29.314],[1.8,28.851],[1.886,28.389],[1.972,27.926],[2.057,27.463],[2.142,27.0],[2.225,26.537],[2.308,26.073]]}},{"type":"Feature","properties":{"boundary_type":"transform","feature_type":"gpml:Transform","polarity":null,"overriding_plate_id":null,"subducting_plate_id":null,"plate_ids":[401,902],"name":"Magnitogorsk-Alexander transform"},"geometry":{"type":"LineString","coordinates":[[1.713,29.314],[1.259,29.193],[0.806,29.07],[0.354,28.945],[-0.096,28.819],[-0.615,28.615],[-1.133,28.408],[-1.648,28.2],[-2.162,27.99],[-2.673,27.777],[-3.182,27.563],[-3.69,27.347],[-4.137,27.116],[-4.582,26.884],[-5.025,26.65],[-5.467,26.415],[-5.907,26.178],[-6.345,25.941],[-6.781,25.701],[-7.215,25.461],[-7.648,25.219],[-8.079,24.976],[-8.497,24.68],[-8.912,24.383],[-9.326,24.085],[-9.738,23.786],[-10.148,23.486],[-10.556,23.184],[-10.962,22.882],[-11.367,22.578],[-11.769,22.274],[-12.17,21.968],[-12.569,21.662],[-12.967,21.355],[-13.24,20.961],[-13.512,20.567],[-13.782,20.173],[-14.051,19.778],[-14.319,19.383],[-14.585,18.987],[-14.85,18.591]]}},{"type":"Feature","properties":{"boundary_type":"transform","feature_type":"gpml:Transform","polarity":null,"overriding_plate_id":null,"subducting_plate_id":null,"plate_ids":[902,902003],"name":"Magnitogorsk-Alexander transform"},"geometry":{"type":"LineString","coordinates":[[-14.85,18.591],[-14.899,18.517],[-15.18,18.158],[-15.459,17.798],[-15.738,17.438],[-16.015,17.078],[-16.291,16.717],[-16.566,16.356],[-16.841,15.994],[-17.114,15.632],[-17.386,15.27]]}},{"type":"Feature","properties":{"boundary_type":"subduction","feature_type":"gpml:SubductionZone","polarity":"Right","overriding_plate_id":314,"subducting_plate_id":701,"plate_ids":[314,701],"name":"Mid German Crystalline Rise SZ"},"geometry":{"type":"LineString","coordinates":[[-18.773,-21.621],[-18.913,-22.091],[-19.053,-22.561],[-19.195,-23.03],[-19.337,-23.5],[-19.581,-23.898],[-19.827,-24.296],[-20.073,-24.694],[-20.322,-25.092],[-20.572,-25.489],[-20.824,-25.886],[-21.077,-26.282],[-21.332,-26.677],[-21.574,-27.118],[-21.819,-27.558],[-22.065,-27.997],[-22.313,-28.436],[-22.564,-28.875],[-22.816,-29.313],[-23.071,-29.751],[-23.395,-30.157],[-23.723,-30.562],[-24.052,-30.967],[-24.385,-31.371],[-24.721,-31.774],[-25.059,-32.176],[-25.4,-32.577],[-25.745,-32.977],[-26.154,-33.28],[-26.566,-33.581],[-26.981,-33.881],[-27.399,-34.179],[-27.82,-34.476],[-28.244,-34.772],[-28.671,-35.066],[-29.101,-35.358],[-29.534,-35.649],[-29.971,-35.939],[-30.417,-36.238],[-30.868,-36.536],[-31.321,-36.831],[-31.778,-37.126],[-32.239,-37.418],[-32.642,-37.793],[-33.05,-38.168],[-33.462,-38.54],[-33.878,-38.912],[-34.298,-39.281],[-34.723,-39.649],[-35.152,-40.016],[-35.586,-40.381],[-36.025,-40.745],[-36.504,-40.934],[-36.985,-41.121],[-37.469,-41.306],[-37.956,-41.489],[-38.446,-41.67]]}},{"type":"Feature","properties":{"boundary_type":"transform","feature_type":"gpml:Transform","polarity":null,"overriding_plate_id":null,"subducting_plate_id":null,"plate_ids":[101,701],"name":"Lizard/Giessen backarc transform west"},"geometry":{"type":"LineString","coordinates":[[-43.78,-36.586],[-43.448,-36.953],[-43.114,-37.32],[-42.775,-37.686],[-42.406,-38.059],[-42.033,-38.432],[-41.656,-38.803],[-41.275,-39.173],[-40.89,-39.542],[-40.5,-39.91],[-40.107,-40.276],[-39.797,-40.543],[-39.484,-40.808],[-39.169,-41.073]]}},{"type":"Feature","properties":{"boundary_type":"transform","feature_type":"gpml:Transform","polarity":null,"overriding_plate_id":null,"subducting_plate_id":null,"plate_ids":[314,701],"name":"Lizard/Giessen backarc transform west"},"geometry":{"type":"LineString","coordinates":[[-39.169,-41.073],[-38.809,-41.372],[-38.446,-41.67]]}},{"type":"Feature","properties":{"boundary_type":"subduction","feature_type":"gpml:SubductionZone","polarity":"Left","overriding_plate_id":101,"subducting_plate_id":701,"plate_ids":[101,701],"name":"South Baltica (Rheic) subduction zone"},"geometry":{"type":"LineString","coordinates":[[-16.722,-22.619],[-16.494,-22.178],[-16.268,-21.737],[-16.044,-21.295],[-15.82,-20.853],[-15.598,-20.411],[-15.378,-19.968],[-15.158,-19.525],[-14.94,-19.082],[-14.723,-18.639],[-14.507,-18.195],[-14.292,-17.752],[-14.078,-17.307],[-13.865,-16.863],[-13.654,-16.419],[-13.443,-15.974],[-13.233,-15.529],[-13.024,-15.084],[-12.816,-14.639]]}},{"type":"Feature","properties":{"boundary_type":"ridge","feature_type":"gpml:MidOceanRidge","polarity":null,"overriding_plate_id":null,"subducting_plate_id":null,"plate_ids":[101,314],"name":"Lizard/Giessen backarc MOR"},"geometry":{"type":"LineString","coordinates":[[-39.169,-41.073],[-38.761,-40.715],[-38.357,-40.354],[-37.958,-39.993],[-37.563,-39.63],[-37.172,-39.266],[-36.785,-38.9],[-36.403,-38.534],[-36.024,-38.166],[-36.371,-37.774],[-36.715,-37.382],[-36.341,-37.077],[-35.969,-36.771],[-35.601,-36.464],[-35.235,-36.156],[-34.873,-35.847],[-34.513,-35.537],[-34.138,-35.82],[-33.761,-36.101],[-33.389,-35.789],[-33.02,-35.475],[-32.653,-35.16],[-32.289,-34.844],[-31.929,-34.528],[-31.57,-34.21],[-31.215,-33.891],[-30.707,-34.116],[-30.196,-34.338],[-29.813,-33.96],[-29.434,-33.58],[-29.059,-33.198],[-28.686,-32.816],[-28.317,-32.433],[-27.951,-32.048],[-27.539,-32.193],[-27.126,-32.336],[-26.816,-31.953],[-26.508,-31.569],[-26.203,-31.185],[-25.9,-30.799],[-25.599,-30.414],[-25.301,-30.027],[-25.006,-29.64],[-24.712,-29.252],[-24.421,-28.863],[-24.132,-28.474],[-23.845,-28.085],[-23.56,-27.694],[-23.277,-27.303],[-22.996,-26.912],[-23.263,-26.756],[-23.53,-26.6],[-23.234,-26.182],[-22.94,-25.762],[-22.649,-25.342],[-22.359,-24.922],[-22.072,-24.501],[-21.786,-24.079],[-21.502,-23.657],[-21.22,-23.235],[-20.94,-22.811],[-20.662,-22.388],[-20.385,-21.964],[-20.11,-21.539],[-19.836,-21.114]]}},{"type":"Feature","properties":{"boundary_type":"transform","feature_type":"gpml:Transform","polarity":null,"overriding_plate_id":null,"subducting_plate_id":null,"plate_ids":[101,314],"name":"Lizard/Giessen backarc transform east"},"geometry":{"type":"LineString","coordinates":[[-19.836,-21.114],[-19.483,-21.284],[-19.128,-21.453],[-18.773,-21.621]]}},{"type":"Feature","properties":{"boundary_type":"transform","feature_type":"gpml:Transform","polarity":null,"overriding_plate_id":null,"subducting_plate_id":null,"plate_ids":[101,701],"name":"Lizard/Giessen backarc transform east"},"geometry":{"type":"LineString","coordinates":[[-18.773,-21.621],[-18.389,-21.802],[-18.004,-21.981],[-17.618,-22.16],[-17.231,-22.338],[-16.977,-22.479],[-16.722,-22.619]]}},{"type":"Feature","properties":{"boundary_type":"subduction","feature_type":"gpml:SubductionZone","polarity":"Right","overriding_plate_id":701,"subducting_plate_id":926,"plate_ids":[701,926],"name":"Gamilaroi-Calliope intraoceanic SZ"},"geometry":{"type":"LineString","coordinates":[[127.898,7.909],[128.387,7.997],[128.876,8.085],[129.366,8.172],[129.856,8.258],[130.346,8.344],[130.837,8.429],[131.327,8.514],[131.818,8.598],[132.309,8.681],[132.8,8.764],[133.292,8.846],[133.784,8.927],[134.276,9.008],[134.736,8.874],[135.195,8.739],[135.654,8.604],[136.113,8.468],[136.572,8.332],[137.03,8.195],[137.488,8.057],[137.946,7.919],[138.403,7.781],[138.86,7.642],[139.317,7.502],[139.774,7.363],[140.23,7.222],[140.686,7.081],[141.107,6.823],[141.529,6.564],[141.949,6.304],[142.37,6.044],[142.79,5.784],[143.209,5.524],[143.628,5.263],[144.047,5.002],[144.466,4.741],[144.884,4.479],[145.302,4.218],[145.719,3.956],[146.137,3.693]]}},{"type":"Feature","properties":{"boundary_type":"subduction","feature_type":"gpml:SubductionZone","polarity":"Right","overriding_plate_id":701,"subducting_plate_id":919,"plate_ids":[701,919],"name":"Gamilaroi-Calliope intraoceanic SZ"},"geometry":{"type":"LineString","coordinates":[[146.137,3.693],[146.432,3.508],[146.727,3.322],[147.022,3.136],[147.312,2.741],[147.602,2.346],[147.892,1.95],[148.181,1.555],[148.471,1.159],[148.76,0.764],[149.05,0.368],[149.339,-0.027],[149.629,-0.423],[149.918,-0.818],[150.208,-1.213],[150.333,-1.694],[150.459,-2.174],[150.585,-2.655],[150.711,-3.135],[150.837,-3.615],[150.963,-4.095],[151.09,-4.576],[151.216,-5.056],[151.343,-5.536],[151.47,-6.016],[151.597,-6.497],[151.724,-6.977],[151.852,-7.457],[151.98,-7.937],[152.108,-8.417],[152.178,-8.863],[152.247,-9.31],[152.317,-9.756],[152.387,-10.202],[152.457,-10.649]]}},{"type":"Feature","properties":{"boundary_type":"ridge","feature_type":"gpml:MidOceanRidge","polarity":null,"overriding_plate_id":null,"subducting_plate_id":null,"plate_ids":[101,16111],"name":"east of Alexander-Baltica MOR"},"geometry":{"type":"LineString","coordinates":[[-47.979,14.329],[-47.512,14.26],[-47.045,14.189],[-46.619,13.965],[-46.193,13.739],[-45.768,13.514],[-45.344,13.287],[-44.921,13.06],[-44.498,12.832],[-44.076,12.603],[-43.655,12.373],[-43.235,12.143],[-42.815,11.913],[-42.396,11.682],[-41.978,11.45],[-41.538,11.243],[-41.099,11.035],[-40.66,10.827],[-40.222,10.618],[-39.784,10.409],[-39.347,10.199]]}},{"type":"Feature","properties":{"boundary_type":"ridge","feature_type":"gpml:MidOceanRidge","polarity":null,"overriding_plate_id":null,"subducting_plate_id":null,"plate_ids":[101,16111],"name":"Alexander-Baltica early spreading"},"geometry":{"type":"LineString","coordinates":[[-39.347,10.199],[-39.575,9.862],[-39.803,9.525],[-39.443,9.272],[-39.083,9.019],[-38.724,8.766],[-38.366,8.512],[-38.008,8.258],[-37.65,8.004],[-37.293,7.749],[-36.837,7.635],[-36.38,7.52],[-35.925,7.405],[-35.469,7.29],[-35.014,7.174],[-34.558,7.058],[-34.103,6.941],[-33.649,6.824],[-33.194,6.706],[-32.74,6.588],[-32.286,6.47],[-31.882,6.24],[-31.478,6.011],[-31.075,5.781],[-30.672,5.55],[-30.269,5.32],[-29.866,5.089],[-29.464,4.858],[-29.062,4.627],[-28.661,4.395],[-28.219,4.376],[-27.777,4.357],[-27.335,4.338],[-26.893,4.318]]}},{"type":"Feature","properties":{"boundary_type":"ridge","feature_type":"gpml:MidOceanRidge","polarity":null,"overriding_plate_id":null,"subducting_plate_id":null,"plate_ids":[101,16111],"name":"Alexander Terrane-Baltica MOR"},"geometry":{"type":"LineString","coordinates":[[-26.893,4.318],[-26.871,4.694],[-26.849,5.069],[-26.38,5.013],[-25.911,4.957],[-25.442,4.901],[-24.974,4.844],[-24.505,4.786],[-24.037,4.729],[-23.569,4.671],[-23.1,4.613],[-22.632,4.554],[-22.164,4.496],[-21.696,4.436],[-21.228,4.377],[-20.76,4.317],[-20.298,4.203],[-19.836,4.088],[-19.374,3.973],[-18.912,3.858],[-18.417,3.837],[-17.923,3.815],[-17.429,3.794],[-16.934,3.771],[-16.44,3.749],[-15.946,3.726],[-15.452,3.703],[-14.957,3.68],[-14.463,3.657],[-13.969,3.633],[-13.475,3.609],[-12.981,3.585],[-12.487,3.56],[-11.993,3.535],[-11.499,3.51],[-11.005,3.485],[-10.511,3.459],[-10.017,3.433],[-9.523,3.407],[-9.029,3.381],[-8.535,3.354],[-8.042,3.327],[-7.548,3.3],[-7.054,3.273]]}},{"type":"Feature","properties":{"boundary_type":"subduction","feature_type":"gpml:SubductionZone","polarity":"Left","overriding_plate_id":101,"subducting_plate_id":701,"plate_ids":[101,701],"name":"East Laurentia (Rheic) SZ"},"geometry":{"type":"LineString","coordinates":[[-69.625,-44.912],[-69.347,-44.811],[-68.735,-44.634],[-68.127,-44.454],[-67.523,-44.271],[-66.923,-44.085],[-66.326,-43.895],[-65.734,-43.703],[-65.145,-43.507],[-64.56,-43.309],[-63.979,-43.107],[-63.401,-42.903],[-62.828,-42.695],[-62.258,-42.485],[-61.665,-42.304],[-61.076,-42.12],[-60.49,-41.932],[-59.907,-41.742],[-59.328,-41.549],[-58.752,-41.353],[-58.18,-41.154],[-57.612,-40.952],[-57.046,-40.748],[-56.485,-40.54],[-55.927,-40.33],[-55.308,-40.229],[-54.691,-40.124],[-54.076,-40.016],[-53.464,-39.905],[-52.853,-39.79],[-52.244,-39.672],[-51.637,-39.551],[-51.033,-39.427],[-50.431,-39.3],[-49.831,-39.17],[-49.233,-39.037],[-48.637,-38.9],[-48.044,-38.761],[-47.453,-38.618],[-46.864,-38.473],[-46.278,-38.325],[-45.694,-38.174],[-45.113,-38.02],[-44.775,-37.663],[-44.44,-37.305],[-44.109,-36.946],[-43.78,-36.586]]}},{"type":"Feature","properties":{"boundary_type":"ridge","feature_type":"gpml:MidOceanRidge","polarity":null,"overriding_plate_id":null,"subducting_plate_id":null,"plate_ids":[401,902003],"name":"Magnitogorsk MOR"},"geometry":{"type":"LineString","coordinates":[[-14.85,18.591],[-14.522,18.229],[-14.194,17.866],[-13.869,17.502],[-13.544,17.138],[-13.221,16.774],[-12.899,16.409],[-12.578,16.043],[-12.258,15.677],[-11.94,15.311],[-11.623,14.944],[-11.306,14.576],[-10.991,14.209],[-10.755,14.384],[-10.519,14.56],[-10.217,14.197],[-9.917,13.834],[-9.617,13.47],[-9.318,13.106],[-9.02,12.742],[-8.723,12.378],[-8.427,12.013],[-8.132,11.647],[-7.837,11.282],[-7.543,10.916],[-7.25,10.55],[-6.958,10.184],[-6.701,10.327],[-6.444,10.471],[-6.178,10.094],[-5.913,9.717],[-5.648,9.339],[-5.384,8.962],[-5.121,8.584],[-4.858,8.206],[-4.595,7.828],[-4.333,7.45],[-4.072,7.071],[-3.81,6.693],[-3.55,6.314],[-3.289,5.935],[-3.034,6.077],[-2.779,6.219],[-2.495,5.842],[-2.21,5.466],[-1.926,5.09],[-1.643,4.713],[-1.36,4.337],[-1.076,3.96],[-0.794,3.583],[-0.511,3.206],[-0.229,2.829],[0.053,2.452],[0.335,2.075],[0.617,1.698],[0.899,1.321],[1.198,1.583],[1.497,1.845],[1.803,1.496],[2.108,1.147],[2.413,0.798],[2.718,0.449],[3.023,0.1],[3.329,-0.249],[3.634,-0.599],[3.939,-0.948],[4.244,-1.297],[4.55,-1.646],[4.855,-1.995],[5.161,-2.343]]}},{"type":"Feature","properties":{"boundary_type":"subduction","feature_type":"gpml:SubductionZone","polarity":"Right","overriding_plate_id":701,"subducting_plate_id":926,"plate_ids":[701,926],"name":"SZ along eastern Gondwanaland"},"geometry":{"type":"LineString","coordinates":[[108.877,8.973],[109.363,9.069],[109.849,9.164],[110.335,9.259],[110.821,9.353],[111.308,9.446],[111.795,9.538],[112.283,9.63],[112.77,9.721],[113.258,9.812],[113.746,9.901],[114.247,9.897],[114.747,9.891],[115.248,9.885],[115.749,9.878],[116.25,9.87],[116.75,9.862],[117.251,9.853],[117.752,9.843],[118.252,9.832],[118.753,9.821],[119.253,9.809],[119.746,9.738],[120.238,9.666],[120.73,9.593],[121.222,9.52],[121.713,9.445],[122.205,9.371],[122.696,9.295],[123.187,9.219],[123.677,9.142],[124.168,9.065],[124.635,8.922],[125.102,8.779],[125.569,8.636],[126.036,8.492],[126.502,8.347],[126.967,8.202],[127.433,8.056],[127.898,7.909]]}},{"type":"Feature","properties":{"boundary_type":"ridge","feature_type":"gpml:MidOceanRidge","polarity":null,"overriding_plate_id":null,"subducting_plate_id":null,"plate_ids":[902,919],"name":"Izanagi-Farallon MOR"},"geometry":{"type":"LineString","coordinates":[[-172.169,22.317],[-172.335,22.784],[-172.502,23.252],[-172.671,23.719],[-172.84,24.186],[-173.011,24.653],[-173.183,25.119],[-173.356,25.586]]}},{"type":"Feature","properties":{"boundary_type":"ridge","feature_type":"gpml:MidOceanRidge","polarity":null,"overriding_plate_id":null,"subducting_plate_id":null,"plate_ids":[902,926],"name":"Izanagi-Farallon MOR"},"geometry":{"type":"LineString","coordinates":[[-173.356,25.586],[-173.533,26.057],[-173.711,26.528],[-173.891,27.0],[-174.072,27.47],[-174.255,27.941],[-174.439,28.411],[-174.625,28.882],[-174.813,29.351],[-175.002,29.821],[-175.193,30.29],[-175.386,30.759],[-175.581,31.228],[-175.778,31.697],[-175.977,32.165],[-176.178,32.633],[-176.381,33.1],[-176.586,33.567],[-176.793,34.034],[-177.003,34.501],[-177.215,34.967],[-177.43,35.433],[-177.647,35.898],[-177.866,36.363],[-178.088,36.828],[-178.313,37.292],[-178.541,37.756],[-178.771,38.219],[-179.005,38.682],[-179.241,39.144],[-179.481,39.606],[-179.724,40.067],[-179.97,40.528],[179.78,40.989],[179.527,41.448],[179.27,41.908],[179.01,42.366],[178.746,42.824],[178.477,43.282],[178.205,43.739],[177.929,44.195],[177.648,44.65],[177.363,45.105],[177.073,45.559],[176.778,46.012],[176.479,46.465],[176.175,46.917],[175.865,47.368],[175.55,47.818],[175.23,48.267],[174.904,48.715],[174.572,49.162],[173.972,49.022],[173.376,48.878],[172.783,48.731],[172.194,48.581],[171.608,48.429],[171.026,48.273],[170.673,48.709],[170.314,49.144],[169.948,49.578],[169.575,50.011],[169.196,50.442],[168.81,50.873],[168.417,51.302],[168.016,51.729],[167.608,52.155],[167.192,52.58],[166.768,53.004],[166.335,53.425],[165.894,53.846],[165.444,54.264],[164.984,54.681],[164.515,55.096],[164.036,55.509],[163.547,55.921],[163.048,56.33],[162.538,56.737],[162.016,57.143],[161.483,57.546],[160.939,57.946],[160.382,58.344],[159.812,58.74],[159.229,59.134],[158.633,59.524],[158.023,59.912],[157.398,60.297],[156.759,60.679],[156.104,61.057],[155.434,61.433],[154.747,61.805],[154.044,62.174],[153.323,62.539],[152.584,62.9],[151.827,63.257],[151.052,63.61],[150.257,63.959],[149.442,64.304],[148.606,64.643],[147.75,64.978],[146.871,65.308],[145.971,65.633],[145.048,65.952],[144.103,66.266],[143.133,66.573],[142.139,66.875],[141.121,67.17],[140.078,67.458],[139.01,67.74],[137.916,68.014],[136.796,68.281],[136.055,67.924],[135.336,67.563],[134.639,67.2],[133.963,66.833],[133.306,66.464],[132.669,66.092],[131.589,66.32],[130.49,66.54],[129.371,66.753],[128.233,66.957],[127.076,67.153],[125.9,67.341],[124.706,67.52],[123.495,67.69],[122.267,67.851],[121.022,68.002],[119.761,68.144],[118.485,68.277],[117.194,68.399],[115.89,68.511],[114.574,68.614],[113.246,68.705],[111.908,68.787],[110.561,68.858],[109.206,68.918],[107.844,68.967],[106.476,69.005],[105.105,69.032],[103.731,69.049],[102.355,69.054],[100.98,69.048],[99.606,69.032],[98.234,69.004],[96.867,68.965],[95.505,68.916],[94.15,68.855],[92.803,68.784],[91.466,68.703]]}},{"type":"Feature","properties":{"boundary_type":"ridge","feature_type":"gpml:MidOceanRidge","polarity":null,"overriding_plate_id":null,"subducting_plate_id":null,"plate_ids":[902,919],"name":"Phoenix-Farallon MOR"},"geometry":{"type":"LineString","coordinates":[[-172.169,22.317],[-171.755,22.003],[-171.343,21.688],[-170.932,21.372],[-170.524,21.055],[-170.117,20.737],[-169.712,20.418],[-169.308,20.098],[-168.906,19.778],[-168.506,19.456],[-168.107,19.134],[-167.71,18.81],[-167.314,18.486],[-166.92,18.161],[-166.527,17.835],[-166.136,17.508],[-165.746,17.181],[-165.358,16.853],[-164.971,16.524],[-164.585,16.195],[-164.2,15.864],[-163.817,15.533],[-163.435,15.202],[-163.054,14.87],[-162.675,14.537],[-162.296,14.203],[-161.919,13.869],[-161.542,13.535],[-161.167,13.199],[-160.793,12.864],[-160.42,12.527],[-160.048,12.191],[-159.676,11.853],[-159.306,11.515],[-158.936,11.177],[-158.568,10.839],[-158.2,10.499],[-157.833,10.16],[-157.467,9.82],[-157.101,9.48],[-156.737,9.139],[-156.373,8.798],[-156.009,8.456],[-155.646,8.115],[-155.284,7.773],[-154.923,7.43],[-154.562,7.087],[-154.201,6.744],[-153.842,6.401],[-153.482,6.058],[-153.123,5.714],[-152.765,5.37],[-152.407,5.026],[-152.049,4.682],[-151.691,4.337],[-151.334,3.992],[-150.978,3.648],[-150.621,3.303],[-150.265,2.957],[-149.909,2.612],[-149.553,2.267],[-149.197,1.921],[-148.842,1.576],[-148.486,1.23],[-148.131,0.885],[-147.776,0.539],[-147.421,0.194],[-147.065,-0.152],[-146.71,-0.498],[-146.355,-0.843],[-146.0,-1.189],[-145.644,-1.535],[-145.289,-1.88],[-144.933,-2.225],[-144.577,-2.571],[-144.825,-3.003],[-145.074,-3.435],[-145.322,-3.867],[-145.571,-4.299],[-145.821,-4.73],[-145.484,-5.088],[-145.148,-5.445],[-144.811,-5.802],[-144.473,-6.158],[-144.135,-6.515],[-143.797,-6.871],[-143.458,-7.227],[-143.118,-7.583],[-142.778,-7.938],[-142.438,-8.294],[-142.097,-8.649],[-141.755,-9.003],[-141.412,-9.358],[-141.069,-9.712],[-140.725,-10.065],[-140.38,-10.419],[-140.035,-10.772],[-139.689,-11.124],[-139.342,-11.476],[-138.994,-11.828],[-138.645,-12.18],[-138.295,-12.53],[-137.944,-12.881],[-137.592,-13.231],[-137.24,-13.58],[-136.886,-13.929],[-136.531,-14.278],[-136.175,-14.626],[-135.818,-14.973],[-135.46,-15.32],[-135.1,-15.666],[-134.739,-16.012],[-134.378,-16.357],[-134.014,-16.702],[-133.65,-17.045],[-133.284,-17.389],[-132.917,-17.731],[-132.548,-18.073],[-132.178,-18.414],[-131.807,-18.754],[-131.433,-19.094],[-131.059,-19.433],[-130.683,-19.771],[-130.413,-19.414],[-130.144,-19.057],[-129.876,-18.699],[-129.61,-18.341],[-129.344,-17.982],[-129.08,-17.623],[-128.817,-17.264],[-128.45,-17.612],[-128.082,-17.96],[-127.713,-18.307],[-127.342,-18.654],[-126.969,-18.999],[-126.595,-19.344],[-126.22,-19.688],[-125.842,-20.031],[-125.463,-20.374],[-125.083,-20.716],[-124.701,-21.056],[-124.317,-21.396],[-123.931,-21.735],[-123.543,-22.074],[-123.154,-22.411],[-122.762,-22.747],[-122.369,-23.083],[-121.974,-23.417],[-121.576,-23.751],[-121.177,-24.083],[-120.776,-24.414],[-120.372,-24.745],[-119.966,-25.074],[-119.559,-25.402],[-119.149,-25.729],[-118.736,-26.055],[-118.322,-26.379],[-117.905,-26.703],[-117.485,-27.025],[-117.064,-27.346],[-116.639,-27.666],[-116.213,-27.984],[-115.784,-28.301],[-115.352,-28.617],[-114.918,-28.931],[-114.481,-29.244],[-114.041,-29.556],[-113.599,-29.866],[-113.154,-30.174],[-112.706,-30.481],[-112.255,-30.787],[-111.801,-31.091],[-111.345,-31.393],[-110.885,-31.694],[-110.423,-31.993],[-109.958,-32.29],[-109.489,-32.586],[-109.018,-32.88],[-108.543,-33.172],[-108.065,-33.462]]}},{"type":"Feature","properties":{"boundary_type":"ridge","feature_type":"gpml:MidOceanRidge","polarity":null,"overriding_plate_id":null,"subducting_plate_id":null,"plate_ids":[919,926],"name":"Phoenix-Izanagi MOR"},"geometry":{"type":"LineString","coordinates":[[-173.356,25.586],[-173.852,25.372],[-174.345,25.157],[-174.837,24.941],[-175.327,24.722],[-175.816,24.502],[-176.302,24.281],[-176.787,24.058],[-177.27,23.834],[-177.752,23.608],[-178.232,23.38],[-178.71,23.151],[-179.187,22.921],[-179.662,22.689],[179.865,22.456],[179.393,22.221],[178.923,21.985],[178.454,21.748],[177.987,21.51],[177.521,21.27],[177.057,21.029],[176.595,20.786],[176.134,20.543],[175.674,20.298],[175.216,20.052],[174.759,19.805],[174.304,19.556],[173.85,19.307],[173.398,19.056],[172.946,18.804],[172.497,18.552],[172.048,18.298],[171.601,18.043],[171.155,17.787],[170.711,17.53],[170.267,17.272],[169.825,17.013],[169.384,16.753],[168.945,16.493],[168.506,16.231],[168.069,15.968],[167.633,15.705],[167.198,15.441],[166.764,15.175],[166.331,14.909],[165.9,14.643],[165.469,14.375],[165.244,14.809],[165.019,15.243],[164.792,15.676],[164.565,16.11],[164.337,16.543],[164.107,16.976],[163.877,17.408],[163.461,17.117],[163.047,16.825],[162.635,16.532],[162.223,16.238],[161.813,15.943],[161.404,15.648],[160.996,15.351],[160.589,15.054],[160.183,14.757],[159.779,14.458],[159.375,14.159],[158.973,13.86],[158.572,13.559],[158.171,13.258],[157.772,12.956],[157.374,12.654],[156.976,12.351],[156.58,12.048],[156.184,11.744],[155.79,11.439],[155.396,11.134],[155.003,10.829],[154.61,10.523],[154.219,10.216],[153.828,9.909],[153.438,9.601],[153.049,9.294],[152.66,8.985],[152.272,8.676],[151.885,8.367],[151.499,8.058],[151.112,7.748],[150.727,7.438],[150.342,7.127],[149.957,6.816],[149.574,6.505],[149.19,6.194],[148.807,5.882],[148.424,5.57],[148.042,5.258],[147.66,4.945],[147.279,4.633],[146.898,4.32],[146.517,4.007],[146.137,3.693]]}},{"type":"Feature","properties":{"boundary_type":"subduction","feature_type":"gpml:SubductionZone","polarity":"Right","overriding_plate_id":103,"subducting_plate_id":902,"plate_ids":[103,902],"name":"ALX SZ"},"geometry":{"type":"LineString","coordinates":[[-70.149,16.076],[-69.756,16.29],[-69.362,16.503],[-68.967,16.715],[-68.571,16.926],[-68.175,17.137],[-67.751,17.239],[-67.327,17.341],[-66.902,17.441],[-66.477,17.541],[-65.986,17.555],[-65.496,17.569],[-65.005,17.581],[-64.514,17.591],[-64.023,17.601],[-63.532,17.609],[-63.041,17.616],[-62.55,17.622],[-62.059,17.627],[-61.568,17.63],[-61.077,17.633],[-60.586,17.634],[-60.074,17.533],[-59.562,17.43],[-59.05,17.327],[-58.539,17.222],[-58.029,17.116],[-57.519,17.008],[-57.01,16.9],[-56.502,16.79],[-55.994,16.678],[-55.486,16.566],[-54.98,16.452],[-54.473,16.337],[-53.968,16.221],[-53.463,16.104],[-52.959,15.985],[-52.464,15.889],[-51.97,15.792],[-51.476,15.694],[-50.983,15.595],[-50.49,15.494],[-49.998,15.393],[-49.506,15.29],[-49.015,15.187],[-48.524,15.082],[-48.034,14.976],[-47.544,14.869],[-47.055,14.762]]}},{"type":"Feature","properties":{"boundary_type":"subduction","feature_type":"gpml:SubductionZone","polarity":"Right","overriding_plate_id":16111,"subducting_plate_id":902,"plate_ids":[902,16111],"name":"ALX SZ"},"geometry":{"type":"LineString","coordinates":[[-47.055,14.762],[-46.924,14.732],[-46.465,14.571],[-46.006,14.41],[-45.549,14.247],[-45.092,14.084],[-44.635,13.919],[-44.18,13.754],[-43.725,13.588],[-43.27,13.421],[-42.816,13.253],[-42.363,13.085],[-41.881,12.924],[-41.399,12.763],[-40.918,12.6],[-40.437,12.437],[-39.958,12.273],[-39.478,12.108],[-38.999,11.942],[-38.521,11.775],[-38.044,11.608],[-37.567,11.44],[-37.09,11.271],[-36.614,11.101],[-36.139,10.93],[-35.664,10.759],[-35.214,10.582],[-34.764,10.405],[-34.315,10.227],[-33.866,10.048],[-33.417,9.869],[-32.969,9.689],[-32.522,9.508],[-32.075,9.327],[-31.628,9.145],[-31.182,8.963],[-30.757,8.781],[-30.331,8.597],[-29.907,8.414],[-29.482,8.229],[-29.058,8.045],[-28.577,8.037],[-28.097,8.028],[-27.616,8.018],[-27.136,8.008],[-26.656,7.998],[-26.175,7.987],[-25.695,7.975],[-25.214,7.963],[-24.734,7.95],[-24.254,7.937],[-23.773,7.923],[-23.293,7.908],[-22.908,7.904],[-22.524,7.899],[-22.139,7.894],[-21.678,7.98],[-21.217,8.066],[-20.756,8.151],[-20.295,8.236],[-19.834,8.321],[-19.372,8.404],[-18.91,8.488],[-18.448,8.57],[-17.986,8.653],[-17.524,8.734],[-17.061,8.815],[-16.558,8.797],[-16.055,8.778],[-15.552,8.758],[-15.049,8.737],[-14.546,8.716],[-14.044,8.694],[-13.541,8.672],[-13.038,8.649]]}},{"type":"Feature","properties":{"boundary_type":"subduction","feature_type":"gpml:SubductionZone","polarity":"Right","overriding_plate_id":401,"subducting_plate_id":430,"plate_ids":[401,430],"name":"Altai-Mongolian/Rudny-Altai/Chara subduction zone"},"geometry":{"type":"LineString","coordinates":[[36.52,32.088],[36.875,31.698],[37.227,31.306],[37.576,30.914],[37.922,30.521],[38.265,30.127],[38.605,29.732],[38.943,29.337],[39.21,29.13],[39.475,28.922]]}},{"type":"Feature","properties":{"boundary_type":"subduction","feature_type":"gpml:SubductionZone","polarity":"Right","overriding_plate_id":401,"subducting_plate_id":9013,"plate_ids":[401,9013],"name":"Altai-Mongolian/Rudny-Altai/Chara subduction zone"},"geometry":{"type":"LineString","coordinates":[[39.475,28.922],[39.857,28.621],[40.238,28.318],[40.616,28.014],[40.992,27.71],[41.366,27.404],[41.737,27.098],[42.107,26.79],[42.352,26.365],[42.594,25.94],[42.835,25.515],[43.075,25.089],[43.312,24.663],[43.548,24.237],[43.783,23.81],[44.015,23.383],[44.247,22.955],[44.477,22.527],[44.761,22.148],[45.044,21.769],[45.326,21.389],[45.606,21.009],[45.885,20.628],[46.162,20.247],[46.438,19.865]]}},{"type":"Feature","properties":{"boundary_type":"subduction","feature_type":"gpml:SubductionZone","polarity":"Right","overriding_plate_id":401,"subducting_plate_id":402,"plate_ids":[401,402],"name":"Altai-Mongolian/Rudny-Altai/Chara subduction zone"},"geometry":{"type":"LineString","coordinates":[[46.438,19.865],[46.587,19.658],[46.736,19.451]]}},{"type":"Feature","properties":{"boundary_type":"transform","feature_type":"gpml:Transform","polarity":null,"overriding_plate_id":null,"subducting_plate_id":null,"plate_ids":[701,9006],"name":"Annamia Transform"},"geometry":{"type":"LineString","coordinates":[[73.307,-13.756],[73.028,-13.54],[72.749,-13.324],[72.512,-12.937],[72.275,-12.549],[72.039,-12.161],[71.804,-11.773],[71.569,-11.385],[71.336,-10.996],[71.102,-10.607],[70.945,-10.194],[70.788,-9.781],[70.632,-9.368],[70.476,-8.955],[70.32,-8.542],[70.165,-8.129],[70.095,-7.663],[70.024,-7.198],[69.954,-6.732],[69.884,-6.266],[69.814,-5.8],[69.797,-5.381],[69.779,-4.963]]}},{"type":"Feature","properties":{"boundary_type":"transform","feature_type":"gpml:Transform","polarity":null,"overriding_plate_id":null,"subducting_plate_id":null,"plate_ids":[580,9006],"name":"Annamia Transform"},"geometry":{"type":"LineString","coordinates":[[69.779,-4.963],[69.762,-4.538],[69.744,-4.114],[69.726,-3.69],[69.709,-3.266],[69.691,-2.842],[69.674,-2.418],[69.832,-2.005],[69.991,-1.592],[70.15,-1.179],[70.308,-0.766],[70.467,-0.353],[70.625,0.06],[70.783,0.472],[70.943,0.765],[71.103,1.058],[71.263,1.351]]}},{"type":"Feature","properties":{"boundary_type":"subduction","feature_type":"gpml:SubductionZone","polarity":"Left","overriding_plate_id":601,"subducting_plate_id":9014,"plate_ids":[601,9014],"name":"North China-Beishan subduction zone (PAO)"},"geometry":{"type":"LineString","coordinates":[[113.174,40.643],[112.595,40.421],[112.021,40.195],[111.45,39.968],[110.884,39.737],[110.321,39.503],[109.761,39.267],[109.206,39.028],[108.654,38.787],[108.106,38.543],[107.512,38.559],[106.917,38.572],[106.322,38.582],[105.727,38.59],[105.132,38.594],[104.537,38.595],[103.942,38.593],[103.347,38.588],[102.752,38.58],[102.273,38.273],[101.798,37.965],[101.327,37.654],[100.861,37.342],[100.398,37.027],[99.939,36.711],[99.484,36.393],[99.032,36.074],[98.584,35.752],[98.14,35.43],[97.699,35.105],[97.262,34.779],[96.828,34.451],[96.398,34.122],[95.971,33.792],[95.497,33.533],[95.025,33.272],[94.557,33.009],[94.091,32.745],[93.628,32.479],[93.168,32.211],[92.71,31.942],[92.255,31.671],[91.803,31.399],[91.353,31.124],[90.906,30.849],[90.462,30.572],[90.02,30.293],[89.581,30.013],[89.239,29.799],[88.9,29.585],[88.561,29.37]]}},{"type":"Feature","properties":{"boundary_type":"subduction","feature_type":"gpml:SubductionZone","polarity":"Left","overriding_plate_id":701,"subducting_plate_id":919,"plate_ids":[701,919],"name":"West Gondwana (Panthalassa) subduction zone"},"geometry":{"type":"LineString","coordinates":[[-101.348,-43.214],[-101.562,-43.648],[-101.78,-44.083],[-102.001,-44.517],[-102.225,-44.95],[-102.452,-45.383],[-102.683,-45.816],[-102.918,-46.248],[-103.156,-46.68],[-103.399,-47.111],[-103.884,-47.462],[-104.377,-47.811],[-104.875,-48.158],[-105.381,-48.503],[-105.894,-48.845],[-106.413,-49.186],[-106.94,-49.523],[-107.474,-49.859],[-108.016,-50.192],[-108.565,-50.522],[-109.122,-50.85],[-109.686,-51.175],[-110.259,-51.497],[-110.84,-51.817],[-111.463,-52.076],[-112.094,-52.332],[-112.732,-52.585],[-113.377,-52.834],[-114.029,-53.08],[-114.689,-53.322],[-115.357,-53.56],[-116.032,-53.795],[-116.714,-54.025],[-117.404,-54.252],[-118.102,-54.475],[-118.907,-54.618],[-119.717,-54.756],[-120.532,-54.888],[-121.353,-55.015],[-122.179,-55.136],[-123.01,-55.252],[-123.846,-55.362],[-124.686,-55.466],[-125.53,-55.565],[-126.379,-55.657],[-127.231,-55.744],[-128.043,-55.692],[-128.852,-55.634],[-129.658,-55.571],[-130.462,-55.503],[-131.263,-55.43],[-132.061,-55.351],[-132.855,-55.267],[-133.646,-55.178],[-134.434,-55.084],[-135.217,-54.985],[-135.997,-54.881],[-136.773,-54.772],[-137.518,-54.574],[-138.256,-54.372],[-138.987,-54.165],[-139.711,-53.954],[-140.427,-53.738],[-141.136,-53.519],[-141.837,-53.295],[-142.531,-53.067],[-143.218,-52.835],[-143.897,-52.599],[-144.569,-52.36],[-145.234,-52.116],[-145.891,-51.869],[-146.541,-51.618],[-147.184,-51.364],[-147.82,-51.106],[-148.449,-50.845],[-149.102,-50.634],[-149.749,-50.419],[-150.391,-50.201],[-151.026,-49.979],[-151.656,-49.754],[-152.28,-49.525],[-152.897,-49.293],[-153.51,-49.058],[-154.116,-48.82],[-154.716,-48.578],[-155.311,-48.334],[-155.9,-48.086],[-156.484,-47.835],[-157.158,-47.636],[-157.827,-47.433],[-158.491,-47.226],[-159.15,-47.015],[-159.803,-46.8],[-160.452,-46.581],[-161.095,-46.359],[-161.732,-46.134],[-162.365,-45.905],[-162.992,-45.672],[-163.614,-45.436],[-164.231,-45.197],[-164.843,-44.954],[-165.449,-44.708],[-166.119,-44.621],[-166.787,-44.529],[-167.453,-44.434],[-168.117,-44.335],[-168.778,-44.233],[-169.437,-44.126],[-170.094,-44.016],[-170.748,-43.901],[-171.399,-43.784],[-172.048,-43.662],[-172.695,-43.537],[-173.338,-43.408],[-173.979,-43.276],[-174.613,-43.119],[-175.244,-42.959],[-175.871,-42.795],[-176.495,-42.628],[-177.116,-42.458],[-177.733,-42.284],[-178.347,-42.107],[-178.958,-41.927],[-179.565,-41.744],[179.832,-41.557],[179.232,-41.367],[178.636,-41.175],[178.099,-40.898],[177.567,-40.62],[177.04,-40.339],[176.517,-40.055],[175.999,-39.77],[175.484,-39.482],[174.974,-39.191],[174.468,-38.899],[173.967,-38.604],[173.576,-38.221],[173.19,-37.837],[172.808,-37.451],[172.429,-37.064],[172.055,-36.676],[171.684,-36.287],[171.317,-35.897],[170.954,-35.505],[170.594,-35.113],[170.237,-34.719],[169.884,-34.325],[169.535,-33.929],[169.188,-33.532],[168.845,-33.135],[168.504,-32.736],[168.167,-32.337],[167.825,-31.963],[167.486,-31.588],[167.15,-31.212],[166.816,-30.836],[166.485,-30.458],[166.157,-30.08],[165.831,-29.701],[165.507,-29.321],[165.186,-28.94]]}},{"type":"Feature","properties":{"boundary_type":"subduction","feature_type":"gpml:SubductionZone","polarity":"Right","overriding_plate_id":580,"subducting_plate_id":602201,"plate_ids":[580,602201],"name":"SZ Kunlun"},"geometry":{"type":"LineString","coordinates":[[76.732,38.685],[76.841,38.552],[77.063,38.165],[77.283,37.778],[77.5,37.39],[77.715,37.002],[77.928,36.614],[78.139,36.225],[78.53,35.866],[78.917,35.506],[79.301,35.145],[79.682,34.783],[80.059,34.419],[80.433,34.054],[80.803,33.688],[80.94,33.27],[81.075,32.852],[81.209,32.434],[81.342,32.015],[81.474,31.596],[81.604,31.177],[81.713,30.695],[81.82,30.212],[81.926,29.729],[82.031,29.246],[82.135,28.763],[82.238,28.28],[82.176,27.823],[82.115,27.365],[82.055,26.907],[81.995,26.449],[81.935,25.991],[81.876,25.533],[81.817,25.075],[81.733,24.588],[81.65,24.101],[81.567,23.614],[81.485,23.127],[81.547,22.703],[81.608,22.279],[81.669,21.854],[81.73,21.43],[81.79,21.005],[81.85,20.581],[81.942,20.123],[82.034,19.665],[82.125,19.208],[82.216,18.75],[82.306,18.292],[82.396,17.834],[82.485,17.376],[82.636,16.905],[82.786,16.434],[82.935,15.963],[83.084,15.491],[83.231,15.02],[83.151,14.609],[83.071,14.198],[82.991,13.787],[82.912,13.376],[82.746,12.965],[82.581,12.554],[82.417,12.142],[82.253,11.731],[82.002,11.45],[81.752,11.169],[81.503,10.888],[81.127,10.675],[80.752,10.462],[80.378,10.248],[80.004,10.033],[79.797,9.59],[79.591,9.147],[79.386,8.704],[79.18,8.261],[78.976,7.818],[78.772,7.374],[78.568,6.931]]}},{"type":"Feature","properties":{"boundary_type":"transform","feature_type":"gpml:Transform","polarity":null,"overriding_plate_id":null,"subducting_plate_id":null,"plate_ids":[9014,602201],"name":"Trasnform east of Alxa block"},"geometry":{"type":"LineString","coordinates":[[84.598,39.767],[83.984,39.702],[83.372,39.635],[82.762,39.564],[82.152,39.49],[81.544,39.413],[80.937,39.333],[80.332,39.25],[79.728,39.163],[79.125,39.074],[78.524,38.981],[77.925,38.886],[77.328,38.787],[76.732,38.685]]}},{"type":"Feature","properties":{"boundary_type":"transform","feature_type":"gpml:Transform","polarity":null,"overriding_plate_id":null,"subducting_plate_id":null,"plate_ids":[580,9014],"name":"Trasnform east of Alxa block"},"geometry":{"type":"LineString","coordinates":[[76.732,38.685],[76.19,38.59],[75.743,38.262],[75.299,37.932],[74.86,37.601],[74.425,37.268],[73.994,36.934],[73.499,36.643],[73.008,36.35],[72.52,36.055],[72.036,35.758],[71.556,35.46],[71.079,35.159],[70.606,34.856],[70.203,34.745],[69.8,34.632],[69.399,34.519]]}},{"type":"Feature","properties":{"boundary_type":"transform","feature_type":"gpml:Transform","polarity":null,"overriding_plate_id":null,"subducting_plate_id":null,"plate_ids":[402,9006],"name":"Transform bounding STO south"},"geometry":{"type":"LineString","coordinates":[[54.335,2.026],[54.791,2.186],[55.247,2.345],[55.703,2.504],[56.159,2.662],[56.615,2.821],[57.072,2.979],[57.528,3.138],[57.985,3.296],[58.442,3.453],[58.899,3.611],[59.356,3.768],[59.813,3.926],[60.271,4.082],[60.728,4.239],[61.186,4.395],[61.644,4.551],[62.102,4.707],[62.561,4.863],[63.019,5.018],[63.478,5.173],[63.937,5.327],[64.397,5.481],[64.856,5.635]]}},{"type":"Feature","properties":{"boundary_type":"transform","feature_type":"gpml:Transform","polarity":null,"overriding_plate_id":null,"subducting_plate_id":null,"plate_ids":[580,602201],"name":"TRM transform"},"geometry":{"type":"LineString","coordinates":[[78.568,6.931],[78.565,6.513],[78.563,6.095],[78.56,5.677],[78.557,5.259],[78.555,4.841],[78.732,4.436],[78.91,4.031],[79.087,3.625],[79.264,3.219],[79.44,2.814],[79.581,2.364],[79.72,1.914],[79.86,1.465],[80.0,1.015]]}},{"type":"Feature","properties":{"boundary_type":"ridge","feature_type":"gpml:MidOceanRidge","polarity":null,"overriding_plate_id":null,"subducting_plate_id":null,"plate_ids":[580,701],"name":"Western Mianlue spreading"},"geometry":{"type":"LineString","coordinates":[[69.779,-4.963],[70.17,-4.688],[70.561,-4.414],[70.951,-4.139],[71.341,-3.864],[71.731,-3.589],[72.121,-3.314],[72.51,-3.038],[72.899,-2.763],[73.288,-2.487],[73.677,-2.211],[74.065,-1.935],[74.454,-1.659],[74.842,-1.383],[75.231,-1.107],[75.619,-0.831],[76.007,-0.554],[76.395,-0.278],[76.783,-0.002],[77.136,-0.346],[77.489,-0.691],[77.848,-0.447],[78.207,-0.204],[78.565,0.04],[78.924,0.284],[79.283,0.528],[79.641,0.771],[80.0,1.015]]}},{"type":"Feature","properties":{"boundary_type":"ridge","feature_type":"gpml:MidOceanRidge","polarity":null,"overriding_plate_id":null,"subducting_plate_id":null,"plate_ids":[701,602201],"name":"Western Mianlue spreading"},"geometry":{"type":"LineString","coordinates":[[80.0,1.015],[80.377,1.271],[80.754,1.527],[81.131,1.782],[81.508,2.038],[81.873,1.735],[82.237,1.431],[82.586,1.746],[82.936,2.062],[83.286,2.377],[83.636,2.691],[83.986,3.006],[84.336,3.321],[84.686,3.635],[85.037,3.95],[85.388,4.264],[85.739,4.578],[86.091,4.892],[86.443,5.206],[86.795,5.519],[87.148,5.833],[87.571,6.098],[87.994,6.364],[88.417,6.629],[88.841,6.893],[89.266,7.158],[89.69,7.421],[90.116,7.685],[90.542,7.948],[90.968,8.21],[91.395,8.473],[91.823,8.734],[91.591,9.145],[91.359,9.556],[91.125,9.967],[90.892,10.377],[90.657,10.787],[90.422,11.197],[90.187,11.607],[90.58,11.882],[90.973,12.156],[91.368,12.429],[91.763,12.702],[92.159,12.974],[92.556,13.245],[92.954,13.516]]}},{"type":"Feature","properties":{"boundary_type":"ridge","feature_type":"gpml:MidOceanRidge","polarity":null,"overriding_plate_id":null,"subducting_plate_id":null,"plate_ids":[601,701],"name":"Eastern Mianlue spreading"},"geometry":{"type":"LineString","coordinates":[[92.959,13.508],[93.394,13.77],[93.829,14.031],[94.265,14.291],[94.702,14.551],[95.14,14.809],[95.58,15.067],[96.02,15.324],[96.461,15.58],[96.904,15.835],[97.347,16.09],[97.792,16.343],[98.238,16.595],[98.685,16.847],[99.04,16.595],[99.394,16.342],[99.747,16.089],[100.099,15.835],[100.533,16.085],[100.968,16.333],[101.405,16.581],[101.842,16.828],[102.28,17.074],[102.72,17.319],[103.161,17.563],[103.603,17.806],[104.046,18.048],[104.49,18.289],[104.936,18.529],[105.383,18.768],[105.831,19.006],[106.281,19.243],[106.731,19.479],[107.183,19.713],[107.637,19.947],[108.091,20.179],[108.547,20.41],[109.005,20.64],[109.464,20.869],[109.924,21.097],[110.385,21.323],[110.848,21.548],[111.313,21.772],[111.779,21.994],[112.246,22.215],[112.715,22.435],[113.185,22.653],[113.657,22.87],[114.13,23.086]]}},{"type":"Feature","properties":{"boundary_type":"transform","feature_type":"gpml:Transform","polarity":null,"overriding_plate_id":null,"subducting_plate_id":null,"plate_ids":[601,701],"name":"Mianlue transform"},"geometry":{"type":"LineString","coordinates":[[92.959,13.508],[92.954,13.516]]}},{"type":"Feature","properties":{"boundary_type":"transform","feature_type":"gpml:Transform","polarity":null,"overriding_plate_id":null,"subducting_plate_id":null,"plate_ids":[601,602201],"name":"Mianlue transform"},"geometry":{"type":"LineString","coordinates":[[92.954,13.516],[92.711,13.921],[92.466,14.326],[92.271,14.742],[92.075,15.157],[91.879,15.573],[91.681,15.988],[91.483,16.403],[91.538,16.892],[91.593,17.381],[91.649,17.87],[91.705,18.359],[91.761,18.848],[91.817,19.337],[91.874,19.826],[91.931,20.315],[91.989,20.804],[92.047,21.293],[91.937,21.764],[91.827,22.234],[91.716,22.704],[91.605,23.175],[91.492,23.645],[91.379,24.115],[91.265,24.585],[91.15,25.055],[91.034,25.525],[90.918,25.995],[90.8,26.465],[90.482,26.78],[90.163,27.094],[89.842,27.408],[89.519,27.721],[89.194,28.033],[88.868,28.344],[88.766,28.686],[88.664,29.028],[88.561,29.37]]}},{"type":"Feature","properties":{"boundary_type":"transform","feature_type":"gpml:Transform","polarity":null,"overriding_plate_id":null,"subducting_plate_id":null,"plate_ids":[9014,602201],"name":"Mianlue transform"},"geometry":{"type":"LineString","coordinates":[[88.561,29.37],[88.429,29.807],[88.295,30.244],[88.16,30.681],[88.024,31.118],[87.886,31.555],[87.748,31.992],[87.608,32.428],[87.466,32.864],[87.29,33.327],[87.112,33.788],[86.931,34.25],[86.749,34.711],[86.565,35.173],[86.379,35.633],[86.19,36.094],[86.0,36.554],[85.807,37.014],[85.612,37.474],[85.414,37.933],[85.214,38.392],[85.011,38.85],[84.806,39.309],[84.598,39.767]]}},{"type":"Feature","properties":{"boundary_type":"transform","feature_type":"gpml:Transform","polarity":null,"overriding_plate_id":null,"subducting_plate_id":null,"plate_ids":[430,9013],"name":"Amuria transform"},"geometry":{"type":"LineString","coordinates":[[48.659,46.831],[48.609,46.362],[48.559,45.894],[48.51,45.425],[48.462,44.956],[48.415,44.487],[48.369,44.018],[48.323,43.549],[48.278,43.08],[48.234,42.611],[48.19,42.142],[48.147,41.673],[47.991,41.201],[47.837,40.73],[47.685,40.258],[47.535,39.786],[47.388,39.314],[47.242,38.842],[47.098,38.37],[46.956,37.897],[46.816,37.425],[46.678,36.952],[46.541,36.479],[46.407,36.006],[46.037,35.642],[45.671,35.277],[45.308,34.911],[44.948,34.544],[44.592,34.176],[44.238,33.807],[43.888,33.437],[43.541,33.066],[43.196,32.694],[42.817,32.327],[42.44,31.959],[42.067,31.589],[41.696,31.219],[41.329,30.847],[40.964,30.475],[40.602,30.101],[40.242,29.727],[39.886,29.351],[39.532,28.975],[39.475,28.922]]}},{"type":"Feature","properties":{"boundary_type":"ridge","feature_type":"gpml:MidOceanRidge","polarity":null,"overriding_plate_id":null,"subducting_plate_id":null,"plate_ids":[401,430],"name":"Siberia-Amuria (Mongol-Okhotsk) MOR"},"geometry":{"type":"LineString","coordinates":[[36.52,32.088],[35.951,32.013],[35.382,31.937],[34.814,31.857],[34.248,31.775],[33.682,31.69],[33.117,31.603],[32.554,31.514],[31.991,31.422],[31.43,31.328],[30.87,31.231],[30.311,31.132],[29.753,31.03],[29.196,30.926],[28.641,30.819],[28.531,31.268],[28.421,31.716],[28.31,32.164],[28.197,32.612],[28.084,33.06],[27.538,32.919],[26.994,32.777],[26.452,32.631],[25.912,32.484],[25.373,32.334],[24.836,32.182],[24.301,32.028],[23.768,31.871],[23.237,31.712],[22.707,31.551],[22.18,31.388],[21.654,31.223],[21.13,31.055],[20.608,30.886],[20.087,30.714],[19.569,30.54],[19.052,30.365],[18.538,30.187],[18.025,30.007],[17.514,29.825],[17.005,29.642],[16.87,30.028],[16.735,30.413],[16.599,30.799],[16.461,31.185],[16.323,31.57],[15.777,31.394],[15.233,31.215],[14.692,31.034],[14.152,30.851],[13.615,30.666],[13.079,30.478],[12.546,30.288],[12.015,30.097],[11.485,29.902],[10.958,29.706],[10.433,29.508],[9.91,29.308],[9.389,29.105],[8.87,28.901],[8.353,28.695],[7.839,28.486],[7.326,28.276],[6.815,28.064],[6.306,27.85],[5.8,27.634],[5.295,27.417],[4.792,27.197],[4.291,26.976],[3.793,26.753],[3.296,26.528],[2.801,26.302],[2.308,26.073]]}},{"type":"Feature","properties":{"boundary_type":"transform","feature_type":"gpml:Transform","polarity":null,"overriding_plate_id":null,"subducting_plate_id":null,"plate_ids":[902,9014],"name":"PAO transform north"},"geometry":{"type":"LineString","coordinates":[[51.008,58.163],[51.469,58.489],[51.938,58.813],[52.416,59.136],[52.904,59.457],[53.599,59.807],[54.308,60.155],[55.033,60.498],[55.773,60.837],[56.529,61.172],[57.302,61.503],[58.09,61.829],[58.896,62.151],[59.718,62.468],[60.559,62.78],[61.417,63.087],[62.293,63.388],[63.187,63.685],[64.101,63.975],[65.033,64.26],[65.984,64.538],[66.955,64.81],[67.945,65.076],[68.956,65.335],[69.986,65.587],[71.035,65.833],[72.105,66.07],[73.195,66.301],[74.27,66.487],[75.36,66.667],[76.467,66.838],[77.588,67.002],[78.724,67.158],[79.875,67.305],[81.04,67.444],[82.218,67.575],[83.408,67.697],[84.611,67.81],[85.824,67.915],[87.049,68.01],[88.283,68.096],[89.525,68.173],[90.776,68.241],[92.033,68.299]]}},{"type":"Feature","properties":{"boundary_type":"ridge","feature_type":"gpml:MidOceanRidge","polarity":null,"overriding_plate_id":null,"subducting_plate_id":null,"plate_ids":[902,9013],"name":"PAO mor"},"geometry":{"type":"LineString","coordinates":[[53.466,59.906],[53.829,59.503],[54.184,59.1],[53.326,58.929],[52.477,58.754],[51.636,58.573],[50.804,58.386],[51.008,58.163]]}},{"type":"Feature","properties":{"boundary_type":"ridge","feature_type":"gpml:MidOceanRidge","polarity":null,"overriding_plate_id":null,"subducting_plate_id":null,"plate_ids":[9013,9014],"name":"PAO mor"},"geometry":{"type":"LineString","coordinates":[[51.008,58.163],[51.41,57.717],[51.802,57.269],[52.185,56.821],[52.559,56.371],[52.924,55.92],[53.28,55.468],[53.628,55.015],[53.969,54.561],[54.302,54.106],[54.628,53.651],[55.317,53.826],[56.012,53.997],[56.712,54.164],[57.419,54.326],[57.682,53.858],[57.939,53.389],[58.19,52.919],[58.436,52.449],[58.677,51.979],[58.913,51.508],[59.144,51.036],[59.37,50.564],[59.592,50.092],[59.81,49.619],[60.023,49.145],[60.232,48.672],[60.438,48.198],[60.639,47.723],[60.837,47.249],[61.032,46.774],[61.223,46.298],[61.411,45.823],[61.595,45.347],[61.777,44.87],[61.955,44.394],[62.131,43.917],[62.304,43.44],[62.474,42.963],[62.642,42.485],[62.807,42.007],[63.369,42.113],[63.933,42.217],[64.499,42.317],[65.067,42.415],[65.636,42.51],[66.207,42.602],[66.78,42.692],[66.941,42.243],[67.1,41.793],[67.257,41.344],[67.412,40.894],[67.564,40.444],[67.715,39.994],[67.863,39.544],[68.01,39.093],[68.154,38.643],[68.297,38.192],[68.438,37.741],[68.578,37.29],[68.716,36.838],[68.852,36.387]]}},{"type":"Feature","properties":{"boundary_type":"ridge","feature_type":"gpml:MidOceanRidge","polarity":null,"overriding_plate_id":null,"subducting_plate_id":null,"plate_ids":[580,9014],"name":"PAO mor"},"geometry":{"type":"LineString","coordinates":[[68.852,36.387],[68.991,35.92],[69.128,35.453],[69.264,34.986],[69.399,34.519]]}},{"type":"Feature","properties":{"boundary_type":"transform","feature_type":"gpml:Transform","polarity":null,"overriding_plate_id":null,"subducting_plate_id":null,"plate_ids":[580,9013],"name":"Transform bounding STO north"},"geometry":{"type":"LineString","coordinates":[[58.458,30.79],[58.734,31.007],[59.011,31.224],[59.452,31.536],[59.895,31.847],[60.341,32.156],[60.791,32.463],[61.243,32.769],[61.699,33.074],[62.149,33.315],[62.601,33.554],[63.055,33.792],[63.512,34.029],[63.972,34.263],[64.434,34.496],[64.899,34.727],[65.367,34.957],[65.837,35.184],[66.333,35.39],[66.832,35.594],[67.333,35.795],[67.837,35.994],[68.343,36.192],[68.852,36.387]]}},{"type":"Feature","properties":{"boundary_type":"transform","feature_type":"gpml:Transform","polarity":null,"overriding_plate_id":null,"subducting_plate_id":null,"plate_ids":[701,926],"name":"Panthalassa TRANSFORM estern China"},"geometry":{"type":"LineString","coordinates":[[108.877,8.973],[108.849,9.448],[108.821,9.923],[108.793,10.397],[108.765,10.872],[108.736,11.346],[108.836,11.764],[108.935,12.182],[109.035,12.599],[109.135,13.017],[109.236,13.434],[109.337,13.851],[109.438,14.269],[109.609,14.731],[109.781,15.192],[109.954,15.654],[110.127,16.115],[110.302,16.576],[110.548,17.013],[110.795,17.449],[111.043,17.885],[111.293,18.32],[111.544,18.755],[111.796,19.19],[112.05,19.624],[112.304,20.058],[112.561,20.492],[112.818,20.926],[113.078,21.358],[113.338,21.791],[113.601,22.223],[113.865,22.655],[114.13,23.086]]}},{"type":"Feature","properties":{"boundary_type":"transform","feature_type":"gpml:Transform","polarity":null,"overriding_plate_id":null,"subducting_plate_id":null,"plate_ids":[601,926],"name":"Panthalassa TRANSFORM estern China"},"geometry":{"type":"LineString","coordinates":[[114.13,23.086],[114.137,23.097],[114.277,23.558],[114.419,24.02],[114.562,24.481],[114.705,24.942],[114.85,25.404],[114.996,25.865],[115.143,26.326],[115.291,26.786],[115.441,27.247],[115.591,27.707],[115.743,28.167],[115.896,28.628],[116.051,29.087],[116.207,29.547],[116.364,30.007],[116.523,30.466],[116.417,30.937],[116.31,31.408],[116.201,31.879],[116.092,32.349],[115.981,32.82],[115.869,33.29],[115.756,33.761],[115.642,34.231],[115.526,34.701],[115.409,35.171],[115.291,35.641],[115.172,36.111],[115.051,36.58],[114.928,37.05],[114.718,37.501],[114.506,37.951],[114.291,38.4],[114.073,38.85],[113.852,39.299],[113.629,39.747],[113.403,40.195],[113.174,40.643]]}},{"type":"Feature","properties":{"boundary_type":"transform","feature_type":"gpml:Transform","polarity":null,"overriding_plate_id":null,"subducting_plate_id":null,"plate_ids":[926,9014],"name":"Panthalassa TRANSFORM estern China"},"geometry":{"type":"LineString","coordinates":[[113.174,40.643],[112.96,41.054],[112.744,41.465],[112.525,41.876],[112.303,42.286],[112.078,42.696],[111.85,43.105],[111.619,43.514],[111.385,43.923],[111.202,44.386],[111.016,44.849],[110.826,45.311],[110.634,45.773],[110.439,46.235],[110.24,46.697],[110.038,47.158],[109.832,47.619],[109.622,48.079],[109.409,48.539],[109.192,48.999],[108.971,49.458],[108.746,49.917],[108.516,50.375],[108.282,50.833],[108.043,51.291],[107.8,51.747],[107.551,52.204],[107.297,52.66],[107.004,53.113],[106.704,53.566],[106.397,54.018],[106.084,54.469],[105.764,54.919],[105.437,55.369],[105.102,55.818],[104.759,56.265],[104.409,56.712],[104.049,57.158],[103.681,57.602],[103.304,58.046],[102.918,58.488],[102.522,58.929],[102.115,59.369],[101.698,59.808],[101.269,60.245],[100.829,60.681],[100.377,61.115],[99.913,61.548],[99.435,61.98],[98.944,62.409],[98.438,62.837],[97.918,63.263],[97.382,63.687],[96.829,64.109],[96.417,64.534],[95.991,64.958],[95.552,65.381],[95.099,65.802],[94.63,66.222],[94.146,66.641],[93.645,67.058],[93.126,67.473],[92.589,67.887],[92.033,68.299]]}},{"type":"Feature","properties":{"boundary_type":"transform","feature_type":"gpml:Transform","polarity":null,"overriding_plate_id":null,"subducting_plate_id":null,"plate_ids":[902,926],"name":"Panthalassa TRANSFORM estern China"},"geometry":{"type":"LineString","coordinates":[[92.033,68.299],[91.466,68.703]]}},{"type":"Feature","properties":{"boundary_type":"transform","feature_type":"gpml:Transform","polarity":null,"overriding_plate_id":null,"subducting_plate_id":null,"plate_ids":[701,919],"name":"Tranform connecting subduction"},"geometry":{"type":"LineString","coordinates":[[-107.329,-40.656],[-106.805,-40.901],[-106.277,-41.144],[-105.745,-41.384],[-105.21,-41.622],[-104.67,-41.857],[-104.126,-42.09],[-103.579,-42.32],[-103.027,-42.547],[-102.471,-42.772],[-101.912,-42.994],[-101.348,-43.214]]}},{"type":"Feature","properties":{"boundary_type":"subduction","feature_type":"gpml:SubductionZone","polarity":"Left","overriding_plate_id":580,"subducting_plate_id":9013,"plate_ids":[580,9013],"name":"Paleo-Tianshan Ocean SZ on northern margin of CTB"},"geometry":{"type":"LineString","coordinates":[[58.458,30.79],[58.833,30.484],[59.206,30.176],[59.576,29.868],[59.945,29.559],[60.311,29.249],[60.674,28.938],[60.915,28.517],[61.153,28.096],[61.389,27.674],[61.624,27.252],[61.857,26.829],[62.088,26.407],[62.244,25.952],[62.399,25.497],[62.553,25.041],[62.705,24.586],[62.857,24.13]]}},{"type":"Feature","properties":{"boundary_type":"subduction","feature_type":"gpml:SubductionZone","polarity":"Left","overriding_plate_id":580,"subducting_plate_id":402,"plate_ids":[402,580],"name":"Paleo-Tianshan Ocean SZ on northern margin of CTB"},"geometry":{"type":"LineString","coordinates":[[62.857,24.13],[62.978,23.763],[63.099,23.395],[63.191,22.916],[63.282,22.437],[63.372,21.957],[63.462,21.478],[63.551,20.999],[63.64,20.519],[63.627,20.077],[63.615,19.635],[63.602,19.193],[63.59,18.751],[63.578,18.309],[63.565,17.867],[63.553,17.425],[63.49,16.964],[63.428,16.502],[63.365,16.04],[63.479,15.554],[63.592,15.067],[63.704,14.581],[63.816,14.095],[63.927,13.608],[63.902,13.186],[63.877,12.764],[63.852,12.341],[63.827,11.919],[63.803,11.497],[64.0,11.053],[64.198,10.609],[64.394,10.165],[64.59,9.721],[64.598,9.314],[64.605,8.906],[64.613,8.499],[64.621,8.092],[64.628,7.684],[64.674,7.275],[64.72,6.865],[64.765,6.455],[64.811,6.045],[64.856,5.635]]}},{"type":"Feature","properties":{"boundary_type":"subduction","feature_type":"gpml:SubductionZone","polarity":"Left","overriding_plate_id":580,"subducting_plate_id":9006,"plate_ids":[580,9006],"name":"Paleo-Tianshan Ocean SZ on northern margin of CTB"},"geometry":{"type":"LineString","coordinates":[[64.856,5.635],[64.884,5.387],[65.225,5.108],[65.566,4.828],[65.906,4.549],[66.26,4.356],[66.614,4.163],[66.967,3.97],[67.321,3.776],[67.674,3.583],[68.028,3.426],[68.382,3.27],[68.736,3.114],[69.107,2.916],[69.477,2.718],[69.847,2.52],[70.217,2.321],[70.566,1.998],[70.915,1.674],[71.263,1.351]]}},{"type":"Feature","properties":{"boundary_type":"ridge","feature_type":"gpml:MidOceanRidge","polarity":null,"overriding_plate_id":null,"subducting_plate_id":null,"plate_ids":[701,9006],"name":"Paleotethys MOR"},"geometry":{"type":"LineString","coordinates":[[9.996,-3.087],[10.392,-3.364],[10.789,-3.641],[11.186,-3.918],[11.583,-4.195],[11.981,-4.471],[12.379,-4.748],[12.777,-5.024],[13.175,-5.3],[13.574,-5.575],[13.973,-5.851],[14.373,-6.126],[14.773,-6.401],[14.548,-6.82],[14.324,-7.24],[14.099,-7.66],[13.874,-8.079],[13.648,-8.499],[13.422,-8.918],[13.195,-9.337],[12.967,-9.756],[12.739,-10.175],[12.511,-10.593],[12.282,-11.012],[12.052,-11.43],[11.821,-11.848],[11.59,-12.266],[11.358,-12.684],[11.126,-13.101],[10.892,-13.518],[10.658,-13.936],[11.073,-14.17],[11.489,-14.404],[11.906,-14.638],[12.324,-14.87],[12.742,-15.102],[13.162,-15.333],[13.582,-15.563],[14.004,-15.792],[13.867,-16.219],[13.729,-16.646],[13.591,-17.073],[13.452,-17.499],[13.313,-17.926],[13.173,-18.352],[13.032,-18.778],[13.49,-19.013],[13.95,-19.246],[14.411,-19.479],[14.873,-19.71],[15.337,-19.939],[15.801,-20.168],[16.268,-20.396],[16.735,-20.622],[17.204,-20.847],[17.675,-21.07],[18.147,-21.293],[18.62,-21.514],[19.095,-21.733],[19.571,-21.952],[20.049,-22.169],[20.528,-22.384],[21.008,-22.598],[21.49,-22.811],[21.974,-23.022],[22.459,-23.232],[22.946,-23.44],[23.434,-23.647],[23.923,-23.852],[24.415,-24.056],[24.907,-24.258],[25.402,-24.459],[25.898,-24.658],[26.395,-24.855],[26.894,-25.051],[27.395,-25.245],[27.897,-25.437],[28.067,-25.014],[28.235,-24.591],[28.403,-24.167],[28.569,-23.744],[28.734,-23.32],[28.899,-22.896],[29.209,-22.899],[29.52,-22.901],[29.695,-22.503],[29.868,-22.105],[30.041,-21.707],[30.213,-21.308],[30.384,-20.91],[30.554,-20.511],[31.054,-20.645],[31.554,-20.778],[32.056,-20.91],[32.559,-21.04],[33.062,-21.168],[33.566,-21.296],[34.072,-21.421],[34.578,-21.545],[35.085,-21.668],[35.592,-21.789],[36.101,-21.908],[36.61,-22.026],[37.121,-22.142],[37.632,-22.257],[38.144,-22.37],[38.657,-22.482],[38.791,-22.028],[38.925,-21.575],[39.058,-21.121],[39.19,-20.667],[39.321,-20.214],[39.85,-20.226],[40.378,-20.236],[40.526,-19.812],[40.674,-19.388],[40.821,-18.964],[40.967,-18.539],[41.112,-18.115],[41.257,-17.69],[41.401,-17.266],[41.544,-16.841],[41.687,-16.416],[42.161,-16.449],[42.635,-16.481],[43.109,-16.512],[43.584,-16.542],[44.058,-16.57],[44.533,-16.598],[45.008,-16.625],[45.483,-16.65],[45.958,-16.674],[46.433,-16.698],[46.908,-16.72],[46.894,-16.296],[46.88,-15.871],[46.866,-15.447],[46.852,-15.023],[47.339,-14.984],[47.826,-14.943],[48.313,-14.902],[48.8,-14.86],[49.287,-14.816],[49.773,-14.772],[50.259,-14.726],[50.745,-14.68],[51.231,-14.632],[51.716,-14.584],[52.201,-14.535],[52.687,-14.484],[53.171,-14.433],[53.656,-14.38],[54.14,-14.327],[54.625,-14.272],[55.108,-14.217],[55.246,-14.581],[55.385,-14.945],[55.524,-15.309],[55.663,-15.673],[56.159,-15.594],[56.655,-15.515],[57.15,-15.434],[57.645,-15.352],[58.139,-15.27],[58.634,-15.186],[59.127,-15.101],[59.621,-15.015],[60.113,-14.928],[60.606,-14.84],[61.098,-14.75],[61.59,-14.66],[62.081,-14.569],[62.572,-14.477],[63.062,-14.383],[63.552,-14.289],[64.053,-14.217],[64.554,-14.144],[65.054,-14.071],[65.554,-13.996],[66.053,-13.92],[66.552,-13.843],[67.051,-13.765],[67.55,-13.686],[68.048,-13.606],[68.546,-13.525],[69.043,-13.443],[69.54,-13.361],[70.037,-13.277],[70.534,-13.192],[71.03,-13.106],[71.186,-13.46],[71.342,-13.814],[71.499,-14.167],[71.951,-14.066],[72.404,-13.963],[72.855,-13.86],[73.307,-13.756]]}}]}