{"type":"FeatureCollection","meta":{"model":"Cao2024","reconstruction_time_ma":315.0,"anchor_plate_id":0,"pygplates_version":"1.0.0","tessellate_degrees":0.5,"polarity_convention":"gpml:subductionPolarity. 'Left'/'Right' names the side of the line, in vertex order, on which the OVERRIDING plate lies. Triangles are drawn on that side.","antimeridian":"Lines are NOT split at +/-180 deg. The renderer works in 3D unit vectors where the dateline is not special; splitting would only add spurious breaks. Do not treat this as RFC 7946 GIS-ready 2D data."},"features":[{"type":"Feature","properties":{"boundary_type":"subduction","feature_type":"gpml:SubductionZone","polarity":"Left","overriding_plate_id":701,"subducting_plate_id":9009,"plate_ids":[701,9009],"name":"Mongol-Okhotsk subducting beneath Siberia"},"geometry":{"type":"LineString","coordinates":[[63.389,63.271],[63.342,63.333],[62.668,63.695],[61.977,64.053],[61.269,64.407],[60.541,64.758],[59.795,65.106],[59.029,65.449],[58.243,65.789],[57.436,66.125],[56.608,66.456],[55.757,66.783],[54.884,67.105],[53.987,67.422],[53.067,67.734],[52.076,68.013],[51.061,68.285],[50.022,68.551],[48.958,68.811],[47.87,69.064],[46.756,69.309],[45.618,69.548],[44.454,69.778],[43.264,70.001],[42.05,70.216],[40.81,70.423],[39.546,70.621],[38.257,70.81],[36.944,70.989],[35.951,71.32],[34.925,71.644],[33.863,71.963],[32.764,72.276],[31.628,72.583],[30.452,72.883],[29.236,73.176],[27.979,73.462],[26.68,73.74],[25.337,74.01],[23.951,74.271],[22.519,74.523],[20.849,74.717],[19.138,74.899],[17.388,75.068],[15.6,75.223],[13.778,75.364],[11.922,75.491],[10.036,75.603],[8.123,75.7],[6.186,75.781],[4.23,75.846],[2.259,75.896],[0.276,75.929],[-1.714,75.946],[-3.707,75.947],[-5.484,75.755],[-7.213,75.55],[-8.893,75.333],[-10.524,75.105],[-12.106,74.865],[-13.639,74.614],[-15.123,74.354]]}},{"type":"Feature","properties":{"boundary_type":"subduction","feature_type":"gpml:SubductionZone","polarity":"Left","overriding_plate_id":701,"subducting_plate_id":902,"plate_ids":[701,902],"name":"Mongol-Okhotsk subducting beneath Siberia"},"geometry":{"type":"LineString","coordinates":[[-15.123,74.354],[-16.566,74.082],[-17.96,73.801],[-19.308,73.511],[-20.61,73.212],[-21.88,72.897],[-23.105,72.575],[-24.286,72.245],[-25.425,71.908],[-26.523,71.565],[-27.582,71.215],[-28.604,70.86],[-29.589,70.5],[-30.54,70.134]]}},{"type":"Feature","properties":{"boundary_type":"subduction","feature_type":"gpml:SubductionZone","polarity":"Right","overriding_plate_id":16104,"subducting_plate_id":902,"plate_ids":[902,16104],"name":"YTT SZ"},"geometry":{"type":"LineString","coordinates":[[-57.989,9.464],[-57.968,9.935],[-57.947,10.407],[-57.913,10.884],[-57.879,11.36],[-57.845,11.837],[-57.811,12.313],[-57.776,12.79],[-57.742,13.266],[-57.707,13.742],[-57.672,14.219],[-57.637,14.695],[-57.516,15.148],[-57.395,15.6],[-57.273,16.053],[-57.15,16.505],[-57.027,16.958],[-56.904,17.41],[-56.779,17.862],[-56.654,18.315],[-56.529,18.767],[-56.403,19.219],[-56.276,19.67],[-56.088,20.105],[-55.899,20.54],[-55.709,20.974],[-55.518,21.408],[-55.326,21.842],[-55.133,22.275],[-54.938,22.709],[-54.743,23.142],[-54.545,23.575],[-54.347,24.008],[-54.223,24.47],[-54.097,24.932],[-53.971,25.395],[-53.843,25.857],[-53.715,26.319],[-53.585,26.781],[-53.455,27.243],[-53.323,27.705],[-53.19,28.166],[-53.057,28.628],[-53.001,29.116],[-52.945,29.604],[-52.889,30.091],[-52.832,30.579],[-52.774,31.067],[-52.716,31.555],[-52.657,32.043],[-52.598,32.53],[-52.538,33.018],[-52.477,33.506],[-52.416,33.993],[-52.354,34.481],[-52.291,34.968],[-52.227,35.456],[-52.163,35.943],[-52.187,36.389],[-52.211,36.835],[-52.235,37.281],[-52.259,37.726],[-52.284,38.172],[-52.309,38.618],[-52.335,39.063],[-52.361,39.509],[-52.387,39.955],[-52.42,40.339],[-52.453,40.723],[-52.487,41.106],[-52.521,41.49],[-52.362,41.909],[-52.201,42.329],[-51.96,42.656],[-51.716,42.984],[-51.47,43.311],[-51.231,43.686],[-50.99,44.061],[-50.746,44.436],[-50.498,44.81],[-50.259,45.112],[-50.017,45.415],[-49.772,45.717]]}},{"type":"Feature","properties":{"boundary_type":"transform","feature_type":"gpml:Transform","polarity":null,"overriding_plate_id":null,"subducting_plate_id":null,"plate_ids":[902,16104],"name":"Transform at S margin of East Klamath"},"geometry":{"type":"LineString","coordinates":[[-57.989,9.464],[-57.664,9.494],[-57.339,9.523],[-56.935,9.616],[-56.53,9.709],[-56.125,9.801],[-55.703,9.751],[-55.282,9.7],[-54.86,9.649],[-54.419,9.494],[-53.979,9.338],[-53.539,9.181],[-53.099,9.024],[-52.699,8.886],[-52.299,8.748],[-51.899,8.609],[-51.542,8.423],[-51.186,8.238],[-50.83,8.052],[-50.474,7.866],[-50.156,7.604],[-49.839,7.343],[-49.522,7.081],[-49.313,6.795],[-49.104,6.509],[-48.895,6.222],[-48.694,6.025]]}},{"type":"Feature","properties":{"boundary_type":"transform","feature_type":"gpml:Transform","polarity":null,"overriding_plate_id":null,"subducting_plate_id":null,"plate_ids":[701,902],"name":"Transform at S margin of East Klamath"},"geometry":{"type":"LineString","coordinates":[[-48.694,6.025],[-48.377,5.713],[-48.059,5.4],[-47.742,5.087],[-47.425,4.774],[-47.108,4.461],[-46.643,4.302],[-46.178,4.143],[-45.713,3.983],[-45.249,3.823],[-44.784,3.663]]}},{"type":"Feature","properties":{"boundary_type":"transform","feature_type":"gpml:Transform","polarity":null,"overriding_plate_id":null,"subducting_plate_id":null,"plate_ids":[902,16111],"name":"Alexander-YTT Transform"},"geometry":{"type":"LineString","coordinates":[[-59.088,44.497],[-58.477,44.63],[-57.863,44.759],[-57.23,44.85],[-56.596,44.937],[-55.959,45.02],[-55.321,45.099],[-54.681,45.176],[-54.04,45.248],[-53.397,45.317],[-52.796,45.392],[-52.194,45.463],[-51.591,45.531],[-50.986,45.596],[-50.38,45.658],[-49.772,45.717]]}},{"type":"Feature","properties":{"boundary_type":"transform","feature_type":"gpml:Transform","polarity":null,"overriding_plate_id":null,"subducting_plate_id":null,"plate_ids":[16104,16111],"name":"Alexander-YTT Transform"},"geometry":{"type":"LineString","coordinates":[[-49.772,45.717],[-49.126,45.775],[-48.478,45.83],[-47.83,45.882],[-47.18,45.929],[-46.489,46.0],[-45.796,46.066],[-45.102,46.128],[-44.406,46.186],[-43.709,46.24],[-43.01,46.29],[-42.311,46.335],[-41.652,46.338],[-40.993,46.337],[-40.335,46.333],[-39.676,46.325],[-39.018,46.313],[-38.36,46.297],[-37.702,46.278],[-37.045,46.254],[-36.389,46.227],[-35.733,46.197]]}},{"type":"Feature","properties":{"boundary_type":"transform","feature_type":"gpml:Transform","polarity":null,"overriding_plate_id":null,"subducting_plate_id":null,"plate_ids":[701,16111],"name":"Alexander-YTT Transform"},"geometry":{"type":"LineString","coordinates":[[-35.733,46.197],[-35.204,46.169]]}},{"type":"Feature","properties":{"boundary_type":"subduction","feature_type":"gpml:SubductionZone","polarity":"Right","overriding_plate_id":701,"subducting_plate_id":919,"plate_ids":[701,919],"name":"SZ along eastern Gondwanaland"},"geometry":{"type":"LineString","coordinates":[[167.708,-40.872],[168.075,-41.232],[168.446,-41.59],[168.82,-41.948],[169.2,-42.304],[169.583,-42.659],[169.971,-43.013],[170.363,-43.366],[170.76,-43.717],[171.161,-44.067],[171.497,-44.463],[171.837,-44.858],[172.182,-45.252],[172.531,-45.645],[172.886,-46.037],[173.246,-46.428],[173.611,-46.818],[173.981,-47.207],[174.356,-47.594],[174.737,-47.98],[175.124,-48.365],[175.517,-48.749],[175.975,-49.148],[176.44,-49.546],[176.912,-49.942],[177.392,-50.335],[177.881,-50.727],[178.377,-51.117],[178.882,-51.504],[179.396,-51.89],[179.918,-52.273],[-179.55,-52.654],[-179.009,-53.032],[-178.459,-53.408],[-177.899,-53.781],[-177.231,-54.072],[-176.554,-54.36],[-175.868,-54.644],[-175.172,-54.924],[-174.466,-55.199],[-173.75,-55.471],[-173.025,-55.739],[-172.29,-56.002],[-171.545,-56.26],[-170.789,-56.515],[-170.024,-56.764],[-169.248,-57.009],[-168.462,-57.249],[-167.667,-57.484],[-166.86,-57.713],[-166.044,-57.938],[-165.218,-58.157],[-164.381,-58.371],[-163.534,-58.58],[-162.678,-58.783],[-161.811,-58.98],[-160.947,-59.188],[-160.073,-59.39],[-159.189,-59.587],[-158.294,-59.778],[-157.389,-59.962],[-156.474,-60.14],[-155.55,-60.312],[-154.616,-60.477]]}},{"type":"Feature","properties":{"boundary_type":"transform","feature_type":"gpml:Transform","polarity":null,"overriding_plate_id":null,"subducting_plate_id":null,"plate_ids":[602,926],"name":"Transform northeast of Australia"},"geometry":{"type":"LineString","coordinates":[[116.284,-14.242],[116.665,-14.38],[117.046,-14.517],[117.428,-14.654],[117.81,-14.79],[118.135,-14.975],[118.461,-15.16],[118.788,-15.344]]}},{"type":"Feature","properties":{"boundary_type":"transform","feature_type":"gpml:Transform","polarity":null,"overriding_plate_id":null,"subducting_plate_id":null,"plate_ids":[701,926],"name":"Transform northeast of Australia"},"geometry":{"type":"LineString","coordinates":[[118.788,-15.344],[119.231,-15.593],[119.676,-15.841],[120.121,-16.088],[120.568,-16.334],[121.016,-16.579],[121.465,-16.824],[121.915,-17.067],[122.366,-17.309],[122.622,-17.689],[122.878,-18.068],[123.136,-18.447],[123.395,-18.826],[123.655,-19.204],[123.917,-19.582],[124.179,-19.959],[124.443,-20.336],[124.812,-20.673],[125.183,-21.008],[125.555,-21.343],[125.929,-21.678],[126.304,-22.011],[126.682,-22.343],[127.061,-22.675],[127.442,-23.005],[127.905,-23.171],[128.368,-23.336],[128.833,-23.499],[129.299,-23.661],[129.766,-23.822],[130.234,-23.981],[130.704,-24.139]]}},{"type":"Feature","properties":{"boundary_type":"transform","feature_type":"gpml:Transform","polarity":null,"overriding_plate_id":null,"subducting_plate_id":null,"plate_ids":[701,919],"name":"Transform northeast of Australia"},"geometry":{"type":"LineString","coordinates":[[130.704,-24.139],[130.74,-24.151],[131.247,-24.332],[131.755,-24.512],[132.265,-24.69],[132.777,-24.866],[133.289,-25.04],[133.804,-25.213],[134.319,-25.384],[134.837,-25.553],[135.355,-25.72],[135.875,-25.886],[136.397,-26.049],[136.92,-26.211],[137.444,-26.371],[137.97,-26.528],[138.498,-26.684],[139.026,-26.838],[139.557,-26.99],[140.088,-27.14],[140.621,-27.288],[141.156,-27.434],[141.692,-27.578],[142.229,-27.72],[142.768,-27.86],[143.308,-27.998],[143.849,-28.133],[144.392,-28.267],[144.936,-28.398],[145.481,-28.527],[146.028,-28.654],[146.576,-28.779],[147.126,-28.901],[147.676,-29.022],[148.228,-29.14],[148.782,-29.255],[149.336,-29.369],[149.796,-29.662],[150.26,-29.953],[150.725,-30.242],[151.194,-30.53],[151.665,-30.817],[152.139,-31.101],[152.616,-31.384],[153.096,-31.665],[153.579,-31.944],[154.065,-32.221],[154.553,-32.497],[155.045,-32.77],[155.54,-33.042],[156.038,-33.312],[156.538,-33.579],[157.042,-33.845],[157.549,-34.108],[158.059,-34.37],[158.573,-34.629],[159.089,-34.886],[159.609,-35.141],[160.132,-35.394],[160.659,-35.645],[161.188,-35.893],[161.721,-36.139],[162.257,-36.382],[162.797,-36.623],[163.34,-36.862],[163.886,-37.098],[164.436,-37.331],[164.989,-37.562],[165.546,-37.791],[166.106,-38.017],[166.67,-38.24],[166.837,-38.679],[167.007,-39.118],[167.179,-39.557],[167.353,-39.995],[167.53,-40.434],[167.708,-40.872]]}},{"type":"Feature","properties":{"boundary_type":"subduction","feature_type":"gpml:SubductionZone","polarity":"Left","overriding_plate_id":701,"subducting_plate_id":902,"plate_ids":[701,902],"name":"West Gondwana (Panthalassa) subduction zone"},"geometry":{"type":"LineString","coordinates":[[-56.813,-30.758],[-56.997,-31.207],[-57.183,-31.655],[-57.371,-32.102],[-57.561,-32.55],[-57.753,-32.997],[-57.947,-33.444],[-58.207,-33.868],[-58.469,-34.291],[-58.734,-34.714],[-59.002,-35.136],[-59.272,-35.557],[-59.546,-35.978],[-59.822,-36.398],[-60.102,-36.818],[-60.384,-37.237],[-60.67,-37.655],[-60.959,-38.073],[-61.251,-38.49],[-61.546,-38.906],[-61.813,-39.243],[-62.082,-39.58],[-62.354,-39.916],[-62.628,-40.251]]}},{"type":"Feature","properties":{"boundary_type":"subduction","feature_type":"gpml:SubductionZone","polarity":"Left","overriding_plate_id":701,"subducting_plate_id":919,"plate_ids":[701,919],"name":"West Gondwana (Panthalassa) subduction zone"},"geometry":{"type":"LineString","coordinates":[[-62.628,-40.251],[-62.953,-40.643],[-63.281,-41.033],[-63.613,-41.422],[-63.949,-41.811],[-64.289,-42.199],[-64.634,-42.585],[-64.982,-42.97],[-65.335,-43.355],[-65.757,-43.722],[-66.183,-44.089],[-66.614,-44.453],[-67.051,-44.816],[-67.494,-45.177],[-67.942,-45.536],[-68.395,-45.894],[-68.855,-46.25],[-69.321,-46.603],[-69.792,-46.955],[-70.27,-47.306],[-70.755,-47.654],[-71.246,-47.999],[-71.743,-48.343],[-72.205,-48.724],[-72.673,-49.102],[-73.149,-49.479],[-73.632,-49.853],[-74.123,-50.226],[-74.621,-50.596],[-75.128,-50.965],[-75.642,-51.331],[-76.164,-51.695],[-76.696,-52.056],[-77.235,-52.415],[-77.784,-52.772],[-78.341,-53.126],[-78.356,-53.136]]}},{"type":"Feature","properties":{"boundary_type":"subduction","feature_type":"gpml:SubductionZone","polarity":"Left","overriding_plate_id":701,"subducting_plate_id":28800,"plate_ids":[701,28800],"name":"West Gondwana (Panthalassa) subduction zone"},"geometry":{"type":"LineString","coordinates":[[-78.356,-53.136],[-78.86,-53.476],[-79.372,-53.813],[-79.893,-54.149],[-80.422,-54.482],[-80.959,-54.813],[-81.506,-55.142],[-82.061,-55.468],[-82.626,-55.791],[-83.2,-56.112],[-83.783,-56.43],[-83.818,-56.455]]}},{"type":"Feature","properties":{"boundary_type":"subduction","feature_type":"gpml:SubductionZone","polarity":"Left","overriding_plate_id":701,"subducting_plate_id":902,"plate_ids":[701,902],"name":"West Gondwana (Panthalassa) subduction zone"},"geometry":{"type":"LineString","coordinates":[[-49.578,-9.463],[-49.991,-9.689],[-50.405,-9.914],[-50.819,-10.14],[-51.234,-10.364],[-51.649,-10.588],[-52.065,-10.811],[-52.482,-11.034],[-52.899,-11.257],[-53.21,-11.635],[-53.522,-12.013],[-53.834,-12.39],[-54.147,-12.767],[-54.462,-13.144],[-54.777,-13.52],[-55.093,-13.896],[-55.411,-14.272],[-55.729,-14.647],[-55.783,-15.115],[-55.837,-15.584],[-55.891,-16.053],[-55.945,-16.522],[-56.0,-16.991],[-56.055,-17.459],[-56.111,-17.928],[-56.166,-18.397],[-56.222,-18.865],[-56.278,-19.334],[-56.335,-19.803],[-56.392,-20.271],[-56.449,-20.74],[-56.507,-21.208],[-56.551,-21.688],[-56.596,-22.168],[-56.641,-22.648],[-56.686,-23.127],[-56.731,-23.607],[-56.777,-24.087],[-56.824,-24.567],[-56.87,-25.046],[-56.917,-25.526],[-56.965,-26.005],[-57.012,-26.485],[-57.061,-26.965],[-57.109,-27.444],[-57.158,-27.924],[-57.102,-28.396],[-57.045,-28.869],[-56.988,-29.341],[-56.93,-29.814],[-56.872,-30.286],[-56.813,-30.758]]}},{"type":"Feature","properties":{"boundary_type":"subduction","feature_type":"gpml:SubductionZone","polarity":"Left","overriding_plate_id":701,"subducting_plate_id":902,"plate_ids":[701,902],"name":"Mixteca-Oaxacan subduction zone"},"geometry":{"type":"LineString","coordinates":[[-44.784,3.663],[-44.814,3.174],[-44.844,2.684],[-44.874,2.194],[-44.904,1.705],[-44.934,1.215],[-44.964,0.726],[-45.069,0.251],[-45.174,-0.223],[-45.28,-0.698],[-45.385,-1.172],[-45.49,-1.646],[-45.596,-2.121],[-45.701,-2.595],[-45.807,-3.07],[-45.912,-3.544],[-46.018,-4.018],[-46.124,-4.493],[-46.23,-4.967],[-46.336,-5.441],[-46.443,-5.916],[-46.754,-6.271],[-47.066,-6.627],[-47.378,-6.982],[-47.69,-7.337],[-48.004,-7.692],[-48.317,-8.047],[-48.631,-8.401],[-48.946,-8.755],[-49.262,-9.109],[-49.578,-9.463]]}},{"type":"Feature","properties":{"boundary_type":"subduction","feature_type":"gpml:SubductionZone","polarity":"Right","overriding_plate_id":16111,"subducting_plate_id":902,"plate_ids":[902,16111],"name":"Alexander/Wrangellia SZ"},"geometry":{"type":"LineString","coordinates":[[-59.088,44.497],[-59.347,44.953],[-59.61,45.409],[-59.877,45.864],[-60.149,46.318],[-60.425,46.772],[-60.706,47.225],[-60.992,47.677],[-61.282,48.129],[-61.578,48.58],[-61.857,49.013],[-62.141,49.446],[-62.43,49.877],[-62.724,50.309],[-63.023,50.739],[-63.328,51.168],[-63.638,51.597],[-63.955,52.025],[-64.278,52.452],[-64.607,52.878],[-64.942,53.304],[-65.284,53.728],[-65.549,54.174],[-65.82,54.62],[-66.096,55.065],[-66.379,55.51],[-66.668,55.954],[-66.964,56.397],[-67.267,56.84],[-67.577,57.281],[-67.894,57.722],[-68.22,58.163],[-68.266,58.643],[-68.314,59.123],[-68.363,59.603],[-68.414,60.083],[-68.466,60.563],[-68.52,61.043],[-68.568,61.465],[-68.618,61.887],[-68.669,62.309],[-68.722,62.731],[-68.646,63.181],[-68.568,63.63],[-68.487,64.08],[-68.403,64.529],[-68.317,64.979],[-67.6,65.354],[-66.862,65.726],[-66.103,66.094],[-65.321,66.458],[-64.516,66.819],[-63.688,67.175],[-62.835,67.526],[-61.956,67.873],[-61.051,68.216],[-60.119,68.553],[-58.934,68.776],[-57.726,68.99],[-56.495,69.196],[-55.24,69.393],[-53.963,69.58],[-52.664,69.759],[-51.344,69.927],[-49.959,70.014],[-48.564,70.09],[-47.16,70.155],[-45.747,70.209],[-44.327,70.252],[-42.903,70.284],[-41.475,70.304],[-40.044,70.313],[-38.614,70.311],[-37.184,70.297],[-35.757,70.272],[-34.335,70.236],[-32.918,70.189],[-31.508,70.13]]}},{"type":"Feature","properties":{"boundary_type":"subduction","feature_type":"gpml:SubductionZone","polarity":"Right","overriding_plate_id":701,"subducting_plate_id":902,"plate_ids":[701,902],"name":"Alexander/Wrangellia SZ"},"geometry":{"type":"LineString","coordinates":[[-31.508,70.13],[-30.761,70.095],[-30.016,70.056]]}},{"type":"Feature","properties":{"boundary_type":"subduction","feature_type":"gpml:SubductionZone","polarity":"Right","overriding_plate_id":701,"subducting_plate_id":919,"plate_ids":[701,919],"name":"SZ outboard of Zealandia"},"geometry":{"type":"LineString","coordinates":[[-154.616,-60.477],[-153.711,-60.535],[-152.804,-60.588],[-151.894,-60.634],[-150.981,-60.674],[-150.066,-60.707],[-149.17,-60.847],[-148.267,-60.98],[-147.355,-61.108],[-146.437,-61.229],[-145.511,-61.344],[-144.579,-61.453],[-143.662,-61.598],[-142.736,-61.737],[-141.801,-61.87],[-140.859,-61.997],[-139.909,-62.116],[-138.952,-62.23],[-137.988,-62.336],[-137.017,-62.436],[-136.04,-62.529],[-135.159,-62.8],[-134.263,-63.064],[-133.35,-63.323],[-132.42,-63.576],[-131.474,-63.822],[-130.512,-64.063],[-129.533,-64.297],[-128.537,-64.524],[-127.526,-64.744],[-126.497,-64.958],[-125.453,-65.164],[-124.392,-65.363],[-123.316,-65.554],[-122.224,-65.738],[-121.116,-65.914],[-119.994,-66.081],[-118.857,-66.241],[-117.706,-66.392],[-116.542,-66.534],[-116.407,-66.542]]}},{"type":"Feature","properties":{"boundary_type":"subduction","feature_type":"gpml:SubductionZone","polarity":"Right","overriding_plate_id":701,"subducting_plate_id":28800,"plate_ids":[701,28800],"name":"SZ outboard of Zealandia"},"geometry":{"type":"LineString","coordinates":[[-116.407,-66.542],[-115.265,-66.604],[-114.119,-66.657],[-112.967,-66.702],[-111.812,-66.739],[-110.654,-66.767],[-109.493,-66.787],[-108.331,-66.798],[-107.169,-66.801],[-106.006,-66.795],[-104.845,-66.781],[-103.685,-66.758],[-102.639,-66.584],[-101.609,-66.403],[-100.593,-66.215],[-99.593,-66.021],[-98.608,-65.82]]}},{"type":"Feature","properties":{"boundary_type":"transform","feature_type":"gpml:Transform","polarity":null,"overriding_plate_id":null,"subducting_plate_id":null,"plate_ids":[430,902],"name":"Mongol Okhotsk Panthalassa transform"},"geometry":{"type":"LineString","coordinates":[[-166.719,51.658],[-166.294,52.084],[-165.86,52.508],[-165.418,52.93],[-164.967,53.351],[-164.508,53.769],[-164.039,54.186],[-163.56,54.602],[-163.072,55.015],[-162.574,55.426],[-162.16,55.857],[-161.737,56.287],[-161.304,56.716],[-160.861,57.143],[-160.408,57.568],[-159.945,57.992],[-159.47,58.414],[-158.984,58.834],[-158.486,59.252],[-157.975,59.668],[-157.452,60.083],[-156.915,60.495],[-156.365,60.905],[-155.8,61.313],[-155.221,61.718],[-154.703,62.081],[-154.173,62.442],[-153.631,62.802],[-153.074,63.159]]}},{"type":"Feature","properties":{"boundary_type":"transform","feature_type":"gpml:Transform","polarity":null,"overriding_plate_id":null,"subducting_plate_id":null,"plate_ids":[902,9010],"name":"Mongol Okhotsk Panthalassa transform"},"geometry":{"type":"LineString","coordinates":[[-153.074,63.159],[-152.49,63.522],[-151.891,63.883],[-151.276,64.242],[-150.646,64.598],[-149.998,64.951],[-149.334,65.301],[-148.651,65.648],[-147.964,66.039],[-147.256,66.426],[-146.525,66.809],[-145.772,67.189],[-144.994,67.566],[-144.192,67.939],[-143.363,68.307],[-142.508,68.672],[-141.624,69.032],[-140.711,69.387],[-139.767,69.737],[-138.792,70.082],[-137.785,70.422],[-136.743,70.756],[-135.839,71.157],[-134.897,71.553],[-133.915,71.945],[-132.891,72.332],[-131.824,72.713],[-130.71,73.088],[-129.547,73.457],[-128.334,73.819],[-127.067,74.174],[-125.744,74.522],[-124.363,74.861],[-122.92,75.191],[-121.704,75.581],[-120.423,75.965],[-119.071,76.342],[-117.646,76.711],[-116.141,77.072],[-114.552,77.423],[-112.875,77.765],[-111.104,78.096],[-109.236,78.415],[-107.265,78.722],[-105.188,79.015],[-103.002,79.293],[-100.919,79.536],[-98.742,79.766],[-96.469,79.98]]}},{"type":"Feature","properties":{"boundary_type":"transform","feature_type":"gpml:Transform","polarity":null,"overriding_plate_id":null,"subducting_plate_id":null,"plate_ids":[902,9009],"name":"Mongol Okhotsk Panthalassa transform"},"geometry":{"type":"LineString","coordinates":[[-96.469,79.98],[-93.86,80.196],[-91.141,80.392],[-88.316,80.566],[-85.393,80.717],[-82.383,80.843],[-79.298,80.943],[-76.153,81.017],[-72.966,81.065],[-69.756,81.084],[-66.541,81.076],[-63.341,81.041],[-60.176,80.978],[-57.063,80.889],[-54.164,80.732],[-51.368,80.552],[-48.681,80.351],[-46.108,80.131],[-43.651,79.891],[-41.31,79.634],[-39.085,79.361],[-36.972,79.074],[-34.97,78.772],[-33.073,78.458],[-31.3,78.177],[-29.61,77.887],[-27.999,77.586],[-26.464,77.277],[-25.002,76.959],[-23.609,76.633],[-22.282,76.3],[-21.018,75.96],[-19.737,75.651],[-18.509,75.336],[-17.332,75.014],[-16.204,74.686],[-15.123,74.354]]}},{"type":"Feature","properties":{"boundary_type":"transform","feature_type":"gpml:Transform","polarity":null,"overriding_plate_id":null,"subducting_plate_id":null,"plate_ids":[701,902],"name":"Transform at northern margin of Alexander plate"},"geometry":{"type":"LineString","coordinates":[[-30.54,70.134],[-30.016,70.056]]}},{"type":"Feature","properties":{"boundary_type":"transform","feature_type":"gpml:Transform","polarity":null,"overriding_plate_id":null,"subducting_plate_id":null,"plate_ids":[460,701],"name":"transform"},"geometry":{"type":"LineString","coordinates":[[49.554,28.265],[49.801,28.313],[50.271,28.295],[50.741,28.275],[51.212,28.254],[51.681,28.231],[52.109,28.091],[52.535,27.949],[52.96,27.806],[53.383,27.662],[53.863,27.499],[54.342,27.335],[54.82,27.169],[55.296,27.002],[55.77,26.833],[56.243,26.663],[56.715,26.491],[57.185,26.317],[57.654,26.142],[58.037,26.153]]}},{"type":"Feature","properties":{"boundary_type":"transform","feature_type":"gpml:Transform","polarity":null,"overriding_plate_id":null,"subducting_plate_id":null,"plate_ids":[701,9006],"name":"transform"},"geometry":{"type":"LineString","coordinates":[[58.037,26.153],[58.397,26.162]]}},{"type":"Feature","properties":{"boundary_type":"subduction","feature_type":"gpml:SubductionZone","polarity":"Right","overriding_plate_id":701,"subducting_plate_id":9009,"plate_ids":[701,9009],"name":""},"geometry":{"type":"LineString","coordinates":[[65.906,63.288],[66.128,62.855],[66.342,62.421],[66.551,61.988],[66.753,61.553],[66.951,61.119],[67.142,60.684],[67.329,60.249],[67.259,59.753],[67.192,59.257],[67.126,58.761],[67.062,58.265],[67.0,57.769],[66.94,57.273],[66.881,56.777],[66.824,56.281],[66.768,55.785],[66.422,55.35],[66.084,54.915],[65.752,54.479],[65.428,54.042],[65.111,53.604],[64.8,53.165],[64.495,52.726],[64.197,52.285],[63.778,51.96]]}},{"type":"Feature","properties":{"boundary_type":"subduction","feature_type":"gpml:SubductionZone","polarity":"Right","overriding_plate_id":701,"subducting_plate_id":580,"plate_ids":[580,701],"name":""},"geometry":{"type":"LineString","coordinates":[[63.778,51.96],[63.359,51.628],[62.946,51.294],[62.539,50.959],[62.138,50.623],[61.743,50.285],[61.296,49.945],[60.854,49.604],[60.419,49.26],[59.99,48.916],[59.567,48.569]]}},{"type":"Feature","properties":{"boundary_type":"subduction","feature_type":"gpml:SubductionZone","polarity":"Right","overriding_plate_id":701,"subducting_plate_id":460,"plate_ids":[460,701],"name":""},"geometry":{"type":"LineString","coordinates":[[59.567,48.569],[59.252,48.307],[58.94,48.044],[58.632,47.781],[58.263,47.557]]}},{"type":"Feature","properties":{"boundary_type":"subduction","feature_type":"gpml:SubductionZone","polarity":"Left","overriding_plate_id":701,"subducting_plate_id":9006,"plate_ids":[701,9006],"name":"Turan subduction zone"},"geometry":{"type":"LineString","coordinates":[[45.603,13.976],[45.887,14.346],[46.172,14.715],[46.458,15.083],[46.744,15.452],[47.032,15.82],[47.321,16.187],[47.611,16.554],[47.902,16.921],[48.194,17.287],[48.487,17.653],[48.807,18.005],[49.129,18.356],[49.451,18.706],[49.775,19.056],[50.101,19.405],[50.428,19.754],[50.756,20.102],[51.085,20.449],[51.417,20.796],[51.749,21.142],[52.083,21.488],[52.419,21.832],[52.805,22.119],[53.193,22.406],[53.582,22.691],[53.973,22.975],[54.365,23.258],[54.76,23.541],[55.155,23.822],[55.553,24.102],[55.952,24.382],[56.353,24.66],[56.758,24.962],[57.165,25.264],[57.574,25.565],[57.984,25.864],[58.397,26.162]]}},{"type":"Feature","properties":{"boundary_type":"subduction","feature_type":"gpml:SubductionZone","polarity":"Right","overriding_plate_id":28800,"subducting_plate_id":919,"plate_ids":[919,28800],"name":"West Gondwana SZ"},"geometry":{"type":"LineString","coordinates":[[-116.407,-66.542],[-115.722,-66.151],[-115.059,-65.758],[-114.415,-65.361],[-113.79,-64.963],[-113.184,-64.561],[-112.596,-64.157],[-112.024,-63.751],[-111.469,-63.343],[-110.929,-62.932],[-110.405,-62.52],[-109.813,-62.11],[-109.237,-61.697],[-108.677,-61.282],[-108.131,-60.865],[-107.599,-60.445],[-107.081,-60.024],[-106.576,-59.6],[-106.083,-59.175],[-105.603,-58.748],[-105.134,-58.319],[-104.677,-57.888],[-104.23,-57.456],[-103.794,-57.022],[-103.368,-56.587],[-102.723,-56.256],[-102.089,-55.921],[-101.467,-55.583],[-100.854,-55.242],[-100.253,-54.898],[-99.661,-54.552],[-99.08,-54.202],[-98.508,-53.85],[-97.946,-53.494],[-97.393,-53.137],[-96.85,-52.777],[-96.315,-52.414],[-95.789,-52.049],[-95.272,-51.682],[-94.763,-51.312],[-94.262,-50.94],[-93.77,-50.567],[-93.027,-50.573],[-92.285,-50.575],[-91.543,-50.572],[-90.801,-50.564],[-90.059,-50.552],[-89.318,-50.535],[-88.577,-50.513],[-87.837,-50.487],[-87.098,-50.456],[-86.36,-50.42],[-85.623,-50.379],[-84.888,-50.334],[-84.601,-50.393]]}},{"type":"Feature","properties":{"boundary_type":"subduction","feature_type":"gpml:SubductionZone","polarity":"Left","overriding_plate_id":701,"subducting_plate_id":28800,"plate_ids":[701,28800],"name":"Orogenic belt to attach Patagonia to SAM"},"geometry":{"type":"LineString","coordinates":[[-83.818,-56.455],[-83.529,-56.772],[-83.236,-57.088],[-82.937,-57.403],[-82.412,-57.814],[-81.875,-58.223],[-81.326,-58.63],[-80.764,-59.035],[-80.188,-59.437],[-79.599,-59.836],[-79.593,-60.312],[-79.588,-60.787],[-79.582,-61.262],[-79.576,-61.738],[-79.987,-62.155],[-80.41,-62.571],[-80.845,-62.985],[-81.293,-63.398],[-81.753,-63.81],[-82.228,-64.22],[-83.113,-64.509],[-84.017,-64.793],[-84.941,-65.071],[-85.883,-65.343],[-86.845,-65.61],[-87.827,-65.87],[-89.023,-65.902],[-90.221,-65.924],[-91.422,-65.937],[-92.623,-65.941],[-93.823,-65.936],[-95.023,-65.921],[-96.221,-65.896],[-97.417,-65.863],[-98.608,-65.82]]}},{"type":"Feature","properties":{"boundary_type":"transform","feature_type":"gpml:Transform","polarity":null,"overriding_plate_id":null,"subducting_plate_id":null,"plate_ids":[604,9006],"name":"Annamia Transform"},"geometry":{"type":"LineString","coordinates":[[81.087,-19.388],[81.052,-18.986],[81.017,-18.584],[80.982,-18.181],[80.947,-17.779],[80.913,-17.377],[80.807,-16.911],[80.701,-16.445],[80.596,-15.979],[80.491,-15.513],[80.387,-15.047],[80.283,-14.581],[80.178,-14.11],[80.072,-13.638],[79.968,-13.166],[79.863,-12.694],[79.759,-12.223],[79.656,-11.751],[79.552,-11.279],[79.449,-10.807],[79.347,-10.335],[79.244,-9.863],[79.142,-9.391],[79.041,-8.919],[78.851,-8.458],[78.661,-7.997],[78.472,-7.535],[78.283,-7.074],[78.095,-6.613],[77.907,-6.151],[77.719,-5.689],[77.532,-5.228],[77.345,-4.766],[77.158,-4.304],[76.918,-3.883],[76.679,-3.462],[76.44,-3.04],[76.201,-2.619],[75.962,-2.198],[75.724,-1.776],[75.485,-1.355],[75.274,-0.919],[75.062,-0.482],[74.851,-0.046],[74.639,0.39],[74.427,0.826],[74.216,1.262],[73.923,1.615],[73.63,1.967],[73.336,2.32],[73.043,2.672],[72.75,3.025],[72.456,3.377],[72.162,3.729],[71.868,4.081],[71.573,4.433],[71.279,4.785],[70.984,5.137],[70.723,5.482],[70.462,5.828],[70.201,6.173],[69.939,6.518],[69.677,6.863],[69.415,7.208],[69.152,7.553],[69.054,8.037],[68.956,8.522],[68.858,9.006],[68.759,9.491],[68.66,9.975],[68.561,10.459],[68.669,10.926],[68.777,11.394],[68.885,11.861],[68.994,12.328],[69.103,12.795],[69.212,13.262],[69.322,13.729],[69.432,14.196],[69.543,14.663],[69.647,15.128],[69.751,15.593],[69.856,16.058],[69.962,16.523],[70.067,16.988],[70.174,17.452],[70.281,17.917],[70.322,18.414],[70.364,18.911],[70.406,19.407],[70.449,19.904],[70.491,20.401],[70.534,20.898],[70.577,21.394],[70.648,21.809],[70.72,22.223]]}},{"type":"Feature","properties":{"boundary_type":"transform","feature_type":"gpml:Transform","polarity":null,"overriding_plate_id":null,"subducting_plate_id":null,"plate_ids":[9006,9013],"name":"Annamia Transform"},"geometry":{"type":"LineString","coordinates":[[70.72,22.223],[70.784,22.598],[70.85,22.972],[70.915,23.347],[71.06,23.612],[71.205,23.877]]}},{"type":"Feature","properties":{"boundary_type":"transform","feature_type":"gpml:Transform","polarity":null,"overriding_plate_id":null,"subducting_plate_id":null,"plate_ids":[580,9013],"name":"Annamia Transform"},"geometry":{"type":"LineString","coordinates":[[71.205,23.877],[71.41,24.248],[71.617,24.618],[71.824,24.989],[71.948,25.311],[72.072,25.634],[72.197,25.957],[72.249,26.076]]}},{"type":"Feature","properties":{"boundary_type":"ridge","feature_type":"gpml:MidOceanRidge","polarity":null,"overriding_plate_id":null,"subducting_plate_id":null,"plate_ids":[602,701],"name":"S.China-Gondwana MOR"},"geometry":{"type":"LineString","coordinates":[[118.788,-15.344],[118.444,-15.386],[118.1,-15.428],[118.23,-15.903],[118.361,-16.379],[118.492,-16.854],[118.624,-17.329],[118.757,-17.804],[118.89,-18.279],[119.024,-18.754],[119.159,-19.229],[119.295,-19.704],[119.431,-20.178],[119.569,-20.653],[119.108,-20.81],[118.646,-20.966],[118.183,-21.12],[117.719,-21.274],[117.255,-21.426],[116.789,-21.577],[116.322,-21.726],[115.855,-21.874],[115.386,-22.021],[114.917,-22.167],[114.446,-22.311],[114.334,-21.908],[114.222,-21.506],[114.111,-21.103],[114.0,-20.7],[113.89,-20.297],[113.409,-20.433],[112.928,-20.568],[112.445,-20.702],[111.962,-20.834],[111.478,-20.965],[110.993,-21.094],[110.507,-21.222],[110.02,-21.349],[109.533,-21.474],[109.044,-21.598],[108.555,-21.721],[108.065,-21.842],[107.574,-21.961],[107.082,-22.079],[106.59,-22.196],[106.097,-22.311],[105.602,-22.425],[105.675,-22.886],[105.749,-23.347],[105.822,-23.808],[105.325,-23.839],[104.828,-23.87],[104.33,-23.898],[103.832,-23.925],[103.334,-23.951],[102.836,-23.974],[102.338,-23.997],[101.839,-24.017],[101.34,-24.036],[100.841,-24.054],[100.342,-24.069],[100.231,-23.625],[100.12,-23.181],[100.01,-22.737]]}},{"type":"Feature","properties":{"boundary_type":"ridge","feature_type":"gpml:MidOceanRidge","polarity":null,"overriding_plate_id":null,"subducting_plate_id":null,"plate_ids":[701,16104],"name":"Slide Mountain Ocean MOR"},"geometry":{"type":"LineString","coordinates":[[-35.733,46.197],[-35.863,45.778],[-35.991,45.359],[-36.117,44.94],[-36.218,44.455],[-36.317,43.97],[-36.415,43.485],[-36.512,43.0],[-36.607,42.515],[-36.7,42.029],[-36.758,41.606],[-36.814,41.183],[-36.87,40.76],[-36.926,40.337],[-36.317,40.235],[-35.71,40.13],[-35.105,40.021],[-34.502,39.91],[-33.901,39.796],[-34.018,39.323],[-34.133,38.851],[-34.246,38.379],[-34.358,37.906],[-34.469,37.434],[-34.578,36.961],[-34.686,36.488],[-34.792,36.015],[-34.898,35.542],[-35.002,35.069],[-35.105,34.596],[-35.206,34.123],[-35.307,33.649],[-34.771,33.499],[-34.237,33.346],[-34.415,32.871],[-34.59,32.396],[-34.764,31.92],[-34.936,31.445],[-35.106,30.969],[-35.274,30.492],[-35.441,30.016],[-35.606,29.539],[-35.77,29.063],[-35.932,28.586],[-36.093,28.108],[-36.252,27.631],[-36.41,27.153],[-36.567,26.676],[-36.722,26.198],[-36.876,25.72],[-37.029,25.241],[-37.18,24.763],[-37.331,24.284],[-37.48,23.806],[-37.628,23.327],[-37.775,22.848],[-37.921,22.369],[-38.066,21.89],[-38.21,21.41],[-38.639,21.584],[-39.069,21.757],[-38.665,21.572]]}},{"type":"Feature","properties":{"boundary_type":"ridge","feature_type":"gpml:MidOceanRidge","polarity":null,"overriding_plate_id":null,"subducting_plate_id":null,"plate_ids":[701,16104],"name":"Slide Mountain Ocean MOR"},"geometry":{"type":"LineString","coordinates":[[-38.665,21.572],[-38.262,21.385],[-38.737,21.477],[-39.213,21.568],[-39.688,21.657],[-40.165,21.745],[-40.369,21.324],[-40.571,20.904],[-40.772,20.484],[-40.973,20.063],[-41.172,19.642],[-41.37,19.221],[-41.567,18.799],[-41.949,18.979],[-42.332,19.157],[-42.715,19.335],[-43.099,19.512],[-43.501,19.667],[-43.903,19.82],[-44.306,19.973],[-44.71,20.125],[-45.114,20.276],[-45.223,19.801],[-45.331,19.326],[-45.439,18.852],[-45.546,18.377],[-45.652,17.902],[-45.758,17.427],[-45.863,16.951],[-45.968,16.476],[-46.072,16.001],[-46.175,15.526],[-46.499,15.634],[-46.823,15.743],[-46.897,15.277],[-46.971,14.812],[-47.044,14.346],[-47.117,13.881],[-47.19,13.416],[-47.263,12.95],[-47.335,12.485],[-47.407,12.019],[-47.479,11.554],[-47.55,11.088],[-47.621,10.623],[-47.692,10.157],[-47.763,9.692],[-47.834,9.226],[-47.904,8.761],[-47.974,8.295],[-48.045,7.829],[-48.208,7.378],[-48.37,6.927],[-48.532,6.476],[-48.694,6.025]]}},{"type":"Feature","properties":{"boundary_type":"subduction","feature_type":"gpml:SubductionZone","polarity":"Left","overriding_plate_id":null,"subducting_plate_id":null,"plate_ids":[926,9014,9014],"name":"North China-Beishan SZ"},"geometry":{"type":"LineString","coordinates":[[155.02,30.406],[154.57,30.633],[154.117,30.859],[153.663,31.083],[153.206,31.305],[152.747,31.526],[152.257,31.723],[151.766,31.919],[151.273,32.113],[150.777,32.305],[150.279,32.495],[149.78,32.683],[149.278,32.869],[148.705,32.996]]}},{"type":"Feature","properties":{"boundary_type":"subduction","feature_type":"gpml:SubductionZone","polarity":"Left","overriding_plate_id":601,"subducting_plate_id":9014,"plate_ids":[601,9014],"name":"North China-Beishan SZ"},"geometry":{"type":"LineString","coordinates":[[148.705,32.996],[148.208,33.105],[147.709,33.211],[147.209,33.315],[146.708,33.418],[146.205,33.518],[145.702,33.617],[145.197,33.713],[144.655,33.674],[144.112,33.633],[143.571,33.59],[143.029,33.544],[142.489,33.496],[141.949,33.446],[141.409,33.393],[140.871,33.338],[140.333,33.28],[139.815,33.314],[139.297,33.345],[138.779,33.375],[138.26,33.402],[137.741,33.427],[137.222,33.45],[136.702,33.47],[136.133,33.519],[135.564,33.566],[134.994,33.609],[134.423,33.65],[133.852,33.689],[133.28,33.724],[132.708,33.758],[132.135,33.788],[131.562,33.816],[130.989,33.841],[130.416,33.864],[129.842,33.884],[129.267,33.901],[128.693,33.916]]}},{"type":"Feature","properties":{"boundary_type":"ridge","feature_type":"gpml:MidOceanRidge","polarity":null,"overriding_plate_id":null,"subducting_plate_id":null,"plate_ids":[701,16111],"name":"Alexander-Baltica (Pangea) MOR"},"geometry":{"type":"LineString","coordinates":[[-31.508,70.13],[-31.605,69.674],[-31.698,69.217],[-31.787,68.761],[-31.872,68.304],[-31.954,67.847],[-32.033,67.39],[-32.109,66.934],[-33.293,66.929],[-34.477,66.916],[-34.63,66.431],[-34.777,65.945],[-34.918,65.46],[-35.055,64.974],[-35.186,64.488],[-35.313,64.002],[-35.435,63.516],[-35.554,63.03],[-35.668,62.544],[-35.779,62.058],[-35.887,61.571],[-35.991,61.085],[-36.778,61.108],[-37.565,61.126],[-37.432,60.64],[-37.303,60.155],[-37.178,59.669],[-37.056,59.183],[-36.938,58.697],[-36.822,58.212],[-36.71,57.725],[-36.601,57.239],[-36.495,56.753],[-36.392,56.267],[-36.291,55.78],[-36.192,55.294],[-36.099,54.819],[-36.007,54.344],[-35.918,53.87],[-35.831,53.395],[-35.745,52.92],[-35.662,52.445],[-35.58,51.97],[-35.5,51.495],[-35.422,51.02],[-35.345,50.545],[-35.27,50.069],[-35.196,49.594],[-35.124,49.119],[-35.053,48.643],[-34.983,48.168],[-35.068,47.675],[-35.152,47.183],[-35.234,46.69],[-35.219,46.429],[-35.204,46.169]]}},{"type":"Feature","properties":{"boundary_type":"subduction","feature_type":"gpml:SubductionZone","polarity":"Right","overriding_plate_id":902,"subducting_plate_id":926,"plate_ids":[902,926],"name":"Nuhetdavaa-Enshoo (Uliastai) sz"},"geometry":{"type":"LineString","coordinates":[[-161.952,51.56],[-162.745,51.59],[-163.538,51.614],[-164.333,51.633],[-165.128,51.647],[-165.924,51.655],[-166.719,51.658]]}},{"type":"Feature","properties":{"boundary_type":"subduction","feature_type":"gpml:SubductionZone","polarity":"Right","overriding_plate_id":430,"subducting_plate_id":926,"plate_ids":[430,926],"name":"Nuhetdavaa-Enshoo (Uliastai) sz"},"geometry":{"type":"LineString","coordinates":[[-166.719,51.658],[-166.737,51.658],[-167.478,51.704],[-168.22,51.745],[-168.964,51.781],[-169.709,51.813],[-170.455,51.839],[-171.201,51.861],[-171.948,51.879],[-172.696,51.891],[-173.444,51.899],[-174.192,51.902],[-174.941,51.901],[-175.689,51.894],[-176.448,51.925],[-177.208,51.951],[-177.969,51.972],[-178.73,51.988],[-179.492,51.999],[179.745,52.006],[178.983,52.007],[178.22,52.004],[177.458,51.995],[176.696,51.982],[175.935,51.963],[175.175,51.94],[174.41,51.929]]}},{"type":"Feature","properties":{"boundary_type":"subduction","feature_type":"gpml:SubductionZone","polarity":"Right","overriding_plate_id":430,"subducting_plate_id":9014,"plate_ids":[430,9014],"name":"Nuhetdavaa-Enshoo (Uliastai) sz"},"geometry":{"type":"LineString","coordinates":[[174.41,51.929],[173.637,51.914],[172.866,51.893],[172.095,51.867],[171.325,51.836],[170.557,51.8],[169.789,51.76],[169.023,51.714],[168.259,51.663],[167.496,51.607],[166.736,51.546],[165.978,51.481],[165.207,51.481],[164.437,51.475],[163.668,51.465],[162.898,51.45],[162.13,51.429],[161.362,51.404],[160.595,51.373],[159.829,51.338],[159.064,51.298],[158.301,51.252],[157.54,51.202],[156.78,51.147],[156.022,51.086],[155.266,51.021],[154.512,50.951],[153.767,50.878],[153.024,50.801],[152.284,50.719],[151.546,50.632],[150.812,50.54],[150.08,50.444],[149.351,50.343],[148.625,50.238],[147.903,50.128],[147.184,50.013],[146.423,49.964],[145.663,49.909],[144.906,49.849],[144.15,49.785],[143.396,49.716]]}},{"type":"Feature","properties":{"boundary_type":"subduction","feature_type":"gpml:SubductionZone","polarity":"Right","overriding_plate_id":430,"subducting_plate_id":9013,"plate_ids":[430,9013],"name":"Nuhetdavaa-Enshoo (Uliastai) sz"},"geometry":{"type":"LineString","coordinates":[[143.396,49.716],[142.663,49.643],[141.932,49.566],[141.217,49.548],[140.502,49.525],[139.788,49.498],[139.075,49.467],[138.363,49.431],[137.652,49.391],[136.942,49.347],[136.234,49.298],[135.527,49.245],[134.822,49.188],[134.118,49.126],[133.416,49.06],[132.716,48.99],[131.996,48.853],[131.279,48.713],[130.567,48.567],[129.859,48.418],[129.154,48.264],[128.455,48.105],[127.759,47.943],[127.068,47.776],[126.382,47.606],[125.699,47.431],[125.022,47.252],[124.349,47.069],[123.681,46.883],[122.973,46.927],[122.265,46.967],[121.555,47.003],[120.845,47.034],[120.133,47.061],[119.421,47.083],[118.709,47.101],[117.996,47.115],[117.283,47.124],[116.57,47.129],[115.856,47.129],[115.143,47.125],[114.429,47.116],[113.717,47.103],[113.004,47.086],[112.292,47.064],[111.581,47.038],[110.87,47.007],[110.16,46.972],[109.452,46.933],[108.744,46.889],[108.037,46.841],[107.332,46.789],[106.629,46.732],[105.926,46.671],[105.226,46.605],[104.548,46.506],[103.873,46.402],[103.2,46.294],[102.53,46.183],[101.862,46.067],[101.198,45.948],[100.536,45.825],[99.877,45.698],[99.222,45.567],[98.569,45.433],[97.92,45.295],[97.274,45.153],[96.631,45.007],[95.991,44.858],[95.355,44.706],[94.722,44.55],[94.092,44.39],[93.466,44.227],[92.843,44.061],[92.224,43.891]]}},{"type":"Feature","properties":{"boundary_type":"ridge","feature_type":"gpml:MidOceanRidge","polarity":null,"overriding_plate_id":null,"subducting_plate_id":null,"plate_ids":[919,926],"name":"Izanagi-Farallon MOR"},"geometry":{"type":"LineString","coordinates":[[-148.461,4.632],[-148.547,5.062],[-148.633,5.493],[-148.72,5.924],[-148.806,6.355],[-148.892,6.786],[-148.979,7.216]]}},{"type":"Feature","properties":{"boundary_type":"ridge","feature_type":"gpml:MidOceanRidge","polarity":null,"overriding_plate_id":null,"subducting_plate_id":null,"plate_ids":[902,926],"name":"Izanagi-Farallon MOR"},"geometry":{"type":"LineString","coordinates":[[-148.979,7.216],[-149.076,7.698],[-149.173,8.179],[-149.271,8.66],[-149.368,9.142],[-149.466,9.623],[-149.564,10.104],[-149.663,10.585],[-149.762,11.066],[-149.861,11.547],[-149.961,12.029],[-150.06,12.51],[-150.161,12.991],[-150.261,13.472],[-150.362,13.953],[-150.464,14.434],[-150.566,14.914],[-150.668,15.395],[-150.771,15.876],[-150.874,16.357],[-150.978,16.837],[-151.082,17.318],[-151.187,17.799],[-151.293,18.279],[-151.399,18.76],[-151.506,19.24],[-151.613,19.72],[-151.721,20.201],[-151.829,20.681],[-151.939,21.161],[-152.049,21.641],[-152.159,22.121],[-152.271,22.601],[-152.383,23.081],[-152.496,23.56],[-151.977,23.538],[-151.458,23.514],[-150.939,23.489],[-150.421,23.461],[-149.902,23.432],[-149.384,23.401],[-148.866,23.369],[-148.945,23.854],[-149.025,24.34],[-149.106,24.825],[-149.187,25.311],[-149.269,25.796],[-149.351,26.281],[-149.434,26.767],[-149.518,27.252],[-149.603,27.737],[-149.688,28.222],[-149.774,28.707],[-149.861,29.192],[-149.949,29.677],[-150.037,30.162],[-150.127,30.647],[-150.217,31.131],[-150.308,31.616],[-150.401,32.101],[-150.494,32.585],[-150.588,33.07],[-150.684,33.554],[-150.78,34.038],[-150.877,34.523],[-150.976,35.007],[-151.076,35.491],[-151.177,35.975],[-151.279,36.459],[-151.383,36.943],[-151.487,37.426],[-151.594,37.91],[-151.701,38.394],[-151.81,38.877],[-151.921,39.36],[-152.033,39.844],[-152.147,40.327],[-152.262,40.81],[-152.379,41.293],[-152.498,41.776],[-152.619,42.258],[-152.741,42.741],[-153.346,42.696],[-153.95,42.648],[-154.554,42.596],[-155.156,42.542],[-155.757,42.484],[-156.357,42.424],[-156.956,42.36],[-157.554,42.293],[-158.15,42.223],[-158.311,42.692],[-158.475,43.162],[-158.642,43.631],[-158.811,44.1],[-158.983,44.568],[-159.157,45.037],[-159.335,45.505],[-159.515,45.972],[-159.698,46.44],[-159.885,46.907],[-160.075,47.374],[-160.268,47.84],[-160.465,48.307],[-160.666,48.773],[-160.87,49.238],[-161.078,49.703],[-161.29,50.168],[-161.506,50.632],[-161.727,51.096],[-161.952,51.56]]}},{"type":"Feature","properties":{"boundary_type":"ridge","feature_type":"gpml:MidOceanRidge","polarity":null,"overriding_plate_id":null,"subducting_plate_id":null,"plate_ids":[902,919],"name":"Phoenix-Farallon MOR"},"geometry":{"type":"LineString","coordinates":[[-148.979,7.216],[-148.542,6.984],[-148.106,6.752],[-147.697,6.478],[-147.289,6.204],[-146.882,5.93],[-146.475,5.655],[-146.068,5.38],[-145.662,5.104],[-145.256,4.829],[-144.85,4.553],[-144.445,4.277],[-144.04,4.0],[-143.635,3.724],[-143.231,3.447],[-142.827,3.17],[-142.423,2.893],[-142.019,2.616],[-141.615,2.339],[-141.212,2.061],[-140.808,1.784],[-140.405,1.506],[-140.002,1.228],[-139.599,0.951],[-139.196,0.673],[-138.793,0.395],[-138.39,0.117],[-137.987,-0.161],[-137.584,-0.439],[-137.181,-0.716],[-136.778,-0.994],[-136.375,-1.272],[-136.699,-1.609],[-137.023,-1.945],[-137.347,-2.281],[-137.671,-2.618],[-137.995,-2.954],[-138.32,-3.29],[-138.645,-3.626],[-138.97,-3.962],[-138.578,-4.266],[-138.185,-4.569],[-137.793,-4.872],[-137.4,-5.175],[-137.006,-5.478],[-136.612,-5.78],[-136.218,-6.082],[-135.824,-6.384],[-135.428,-6.685],[-135.033,-6.986],[-134.637,-7.287],[-134.24,-7.588],[-133.843,-7.888],[-133.445,-8.188],[-133.047,-8.487],[-132.648,-8.786],[-132.248,-9.085],[-131.848,-9.383],[-131.447,-9.68],[-131.045,-9.977],[-130.643,-10.274],[-130.239,-10.57],[-129.835,-10.866],[-129.431,-11.161],[-129.025,-11.456],[-128.619,-11.75],[-128.211,-12.043],[-127.803,-12.336],[-127.394,-12.629],[-126.984,-12.92],[-126.573,-13.211],[-126.161,-13.502],[-125.748,-13.791],[-125.334,-14.08],[-124.919,-14.369],[-124.503,-14.656],[-124.085,-14.943],[-123.667,-15.229],[-123.248,-15.514],[-122.827,-15.799],[-122.405,-16.083],[-121.982,-16.365],[-121.558,-16.647],[-121.132,-16.929],[-120.706,-17.209],[-120.278,-17.488],[-119.848,-17.767],[-119.417,-18.044],[-118.985,-18.321],[-118.552,-18.596],[-118.117,-18.871],[-117.681,-19.144],[-117.243,-19.417],[-116.804,-19.688],[-116.363,-19.959],[-115.921,-20.228],[-115.477,-20.496],[-115.032,-20.763],[-114.585,-21.029],[-114.137,-21.294],[-113.687,-21.558],[-113.235,-21.82],[-112.782,-22.081],[-112.327,-22.341],[-111.992,-21.97],[-111.66,-21.598],[-111.33,-21.225],[-111.001,-20.851],[-110.673,-20.478],[-110.348,-20.103],[-109.93,-20.401],[-109.51,-20.698],[-109.089,-20.994],[-108.667,-21.288],[-108.242,-21.582],[-107.816,-21.875],[-107.388,-22.167],[-106.958,-22.457],[-106.527,-22.746],[-106.094,-23.035],[-105.659,-23.322],[-105.222,-23.607],[-104.783,-23.892],[-104.342,-24.175],[-103.899,-24.457],[-103.454,-24.738],[-103.007,-25.017],[-102.559,-25.296],[-102.108,-25.572],[-101.655,-25.848],[-101.2,-26.122],[-100.742,-26.394],[-100.283,-26.665],[-99.821,-26.935],[-99.358,-27.203],[-98.892,-27.469],[-98.423,-27.734],[-97.953,-27.997],[-97.48,-28.259],[-97.005,-28.519],[-96.527,-28.778],[-96.048,-29.034],[-95.565,-29.289],[-95.081,-29.543],[-94.594,-29.794],[-94.104,-30.044],[-93.612,-30.292],[-93.118,-30.538],[-92.621,-30.782],[-92.121,-31.025],[-91.619,-31.265],[-91.115,-31.503],[-90.607,-31.74],[-90.098,-31.974],[-89.585,-32.206],[-89.07,-32.437],[-88.553,-32.665],[-88.033,-32.891],[-87.51,-33.115],[-86.984,-33.336],[-86.456,-33.556],[-85.925,-33.773],[-85.392,-33.988],[-84.855,-34.201],[-84.317,-34.411],[-83.777,-34.618],[-83.234,-34.823],[-82.689,-35.025],[-82.142,-35.225],[-81.591,-35.422],[-81.038,-35.617],[-80.482,-35.81],[-79.924,-35.999],[-79.362,-36.187],[-78.799,-36.371],[-78.232,-36.553],[-77.663,-36.732],[-77.091,-36.909],[-76.517,-37.082],[-75.94,-37.253],[-75.36,-37.421],[-74.778,-37.587],[-74.193,-37.749],[-73.605,-37.909],[-73.016,-38.065],[-72.423,-38.219],[-71.828,-38.369],[-71.231,-38.517],[-70.631,-38.662],[-70.029,-38.803],[-69.424,-38.941],[-68.817,-39.077],[-68.208,-39.209],[-67.597,-39.338],[-66.983,-39.463],[-66.367,-39.586],[-65.749,-39.705],[-65.129,-39.821],[-64.507,-39.933],[-63.883,-40.043],[-63.256,-40.149],[-62.628,-40.251]]}},{"type":"Feature","properties":{"boundary_type":"ridge","feature_type":"gpml:MidOceanRidge","polarity":null,"overriding_plate_id":null,"subducting_plate_id":null,"plate_ids":[919,926],"name":"Phoenix-Izanagi MOR"},"geometry":{"type":"LineString","coordinates":[[-148.461,4.632],[-148.891,4.432],[-149.32,4.232],[-149.75,4.032],[-150.179,3.832],[-150.608,3.631],[-151.036,3.43],[-151.465,3.229],[-151.893,3.028],[-152.321,2.827],[-152.504,3.265],[-152.687,3.704],[-152.871,4.142],[-153.055,4.581],[-153.239,5.019],[-153.423,5.457],[-153.862,5.236],[-154.301,5.014],[-154.74,4.792],[-155.179,4.57],[-155.617,4.347],[-156.055,4.125],[-156.493,3.902],[-156.931,3.678],[-157.368,3.455],[-157.805,3.231],[-158.242,3.007],[-158.679,2.783],[-159.116,2.559],[-159.552,2.335],[-159.989,2.11],[-160.425,1.885],[-160.861,1.661],[-161.297,1.436],[-161.733,1.211],[-162.169,0.986],[-162.604,0.761],[-163.04,0.536],[-163.476,0.311],[-163.912,0.086],[-164.347,-0.14],[-164.783,-0.365],[-165.219,-0.59],[-165.654,-0.815],[-166.09,-1.04],[-166.526,-1.265],[-166.962,-1.49],[-167.398,-1.715],[-167.834,-1.939],[-168.27,-2.164],[-168.707,-2.388],[-169.143,-2.613],[-169.58,-2.837],[-170.017,-3.061],[-170.454,-3.285],[-170.891,-3.508],[-171.328,-3.732],[-171.766,-3.955],[-172.204,-4.178],[-172.642,-4.401],[-173.08,-4.623],[-173.519,-4.845],[-173.958,-5.067],[-174.397,-5.289],[-174.837,-5.51],[-175.277,-5.731],[-175.717,-5.952],[-176.158,-6.172],[-176.36,-5.742],[-176.563,-5.312],[-176.765,-4.882],[-176.967,-4.452],[-177.388,-4.717],[-177.81,-4.981],[-178.232,-5.245],[-178.654,-5.509],[-179.077,-5.772],[-179.5,-6.035],[-179.923,-6.298],[179.653,-6.56],[179.228,-6.822],[178.803,-7.084],[178.378,-7.345],[177.952,-7.606],[177.526,-7.867],[177.099,-8.127],[176.671,-8.386],[176.243,-8.645],[175.815,-8.904],[175.385,-9.162],[174.956,-9.42],[174.525,-9.677],[174.094,-9.934],[173.662,-10.19],[173.23,-10.445],[172.796,-10.7],[172.362,-10.955],[171.928,-11.208],[171.492,-11.461],[171.056,-11.714],[170.619,-11.966],[170.181,-12.217],[169.742,-12.467],[169.303,-12.717],[168.863,-12.966],[168.421,-13.214],[167.979,-13.461],[167.536,-13.708],[167.092,-13.954],[166.647,-14.199],[166.201,-14.443],[165.754,-14.687],[165.306,-14.929],[164.857,-15.171],[164.407,-15.412],[163.956,-15.652],[163.504,-15.891],[163.051,-16.129],[162.597,-16.366],[162.142,-16.602],[161.685,-16.837],[161.228,-17.071],[160.769,-17.304],[160.309,-17.536],[159.848,-17.767],[159.367,-17.951],[158.885,-18.133],[158.402,-18.315],[157.918,-18.495],[157.433,-18.674],[156.947,-18.851],[156.46,-19.028],[155.972,-19.203],[155.483,-19.377],[154.993,-19.549],[154.501,-19.72],[154.009,-19.89],[153.516,-20.058],[153.021,-20.226],[152.526,-20.391],[152.03,-20.556],[151.532,-20.718],[151.033,-20.88],[150.534,-21.04],[150.033,-21.198],[149.531,-21.355],[149.028,-21.511],[148.524,-21.665],[148.019,-21.818],[147.513,-21.968],[147.006,-22.118],[146.497,-22.266],[145.988,-22.412],[145.478,-22.557],[144.966,-22.7],[144.454,-22.841],[144.109,-22.481],[143.766,-22.121],[143.425,-21.76],[143.086,-21.398],[142.58,-21.53],[142.073,-21.662],[141.566,-21.792],[141.057,-21.92],[140.548,-22.046],[140.038,-22.172],[139.526,-22.295],[139.014,-22.417],[138.501,-22.537],[137.988,-22.656],[137.473,-22.773],[136.957,-22.888],[136.441,-23.002],[135.923,-23.114],[135.405,-23.224],[134.886,-23.333],[134.366,-23.44],[133.845,-23.545],[133.324,-23.648],[132.801,-23.75],[132.278,-23.85],[131.754,-23.948],[131.229,-24.044],[130.704,-24.139]]}},{"type":"Feature","properties":{"boundary_type":"transform","feature_type":"gpml:Transform","polarity":null,"overriding_plate_id":null,"subducting_plate_id":null,"plate_ids":[430,9009],"name":"Mongol-Okhotsk Ocean transform"},"geometry":{"type":"LineString","coordinates":[[89.477,46.728],[89.997,47.078],[90.523,47.426],[91.056,47.771],[91.596,48.114],[92.144,48.454],[92.699,48.791],[93.261,49.126],[93.831,49.458],[94.409,49.787],[94.995,50.113],[95.588,50.436],[96.19,50.756],[96.8,51.073]]}},{"type":"Feature","properties":{"boundary_type":"transform","feature_type":"gpml:Transform","polarity":null,"overriding_plate_id":null,"subducting_plate_id":null,"plate_ids":[430,9010],"name":"Mongol-Okhotsk Ocean transform"},"geometry":{"type":"LineString","coordinates":[[96.8,51.073],[97.329,51.342],[97.864,51.608],[98.405,51.872],[99.066,52.109],[99.735,52.341],[100.41,52.57],[101.093,52.795],[101.782,53.016],[102.479,53.233],[103.182,53.446],[103.893,53.654],[104.61,53.859],[105.335,54.059],[106.066,54.254],[106.804,54.446],[107.55,54.632],[108.302,54.814],[109.06,54.992],[109.826,55.164],[110.597,55.332]]}},{"type":"Feature","properties":{"boundary_type":"transform","feature_type":"gpml:Transform","polarity":null,"overriding_plate_id":null,"subducting_plate_id":null,"plate_ids":[460,701],"name":"transform"},"geometry":{"type":"LineString","coordinates":[[46.011,42.064],[46.576,42.268],[47.145,42.468],[47.718,42.666],[48.294,42.861],[48.874,43.053],[49.458,43.242],[50.045,43.428],[50.636,43.611],[51.23,43.791],[51.828,43.967],[52.411,44.155],[52.998,44.339],[53.588,44.521],[54.182,44.699],[54.78,44.874],[55.381,45.046],[55.986,45.215],[56.595,45.381],[57.048,45.482],[57.503,45.582],[57.96,45.68]]}},{"type":"Feature","properties":{"boundary_type":"subduction","feature_type":"gpml:SubductionZone","polarity":"Left","overriding_plate_id":460,"subducting_plate_id":701,"plate_ids":[460,701],"name":""},"geometry":{"type":"LineString","coordinates":[[46.011,42.064],[45.765,41.626],[45.523,41.187],[45.293,40.733],[45.067,40.279],[44.843,39.824],[44.623,39.369],[44.405,38.913],[44.19,38.457],[44.072,37.988],[43.956,37.518],[43.841,37.049],[43.728,36.579],[43.616,36.11],[43.526,35.683],[43.437,35.256],[43.349,34.83],[43.262,34.403],[43.539,34.024],[43.815,33.645],[44.088,33.265],[44.358,32.884],[44.626,32.503],[44.892,32.121],[45.303,31.838],[45.712,31.554],[46.118,31.268],[46.522,30.982],[46.923,30.693],[47.297,30.373],[47.667,30.052],[48.036,29.73],[48.402,29.406],[48.765,29.082],[49.127,28.757],[49.486,28.431],[49.554,28.265]]}},{"type":"Feature","properties":{"boundary_type":"transform","feature_type":"gpml:Transform","polarity":null,"overriding_plate_id":null,"subducting_plate_id":null,"plate_ids":[460,580],"name":""},"geometry":{"type":"LineString","coordinates":[[59.567,48.569],[59.655,48.158],[59.741,47.746],[59.827,47.335],[59.911,46.923],[60.05,46.477],[60.188,46.031],[60.324,45.584],[60.457,45.138],[60.588,44.691],[60.717,44.244],[60.845,43.797],[60.97,43.349],[61.093,42.902],[61.215,42.454],[61.464,41.998],[61.709,41.541],[61.951,41.084],[62.19,40.626],[62.411,40.202],[62.629,39.777],[62.845,39.352],[63.058,38.926],[63.269,38.5],[63.52,38.08],[63.769,37.66],[64.015,37.239],[64.258,36.818],[64.499,36.396],[64.622,35.914],[64.744,35.431],[64.864,34.949],[64.984,34.466],[65.101,33.983],[65.218,33.501]]}},{"type":"Feature","properties":{"boundary_type":"subduction","feature_type":"gpml:SubductionZone","polarity":"Right","overriding_plate_id":701,"subducting_plate_id":460,"plate_ids":[460,701],"name":"Kazakhstania subduction zone"},"geometry":{"type":"LineString","coordinates":[[58.263,47.557],[58.185,47.16],[58.108,46.763],[58.058,46.402],[58.008,46.041],[57.96,45.68]]}},{"type":"Feature","properties":{"boundary_type":"transform","feature_type":"gpml:Transform","polarity":null,"overriding_plate_id":null,"subducting_plate_id":null,"plate_ids":[701,9009],"name":""},"geometry":{"type":"LineString","coordinates":[[63.389,63.271],[64.228,63.282],[65.067,63.287],[65.906,63.288]]}},{"type":"Feature","properties":{"boundary_type":"ridge","feature_type":"gpml:MidOceanRidge","polarity":null,"overriding_plate_id":null,"subducting_plate_id":null,"plate_ids":[701,9006],"name":"Paleotethys MOR"},"geometry":{"type":"LineString","coordinates":[[45.603,13.976],[45.985,14.083],[46.367,14.188],[46.78,13.899],[47.191,13.609],[47.602,13.318],[48.012,13.027],[48.42,12.735],[48.828,12.442],[49.235,12.149],[49.641,11.855],[50.046,11.56],[50.45,11.265],[50.743,11.654],[51.037,12.042],[51.332,12.43],[51.768,12.198],[52.204,11.965],[52.639,11.732],[53.073,11.498],[53.507,11.263],[53.94,11.027],[54.372,10.791],[54.804,10.554],[55.234,10.317],[55.665,10.079],[56.094,9.841],[56.523,9.602],[56.951,9.362],[57.379,9.122],[57.195,8.728],[57.011,8.334],[56.828,7.94],[56.644,7.545],[56.462,7.151],[56.873,6.864],[57.285,6.577],[57.695,6.289],[58.106,6.001],[58.515,5.713],[58.925,5.424],[59.334,5.136],[59.742,4.847],[60.151,4.557],[60.559,4.268],[60.966,3.978],[61.374,3.688],[61.781,3.398],[62.188,3.107],[62.594,2.817],[63.001,2.526],[63.407,2.236],[63.813,1.945],[64.219,1.654],[64.625,1.363],[65.031,1.072],[65.436,0.78],[65.842,0.489],[66.248,0.198],[66.653,-0.093],[67.059,-0.385],[67.464,-0.676],[67.87,-0.967],[68.276,-1.258],[68.682,-1.549],[68.516,-1.845],[68.351,-2.141],[68.185,-2.438],[68.603,-2.696],[69.021,-2.954],[69.438,-3.212],[69.856,-3.469],[70.275,-3.727],[70.693,-3.984],[71.112,-4.242],[71.531,-4.498],[71.95,-4.755],[72.37,-5.012],[72.79,-5.268],[73.21,-5.524],[73.631,-5.779],[74.052,-6.034],[74.473,-6.289],[74.895,-6.544],[75.317,-6.798],[75.74,-7.052],[76.163,-7.306],[76.587,-7.559],[77.011,-7.812],[76.969,-8.296],[76.927,-8.781],[76.885,-9.266],[76.842,-9.751],[76.8,-10.236],[76.757,-10.72],[76.714,-11.205],[76.671,-11.69],[76.628,-12.175],[76.585,-12.66],[76.541,-13.144],[76.498,-13.629],[76.454,-14.114],[76.41,-14.599],[76.366,-15.083],[76.321,-15.568],[76.277,-16.053],[76.232,-16.538],[76.187,-17.022],[76.142,-17.507],[76.096,-17.992],[76.05,-18.476],[76.039,-18.658]]}},{"type":"Feature","properties":{"boundary_type":"transform","feature_type":"gpml:Transform","polarity":null,"overriding_plate_id":null,"subducting_plate_id":null,"plate_ids":[701,9006],"name":"Gondwanna/Annamia transform"},"geometry":{"type":"LineString","coordinates":[[76.039,-18.658],[76.542,-18.737],[77.045,-18.815],[77.549,-18.892],[78.053,-18.967],[78.557,-19.04],[79.062,-19.113],[79.568,-19.184],[80.074,-19.253],[80.58,-19.322],[81.087,-19.388]]}},{"type":"Feature","properties":{"boundary_type":"transform","feature_type":"gpml:Transform","polarity":null,"overriding_plate_id":null,"subducting_plate_id":null,"plate_ids":[604,701],"name":"Gondwanna/Annamia transform"},"geometry":{"type":"LineString","coordinates":[[81.087,-19.388],[81.607,-19.455],[82.129,-19.521],[82.65,-19.585],[83.173,-19.648],[83.695,-19.709],[84.218,-19.769],[84.741,-19.827],[85.265,-19.884],[85.789,-19.939],[86.314,-19.992],[86.812,-20.164],[87.312,-20.334],[87.812,-20.503],[88.314,-20.67],[88.817,-20.836],[89.321,-21.001],[89.826,-21.164],[90.332,-21.325],[90.84,-21.485],[91.348,-21.644],[91.858,-21.801],[92.368,-21.956],[92.88,-22.11],[93.393,-22.262],[93.907,-22.412],[94.375,-22.445],[94.844,-22.477],[95.312,-22.508],[95.781,-22.537],[96.25,-22.564],[96.72,-22.591],[97.189,-22.616]]}},{"type":"Feature","properties":{"boundary_type":"transform","feature_type":"gpml:Transform","polarity":null,"overriding_plate_id":null,"subducting_plate_id":null,"plate_ids":[602,701],"name":"Gondwanna/Annamia transform"},"geometry":{"type":"LineString","coordinates":[[97.189,-22.616],[97.659,-22.639],[98.129,-22.662],[98.599,-22.683],[99.069,-22.702],[99.539,-22.72],[100.01,-22.737]]}},{"type":"Feature","properties":{"boundary_type":"ridge","feature_type":"gpml:MidOceanRidge","polarity":null,"overriding_plate_id":null,"subducting_plate_id":null,"plate_ids":[602,604],"name":"Indochina-SCB spreading"},"geometry":{"type":"LineString","coordinates":[[97.189,-22.616],[96.812,-22.272],[96.437,-21.927],[96.063,-21.581],[95.692,-21.235],[95.322,-20.887],[94.953,-20.539],[94.587,-20.19],[94.222,-19.841],[93.859,-19.49],[93.497,-19.139],[93.137,-18.787],[92.778,-18.435],[92.421,-18.082],[92.065,-17.728],[91.711,-17.373],[91.358,-17.018],[91.006,-16.663],[90.656,-16.306],[90.307,-15.95],[89.959,-15.592],[89.612,-15.234],[89.267,-14.876],[88.922,-14.517],[88.579,-14.157],[88.237,-13.797],[87.896,-13.437],[87.556,-13.076],[87.217,-12.714],[86.879,-12.353],[86.542,-11.99],[86.206,-11.628],[85.87,-11.265],[85.536,-10.901],[85.202,-10.538],[84.869,-10.174],[84.537,-9.809],[84.862,-9.439],[85.186,-9.068],[85.51,-8.697],[85.833,-8.326],[86.156,-7.955],[86.477,-7.583],[86.799,-7.211],[87.119,-6.839],[87.44,-6.467],[87.76,-6.094],[88.079,-5.722],[88.398,-5.349],[88.716,-4.976],[89.035,-4.603],[89.352,-4.229],[89.67,-3.856],[89.987,-3.482],[89.602,-3.19],[89.217,-2.898],[88.832,-2.606],[89.102,-2.19],[89.371,-1.774],[89.64,-1.358],[89.909,-0.941],[90.179,-0.525],[90.448,-0.109],[90.717,0.307],[90.986,0.723],[91.255,1.139],[91.524,1.555],[91.102,1.795],[90.681,2.034],[90.259,2.273],[90.323,2.714],[90.386,3.155],[90.45,3.596],[90.513,4.037],[90.577,4.477],[90.641,4.918],[90.704,5.359],[90.268,5.542],[89.832,5.725],[89.579,6.102],[89.325,6.479],[89.071,6.855],[88.816,7.232],[88.561,7.608],[88.306,7.985],[88.05,8.361],[87.576,8.481],[87.471,8.945],[87.366,9.41],[87.26,9.874],[87.155,10.339],[87.048,10.803],[86.942,11.268],[86.835,11.732],[86.728,12.196],[86.62,12.661],[86.262,12.708],[85.905,12.755],[85.547,12.801],[85.261,13.211],[84.974,13.621],[84.686,14.031],[84.396,14.44],[84.106,14.849],[83.815,15.257],[83.523,15.666],[83.229,16.073],[82.935,16.481],[82.639,16.888],[82.237,16.871],[81.835,16.853],[81.543,17.234],[81.249,17.614],[80.954,17.994],[80.658,18.374],[80.361,18.753],[80.062,19.131],[79.762,19.509],[79.46,19.887],[79.157,20.264],[78.853,20.64]]}},{"type":"Feature","properties":{"boundary_type":"subduction","feature_type":"gpml:SubductionZone","polarity":"Left","overriding_plate_id":602,"subducting_plate_id":926,"plate_ids":[602,926],"name":"Panthalassa SZ estern China"},"geometry":{"type":"LineString","coordinates":[[116.284,-14.242],[116.312,-13.755],[116.339,-13.267],[116.367,-12.779],[116.394,-12.292],[116.421,-11.804],[116.585,-11.344],[116.749,-10.884],[116.913,-10.424],[117.076,-9.964],[117.212,-9.491],[117.348,-9.018],[117.484,-8.545],[117.619,-8.072],[117.754,-7.599],[117.889,-7.126],[118.023,-6.653],[118.157,-6.179],[118.291,-5.706],[118.425,-5.233],[118.559,-4.76],[118.692,-4.286],[118.825,-3.813],[118.958,-3.34],[119.091,-2.866],[119.224,-2.393],[119.356,-1.919],[119.489,-1.446],[119.621,-0.973],[119.754,-0.499],[119.886,-0.026],[120.019,0.448],[120.151,0.921],[120.203,1.398],[120.255,1.875],[120.307,2.352],[120.359,2.829],[120.412,3.306],[120.464,3.783],[120.516,4.26],[120.568,4.737],[120.621,5.214],[120.69,5.677],[120.76,6.14],[120.83,6.603],[120.9,7.066],[120.97,7.529],[121.04,7.992],[121.256,8.348],[121.472,8.705],[121.688,9.062],[121.905,9.418],[122.122,9.774],[122.326,10.141],[122.53,10.507],[122.735,10.873],[122.94,11.24],[123.146,11.606],[123.353,11.971],[123.714,12.192],[124.077,12.412],[124.439,12.632],[124.803,12.851],[125.167,13.07],[125.532,13.288]]}},{"type":"Feature","properties":{"boundary_type":"subduction","feature_type":"gpml:SubductionZone","polarity":"Left","overriding_plate_id":601,"subducting_plate_id":926,"plate_ids":[601,926],"name":"Panthalassa SZ estern China"},"geometry":{"type":"LineString","coordinates":[[125.532,13.288],[125.896,13.505],[126.261,13.721],[126.627,13.937],[126.994,14.153],[127.463,14.171],[127.933,14.188],[128.403,14.203],[128.872,14.218],[129.342,14.233],[129.812,14.246],[130.282,14.258],[130.752,14.269],[131.23,14.393],[131.709,14.515],[132.188,14.637],[132.668,14.757],[133.148,14.877],[133.629,14.995],[134.11,15.113],[134.592,15.229],[135.074,15.344],[135.557,15.459],[136.009,15.695],[136.462,15.93],[136.917,16.163],[137.372,16.396],[137.828,16.628],[138.286,16.859],[138.744,17.089],[139.204,17.318],[139.665,17.546],[140.127,17.773],[140.59,17.999],[141.054,18.223],[141.52,18.447],[141.987,18.669],[142.455,18.891],[142.741,19.225],[143.029,19.559],[143.318,19.893],[143.609,20.226],[143.9,20.558],[144.193,20.89],[144.487,21.222]]}},{"type":"Feature","properties":{"boundary_type":"subduction","feature_type":"gpml:SubductionZone","polarity":"Left","overriding_plate_id":null,"subducting_plate_id":null,"plate_ids":[601,926,9014],"name":"Panthalassa SZ estern China"},"geometry":{"type":"LineString","coordinates":[[144.487,21.222],[144.741,21.507],[144.996,21.791],[145.228,22.227],[145.461,22.662],[145.696,23.097],[145.933,23.532],[146.171,23.966],[146.411,24.4],[146.652,24.834],[146.895,25.267],[147.14,25.7],[147.387,26.132],[147.509,26.6],[147.632,27.067],[147.756,27.534],[147.881,28.002],[148.008,28.469],[148.135,28.936],[148.263,29.402],[148.317,29.852],[148.371,30.301],[148.425,30.75],[148.48,31.2],[148.536,31.649],[148.592,32.098],[148.648,32.547],[148.705,32.996]]}},{"type":"Feature","properties":{"boundary_type":"subduction","feature_type":"gpml:SubductionZone","polarity":"Left","overriding_plate_id":null,"subducting_plate_id":null,"plate_ids":[9014],"name":"Paleoasian sz"},"geometry":{"type":"LineString","coordinates":[[144.487,21.222],[144.957,21.448],[145.429,21.672],[145.902,21.895],[146.376,22.117],[146.852,22.337],[147.33,22.556],[147.809,22.773],[148.29,22.989],[148.772,23.204],[149.255,23.417],[149.741,23.629],[150.227,23.839],[150.512,24.231],[150.798,24.622],[151.086,25.012],[151.375,25.402],[151.667,25.792],[151.96,26.181],[152.256,26.569],[152.553,26.957],[152.853,27.344],[153.154,27.73],[153.458,28.116],[153.764,28.501],[154.072,28.885],[154.306,29.266],[154.543,29.647],[154.78,30.027],[155.02,30.406]]}},{"type":"Feature","properties":{"boundary_type":"subduction","feature_type":"gpml:SubductionZone","polarity":"Left","overriding_plate_id":9014,"subducting_plate_id":926,"plate_ids":[926,9014],"name":"Paleoasian sz"},"geometry":{"type":"LineString","coordinates":[[155.02,30.406],[155.284,30.82],[155.55,31.233],[155.818,31.645],[156.089,32.057],[156.362,32.469],[156.638,32.88],[156.916,33.29],[157.197,33.699],[157.48,34.108],[157.766,34.517],[158.055,34.924],[158.36,35.33],[158.668,35.735],[158.979,36.139],[159.293,36.542],[159.61,36.944],[159.931,37.346],[160.255,37.747],[160.583,38.146],[160.914,38.545],[161.249,38.943],[161.588,39.34],[161.931,39.736],[162.277,40.131],[162.628,40.525],[162.983,40.918],[163.342,41.31],[163.705,41.7],[164.073,42.09],[164.45,42.501],[164.831,42.91],[165.218,43.319],[165.61,43.726],[166.007,44.131],[166.41,44.536],[166.819,44.938],[167.233,45.34],[167.653,45.74],[168.079,46.138],[168.511,46.535],[168.95,46.93],[169.395,47.323],[169.847,47.715],[170.306,48.104],[170.772,48.492],[171.244,48.878],[171.725,49.262],[172.09,49.647],[172.461,50.031],[172.838,50.413],[173.222,50.794],[173.611,51.174],[174.007,51.552],[174.41,51.929]]}},{"type":"Feature","properties":{"boundary_type":"subduction","feature_type":"gpml:SubductionZone","polarity":"Right","overriding_plate_id":5801,"subducting_plate_id":9013,"plate_ids":[5801,9013],"name":"South Kunlun"},"geometry":{"type":"LineString","coordinates":[[98.586,32.102],[98.074,31.927],[97.564,31.751],[97.055,31.572],[96.561,31.38],[96.069,31.185],[95.579,30.989],[95.091,30.791],[94.605,30.591],[94.121,30.389],[93.639,30.185],[93.119,29.989],[92.6,29.79],[92.084,29.59],[91.569,29.387],[91.057,29.183],[90.546,28.976],[90.038,28.768],[89.541,28.643],[89.045,28.516],[88.55,28.388],[88.057,28.257],[87.565,28.125],[87.074,27.991],[86.584,27.856],[86.095,27.719],[85.608,27.58],[85.116,27.47],[84.624,27.36],[84.133,27.247],[83.644,27.133],[83.155,27.017],[82.69,26.851],[82.226,26.683],[81.764,26.513],[81.303,26.342]]}},{"type":"Feature","properties":{"boundary_type":"transform","feature_type":"gpml:Transform","polarity":null,"overriding_plate_id":null,"subducting_plate_id":null,"plate_ids":[601,602],"name":"SCB transform"},"geometry":{"type":"LineString","coordinates":[[100.431,14.443],[99.952,14.61],[99.472,14.776],[98.991,14.941],[98.51,15.105],[98.028,15.268],[97.545,15.43],[97.061,15.591],[96.577,15.751],[96.092,15.91],[95.606,16.067],[95.119,16.224],[94.632,16.379],[94.144,16.534],[93.655,16.687],[93.165,16.839],[92.675,16.99],[92.183,17.14],[91.691,17.288],[91.198,17.436],[90.705,17.582],[90.21,17.727],[89.715,17.87],[89.219,18.013],[88.722,18.154],[88.224,18.294],[87.726,18.432],[87.226,18.57],[86.726,18.706],[86.225,18.84],[85.724,18.974],[85.221,19.106],[84.718,19.236],[84.214,19.365],[83.709,19.493]]}},{"type":"Feature","properties":{"boundary_type":"transform","feature_type":"gpml:Transform","polarity":null,"overriding_plate_id":null,"subducting_plate_id":null,"plate_ids":[602,9013],"name":"SCB transform"},"geometry":{"type":"LineString","coordinates":[[83.709,19.493],[83.227,19.614],[82.744,19.733],[82.26,19.851],[81.775,19.968],[81.29,20.083],[80.804,20.197],[80.317,20.31],[79.83,20.422],[79.341,20.532],[78.853,20.64]]}},{"type":"Feature","properties":{"boundary_type":"transform","feature_type":"gpml:Transform","polarity":null,"overriding_plate_id":null,"subducting_plate_id":null,"plate_ids":[604,9013],"name":"SCB transform"},"geometry":{"type":"LineString","coordinates":[[78.853,20.64],[78.349,20.751],[77.846,20.859],[77.341,20.967],[76.836,21.073],[76.33,21.177],[75.823,21.28],[75.316,21.381],[74.808,21.481],[74.299,21.579],[73.79,21.676],[73.28,21.771],[72.769,21.864],[72.258,21.956],[71.746,22.047],[71.233,22.136],[70.72,22.223]]}},{"type":"Feature","properties":{"boundary_type":"ridge","feature_type":"gpml:MidOceanRidge","polarity":null,"overriding_plate_id":null,"subducting_plate_id":null,"plate_ids":[601,602],"name":"Mianlue east MOR"},"geometry":{"type":"LineString","coordinates":[[100.431,14.443],[100.935,14.352],[101.439,14.259],[101.943,14.165],[102.446,14.07],[102.949,13.974],[103.451,13.877],[103.953,13.779],[104.455,13.68],[104.956,13.58],[105.456,13.479],[105.957,13.377],[106.457,13.274],[106.956,13.17],[107.455,13.065],[107.953,12.959],[108.452,12.852],[108.949,12.744],[109.087,13.197],[109.225,13.649],[109.363,14.101],[109.502,14.553],[109.642,15.005],[109.782,15.457],[109.923,15.909],[110.065,16.361],[110.207,16.813],[110.35,17.264],[110.493,17.716],[110.638,18.167],[111.135,18.089],[111.633,18.009],[112.13,17.928],[112.626,17.846],[113.122,17.763],[113.618,17.678],[114.113,17.592],[114.607,17.505],[115.101,17.417],[115.595,17.327],[116.088,17.237],[116.581,17.145],[117.073,17.052],[117.564,16.957],[118.056,16.862],[118.546,16.765],[119.036,16.667],[119.526,16.568],[120.015,16.468],[119.847,16.051],[119.68,15.634],[119.513,15.216],[119.347,14.799],[119.182,14.381],[119.673,14.303],[120.163,14.224],[120.653,14.143],[121.142,14.062],[121.631,13.98],[122.12,13.897],[122.609,13.813],[123.097,13.728],[123.584,13.641],[124.072,13.554],[124.559,13.466],[125.045,13.378],[125.532,13.288]]}},{"type":"Feature","properties":{"boundary_type":"subduction","feature_type":"gpml:SubductionZone","polarity":"Left","overriding_plate_id":580,"subducting_plate_id":9006,"plate_ids":[580,9006],"name":"Paleotethys intra-oceanic sub zone"},"geometry":{"type":"LineString","coordinates":[[60.629,28.976],[61.056,28.723],[61.48,28.468],[61.902,28.212],[62.322,27.955],[62.74,27.696],[63.156,27.436],[63.571,27.175],[63.983,26.913],[64.421,26.694],[64.857,26.473],[65.291,26.252],[65.723,26.028],[66.154,25.804],[66.584,25.578],[67.011,25.351],[67.471,25.186],[67.93,25.02],[68.388,24.852],[68.844,24.683],[69.299,24.512],[69.753,24.34],[70.205,24.167],[70.706,24.023],[71.205,23.877]]}},{"type":"Feature","properties":{"boundary_type":"ridge","feature_type":"gpml:MidOceanRidge","polarity":null,"overriding_plate_id":null,"subducting_plate_id":null,"plate_ids":[580,5801],"name":"Mazar-Kangxiwar BAB spreading."},"geometry":{"type":"LineString","coordinates":[[96.493,37.213],[96.003,36.935],[95.516,36.656],[95.033,36.375],[94.554,36.091],[94.078,35.806],[93.605,35.519],[93.136,35.23],[92.67,34.94],[92.208,34.647],[91.748,34.353],[91.292,34.057],[90.839,33.76],[90.39,33.461],[89.943,33.16],[89.499,32.857],[89.307,33.186],[88.809,32.98],[88.313,32.772],[87.82,32.562],[87.329,32.351],[86.84,32.137],[86.354,31.922],[85.87,31.705],[85.388,31.486],[84.908,31.265],[84.431,31.042],[83.956,30.818],[83.483,30.592],[83.012,30.364],[83.24,30.002],[82.73,29.77],[82.223,29.536],[81.718,29.3],[81.216,29.062],[80.716,28.822],[80.218,28.58],[79.722,28.337],[79.229,28.091],[78.738,27.844],[78.249,27.596],[77.762,27.345],[77.278,27.093],[76.795,26.839],[76.315,26.584]]}},{"type":"Feature","properties":{"boundary_type":"transform","feature_type":"gpml:Transform","polarity":null,"overriding_plate_id":null,"subducting_plate_id":null,"plate_ids":[5801,9013],"name":"TRM/Mazar-Kangxiwar transform"},"geometry":{"type":"LineString","coordinates":[[98.586,32.102],[98.417,32.545],[98.246,32.988],[98.074,33.431],[97.899,33.874],[97.723,34.316],[97.546,34.758],[97.366,35.2],[97.184,35.642],[97.0,36.083],[96.814,36.524],[96.654,36.868],[96.493,37.213]]}},{"type":"Feature","properties":{"boundary_type":"transform","feature_type":"gpml:Transform","polarity":null,"overriding_plate_id":null,"subducting_plate_id":null,"plate_ids":[580,9013],"name":"TRM/Mazar-Kangxiwar transform"},"geometry":{"type":"LineString","coordinates":[[96.493,37.213],[96.274,37.674],[96.053,38.135],[95.828,38.596],[95.601,39.056],[95.327,39.459],[95.05,39.862],[94.77,40.263],[94.486,40.664],[94.199,41.064],[93.909,41.464],[93.614,41.862],[93.317,42.26],[93.015,42.658],[92.755,43.069],[92.491,43.48],[92.224,43.891]]}},{"type":"Feature","properties":{"boundary_type":"transform","feature_type":"gpml:Transform","polarity":null,"overriding_plate_id":null,"subducting_plate_id":null,"plate_ids":[430,580],"name":"TRM/Mazar-Kangxiwar transform"},"geometry":{"type":"LineString","coordinates":[[92.224,43.891],[91.96,44.291],[91.693,44.69],[91.421,45.089],[91.146,45.487],[90.867,45.884],[90.583,46.281],[90.296,46.677]]}},{"type":"Feature","properties":{"boundary_type":"ridge","feature_type":"gpml:MidOceanRidge","polarity":null,"overriding_plate_id":null,"subducting_plate_id":null,"plate_ids":[9009,9010],"name":"Mongol-Okhotsk spreading"},"geometry":{"type":"LineString","coordinates":[[96.8,51.073],[96.8,51.565],[96.801,52.057],[96.801,52.549],[96.801,53.041],[96.801,53.533],[96.801,54.025],[96.802,54.517],[96.802,55.009],[96.802,55.501],[96.802,55.993],[96.803,56.485],[96.803,56.977],[96.803,57.469],[96.804,57.961],[96.804,58.453],[96.804,58.945],[96.804,59.437],[96.805,59.929],[96.805,60.421],[96.805,60.913],[96.806,61.405],[96.806,61.897],[96.807,62.389],[96.807,62.881],[96.807,63.373],[96.808,63.865],[96.808,64.357],[96.809,64.849],[96.809,65.341],[97.397,65.643],[97.999,65.942],[98.615,66.238],[99.246,66.532],[99.294,67.016],[99.343,67.499],[99.395,67.982],[99.448,68.465],[99.504,68.948],[99.563,69.431],[99.624,69.914],[99.688,70.397],[99.755,70.88],[99.826,71.364],[99.9,71.847],[99.978,72.329],[100.061,72.812],[101.229,73.132],[102.44,73.445],[103.696,73.751],[104.998,74.049],[106.348,74.339],[107.747,74.62],[107.855,75.114],[107.971,75.608],[108.095,76.102],[108.227,76.597],[108.37,77.091],[108.524,77.584],[108.69,78.078],[108.87,78.572],[109.067,79.066],[109.282,79.559],[109.518,80.052],[109.778,80.545],[110.067,81.038],[110.389,81.531],[110.75,82.023],[111.159,82.515],[111.624,83.007],[112.16,83.498],[112.783,83.988],[113.516,84.478],[117.847,84.662],[122.459,84.814],[127.315,84.93],[132.36,85.009],[137.525,85.048],[141.172,85.425],[145.452,85.78],[150.482,86.108],[156.379,86.4],[163.23,86.648],[171.04,86.841],[179.682,86.968],[-171.146,87.022],[-161.882,86.998],[-152.991,86.898],[-144.836,86.729],[-137.61,86.501],[-131.353,86.225],[-126.002,85.91],[-121.448,85.565],[-117.571,85.195],[-114.258,84.808],[-111.413,84.405],[-108.954,83.99],[-106.814,83.566],[-104.94,83.135],[-103.289,82.696],[-101.824,82.253],[-100.518,81.804],[-99.347,81.353],[-98.292,80.898],[-97.337,80.44],[-96.469,79.98]]}},{"type":"Feature","properties":{"boundary_type":"transform","feature_type":"gpml:Transform","polarity":null,"overriding_plate_id":null,"subducting_plate_id":null,"plate_ids":[430,580],"name":"TRM/MOO/AMU transform"},"geometry":{"type":"LineString","coordinates":[[90.296,46.677],[89.887,46.703],[89.477,46.728]]}},{"type":"Feature","properties":{"boundary_type":"transform","feature_type":"gpml:Transform","polarity":null,"overriding_plate_id":null,"subducting_plate_id":null,"plate_ids":[580,9009],"name":"TRM/MOO/AMU transform"},"geometry":{"type":"LineString","coordinates":[[89.477,46.728],[88.758,46.769],[88.039,46.805],[87.318,46.837],[86.597,46.864],[85.875,46.886],[85.152,46.904],[84.429,46.918],[83.705,46.927],[82.982,46.931],[82.258,46.931],[81.535,46.926],[80.811,46.917],[80.088,46.903],[79.476,47.169],[78.857,47.432],[78.232,47.692],[77.6,47.948],[76.963,48.201],[76.319,48.45],[75.669,48.695],[75.012,48.937],[74.35,49.175],[73.68,49.409],[73.005,49.64],[72.323,49.866],[71.635,50.088],[70.94,50.307],[70.239,50.521],[69.532,50.731],[68.818,50.936],[68.099,51.137],[67.372,51.334],[66.662,51.468],[65.947,51.597],[65.228,51.723],[64.505,51.844],[63.778,51.96]]}},{"type":"Feature","properties":{"boundary_type":"transform","feature_type":"gpml:Transform","polarity":null,"overriding_plate_id":null,"subducting_plate_id":null,"plate_ids":[5801,9013],"name":"TRM Transform"},"geometry":{"type":"LineString","coordinates":[[81.303,26.342],[80.94,26.549],[80.577,26.755],[80.212,26.959],[79.653,26.912],[79.096,26.863],[78.539,26.811],[77.982,26.758],[77.426,26.702],[76.87,26.644],[76.315,26.584]]}},{"type":"Feature","properties":{"boundary_type":"transform","feature_type":"gpml:Transform","polarity":null,"overriding_plate_id":null,"subducting_plate_id":null,"plate_ids":[580,9013],"name":"TRM Transform"},"geometry":{"type":"LineString","coordinates":[[76.315,26.584],[75.805,26.527],[75.295,26.468],[74.786,26.407],[74.278,26.344],[73.77,26.28],[73.262,26.214],[72.756,26.146],[72.249,26.076]]}},{"type":"Feature","properties":{"boundary_type":"subduction","feature_type":"gpml:SubductionZone","polarity":"Right","overriding_plate_id":430,"subducting_plate_id":9010,"plate_ids":[430,9010],"name":"Mongol-Okhotsk Ocean SZ"},"geometry":{"type":"LineString","coordinates":[[110.597,55.332],[111.335,55.598],[112.082,55.859],[112.839,56.115],[113.606,56.367],[114.383,56.614],[115.171,56.856],[115.968,57.093],[116.776,57.324],[117.594,57.551],[118.447,57.658],[119.305,57.759],[120.168,57.855],[121.035,57.944],[121.906,58.028],[122.781,58.106],[123.66,58.177],[124.543,58.243],[125.405,58.414],[126.276,58.579],[127.155,58.738],[128.042,58.891],[128.937,59.038],[129.839,59.179],[130.749,59.313],[131.665,59.441],[132.589,59.563],[133.518,59.678],[134.454,59.787],[135.396,59.888],[136.344,59.983],[137.297,60.071],[138.255,60.153],[139.217,60.227],[140.183,60.294],[141.153,60.355],[142.127,60.408],[142.977,60.671],[143.84,60.929],[144.717,61.182],[145.609,61.429],[146.514,61.669],[147.434,61.904],[148.367,62.132],[149.315,62.354],[150.276,62.57],[151.251,62.779],[152.24,62.981],[153.243,63.176],[154.258,63.364],[155.287,63.544],[156.329,63.717],[157.383,63.883],[158.45,64.04],[159.528,64.19],[160.618,64.332],[161.718,64.466],[162.829,64.591],[163.955,64.713],[165.091,64.826],[166.235,64.93],[167.389,65.026],[168.55,65.113],[169.719,65.191],[170.893,65.259],[172.074,65.319],[173.26,65.369],[174.449,65.409],[175.642,65.441],[176.838,65.463],[178.035,65.475],[179.232,65.478],[-179.57,65.472],[-178.374,65.456],[-177.269,65.441],[-176.166,65.418],[-175.065,65.387],[-173.966,65.348],[-172.872,65.301],[-171.782,65.246],[-170.696,65.183],[-169.616,65.112],[-168.543,65.034],[-167.403,64.957],[-166.27,64.872],[-165.144,64.778],[-164.027,64.675],[-162.918,64.564],[-161.819,64.445],[-160.729,64.318],[-159.65,64.183],[-158.582,64.039],[-157.525,63.889],[-156.617,63.754],[-155.717,63.613],[-154.827,63.467],[-153.946,63.316],[-153.074,63.159]]}},{"type":"Feature","properties":{"boundary_type":"ridge","feature_type":"gpml:MidOceanRidge","polarity":null,"overriding_plate_id":null,"subducting_plate_id":null,"plate_ids":[601,9013],"name":"PAO mor south"},"geometry":{"type":"LineString","coordinates":[[106.367,41.458],[105.823,41.181],[105.284,40.901],[104.749,40.618],[104.219,40.333],[103.694,40.046],[103.173,39.757],[102.656,39.465],[102.144,39.171],[101.636,38.874],[101.132,38.576],[100.632,38.275],[100.137,37.972],[99.645,37.667],[99.158,37.36],[98.675,37.051],[98.195,36.74],[97.72,36.428],[97.248,36.113],[96.78,35.797],[96.904,35.347],[97.026,34.898],[97.147,34.448],[97.267,33.998],[97.386,33.548],[97.503,33.098],[97.619,32.648],[97.734,32.198],[97.848,31.747],[97.961,31.297],[97.467,31.062],[96.975,30.826],[96.486,30.588],[95.999,30.347],[95.515,30.106],[95.033,29.862],[94.554,29.617],[94.076,29.369],[93.601,29.121],[93.129,28.87],[92.659,28.618],[92.19,28.364],[91.725,28.109],[91.261,27.852],[90.8,27.594],[90.34,27.334],[89.883,27.072],[89.428,26.809],[88.975,26.545],[88.525,26.279],[88.076,26.012],[87.629,25.744],[87.185,25.474],[86.742,25.202],[86.301,24.93],[85.863,24.656],[85.426,24.381],[85.502,23.911],[85.577,23.441],[85.652,22.971],[85.726,22.501],[85.8,22.031],[85.873,21.561],[85.946,21.091],[86.019,20.621],[85.554,20.398],[85.091,20.174],[84.629,19.948],[84.168,19.721],[83.709,19.493]]}},{"type":"Feature","properties":{"boundary_type":"transform","feature_type":"gpml:Transform","polarity":null,"overriding_plate_id":null,"subducting_plate_id":null,"plate_ids":[601,9014],"name":"North China-Beishan transform"},"geometry":{"type":"LineString","coordinates":[[128.693,33.916],[128.171,34.132],[127.646,34.345],[127.118,34.557],[126.588,34.766],[126.055,34.973],[125.519,35.178],[124.981,35.38],[124.44,35.58],[123.896,35.778],[123.349,35.973],[122.8,36.165],[122.248,36.355],[121.694,36.542],[121.137,36.727],[120.577,36.91],[120.014,37.089]]}},{"type":"Feature","properties":{"boundary_type":"transform","feature_type":"gpml:Transform","polarity":null,"overriding_plate_id":null,"subducting_plate_id":null,"plate_ids":[601,9013],"name":"North China-Beishan transform"},"geometry":{"type":"LineString","coordinates":[[120.014,37.089],[119.477,37.257],[118.938,37.423],[118.396,37.587],[117.852,37.747],[117.305,37.906],[116.756,38.061],[116.205,38.215],[115.651,38.365],[115.096,38.58],[114.537,38.791],[113.975,39.0],[113.409,39.207],[112.84,39.41],[112.268,39.611],[111.693,39.809],[111.114,40.004],[110.532,40.197],[109.947,40.386],[109.358,40.572],[108.766,40.755],[108.171,40.936],[107.573,41.113],[106.971,41.287],[106.367,41.458]]}},{"type":"Feature","properties":{"boundary_type":"ridge","feature_type":"gpml:MidOceanRidge","polarity":null,"overriding_plate_id":null,"subducting_plate_id":null,"plate_ids":[9013,9014],"name":"PAO mor north"},"geometry":{"type":"LineString","coordinates":[[143.396,49.716],[143.114,49.282],[142.837,48.849],[142.564,48.414],[142.296,47.979],[142.033,47.544],[141.774,47.108],[141.519,46.671],[141.268,46.234],[141.021,45.796],[140.778,45.357],[140.539,44.918],[140.303,44.479],[139.702,44.533],[139.099,44.583],[138.495,44.631],[137.89,44.675],[137.284,44.716],[136.678,44.753],[136.071,44.788],[135.934,44.457],[135.799,44.125],[135.665,43.793],[135.051,43.593],[134.442,43.389],[133.836,43.182],[133.235,42.972],[132.637,42.758],[132.044,42.542],[131.455,42.323],[130.87,42.1],[130.289,41.875],[129.713,41.647],[129.14,41.416],[128.572,41.182],[128.007,40.945],[127.447,40.705],[126.89,40.463],[126.338,40.218],[125.79,39.971],[125.245,39.721],[124.705,39.469],[124.168,39.214],[123.636,38.956],[123.107,38.696],[122.582,38.434],[122.061,38.17],[121.544,37.903],[121.03,37.634],[120.52,37.363],[120.014,37.089]]}},{"type":"Feature","properties":{"boundary_type":"transform","feature_type":"gpml:Transform","polarity":null,"overriding_plate_id":null,"subducting_plate_id":null,"plate_ids":[919,28800],"name":"transform closing AAB"},"geometry":{"type":"LineString","coordinates":[[-84.601,-50.393],[-84.178,-50.588],[-83.752,-50.781],[-83.18,-51.054],[-82.601,-51.325],[-82.016,-51.593],[-81.424,-51.858],[-80.824,-52.12],[-80.218,-52.378],[-79.604,-52.634],[-78.984,-52.886],[-78.356,-53.136]]}},{"type":"Feature","properties":{"boundary_type":"transform","feature_type":"gpml:Transform","polarity":null,"overriding_plate_id":null,"subducting_plate_id":null,"plate_ids":[460,580],"name":"Kazak transform"},"geometry":{"type":"LineString","coordinates":[[65.218,33.501],[64.818,33.13],[64.422,32.758],[64.029,32.385],[63.639,32.011],[63.252,31.635],[62.869,31.259],[62.488,30.881],[62.111,30.502],[61.736,30.122],[61.364,29.741],[60.995,29.359],[60.629,28.976]]}},{"type":"Feature","properties":{"boundary_type":"transform","feature_type":"gpml:Transform","polarity":null,"overriding_plate_id":null,"subducting_plate_id":null,"plate_ids":[460,9006],"name":"Kazak transform"},"geometry":{"type":"LineString","coordinates":[[60.629,28.976],[60.298,28.626],[59.969,28.275],[59.641,27.923],[59.316,27.57],[58.993,27.217],[58.673,26.863],[58.354,26.508],[58.037,26.153]]}}]}