{"type":"FeatureCollection","meta":{"model":"Cao2024","reconstruction_time_ma":1035.0,"anchor_plate_id":0,"pygplates_version":"1.0.0","tessellate_degrees":0.5,"polarity_convention":"gpml:subductionPolarity. 'Left'/'Right' names the side of the line, in vertex order, on which the OVERRIDING plate lies. Triangles are drawn on that side.","antimeridian":"Lines are NOT split at +/-180 deg. The renderer works in 3D unit vectors where the dateline is not special; splitting would only add spurious breaks. Do not treat this as RFC 7946 GIS-ready 2D data."},"features":[{"type":"Feature","properties":{"boundary_type":"subduction","feature_type":"gpml:SubductionZone","polarity":"Left","overriding_plate_id":602,"subducting_plate_id":701,"plate_ids":[602,701],"name":"Coastal domain convergence"},"geometry":{"type":"LineString","coordinates":[[-41.17,18.555],[-41.639,18.739],[-42.108,18.922],[-42.579,19.105],[-43.01,19.394],[-43.443,19.682],[-43.877,19.969],[-44.313,20.255],[-44.75,20.539],[-45.189,20.823],[-45.63,21.106],[-46.072,21.387],[-46.524,21.635],[-46.978,21.881],[-47.433,22.125],[-47.89,22.369],[-48.349,22.611],[-48.809,22.852],[-49.27,23.092],[-49.667,23.413],[-50.066,23.733],[-50.466,24.052],[-50.868,24.371],[-51.273,24.688],[-51.679,25.004],[-52.088,25.319],[-52.499,25.633],[-52.665,26.02]]}},{"type":"Feature","properties":{"boundary_type":"subduction","feature_type":"gpml:SubductionZone","polarity":"Left","overriding_plate_id":602,"subducting_plate_id":801,"plate_ids":[602,801],"name":"Coastal domain convergence"},"geometry":{"type":"LineString","coordinates":[[-52.665,26.02],[-52.846,26.439],[-53.028,26.857],[-53.212,27.275],[-53.396,27.692],[-53.583,28.11],[-53.77,28.527],[-53.96,28.943],[-54.15,29.36],[-54.343,29.776],[-54.665,30.181],[-54.99,30.584],[-55.317,30.987],[-55.647,31.389],[-55.98,31.791],[-56.316,32.191],[-56.655,32.59],[-56.997,32.989],[-57.342,33.386],[-57.69,33.783],[-58.041,34.179],[-58.464,34.514],[-58.891,34.848],[-59.321,35.181],[-59.754,35.512],[-60.191,35.842],[-60.632,36.17],[-61.076,36.496],[-61.524,36.821],[-61.976,37.144],[-62.432,37.465],[-62.892,37.785],[-63.356,38.103],[-63.823,38.419],[-64.362,38.635],[-64.905,38.848],[-65.451,39.059],[-66.0,39.267],[-66.552,39.473],[-67.107,39.676],[-67.666,39.877],[-68.228,40.074],[-68.793,40.269],[-69.362,40.462],[-69.933,40.651],[-70.508,40.838],[-71.087,41.022],[-71.67,41.193],[-72.256,41.361],[-72.846,41.526],[-73.438,41.688],[-74.034,41.847],[-74.632,42.002],[-75.233,42.155],[-75.837,42.305],[-76.444,42.451],[-77.054,42.594],[-77.667,42.734],[-78.282,42.871],[-78.9,43.004],[-79.521,43.134],[-80.144,43.261],[-80.77,43.384],[-81.398,43.504],[-81.622,43.52]]}},{"type":"Feature","properties":{"boundary_type":"subduction","feature_type":"gpml:SubductionZone","polarity":"Left","overriding_plate_id":6024,"subducting_plate_id":801,"plate_ids":[801,6024],"name":"Coastal domain convergence"},"geometry":{"type":"LineString","coordinates":[[-81.622,43.52],[-82.222,43.561],[-82.823,43.599],[-83.425,43.634],[-84.027,43.665],[-84.63,43.694],[-85.233,43.719],[-85.837,43.741]]}},{"type":"Feature","properties":{"boundary_type":"transform","feature_type":"gpml:Transform","polarity":null,"overriding_plate_id":null,"subducting_plate_id":null,"plate_ids":[101,801],"name":"Transform_Australia-Laurentia"},"geometry":{"type":"LineString","coordinates":[[157.465,25.759],[156.974,25.946],[156.482,26.132],[155.989,26.316],[155.494,26.499],[154.997,26.68],[154.499,26.859],[153.999,27.036],[153.497,27.211],[152.995,27.385],[152.49,27.557],[151.984,27.727],[151.477,27.926],[150.968,28.123],[150.457,28.318],[149.944,28.512],[149.429,28.703],[148.912,28.893],[148.394,29.08],[147.874,29.266],[147.351,29.449],[146.827,29.631],[146.301,29.81],[145.773,29.987],[145.244,30.163],[144.712,30.336],[144.179,30.507],[143.643,30.675],[143.106,30.842],[142.567,31.006],[141.991,31.057],[141.414,31.104],[140.836,31.15],[140.258,31.192],[139.68,31.232],[139.101,31.27],[138.521,31.305],[137.942,31.337],[137.361,31.367],[136.781,31.394],[136.2,31.418],[135.619,31.44],[135.037,31.459],[134.456,31.476],[133.874,31.49],[133.304,31.567],[132.733,31.642],[132.162,31.714],[131.589,31.784],[131.015,31.851],[130.441,31.916],[129.866,31.978],[129.29,32.037],[128.714,32.094],[128.137,32.148],[127.559,32.2],[126.98,32.249],[126.401,32.295],[125.821,32.338],[125.241,32.379],[124.66,32.418],[124.079,32.453],[123.501,32.467],[122.923,32.477],[122.344,32.486],[121.766,32.491],[121.188,32.494],[120.609,32.494],[120.031,32.491],[119.452,32.486],[118.874,32.479],[118.296,32.468],[117.718,32.455],[117.14,32.439],[116.562,32.421],[115.985,32.4],[115.408,32.377],[114.831,32.35],[114.255,32.321],[113.679,32.29],[113.103,32.256],[112.528,32.219],[111.953,32.18],[111.379,32.138],[110.805,32.094],[110.232,32.047],[109.711,31.981],[109.191,31.913],[108.671,31.842],[108.152,31.77],[107.634,31.696]]}},{"type":"Feature","properties":{"boundary_type":"subduction","feature_type":"gpml:SubductionZone","polarity":"Left","overriding_plate_id":701,"subducting_plate_id":501,"plate_ids":[501,701],"name":"Sao Francisco subduction zone"},"geometry":{"type":"LineString","coordinates":[[8.713,-36.757],[9.089,-37.067],[9.467,-37.375],[9.849,-37.683],[10.235,-37.989],[10.69,-38.279],[11.15,-38.568],[11.613,-38.854],[12.08,-39.139],[12.55,-39.422],[13.024,-39.703],[13.503,-39.982],[13.985,-40.26],[14.471,-40.535],[14.961,-40.808],[15.455,-41.079],[15.912,-41.333],[16.373,-41.585],[16.838,-41.836],[17.306,-42.084],[17.777,-42.331],[18.253,-42.576],[18.401,-42.641]]}},{"type":"Feature","properties":{"boundary_type":"subduction","feature_type":"gpml:SubductionZone","polarity":"Left","overriding_plate_id":701,"subducting_plate_id":9804,"plate_ids":[701,9804],"name":"Sao Francisco subduction zone"},"geometry":{"type":"LineString","coordinates":[[18.401,-42.641],[18.902,-42.858],[19.407,-43.073],[19.915,-43.286],[20.427,-43.497],[20.943,-43.705],[21.479,-43.942],[22.019,-44.176],[22.563,-44.408],[23.112,-44.637],[23.665,-44.864],[24.108,-45.124],[24.556,-45.383],[25.008,-45.64],[25.464,-45.895],[25.924,-46.148],[26.364,-46.446],[26.808,-46.743],[27.258,-47.038],[27.712,-47.331],[28.167,-47.632],[28.626,-47.931],[29.091,-48.229],[29.561,-48.524],[30.158,-48.729],[30.76,-48.931],[31.366,-49.13],[31.977,-49.326],[32.594,-49.518],[33.215,-49.707],[33.841,-49.893],[34.471,-50.075],[35.107,-50.254],[35.749,-50.433],[36.396,-50.609],[37.049,-50.78],[37.705,-50.949],[38.367,-51.113],[39.106,-50.966],[39.841,-50.815],[40.571,-50.658],[41.295,-50.498],[42.015,-50.333],[42.73,-50.163],[43.44,-49.989],[44.144,-49.811],[44.843,-49.628],[45.537,-49.442],[46.226,-49.251],[46.909,-49.056],[47.587,-48.857],[48.259,-48.654],[48.926,-48.448],[49.588,-48.237],[50.244,-48.023],[50.895,-47.805],[51.54,-47.583],[52.18,-47.358]]}},{"type":"Feature","properties":{"boundary_type":"subduction","feature_type":"gpml:SubductionZone","polarity":"Left","overriding_plate_id":701,"subducting_plate_id":501,"plate_ids":[501,701],"name":"Sahara_SZ"},"geometry":{"type":"LineString","coordinates":[[-22.901,-18.208],[-22.527,-18.541],[-22.151,-18.873],[-21.774,-19.204],[-21.395,-19.534],[-21.015,-19.864],[-20.633,-20.193],[-20.25,-20.521],[-19.865,-20.848],[-19.478,-21.174],[-19.09,-21.499],[-18.7,-21.824],[-18.308,-22.147],[-17.914,-22.47],[-17.519,-22.791],[-17.121,-23.112],[-16.722,-23.432],[-16.321,-23.75],[-15.918,-24.068],[-15.512,-24.384],[-15.105,-24.7],[-14.696,-25.014],[-14.284,-25.327],[-13.871,-25.639],[-13.455,-25.95],[-13.037,-26.26],[-12.617,-26.569],[-12.195,-26.876],[-11.77,-27.182],[-11.343,-27.486],[-10.914,-27.79],[-10.482,-28.092],[-10.048,-28.393],[-9.611,-28.692],[-9.176,-28.973],[-8.737,-29.253],[-8.297,-29.532],[-7.854,-29.809],[-7.408,-30.085],[-6.96,-30.359],[-6.51,-30.632],[-6.057,-30.903],[-5.601,-31.173],[-5.143,-31.44],[-4.682,-31.707],[-4.219,-31.971],[-3.753,-32.234],[-3.284,-32.495],[-2.813,-32.755],[-2.338,-33.012],[-1.861,-33.268],[-1.326,-33.453],[-0.789,-33.634],[-0.249,-33.814],[0.293,-33.991],[0.838,-34.166],[1.384,-34.338],[1.933,-34.508],[2.484,-34.676],[3.037,-34.841],[3.592,-35.003],[4.15,-35.163],[4.648,-35.349],[5.148,-35.532],[5.65,-35.713],[6.155,-35.893],[6.662,-36.07],[7.171,-36.245],[7.683,-36.418],[8.197,-36.588],[8.713,-36.757]]}},{"type":"Feature","properties":{"boundary_type":"subduction","feature_type":"gpml:SubductionZone","polarity":"Left","overriding_plate_id":602,"subducting_plate_id":6024,"plate_ids":[602,6024],"name":"Jiangang SZ"},"geometry":{"type":"LineString","coordinates":[[-81.622,43.52],[-81.144,43.174],[-80.671,42.827],[-80.204,42.477],[-79.742,42.126],[-79.285,41.772],[-78.834,41.417],[-78.387,41.061],[-77.945,40.702],[-77.507,40.342],[-77.075,39.98],[-76.647,39.617],[-76.223,39.252],[-75.804,38.885],[-75.389,38.517],[-74.978,38.148],[-74.572,37.777],[-74.169,37.405],[-73.771,37.031],[-73.376,36.656],[-72.986,36.28],[-72.664,35.892],[-72.345,35.502],[-72.03,35.112],[-71.718,34.721],[-71.408,34.33],[-71.102,33.937],[-70.798,33.544],[-70.497,33.15],[-70.199,32.755],[-69.903,32.36],[-69.61,31.964],[-69.319,31.567],[-69.031,31.17],[-68.745,30.772],[-68.525,30.325],[-68.306,29.878],[-68.089,29.43],[-67.874,28.982],[-67.661,28.534],[-67.45,28.085],[-67.241,27.636],[-67.033,27.187],[-66.827,26.738],[-66.623,26.288],[-66.42,25.838],[-66.066,25.49],[-65.714,25.141],[-65.364,24.791],[-65.016,24.441],[-64.67,24.09],[-64.326,23.738],[-63.984,23.385],[-63.644,23.032],[-63.305,22.677],[-62.968,22.322],[-62.633,21.967],[-62.3,21.611],[-61.968,21.254],[-61.498,21.033],[-61.029,20.812],[-60.561,20.589],[-60.095,20.365],[-59.63,20.14],[-59.166,19.914],[-58.704,19.686],[-58.243,19.457],[-57.784,19.227],[-57.325,18.996],[-56.868,18.764],[-56.413,18.53]]}},{"type":"Feature","properties":{"boundary_type":"subduction","feature_type":"gpml:SubductionZone","polarity":"Right","overriding_plate_id":101,"subducting_plate_id":801,"plate_ids":[101,801],"name":"Siberia SZ"},"geometry":{"type":"LineString","coordinates":[[157.465,25.759],[157.99,25.899],[158.517,26.037],[159.045,26.174],[159.575,26.308],[160.105,26.441],[160.637,26.571],[161.17,26.7],[161.705,26.826],[162.24,26.951],[162.777,27.073],[163.287,27.24],[163.8,27.405],[164.313,27.568],[164.829,27.729],[165.346,27.888],[165.864,28.045],[166.384,28.201],[166.905,28.354],[167.428,28.505],[167.952,28.654],[168.478,28.802],[169.005,28.947],[169.534,29.09],[170.064,29.231],[170.596,29.37],[171.16,29.381],[171.724,29.39],[172.289,29.396],[172.854,29.4],[173.418,29.401],[173.983,29.401],[174.547,29.397],[175.112,29.392],[175.676,29.384],[176.24,29.373],[176.805,29.36],[177.369,29.345],[177.933,29.328],[178.496,29.308],[179.028,29.347],[179.561,29.384],[-179.907,29.419],[-179.374,29.452],[-178.84,29.482],[-178.306,29.511],[-177.772,29.538],[-177.238,29.562],[-176.704,29.584],[-176.169,29.604],[-175.634,29.622],[-175.099,29.638],[-174.563,29.651],[-174.028,29.663],[-173.601,29.963],[-173.172,30.261],[-172.741,30.558],[-172.306,30.854],[-171.869,31.148],[-171.429,31.441],[-170.987,31.732],[-170.542,32.022],[-170.094,32.31],[-169.643,32.596],[-169.189,32.881],[-168.732,33.164],[-168.272,33.446],[-167.798,33.747],[-167.32,34.046],[-166.838,34.344],[-166.354,34.639],[-165.865,34.933],[-165.374,35.225],[-164.878,35.514],[-164.379,35.802],[-163.877,36.088],[-163.371,36.371],[-162.861,36.652],[-162.347,36.931],[-161.77,36.993],[-161.191,37.052],[-160.612,37.108],[-160.031,37.161],[-159.45,37.211],[-158.868,37.259],[-158.286,37.304],[-157.702,37.345],[-157.118,37.384],[-156.534,37.42],[-155.949,37.453],[-155.363,37.484],[-154.777,37.511],[-154.191,37.536],[-153.591,37.491],[-152.993,37.443],[-152.395,37.393],[-151.797,37.339],[-151.201,37.282],[-150.606,37.223],[-150.011,37.16],[-149.418,37.095]]}},{"type":"Feature","properties":{"boundary_type":"subduction","feature_type":"gpml:SubductionZone","polarity":"Right","overriding_plate_id":101,"subducting_plate_id":801,"plate_ids":[101,801],"name":"SZ"},"geometry":{"type":"LineString","coordinates":[[-149.418,37.095],[-148.896,37.326],[-148.37,37.556],[-147.841,37.783],[-147.309,38.007],[-146.773,38.229],[-146.234,38.449],[-145.692,38.666],[-145.147,38.881],[-144.598,39.093],[-144.047,39.303],[-143.491,39.51],[-142.933,39.714],[-142.371,39.916],[-141.806,40.115],[-141.238,40.311],[-140.666,40.505],[-140.091,40.695],[-139.513,40.883],[-138.932,41.067],[-138.347,41.249],[-137.759,41.428],[-137.152,41.629],[-136.54,41.826],[-135.925,42.02],[-135.306,42.211],[-134.684,42.398],[-134.058,42.582],[-133.428,42.763],[-132.795,42.94],[-132.157,43.114],[-131.517,43.284],[-130.872,43.45],[-130.225,43.613],[-129.573,43.772],[-128.919,43.928],[-128.261,44.08],[-127.599,44.227]]}},{"type":"Feature","properties":{"boundary_type":"subduction","feature_type":"gpml:SubductionZone","polarity":"Right","overriding_plate_id":6024,"subducting_plate_id":801,"plate_ids":[801,6024],"name":"SZ"},"geometry":{"type":"LineString","coordinates":[[-127.599,44.227],[-126.988,44.36],[-126.374,44.489],[-125.758,44.616],[-125.139,44.738],[-124.517,44.858],[-123.892,44.974],[-123.266,45.086],[-122.636,45.195],[-122.005,45.301],[-121.321,45.431],[-120.633,45.558],[-119.943,45.68],[-119.25,45.798],[-118.554,45.912],[-117.855,46.022],[-117.153,46.127],[-116.449,46.228],[-115.742,46.325],[-115.033,46.417],[-114.321,46.505],[-113.607,46.588],[-112.891,46.667],[-112.173,46.742],[-111.453,46.812],[-110.732,46.877],[-110.008,46.938],[-109.283,46.995],[-108.557,47.047],[-107.829,47.094],[-107.1,47.136],[-106.369,47.174],[-105.638,47.208],[-104.906,47.236],[-104.173,47.26],[-103.44,47.28],[-102.706,47.294],[-101.972,47.304],[-101.237,47.31],[-100.503,47.31],[-99.768,47.306],[-99.034,47.297],[-98.3,47.284],[-97.567,47.266],[-96.834,47.243],[-96.149,47.067],[-95.469,46.887],[-94.794,46.704],[-94.124,46.516],[-93.458,46.324],[-92.796,46.129],[-92.14,45.93],[-91.488,45.727],[-90.841,45.52],[-90.199,45.31],[-89.561,45.096],[-88.929,44.879],[-88.301,44.658],[-87.678,44.434],[-87.06,44.206],[-86.446,43.975],[-85.837,43.741]]}},{"type":"Feature","properties":{"boundary_type":"ridge","feature_type":"gpml:MidOceanRidge","polarity":null,"overriding_plate_id":null,"subducting_plate_id":null,"plate_ids":[501,6024],"name":"MOR"},"geometry":{"type":"LineString","coordinates":[[-72.542,-35.42],[-72.05,-35.582],[-71.555,-35.742],[-71.059,-35.9]]}},{"type":"Feature","properties":{"boundary_type":"ridge","feature_type":"gpml:MidOceanRidge","polarity":null,"overriding_plate_id":null,"subducting_plate_id":null,"plate_ids":[501,9804],"name":"MOR"},"geometry":{"type":"LineString","coordinates":[[-71.059,-35.9],[-70.496,-36.076],[-69.93,-36.249],[-69.361,-36.42],[-68.791,-36.588],[-68.217,-36.753],[-67.642,-36.915],[-67.064,-37.075],[-66.483,-37.231],[-65.9,-37.385],[-65.315,-37.536],[-64.727,-37.684],[-64.137,-37.829],[-63.545,-37.972],[-62.95,-38.111],[-62.354,-38.247],[-61.755,-38.38],[-61.153,-38.51],[-60.55,-38.638],[-59.945,-38.761],[-59.337,-38.882],[-58.727,-39.0],[-58.857,-39.472],[-58.989,-39.945],[-59.123,-40.417],[-59.259,-40.889],[-59.396,-41.361],[-59.536,-41.833],[-59.677,-42.304],[-59.821,-42.775],[-59.967,-43.247],[-60.115,-43.718],[-60.266,-44.188],[-60.418,-44.659],[-60.574,-45.129],[-60.732,-45.599],[-60.893,-46.069],[-61.056,-46.539],[-61.223,-47.009],[-61.392,-47.478],[-61.564,-47.947],[-61.74,-48.415],[-61.918,-48.884],[-62.101,-49.352],[-62.286,-49.82],[-62.475,-50.288],[-62.668,-50.755],[-62.865,-51.222],[-63.066,-51.688],[-62.355,-51.889],[-61.638,-52.085],[-60.914,-52.277],[-60.185,-52.464],[-59.449,-52.647],[-58.707,-52.825],[-57.959,-52.998],[-57.205,-53.167],[-56.445,-53.331],[-55.679,-53.49],[-54.908,-53.644],[-54.131,-53.794],[-53.348,-53.938],[-52.561,-54.077],[-51.768,-54.21],[-50.97,-54.339],[-50.167,-54.462],[-49.359,-54.58],[-48.547,-54.693],[-47.731,-54.8],[-46.91,-54.901],[-46.085,-54.997],[-45.256,-55.088],[-45.463,-55.548],[-45.675,-56.007],[-45.891,-56.466],[-46.113,-56.925],[-46.341,-57.384],[-46.574,-57.841],[-46.813,-58.299],[-47.059,-58.756],[-47.311,-59.213],[-47.57,-59.669],[-47.836,-60.124],[-48.109,-60.579],[-48.391,-61.034],[-47.366,-61.084],[-46.339,-61.127],[-45.309,-61.162],[-44.276,-61.189],[-43.243,-61.209],[-42.208,-61.22],[-41.173,-61.224],[-40.138,-61.22],[-39.103,-61.207],[-38.07,-61.187],[-37.038,-61.159],[-36.008,-61.124],[-34.981,-61.08],[-33.957,-61.029],[-32.936,-60.97],[-31.919,-60.903],[-30.907,-60.829],[-29.9,-60.747],[-28.898,-60.657],[-27.902,-60.56],[-26.912,-60.456],[-25.929,-60.344],[-24.953,-60.226],[-23.983,-60.1],[-23.022,-59.967],[-22.068,-59.827],[-21.123,-59.68],[-20.186,-59.527],[-19.257,-59.367],[-18.338,-59.2],[-17.427,-59.027],[-16.526,-58.848],[-15.635,-58.662],[-14.752,-58.471],[-13.88,-58.273],[-13.018,-58.069],[-12.165,-57.86],[-11.322,-57.645],[-10.49,-57.425],[-9.667,-57.199],[-8.855,-56.968],[-8.053,-56.731],[-7.26,-56.49],[-6.478,-56.243],[-5.706,-55.992],[-4.945,-55.736],[-4.193,-55.475],[-3.451,-55.21],[-2.719,-54.94],[-1.997,-54.666],[-1.285,-54.388],[-0.582,-54.105],[0.111,-53.819],[0.795,-53.529],[1.469,-53.234],[2.134,-52.936],[2.79,-52.635],[3.437,-52.329],[4.075,-52.021],[4.704,-51.709],[5.324,-51.393],[5.936,-51.074],[6.54,-50.753],[7.135,-50.428],[7.722,-50.1],[8.301,-49.769],[8.872,-49.435],[9.436,-49.099],[9.991,-48.76],[10.54,-48.418],[11.081,-48.074],[11.614,-47.727],[12.141,-47.378],[12.661,-47.026],[13.174,-46.672],[13.68,-46.316],[14.179,-45.957],[14.673,-45.597],[15.159,-45.234],[15.64,-44.869],[16.115,-44.503],[16.583,-44.134],[17.046,-43.763],[17.503,-43.391],[17.955,-43.017],[18.401,-42.641]]}},{"type":"Feature","properties":{"boundary_type":"subduction","feature_type":"gpml:SubductionZone","polarity":"Left","overriding_plate_id":101,"subducting_plate_id":77030,"plate_ids":[101,77030],"name":"inferred SZ"},"geometry":{"type":"LineString","coordinates":[[96.632,-15.933],[96.557,-16.408],[96.481,-16.884],[96.405,-17.359],[96.328,-17.834],[96.251,-18.309],[96.174,-18.784],[96.096,-19.259],[96.018,-19.734],[95.939,-20.209],[95.859,-20.684],[95.78,-21.159],[95.699,-21.634],[95.619,-22.109],[95.537,-22.583],[95.455,-23.058],[95.373,-23.533],[95.29,-24.008],[95.206,-24.482],[95.122,-24.957],[95.073,-25.434],[95.024,-25.91],[94.974,-26.387],[94.924,-26.864],[94.874,-27.341],[94.823,-27.817],[94.771,-28.294],[94.72,-28.771],[94.667,-29.247],[94.615,-29.724],[94.561,-30.201],[94.508,-30.677],[94.453,-31.154]]}},{"type":"Feature","properties":{"boundary_type":"subduction","feature_type":"gpml:SubductionZone","polarity":"Left","overriding_plate_id":101,"subducting_plate_id":701,"plate_ids":[101,701],"name":"inferred SZ"},"geometry":{"type":"LineString","coordinates":[[94.453,-31.154],[94.397,-31.647],[94.339,-32.139],[94.281,-32.632],[94.223,-33.125],[94.164,-33.617],[94.104,-34.11],[94.043,-34.603],[93.982,-35.095],[93.92,-35.588],[93.857,-36.08],[93.793,-36.573],[93.729,-37.065],[93.663,-37.557],[93.597,-38.05],[93.53,-38.542],[93.468,-39.012],[93.406,-39.482],[93.342,-39.952],[93.277,-40.421],[93.212,-40.891],[93.146,-41.361],[93.078,-41.83],[93.01,-42.3],[92.941,-42.77],[92.87,-43.239],[92.799,-43.709],[92.726,-44.178],[92.653,-44.647]]}},{"type":"Feature","properties":{"boundary_type":"subduction","feature_type":"gpml:SubductionZone","polarity":"Left","overriding_plate_id":302,"subducting_plate_id":30204,"plate_ids":[302,30204],"name":"inferred SZ"},"geometry":{"type":"LineString","coordinates":[[144.575,-19.414],[144.713,-19.87],[144.853,-20.325],[144.993,-20.779],[145.134,-21.234],[145.276,-21.689],[145.327,-22.103],[145.378,-22.517],[145.43,-22.931],[145.481,-23.345],[145.534,-23.759],[145.586,-24.174],[145.476,-24.651],[145.364,-25.129],[145.252,-25.607],[145.139,-26.085],[145.025,-26.563],[144.91,-27.04],[144.662,-27.465],[144.413,-27.889],[144.161,-28.312],[143.908,-28.736],[143.652,-29.158],[143.395,-29.581],[143.135,-30.002],[143.038,-30.476],[142.94,-30.95],[142.841,-31.424],[142.742,-31.898],[142.641,-32.371],[142.539,-32.845],[142.436,-33.318],[142.332,-33.792],[142.226,-34.265]]}},{"type":"Feature","properties":{"boundary_type":"subduction","feature_type":"gpml:SubductionZone","polarity":"Left","overriding_plate_id":302,"subducting_plate_id":101,"plate_ids":[101,302],"name":"inferred SZ"},"geometry":{"type":"LineString","coordinates":[[142.226,-34.265],[142.175,-34.496],[142.183,-34.958],[142.191,-35.419],[142.199,-35.88],[142.208,-36.342],[142.216,-36.803],[142.225,-37.264],[142.233,-37.726],[142.242,-38.187],[142.251,-38.648],[142.26,-39.11],[142.27,-39.571],[142.279,-40.032],[142.423,-40.505],[142.569,-40.978],[142.718,-41.45],[142.868,-41.922],[143.021,-42.394],[143.176,-42.866],[143.334,-43.337],[143.494,-43.809],[143.657,-44.28],[143.822,-44.751],[143.99,-45.221],[144.16,-45.692],[144.334,-46.162],[144.588,-46.618],[144.847,-47.073],[145.11,-47.528],[145.378,-47.982],[145.651,-48.436],[145.928,-48.889],[146.211,-49.341],[146.498,-49.793],[146.792,-50.244],[147.09,-50.694],[147.395,-51.143],[147.719,-51.574],[148.049,-52.004],[148.386,-52.433],[148.729,-52.861],[149.079,-53.288],[149.436,-53.714],[149.8,-54.139],[150.172,-54.563],[150.552,-54.985],[150.939,-55.407],[151.336,-55.827],[151.74,-56.246],[152.154,-56.664],[152.577,-57.08],[153.009,-57.494],[153.452,-57.907],[154.12,-58.255],[154.801,-58.599],[155.495,-58.939],[156.204,-59.275],[156.926,-59.607],[157.663,-59.936],[158.414,-60.26],[159.18,-60.58],[159.961,-60.895],[160.758,-61.206],[161.571,-61.512],[162.4,-61.813],[163.245,-62.109],[164.106,-62.399],[164.984,-62.685],[165.879,-62.964],[166.792,-63.238],[167.721,-63.506],[168.315,-63.619]]}},{"type":"Feature","properties":{"boundary_type":"subduction","feature_type":"gpml:SubductionZone","polarity":"Left","overriding_plate_id":701,"subducting_plate_id":9804,"plate_ids":[701,9804],"name":"SZ"},"geometry":{"type":"LineString","coordinates":[[52.18,-47.358],[52.885,-47.372],[53.591,-47.381],[54.297,-47.386],[55.003,-47.387],[55.709,-47.383],[56.414,-47.375],[57.12,-47.363],[57.825,-47.346],[58.53,-47.325],[59.234,-47.3],[59.937,-47.27],[60.639,-47.236],[61.341,-47.198],[62.041,-47.156],[62.741,-47.109],[63.438,-47.058],[64.135,-47.003],[64.845,-47.004],[65.554,-47.002],[66.264,-46.995],[66.973,-46.983],[67.682,-46.968],[68.39,-46.948],[69.098,-46.923],[69.805,-46.894],[70.511,-46.861],[71.216,-46.823],[71.921,-46.782],[72.622,-46.763],[73.323,-46.74],[74.022,-46.713],[74.722,-46.681],[75.42,-46.645],[76.117,-46.605],[76.814,-46.561],[77.509,-46.512],[78.202,-46.46],[78.895,-46.403],[79.586,-46.342],[80.275,-46.276],[80.963,-46.207],[81.649,-46.134],[82.332,-46.056],[83.014,-45.974],[83.717,-45.907],[84.417,-45.835],[85.116,-45.759],[85.813,-45.679],[86.507,-45.594],[87.2,-45.505],[87.89,-45.412],[88.578,-45.315],[89.264,-45.214],[89.947,-45.109],[90.627,-44.999],[91.305,-44.886],[91.98,-44.769],[92.653,-44.647]]}},{"type":"Feature","properties":{"boundary_type":"subduction","feature_type":"gpml:SubductionZone","polarity":"Left","overriding_plate_id":101,"subducting_plate_id":9804,"plate_ids":[101,9804],"name":"SZ"},"geometry":{"type":"LineString","coordinates":[[92.653,-44.647],[92.764,-44.627]]}},{"type":"Feature","properties":{"boundary_type":"subduction","feature_type":"gpml:SubductionZone","polarity":"Left","overriding_plate_id":602,"subducting_plate_id":501,"plate_ids":[501,602],"name":"NorthIndia SZ"},"geometry":{"type":"LineString","coordinates":[[-57.989,-3.472],[-57.648,-3.127],[-57.308,-2.781],[-56.969,-2.435],[-56.629,-2.09],[-56.289,-1.744],[-55.95,-1.398],[-55.611,-1.052],[-55.271,-0.706],[-54.932,-0.36],[-54.593,-0.014],[-54.284,0.377],[-53.975,0.767],[-53.666,1.157],[-53.356,1.547],[-53.047,1.938],[-52.737,2.328],[-52.428,2.718],[-52.118,3.108],[-51.808,3.498],[-51.497,3.888],[-51.187,4.277],[-50.876,4.667],[-50.564,5.056],[-50.253,5.446],[-49.941,5.835],[-49.628,6.224],[-49.315,6.613],[-49.002,7.001],[-48.688,7.389],[-48.373,7.778],[-48.058,8.166],[-47.742,8.553],[-47.426,8.941],[-47.109,9.328],[-46.791,9.715],[-46.472,10.101],[-46.153,10.487],[-45.833,10.873],[-45.512,11.259],[-45.321,11.693],[-45.129,12.127],[-44.936,12.56],[-44.743,12.994],[-44.549,13.427],[-44.355,13.86],[-44.159,14.293],[-43.963,14.726],[-43.766,15.159],[-43.569,15.591],[-43.37,16.024],[-43.171,16.456],[-42.971,16.888],[-42.77,17.32],[-42.567,17.751],[-42.364,18.182],[-42.33,18.396]]}},{"type":"Feature","properties":{"boundary_type":"ridge","feature_type":"gpml:MidOceanRidge","polarity":null,"overriding_plate_id":null,"subducting_plate_id":null,"plate_ids":[101],"name":"MOR"},"geometry":{"type":"LineString","coordinates":[[-167.209,-21.737],[-167.241,-21.293]]}},{"type":"Feature","properties":{"boundary_type":"ridge","feature_type":"gpml:MidOceanRidge","polarity":null,"overriding_plate_id":null,"subducting_plate_id":null,"plate_ids":[101,6024],"name":"MOR"},"geometry":{"type":"LineString","coordinates":[[-167.241,-21.293],[-167.276,-20.799],[-167.31,-20.306],[-167.344,-19.813],[-167.378,-19.319],[-167.412,-18.826],[-167.446,-18.333],[-167.48,-17.839],[-167.513,-17.346],[-167.546,-16.852],[-167.579,-16.359],[-167.612,-15.866],[-167.644,-15.372],[-167.677,-14.879],[-167.709,-14.385],[-167.741,-13.892],[-167.774,-13.399],[-167.805,-12.905],[-167.837,-12.412],[-167.869,-11.918],[-167.9,-11.425],[-167.932,-10.931],[-167.963,-10.438],[-167.995,-9.944],[-167.492,-9.924],[-166.99,-9.902],[-166.488,-9.88],[-165.986,-9.857],[-165.485,-9.834],[-164.983,-9.809],[-164.481,-9.784],[-163.979,-9.758],[-163.478,-9.732],[-162.976,-9.704],[-162.475,-9.676],[-161.974,-9.647],[-161.472,-9.618],[-160.971,-9.588],[-160.47,-9.557],[-159.969,-9.525],[-159.468,-9.493],[-158.968,-9.46],[-158.467,-9.426],[-157.966,-9.391],[-157.466,-9.356],[-156.966,-9.32],[-156.465,-9.283],[-155.965,-9.246],[-155.465,-9.208],[-154.965,-9.169],[-154.465,-9.13],[-153.966,-9.09],[-153.466,-9.049],[-152.967,-9.008],[-152.467,-8.966],[-151.968,-8.923],[-151.469,-8.88],[-150.97,-8.835],[-150.471,-8.791],[-149.972,-8.745],[-149.473,-8.699],[-148.975,-8.652],[-148.476,-8.605],[-147.978,-8.557],[-147.48,-8.508],[-146.982,-8.459],[-146.484,-8.409],[-145.986,-8.359],[-145.489,-8.308],[-144.991,-8.256],[-144.494,-8.204],[-143.996,-8.151],[-143.499,-8.097],[-143.002,-8.043],[-142.506,-7.988],[-142.009,-7.933],[-141.512,-7.877],[-141.016,-7.82],[-140.519,-7.763],[-140.023,-7.705],[-139.527,-7.647],[-139.031,-7.588],[-138.536,-7.529],[-138.04,-7.469],[-137.544,-7.408],[-137.049,-7.347],[-136.554,-7.285],[-136.059,-7.223],[-136.017,-6.728],[-135.975,-6.232],[-135.933,-5.737],[-135.891,-5.241],[-135.849,-4.745],[-135.807,-4.25],[-135.765,-3.754],[-135.724,-3.259],[-135.682,-2.763],[-135.64,-2.268],[-135.599,-1.772],[-135.557,-1.276],[-135.516,-0.781],[-135.474,-0.285],[-135.433,0.21],[-135.391,0.706],[-135.35,1.202],[-135.308,1.697],[-135.266,2.193],[-135.225,2.688],[-135.183,3.184],[-135.141,3.68],[-135.1,4.175],[-134.613,4.249],[-134.125,4.322],[-133.638,4.395],[-133.15,4.467],[-132.663,4.54],[-132.175,4.612],[-131.687,4.683],[-131.199,4.754],[-130.712,4.825],[-130.223,4.896],[-129.735,4.966],[-129.247,5.036],[-128.759,5.105],[-128.27,5.175],[-127.781,5.243],[-127.293,5.312],[-126.804,5.38],[-126.315,5.447],[-125.826,5.515],[-125.337,5.581],[-124.848,5.648],[-124.358,5.714],[-123.869,5.779],[-123.379,5.844],[-122.889,5.909],[-122.4,5.973],[-121.91,6.037],[-121.42,6.101],[-120.93,6.164],[-120.439,6.226],[-119.949,6.288],[-119.458,6.35],[-119.539,6.838],[-119.621,7.325],[-119.702,7.813],[-119.784,8.3],[-119.865,8.788],[-119.947,9.275],[-120.03,9.762],[-120.112,10.25],[-120.195,10.737],[-120.278,11.225],[-120.361,11.712],[-120.445,12.199],[-120.528,12.687],[-120.613,13.174],[-120.697,13.661],[-120.782,14.148],[-120.867,14.635],[-120.953,15.123],[-121.039,15.61],[-121.125,16.097],[-121.212,16.584],[-121.3,17.071],[-121.387,17.558],[-121.475,18.045],[-121.564,18.532],[-121.653,19.019],[-121.743,19.505],[-121.833,19.992],[-121.924,20.479],[-122.016,20.966],[-122.108,21.452],[-122.2,21.939],[-122.294,22.425],[-122.388,22.912],[-122.482,23.398],[-122.578,23.885],[-122.674,24.371],[-122.77,24.857],[-122.868,25.343],[-122.966,25.829],[-123.065,26.315],[-123.165,26.801],[-123.266,27.287],[-123.368,27.773],[-123.47,28.259],[-123.574,28.745],[-123.678,29.23],[-123.784,29.716],[-123.891,30.201],[-123.998,30.686],[-124.107,31.172],[-124.217,31.657],[-124.328,32.142],[-124.44,32.627],[-124.553,33.112],[-124.668,33.597],[-124.784,34.081],[-124.901,34.566],[-125.02,35.05],[-125.14,35.534],[-125.261,36.019],[-125.384,36.503],[-125.509,36.987],[-125.635,37.471],[-125.763,37.954],[-125.892,38.438],[-126.023,38.921],[-126.156,39.404],[-126.291,39.887],[-126.428,40.37],[-126.567,40.853],[-126.708,41.336],[-126.851,41.818],[-126.996,42.3],[-127.143,42.782],[-127.293,43.264],[-127.445,43.746],[-127.599,44.227]]}},{"type":"Feature","properties":{"boundary_type":"subduction","feature_type":"gpml:SubductionZone","polarity":"Left","overriding_plate_id":602,"subducting_plate_id":6024,"plate_ids":[602,6024],"name":"N-India SZ"},"geometry":{"type":"LineString","coordinates":[[-56.413,18.53],[-56.358,18.095],[-56.304,17.66],[-56.25,17.224],[-56.197,16.789],[-56.143,16.353],[-56.09,15.918],[-56.037,15.482],[-55.984,15.047],[-55.99,14.559],[-55.996,14.071],[-56.001,13.583],[-56.007,13.096],[-56.012,12.608],[-56.018,12.12],[-56.023,11.632],[-56.029,11.145],[-56.034,10.657],[-56.04,10.169],[-56.045,9.681],[-56.05,9.194],[-56.056,8.706],[-56.061,8.218],[-56.067,7.73],[-56.072,7.243],[-56.077,6.755],[-56.083,6.267],[-56.088,5.779],[-56.189,5.292],[-56.289,4.806],[-56.39,4.319],[-56.49,3.832],[-56.59,3.345],[-56.69,2.858],[-56.79,2.371],[-56.89,1.884],[-56.99,1.397],[-57.09,0.91],[-57.19,0.423],[-57.289,-0.064],[-57.389,-0.551],[-57.489,-1.038],[-57.589,-1.525],[-57.689,-2.011],[-57.789,-2.498],[-57.889,-2.985],[-57.989,-3.472]]}},{"type":"Feature","properties":{"boundary_type":"subduction","feature_type":"gpml:SubductionZone","polarity":"Left","overriding_plate_id":501,"subducting_plate_id":6024,"plate_ids":[501,6024],"name":"N-India SZ"},"geometry":{"type":"LineString","coordinates":[[-57.989,-3.472],[-58.089,-3.959],[-58.189,-4.446],[-58.29,-4.933],[-58.39,-5.42],[-58.491,-5.907],[-58.592,-6.394],[-58.693,-6.88],[-58.795,-7.367],[-58.896,-7.854],[-58.998,-8.341],[-59.1,-8.827],[-59.202,-9.314],[-59.305,-9.801],[-59.408,-10.287],[-59.511,-10.774],[-59.615,-11.261],[-59.82,-11.716],[-60.025,-12.17],[-60.232,-12.625],[-60.439,-13.08],[-60.647,-13.534],[-60.855,-13.988],[-61.065,-14.442],[-61.275,-14.896],[-61.486,-15.349],[-61.699,-15.803],[-61.912,-16.256],[-62.126,-16.709],[-62.341,-17.162],[-62.557,-17.614],[-62.774,-18.067],[-62.993,-18.519],[-63.212,-18.97],[-63.433,-19.422],[-63.655,-19.873],[-63.878,-20.324],[-64.102,-20.775],[-64.328,-21.225],[-64.556,-21.675],[-64.784,-22.125],[-65.014,-22.575],[-65.246,-23.024],[-65.479,-23.473],[-65.714,-23.921],[-65.95,-24.369],[-66.188,-24.817],[-66.428,-25.264],[-66.67,-25.711],[-66.913,-26.158],[-67.158,-26.604],[-67.406,-27.05],[-67.655,-27.495],[-67.906,-27.94],[-68.159,-28.384],[-68.415,-28.828],[-68.672,-29.271],[-68.932,-29.714],[-69.194,-30.157],[-69.459,-30.599],[-69.726,-31.04],[-69.995,-31.481],[-70.267,-31.921],[-70.542,-32.361],[-70.819,-32.8],[-71.099,-33.238],[-71.382,-33.676],[-71.667,-34.113],[-71.956,-34.55],[-72.248,-34.985],[-72.542,-35.42]]}},{"type":"Feature","properties":{"boundary_type":"ridge","feature_type":"gpml:MidOceanRidge","polarity":null,"overriding_plate_id":null,"subducting_plate_id":null,"plate_ids":[701,801],"name":""},"geometry":{"type":"LineString","coordinates":[[-52.665,26.02],[-52.327,26.414],[-51.987,26.808],[-51.645,27.2],[-51.3,27.591],[-50.952,27.982],[-50.602,28.372],[-50.25,28.761],[-49.894,29.149],[-49.537,29.536],[-49.176,29.922],[-48.813,30.307],[-48.446,30.691],[-48.077,31.074],[-47.705,31.456],[-47.33,31.837],[-46.951,32.217],[-46.57,32.596],[-46.185,32.973],[-45.797,33.349],[-45.406,33.724],[-45.011,34.098],[-44.612,34.471],[-44.211,34.842],[-43.805,35.212],[-43.396,35.581],[-42.983,35.948],[-42.566,36.313],[-42.145,36.678],[-41.72,37.041],[-41.291,37.402],[-40.858,37.762],[-40.421,38.12],[-39.98,38.476],[-39.534,38.831],[-39.083,39.184],[-38.629,39.535],[-38.169,39.885],[-37.705,40.232],[-37.236,40.578],[-36.762,40.922],[-36.283,41.264],[-35.799,41.604],[-35.311,41.942],[-34.816,42.278],[-34.317,42.611],[-33.812,42.943],[-33.302,43.272],[-32.786,43.599],[-32.265,43.924],[-31.738,44.246],[-31.205,44.565],[-30.666,44.883],[-30.122,45.197],[-29.571,45.509],[-29.014,45.819],[-28.451,46.125],[-27.882,46.429],[-27.307,46.73],[-26.724,47.028],[-26.136,47.323],[-25.541,47.616],[-24.939,47.904],[-24.331,48.19],[-23.715,48.473],[-23.093,48.752],[-22.464,49.028],[-21.828,49.3],[-21.185,49.569],[-20.535,49.834],[-19.878,50.096],[-19.213,50.353],[-18.78,49.943],[-18.354,49.531],[-17.935,49.117],[-17.523,48.702],[-17.117,48.285],[-16.718,47.867],[-16.326,47.448],[-15.94,47.027],[-15.56,46.605],[-15.185,46.182],[-14.817,45.757],[-14.454,45.332],[-14.096,44.905],[-13.744,44.477],[-13.397,44.048],[-13.055,43.618],[-12.718,43.187],[-12.385,42.755],[-12.057,42.323],[-11.734,41.889],[-11.415,41.454],[-11.1,41.019],[-10.789,40.582],[-10.482,40.145],[-10.18,39.707],[-9.881,39.268],[-9.586,38.829],[-9.294,38.388],[-9.006,37.947],[-8.722,37.506],[-8.44,37.063],[-8.162,36.62],[-7.888,36.176],[-7.616,35.732],[-7.347,35.287],[-7.081,34.842],[-6.819,34.396],[-6.558,33.949],[-6.301,33.502],[-6.046,33.054],[-5.794,32.606],[-5.545,32.157],[-5.297,31.708],[-5.053,31.259],[-4.81,30.809],[-4.57,30.358],[-4.332,29.907],[-4.096,29.456],[-3.862,29.004],[-3.631,28.552],[-3.401,28.099],[-3.173,27.646],[-2.947,27.193],[-2.723,26.739],[-2.501,26.285],[-1.975,26.429],[-1.448,26.572],[-0.92,26.712],[-0.391,26.851],[0.14,26.988],[0.672,27.122],[1.205,27.255],[1.74,27.386],[2.276,27.514],[2.813,27.641],[3.351,27.765],[3.891,27.888],[4.431,28.008],[4.973,28.126],[5.516,28.242],[6.061,28.356],[6.606,28.468],[7.153,28.577],[7.7,28.684],[8.249,28.79],[8.799,28.892],[9.35,28.993],[9.902,29.091],[10.455,29.188],[11.009,29.281],[11.564,29.373],[12.12,29.462],[12.678,29.549],[13.236,29.634],[13.795,29.716],[14.354,29.796],[14.915,29.874],[15.477,29.949],[16.039,30.022],[16.602,30.092],[17.166,30.16],[17.731,30.226],[18.297,30.289],[18.863,30.349],[19.43,30.408],[19.998,30.464],[20.566,30.517],[21.135,30.568],[21.704,30.616],[22.274,30.662],[22.845,30.706],[23.416,30.747],[23.987,30.785],[24.559,30.821],[25.131,30.855],[25.704,30.885],[26.277,30.914],[26.851,30.94],[27.424,30.963],[27.601,30.503],[27.776,30.043],[27.949,29.583],[28.121,29.123],[28.291,28.662],[28.459,28.201],[28.626,27.74],[28.792,27.279],[28.957,26.817],[29.12,26.355],[29.281,25.893],[29.442,25.431],[29.601,24.969],[29.759,24.507],[29.916,24.044],[30.072,23.582],[30.227,23.119],[30.38,22.656],[30.533,22.192],[30.684,21.729],[30.835,21.266],[30.985,20.802],[31.134,20.338],[31.281,19.875],[31.428,19.411],[31.575,18.947],[31.72,18.482],[31.865,18.018],[32.008,17.554],[32.151,17.089],[32.294,16.625],[32.805,16.705],[33.316,16.785],[33.828,16.863],[34.34,16.94],[34.852,17.016],[35.365,17.091],[35.879,17.164],[36.392,17.236],[36.907,17.306],[37.421,17.376],[37.936,17.444],[38.451,17.51],[38.967,17.576],[39.483,17.639],[40.0,17.702],[40.516,17.763],[41.033,17.823],[41.551,17.882],[42.069,17.939],[42.587,17.995],[43.105,18.049],[43.624,18.102],[44.143,18.154],[44.663,18.204],[45.182,18.253],[45.702,18.301],[46.223,18.347],[46.743,18.391],[47.264,18.435],[47.785,18.477],[48.306,18.517],[48.828,18.556],[49.35,18.593],[49.872,18.63],[50.394,18.664],[50.916,18.697],[51.439,18.729],[51.962,18.759],[52.485,18.788],[53.008,18.816],[53.531,18.842],[54.055,18.866],[54.578,18.889],[55.102,18.911],[55.626,18.931],[56.15,18.949],[56.674,18.967],[57.199,18.982],[57.723,18.997],[58.247,19.009],[58.347,18.532],[58.445,18.054],[58.543,17.576],[58.641,17.098],[58.738,16.62],[58.834,16.142],[58.93,15.664],[59.026,15.186],[59.121,14.708],[59.216,14.23],[59.31,13.752],[59.404,13.273],[59.498,12.795],[59.591,12.317],[59.684,11.839],[59.776,11.36],[59.869,10.882],[59.961,10.404],[60.052,9.925],[60.547,9.999],[61.041,10.071],[61.536,10.143],[62.031,10.214],[62.526,10.285],[63.021,10.355],[63.517,10.424],[64.013,10.492],[64.509,10.559],[65.005,10.626],[65.502,10.692],[65.998,10.757],[66.495,10.821],[66.992,10.885],[67.49,10.947],[67.987,11.009],[68.485,11.07],[68.983,11.131],[69.481,11.19],[69.98,11.249],[70.478,11.307],[70.977,11.364],[71.476,11.42],[71.975,11.475],[72.474,11.53],[72.974,11.583]]}},{"type":"Feature","properties":{"boundary_type":"ridge","feature_type":"gpml:MidOceanRidge","polarity":null,"overriding_plate_id":null,"subducting_plate_id":null,"plate_ids":[801],"name":""},"geometry":{"type":"LineString","coordinates":[[72.974,11.583],[73.349,11.623]]}},{"type":"Feature","properties":{"boundary_type":"ridge","feature_type":"gpml:MidOceanRidge","polarity":null,"overriding_plate_id":null,"subducting_plate_id":null,"plate_ids":[701],"name":""},"geometry":{"type":"LineString","coordinates":[[72.974,11.583],[73.201,11.309],[73.428,11.035]]}},{"type":"Feature","properties":{"boundary_type":"ridge","feature_type":"gpml:MidOceanRidge","polarity":null,"overriding_plate_id":null,"subducting_plate_id":null,"plate_ids":[701,77030],"name":""},"geometry":{"type":"LineString","coordinates":[[73.428,11.035],[73.738,10.66],[74.046,10.285],[74.354,9.91],[74.662,9.534],[74.968,9.158],[75.274,8.782],[75.579,8.406],[75.884,8.029],[76.188,7.652],[76.492,7.275],[76.795,6.898],[77.098,6.52],[77.4,6.142],[77.702,5.765],[78.003,5.387],[77.615,5.077],[77.228,4.767],[76.842,4.457],[76.455,4.146],[76.069,3.836],[75.683,3.525],[75.298,3.214],[74.913,2.903],[74.527,2.592],[74.143,2.281],[73.758,1.969],[73.373,1.658],[72.989,1.346],[72.604,1.035],[72.22,0.723],[71.836,0.411],[71.452,0.099],[71.067,-0.212],[70.683,-0.524],[70.299,-0.836],[70.537,-1.227],[70.775,-1.619],[71.014,-2.011],[71.252,-2.403],[71.49,-2.794],[71.729,-3.186],[71.968,-3.577],[72.207,-3.969],[71.818,-4.236],[71.428,-4.503],[71.038,-4.769],[70.648,-5.036],[70.257,-5.302],[69.866,-5.568],[69.475,-5.834],[69.083,-6.099],[68.691,-6.364],[68.298,-6.629],[68.611,-7.018],[68.924,-7.406],[69.237,-7.794],[69.551,-8.182],[69.866,-8.57],[70.181,-8.958],[70.497,-9.345],[70.814,-9.732],[71.132,-10.118],[71.45,-10.505],[71.769,-10.891],[72.089,-11.276],[72.409,-11.662],[72.731,-12.047],[73.053,-12.431],[73.377,-12.816],[73.701,-13.199],[74.027,-13.583],[74.353,-13.966],[74.681,-14.348],[75.01,-14.731],[75.34,-15.112],[75.671,-15.493],[76.003,-15.874],[76.337,-16.254],[76.671,-16.634],[77.008,-17.013],[77.345,-17.392],[77.684,-17.77],[78.025,-18.147],[78.366,-18.524],[78.71,-18.9],[78.364,-19.213],[78.017,-19.526],[77.668,-19.838],[77.319,-20.149],[76.967,-20.46],[76.615,-20.769],[76.94,-21.145],[77.267,-21.521],[77.596,-21.896],[77.926,-22.27],[78.258,-22.643],[78.592,-23.016],[78.928,-23.388],[79.266,-23.759],[79.606,-24.13],[79.947,-24.5],[80.291,-24.869],[80.637,-25.237],[80.985,-25.604],[81.334,-25.971],[81.687,-26.337],[82.041,-26.701],[82.398,-27.065],[82.757,-27.429],[83.118,-27.791],[83.482,-28.152],[83.848,-28.512],[84.217,-28.872],[84.588,-29.23],[84.962,-29.587],[85.338,-29.943],[85.718,-30.298],[86.1,-30.652],[86.438,-30.316],[86.774,-29.98],[87.108,-29.642],[87.44,-29.304],[87.769,-28.964],[88.097,-28.624],[88.422,-28.283],[88.745,-27.942],[89.066,-27.599],[89.501,-27.904],[89.938,-28.207],[90.378,-28.508],[90.82,-28.808],[91.265,-29.107],[91.713,-29.404],[92.163,-29.699],[92.615,-29.993],[93.071,-30.286],[93.529,-30.577],[93.99,-30.866],[94.453,-31.154]]}},{"type":"Feature","properties":{"boundary_type":"ridge","feature_type":"gpml:MidOceanRidge","polarity":null,"overriding_plate_id":null,"subducting_plate_id":null,"plate_ids":[77030],"name":""},"geometry":{"type":"LineString","coordinates":[[73.428,11.035],[73.389,11.329],[73.349,11.623]]}},{"type":"Feature","properties":{"boundary_type":"ridge","feature_type":"gpml:MidOceanRidge","polarity":null,"overriding_plate_id":null,"subducting_plate_id":null,"plate_ids":[801,77030],"name":""},"geometry":{"type":"LineString","coordinates":[[73.349,11.623],[73.284,12.103],[73.219,12.583],[73.154,13.063],[73.088,13.543],[73.022,14.023],[72.956,14.504],[72.889,14.984],[72.822,15.464],[72.755,15.944],[72.688,16.424],[72.62,16.904],[72.552,17.384],[72.484,17.864],[72.415,18.343],[72.346,18.823],[72.276,19.303],[72.206,19.783],[72.136,20.263],[72.065,20.743],[71.993,21.222],[71.922,21.702],[71.849,22.182],[71.777,22.662],[72.282,22.717],[72.788,22.77],[73.295,22.823],[73.802,22.873],[74.309,22.922],[74.817,22.969],[75.325,23.015],[75.833,23.059],[76.342,23.101],[76.851,23.142],[76.73,23.612],[76.609,24.082],[77.132,24.2],[77.657,24.316],[78.182,24.43],[78.709,24.542],[79.236,24.653],[79.764,24.761],[80.293,24.868],[80.824,24.973],[81.355,25.076],[81.886,25.177],[82.419,25.276],[82.953,25.374],[83.487,25.469],[84.022,25.562],[84.559,25.654],[85.096,25.743],[85.633,25.831],[86.172,25.917],[86.711,26.0],[87.251,26.082],[87.792,26.161],[88.334,26.239],[88.876,26.314],[89.419,26.388],[89.962,26.459],[90.507,26.529],[91.052,26.596],[91.144,26.855],[91.238,27.114],[91.749,27.294],[92.261,27.472],[92.776,27.648],[93.292,27.823],[93.81,27.995],[94.329,28.166],[94.85,28.334],[95.373,28.501],[95.897,28.665],[96.423,28.827],[96.95,28.988],[97.479,29.146],[98.01,29.302]]}},{"type":"Feature","properties":{"boundary_type":"ridge","feature_type":"gpml:MidOceanRidge","polarity":null,"overriding_plate_id":null,"subducting_plate_id":null,"plate_ids":[101,801],"name":""},"geometry":{"type":"LineString","coordinates":[[98.01,29.302],[98.532,29.454],[99.056,29.603],[99.581,29.75],[100.107,29.895],[100.635,30.037],[101.165,30.178],[101.696,30.317],[102.229,30.453],[102.763,30.588],[103.299,30.72],[103.836,30.85],[104.374,30.977],[104.914,31.103],[105.455,31.226],[105.998,31.347],[106.542,31.465],[107.088,31.582],[107.634,31.696]]}},{"type":"Feature","properties":{"boundary_type":"subduction","feature_type":"gpml:SubductionZone","polarity":"Right","overriding_plate_id":501,"subducting_plate_id":602,"plate_ids":[501,602],"name":""},"geometry":{"type":"LineString","coordinates":[[-42.33,18.396],[-41.943,18.45],[-41.557,18.503],[-41.17,18.555]]}},{"type":"Feature","properties":{"boundary_type":"subduction","feature_type":"gpml:SubductionZone","polarity":"Right","overriding_plate_id":501,"subducting_plate_id":701,"plate_ids":[501,701],"name":""},"geometry":{"type":"LineString","coordinates":[[-41.17,18.555],[-40.725,18.614],[-40.281,18.672],[-39.836,18.729],[-39.391,18.784],[-38.896,18.635],[-38.402,18.484],[-37.909,18.332],[-37.417,18.179],[-36.926,18.024],[-36.436,17.868],[-35.946,17.711],[-35.458,17.553],[-34.97,17.394],[-34.483,17.233],[-33.997,17.071],[-33.512,16.908],[-33.028,16.744],[-32.544,16.579],[-32.061,16.413],[-31.58,16.245],[-31.099,16.077],[-30.765,15.714],[-30.432,15.351],[-30.101,14.987],[-29.771,14.623],[-29.442,14.258],[-29.114,13.893],[-28.787,13.527],[-28.461,13.161],[-28.136,12.795],[-27.811,12.428],[-27.488,12.061],[-27.166,11.694],[-26.845,11.326],[-26.524,10.957],[-26.204,10.589],[-25.885,10.22],[-25.567,9.851],[-25.249,9.481],[-24.932,9.111],[-24.616,8.741],[-24.3,8.371],[-23.985,8.0],[-23.671,7.63],[-23.357,7.259],[-23.043,6.887],[-22.731,6.516],[-22.356,6.242],[-21.981,5.969],[-21.607,5.695],[-21.234,5.421],[-20.86,5.146],[-20.487,4.872],[-20.114,4.597],[-19.742,4.322],[-19.37,4.047]]}},{"type":"Feature","properties":{"boundary_type":"ridge","feature_type":"gpml:MidOceanRidge","polarity":null,"overriding_plate_id":null,"subducting_plate_id":null,"plate_ids":[501,701],"name":""},"geometry":{"type":"LineString","coordinates":[[-19.37,4.047],[-19.305,3.584],[-19.24,3.122],[-19.175,2.659],[-19.11,2.196],[-19.045,1.734],[-18.98,1.271],[-18.915,0.808],[-18.851,0.346],[-18.786,-0.117],[-18.721,-0.58],[-18.656,-1.042],[-18.591,-1.505],[-18.526,-1.968],[-19.016,-2.038],[-19.505,-2.109],[-19.995,-2.179],[-20.484,-2.249],[-20.973,-2.319],[-21.463,-2.389],[-21.447,-2.883],[-21.431,-3.376],[-21.414,-3.87],[-21.398,-4.364],[-21.382,-4.857],[-21.365,-5.351],[-21.349,-5.844],[-21.332,-6.338],[-21.316,-6.831],[-21.3,-7.325],[-21.283,-7.818],[-21.267,-8.312],[-21.25,-8.805],[-21.233,-9.299],[-21.217,-9.793],[-21.2,-10.286],[-21.183,-10.78],[-21.166,-11.273],[-21.149,-11.767],[-21.132,-12.26],[-21.115,-12.754],[-21.098,-13.247],[-21.081,-13.741],[-21.064,-14.234],[-21.047,-14.728],[-21.029,-15.222],[-21.523,-15.287],[-22.018,-15.352],[-22.512,-15.416],[-23.007,-15.478],[-22.989,-15.933],[-22.972,-16.388],[-22.954,-16.843],[-22.936,-17.298],[-22.919,-17.753],[-22.901,-18.208]]}},{"type":"Feature","properties":{"boundary_type":"ridge","feature_type":"gpml:MidOceanRidge","polarity":null,"overriding_plate_id":null,"subducting_plate_id":null,"plate_ids":[101,302],"name":"MOR-Greenland-Baltica"},"geometry":{"type":"LineString","coordinates":[[150.12,-18.599],[150.635,-18.681],[151.151,-18.762],[151.668,-18.842],[152.185,-18.92],[152.703,-18.996],[153.221,-19.072],[153.739,-19.145],[154.258,-19.218],[154.778,-19.288],[155.298,-19.358],[155.818,-19.426],[156.339,-19.492],[156.86,-19.557],[157.381,-19.62],[157.903,-19.682],[158.426,-19.743],[158.949,-19.801],[159.472,-19.859],[159.995,-19.915],[160.519,-19.969],[161.043,-20.022],[161.568,-20.073],[162.093,-20.123],[162.618,-20.171],[163.144,-20.217],[163.67,-20.262],[164.196,-20.306],[164.722,-20.347],[165.249,-20.388],[165.776,-20.426],[166.303,-20.463],[166.831,-20.499],[167.359,-20.533],[167.887,-20.565],[168.415,-20.596],[168.943,-20.625],[169.472,-20.652],[170.001,-20.678],[170.53,-20.703],[171.059,-20.725],[171.181,-20.291],[171.302,-19.857],[171.423,-19.422],[171.543,-18.988],[171.662,-18.553],[171.781,-18.119],[171.899,-17.684],[172.017,-17.249],[172.509,-17.386],[173.002,-17.521],[173.496,-17.655],[173.991,-17.788],[174.486,-17.92],[174.983,-18.05],[175.479,-18.179],[175.977,-18.307],[176.475,-18.434],[176.974,-18.559],[177.474,-18.683],[177.975,-18.805],[178.476,-18.927],[178.978,-19.047],[179.481,-19.165],[179.984,-19.282],[-179.512,-19.398],[-179.007,-19.513],[-178.502,-19.626],[-177.995,-19.737],[-177.488,-19.848],[-176.981,-19.956],[-176.472,-20.064],[-175.963,-20.17],[-175.454,-20.274],[-174.943,-20.377],[-174.432,-20.478],[-173.92,-20.578],[-173.408,-20.677],[-172.895,-20.774],[-172.381,-20.869],[-171.867,-20.963],[-171.352,-21.055],[-170.836,-21.146],[-170.32,-21.235],[-169.803,-21.323],[-169.285,-21.409],[-168.767,-21.493],[-168.248,-21.576],[-167.729,-21.657],[-167.209,-21.737]]}},{"type":"Feature","properties":{"boundary_type":"ridge","feature_type":"gpml:MidOceanRidge","polarity":null,"overriding_plate_id":null,"subducting_plate_id":null,"plate_ids":[302],"name":"MOR-Greenland-Baltica"},"geometry":{"type":"LineString","coordinates":[[-167.209,-21.737],[-166.819,-21.796],[-166.428,-21.853],[-166.037,-21.91]]}},{"type":"Feature","properties":{"boundary_type":"transform","feature_type":"gpml:Transform","polarity":null,"overriding_plate_id":null,"subducting_plate_id":null,"plate_ids":[302,6024],"name":""},"geometry":{"type":"LineString","coordinates":[[-141.07,-42.795],[-141.183,-42.949]]}},{"type":"Feature","properties":{"boundary_type":"transform","feature_type":"gpml:Transform","polarity":null,"overriding_plate_id":null,"subducting_plate_id":null,"plate_ids":[302,9804],"name":""},"geometry":{"type":"LineString","coordinates":[[-141.183,-42.949],[-141.502,-43.382],[-141.825,-43.814],[-142.154,-44.245],[-142.487,-44.675],[-142.825,-45.105],[-143.169,-45.533],[-143.517,-45.96],[-143.871,-46.386],[-144.231,-46.811],[-144.596,-47.235],[-144.968,-47.657],[-145.345,-48.079],[-145.728,-48.499],[-146.118,-48.918],[-146.515,-49.335],[-146.918,-49.751],[-147.328,-50.166],[-147.745,-50.579],[-148.17,-50.991],[-148.602,-51.401],[-149.043,-51.81],[-149.491,-52.217],[-149.947,-52.622],[-150.451,-52.999],[-150.963,-53.374],[-151.485,-53.747],[-152.016,-54.118],[-152.556,-54.486],[-153.106,-54.852],[-153.666,-55.215],[-154.237,-55.575],[-154.818,-55.933],[-155.41,-56.288],[-156.013,-56.641],[-156.627,-56.99],[-157.253,-57.336],[-157.89,-57.679],[-158.54,-58.019],[-159.202,-58.356],[-159.877,-58.688],[-160.565,-59.018],[-161.266,-59.343],[-161.98,-59.665],[-162.708,-59.983],[-163.451,-60.297],[-164.207,-60.606],[-165.124,-60.817],[-166.053,-61.021],[-166.994,-61.219],[-167.947,-61.41],[-168.911,-61.594],[-169.886,-61.771],[-170.872,-61.942],[-171.869,-62.105],[-172.877,-62.261],[-173.895,-62.41],[-174.923,-62.551],[-175.961,-62.685],[-177.007,-62.811],[-178.063,-62.929],[-179.082,-63.027],[179.893,-63.119],[178.861,-63.203],[177.824,-63.279],[176.781,-63.348],[175.734,-63.409],[174.682,-63.462],[173.627,-63.508],[172.568,-63.546],[171.507,-63.576],[170.445,-63.599],[169.38,-63.613],[168.315,-63.619]]}},{"type":"Feature","properties":{"boundary_type":"transform","feature_type":"gpml:Transform","polarity":null,"overriding_plate_id":null,"subducting_plate_id":null,"plate_ids":[101,9804],"name":""},"geometry":{"type":"LineString","coordinates":[[168.315,-63.619],[167.227,-63.618],[166.139,-63.608],[165.052,-63.59],[163.966,-63.564],[162.883,-63.53],[161.803,-63.488],[160.726,-63.437],[159.654,-63.378],[158.586,-63.312],[157.523,-63.237],[156.466,-63.155],[155.415,-63.065],[154.372,-62.967],[153.335,-62.861],[152.306,-62.748],[151.285,-62.627],[150.273,-62.499]]}},{"type":"Feature","properties":{"boundary_type":"ridge","feature_type":"gpml:MidOceanRidge","polarity":null,"overriding_plate_id":null,"subducting_plate_id":null,"plate_ids":[6024],"name":""},"geometry":{"type":"LineString","coordinates":[[-167.241,-21.293],[-166.841,-21.499],[-166.439,-21.705],[-166.037,-21.91]]}},{"type":"Feature","properties":{"boundary_type":"ridge","feature_type":"gpml:MidOceanRidge","polarity":null,"overriding_plate_id":null,"subducting_plate_id":null,"plate_ids":[302,6024],"name":""},"geometry":{"type":"LineString","coordinates":[[-166.037,-21.91],[-165.567,-22.147],[-165.096,-22.383],[-164.624,-22.617],[-164.149,-22.85],[-163.673,-23.081],[-163.196,-23.311],[-162.717,-23.54],[-162.236,-23.767],[-161.754,-23.992],[-161.269,-24.217],[-160.784,-24.439],[-160.296,-24.66],[-159.807,-24.879],[-160.064,-25.28],[-160.323,-25.68],[-160.584,-26.08],[-160.846,-26.479],[-161.11,-26.878],[-161.376,-27.276],[-161.644,-27.674],[-161.915,-28.071],[-162.187,-28.468],[-162.461,-28.864],[-162.737,-29.259],[-163.015,-29.654],[-163.296,-30.049],[-162.866,-30.379],[-162.434,-30.708],[-161.999,-31.035],[-161.561,-31.361],[-161.12,-31.685],[-160.676,-32.008],[-160.228,-32.329],[-159.778,-32.649],[-159.324,-32.967],[-158.867,-33.283],[-158.406,-33.598],[-157.943,-33.911],[-157.476,-34.222],[-157.005,-34.531],[-156.531,-34.839],[-156.053,-35.144],[-155.572,-35.448],[-155.087,-35.75],[-154.599,-36.05],[-154.106,-36.348],[-153.61,-36.644],[-153.11,-36.938],[-152.607,-37.23],[-152.099,-37.519],[-151.588,-37.807],[-151.072,-38.092],[-150.553,-38.375],[-150.029,-38.655],[-149.501,-38.934],[-148.969,-39.209],[-148.433,-39.483],[-147.893,-39.754],[-147.349,-40.022],[-146.8,-40.288],[-146.247,-40.551],[-145.689,-40.812],[-145.128,-41.07],[-144.561,-41.325],[-143.991,-41.577],[-143.416,-41.827],[-142.836,-42.073],[-142.252,-42.317],[-141.664,-42.558],[-141.07,-42.795]]}},{"type":"Feature","properties":{"boundary_type":"ridge","feature_type":"gpml:MidOceanRidge","polarity":null,"overriding_plate_id":null,"subducting_plate_id":null,"plate_ids":[6024,9804],"name":"MOR"},"geometry":{"type":"LineString","coordinates":[[-141.183,-42.949],[-140.602,-43.19],[-140.016,-43.427],[-139.426,-43.662],[-138.831,-43.893],[-138.232,-44.122],[-137.628,-44.347],[-137.019,-44.569],[-136.406,-44.788],[-135.788,-45.003],[-135.165,-45.215],[-134.538,-45.424],[-133.907,-45.629],[-133.27,-45.831],[-132.629,-46.029],[-131.984,-46.224],[-131.334,-46.415],[-130.679,-46.602],[-130.02,-46.786],[-129.357,-46.965],[-128.689,-47.141],[-128.016,-47.313],[-127.339,-47.481],[-126.659,-47.645],[-125.973,-47.805],[-125.284,-47.961],[-124.59,-48.112],[-123.893,-48.26],[-123.191,-48.403],[-122.486,-48.542],[-121.777,-48.676],[-121.064,-48.806],[-120.729,-48.37],[-120.399,-47.933],[-120.075,-47.495],[-119.757,-47.057],[-119.444,-46.617],[-119.135,-46.176],[-118.832,-45.735],[-118.534,-45.293],[-118.24,-44.85],[-117.95,-44.406],[-117.665,-43.962],[-117.384,-43.517],[-117.107,-43.071],[-116.835,-42.625],[-116.566,-42.178],[-116.301,-41.73],[-116.039,-41.282],[-115.782,-40.833],[-115.527,-40.384],[-115.276,-39.934],[-115.028,-39.483],[-114.784,-39.032],[-114.543,-38.581],[-114.304,-38.129],[-114.069,-37.676],[-113.836,-37.223],[-113.606,-36.77],[-113.379,-36.316],[-113.155,-35.862],[-112.933,-35.407],[-112.713,-34.952],[-112.496,-34.497],[-112.282,-34.041],[-112.069,-33.585],[-111.859,-33.128],[-111.318,-33.331],[-110.774,-33.531],[-110.227,-33.729],[-109.678,-33.924],[-109.127,-34.117],[-108.573,-34.308],[-108.017,-34.496],[-107.458,-34.681],[-106.896,-34.864],[-106.332,-35.044],[-105.766,-35.222],[-105.197,-35.397],[-104.626,-35.569],[-104.052,-35.739],[-103.476,-35.906],[-102.897,-36.07],[-102.316,-36.231],[-101.733,-36.39],[-101.147,-36.546],[-100.559,-36.698],[-99.969,-36.848],[-99.376,-36.995],[-98.781,-37.139],[-98.184,-37.28],[-97.584,-37.418],[-96.983,-37.553],[-96.379,-37.685],[-95.773,-37.814],[-95.165,-37.94],[-94.555,-38.062],[-93.943,-38.182],[-93.329,-38.298],[-92.713,-38.411],[-92.095,-38.521],[-91.475,-38.627],[-90.854,-38.731],[-90.23,-38.831],[-89.605,-38.927],[-88.978,-39.02],[-88.35,-39.11],[-87.72,-39.197],[-87.089,-39.28],[-86.456,-39.36],[-85.821,-39.436],[-85.185,-39.509],[-84.548,-39.578],[-83.91,-39.644],[-83.271,-39.706],[-82.63,-39.765],[-81.988,-39.821],[-81.346,-39.872],[-80.702,-39.921],[-80.058,-39.965],[-79.413,-40.006],[-78.767,-40.044],[-78.12,-40.078],[-77.473,-40.108],[-76.825,-40.135],[-76.176,-40.158],[-75.528,-40.178],[-74.879,-40.193],[-74.229,-40.206],[-73.58,-40.214],[-72.93,-40.219],[-72.28,-40.221],[-71.631,-40.218],[-70.981,-40.212],[-70.331,-40.203],[-70.417,-39.725],[-70.501,-39.247],[-70.584,-38.769],[-70.665,-38.291],[-70.746,-37.813],[-70.826,-37.335],[-70.904,-36.857],[-70.982,-36.378],[-71.059,-35.9]]}},{"type":"Feature","properties":{"boundary_type":"subduction","feature_type":"gpml:SubductionZone","polarity":"Left","overriding_plate_id":101,"subducting_plate_id":77030,"plate_ids":[101,77030],"name":"E-Lau SZ"},"geometry":{"type":"LineString","coordinates":[[98.01,29.302],[98.382,28.992],[98.752,28.681],[99.119,28.369],[99.484,28.056],[99.847,27.742],[100.208,27.427],[100.567,27.111],[100.925,26.729],[101.281,26.346],[101.635,25.962],[101.986,25.577],[102.335,25.191],[102.681,24.804],[103.026,24.417],[103.368,24.029],[103.708,23.64],[104.047,23.25],[104.383,22.86],[104.717,22.468],[105.05,22.077],[105.34,21.694],[105.628,21.311],[105.914,20.927],[106.199,20.543],[106.483,20.158],[106.765,19.773],[107.046,19.387],[107.325,19.001],[107.604,18.615],[107.881,18.228],[108.156,17.841],[108.431,17.453],[108.704,17.065],[108.954,16.657],[109.202,16.248],[109.449,15.839],[109.695,15.429],[109.94,15.019],[110.184,14.609],[110.427,14.199],[110.67,13.788],[110.911,13.378],[111.152,12.967],[111.392,12.555],[111.631,12.144],[111.869,11.732],[112.107,11.32],[112.344,10.908],[112.581,10.496],[112.718,10.055],[112.855,9.614],[112.992,9.173],[113.128,8.733],[113.265,8.292],[113.4,7.85],[113.536,7.409],[113.671,6.968],[113.806,6.527],[113.941,6.086],[114.075,5.645],[114.21,5.203],[114.441,4.761],[114.671,4.318],[114.902,3.875],[115.132,3.432],[115.362,2.989],[115.592,2.546],[115.821,2.103],[116.051,1.66],[116.28,1.217],[116.51,0.774],[116.739,0.331],[116.968,-0.112],[117.197,-0.555],[117.427,-0.998],[117.5,-1.41],[117.572,-1.822],[117.645,-2.234],[117.718,-2.646],[117.791,-3.058]]}},{"type":"Feature","properties":{"boundary_type":"subduction","feature_type":"gpml:SubductionZone","polarity":"Left","overriding_plate_id":30204,"subducting_plate_id":101,"plate_ids":[101,30204],"name":""},"geometry":{"type":"LineString","coordinates":[[144.232,-19.484],[144.165,-19.588],[143.894,-19.939],[143.622,-20.29],[143.348,-20.641],[143.074,-20.991],[142.81,-21.367],[142.545,-21.742],[142.278,-22.117],[142.01,-22.492],[141.74,-22.866],[141.469,-23.239],[141.197,-23.612],[140.988,-24.058],[140.778,-24.503],[140.567,-24.948],[140.354,-25.392],[140.139,-25.836],[139.923,-26.28],[139.889,-26.723],[139.856,-27.165],[139.822,-27.608],[139.788,-28.051],[139.753,-28.493],[139.719,-28.936],[139.684,-29.378],[139.825,-29.827],[139.968,-30.275],[140.112,-30.722],[140.257,-31.17],[140.404,-31.618],[140.552,-32.065],[140.702,-32.512],[141.002,-32.864],[141.304,-33.215],[141.609,-33.566],[141.917,-33.916],[142.226,-34.265]]}},{"type":"Feature","properties":{"boundary_type":"transform","feature_type":"gpml:Transform","polarity":null,"overriding_plate_id":null,"subducting_plate_id":null,"plate_ids":[101,30204],"name":""},"geometry":{"type":"LineString","coordinates":[[144.232,-19.484],[144.575,-19.414]]}},{"type":"Feature","properties":{"boundary_type":"transform","feature_type":"gpml:Transform","polarity":null,"overriding_plate_id":null,"subducting_plate_id":null,"plate_ids":[101,302],"name":""},"geometry":{"type":"LineString","coordinates":[[144.575,-19.414],[144.987,-19.329],[145.398,-19.243],[145.81,-19.157],[146.221,-19.069],[146.709,-19.014],[147.197,-18.959],[147.685,-18.902],[148.173,-18.844],[148.66,-18.785],[149.147,-18.724],[149.633,-18.662],[150.12,-18.599]]}},{"type":"Feature","properties":{"boundary_type":"transform","feature_type":"gpml:Transform","polarity":null,"overriding_plate_id":null,"subducting_plate_id":null,"plate_ids":[101,77030],"name":"inferred transform"},"geometry":{"type":"LineString","coordinates":[[96.632,-15.933],[97.079,-15.686],[97.524,-15.437],[97.969,-15.188],[98.412,-14.938],[98.854,-14.687],[99.295,-14.435],[99.736,-14.182],[100.175,-13.929],[100.613,-13.674],[101.05,-13.419],[101.487,-13.163],[101.922,-12.907],[102.357,-12.65],[102.791,-12.392],[103.224,-12.133],[103.656,-11.874],[104.087,-11.614],[104.517,-11.353],[104.947,-11.092],[105.376,-10.83],[105.804,-10.568],[106.231,-10.305],[106.658,-10.041],[107.084,-9.777],[107.509,-9.512],[107.934,-9.247],[108.358,-8.981],[108.781,-8.715],[109.204,-8.449],[109.631,-8.185],[110.059,-7.922],[110.485,-7.658],[110.911,-7.393],[111.337,-7.128],[111.762,-6.863],[112.187,-6.597],[112.611,-6.331],[113.034,-6.064],[113.458,-5.798],[113.881,-5.531],[114.303,-5.263],[114.725,-4.996],[115.147,-4.728],[115.569,-4.459],[115.99,-4.191],[116.411,-3.922],[116.831,-3.654],[117.252,-3.384],[117.672,-3.115],[117.791,-3.058]]}},{"type":"Feature","properties":{"boundary_type":"transform","feature_type":"gpml:Transform","polarity":null,"overriding_plate_id":null,"subducting_plate_id":null,"plate_ids":[101,9804],"name":""},"geometry":{"type":"LineString","coordinates":[[92.764,-44.627],[92.85,-45.083],[92.938,-45.539],[93.027,-45.995],[93.118,-46.45],[93.21,-46.906],[93.304,-47.362],[93.399,-47.817],[93.496,-48.273],[93.715,-48.737],[93.937,-49.201],[94.164,-49.664],[94.395,-50.127],[94.631,-50.59],[94.871,-51.052],[95.116,-51.513],[95.366,-51.974],[95.622,-52.435],[95.882,-52.895],[96.148,-53.354],[96.421,-53.813],[96.699,-54.271],[96.983,-54.728],[97.274,-55.185],[97.571,-55.641],[97.876,-56.096],[98.188,-56.551],[98.507,-57.004],[98.835,-57.457],[99.17,-57.909],[99.514,-58.36],[99.867,-58.811],[100.229,-59.26],[100.601,-59.708],[100.983,-60.155],[101.376,-60.601],[101.779,-61.046],[102.194,-61.489],[103.081,-61.754],[103.984,-62.013],[104.901,-62.266],[105.834,-62.514],[106.783,-62.754],[107.747,-62.988],[108.726,-63.216],[109.72,-63.437],[110.73,-63.65],[111.755,-63.857],[112.794,-64.056],[113.849,-64.248],[114.917,-64.432],[116.0,-64.608],[117.097,-64.776],[118.207,-64.935],[119.33,-65.087],[120.465,-65.23],[121.613,-65.364],[122.771,-65.49],[123.941,-65.606],[125.121,-65.714],[126.31,-65.812],[127.508,-65.901],[128.714,-65.981],[129.91,-65.886],[131.096,-65.783],[132.273,-65.67],[133.439,-65.548],[134.594,-65.417],[135.737,-65.278],[136.868,-65.13],[137.985,-64.973],[139.09,-64.808],[140.18,-64.635],[141.257,-64.455],[142.319,-64.266],[143.367,-64.07],[144.399,-63.867],[145.416,-63.656],[146.419,-63.438],[147.405,-63.213],[148.377,-62.982],[149.333,-62.744],[150.273,-62.499]]}}]}