{"type":"FeatureCollection","meta":{"model":"Cao2024","reconstruction_time_ma":565.0,"anchor_plate_id":0,"pygplates_version":"1.0.0","tessellate_degrees":0.5,"polarity_convention":"gpml:subductionPolarity. 'Left'/'Right' names the side of the line, in vertex order, on which the OVERRIDING plate lies. Triangles are drawn on that side.","antimeridian":"Lines are NOT split at +/-180 deg. The renderer works in 3D unit vectors where the dateline is not special; splitting would only add spurious breaks. Do not treat this as RFC 7946 GIS-ready 2D data."},"features":[{"type":"Feature","properties":{"boundary_type":"subduction","feature_type":"gpml:SubductionZone","polarity":"Right","overriding_plate_id":302,"subducting_plate_id":98043,"plate_ids":[302,98043],"name":"Ocean-ocean sub zone outboard baltica"},"geometry":{"type":"LineString","coordinates":[[-74.364,-2.277],[-74.258,-2.747],[-74.152,-3.218],[-74.046,-3.688],[-73.94,-4.159],[-73.834,-4.629],[-73.728,-5.1],[-73.621,-5.57],[-73.515,-6.04],[-73.408,-6.511],[-73.301,-6.981],[-73.079,-7.425],[-72.856,-7.869],[-72.633,-8.313],[-72.409,-8.756],[-72.185,-9.2],[-71.96,-9.643],[-71.735,-10.087],[-71.508,-10.53],[-71.282,-10.973],[-71.054,-11.415],[-70.826,-11.858],[-70.598,-12.3],[-70.368,-12.743],[-70.138,-13.185],[-69.906,-13.627],[-69.674,-14.068],[-69.441,-14.51],[-69.207,-14.951],[-68.973,-15.392],[-68.737,-15.832],[-68.5,-16.273],[-68.262,-16.713],[-68.023,-17.153],[-67.783,-17.592],[-67.541,-18.032],[-67.299,-18.471],[-67.055,-18.909],[-66.81,-19.348],[-66.563,-19.786],[-66.315,-20.223],[-66.066,-20.661],[-65.816,-21.098],[-65.563,-21.534],[-65.31,-21.971],[-65.055,-22.406],[-64.798,-22.842],[-64.539,-23.277],[-64.279,-23.711],[-63.817,-23.958],[-63.353,-24.202],[-62.887,-24.445],[-62.419,-24.687],[-61.949,-24.928],[-61.478,-25.167],[-61.004,-25.404],[-60.529,-25.64],[-60.052,-25.874],[-59.573,-26.107],[-59.092,-26.338],[-58.609,-26.568],[-58.125,-26.796],[-57.638,-27.022],[-57.149,-27.247],[-56.659,-27.469],[-56.166,-27.691],[-55.672,-27.91],[-55.175,-28.128],[-54.677,-28.344],[-54.176,-28.558],[-53.673,-28.77],[-53.169,-28.98],[-52.662,-29.189],[-52.153,-29.395],[-51.643,-29.6],[-51.13,-29.802],[-50.615,-30.003],[-50.098,-30.202],[-49.579,-30.398],[-49.057,-30.593],[-48.534,-30.785],[-48.009,-30.975],[-47.481,-31.164],[-46.952,-31.35],[-46.42,-31.533],[-45.886,-31.715],[-45.351,-31.894],[-44.813,-32.072],[-44.231,-32.048],[-43.65,-32.022],[-43.07,-31.993],[-42.49,-31.961],[-41.91,-31.927],[-41.33,-31.89],[-40.751,-31.85],[-40.173,-31.808],[-39.595,-31.763],[-39.018,-31.716],[-38.441,-31.666],[-37.865,-31.613],[-37.29,-31.558],[-36.715,-31.501],[-36.141,-31.44],[-35.568,-31.378],[-34.996,-31.312],[-34.424,-31.244],[-33.853,-31.174]]}},{"type":"Feature","properties":{"boundary_type":"subduction","feature_type":"gpml:SubductionZone","polarity":"Right","overriding_plate_id":701,"subducting_plate_id":501,"plate_ids":[501,701],"name":"Sub zone closing Cadomia plate"},"geometry":{"type":"LineString","coordinates":[[-1.041,-44.09],[-0.684,-44.509],[-0.321,-44.927],[0.047,-45.344],[0.42,-45.76],[0.799,-46.174],[1.184,-46.587],[1.575,-46.999],[1.972,-47.409],[2.375,-47.818],[2.804,-48.204],[3.241,-48.588],[3.684,-48.971],[4.133,-49.351],[4.59,-49.73],[5.054,-50.108],[5.526,-50.483],[6.004,-50.856],[6.491,-51.228],[6.985,-51.597],[7.488,-51.964],[8.034,-52.326],[8.589,-52.684],[9.154,-53.04],[9.728,-53.393],[10.311,-53.744],[10.904,-54.091],[11.507,-54.436],[12.12,-54.778],[12.744,-55.116],[13.378,-55.451],[14.023,-55.783],[14.679,-56.112],[15.347,-56.437],[16.025,-56.758]]}},{"type":"Feature","properties":{"boundary_type":"subduction","feature_type":"gpml:SubductionZone","polarity":"Right","overriding_plate_id":8013,"subducting_plate_id":98044,"plate_ids":[8013,98044],"name":"Ross Orogen"},"geometry":{"type":"LineString","coordinates":[[111.54,15.695],[112.023,15.633],[112.506,15.57],[112.988,15.506],[113.47,15.441],[113.952,15.375],[114.433,15.308],[114.914,15.239],[115.395,15.17],[115.876,15.1],[116.356,15.028],[116.836,14.956],[117.315,14.883],[117.794,14.808],[118.218,14.568],[118.641,14.327],[119.064,14.086],[119.485,13.843],[119.906,13.6],[120.325,13.356],[120.744,13.112],[121.162,12.866],[121.579,12.621],[121.995,12.374],[122.411,12.127],[122.826,11.879],[123.24,11.631],[123.653,11.382],[124.065,11.132],[124.477,10.882],[124.888,10.632],[125.269,10.342],[125.65,10.053],[126.03,9.763],[126.409,9.473],[126.787,9.182],[127.165,8.891],[127.542,8.599],[127.919,8.307],[128.295,8.015],[128.671,7.722],[129.046,7.43],[129.42,7.136],[129.794,6.843],[130.168,6.549],[130.644,6.422],[131.12,6.295],[131.595,6.167],[132.07,6.039],[132.545,5.91],[132.928,5.691],[133.312,5.471],[133.695,5.252],[134.077,5.032],[134.46,4.811],[134.842,4.591],[135.224,4.37],[135.605,4.149],[135.969,3.926],[136.333,3.702],[136.696,3.478],[137.06,3.254],[137.423,3.03],[137.786,2.806],[138.21,2.692],[138.634,2.577],[139.058,2.463],[139.482,2.348],[139.905,2.233],[140.329,2.118],[140.752,2.003],[141.215,2.026],[141.677,2.049],[142.139,2.071],[142.602,2.094],[143.064,2.116],[143.536,2.103],[144.009,2.09],[144.481,2.077],[144.953,2.063],[145.425,2.049],[145.757,1.739],[146.088,1.428],[146.419,1.118],[146.75,0.807],[147.03,0.411],[147.31,0.016],[147.589,-0.38],[147.869,-0.775],[148.149,-1.171],[148.429,-1.566],[148.71,-1.962],[148.99,-2.357],[149.27,-2.752],[149.551,-3.148],[149.832,-3.543],[150.113,-3.938],[150.394,-4.333],[150.676,-4.728],[150.99,-5.072],[151.304,-5.416],[151.618,-5.759],[151.933,-6.103],[152.249,-6.446],[152.565,-6.789],[152.881,-7.132],[153.197,-7.474],[153.515,-7.817],[153.921,-8.056],[154.329,-8.296]]}},{"type":"Feature","properties":{"boundary_type":"subduction","feature_type":"gpml:SubductionZone","polarity":"Right","overriding_plate_id":701,"subducting_plate_id":501,"plate_ids":[501,701],"name":"East African orogen"},"geometry":{"type":"LineString","coordinates":[[32.728,-49.093],[33.411,-49.151],[34.096,-49.206],[34.783,-49.257],[35.471,-49.304],[36.16,-49.346],[36.85,-49.385],[37.542,-49.419],[38.234,-49.449],[38.948,-49.351],[39.66,-49.248],[40.368,-49.141],[41.074,-49.03],[41.776,-48.914],[42.475,-48.794],[43.17,-48.67],[43.862,-48.542],[44.551,-48.41],[45.236,-48.273],[45.917,-48.133],[46.594,-47.988],[47.268,-47.84],[47.937,-47.687],[48.603,-47.531],[49.265,-47.371],[49.865,-47.275],[50.463,-47.176],[51.059,-47.074],[51.652,-46.969],[52.243,-46.86],[52.874,-46.718],[53.501,-46.573],[54.125,-46.424],[54.745,-46.272],[55.362,-46.116],[55.976,-45.957],[56.586,-45.795],[57.192,-45.63],[57.813,-45.587],[58.433,-45.541],[59.052,-45.492],[59.67,-45.439],[60.287,-45.383],[60.903,-45.323],[61.517,-45.26],[62.078,-45.121],[62.637,-44.979],[63.193,-44.834],[63.746,-44.686],[64.297,-44.536],[64.844,-44.383],[65.512,-44.425],[66.18,-44.462],[66.849,-44.496],[67.519,-44.526],[68.189,-44.552],[68.861,-44.574],[69.532,-44.593],[70.204,-44.607],[70.876,-44.617],[71.549,-44.624],[72.221,-44.626],[72.702,-44.597],[73.181,-44.565],[73.54,-44.377],[73.897,-44.187],[74.034,-43.704],[74.169,-43.221],[74.362,-42.821],[74.552,-42.422],[74.813,-42.165],[75.391,-42.054],[75.926,-42.141],[76.463,-42.226],[77.001,-42.308],[77.54,-42.387],[78.12,-42.35],[78.7,-42.309],[79.278,-42.266],[79.856,-42.22],[80.384,-42.067],[80.91,-41.911],[81.433,-41.754],[81.953,-41.594],[82.471,-41.431],[83.028,-41.445],[83.585,-41.456],[84.143,-41.464],[84.701,-41.469],[85.258,-41.472],[85.816,-41.472],[86.414,-41.381],[87.01,-41.287],[87.604,-41.19],[88.197,-41.089],[88.787,-40.986],[89.376,-40.88],[89.833,-41.054],[90.292,-41.226],[90.753,-41.397],[91.241,-41.524],[91.731,-41.648],[92.223,-41.771],[92.587,-41.763],[93.12,-41.768],[93.628,-41.607],[94.132,-41.444],[94.634,-41.278],[95.113,-41.106],[95.733,-41.224],[96.356,-41.338],[96.98,-41.449],[97.47,-41.523],[97.899,-41.447],[98.348,-41.272],[98.795,-41.095],[99.176,-40.806],[99.554,-40.516],[99.929,-40.225],[100.301,-39.933],[100.715,-39.598],[101.126,-39.261],[101.314,-38.914],[101.501,-38.566],[101.685,-38.218],[101.758,-37.819],[101.83,-37.421],[101.903,-37.27],[102.263,-37.16],[102.848,-37.163],[103.433,-37.164],[104.018,-37.161],[104.603,-37.155],[105.116,-37.279],[105.631,-37.399],[106.147,-37.518],[106.665,-37.634],[107.185,-37.748],[107.706,-37.86],[108.152,-37.803],[108.597,-37.744],[109.042,-37.683],[109.479,-37.333],[109.912,-36.982],[110.341,-36.629],[110.767,-36.275],[111.155,-35.93],[111.541,-35.583],[111.923,-35.235],[112.302,-34.886],[112.678,-34.536],[113.05,-34.184],[113.313,-33.836],[113.573,-33.487],[113.832,-33.138],[114.088,-32.788],[114.342,-32.438],[114.355,-32.375]]}},{"type":"Feature","properties":{"boundary_type":"subduction","feature_type":"gpml:SubductionZone","polarity":"Right","overriding_plate_id":8026,"subducting_plate_id":77030,"plate_ids":[8026,77030],"name":"Maud Land - Coats Block Collision"},"geometry":{"type":"LineString","coordinates":[[130.34,-37.463],[130.27,-37.061],[130.201,-36.658],[130.132,-36.255],[130.065,-35.852],[129.997,-35.45]]}},{"type":"Feature","properties":{"boundary_type":"subduction","feature_type":"gpml:SubductionZone","polarity":"Right","overriding_plate_id":8026,"subducting_plate_id":801,"plate_ids":[801,8026],"name":"Maud Land - Coats Block Collision"},"geometry":{"type":"LineString","coordinates":[[129.997,-35.45],[129.936,-35.076],[129.875,-34.703],[130.221,-34.309],[130.564,-33.914],[130.903,-33.518],[131.24,-33.121],[131.67,-32.852],[132.098,-32.581],[132.524,-32.309],[132.946,-32.035],[133.367,-31.76],[133.784,-31.483],[134.2,-31.205],[134.671,-31.054],[135.14,-30.901],[135.608,-30.747],[136.074,-30.591],[136.539,-30.433],[137.088,-30.48]]}},{"type":"Feature","properties":{"boundary_type":"subduction","feature_type":"gpml:SubductionZone","polarity":"Right","overriding_plate_id":8026,"subducting_plate_id":22042,"plate_ids":[8026,22042],"name":"Maud Land - Coats Block Collision"},"geometry":{"type":"LineString","coordinates":[[137.088,-30.48],[137.641,-30.525],[138.196,-30.567],[138.765,-30.598],[139.335,-30.627],[139.906,-30.653],[140.476,-30.677],[140.75,-30.965],[141.025,-31.253],[141.302,-31.54],[141.428,-31.946],[141.555,-32.352],[141.682,-32.757],[141.812,-33.163],[141.942,-33.568],[142.073,-33.974]]}},{"type":"Feature","properties":{"boundary_type":"subduction","feature_type":"gpml:SubductionZone","polarity":"Right","overriding_plate_id":701,"subducting_plate_id":501,"plate_ids":[501,701],"name":"Cadomian Terranes"},"geometry":{"type":"LineString","coordinates":[[16.025,-56.758],[16.267,-56.427],[16.505,-56.095],[17.031,-55.795],[17.549,-55.493],[18.058,-55.189],[18.56,-54.883],[19.055,-54.574],[19.877,-54.581],[20.699,-54.582],[21.521,-54.577],[22.342,-54.567],[23.163,-54.551],[23.87,-54.328],[24.569,-54.101],[25.26,-53.87],[25.764,-53.588],[26.262,-53.305],[26.753,-53.019],[27.3,-52.731],[27.839,-52.44],[28.372,-52.147],[28.897,-51.851],[29.416,-51.554],[29.928,-51.254],[30.433,-50.952],[30.825,-50.598],[31.212,-50.244],[31.593,-49.888],[31.968,-49.532],[32.35,-49.313],[32.728,-49.093]]}},{"type":"Feature","properties":{"boundary_type":"subduction","feature_type":"gpml:SubductionZone","polarity":"Left","overriding_plate_id":701,"subducting_plate_id":201,"plate_ids":[201,701],"name":"Araguaia Belt"},"geometry":{"type":"LineString","coordinates":[[171.053,-81.805],[170.242,-81.648],[169.424,-81.207],[168.683,-80.764],[168.01,-80.321],[167.395,-79.875],[166.831,-79.429],[166.313,-78.982],[165.835,-78.534],[164.956,-78.193],[164.126,-77.849],[163.341,-77.503],[163.488,-77.06],[163.626,-76.617],[163.756,-76.173],[163.877,-75.73],[164.644,-75.294],[165.368,-74.856],[166.053,-74.415],[166.7,-73.973],[167.313,-73.529],[167.481,-73.079],[167.64,-72.629],[167.792,-72.178],[167.936,-71.728],[168.074,-71.277],[168.205,-70.827],[167.846,-70.355],[167.504,-69.882],[167.176,-69.409],[166.863,-68.935],[166.563,-68.46],[166.522,-68.069],[166.483,-67.679],[166.559,-67.422],[166.634,-67.165],[166.652,-66.687],[166.848,-66.321],[167.039,-65.956],[167.25,-65.582],[167.689,-65.389],[168.121,-65.195]]}},{"type":"Feature","properties":{"boundary_type":"subduction","feature_type":"gpml:SubductionZone","polarity":"Left","overriding_plate_id":701,"subducting_plate_id":201,"plate_ids":[201,701],"name":"SZ Parana Paraguay Belt"},"geometry":{"type":"LineString","coordinates":[[168.121,-65.195],[168.093,-65.03],[167.601,-64.767]]}},{"type":"Feature","properties":{"boundary_type":"subduction","feature_type":"gpml:SubductionZone","polarity":"Left","overriding_plate_id":701,"subducting_plate_id":201,"plate_ids":[201,701],"name":"SZ Parana Paraguay Belt"},"geometry":{"type":"LineString","coordinates":[[167.601,-64.767],[167.127,-64.507],[166.663,-64.246],[166.517,-63.864],[166.374,-63.482],[166.488,-63.034],[166.599,-62.586],[166.823,-62.201],[167.042,-61.816],[166.895,-61.532],[166.751,-61.249],[166.435,-60.92],[166.126,-60.59],[166.227,-60.145],[166.326,-59.699],[166.553,-59.271],[166.775,-58.843],[166.956,-58.482],[167.133,-58.121],[167.142,-57.787],[167.151,-57.453],[167.16,-57.118],[166.632,-56.831],[166.112,-56.54],[166.044,-56.472]]}},{"type":"Feature","properties":{"boundary_type":"subduction","feature_type":"gpml:SubductionZone","polarity":"Left","overriding_plate_id":701,"subducting_plate_id":22042,"plate_ids":[701,22042],"name":"SZ Parana Paraguay Belt"},"geometry":{"type":"LineString","coordinates":[[166.044,-56.472],[165.879,-56.301]]}},{"type":"Feature","properties":{"boundary_type":"subduction","feature_type":"gpml:SubductionZone","polarity":"Right","overriding_plate_id":801,"subducting_plate_id":8011,"plate_ids":[801,8011],"name":"Paterson-Peterman suture"},"geometry":{"type":"LineString","coordinates":[[96.884,-12.773],[96.947,-12.358],[97.01,-11.943],[97.072,-11.529],[97.134,-11.114],[97.196,-10.699],[97.258,-10.284],[97.253,-9.8],[97.249,-9.316],[97.244,-8.831],[97.239,-8.347],[97.234,-7.863],[97.23,-7.378],[97.225,-6.894],[97.22,-6.41],[97.215,-5.925],[97.211,-5.441],[97.206,-4.957],[97.201,-4.472],[97.412,-4.085],[97.622,-3.697],[98.066,-3.654],[98.51,-3.61],[98.954,-3.566],[99.351,-3.337],[99.748,-3.109],[100.145,-2.88],[100.542,-2.651],[100.939,-2.422],[101.336,-2.193],[101.772,-1.957],[102.208,-1.721],[102.644,-1.485],[103.08,-1.249],[103.515,-1.012],[103.832,-0.629],[104.148,-0.246],[104.464,0.137],[104.721,0.565],[104.979,0.993],[105.236,1.421],[105.493,1.849],[105.67,2.25],[105.847,2.651],[106.024,3.053],[106.201,3.454],[106.378,3.855],[106.426,4.268],[106.474,4.681],[106.522,5.093],[106.57,5.506],[106.924,5.809],[107.279,6.111]]}},{"type":"Feature","properties":{"boundary_type":"subduction","feature_type":"gpml:SubductionZone","polarity":"Left","overriding_plate_id":701,"subducting_plate_id":22042,"plate_ids":[701,22042],"name":"Damara-Lufilian-Zambezi Orogen"},"geometry":{"type":"LineString","coordinates":[[165.879,-56.301],[165.101,-56.427],[164.319,-56.549],[163.532,-56.665],[162.74,-56.777],[161.943,-56.883],[161.142,-56.985],[160.316,-56.924],[159.494,-56.857],[158.674,-56.785],[157.858,-56.708],[157.045,-56.625],[156.236,-56.538],[155.431,-56.445],[154.874,-56.097],[154.326,-55.748],[153.789,-55.395],[153.261,-55.041],[152.742,-54.684],[152.233,-54.325]]}},{"type":"Feature","properties":{"boundary_type":"subduction","feature_type":"gpml:SubductionZone","polarity":"Left","overriding_plate_id":701,"subducting_plate_id":77030,"plate_ids":[701,77030],"name":"Damara-Lufilian-Zambezi Orogen"},"geometry":{"type":"LineString","coordinates":[[152.233,-54.325],[151.749,-53.977],[151.274,-53.627],[150.906,-53.342],[150.542,-53.055],[150.184,-52.768],[149.591,-52.434],[149.008,-52.098],[148.468,-51.961],[147.799,-52.022],[147.248,-52.187],[146.694,-52.349],[146.085,-52.392],[145.475,-52.431],[144.863,-52.468],[144.199,-52.449],[143.536,-52.426],[142.873,-52.4],[142.211,-52.37],[141.436,-52.379],[140.66,-52.383],[140.012,-52.488],[139.36,-52.59],[138.681,-52.484],[138.005,-52.375],[137.229,-52.301],[136.455,-52.221],[135.684,-52.137],[134.916,-52.047],[134.191,-52.109],[133.464,-52.167],[132.735,-52.22],[132.005,-52.269],[131.273,-52.313],[130.54,-52.352],[129.818,-52.451],[129.094,-52.545],[128.367,-52.634],[127.749,-52.701],[127.129,-52.764],[126.508,-52.824],[125.994,-52.62],[125.486,-52.413],[124.982,-52.204],[124.798,-51.887],[124.617,-51.57],[124.439,-51.253],[123.982,-50.907],[123.532,-50.558],[123.088,-50.208],[122.681,-49.918],[122.278,-49.626],[121.881,-49.332],[121.488,-49.038],[121.099,-48.675],[120.715,-48.311],[120.337,-47.946],[119.965,-47.58],[119.597,-47.212],[119.12,-46.893],[118.65,-46.572],[118.184,-46.248],[117.592,-46.212],[117.0,-46.172],[116.409,-46.129],[115.818,-46.083],[115.273,-45.834],[114.733,-45.583],[114.197,-45.329],[113.974,-44.923],[113.754,-44.517]]}},{"type":"Feature","properties":{"boundary_type":"subduction","feature_type":"gpml:SubductionZone","polarity":"Right","overriding_plate_id":801,"subducting_plate_id":501,"plate_ids":[501,801],"name":"indo-ant subduction zone"},"geometry":{"type":"LineString","coordinates":[[115.383,-32.036],[115.158,-31.6],[114.994,-31.222],[114.832,-30.843],[114.67,-30.465],[114.51,-30.086],[114.351,-29.707],[114.256,-29.336],[114.162,-28.965],[114.069,-28.594],[113.976,-28.223],[113.759,-27.799],[113.543,-27.375],[113.33,-26.951],[113.117,-26.526],[112.907,-26.101],[112.697,-25.676],[112.49,-25.25],[112.278,-24.853],[112.067,-24.455],[111.858,-24.057],[111.65,-23.659],[111.443,-23.26],[111.238,-22.862],[111.134,-22.396],[111.032,-21.93],[110.93,-21.464],[110.828,-20.998],[110.727,-20.532],[110.627,-20.066],[110.528,-19.599],[110.429,-19.133],[110.33,-18.667],[110.232,-18.2]]}},{"type":"Feature","properties":{"boundary_type":"subduction","feature_type":"gpml:SubductionZone","polarity":"Left","overriding_plate_id":77030,"subducting_plate_id":22042,"plate_ids":[22042,77030],"name":"Saldania Belt"},"geometry":{"type":"LineString","coordinates":[[162.605,-46.673],[162.384,-46.29],[162.166,-45.907],[161.951,-45.523],[161.739,-45.139],[161.529,-44.755],[161.218,-44.37],[160.911,-43.984],[160.607,-43.597],[160.308,-43.209],[160.012,-42.821],[159.72,-42.432],[159.432,-42.042],[158.857,-41.823],[158.286,-41.601],[157.719,-41.376],[157.156,-41.148],[156.597,-40.918],[156.041,-40.685],[155.49,-40.449],[155.028,-40.178],[154.57,-39.906],[154.115,-39.631],[153.664,-39.355],[153.217,-39.076],[152.773,-38.797],[152.333,-38.515],[151.812,-38.254],[151.294,-37.991],[150.78,-37.726],[150.27,-37.459],[149.763,-37.189],[149.26,-36.917],[148.802,-36.735],[148.346,-36.552],[147.892,-36.367],[147.441,-36.18],[146.991,-35.992],[146.398,-36.01],[145.804,-36.026],[145.21,-36.039],[144.615,-36.049],[144.021,-36.055],[143.538,-35.804],[143.058,-35.551],[142.581,-35.296],[142.107,-35.04],[141.636,-34.781],[141.54,-34.514],[141.445,-34.247]]}},{"type":"Feature","properties":{"boundary_type":"subduction","feature_type":"gpml:SubductionZone","polarity":"Right","overriding_plate_id":201,"subducting_plate_id":22032,"plate_ids":[201,22032],"name":"Cadomia Terranes"},"geometry":{"type":"LineString","coordinates":[[-127.271,-57.23],[-126.875,-57.636],[-126.47,-58.042],[-126.055,-58.446],[-125.631,-58.849],[-124.78,-59.061],[-123.919,-59.268],[-123.048,-59.47],[-122.166,-59.665],[-121.274,-59.855],[-120.372,-60.038],[-119.494,-60.007],[-118.618,-59.97],[-117.744,-59.928],[-116.872,-59.879],[-116.003,-59.825],[-115.137,-59.765],[-114.275,-59.7],[-113.372,-59.671],[-112.47,-59.636],[-111.571,-59.595],[-110.674,-59.548],[-109.78,-59.495],[-108.889,-59.436],[-108.066,-59.519],[-107.239,-59.597],[-106.408,-59.67],[-105.574,-59.738],[-104.737,-59.8]]}},{"type":"Feature","properties":{"boundary_type":"subduction","feature_type":"gpml:SubductionZone","polarity":"Right","overriding_plate_id":701,"subducting_plate_id":22032,"plate_ids":[701,22032],"name":"Cadomia Terranes"},"geometry":{"type":"LineString","coordinates":[[-104.737,-59.8],[-103.814,-59.863],[-102.889,-59.918],[-101.96,-59.968],[-101.028,-60.01],[-100.095,-60.047],[-99.159,-60.076],[-98.222,-60.099],[-97.284,-60.116],[-96.446,-60.263],[-95.6,-60.405],[-94.746,-60.542],[-93.886,-60.673],[-93.019,-60.799],[-92.145,-60.919],[-91.264,-61.033],[-90.378,-61.142],[-89.363,-61.204],[-88.344,-61.259],[-87.322,-61.307],[-86.297,-61.346],[-85.269,-61.378],[-84.24,-61.402],[-83.21,-61.419],[-82.179,-61.427],[-81.147,-61.428],[-80.157,-61.405],[-79.169,-61.375],[-78.183,-61.337],[-77.199,-61.293],[-76.219,-61.241],[-75.242,-61.182],[-74.268,-61.117],[-73.299,-61.044],[-72.335,-60.965],[-71.376,-60.878],[-70.422,-60.785],[-69.473,-60.685],[-68.531,-60.579],[-67.596,-60.466],[-66.666,-60.346],[-65.744,-60.22],[-64.829,-60.087],[-63.922,-59.949],[-63.023,-59.831],[-62.129,-59.707],[-61.243,-59.577],[-60.364,-59.441],[-59.492,-59.3],[-58.627,-59.152],[-57.77,-58.999],[-56.92,-58.84],[-56.079,-58.676],[-55.245,-58.506],[-54.42,-58.331],[-53.592,-58.153],[-52.774,-57.97],[-51.963,-57.782],[-51.161,-57.588],[-50.368,-57.39],[-49.583,-57.187],[-48.807,-56.978],[-48.04,-56.765],[-47.282,-56.548],[-46.532,-56.326],[-45.791,-56.099],[-45.059,-55.868],[-44.18,-55.923],[-43.3,-55.971],[-42.516,-55.896],[-41.735,-55.815],[-40.896,-55.795],[-40.059,-55.77],[-39.222,-55.739],[-38.388,-55.702],[-37.554,-55.659],[-36.723,-55.611],[-35.894,-55.558],[-35.067,-55.498],[-34.243,-55.433],[-33.422,-55.363],[-32.603,-55.287],[-31.794,-55.167],[-30.991,-55.042],[-30.192,-54.911],[-29.398,-54.776],[-28.61,-54.635],[-27.828,-54.489],[-27.051,-54.338],[-26.28,-54.182],[-25.515,-54.021],[-24.756,-53.855],[-24.003,-53.685],[-23.256,-53.51],[-22.515,-53.33],[-21.78,-53.146],[-21.052,-52.957],[-20.526,-52.67],[-20.006,-52.382],[-19.494,-52.091],[-18.988,-51.798]]}},{"type":"Feature","properties":{"boundary_type":"subduction","feature_type":"gpml:SubductionZone","polarity":"Right","overriding_plate_id":701,"subducting_plate_id":501,"plate_ids":[501,701],"name":"Cadomia Terranes"},"geometry":{"type":"LineString","coordinates":[[-18.988,-51.798],[-18.437,-51.472],[-17.895,-51.144],[-17.36,-50.813],[-16.832,-50.48],[-16.312,-50.144],[-15.8,-49.807],[-15.294,-49.467],[-14.795,-49.124],[-14.304,-48.78],[-13.863,-48.569],[-13.425,-48.355],[-12.991,-48.14],[-12.416,-47.95],[-11.846,-47.757],[-11.28,-47.56],[-10.718,-47.361],[-10.045,-47.177],[-9.377,-46.989],[-8.714,-46.797],[-8.055,-46.601],[-7.402,-46.401],[-6.753,-46.198],[-6.109,-45.991],[-5.469,-45.781],[-4.835,-45.566],[-4.205,-45.349],[-3.581,-45.128],[-2.961,-44.903],[-2.346,-44.676],[-1.908,-44.482],[-1.473,-44.287],[-1.041,-44.09]]}},{"type":"Feature","properties":{"boundary_type":"subduction","feature_type":"gpml:SubductionZone","polarity":"Right","overriding_plate_id":701,"subducting_plate_id":501,"plate_ids":[501,701],"name":"Suture between Toast and Mawson"},"geometry":{"type":"LineString","coordinates":[[114.355,-32.375],[114.87,-32.206],[115.383,-32.036]]}},{"type":"Feature","properties":{"boundary_type":"subduction","feature_type":"gpml:SubductionZone","polarity":"Right","overriding_plate_id":701,"subducting_plate_id":801,"plate_ids":[701,801],"name":"Suture between Toast and Mawson"},"geometry":{"type":"LineString","coordinates":[[115.383,-32.036],[115.587,-31.967],[116.115,-31.985],[116.644,-32.0],[117.172,-32.014],[117.701,-32.025],[118.229,-32.035],[118.758,-32.042],[119.287,-32.046],[119.771,-32.062],[120.255,-32.075],[120.739,-32.087],[121.224,-32.096],[121.668,-32.173],[122.114,-32.248],[122.56,-32.321],[123.007,-32.393],[123.427,-32.585],[123.85,-32.776],[124.275,-32.965],[124.701,-33.152],[125.129,-33.338],[125.423,-33.755],[125.72,-34.171],[126.02,-34.586],[125.966,-35.022],[125.91,-35.459],[125.855,-35.896],[125.798,-36.333],[125.741,-36.77]]}},{"type":"Feature","properties":{"boundary_type":"subduction","feature_type":"gpml:SubductionZone","polarity":"Right","overriding_plate_id":701,"subducting_plate_id":77030,"plate_ids":[701,77030],"name":"Suture between Toast and Mawson"},"geometry":{"type":"LineString","coordinates":[[125.741,-36.77],[125.682,-37.214],[125.761,-37.664],[125.84,-38.115],[125.921,-38.565]]}},{"type":"Feature","properties":{"boundary_type":"subduction","feature_type":"gpml:SubductionZone","polarity":"Left","overriding_plate_id":98043,"subducting_plate_id":401,"plate_ids":[401,98043],"name":"Lake subduction zone"},"geometry":{"type":"LineString","coordinates":[[-88.936,19.548],[-88.78,19.101],[-88.637,18.845],[-88.495,18.589],[-88.117,18.424],[-87.739,18.258],[-87.345,18.28],[-86.95,18.301],[-86.556,18.321],[-86.131,18.143],[-85.707,17.963],[-85.284,17.783],[-84.862,17.602],[-84.441,17.42],[-84.0,17.301],[-83.629,17.316],[-83.192,17.472]]}},{"type":"Feature","properties":{"boundary_type":"subduction","feature_type":"gpml:SubductionZone","polarity":"Right","overriding_plate_id":401,"subducting_plate_id":98043,"plate_ids":[401,98043],"name":"South Siberia subduction zone"},"geometry":{"type":"LineString","coordinates":[[-137.289,32.801],[-136.73,32.683],[-136.171,32.563],[-135.614,32.44],[-135.059,32.315],[-134.505,32.187],[-133.953,32.057],[-133.403,31.924],[-132.854,31.789],[-132.306,31.652],[-131.761,31.513],[-131.217,31.371],[-130.674,31.227],[-130.133,31.08],[-129.594,30.932],[-129.057,30.781],[-128.521,30.628],[-127.987,30.473],[-127.455,30.315],[-126.924,30.156],[-126.395,29.994],[-125.868,29.83],[-125.343,29.664],[-124.819,29.496],[-124.308,29.309],[-123.799,29.121],[-123.292,28.93],[-122.787,28.737],[-122.283,28.543],[-121.782,28.346],[-121.282,28.148],[-120.784,27.948],[-120.289,27.747],[-119.794,27.543],[-119.302,27.338],[-118.812,27.131],[-118.323,26.922],[-117.836,26.712],[-117.351,26.5],[-116.868,26.286],[-116.387,26.071],[-115.907,25.854],[-115.429,25.636],[-114.955,25.455],[-114.483,25.272],[-114.012,25.088],[-113.543,24.902],[-113.075,24.715],[-112.608,24.526],[-112.143,24.336],[-111.679,24.145],[-111.217,23.952],[-110.755,23.758],[-110.296,23.562],[-109.838,23.365],[-109.381,23.167],[-108.889,23.043],[-108.398,22.918],[-107.908,22.791],[-107.419,22.663],[-106.931,22.534],[-106.444,22.402],[-105.958,22.27],[-105.472,22.136],[-104.988,22.0],[-104.505,21.864],[-104.022,21.725],[-103.54,21.586],[-103.06,21.445],[-102.575,21.367],[-102.09,21.288],[-101.606,21.208],[-101.123,21.126],[-100.64,21.043],[-100.158,20.959],[-99.676,20.873],[-99.195,20.786],[-98.714,20.697],[-98.234,20.607],[-97.783,20.476],[-97.332,20.344],[-96.882,20.211],[-96.433,20.076],[-95.985,19.941],[-95.537,19.804],[-95.09,19.666],[-94.644,19.527],[-94.241,19.314],[-93.839,19.1],[-93.438,18.885],[-93.038,18.67],[-92.639,18.453],[-92.241,18.236],[-91.834,18.198],[-91.428,18.159],[-91.021,18.12],[-90.627,18.159],[-90.233,18.197],[-89.839,18.235],[-89.445,18.271],[-89.156,18.44]]}},{"type":"Feature","properties":{"boundary_type":"subduction","feature_type":"gpml:SubductionZone","polarity":"Left","overriding_plate_id":201,"subducting_plate_id":22032,"plate_ids":[201,22032],"name":"Pampean Belt"},"geometry":{"type":"LineString","coordinates":[[-127.271,-57.23],[-128.049,-56.995],[-128.817,-56.756],[-129.575,-56.513],[-130.323,-56.265],[-131.062,-56.012],[-131.791,-55.755],[-132.51,-55.494],[-133.22,-55.228],[-133.92,-54.959],[-134.611,-54.686],[-135.293,-54.408],[-135.965,-54.127],[-136.628,-53.842],[-137.185,-53.488],[-137.732,-53.131],[-138.271,-52.771],[-138.8,-52.409],[-139.321,-52.045],[-139.833,-51.678],[-140.337,-51.309],[-140.833,-50.938],[-141.321,-50.565],[-141.802,-50.19],[-142.275,-49.813],[-142.74,-49.435],[-143.199,-49.054],[-143.65,-48.672],[-144.095,-48.287],[-144.521,-47.898],[-144.941,-47.508],[-145.354,-47.116],[-145.762,-46.722],[-146.163,-46.327],[-146.559,-45.931],[-146.949,-45.533],[-147.334,-45.134],[-147.713,-44.733],[-148.087,-44.332],[-148.456,-43.929],[-148.82,-43.525],[-149.104,-43.099],[-149.384,-42.673],[-149.66,-42.246],[-149.933,-41.818],[-150.201,-41.39],[-150.467,-40.961],[-150.729,-40.532],[-150.987,-40.102],[-151.337,-39.72],[-151.683,-39.337],[-152.151,-39.037],[-152.615,-38.736],[-153.112,-38.471],[-153.604,-38.205],[-154.093,-37.936],[-154.578,-37.666],[-155.06,-37.393],[-155.539,-37.119],[-156.013,-36.843],[-156.581,-36.7],[-157.146,-36.554],[-157.709,-36.406],[-158.269,-36.255],[-158.828,-36.101],[-159.384,-35.945],[-159.938,-35.787],[-160.49,-35.625],[-161.04,-35.462],[-161.587,-35.295],[-162.174,-35.29],[-162.76,-35.282],[-163.347,-35.271],[-163.933,-35.257],[-164.518,-35.24],[-165.104,-35.22],[-165.689,-35.198],[-166.274,-35.173],[-166.859,-35.145],[-167.443,-35.114],[-168.027,-35.081],[-168.61,-35.044],[-169.193,-35.005],[-169.775,-34.963],[-170.356,-34.918],[-170.937,-34.871],[-171.517,-34.82],[-172.096,-34.767],[-172.675,-34.712],[-173.253,-34.653],[-173.843,-34.661],[-174.434,-34.667],[-175.025,-34.669],[-175.615,-34.669],[-176.206,-34.666],[-176.797,-34.66],[-177.387,-34.651],[-177.977,-34.639],[-178.577,-34.681],[-179.177,-34.72],[-179.777,-34.756],[179.622,-34.789],[179.02,-34.819],[178.514,-34.93],[178.007,-35.039],[177.498,-35.146],[176.988,-35.251],[176.477,-35.353],[175.965,-35.454],[175.451,-35.552],[174.869,-35.713],[174.284,-35.871],[173.698,-36.026],[173.109,-36.178],[172.855,-36.495],[172.6,-36.812],[172.342,-37.128]]}},{"type":"Feature","properties":{"boundary_type":"subduction","feature_type":"gpml:SubductionZone","polarity":"Left","overriding_plate_id":22042,"subducting_plate_id":77030,"plate_ids":[22042,77030],"name":"Dom Feliciano - Gariep Belt"},"geometry":{"type":"LineString","coordinates":[[162.605,-46.673],[162.222,-46.991],[161.835,-47.308],[161.443,-47.624],[161.059,-48.051],[160.669,-48.477],[160.273,-48.902],[159.87,-49.325],[159.46,-49.746],[159.042,-50.166],[158.617,-50.585],[158.185,-51.002],[157.745,-51.418],[157.193,-51.743],[156.632,-52.067],[156.064,-52.387],[155.487,-52.705],[154.902,-53.02],[154.309,-53.332],[153.706,-53.641],[153.095,-53.946],[152.475,-54.249],[152.233,-54.325]]}},{"type":"Feature","properties":{"boundary_type":"subduction","feature_type":"gpml:SubductionZone","polarity":"Right","overriding_plate_id":401,"subducting_plate_id":302,"plate_ids":[302,401],"name":"Central Taimyr Belt"},"geometry":{"type":"LineString","coordinates":[[-81.412,6.487],[-81.451,6.039],[-81.491,5.591],[-81.53,5.144],[-81.569,4.696],[-81.784,4.284],[-81.998,3.872],[-82.211,3.461],[-82.425,3.049],[-82.638,2.637],[-82.852,2.225],[-83.065,1.813],[-83.278,1.401],[-83.491,0.989],[-83.951,0.895],[-84.411,0.801],[-84.871,0.708],[-85.331,0.614],[-85.791,0.52],[-86.251,0.426],[-86.71,0.332],[-87.17,0.238],[-87.63,0.144],[-88.09,0.05],[-88.55,-0.045],[-88.94,-0.244],[-89.33,-0.444],[-89.72,-0.644],[-90.11,-0.843],[-90.499,-1.043],[-90.889,-1.242],[-91.267,-1.546],[-91.645,-1.85],[-92.023,-2.153],[-92.401,-2.457],[-92.779,-2.76],[-93.158,-3.063],[-93.536,-3.366],[-93.915,-3.669],[-94.294,-3.972],[-94.674,-4.275],[-95.054,-4.577],[-95.434,-4.879],[-95.814,-5.181],[-96.195,-5.483],[-96.591,-5.695],[-96.987,-5.906],[-97.383,-6.117],[-97.78,-6.328],[-98.177,-6.538],[-98.575,-6.748],[-98.972,-6.958],[-99.37,-7.168],[-99.769,-7.377],[-100.253,-7.488],[-100.737,-7.599],[-101.221,-7.71],[-101.705,-7.82],[-102.19,-7.929],[-102.675,-8.038],[-103.16,-8.146],[-103.646,-8.254],[-104.131,-8.361],[-104.618,-8.468],[-104.986,-8.794],[-105.356,-9.121],[-105.726,-9.446],[-106.097,-9.772],[-106.469,-10.097],[-106.842,-10.421],[-107.215,-10.746],[-107.589,-11.069],[-107.964,-11.393],[-108.357,-11.693],[-108.752,-11.993],[-109.147,-12.292],[-109.544,-12.59],[-109.941,-12.888],[-110.339,-13.186],[-110.738,-13.483],[-111.139,-13.779],[-111.54,-14.075],[-111.943,-14.36],[-112.347,-14.645],[-112.752,-14.93],[-113.158,-15.213],[-113.566,-15.496],[-113.974,-15.778],[-114.384,-16.06],[-114.795,-16.34],[-115.207,-16.62],[-115.62,-16.899],[-116.034,-17.177]]}},{"type":"Feature","properties":{"boundary_type":"subduction","feature_type":"gpml:SubductionZone","polarity":"Right","overriding_plate_id":98044,"subducting_plate_id":601,"plate_ids":[601,98044],"name":"NC Oceanic subduction"},"geometry":{"type":"LineString","coordinates":[[101.094,27.956],[100.667,28.259],[100.238,28.559],[99.806,28.859],[99.371,29.157],[98.934,29.453],[98.495,29.748],[98.053,30.042],[97.608,30.334],[97.161,30.625],[96.711,30.914],[96.258,31.202],[95.743,31.411],[95.225,31.618],[94.705,31.823],[94.183,32.025],[93.659,32.226],[93.132,32.424],[92.603,32.62],[92.072,32.814],[91.539,33.006],[91.003,33.195],[90.464,33.382],[89.924,33.567],[89.381,33.75],[88.836,33.93],[88.289,34.107],[87.739,34.282],[87.187,34.455],[86.633,34.625],[86.076,34.793],[85.517,34.958],[84.956,35.121],[84.393,35.281],[83.828,35.438],[83.26,35.593],[82.69,35.745],[82.118,35.894],[81.544,36.041],[80.968,36.185],[80.39,36.326],[79.809,36.464],[79.206,36.485],[78.602,36.502],[77.997,36.516],[77.393,36.527],[76.788,36.535],[76.184,36.54],[75.579,36.542],[74.974,36.541],[74.369,36.536],[73.765,36.529],[73.16,36.519],[72.556,36.506],[71.952,36.489],[71.348,36.47],[70.745,36.447],[70.142,36.422],[69.539,36.393],[68.937,36.362],[68.335,36.327],[67.734,36.289],[67.133,36.249],[66.555,36.098],[65.979,35.945],[65.405,35.788],[64.834,35.629],[64.264,35.468],[63.697,35.303],[63.133,35.137],[62.571,34.967],[62.011,34.795],[61.453,34.62],[60.898,34.443],[60.345,34.263],[59.794,34.081],[59.246,33.897]]}},{"type":"Feature","properties":{"boundary_type":"subduction","feature_type":"gpml:SubductionZone","polarity":"Right","overriding_plate_id":501,"subducting_plate_id":601,"plate_ids":[501,601],"name":"NC Oceanic subduction"},"geometry":{"type":"LineString","coordinates":[[59.246,33.897],[58.759,33.73],[58.273,33.561],[57.79,33.39],[57.46,33.2],[57.132,33.008]]}},{"type":"Feature","properties":{"boundary_type":"subduction","feature_type":"gpml:SubductionZone","polarity":"Left","overriding_plate_id":null,"subducting_plate_id":null,"plate_ids":[606],"name":"Lhasa and India SZ"},"geometry":{"type":"LineString","coordinates":[[86.494,-0.963],[86.491,-1.274],[86.489,-1.585]]}},{"type":"Feature","properties":{"boundary_type":"subduction","feature_type":"gpml:SubductionZone","polarity":"Left","overriding_plate_id":606,"subducting_plate_id":501,"plate_ids":[501,606],"name":"Lhasa and India SZ"},"geometry":{"type":"LineString","coordinates":[[86.489,-1.585],[86.485,-2.047],[86.481,-2.508],[86.476,-2.97],[86.472,-3.432],[86.468,-3.893],[86.464,-4.355],[86.46,-4.817],[86.584,-5.299],[86.708,-5.781],[86.832,-6.264],[86.956,-6.746],[87.081,-7.228],[87.206,-7.71],[87.331,-8.193],[87.457,-8.675],[87.583,-9.157],[87.709,-9.639],[87.835,-10.121],[87.962,-10.603],[88.09,-11.084],[88.217,-11.566],[88.346,-12.048],[88.474,-12.53],[88.603,-13.011],[88.733,-13.493],[88.928,-13.955],[89.125,-14.416],[89.322,-14.878],[89.52,-15.339],[89.719,-15.8]]}},{"type":"Feature","properties":{"boundary_type":"subduction","feature_type":"gpml:SubductionZone","polarity":"Right","overriding_plate_id":1019,"subducting_plate_id":98044,"plate_ids":[1019,98044],"name":"outboard Laurentia SZ"},"geometry":{"type":"LineString","coordinates":[[172.511,8.662],[172.955,8.9],[173.399,9.137],[173.844,9.373],[174.29,9.609],[174.737,9.845],[175.183,10.08],[175.631,10.314],[176.079,10.548],[176.528,10.781],[176.978,11.013],[177.428,11.245],[177.88,11.476],[178.331,11.707],[178.784,11.936],[179.237,12.165],[179.692,12.394],[-179.854,12.621],[-179.398,12.848],[-178.933,13.044],[-178.468,13.24],[-178.001,13.435],[-177.534,13.629],[-177.067,13.822],[-176.598,14.014],[-176.129,14.205],[-175.659,14.396],[-175.188,14.585],[-174.716,14.773],[-174.243,14.961],[-173.77,15.148],[-173.296,15.333],[-172.821,15.518],[-172.345,15.701],[-171.868,15.884],[-171.391,16.065],[-170.912,16.246],[-170.433,16.425],[-169.953,16.603],[-169.472,16.78],[-168.989,16.956],[-168.507,17.131],[-167.993,17.204],[-167.48,17.276],[-166.966,17.346],[-166.451,17.415],[-165.936,17.482],[-165.421,17.549],[-164.905,17.614],[-164.39,17.677],[-163.873,17.74],[-163.357,17.801],[-162.839,17.86],[-162.322,17.918],[-161.804,17.975],[-161.286,18.031],[-160.768,18.085],[-160.249,18.137],[-159.73,18.189],[-159.211,18.239],[-158.692,18.287],[-158.172,18.334],[-157.652,18.38],[-157.131,18.424],[-156.61,18.467],[-156.089,18.508],[-155.568,18.549],[-155.047,18.587],[-154.525,18.624],[-154.003,18.66],[-153.52,18.656],[-153.036,18.65],[-152.552,18.644],[-152.068,18.636],[-151.585,18.627],[-151.101,18.617],[-150.618,18.605],[-150.134,18.592],[-149.651,18.578],[-149.168,18.563],[-148.684,18.546]]}},{"type":"Feature","properties":{"boundary_type":"subduction","feature_type":"gpml:SubductionZone","polarity":"Right","overriding_plate_id":1019,"subducting_plate_id":401,"plate_ids":[401,1019],"name":"outboard Laurentia SZ"},"geometry":{"type":"LineString","coordinates":[[-148.684,18.546],[-148.17,18.527],[-147.656,18.507],[-147.143,18.485],[-146.629,18.462],[-146.115,18.438],[-145.602,18.412],[-145.089,18.385],[-144.576,18.356],[-144.063,18.326],[-143.55,18.295],[-143.038,18.262],[-142.525,18.228],[-142.013,18.193],[-141.501,18.156],[-140.99,18.118],[-140.478,18.079],[-139.967,18.038],[-139.456,17.996],[-138.945,17.952]]}},{"type":"Feature","properties":{"boundary_type":"subduction","feature_type":"gpml:SubductionZone","polarity":"Right","overriding_plate_id":8011,"subducting_plate_id":98044,"plate_ids":[8011,98044],"name":"Early onset Terra Australis?"},"geometry":{"type":"LineString","coordinates":[[99.18,24.479],[99.452,24.257],[99.796,23.934],[100.138,23.609],[100.478,23.284],[100.817,22.959],[101.154,22.632],[101.489,22.305],[101.823,21.977],[102.156,21.648],[102.547,21.354],[102.937,21.059],[103.325,20.762],[103.712,20.465],[104.097,20.167],[104.481,19.868],[104.863,19.569],[105.244,19.268],[105.623,18.967],[106.002,18.665],[106.361,18.309],[106.72,17.952],[107.077,17.595],[107.433,17.237],[107.787,16.878],[108.14,16.519],[108.491,16.159],[108.841,15.798],[109.149,15.47],[109.455,15.142],[109.761,14.813],[110.065,14.484],[110.369,14.155],[110.672,13.825]]}},{"type":"Feature","properties":{"boundary_type":"subduction","feature_type":"gpml:SubductionZone","polarity":"Left","overriding_plate_id":302,"subducting_plate_id":98043,"plate_ids":[302,98043],"name":"Kuznetsk-Alatau & North Sayan & Chingiz (?) subduction zone"},"geometry":{"type":"LineString","coordinates":[[-74.364,-2.277],[-74.617,-1.876],[-74.87,-1.474],[-75.123,-1.073],[-75.376,-0.671],[-75.629,-0.27],[-75.882,0.132],[-76.135,0.533],[-76.389,0.935],[-76.642,1.336],[-76.895,1.738],[-77.077,2.129],[-77.259,2.521],[-77.442,2.912],[-77.625,3.303],[-77.807,3.694],[-78.14,3.96],[-78.472,4.225],[-78.805,4.49],[-79.138,4.755],[-79.471,5.019],[-79.858,5.313],[-80.246,5.607],[-80.634,5.901],[-81.023,6.194],[-81.412,6.487]]}},{"type":"Feature","properties":{"boundary_type":"subduction","feature_type":"gpml:SubductionZone","polarity":"Left","overriding_plate_id":401,"subducting_plate_id":98043,"plate_ids":[401,98043],"name":"Kuznetsk-Alatau & North Sayan & Chingiz (?) subduction zone"},"geometry":{"type":"LineString","coordinates":[[-81.412,6.487],[-81.487,6.544],[-81.894,6.792],[-82.301,7.04],[-82.709,7.288],[-83.117,7.536],[-83.525,7.783],[-83.919,7.976],[-84.314,8.169],[-84.709,8.361],[-85.104,8.553],[-85.5,8.745],[-85.979,8.871],[-86.458,8.997],[-86.938,9.123],[-87.418,9.247],[-87.898,9.372],[-88.033,9.443]]}},{"type":"Feature","properties":{"boundary_type":"subduction","feature_type":"gpml:SubductionZone","polarity":"Left","overriding_plate_id":701,"subducting_plate_id":201,"plate_ids":[201,701],"name":"Rockelide Belt"},"geometry":{"type":"LineString","coordinates":[[-109.28,-63.382],[-109.035,-63.848],[-108.781,-64.313],[-109.201,-64.728],[-109.634,-65.142],[-110.081,-65.554],[-110.542,-65.966],[-110.953,-66.417],[-111.379,-66.867],[-111.82,-67.316],[-112.279,-67.764],[-112.721,-68.178],[-113.179,-68.591],[-113.654,-69.002],[-114.147,-69.412],[-114.85,-69.839],[-115.582,-70.262],[-116.345,-70.682],[-117.141,-71.099],[-117.971,-71.513],[-118.837,-71.923],[-119.742,-72.328],[-120.688,-72.73],[-121.678,-73.126],[-122.713,-73.518],[-123.797,-73.905],[-124.932,-74.285],[-126.251,-74.597],[-127.622,-74.901],[-129.048,-75.197],[-130.529,-75.483],[-132.068,-75.76],[-133.665,-76.026],[-135.322,-76.281],[-137.039,-76.526],[-138.817,-76.758],[-140.655,-76.977],[-142.553,-77.183],[-144.51,-77.375],[-146.061,-77.714],[-147.697,-78.044],[-149.423,-78.364],[-151.244,-78.673],[-153.164,-78.971],[-155.186,-79.255],[-157.315,-79.526],[-159.552,-79.782],[-161.899,-80.022],[-164.357,-80.245],[-166.923,-80.45],[-169.291,-80.685],[-171.775,-80.904],[-174.376,-81.105],[-177.091,-81.287],[-179.914,-81.449],[177.162,-81.59],[174.146,-81.709],[171.053,-81.805]]}},{"type":"Feature","properties":{"boundary_type":"ridge","feature_type":"gpml:MidOceanRidge","polarity":null,"overriding_plate_id":null,"subducting_plate_id":null,"plate_ids":[501,98044],"name":"India closure transform"},"geometry":{"type":"LineString","coordinates":[[59.246,33.897],[59.125,34.324],[59.002,34.752],[58.878,35.179],[58.753,35.607],[58.626,36.034],[58.498,36.461],[58.368,36.888],[58.87,37.092],[59.373,37.293],[59.88,37.493],[60.389,37.69],[60.901,37.885],[61.416,38.078],[61.933,38.268],[61.74,38.739],[61.543,39.209],[61.345,39.679],[61.143,40.149],[60.939,40.618],[60.731,41.087],[60.521,41.555],[60.308,42.024],[60.092,42.491],[59.872,42.959],[59.649,43.426],[59.422,43.892],[59.192,44.358],[58.958,44.824],[58.721,45.289],[58.479,45.753],[58.234,46.217],[57.984,46.681],[57.73,47.144],[57.471,47.606],[57.208,48.068],[56.94,48.529],[56.668,48.99],[56.39,49.45],[56.106,49.909],[55.818,50.367],[55.524,50.825],[55.224,51.282],[54.917,51.738],[54.605,52.194],[54.286,52.648],[53.961,53.102],[53.628,53.555],[53.289,54.007],[54.029,54.164],[54.775,54.318],[55.527,54.466],[56.284,54.61],[57.046,54.749],[56.811,55.224],[56.57,55.699],[56.324,56.173],[56.071,56.647],[55.812,57.12],[55.546,57.592],[55.274,58.065],[54.994,58.536],[54.706,59.007],[54.41,59.477],[54.106,59.947],[53.794,60.415],[53.472,60.883],[53.14,61.351],[52.799,61.817],[52.447,62.283],[52.084,62.747],[51.709,63.211],[51.322,63.673]]}},{"type":"Feature","properties":{"boundary_type":"ridge","feature_type":"gpml:MidOceanRidge","polarity":null,"overriding_plate_id":null,"subducting_plate_id":null,"plate_ids":[98043,98044],"name":"India closure transform"},"geometry":{"type":"LineString","coordinates":[[51.322,63.673],[50.94,64.116],[50.545,64.557]]}},{"type":"Feature","properties":{"boundary_type":"ridge","feature_type":"gpml:MidOceanRidge","polarity":null,"overriding_plate_id":null,"subducting_plate_id":null,"plate_ids":[101,302],"name":"Laurentia-Baltica MOR"},"geometry":{"type":"LineString","coordinates":[[-125.095,-48.758],[-124.85,-48.325],[-124.61,-47.891],[-124.373,-47.457],[-124.141,-47.023],[-123.912,-46.588],[-123.687,-46.152],[-123.465,-45.716],[-123.247,-45.28],[-122.647,-45.368],[-122.046,-45.452],[-121.442,-45.534],[-120.837,-45.612],[-120.231,-45.687],[-120.023,-45.21],[-119.819,-44.732],[-119.618,-44.254],[-119.421,-43.776],[-119.226,-43.298],[-119.035,-42.819],[-118.847,-42.339],[-118.661,-41.86],[-118.478,-41.38],[-118.298,-40.9],[-118.121,-40.419],[-117.946,-39.939],[-118.436,-39.847],[-118.286,-39.381],[-118.138,-38.914],[-117.991,-38.447],[-117.847,-37.98],[-117.704,-37.513],[-117.564,-37.046],[-117.425,-36.579],[-117.981,-36.495],[-117.851,-36.082],[-117.723,-35.67],[-117.596,-35.257],[-117.471,-34.845],[-117.346,-34.432],[-117.223,-34.019],[-117.73,-33.895],[-118.235,-33.77],[-118.739,-33.642],[-119.242,-33.513],[-119.743,-33.381],[-120.242,-33.248],[-120.064,-32.779],[-119.887,-32.31],[-119.713,-31.841],[-119.54,-31.372],[-119.369,-30.902],[-119.2,-30.432],[-119.697,-30.205],[-120.192,-29.977],[-120.685,-29.746],[-121.176,-29.514],[-121.611,-29.279],[-122.044,-29.043],[-122.474,-28.806],[-122.903,-28.568],[-122.619,-28.148],[-122.337,-27.727],[-122.057,-27.306],[-121.78,-26.884],[-121.504,-26.462],[-121.23,-26.039],[-120.959,-25.616],[-120.689,-25.192],[-120.421,-24.768],[-120.155,-24.343],[-119.891,-23.918],[-120.236,-23.708],[-120.58,-23.498],[-120.922,-23.286],[-121.211,-22.966],[-121.498,-22.645],[-121.784,-22.324],[-121.51,-21.944],[-121.237,-21.563],[-120.965,-21.182],[-120.695,-20.801],[-120.426,-20.419],[-120.158,-20.037],[-119.892,-19.654],[-119.627,-19.271],[-119.364,-18.887],[-119.101,-18.504],[-118.84,-18.119],[-119.161,-17.87],[-119.482,-17.62],[-119.801,-17.369],[-119.491,-16.989],[-119.182,-16.609],[-118.874,-16.229]]}},{"type":"Feature","properties":{"boundary_type":"ridge","feature_type":"gpml:MidOceanRidge","polarity":null,"overriding_plate_id":null,"subducting_plate_id":null,"plate_ids":[302,401],"name":"Laurentia-Baltica MOR"},"geometry":{"type":"LineString","coordinates":[[-118.874,-16.229],[-118.656,-15.959],[-118.439,-15.689],[-118.223,-15.418]]}},{"type":"Feature","properties":{"boundary_type":"ridge","feature_type":"gpml:MidOceanRidge","polarity":null,"overriding_plate_id":null,"subducting_plate_id":null,"plate_ids":[801,8013],"name":"Tasmania-Antarctica MOR"},"geometry":{"type":"LineString","coordinates":[[110.384,11.364],[110.853,11.363],[111.321,11.362],[111.789,11.361],[112.258,11.358],[112.726,11.355],[113.194,11.351],[113.663,11.347],[114.131,11.341],[114.241,10.858],[114.35,10.375],[114.46,9.892],[114.568,9.409],[114.677,8.926],[114.785,8.443],[114.893,7.96],[115.001,7.477],[115.109,6.993],[115.216,6.51],[115.323,6.027],[115.815,5.997],[116.307,5.966],[116.799,5.935],[117.29,5.903],[117.782,5.871],[118.273,5.838],[118.765,5.805],[119.256,5.772],[119.748,5.738],[120.239,5.704],[120.73,5.669],[121.221,5.634],[121.712,5.599],[122.203,5.563],[122.266,5.09],[122.328,4.618],[122.391,4.145],[122.453,3.673],[122.515,3.2],[122.578,2.728],[122.64,2.255],[122.702,1.782],[123.187,1.718],[123.673,1.653],[124.158,1.589],[124.643,1.524],[125.128,1.459],[125.614,1.394],[126.099,1.329],[126.584,1.263],[127.069,1.198],[127.554,1.132],[128.039,1.067],[128.524,1.001],[129.01,0.936],[129.495,0.87],[129.98,0.804],[130.465,0.738],[130.95,0.672],[131.013,0.234],[131.076,-0.204],[131.14,-0.642],[131.203,-1.08],[131.266,-1.518],[131.329,-1.956],[131.393,-2.394],[131.456,-2.832],[131.9,-2.881],[132.344,-2.93],[132.788,-2.978],[133.233,-3.026],[133.677,-3.075],[134.121,-3.123],[134.565,-3.17],[134.598,-3.574],[134.63,-3.977],[134.663,-4.38],[134.695,-4.783],[135.168,-4.911],[135.64,-5.039],[136.113,-5.166],[136.585,-5.293],[137.058,-5.42],[137.532,-5.547],[138.005,-5.672],[138.479,-5.798],[138.953,-5.923],[139.427,-6.048],[139.901,-6.172],[140.375,-6.296],[140.85,-6.42],[141.325,-6.543],[141.8,-6.666],[142.276,-6.788],[142.234,-7.262],[142.192,-7.737],[142.151,-8.212],[142.109,-8.687],[142.067,-9.161],[142.528,-9.302],[142.99,-9.443],[143.453,-9.582],[143.915,-9.722],[144.378,-9.86],[144.842,-9.998],[145.305,-10.135],[145.77,-10.272],[146.234,-10.408],[146.699,-10.543],[147.165,-10.678],[147.63,-10.812],[148.097,-10.945],[148.563,-11.078],[149.03,-11.209]]}},{"type":"Feature","properties":{"boundary_type":"ridge","feature_type":"gpml:MidOceanRidge","polarity":null,"overriding_plate_id":null,"subducting_plate_id":null,"plate_ids":[8013,22042],"name":"Tasmania-Antarctica MOR"},"geometry":{"type":"LineString","coordinates":[[149.03,-11.209],[149.475,-11.334],[149.92,-11.458],[150.365,-11.581],[150.811,-11.704],[150.729,-12.113],[150.646,-12.523],[150.564,-12.932],[150.963,-13.106],[151.363,-13.28],[151.763,-13.453],[152.164,-13.626],[152.565,-13.798]]}},{"type":"Feature","properties":{"boundary_type":"ridge","feature_type":"gpml:MidOceanRidge","polarity":null,"overriding_plate_id":null,"subducting_plate_id":null,"plate_ids":[22042,98044],"name":"Tasmania-Antarctica MOR"},"geometry":{"type":"LineString","coordinates":[[152.565,-13.798],[153.015,-13.989],[153.466,-14.18],[153.917,-14.37],[154.369,-14.559],[154.822,-14.747],[155.276,-14.934],[155.73,-15.121],[155.685,-15.558],[155.639,-15.995],[155.594,-16.432],[156.07,-16.603],[156.548,-16.774],[157.027,-16.943],[157.506,-17.111],[157.987,-17.278],[158.468,-17.444],[158.95,-17.608],[159.433,-17.772],[159.917,-17.934],[160.401,-18.095],[160.887,-18.255],[161.373,-18.414],[161.861,-18.571],[162.349,-18.727],[162.838,-18.882],[163.328,-19.036],[163.819,-19.188],[164.311,-19.339],[164.804,-19.489],[165.298,-19.637]]}},{"type":"Feature","properties":{"boundary_type":"ridge","feature_type":"gpml:MidOceanRidge","polarity":null,"overriding_plate_id":null,"subducting_plate_id":null,"plate_ids":[101,22032],"name":"Pampia-Amazonia MoR"},"geometry":{"type":"LineString","coordinates":[[179.452,-33.573],[179.948,-33.818],[-179.553,-34.062],[-179.254,-33.663],[-178.958,-33.263],[-178.523,-33.455],[-178.086,-33.646],[-177.647,-33.835],[-177.207,-34.023],[-176.962,-33.734],[-176.718,-33.445],[-176.477,-33.155],[-176.179,-32.804],[-175.883,-32.453],[-175.59,-32.101],[-175.299,-31.749],[-174.848,-31.944],[-174.395,-32.138],[-173.94,-32.331],[-173.484,-32.521],[-173.204,-32.185],[-172.926,-31.849],[-172.65,-31.511],[-172.376,-31.174],[-172.105,-30.835]]}},{"type":"Feature","properties":{"boundary_type":"ridge","feature_type":"gpml:MidOceanRidge","polarity":null,"overriding_plate_id":null,"subducting_plate_id":null,"plate_ids":[101,22032],"name":"RDLP-Pampia MoR"},"geometry":{"type":"LineString","coordinates":[[179.452,-33.573],[179.359,-33.099],[179.267,-32.626],[179.177,-32.152],[179.087,-31.678],[178.997,-31.204],[178.909,-30.73],[178.822,-30.256],[178.736,-29.782],[178.65,-29.308],[178.565,-28.834],[178.481,-28.36],[178.398,-27.885],[178.315,-27.411],[178.232,-26.917],[178.15,-26.422],[178.068,-25.928]]}},{"type":"Feature","properties":{"boundary_type":"ridge","feature_type":"gpml:MidOceanRidge","polarity":null,"overriding_plate_id":null,"subducting_plate_id":null,"plate_ids":[101,22042],"name":"RDLP-Pampia MoR"},"geometry":{"type":"LineString","coordinates":[[178.068,-25.928],[178.054,-25.844],[177.631,-25.931],[177.208,-26.016],[176.963,-25.628],[176.72,-25.239],[176.479,-24.849],[176.239,-24.46],[176.0,-24.07],[175.763,-23.679],[175.528,-23.289],[175.294,-22.898],[175.061,-22.506],[174.567,-22.634],[174.072,-22.761],[173.577,-22.886],[173.071,-23.022],[172.565,-23.156],[172.058,-23.289],[171.549,-23.42],[171.41,-22.983],[171.272,-22.546],[171.135,-22.109],[170.998,-21.672],[170.507,-21.771],[170.016,-21.869],[169.524,-21.966],[169.031,-22.061],[168.537,-22.155],[168.386,-21.711],[167.907,-21.808],[167.428,-21.905],[166.948,-21.999],[166.467,-22.093],[165.986,-22.185],[165.504,-22.275],[165.021,-22.364],[164.538,-22.452],[164.054,-22.538]]}},{"type":"Feature","properties":{"boundary_type":"ridge","feature_type":"gpml:MidOceanRidge","polarity":null,"overriding_plate_id":null,"subducting_plate_id":null,"plate_ids":[101,22032],"name":"Iapetus MoR"},"geometry":{"type":"LineString","coordinates":[[-135.922,-35.138],[-136.53,-35.164],[-137.139,-35.187],[-137.748,-35.206],[-138.358,-35.223],[-138.968,-35.236],[-139.578,-35.246],[-140.188,-35.254],[-140.798,-35.258],[-141.408,-35.259],[-142.018,-35.257],[-142.628,-35.252],[-143.238,-35.244],[-143.848,-35.233],[-144.457,-35.219],[-145.067,-35.202],[-145.676,-35.181],[-146.285,-35.158],[-146.893,-35.132],[-147.501,-35.102],[-148.109,-35.07],[-148.716,-35.035],[-149.322,-34.996],[-149.928,-34.955],[-150.534,-34.91],[-151.138,-34.863],[-151.742,-34.812],[-152.345,-34.759],[-152.291,-34.373],[-152.237,-33.987],[-152.183,-33.6],[-152.13,-33.214],[-152.698,-33.136],[-153.264,-33.055],[-153.83,-32.972],[-154.394,-32.886],[-154.957,-32.798],[-155.519,-32.707],[-156.08,-32.613],[-156.64,-32.518],[-157.198,-32.419],[-157.756,-32.318],[-158.312,-32.215],[-158.866,-32.109],[-159.42,-32.001],[-159.972,-31.891],[-159.882,-31.499],[-159.794,-31.108],[-159.705,-30.716],[-160.244,-30.638],[-160.781,-30.557],[-161.318,-30.474],[-161.853,-30.389],[-162.388,-30.302],[-162.921,-30.213],[-163.454,-30.121],[-163.986,-30.028],[-164.517,-29.932],[-165.046,-29.834],[-165.575,-29.734],[-166.102,-29.632],[-166.351,-30.078],[-166.602,-30.523],[-166.855,-30.969],[-167.11,-31.413],[-167.368,-31.857],[-167.628,-32.301],[-168.133,-32.146],[-168.635,-31.989],[-169.136,-31.83],[-169.635,-31.669],[-170.133,-31.506],[-170.628,-31.341],[-171.122,-31.174],[-171.614,-31.006],[-172.105,-30.835]]}},{"type":"Feature","properties":{"boundary_type":"ridge","feature_type":"gpml:MidOceanRidge","polarity":null,"overriding_plate_id":null,"subducting_plate_id":null,"plate_ids":[501],"name":"South China-North China MoR"},"geometry":{"type":"LineString","coordinates":[[86.489,-1.585],[86.374,-1.535],[86.462,-1.261],[86.55,-0.987],[86.494,-0.963]]}},{"type":"Feature","properties":{"boundary_type":"ridge","feature_type":"gpml:MidOceanRidge","polarity":null,"overriding_plate_id":null,"subducting_plate_id":null,"plate_ids":[501,606],"name":"South China-North China MoR"},"geometry":{"type":"LineString","coordinates":[[86.494,-0.963],[86.054,-0.77],[85.614,-0.577]]}},{"type":"Feature","properties":{"boundary_type":"ridge","feature_type":"gpml:MidOceanRidge","polarity":null,"overriding_plate_id":null,"subducting_plate_id":null,"plate_ids":[501,601],"name":"South China-North China MoR"},"geometry":{"type":"LineString","coordinates":[[85.614,-0.577],[85.181,-0.387],[84.749,-0.198],[84.316,-0.008],[83.884,0.182],[83.451,0.372],[83.019,0.561],[82.586,0.751],[82.153,0.941],[81.721,1.13],[81.288,1.32],[80.855,1.509],[80.422,1.698],[79.989,1.888],[79.556,2.077],[79.123,2.266],[78.69,2.454],[78.83,2.89],[78.971,3.326],[79.112,3.762],[79.253,4.198],[79.394,4.634],[78.964,4.785],[78.533,4.937],[78.102,5.088],[77.671,5.238],[77.239,5.389],[76.808,5.539],[76.376,5.688],[75.944,5.838],[75.512,5.987],[75.079,6.136],[74.647,6.284],[74.793,6.739],[74.94,7.194],[75.088,7.649],[75.235,8.104],[75.383,8.559],[75.531,9.014],[75.072,9.166],[74.612,9.317],[74.151,9.468],[73.69,9.618],[73.229,9.767],[72.767,9.916],[72.305,10.064],[71.843,10.211],[71.38,10.358],[70.916,10.504],[70.453,10.65],[69.988,10.794],[69.524,10.938],[69.059,11.082],[69.264,11.533],[69.471,11.984],[69.678,12.435],[69.886,12.885],[70.094,13.336],[69.63,13.49],[69.166,13.644],[68.701,13.796],[68.236,13.948],[67.769,14.099],[67.303,14.249],[66.835,14.398],[66.367,14.546],[65.898,14.693],[65.429,14.84],[64.959,14.985],[64.489,15.129],[64.017,15.273],[63.546,15.415],[63.073,15.556],[62.6,15.697],[62.126,15.836],[61.652,15.974],[61.177,16.112],[61.353,16.549],[61.53,16.986],[61.708,17.423],[61.887,17.86],[62.067,18.297],[62.248,18.733],[61.759,18.857],[61.27,18.981],[60.78,19.102],[60.29,19.223],[59.799,19.342],[59.307,19.46],[58.814,19.576],[58.32,19.691],[57.826,19.805],[57.332,19.917]]}},{"type":"Feature","properties":{"boundary_type":"ridge","feature_type":"gpml:MidOceanRidge","polarity":null,"overriding_plate_id":null,"subducting_plate_id":null,"plate_ids":[801],"name":"NAC-SAC MOR"},"geometry":{"type":"LineString","coordinates":[[110.377,12.514],[110.209,12.313],[110.041,12.113],[110.292,11.771],[110.543,11.429],[110.793,11.087],[111.042,10.745],[111.291,10.403],[111.54,10.06],[111.281,9.917],[111.024,9.773]]}},{"type":"Feature","properties":{"boundary_type":"ridge","feature_type":"gpml:MidOceanRidge","polarity":null,"overriding_plate_id":null,"subducting_plate_id":null,"plate_ids":[801,8011],"name":"NAC-SAC MOR"},"geometry":{"type":"LineString","coordinates":[[111.024,9.773],[110.671,9.576],[110.318,9.378],[109.966,9.18],[109.614,8.982],[109.786,8.787],[109.417,8.569],[109.048,8.352],[108.68,8.134],[108.311,7.916],[107.944,7.697],[108.162,7.392],[108.38,7.086],[108.598,6.78],[108.158,6.558],[107.718,6.335],[107.279,6.111]]}},{"type":"Feature","properties":{"boundary_type":"ridge","feature_type":"gpml:MidOceanRidge","polarity":null,"overriding_plate_id":null,"subducting_plate_id":null,"plate_ids":[101,98044],"name":"Missing-Link ridge"},"geometry":{"type":"LineString","coordinates":[[167.789,-3.674],[168.25,-3.499],[168.712,-3.325],[169.173,-3.15],[169.634,-2.975],[170.095,-2.8],[170.555,-2.624],[171.016,-2.449],[171.476,-2.273],[171.36,-1.858],[171.243,-1.443],[171.127,-1.027],[171.01,-0.612],[170.894,-0.197],[170.777,0.218],[170.661,0.633],[171.111,0.817],[171.562,1.001],[172.013,1.184],[172.464,1.367],[172.915,1.551],[173.366,1.734],[173.817,1.917],[174.268,2.1]]}},{"type":"Feature","properties":{"boundary_type":"ridge","feature_type":"gpml:MidOceanRidge","polarity":null,"overriding_plate_id":null,"subducting_plate_id":null,"plate_ids":[101,1019],"name":"Missing-Link ridge"},"geometry":{"type":"LineString","coordinates":[[174.268,2.1],[174.715,2.281],[175.162,2.462],[175.61,2.643],[176.057,2.824],[176.505,3.004],[176.952,3.185],[177.4,3.365],[177.848,3.545],[178.297,3.725],[178.745,3.904],[178.598,4.343],[178.451,4.782],[178.304,5.22],[178.157,5.659],[178.009,6.097],[177.861,6.536],[177.713,6.974],[177.565,7.413],[178.03,7.584],[178.496,7.755],[178.963,7.926],[179.429,8.095],[179.896,8.265],[-179.636,8.434],[-179.168,8.602],[-178.7,8.77],[-178.231,8.937],[-177.762,9.103],[-177.292,9.269],[-176.822,9.435],[-176.352,9.599],[-175.881,9.764],[-175.409,9.927],[-174.938,10.09],[-174.465,10.252],[-173.992,10.413],[-173.519,10.574],[-173.045,10.734],[-172.571,10.893],[-172.096,11.052],[-171.621,11.21],[-171.145,11.367],[-170.668,11.523],[-170.192,11.679],[-169.714,11.833],[-169.236,11.987],[-168.758,12.141],[-168.279,12.293],[-167.799,12.444],[-167.319,12.595],[-166.838,12.745],[-166.357,12.894],[-166.157,12.459],[-165.958,12.023],[-165.76,11.588],[-165.562,11.152],[-165.365,10.717],[-165.168,10.281],[-164.972,9.845],[-164.483,9.955],[-163.994,10.065],[-163.504,10.175],[-163.014,10.283],[-162.524,10.391],[-162.033,10.498],[-161.542,10.604],[-161.051,10.71],[-160.559,10.815],[-160.067,10.919],[-159.575,11.022],[-159.082,11.124],[-158.589,11.226],[-158.096,11.327],[-157.602,11.427],[-157.108,11.526],[-156.614,11.624],[-156.119,11.722],[-155.624,11.818],[-155.128,11.914],[-154.632,12.009],[-154.136,12.103],[-153.64,12.196],[-153.143,12.289],[-152.646,12.38],[-152.148,12.47],[-151.65,12.56],[-151.152,12.649],[-150.653,12.736],[-150.154,12.823],[-149.655,12.909],[-149.156,12.994],[-148.656,13.078],[-148.155,13.161],[-147.655,13.243],[-147.154,13.324],[-146.652,13.404],[-146.151,13.483],[-145.649,13.561],[-145.147,13.638],[-144.644,13.714],[-144.141,13.789],[-144.01,13.315],[-143.879,12.841],[-143.748,12.367],[-143.618,11.892],[-143.489,11.418],[-142.993,11.497],[-142.497,11.575],[-142.001,11.653],[-141.504,11.73],[-141.008,11.805],[-140.511,11.88],[-140.013,11.955],[-139.516,12.028],[-139.018,12.1],[-138.519,12.171],[-138.021,12.242],[-137.522,12.312]]}},{"type":"Feature","properties":{"boundary_type":"ridge","feature_type":"gpml:MidOceanRidge","polarity":null,"overriding_plate_id":null,"subducting_plate_id":null,"plate_ids":[101,401],"name":"Missing-Link ridge"},"geometry":{"type":"LineString","coordinates":[[-137.522,12.312],[-137.032,12.379],[-136.541,12.446],[-136.049,12.512],[-135.558,12.577],[-135.066,12.641],[-134.574,12.704],[-134.082,12.766],[-133.589,12.828],[-133.097,12.888],[-132.604,12.948]]}},{"type":"Feature","properties":{"boundary_type":"ridge","feature_type":"gpml:MidOceanRidge","polarity":null,"overriding_plate_id":null,"subducting_plate_id":null,"plate_ids":[401,98044],"name":"Siberia MoR"},"geometry":{"type":"LineString","coordinates":[[-148.684,18.546],[-148.543,19.028],[-148.4,19.509],[-148.257,19.99],[-148.112,20.471],[-147.967,20.951],[-147.821,21.432],[-147.674,21.913],[-147.526,22.393],[-147.377,22.873],[-147.227,23.354],[-147.075,23.833],[-146.923,24.313],[-146.77,24.793],[-146.615,25.273],[-146.459,25.752],[-146.302,26.231],[-146.143,26.71],[-145.983,27.189],[-145.822,27.668],[-145.659,28.146],[-145.495,28.624],[-145.33,29.103],[-145.163,29.58],[-144.994,30.058],[-144.823,30.536],[-144.651,31.013],[-144.478,31.49],[-145.013,31.532],[-145.549,31.572],[-146.085,31.61],[-146.621,31.646],[-147.158,31.679],[-147.696,31.71],[-147.642,32.092],[-147.588,32.474],[-147.533,32.855],[-147.478,33.237]]}},{"type":"Feature","properties":{"boundary_type":"ridge","feature_type":"gpml:MidOceanRidge","polarity":null,"overriding_plate_id":null,"subducting_plate_id":null,"plate_ids":[501,98043],"name":"MoR"},"geometry":{"type":"LineString","coordinates":[[51.322,63.673],[50.342,63.434],[49.379,63.187],[48.432,62.935],[47.501,62.676],[46.587,62.411],[45.688,62.14],[44.806,61.863],[43.94,61.581],[43.09,61.294],[42.255,61.001],[41.436,60.703],[40.631,60.4],[39.842,60.093],[39.068,59.781],[38.307,59.464],[37.562,59.143],[36.83,58.818],[36.111,58.489],[35.406,58.156],[34.715,57.819],[34.036,57.479],[33.369,57.134],[32.716,56.787],[32.074,56.436],[31.444,56.082],[30.825,55.724],[30.218,55.364],[29.622,55.0],[29.036,54.634],[28.461,54.265],[29.002,53.969],[29.534,53.671],[30.06,53.371],[30.578,53.068],[31.088,52.763],[31.592,52.456],[32.089,52.147],[31.613,51.751],[31.146,51.353],[30.688,50.953],[30.236,50.552],[29.793,50.149],[29.357,49.744],[28.928,49.338],[28.507,48.93],[28.092,48.52],[27.683,48.109],[27.282,47.697],[26.886,47.283],[26.497,46.868],[26.114,46.452],[25.736,46.034],[25.365,45.615],[24.998,45.195],[24.637,44.774],[24.282,44.352],[23.931,43.928],[23.586,43.504],[23.245,43.079],[22.909,42.652],[22.577,42.225],[22.25,41.796],[21.928,41.367],[21.609,40.937],[21.295,40.506],[20.985,40.074],[20.678,39.641],[20.376,39.208],[20.077,38.773],[19.782,38.338],[19.49,37.902],[19.202,37.466],[18.917,37.029],[18.635,36.591],[18.357,36.152],[18.081,35.713],[17.809,35.274],[17.539,34.833],[17.273,34.392],[17.009,33.951],[16.748,33.509],[16.49,33.066],[16.234,32.623],[15.981,32.179],[15.73,31.735],[15.481,31.29],[15.235,30.845],[14.992,30.4],[14.75,29.954],[14.511,29.507],[14.273,29.06],[14.038,28.613],[14.402,28.347],[14.763,28.079],[15.123,27.811],[15.482,27.541],[15.217,27.113],[14.955,26.685],[14.695,26.256],[14.436,25.826],[14.18,25.396],[13.925,24.966],[13.672,24.535],[13.421,24.104],[13.171,23.672],[12.923,23.24],[12.677,22.808],[12.432,22.375],[12.189,21.942],[11.947,21.508],[11.707,21.074],[11.468,20.64],[11.23,20.205],[10.994,19.771],[10.759,19.335],[10.526,18.9],[10.293,18.464],[10.062,18.028],[9.832,17.592],[9.603,17.155],[9.375,16.718],[9.839,16.497],[10.303,16.275],[10.765,16.051],[11.226,15.827],[11.687,15.602],[12.146,15.375],[12.604,15.148],[13.062,14.92],[12.875,14.476],[12.689,14.031],[12.504,13.586],[12.319,13.142],[12.135,12.697],[11.952,12.252],[11.769,11.806],[11.587,11.361],[11.405,10.916],[11.224,10.47],[11.044,10.024],[10.864,9.579],[10.684,9.133],[10.505,8.687],[10.327,8.241],[10.148,7.795],[9.971,7.349],[9.793,6.902],[10.151,6.717],[10.508,6.532],[10.865,6.346],[11.222,6.16],[11.579,5.973],[11.387,5.514],[11.194,5.054],[11.003,4.595],[10.811,4.135],[10.62,3.675],[10.429,3.216],[10.238,2.756],[10.047,2.296],[9.856,1.836],[9.666,1.376],[9.475,0.916],[9.285,0.456],[9.094,-0.004],[8.904,-0.464],[8.713,-0.924],[8.523,-1.383],[8.332,-1.843],[8.141,-2.303],[7.951,-2.763],[7.76,-3.223],[7.569,-3.683],[7.377,-4.142],[7.815,-4.374],[8.253,-4.605],[8.692,-4.836],[9.13,-5.067],[9.569,-5.297],[10.009,-5.528],[10.448,-5.757],[10.888,-5.987],[10.735,-6.435],[10.582,-6.883],[10.428,-7.331],[10.275,-7.779],[10.12,-8.227],[9.966,-8.675],[9.811,-9.123],[9.656,-9.571],[9.5,-10.019],[9.344,-10.467],[9.187,-10.914],[9.571,-11.12],[9.955,-11.325],[10.339,-11.529]]}},{"type":"Feature","properties":{"boundary_type":"ridge","feature_type":"gpml:MidOceanRidge","polarity":null,"overriding_plate_id":null,"subducting_plate_id":null,"plate_ids":[601,606],"name":"North China-Australia divergence"},"geometry":{"type":"LineString","coordinates":[[85.614,-0.577],[85.817,-0.144],[86.02,0.29],[86.223,0.723],[86.426,1.156],[86.629,1.59],[86.832,2.023],[87.035,2.456],[87.238,2.889],[87.442,3.323],[87.645,3.756],[87.849,4.189],[88.053,4.622],[88.257,5.055]]}},{"type":"Feature","properties":{"boundary_type":"ridge","feature_type":"gpml:MidOceanRidge","polarity":null,"overriding_plate_id":null,"subducting_plate_id":null,"plate_ids":[601,8011],"name":"North China-Australia divergence"},"geometry":{"type":"LineString","coordinates":[[88.257,5.055],[88.449,5.46],[88.64,5.864],[89.03,5.723],[89.42,5.582],[89.81,5.441],[90.2,5.299],[90.396,5.747],[90.593,6.195],[90.79,6.643],[90.987,7.091],[91.185,7.539],[91.383,7.986],[91.581,8.434],[91.781,8.881],[91.98,9.329],[92.18,9.776],[92.381,10.223],[92.582,10.67],[92.784,11.117],[92.986,11.564],[93.189,12.01],[93.393,12.457],[93.597,12.903],[93.802,13.349],[93.472,13.672],[93.14,13.994],[92.808,14.316],[93.012,14.759],[93.217,15.202],[93.423,15.645],[93.63,16.088],[93.838,16.531],[94.047,16.973],[94.257,17.415],[94.468,17.857],[94.68,18.299],[94.893,18.741],[95.107,19.182],[95.322,19.623],[95.539,20.064],[95.757,20.504],[95.976,20.945],[96.196,21.385],[96.417,21.824],[96.64,22.264],[96.865,22.703],[97.09,23.141],[97.408,22.86],[97.724,22.579],[98.039,22.297],[98.265,22.734],[98.491,23.17],[98.719,23.607],[98.949,24.043],[99.18,24.479]]}},{"type":"Feature","properties":{"boundary_type":"ridge","feature_type":"gpml:MidOceanRidge","polarity":null,"overriding_plate_id":null,"subducting_plate_id":null,"plate_ids":[601,98044],"name":"North China-Australia divergence"},"geometry":{"type":"LineString","coordinates":[[99.18,24.479],[99.413,24.915],[99.648,25.35],[99.884,25.786],[100.123,26.221],[100.363,26.655],[100.605,27.089],[100.848,27.523],[101.094,27.956]]}},{"type":"Feature","properties":{"boundary_type":"ridge","feature_type":"gpml:MidOceanRidge","polarity":null,"overriding_plate_id":null,"subducting_plate_id":null,"plate_ids":[98043,98044],"name":"MoR"},"geometry":{"type":"LineString","coordinates":[[50.545,64.557],[51.145,64.919],[51.762,65.279],[52.397,65.637],[53.048,65.991],[53.718,66.343],[54.407,66.692],[55.116,67.038],[55.845,67.381],[56.937,67.143],[58.007,66.897],[59.056,66.645],[60.083,66.386],[60.732,66.809],[61.403,67.229],[62.099,67.646],[62.819,68.06],[63.565,68.47],[64.339,68.877],[65.142,69.281],[65.976,69.681],[66.841,70.077],[67.739,70.468],[68.673,70.855],[69.643,71.236],[70.652,71.613],[71.701,71.984],[72.793,72.349],[73.928,72.708],[75.11,73.06],[76.341,73.406],[77.621,73.743],[78.953,74.073],[80.34,74.394],[81.783,74.706],[83.283,75.009],[84.843,75.301],[86.463,75.583],[88.146,75.853],[89.89,76.11],[91.698,76.355],[93.569,76.587],[95.502,76.804],[97.497,77.006],[99.551,77.193],[101.662,77.363],[103.827,77.516],[106.042,77.652],[108.302,77.769],[110.602,77.868],[112.935,77.947],[115.294,78.006],[117.673,78.046],[120.063,78.065],[122.457,78.065],[124.847,78.044],[127.225,78.003],[129.583,77.942],[131.914,77.861],[134.21,77.762],[136.467,77.643],[138.679,77.506],[140.84,77.352],[142.948,77.18],[144.998,76.993],[146.988,76.789],[148.917,76.571],[150.784,76.339],[152.587,76.093],[154.328,75.834],[156.005,75.563],[157.622,75.281],[159.177,74.988],[160.673,74.685],[162.112,74.372],[163.495,74.05],[164.824,73.72],[166.101,73.382],[167.327,73.036],[168.506,72.683],[169.639,72.324],[170.727,71.958],[171.774,71.587],[172.78,71.21],[173.747,70.828],[174.679,70.441],[175.575,70.049],[176.437,69.653],[177.268,69.253],[178.069,68.849],[178.841,68.442],[179.586,68.031],[-179.696,67.617],[-178.828,67.93],[-177.938,68.238],[-177.023,68.542],[-176.083,68.841],[-175.118,69.134],[-174.127,69.422],[-173.109,69.703],[-172.064,69.979],[-171.4,69.541],[-170.762,69.1],[-170.149,68.658],[-169.56,68.212],[-168.994,67.765],[-168.449,67.316],[-167.924,66.866],[-167.418,66.413],[-166.93,65.959],[-166.459,65.504],[-166.004,65.047],[-165.565,64.589],[-165.14,64.129],[-164.729,63.668],[-164.332,63.207],[-163.946,62.744],[-163.573,62.28],[-163.211,61.815],[-162.86,61.349],[-162.519,60.882],[-162.188,60.415],[-161.866,59.947],[-161.553,59.477],[-161.249,59.008],[-160.953,58.537],[-160.665,58.066],[-160.384,57.594],[-160.111,57.122],[-159.845,56.649],[-159.585,56.175],[-159.331,55.701],[-159.084,55.227],[-158.842,54.751],[-158.606,54.276],[-158.375,53.8],[-158.15,53.324],[-157.929,52.847],[-157.714,52.369],[-157.503,51.892],[-157.296,51.414],[-157.094,50.935],[-156.895,50.457],[-156.701,49.978],[-156.511,49.498],[-156.324,49.019],[-156.141,48.539],[-155.961,48.059],[-155.784,47.578],[-155.611,47.097],[-155.441,46.616],[-155.274,46.135],[-155.11,45.653],[-154.948,45.172],[-154.79,44.69],[-154.634,44.208],[-154.48,43.725],[-154.329,43.243],[-154.18,42.76],[-154.034,42.277],[-153.89,41.794],[-153.748,41.31],[-153.608,40.827],[-153.47,40.343],[-153.334,39.859],[-152.81,39.957],[-152.285,40.053],[-151.759,40.146],[-151.231,40.237],[-150.701,40.325],[-150.618,39.852],[-150.536,39.379],[-150.455,38.906],[-150.376,38.432],[-150.297,37.959],[-150.219,37.486],[-150.143,37.012],[-150.067,36.539],[-149.992,36.065],[-149.918,35.592],[-149.845,35.118],[-149.773,34.645],[-149.702,34.171],[-149.631,33.697],[-149.561,33.224]]}},{"type":"Feature","properties":{"boundary_type":"ridge","feature_type":"gpml:MidOceanRidge","polarity":null,"overriding_plate_id":null,"subducting_plate_id":null,"plate_ids":[501,98043],"name":"Gondwana-Mirovoi MOR"},"geometry":{"type":"LineString","coordinates":[[-28.998,-39.584],[-28.475,-39.377],[-27.955,-39.167],[-27.438,-38.955],[-26.925,-38.741],[-26.414,-38.524],[-25.907,-38.306],[-25.402,-38.085],[-24.901,-37.862],[-24.402,-37.637],[-24.092,-38.045],[-23.777,-38.453],[-23.459,-38.859],[-23.137,-39.265],[-22.612,-39.01],[-22.09,-38.753],[-21.572,-38.494],[-21.057,-38.232],[-20.546,-37.968],[-20.039,-37.702],[-19.536,-37.434],[-19.036,-37.164],[-18.54,-36.891],[-18.047,-36.617],[-17.558,-36.34],[-17.072,-36.062],[-16.59,-35.781],[-16.111,-35.499],[-15.636,-35.215],[-15.164,-34.928],[-14.695,-34.641],[-14.229,-34.351],[-13.767,-34.059],[-13.308,-33.766],[-12.851,-33.471],[-12.399,-33.175],[-11.949,-32.877],[-11.502,-32.577],[-11.058,-32.276],[-10.617,-31.973],[-10.968,-31.694],[-11.318,-31.414],[-11.665,-31.133],[-11.255,-30.795],[-10.848,-30.456],[-10.444,-30.116],[-10.043,-29.774],[-9.644,-29.432],[-9.248,-29.088],[-8.855,-28.743],[-8.464,-28.397],[-8.076,-28.049],[-7.69,-27.701],[-7.307,-27.352],[-6.926,-27.001],[-6.547,-26.65],[-6.171,-26.297],[-5.797,-25.944],[-5.426,-25.589],[-5.056,-25.234],[-4.689,-24.878],[-4.324,-24.521],[-3.961,-24.163],[-3.6,-23.804],[-3.241,-23.444],[-2.884,-23.084],[-2.528,-22.722],[-2.175,-22.36],[-1.824,-21.997],[-1.474,-21.634],[-1.126,-21.269],[-0.78,-20.904],[-0.435,-20.539],[-0.092,-20.172],[0.249,-19.805],[0.589,-19.437],[0.927,-19.069],[1.264,-18.7],[1.599,-18.331],[1.933,-17.961],[2.265,-17.59],[2.519,-17.9],[2.773,-18.209],[3.029,-18.519],[3.286,-18.828],[3.651,-18.468],[4.015,-18.108],[4.377,-17.748],[4.738,-17.386],[5.097,-17.025],[5.455,-16.662],[5.811,-16.299],[6.167,-15.935],[6.521,-15.571],[6.873,-15.206],[7.225,-14.84],[7.575,-14.474],[7.924,-14.108],[8.272,-13.741],[8.619,-13.373],[8.965,-13.005],[9.31,-12.637],[9.654,-12.268],[9.997,-11.899],[10.339,-11.529]]}},{"type":"Feature","properties":{"boundary_type":"ridge","feature_type":"gpml:MidOceanRidge","polarity":null,"overriding_plate_id":null,"subducting_plate_id":null,"plate_ids":[22032,22042],"name":"RDLP-Amazonia MoR"},"geometry":{"type":"LineString","coordinates":[[178.068,-25.928],[177.622,-26.185],[177.174,-26.442],[176.725,-26.697],[176.273,-26.95],[175.819,-27.202],[176.015,-27.665],[176.213,-28.128],[176.413,-28.59],[176.614,-29.053],[176.817,-29.514],[177.022,-29.976],[177.229,-30.437],[176.743,-30.641],[176.255,-30.843],[175.764,-31.044],[175.272,-31.242],[174.778,-31.439],[174.281,-31.634],[173.782,-31.826],[173.282,-32.017],[172.779,-32.206],[172.274,-32.393],[171.767,-32.578],[171.258,-32.761],[170.747,-32.941],[170.234,-33.12],[170.458,-33.567],[170.685,-34.014],[170.914,-34.46],[171.145,-34.906],[171.379,-35.351],[171.616,-35.796],[171.855,-36.241],[172.097,-36.685],[172.342,-37.128]]}},{"type":"Feature","properties":{"boundary_type":"ridge","feature_type":"gpml:MidOceanRidge","polarity":null,"overriding_plate_id":null,"subducting_plate_id":null,"plate_ids":[201,22042],"name":"RDLP-Amazonia MoR"},"geometry":{"type":"LineString","coordinates":[[172.342,-37.128],[172.478,-37.372],[172.615,-37.615]]}},{"type":"Feature","properties":{"boundary_type":"ridge","feature_type":"gpml:MidOceanRidge","polarity":null,"overriding_plate_id":null,"subducting_plate_id":null,"plate_ids":[201,22042],"name":"RDLP-Amazonia MoR"},"geometry":{"type":"LineString","coordinates":[[172.615,-37.615],[172.024,-37.783],[171.431,-37.948],[170.834,-38.109],[170.236,-38.268],[169.634,-38.423],[169.031,-38.576],[168.424,-38.725],[167.815,-38.871]]}},{"type":"Feature","properties":{"boundary_type":"ridge","feature_type":"gpml:MidOceanRidge","polarity":null,"overriding_plate_id":null,"subducting_plate_id":null,"plate_ids":[302,22032],"name":"Amazonia-Baltica MOR"},"geometry":{"type":"LineString","coordinates":[[-30.136,-38.037],[-30.702,-38.243],[-31.272,-38.447],[-31.846,-38.648],[-32.422,-38.846],[-33.002,-39.042],[-33.584,-39.234],[-34.17,-39.424],[-34.76,-39.611],[-35.352,-39.794],[-35.947,-39.975],[-36.546,-40.152],[-37.148,-40.327],[-37.753,-40.498],[-38.36,-40.666],[-38.971,-40.831],[-39.585,-40.993],[-40.202,-41.151],[-40.822,-41.306],[-41.445,-41.458],[-42.07,-41.607],[-42.699,-41.752],[-43.33,-41.893],[-43.964,-42.031],[-44.601,-42.166],[-45.241,-42.297],[-45.883,-42.424],[-46.528,-42.548],[-47.175,-42.668],[-47.825,-42.785],[-48.477,-42.898],[-48.802,-42.514],[-49.124,-42.13],[-49.442,-41.744],[-49.755,-41.358],[-50.066,-40.971],[-50.372,-40.583],[-50.675,-40.195],[-50.975,-39.805],[-51.271,-39.415],[-51.564,-39.024],[-52.157,-39.213],[-52.755,-39.4],[-53.355,-39.583],[-53.958,-39.764],[-54.565,-39.941],[-55.174,-40.115],[-55.787,-40.285],[-56.403,-40.453],[-57.022,-40.617],[-57.644,-40.778],[-58.269,-40.936],[-58.896,-41.09],[-59.527,-41.241],[-60.161,-41.388],[-60.797,-41.532],[-61.437,-41.672],[-62.079,-41.809],[-62.723,-41.942],[-63.371,-42.071],[-64.021,-42.197],[-64.673,-42.319],[-64.564,-42.748],[-64.453,-43.177],[-64.34,-43.606],[-64.226,-44.034],[-64.11,-44.463],[-64.783,-44.561],[-65.458,-44.654],[-66.135,-44.744],[-66.815,-44.83],[-67.496,-44.912],[-68.18,-44.989],[-68.865,-45.063],[-69.552,-45.132],[-70.24,-45.197],[-70.93,-45.259],[-71.622,-45.316],[-72.314,-45.369],[-73.009,-45.417],[-73.704,-45.462],[-73.596,-45.899],[-73.486,-46.336],[-73.374,-46.774],[-73.261,-47.211],[-73.145,-47.648],[-73.028,-48.085],[-72.909,-48.522],[-72.787,-48.959],[-73.547,-48.994],[-74.307,-49.024],[-75.069,-49.049],[-75.831,-49.069],[-76.593,-49.085],[-77.356,-49.095],[-78.12,-49.1],[-78.883,-49.1],[-79.646,-49.095],[-80.409,-49.085],[-81.172,-49.07],[-81.934,-49.05],[-82.696,-49.025],[-83.456,-48.995],[-84.216,-48.96],[-84.974,-48.92],[-85.731,-48.875],[-86.487,-48.825],[-87.241,-48.77],[-87.994,-48.71],[-88.282,-49.145],[-88.575,-49.579],[-88.873,-50.012],[-89.176,-50.444],[-89.486,-50.876],[-89.801,-51.306],[-90.122,-51.736],[-90.449,-52.165],[-90.783,-52.593],[-91.123,-53.02],[-91.47,-53.446],[-91.823,-53.871],[-92.281,-54.283],[-92.747,-54.694],[-93.524,-54.509],[-94.295,-54.319],[-95.058,-54.124],[-95.814,-53.924],[-96.563,-53.72],[-97.304,-53.511],[-97.728,-53.869],[-98.16,-54.227],[-98.599,-54.582],[-99.045,-54.936],[-99.5,-55.289],[-99.963,-55.639],[-100.434,-55.988],[-101.197,-55.749],[-101.951,-55.505],[-102.696,-55.256],[-103.431,-55.003],[-104.157,-54.746],[-104.873,-54.484],[-105.581,-54.218],[-106.279,-53.948],[-106.709,-54.155],[-107.143,-54.359],[-107.791,-54.127],[-108.432,-53.892],[-109.066,-53.653],[-109.693,-53.411],[-110.312,-53.166],[-110.925,-52.918],[-111.53,-52.666],[-112.128,-52.412],[-112.625,-52.618],[-113.126,-52.822],[-113.739,-52.541],[-114.345,-52.256],[-114.943,-51.968],[-115.533,-51.678],[-116.116,-51.384],[-116.691,-51.087],[-117.336,-51.334],[-117.988,-51.577],[-118.448,-51.303],[-118.901,-51.027],[-119.35,-50.75],[-119.793,-50.471],[-120.365,-50.699],[-120.942,-50.924],[-121.524,-51.146],[-122.112,-51.365],[-122.559,-50.997],[-122.998,-50.628],[-123.43,-50.257],[-123.856,-49.885],[-124.276,-49.51],[-124.688,-49.135],[-125.095,-48.758]]}},{"type":"Feature","properties":{"boundary_type":"ridge","feature_type":"gpml:MidOceanRidge","polarity":null,"overriding_plate_id":null,"subducting_plate_id":null,"plate_ids":[101,22032],"name":"Amazonia-Baltica MOR"},"geometry":{"type":"LineString","coordinates":[[-125.095,-48.758],[-125.237,-48.625],[-125.801,-48.773],[-126.369,-48.919],[-126.939,-49.063],[-127.513,-49.203],[-127.853,-48.76],[-128.186,-48.317],[-128.514,-47.872],[-128.836,-47.427],[-129.152,-46.98],[-129.464,-46.533],[-129.77,-46.085],[-130.071,-45.636],[-130.368,-45.187],[-130.66,-44.736],[-130.947,-44.285],[-131.23,-43.833],[-131.509,-43.381],[-131.784,-42.928],[-132.054,-42.474],[-132.321,-42.019],[-132.584,-41.564],[-132.843,-41.109],[-133.099,-40.652],[-133.351,-40.196],[-133.6,-39.738],[-133.846,-39.28],[-134.088,-38.822],[-134.327,-38.363],[-134.563,-37.904],[-134.797,-37.444],[-135.027,-36.984],[-135.255,-36.523],[-135.48,-36.062],[-135.702,-35.6],[-135.922,-35.138]]}},{"type":"Feature","properties":{"boundary_type":"transform","feature_type":"gpml:Transform","polarity":null,"overriding_plate_id":null,"subducting_plate_id":null,"plate_ids":[401,98043],"name":"Siberia-CMT transform"},"geometry":{"type":"LineString","coordinates":[[-83.192,17.472],[-83.298,17.207],[-83.398,16.784],[-83.497,16.361],[-83.596,15.939],[-83.695,15.516],[-83.793,15.093],[-83.891,14.67],[-84.051,14.239],[-84.211,13.809],[-84.371,13.378],[-84.691,13.051],[-85.01,12.723],[-85.328,12.395],[-85.645,12.067],[-85.962,11.738],[-86.278,11.409],[-86.572,11.082],[-86.866,10.755],[-87.158,10.427],[-87.451,10.099],[-87.742,9.771],[-88.033,9.443]]}},{"type":"Feature","properties":{"boundary_type":"transform","feature_type":"gpml:Transform","polarity":null,"overriding_plate_id":null,"subducting_plate_id":null,"plate_ids":[606,8011],"name":"Aus-India transform"},"geometry":{"type":"LineString","coordinates":[[88.257,5.055],[88.447,4.65],[88.636,4.245],[88.825,3.839],[89.013,3.434],[89.202,3.029],[89.39,2.624],[89.579,2.218],[89.767,1.813],[89.89,1.354],[90.013,0.895],[90.136,0.436],[90.259,-0.024],[90.382,-0.483],[90.505,-0.942],[90.628,-1.401],[90.752,-1.86],[90.875,-2.319],[90.998,-2.778],[91.121,-3.237],[91.245,-3.696],[91.368,-4.155],[91.581,-4.594],[91.793,-5.033],[92.006,-5.473],[92.219,-5.912],[92.433,-6.35],[92.646,-6.789],[92.86,-7.228],[93.075,-7.667],[93.29,-8.105],[93.506,-8.544],[93.722,-8.982],[93.938,-9.42],[94.155,-9.858],[94.373,-10.296],[94.591,-10.734]]}},{"type":"Feature","properties":{"boundary_type":"transform","feature_type":"gpml:Transform","polarity":null,"overriding_plate_id":null,"subducting_plate_id":null,"plate_ids":[501,8011],"name":"Aus-India transform"},"geometry":{"type":"LineString","coordinates":[[94.591,-10.734],[94.809,-11.17],[95.153,-11.438],[95.498,-11.706],[95.844,-11.973],[96.19,-12.24],[96.537,-12.507],[96.884,-12.773]]}},{"type":"Feature","properties":{"boundary_type":"transform","feature_type":"gpml:Transform","polarity":null,"overriding_plate_id":null,"subducting_plate_id":null,"plate_ids":[501,801],"name":"Aus-India transform"},"geometry":{"type":"LineString","coordinates":[[96.884,-12.773],[97.236,-13.042],[97.59,-13.31],[97.944,-13.578],[98.298,-13.845],[98.654,-14.112],[99.127,-14.295],[99.601,-14.476],[100.075,-14.656],[100.551,-14.836],[101.027,-15.014],[101.504,-15.192],[101.982,-15.368],[102.461,-15.544],[102.94,-15.718],[103.42,-15.891],[103.901,-16.064],[104.383,-16.235],[104.866,-16.405],[105.349,-16.574],[105.834,-16.742],[106.319,-16.909],[106.805,-17.074],[107.292,-17.239],[107.78,-17.402],[108.269,-17.564],[108.758,-17.725],[109.249,-17.885],[109.74,-18.043],[110.232,-18.2]]}},{"type":"Feature","properties":{"boundary_type":"transform","feature_type":"gpml:Transform","polarity":null,"overriding_plate_id":null,"subducting_plate_id":null,"plate_ids":[101,401],"name":"transform"},"geometry":{"type":"LineString","coordinates":[[-132.604,12.948],[-132.554,12.457],[-132.503,11.967],[-132.454,11.476],[-132.404,10.985],[-132.354,10.495],[-132.305,10.004],[-132.256,9.514],[-132.137,9.046],[-132.019,8.578],[-131.901,8.111],[-131.783,7.643],[-131.666,7.175],[-131.548,6.707],[-131.431,6.24],[-131.315,5.772],[-131.198,5.304],[-131.081,4.836],[-130.965,4.368],[-130.849,3.9],[-130.733,3.432],[-130.617,2.964],[-130.397,2.537],[-130.177,2.109],[-129.957,1.681],[-129.738,1.253],[-129.518,0.825],[-129.298,0.398],[-129.079,-0.03],[-128.859,-0.458],[-128.639,-0.886],[-128.42,-1.314],[-128.2,-1.742],[-127.98,-2.169],[-127.76,-2.597],[-127.54,-3.025],[-127.32,-3.453],[-127.099,-3.88],[-126.878,-4.308],[-126.657,-4.735],[-126.402,-5.147],[-126.147,-5.558],[-125.891,-5.97],[-125.634,-6.381],[-125.378,-6.792],[-125.121,-7.203],[-124.863,-7.614],[-124.605,-8.024],[-124.346,-8.435],[-124.087,-8.845],[-123.827,-9.255],[-123.567,-9.665],[-123.306,-10.075],[-123.044,-10.485],[-122.782,-10.894],[-122.519,-11.303],[-122.255,-11.712],[-121.991,-12.121],[-121.725,-12.529],[-121.459,-12.937],[-121.192,-13.345],[-120.924,-13.753],[-120.655,-14.16],[-120.36,-14.506],[-120.065,-14.851],[-119.769,-15.196],[-119.472,-15.541],[-119.173,-15.885],[-118.874,-16.229]]}},{"type":"Feature","properties":{"boundary_type":"transform","feature_type":"gpml:Transform","polarity":null,"overriding_plate_id":null,"subducting_plate_id":null,"plate_ids":[401,98043],"name":"Siberia transform"},"geometry":{"type":"LineString","coordinates":[[-89.156,18.44],[-89.083,18.81],[-89.01,19.179],[-88.936,19.548]]}},{"type":"Feature","properties":{"boundary_type":"transform","feature_type":"gpml:Transform","polarity":null,"overriding_plate_id":null,"subducting_plate_id":null,"plate_ids":[101,22042],"name":"Proto-pacific transform"},"geometry":{"type":"LineString","coordinates":[[164.054,-22.538],[164.235,-22.125],[164.414,-21.71],[164.593,-21.296],[164.77,-20.882],[164.947,-20.467],[165.123,-20.052],[165.298,-19.637]]}},{"type":"Feature","properties":{"boundary_type":"transform","feature_type":"gpml:Transform","polarity":null,"overriding_plate_id":null,"subducting_plate_id":null,"plate_ids":[101,98044],"name":"Proto-pacific transform"},"geometry":{"type":"LineString","coordinates":[[165.298,-19.637],[165.473,-19.218],[165.648,-18.799],[165.822,-18.379],[165.994,-17.96],[166.167,-17.54],[166.242,-17.087],[166.317,-16.634],[166.392,-16.181],[166.466,-15.728],[166.54,-15.276],[166.614,-14.823],[166.687,-14.37],[166.76,-13.917],[166.845,-13.434],[166.929,-12.951],[167.014,-12.468],[167.097,-11.986],[167.181,-11.503],[167.264,-11.02],[167.347,-10.537],[167.43,-10.054],[167.512,-9.571],[167.594,-9.088],[167.676,-8.605],[167.758,-8.123],[167.84,-7.64],[167.921,-7.157],[168.002,-6.674],[167.972,-6.245],[167.941,-5.816],[167.911,-5.388],[167.88,-4.959],[167.85,-4.531],[167.819,-4.102],[167.789,-3.674]]}},{"type":"Feature","properties":{"boundary_type":"transform","feature_type":"gpml:Transform","polarity":null,"overriding_plate_id":null,"subducting_plate_id":null,"plate_ids":[701,77030],"name":"Azania-Kalahari transform"},"geometry":{"type":"LineString","coordinates":[[113.754,-44.517],[114.405,-44.339],[115.052,-44.157],[115.696,-43.971],[116.335,-43.781],[116.97,-43.589],[117.601,-43.392],[118.227,-43.192],[118.85,-42.989],[119.469,-42.782],[119.999,-42.481],[120.524,-42.177],[121.044,-41.871],[121.559,-41.562],[122.069,-41.251],[122.574,-40.938],[123.075,-40.623],[123.57,-40.305],[124.061,-39.986],[124.548,-39.664],[125.03,-39.341],[125.507,-39.015],[125.715,-38.79],[125.921,-38.565]]}},{"type":"Feature","properties":{"boundary_type":"transform","feature_type":"gpml:Transform","polarity":null,"overriding_plate_id":null,"subducting_plate_id":null,"plate_ids":[801,77030],"name":"Azania-Kalahari transform"},"geometry":{"type":"LineString","coordinates":[[125.741,-36.77],[126.325,-36.605],[126.906,-36.437],[127.484,-36.267],[128.06,-36.093],[128.634,-35.917],[129.09,-35.763],[129.545,-35.607],[129.997,-35.45]]}},{"type":"Feature","properties":{"boundary_type":"transform","feature_type":"gpml:Transform","polarity":null,"overriding_plate_id":null,"subducting_plate_id":null,"plate_ids":[201,22042],"name":"Amazonia-RDLP Transform"},"geometry":{"type":"LineString","coordinates":[[167.815,-38.871],[167.793,-39.337],[167.77,-39.803],[167.747,-40.269],[167.723,-40.735],[167.7,-41.201],[167.675,-41.667],[167.651,-42.133],[167.697,-42.6],[167.745,-43.067],[167.793,-43.533],[167.841,-43.999],[167.891,-44.466],[167.941,-44.932],[167.992,-45.399],[168.044,-45.865],[168.097,-46.332],[168.092,-46.774],[168.088,-47.217],[168.083,-47.66],[168.078,-48.103],[168.073,-48.546],[168.068,-48.989],[168.063,-49.432],[167.965,-49.916],[167.864,-50.401],[167.761,-50.886],[167.656,-51.37],[167.549,-51.855],[167.439,-52.339],[167.328,-52.823],[167.213,-53.308],[167.057,-53.76],[166.898,-54.213],[166.735,-54.665],[166.568,-55.117],[166.397,-55.569],[166.223,-56.02],[166.044,-56.472]]}},{"type":"Feature","properties":{"boundary_type":"transform","feature_type":"gpml:Transform","polarity":null,"overriding_plate_id":null,"subducting_plate_id":null,"plate_ids":[801,22042],"name":"Mawson transform"},"geometry":{"type":"LineString","coordinates":[[137.088,-30.48],[137.439,-30.104],[137.787,-29.728],[138.133,-29.351],[138.477,-28.973],[138.818,-28.594],[139.156,-28.214],[139.492,-27.833],[139.826,-27.452],[140.071,-27.057],[140.314,-26.661],[140.555,-26.266],[140.794,-25.87],[141.032,-25.473],[141.286,-25.126],[141.538,-24.778],[141.788,-24.43],[142.038,-24.081],[142.285,-23.732],[142.508,-23.365],[142.729,-22.997],[142.948,-22.629],[143.167,-22.261],[143.384,-21.893],[143.494,-21.509],[143.603,-21.126],[143.712,-20.742],[143.969,-20.369],[144.225,-19.995],[144.48,-19.621],[144.734,-19.247],[144.986,-18.872],[145.238,-18.497],[145.488,-18.121],[145.74,-17.737],[145.99,-17.353],[146.239,-16.968],[146.488,-16.583],[146.735,-16.197],[146.982,-15.812],[147.227,-15.426],[147.472,-15.04],[147.654,-14.68],[147.835,-14.32],[148.016,-13.96],[148.196,-13.6],[148.376,-13.24],[148.508,-12.834],[148.639,-12.428],[148.77,-12.022],[148.9,-11.616],[149.03,-11.209]]}},{"type":"Feature","properties":{"boundary_type":"transform","feature_type":"gpml:Transform","polarity":null,"overriding_plate_id":null,"subducting_plate_id":null,"plate_ids":[8011],"name":"Aus transform"},"geometry":{"type":"LineString","coordinates":[[111.024,9.773],[110.864,10.171],[110.705,10.568],[110.545,10.966],[110.384,11.364]]}},{"type":"Feature","properties":{"boundary_type":"transform","feature_type":"gpml:Transform","polarity":null,"overriding_plate_id":null,"subducting_plate_id":null,"plate_ids":[801,8011,8013],"name":"Aus transform"},"geometry":{"type":"LineString","coordinates":[[110.384,11.364],[110.265,11.658],[110.321,12.086],[110.377,12.514]]}},{"type":"Feature","properties":{"boundary_type":"transform","feature_type":"gpml:Transform","polarity":null,"overriding_plate_id":null,"subducting_plate_id":null,"plate_ids":[8011,8013],"name":"Aus transform"},"geometry":{"type":"LineString","coordinates":[[110.377,12.514],[110.429,12.908],[110.481,13.301],[110.576,13.563],[110.672,13.825]]}},{"type":"Feature","properties":{"boundary_type":"transform","feature_type":"gpml:Transform","polarity":null,"overriding_plate_id":null,"subducting_plate_id":null,"plate_ids":[8013,98044],"name":"Aus transform"},"geometry":{"type":"LineString","coordinates":[[110.672,13.825],[110.836,14.275],[111.002,14.725],[111.181,15.048],[111.36,15.372],[111.54,15.695]]}},{"type":"Feature","properties":{"boundary_type":"transform","feature_type":"gpml:Transform","polarity":null,"overriding_plate_id":null,"subducting_plate_id":null,"plate_ids":[302,401],"name":"Siberia Transform"},"geometry":{"type":"LineString","coordinates":[[-116.034,-17.177],[-116.289,-17.054],[-116.543,-16.93],[-116.881,-16.629],[-117.218,-16.327],[-117.554,-16.025],[-117.889,-15.722],[-118.223,-15.418]]}},{"type":"Feature","properties":{"boundary_type":"transform","feature_type":"gpml:Transform","polarity":null,"overriding_plate_id":null,"subducting_plate_id":null,"plate_ids":[501,606],"name":"small transform between Lhasa and India"},"geometry":{"type":"LineString","coordinates":[[89.719,-15.8],[90.111,-15.529],[90.502,-15.256],[90.751,-14.936],[90.998,-14.617],[91.245,-14.297],[91.56,-14.009],[91.874,-13.721],[92.188,-13.433],[92.5,-13.144],[92.812,-12.855],[93.111,-12.502],[93.408,-12.149],[93.705,-11.796],[94.001,-11.442],[94.297,-11.088],[94.591,-10.734]]}},{"type":"Feature","properties":{"boundary_type":"transform","feature_type":"gpml:Transform","polarity":null,"overriding_plate_id":null,"subducting_plate_id":null,"plate_ids":[8026,77030],"name":"CLB-DML transform"},"geometry":{"type":"LineString","coordinates":[[130.34,-37.463],[130.813,-37.294],[131.284,-37.122],[131.753,-36.948],[132.22,-36.772],[132.685,-36.595],[133.267,-36.428],[133.848,-36.257],[134.425,-36.084],[135.0,-35.908],[135.573,-35.729],[136.143,-35.548],[136.718,-35.449],[137.291,-35.348],[137.863,-35.244],[138.434,-35.137],[139.003,-35.028],[139.57,-34.915],[140.136,-34.801],[140.574,-34.618],[141.011,-34.433],[141.445,-34.247]]}},{"type":"Feature","properties":{"boundary_type":"transform","feature_type":"gpml:Transform","polarity":null,"overriding_plate_id":null,"subducting_plate_id":null,"plate_ids":[8026,22042],"name":"CLB-DML transform"},"geometry":{"type":"LineString","coordinates":[[141.445,-34.247],[141.76,-34.111],[142.073,-33.974]]}},{"type":"Feature","properties":{"boundary_type":"transform","feature_type":"gpml:Transform","polarity":null,"overriding_plate_id":null,"subducting_plate_id":null,"plate_ids":[8013,98044],"name":"Aus transform"},"geometry":{"type":"LineString","coordinates":[[152.565,-13.798],[152.693,-13.373],[152.82,-12.948],[152.946,-12.523],[153.072,-12.098],[153.198,-11.673],[153.323,-11.248],[153.448,-10.823],[153.591,-10.416],[153.734,-10.01],[153.876,-9.604],[154.019,-9.198],[154.16,-8.792],[154.302,-8.385],[154.329,-8.296]]}},{"type":"Feature","properties":{"boundary_type":"transform","feature_type":"gpml:Transform","polarity":null,"overriding_plate_id":null,"subducting_plate_id":null,"plate_ids":[1019,98044],"name":"Transform closing west coast laurentia rift"},"geometry":{"type":"LineString","coordinates":[[174.268,2.1],[174.145,2.562],[174.023,3.025],[173.9,3.487],[173.777,3.949],[173.654,4.411],[173.531,4.873],[173.407,5.335],[173.284,5.798],[173.16,6.26],[173.036,6.722],[172.912,7.184],[172.787,7.646],[172.662,8.108],[172.537,8.57],[172.511,8.662]]}},{"type":"Feature","properties":{"boundary_type":"transform","feature_type":"gpml:Transform","polarity":null,"overriding_plate_id":null,"subducting_plate_id":null,"plate_ids":[401,1019],"name":"Transform closing west coast laurentia rift"},"geometry":{"type":"LineString","coordinates":[[-137.522,12.312],[-137.635,12.77],[-137.748,13.228],[-137.862,13.687],[-137.976,14.145],[-138.091,14.603],[-138.206,15.061],[-138.321,15.519],[-138.437,15.977],[-138.554,16.435],[-138.671,16.893],[-138.789,17.351],[-138.907,17.808],[-138.945,17.952]]}},{"type":"Feature","properties":{"boundary_type":"transform","feature_type":"gpml:Transform","polarity":null,"overriding_plate_id":null,"subducting_plate_id":null,"plate_ids":[302,98043],"name":"ocean transform"},"geometry":{"type":"LineString","coordinates":[[-33.853,-31.174],[-33.734,-31.617],[-33.614,-32.061],[-33.493,-32.504],[-33.37,-32.948],[-33.247,-33.391],[-32.978,-33.816],[-32.707,-34.241],[-32.433,-34.666],[-32.157,-35.089],[-31.877,-35.513],[-31.595,-35.935],[-31.309,-36.357],[-31.021,-36.778],[-30.729,-37.198],[-30.434,-37.618],[-30.136,-38.037]]}},{"type":"Feature","properties":{"boundary_type":"transform","feature_type":"gpml:Transform","polarity":null,"overriding_plate_id":null,"subducting_plate_id":null,"plate_ids":[22032,98043],"name":"ocean transform"},"geometry":{"type":"LineString","coordinates":[[-30.136,-38.037],[-29.856,-38.425],[-29.573,-38.812],[-29.287,-39.198],[-28.998,-39.584]]}},{"type":"Feature","properties":{"boundary_type":"transform","feature_type":"gpml:Transform","polarity":null,"overriding_plate_id":null,"subducting_plate_id":null,"plate_ids":[501,22032],"name":"ocean transform"},"geometry":{"type":"LineString","coordinates":[[-28.998,-39.584],[-28.685,-39.996],[-28.369,-40.407],[-28.092,-40.837],[-27.812,-41.267],[-27.529,-41.697],[-27.241,-42.125],[-26.95,-42.553],[-26.654,-42.98],[-26.355,-43.406],[-26.051,-43.832],[-25.743,-44.256],[-25.43,-44.68],[-25.113,-45.103],[-24.791,-45.525],[-24.464,-45.946],[-24.132,-46.367],[-23.796,-46.786],[-23.453,-47.204],[-23.106,-47.621],[-22.752,-48.037],[-22.393,-48.452],[-22.028,-48.866],[-21.657,-49.279],[-21.28,-49.691],[-20.912,-50.045],[-20.539,-50.398],[-20.16,-50.75],[-19.775,-51.1],[-19.384,-51.45],[-18.988,-51.798]]}},{"type":"Feature","properties":{"boundary_type":"transform","feature_type":"gpml:Transform","polarity":null,"overriding_plate_id":null,"subducting_plate_id":null,"plate_ids":[401,98043],"name":"Siberia-ocean transform"},"geometry":{"type":"LineString","coordinates":[[-137.289,32.801],[-137.852,32.847],[-138.415,32.89],[-138.979,32.931],[-139.543,32.969],[-140.108,33.005],[-140.673,33.038],[-141.239,33.069],[-141.805,33.097],[-142.371,33.123],[-142.938,33.146],[-143.505,33.166],[-144.072,33.184],[-144.639,33.199],[-145.207,33.212],[-145.774,33.222],[-146.342,33.229],[-146.91,33.234],[-147.478,33.237]]}},{"type":"Feature","properties":{"boundary_type":"transform","feature_type":"gpml:Transform","polarity":null,"overriding_plate_id":null,"subducting_plate_id":null,"plate_ids":[98043,98044],"name":"Siberia-ocean transform"},"geometry":{"type":"LineString","coordinates":[[-147.478,33.237],[-147.999,33.237],[-148.52,33.235],[-149.04,33.23],[-149.561,33.224]]}},{"type":"Feature","properties":{"boundary_type":"transform","feature_type":"gpml:Transform","polarity":null,"overriding_plate_id":null,"subducting_plate_id":null,"plate_ids":[201,701],"name":"transform closing WAC plate"},"geometry":{"type":"LineString","coordinates":[[-104.737,-59.8],[-105.192,-60.205],[-105.659,-60.609],[-106.137,-61.011],[-106.627,-61.411],[-107.131,-61.809],[-107.647,-62.205],[-108.177,-62.6],[-108.721,-62.992],[-109.28,-63.382]]}},{"type":"Feature","properties":{"boundary_type":"transform","feature_type":"gpml:Transform","polarity":null,"overriding_plate_id":null,"subducting_plate_id":null,"plate_ids":[501,601],"name":"North China transform"},"geometry":{"type":"LineString","coordinates":[[57.332,19.917],[57.581,20.341],[57.831,20.763],[57.874,21.258],[57.917,21.753],[57.96,22.248],[58.004,22.743],[58.048,23.238],[58.092,23.733],[58.137,24.227],[58.182,24.722],[58.227,25.217],[58.273,25.712],[58.319,26.206],[58.24,26.693],[58.159,27.179],[58.078,27.665],[57.996,28.151],[57.913,28.637],[57.83,29.123],[57.746,29.608],[57.661,30.094],[57.575,30.58],[57.488,31.066],[57.4,31.551],[57.312,32.037],[57.222,32.522],[57.132,33.008]]}}]}