{"type":"FeatureCollection","meta":{"model":"Cao2024","reconstruction_time_ma":570.0,"anchor_plate_id":0,"pygplates_version":"1.0.0","tessellate_degrees":0.5,"polarity_convention":"gpml:subductionPolarity. 'Left'/'Right' names the side of the line, in vertex order, on which the OVERRIDING plate lies. Triangles are drawn on that side.","antimeridian":"Lines are NOT split at +/-180 deg. The renderer works in 3D unit vectors where the dateline is not special; splitting would only add spurious breaks. Do not treat this as RFC 7946 GIS-ready 2D data."},"features":[{"type":"Feature","properties":{"boundary_type":"subduction","feature_type":"gpml:SubductionZone","polarity":"Right","overriding_plate_id":302,"subducting_plate_id":98043,"plate_ids":[302,98043],"name":"Ocean-ocean sub zone outboard baltica"},"geometry":{"type":"LineString","coordinates":[[-69.452,-4.572],[-69.404,-5.066],[-69.356,-5.56],[-69.307,-6.054],[-69.259,-6.549],[-69.21,-7.043],[-69.161,-7.537],[-69.112,-8.032],[-69.063,-8.526],[-69.014,-9.02],[-68.965,-9.514],[-68.915,-10.009],[-68.866,-10.503],[-68.816,-10.997],[-68.766,-11.491],[-68.716,-11.986],[-68.666,-12.48],[-68.616,-12.974],[-68.565,-13.468],[-68.514,-13.962],[-68.463,-14.457],[-68.412,-14.951],[-68.36,-15.445],[-68.308,-15.939],[-68.256,-16.433],[-68.084,-16.901],[-67.911,-17.368],[-67.736,-17.835],[-67.561,-18.302],[-67.385,-18.769],[-67.208,-19.235],[-67.03,-19.702],[-66.851,-20.168],[-66.671,-20.634],[-66.489,-21.1],[-66.307,-21.566],[-66.123,-22.032],[-65.938,-22.497],[-65.752,-22.962],[-65.565,-23.427],[-65.376,-23.892],[-65.186,-24.356],[-64.995,-24.82],[-64.802,-25.284],[-64.608,-25.748],[-64.412,-26.211],[-64.214,-26.675],[-64.015,-27.137],[-63.815,-27.6],[-63.612,-28.062],[-63.408,-28.524],[-63.202,-28.986],[-62.994,-29.448],[-62.785,-29.909],[-62.573,-30.369],[-62.359,-30.83],[-62.144,-31.29],[-61.926,-31.75],[-61.706,-32.209],[-61.483,-32.668],[-61.259,-33.126],[-61.032,-33.584],[-60.803,-34.042],[-60.326,-34.332],[-59.846,-34.62],[-59.362,-34.906],[-58.875,-35.19],[-58.385,-35.472],[-57.892,-35.752],[-57.394,-36.03],[-56.894,-36.306],[-56.39,-36.58],[-55.882,-36.851],[-55.37,-37.121],[-54.855,-37.388],[-54.337,-37.654],[-53.814,-37.916],[-53.288,-38.177],[-52.758,-38.435],[-52.225,-38.691],[-51.687,-38.944],[-51.146,-39.195],[-50.601,-39.443],[-50.052,-39.689],[-49.499,-39.932],[-48.942,-40.172],[-48.381,-40.41],[-47.816,-40.645],[-47.247,-40.877],[-46.675,-41.107],[-46.098,-41.333],[-45.517,-41.557],[-44.933,-41.778],[-44.344,-41.996],[-43.751,-42.21],[-43.154,-42.422],[-42.554,-42.631],[-41.949,-42.836],[-41.34,-43.038],[-40.727,-43.237],[-40.11,-43.433],[-39.49,-43.625],[-38.801,-43.617],[-38.112,-43.604],[-37.423,-43.587],[-36.735,-43.566],[-36.047,-43.541],[-35.361,-43.512],[-34.674,-43.478],[-33.989,-43.441],[-33.304,-43.399],[-32.621,-43.354],[-31.938,-43.304],[-31.257,-43.25],[-30.577,-43.192],[-29.898,-43.13],[-29.221,-43.065],[-28.545,-42.995],[-27.871,-42.921],[-27.198,-42.843],[-26.527,-42.762],[-25.858,-42.676],[-25.191,-42.587],[-24.526,-42.494],[-23.862,-42.396],[-23.201,-42.295],[-22.542,-42.191]]}},{"type":"Feature","properties":{"boundary_type":"subduction","feature_type":"gpml:SubductionZone","polarity":"Right","overriding_plate_id":701,"subducting_plate_id":501,"plate_ids":[501,701],"name":"Sub zone closing Cadomia plate"},"geometry":{"type":"LineString","coordinates":[[3.561,-39.192],[3.936,-39.588],[4.315,-39.983],[4.699,-40.377],[5.088,-40.769],[5.481,-41.16],[5.879,-41.55],[6.281,-41.938],[6.689,-42.325],[7.101,-42.711],[7.535,-43.072],[7.974,-43.432],[8.418,-43.79],[8.868,-44.146],[9.323,-44.5],[9.783,-44.853],[10.249,-45.203],[10.721,-45.552],[11.199,-45.899],[11.683,-46.244],[12.173,-46.586],[12.7,-46.921],[13.234,-47.254],[13.775,-47.584],[14.323,-47.912],[14.877,-48.237],[15.439,-48.559],[16.007,-48.878],[16.583,-49.195],[17.167,-49.509],[17.758,-49.82],[18.356,-50.127],[18.962,-50.432],[19.576,-50.733],[20.198,-51.031]]}},{"type":"Feature","properties":{"boundary_type":"subduction","feature_type":"gpml:SubductionZone","polarity":"Right","overriding_plate_id":8013,"subducting_plate_id":98044,"plate_ids":[8013,98044],"name":"Ross Orogen"},"geometry":{"type":"LineString","coordinates":[[113.644,15.596],[114.147,15.529],[114.649,15.46],[115.151,15.39],[115.653,15.32],[116.154,15.248],[116.655,15.175],[117.155,15.101],[117.655,15.026],[118.155,14.949],[118.655,14.872],[119.154,14.794],[119.653,14.714],[120.151,14.633],[120.573,14.391],[120.994,14.147],[121.415,13.903],[121.834,13.658],[122.253,13.412],[122.67,13.166],[123.087,12.918],[123.503,12.671],[123.918,12.422],[124.333,12.173],[124.746,11.924],[125.159,11.673],[125.571,11.423],[125.983,11.171],[126.394,10.919],[126.804,10.667],[127.213,10.414],[127.592,10.122],[127.97,9.831],[128.348,9.538],[128.725,9.246],[129.102,8.953],[129.478,8.66],[129.853,8.366],[130.228,8.072],[130.602,7.778],[130.976,7.483],[131.349,7.188],[131.722,6.893],[132.094,6.597],[132.466,6.301],[132.94,6.172],[133.415,6.042],[133.89,5.911],[134.364,5.781],[134.838,5.65],[135.22,5.428],[135.602,5.207],[135.983,4.985],[136.365,4.763],[136.746,4.541],[137.127,4.318],[137.507,4.096],[137.888,3.873],[138.25,3.647],[138.613,3.422],[138.975,3.196],[139.337,2.971],[139.699,2.745],[140.061,2.519],[140.484,2.402],[140.908,2.286],[141.331,2.169],[141.754,2.053],[142.177,1.936],[142.6,1.819],[143.023,1.702],[143.485,1.722],[143.948,1.743],[144.41,1.764],[144.872,1.784],[145.335,1.804],[145.807,1.789],[146.279,1.774],[146.751,1.759],[147.223,1.743],[147.695,1.727],[148.025,1.416],[148.355,1.104],[148.685,0.792],[149.014,0.48],[149.293,0.083],[149.571,-0.314],[149.849,-0.71],[150.128,-1.107],[150.406,-1.504],[150.685,-1.9],[150.964,-2.297],[151.242,-2.693],[151.521,-3.09],[151.801,-3.486],[152.08,-3.882],[152.36,-4.278],[152.64,-4.674],[152.92,-5.07],[153.233,-5.415],[153.546,-5.76],[153.86,-6.105],[154.173,-6.449],[154.488,-6.794],[154.803,-7.138],[155.118,-7.482],[155.434,-7.825],[155.75,-8.169],[156.156,-8.41],[156.563,-8.651]]}},{"type":"Feature","properties":{"boundary_type":"subduction","feature_type":"gpml:SubductionZone","polarity":"Right","overriding_plate_id":701,"subducting_plate_id":501,"plate_ids":[501,701],"name":"East African orogen"},"geometry":{"type":"LineString","coordinates":[[34.56,-43.039],[35.173,-43.093],[35.787,-43.145],[36.402,-43.193],[37.019,-43.238],[37.635,-43.279],[38.253,-43.317],[38.872,-43.352],[39.491,-43.384],[40.131,-43.287],[40.768,-43.188],[41.404,-43.084],[42.038,-42.978],[42.669,-42.867],[43.298,-42.754],[43.924,-42.637],[44.549,-42.516],[45.171,-42.392],[45.79,-42.265],[46.407,-42.134],[47.021,-42.0],[47.633,-41.863],[48.242,-41.723],[48.848,-41.579],[49.451,-41.432],[49.997,-41.349],[50.542,-41.264],[51.085,-41.175],[51.627,-41.085],[52.167,-40.991],[52.745,-40.866],[53.321,-40.737],[53.895,-40.606],[54.467,-40.472],[55.036,-40.335],[55.603,-40.196],[56.167,-40.053],[56.729,-39.908],[57.298,-39.887],[57.866,-39.863],[58.433,-39.835],[59.001,-39.806],[59.567,-39.773],[60.133,-39.738],[60.699,-39.7],[61.222,-39.583],[61.744,-39.465],[62.264,-39.344],[62.782,-39.221],[63.299,-39.095],[63.813,-38.967],[64.422,-39.04],[65.032,-39.109],[65.643,-39.175],[66.256,-39.238],[66.869,-39.298],[67.483,-39.354],[68.099,-39.407],[68.715,-39.457],[69.332,-39.504],[69.95,-39.547],[70.569,-39.588],[71.014,-39.586],[71.46,-39.582],[71.811,-39.415],[72.16,-39.247],[72.338,-38.774],[72.513,-38.3],[72.733,-37.914],[72.951,-37.527],[73.219,-37.286],[73.768,-37.211],[74.256,-37.331],[74.745,-37.449],[75.236,-37.565],[75.729,-37.679],[76.273,-37.679],[76.816,-37.677],[77.36,-37.672],[77.904,-37.664],[78.413,-37.548],[78.922,-37.429],[79.428,-37.309],[79.933,-37.186],[80.437,-37.061],[80.956,-37.114],[81.476,-37.165],[81.997,-37.214],[82.519,-37.26],[83.041,-37.305],[83.564,-37.346],[84.136,-37.301],[84.708,-37.253],[85.279,-37.202],[85.849,-37.148],[86.418,-37.092],[86.986,-37.032],[87.393,-37.242],[87.803,-37.45],[88.214,-37.657],[88.657,-37.823],[89.101,-37.987],[89.548,-38.149],[89.891,-38.171],[90.394,-38.221],[90.896,-38.104],[91.396,-37.984],[91.894,-37.862],[92.372,-37.732],[92.942,-37.902],[93.515,-38.069],[94.09,-38.234],[94.543,-38.35],[94.962,-38.313],[95.414,-38.179],[95.865,-38.043],[96.271,-37.791],[96.674,-37.537],[97.075,-37.282],[97.473,-37.025],[97.918,-36.73],[98.359,-36.433],[98.59,-36.106],[98.819,-35.778],[99.046,-35.449],[99.174,-35.06],[99.3,-34.67],[99.39,-34.528],[99.751,-34.452],[100.313,-34.51],[100.875,-34.565],[101.438,-34.617],[102.001,-34.667],[102.477,-34.838],[102.955,-35.007],[103.434,-35.174],[103.916,-35.339],[104.4,-35.503],[104.885,-35.664],[105.324,-35.651],[105.763,-35.636],[106.202,-35.619],[106.677,-35.315],[107.15,-35.009],[107.618,-34.701],[108.083,-34.392],[108.512,-34.087],[108.937,-33.782],[109.36,-33.475],[109.779,-33.166],[110.196,-32.856],[110.609,-32.545],[110.915,-32.226],[111.219,-31.906],[111.521,-31.585],[111.821,-31.264],[112.118,-30.942],[112.14,-30.882]]}},{"type":"Feature","properties":{"boundary_type":"subduction","feature_type":"gpml:SubductionZone","polarity":"Right","overriding_plate_id":8026,"subducting_plate_id":77030,"plate_ids":[8026,77030],"name":"Maud Land - Coats Block Collision"},"geometry":{"type":"LineString","coordinates":[[130.092,-37.208],[130.011,-36.717],[129.931,-36.225],[129.852,-35.733],[129.774,-35.242]]}},{"type":"Feature","properties":{"boundary_type":"subduction","feature_type":"gpml:SubductionZone","polarity":"Right","overriding_plate_id":8026,"subducting_plate_id":801,"plate_ids":[801,8026],"name":"Maud Land - Coats Block Collision"},"geometry":{"type":"LineString","coordinates":[[129.774,-35.242],[129.739,-35.018],[130.089,-34.626],[130.435,-34.232],[130.779,-33.838],[131.119,-33.442],[131.552,-33.175],[131.984,-32.906],[132.412,-32.635],[132.838,-32.363],[133.261,-32.09],[133.682,-31.815],[134.1,-31.539],[134.539,-31.4],[134.978,-31.26],[135.414,-31.119],[135.85,-30.976]]}},{"type":"Feature","properties":{"boundary_type":"subduction","feature_type":"gpml:SubductionZone","polarity":"Right","overriding_plate_id":8026,"subducting_plate_id":22042,"plate_ids":[8026,22042],"name":"Maud Land - Coats Block Collision"},"geometry":{"type":"LineString","coordinates":[[135.85,-30.976],[136.151,-30.876],[136.451,-30.775],[137.005,-30.824],[137.559,-30.871],[138.113,-30.915],[138.685,-30.948],[139.257,-30.979],[139.829,-31.007],[140.402,-31.033],[140.675,-31.322],[140.95,-31.61],[141.227,-31.898],[141.368,-32.356],[141.509,-32.815],[141.653,-33.273],[141.797,-33.73],[141.944,-34.188],[142.092,-34.645],[142.11,-34.72]]}},{"type":"Feature","properties":{"boundary_type":"subduction","feature_type":"gpml:SubductionZone","polarity":"Right","overriding_plate_id":701,"subducting_plate_id":501,"plate_ids":[501,701],"name":"Cadomian Terranes"},"geometry":{"type":"LineString","coordinates":[[20.198,-51.031],[20.378,-50.693],[20.555,-50.354],[20.988,-50.038],[21.415,-49.721],[21.836,-49.401],[22.252,-49.081],[22.663,-48.759],[23.385,-48.743],[24.107,-48.722],[24.827,-48.697],[25.548,-48.667],[26.267,-48.633],[26.874,-48.395],[27.476,-48.154],[28.072,-47.909],[28.503,-47.619],[28.929,-47.327],[29.35,-47.033],[29.822,-46.736],[30.289,-46.437],[30.75,-46.137],[31.206,-45.835],[31.658,-45.53],[32.104,-45.225],[32.546,-44.917],[32.887,-44.56],[33.225,-44.202],[33.558,-43.843],[33.887,-43.483],[34.225,-43.261],[34.56,-43.039]]}},{"type":"Feature","properties":{"boundary_type":"subduction","feature_type":"gpml:SubductionZone","polarity":"Left","overriding_plate_id":701,"subducting_plate_id":201,"plate_ids":[201,701],"name":"Araguaia Belt"},"geometry":{"type":"LineString","coordinates":[[125.012,-84.133],[125.356,-83.941],[127.436,-83.544],[129.274,-83.139],[130.907,-82.728],[132.365,-82.312],[133.673,-81.891],[134.853,-81.466],[135.921,-81.039],[136.082,-80.655],[136.231,-80.271],[136.369,-79.888],[137.705,-79.513],[138.95,-79.133],[140.111,-78.748],[141.196,-78.359],[142.926,-78.041],[144.567,-77.712],[146.122,-77.374],[147.596,-77.027],[148.995,-76.673],[149.848,-76.267],[150.653,-75.858],[151.414,-75.446],[152.133,-75.032],[152.815,-74.616],[153.461,-74.198],[153.539,-73.712],[153.613,-73.225],[153.682,-72.739],[153.748,-72.252],[153.811,-71.766],[154.082,-71.384],[154.344,-71.003],[154.624,-70.761],[154.898,-70.52],[155.26,-70.057],[155.732,-69.72],[156.189,-69.382],[156.665,-69.038],[157.28,-68.89],[157.886,-68.741]]}},{"type":"Feature","properties":{"boundary_type":"subduction","feature_type":"gpml:SubductionZone","polarity":"Left","overriding_plate_id":701,"subducting_plate_id":201,"plate_ids":[201,701],"name":"SZ Parana Paraguay Belt"},"geometry":{"type":"LineString","coordinates":[[157.886,-68.741],[157.952,-68.578],[157.365,-68.13],[156.801,-67.68],[156.848,-67.293],[156.894,-66.907],[157.255,-66.479],[157.602,-66.05],[158.039,-65.693],[158.463,-65.335],[158.43,-65.044],[158.398,-64.752],[158.193,-64.4],[157.994,-64.048],[158.29,-63.624],[158.577,-63.199]]}},{"type":"Feature","properties":{"boundary_type":"subduction","feature_type":"gpml:SubductionZone","polarity":"Left","overriding_plate_id":701,"subducting_plate_id":201,"plate_ids":[201,701],"name":"SZ Parana Paraguay Belt"},"geometry":{"type":"LineString","coordinates":[[158.577,-63.199],[158.583,-63.19],[159.001,-62.79],[159.409,-62.388],[159.742,-62.05],[160.068,-61.71],[160.197,-61.381],[160.323,-61.053],[160.446,-60.724],[159.965,-60.392],[159.493,-60.059],[159.442,-59.985]]}},{"type":"Feature","properties":{"boundary_type":"subduction","feature_type":"gpml:SubductionZone","polarity":"Left","overriding_plate_id":701,"subducting_plate_id":22042,"plate_ids":[701,22042],"name":"SZ Parana Paraguay Belt"},"geometry":{"type":"LineString","coordinates":[[159.442,-59.985],[159.317,-59.802]]}},{"type":"Feature","properties":{"boundary_type":"subduction","feature_type":"gpml:SubductionZone","polarity":"Right","overriding_plate_id":801,"subducting_plate_id":8011,"plate_ids":[801,8011],"name":"Paterson-Peterman suture"},"geometry":{"type":"LineString","coordinates":[[98.418,-10.104],[98.497,-9.692],[98.576,-9.28],[98.655,-8.868],[98.733,-8.456],[98.812,-8.044],[98.89,-7.632],[98.905,-7.148],[98.919,-6.664],[98.934,-6.18],[98.949,-5.695],[98.964,-5.211],[98.978,-4.727],[98.993,-4.243],[99.008,-3.759],[99.022,-3.275],[99.037,-2.791],[99.052,-2.307],[99.066,-1.822],[99.292,-1.444],[99.517,-1.065],[99.961,-1.039],[100.406,-1.013],[100.85,-0.987],[101.256,-0.775],[101.662,-0.563],[102.068,-0.352],[102.473,-0.14],[102.879,0.072],[103.285,0.284],[103.73,0.501],[104.176,0.718],[104.622,0.935],[105.068,1.152],[105.513,1.368],[105.847,1.737],[106.18,2.105],[106.514,2.474],[106.79,2.889],[107.067,3.305],[107.344,3.721],[107.621,4.136],[107.817,4.529],[108.013,4.922],[108.209,5.315],[108.405,5.707],[108.601,6.1],[108.669,6.51],[108.736,6.92],[108.804,7.33],[108.872,7.74],[109.135,7.943],[109.399,8.146]]}},{"type":"Feature","properties":{"boundary_type":"subduction","feature_type":"gpml:SubductionZone","polarity":"Left","overriding_plate_id":701,"subducting_plate_id":22042,"plate_ids":[701,22042],"name":"Damara-Lufilian-Zambezi Orogen"},"geometry":{"type":"LineString","coordinates":[[159.317,-59.802],[158.431,-59.856],[157.542,-59.904],[156.65,-59.946],[155.757,-59.982],[154.862,-60.012],[153.965,-60.036],[153.101,-59.897],[152.244,-59.752],[151.395,-59.602],[150.554,-59.447],[149.72,-59.286],[148.894,-59.12],[148.077,-58.948],[147.607,-58.548],[147.147,-58.146],[146.697,-57.743],[146.258,-57.338],[145.828,-56.931],[145.408,-56.523]]}},{"type":"Feature","properties":{"boundary_type":"subduction","feature_type":"gpml:SubductionZone","polarity":"Left","overriding_plate_id":701,"subducting_plate_id":77030,"plate_ids":[701,77030],"name":"Damara-Lufilian-Zambezi Orogen"},"geometry":{"type":"LineString","coordinates":[[145.408,-56.523],[145.023,-56.14],[144.645,-55.756],[144.349,-55.438],[144.058,-55.119],[143.771,-54.8],[143.255,-54.41],[142.749,-54.019],[142.232,-53.828],[141.526,-53.82],[140.914,-53.926],[140.299,-54.029],[139.663,-54.008],[139.027,-53.983],[138.393,-53.956],[137.721,-53.868],[137.053,-53.776],[136.387,-53.681],[135.725,-53.583],[134.937,-53.51],[134.153,-53.432],[133.468,-53.468],[132.782,-53.499],[132.13,-53.324],[131.484,-53.145],[130.728,-52.99],[129.977,-52.83],[129.232,-52.665],[128.493,-52.496],[127.754,-52.48],[127.017,-52.46],[126.279,-52.435],[125.543,-52.406],[124.808,-52.372],[124.074,-52.334],[123.337,-52.355],[122.599,-52.371],[121.861,-52.383],[121.237,-52.384],[120.614,-52.381],[119.991,-52.375],[119.548,-52.12],[119.11,-51.863],[118.678,-51.605],[118.585,-51.274],[118.494,-50.942],[118.405,-50.611],[118.051,-50.222],[117.702,-49.831],[117.359,-49.44],[117.036,-49.111],[116.716,-48.781],[116.401,-48.45],[116.09,-48.118],[115.798,-47.72],[115.51,-47.321],[115.227,-46.922],[114.947,-46.521],[114.672,-46.12],[114.28,-45.755],[113.893,-45.389],[113.511,-45.022],[112.945,-44.925],[112.381,-44.826],[111.819,-44.723],[111.26,-44.618],[110.785,-44.317],[110.315,-44.014],[109.85,-43.708],[109.714,-43.285],[109.581,-42.861]]}},{"type":"Feature","properties":{"boundary_type":"subduction","feature_type":"gpml:SubductionZone","polarity":"Left","overriding_plate_id":77030,"subducting_plate_id":22042,"plate_ids":[22042,77030],"name":"Saldania Belt"},"geometry":{"type":"LineString","coordinates":[[160.816,-49.134],[160.648,-48.737],[160.482,-48.34],[160.32,-47.943],[160.159,-47.545],[160.001,-47.148],[159.737,-46.741],[159.476,-46.335],[159.22,-45.927],[158.967,-45.52],[158.717,-45.111],[158.472,-44.702],[158.229,-44.293],[157.667,-44.031],[157.11,-43.767],[156.557,-43.5],[156.01,-43.231],[155.467,-42.959],[154.93,-42.684],[154.397,-42.407],[153.96,-42.102],[153.529,-41.794],[153.101,-41.486],[152.677,-41.176],[152.258,-40.864],[151.842,-40.55],[151.43,-40.236],[150.933,-39.935],[150.44,-39.632],[149.952,-39.327],[149.468,-39.02],[148.988,-38.712],[148.512,-38.401],[148.071,-38.183],[147.632,-37.964],[147.195,-37.743],[146.762,-37.521],[146.331,-37.297],[145.728,-37.267],[145.125,-37.234],[144.523,-37.199],[143.922,-37.16],[143.321,-37.118],[142.866,-36.828],[142.414,-36.537],[141.966,-36.244],[141.521,-35.95],[141.079,-35.653],[141.016,-35.38],[140.953,-35.106]]}},{"type":"Feature","properties":{"boundary_type":"subduction","feature_type":"gpml:SubductionZone","polarity":"Right","overriding_plate_id":201,"subducting_plate_id":22032,"plate_ids":[201,22032],"name":"Cadomia Terranes"},"geometry":{"type":"LineString","coordinates":[[-123.654,-62.259],[-123.156,-62.649],[-122.645,-63.038],[-122.12,-63.425],[-121.581,-63.809],[-121.027,-64.192],[-120.457,-64.573],[-119.397,-64.751],[-118.323,-64.922],[-117.236,-65.085],[-116.135,-65.24],[-115.022,-65.387],[-113.897,-65.526],[-112.853,-65.451],[-111.815,-65.369],[-110.783,-65.28],[-109.759,-65.183],[-108.742,-65.08],[-107.734,-64.97],[-106.734,-64.853],[-105.679,-64.769],[-104.632,-64.678],[-103.591,-64.579],[-102.558,-64.473],[-101.534,-64.36],[-100.518,-64.24],[-99.539,-64.264],[-98.558,-64.282],[-97.576,-64.294],[-96.593,-64.298],[-95.61,-64.297]]}},{"type":"Feature","properties":{"boundary_type":"subduction","feature_type":"gpml:SubductionZone","polarity":"Right","overriding_plate_id":701,"subducting_plate_id":22032,"plate_ids":[701,22032],"name":"Cadomia Terranes"},"geometry":{"type":"LineString","coordinates":[[-95.61,-64.297],[-94.532,-64.287],[-93.455,-64.27],[-92.38,-64.245],[-91.306,-64.211],[-90.236,-64.17],[-89.169,-64.122],[-88.106,-64.065],[-87.048,-64.001],[-86.052,-64.073],[-85.05,-64.138],[-84.044,-64.197],[-83.035,-64.249],[-82.021,-64.293],[-81.005,-64.331],[-79.986,-64.362],[-78.965,-64.385],[-77.827,-64.351],[-76.693,-64.307],[-75.562,-64.255],[-74.436,-64.194],[-73.315,-64.125],[-72.2,-64.047],[-71.092,-63.96],[-69.991,-63.865],[-68.898,-63.762],[-67.864,-63.639],[-66.839,-63.509],[-65.824,-63.372],[-64.819,-63.227],[-63.825,-63.076],[-62.84,-62.917],[-61.867,-62.752],[-60.904,-62.58],[-59.953,-62.402],[-59.013,-62.217],[-58.085,-62.026],[-57.169,-61.829],[-56.265,-61.625],[-55.372,-61.416],[-54.492,-61.201],[-53.624,-60.981],[-52.767,-60.754],[-51.923,-60.523],[-51.08,-60.313],[-50.248,-60.097],[-49.426,-59.877],[-48.616,-59.651],[-47.816,-59.42],[-47.028,-59.185],[-46.25,-58.944],[-45.483,-58.7],[-44.727,-58.45],[-43.982,-58.197],[-43.247,-57.939],[-42.512,-57.678],[-41.788,-57.413],[-41.074,-57.144],[-40.371,-56.872],[-39.678,-56.595],[-38.995,-56.314],[-38.322,-56.03],[-37.659,-55.742],[-37.005,-55.451],[-36.362,-55.156],[-35.728,-54.858],[-35.103,-54.556],[-34.251,-54.521],[-33.401,-54.48],[-32.682,-54.328],[-31.968,-54.171],[-31.182,-54.068],[-30.401,-53.96],[-29.623,-53.847],[-28.85,-53.73],[-28.081,-53.607],[-27.317,-53.479],[-26.558,-53.347],[-25.803,-53.21],[-25.053,-53.068],[-24.308,-52.921],[-23.568,-52.77],[-22.849,-52.576],[-22.135,-52.378],[-21.428,-52.176],[-20.728,-51.969],[-20.034,-51.758],[-19.347,-51.544],[-18.666,-51.325],[-17.991,-51.102],[-17.323,-50.876],[-16.662,-50.645],[-16.007,-50.411],[-15.359,-50.174]]}},{"type":"Feature","properties":{"boundary_type":"subduction","feature_type":"gpml:SubductionZone","polarity":"Right","overriding_plate_id":701,"subducting_plate_id":501,"plate_ids":[501,701],"name":"Cadomia Terranes"},"geometry":{"type":"LineString","coordinates":[[-15.359,-50.174],[-14.723,-49.935],[-14.093,-49.693],[-13.47,-49.447],[-12.98,-49.067],[-12.497,-48.685],[-12.021,-48.301],[-11.552,-47.916],[-11.091,-47.528],[-10.636,-47.139],[-10.188,-46.747],[-9.746,-46.354],[-9.311,-45.96],[-8.881,-45.563],[-8.458,-45.165],[-8.041,-44.766],[-7.668,-44.522],[-7.299,-44.277],[-6.933,-44.031],[-6.432,-43.799],[-5.935,-43.565],[-5.443,-43.328],[-4.954,-43.09],[-4.36,-42.858],[-3.771,-42.623],[-3.186,-42.386],[-2.606,-42.145],[-2.03,-41.902],[-1.458,-41.655],[-0.891,-41.406],[-0.328,-41.154],[0.23,-40.899],[0.784,-40.642],[1.334,-40.382],[1.88,-40.12],[2.421,-39.855],[2.803,-39.635],[3.183,-39.414],[3.561,-39.192]]}},{"type":"Feature","properties":{"boundary_type":"subduction","feature_type":"gpml:SubductionZone","polarity":"Right","overriding_plate_id":701,"subducting_plate_id":501,"plate_ids":[501,701],"name":"Suture between Toast and Mawson"},"geometry":{"type":"LineString","coordinates":[[112.14,-30.882],[112.433,-30.818]]}},{"type":"Feature","properties":{"boundary_type":"subduction","feature_type":"gpml:SubductionZone","polarity":"Right","overriding_plate_id":701,"subducting_plate_id":801,"plate_ids":[701,801],"name":"Suture between Toast and Mawson"},"geometry":{"type":"LineString","coordinates":[[112.433,-30.818],[112.918,-30.711],[113.402,-30.601],[113.916,-30.673],[114.431,-30.743],[114.947,-30.811],[115.463,-30.877],[115.981,-30.94],[116.499,-31.002],[117.017,-31.062],[117.49,-31.127],[117.964,-31.19],[118.439,-31.252],[118.914,-31.312],[119.34,-31.435],[119.768,-31.556],[120.197,-31.675],[120.627,-31.794],[121.014,-32.028],[121.402,-32.261],[121.793,-32.494],[122.186,-32.725],[122.581,-32.954],[122.809,-33.398],[123.039,-33.842],[123.271,-34.285],[123.152,-34.704],[123.031,-35.123],[122.909,-35.542],[122.786,-35.961],[122.661,-36.38],[122.535,-36.799]]}},{"type":"Feature","properties":{"boundary_type":"subduction","feature_type":"gpml:SubductionZone","polarity":"Right","overriding_plate_id":701,"subducting_plate_id":77030,"plate_ids":[701,77030],"name":"Suture between Toast and Mawson"},"geometry":{"type":"LineString","coordinates":[[122.535,-36.799],[122.518,-36.856],[122.52,-37.31],[122.523,-37.765],[122.526,-38.219]]}},{"type":"Feature","properties":{"boundary_type":"subduction","feature_type":"gpml:SubductionZone","polarity":"Left","overriding_plate_id":501,"subducting_plate_id":801,"plate_ids":[501,801],"name":"subduction zone"},"geometry":{"type":"LineString","coordinates":[[112.433,-30.818],[112.363,-30.498],[112.293,-30.177],[112.186,-29.753],[112.079,-29.328],[111.974,-28.903],[111.869,-28.478],[111.765,-28.053],[111.662,-27.628],[111.627,-27.249],[111.592,-26.871],[111.558,-26.492],[111.524,-26.113],[111.376,-25.667],[111.229,-25.221],[111.083,-24.775],[110.938,-24.329],[110.795,-23.883],[110.652,-23.437],[110.51,-22.99],[110.36,-22.571],[110.211,-22.152],[110.062,-21.733],[109.914,-21.313],[109.768,-20.894],[109.621,-20.474],[109.612,-20.029],[109.603,-19.585],[109.593,-19.14],[109.584,-18.695],[109.574,-18.25],[109.565,-17.805],[109.556,-17.36],[109.547,-16.915],[109.538,-16.47],[109.356,-16.137],[109.174,-15.803],[108.993,-15.469],[108.813,-15.135]]}},{"type":"Feature","properties":{"boundary_type":"subduction","feature_type":"gpml:SubductionZone","polarity":"Left","overriding_plate_id":98043,"subducting_plate_id":401,"plate_ids":[401,98043],"name":"Lake subduction zone"},"geometry":{"type":"LineString","coordinates":[[-90.42,20.49],[-90.316,20.259],[-90.212,20.027],[-90.048,19.783],[-89.884,19.538],[-89.49,19.401],[-89.098,19.264],[-88.704,19.315],[-88.311,19.366],[-87.916,19.415],[-87.476,19.269],[-87.035,19.121],[-86.596,18.973],[-86.157,18.823],[-85.72,18.672],[-85.267,18.586],[-84.896,18.628],[-84.621,18.749],[-84.345,18.87]]}},{"type":"Feature","properties":{"boundary_type":"subduction","feature_type":"gpml:SubductionZone","polarity":"Right","overriding_plate_id":401,"subducting_plate_id":98043,"plate_ids":[401,98043],"name":"South Siberia subduction zone"},"geometry":{"type":"LineString","coordinates":[[-139.148,29.802],[-138.598,29.714],[-138.049,29.623],[-137.502,29.53],[-136.955,29.435],[-136.409,29.338],[-135.864,29.239],[-135.321,29.137],[-134.778,29.033],[-134.237,28.927],[-133.696,28.819],[-133.157,28.708],[-132.619,28.596],[-132.082,28.481],[-131.546,28.365],[-131.012,28.246],[-130.479,28.125],[-129.946,28.002],[-129.415,27.877],[-128.886,27.75],[-128.357,27.621],[-127.83,27.49],[-127.304,27.357],[-126.78,27.222],[-126.266,27.068],[-125.753,26.911],[-125.242,26.753],[-124.732,26.593],[-124.224,26.431],[-123.717,26.268],[-123.212,26.102],[-122.708,25.935],[-122.206,25.766],[-121.705,25.596],[-121.205,25.424],[-120.707,25.25],[-120.21,25.074],[-119.715,24.897],[-119.221,24.718],[-118.728,24.537],[-118.237,24.355],[-117.748,24.172],[-117.259,23.986],[-116.778,23.838],[-116.298,23.688],[-115.819,23.537],[-115.341,23.384],[-114.864,23.23],[-114.389,23.075],[-113.914,22.918],[-113.441,22.759],[-112.968,22.599],[-112.497,22.438],[-112.027,22.276],[-111.558,22.112],[-111.09,21.947],[-110.593,21.858],[-110.098,21.768],[-109.602,21.677],[-109.108,21.584],[-108.614,21.49],[-108.121,21.395],[-107.629,21.298],[-107.137,21.199],[-106.646,21.099],[-106.155,20.998],[-105.665,20.895],[-105.176,20.791],[-104.687,20.685],[-104.2,20.644],[-103.712,20.6],[-103.225,20.556],[-102.739,20.51],[-102.252,20.463],[-101.766,20.414],[-101.28,20.364],[-100.795,20.313],[-100.309,20.26],[-99.825,20.206],[-99.365,20.109],[-98.905,20.011],[-98.447,19.911],[-97.988,19.81],[-97.531,19.708],[-97.074,19.605],[-96.617,19.501],[-96.161,19.396],[-95.742,19.213],[-95.324,19.03],[-94.906,18.846],[-94.49,18.66],[-94.074,18.474],[-93.659,18.287],[-93.25,18.28],[-92.841,18.272],[-92.432,18.263],[-92.043,18.331],[-91.653,18.398],[-91.262,18.465],[-90.872,18.531],[-90.598,18.721]]}},{"type":"Feature","properties":{"boundary_type":"subduction","feature_type":"gpml:SubductionZone","polarity":"Left","overriding_plate_id":201,"subducting_plate_id":22032,"plate_ids":[201,22032],"name":"Pampean Belt"},"geometry":{"type":"LineString","coordinates":[[-123.654,-62.259],[-124.526,-62.291],[-125.4,-62.317],[-126.275,-62.338],[-127.151,-62.353],[-128.029,-62.363],[-128.882,-62.09],[-129.72,-61.813],[-130.542,-61.53],[-131.35,-61.242],[-132.143,-60.95],[-132.922,-60.653],[-133.686,-60.352],[-134.436,-60.047],[-135.172,-59.737],[-135.894,-59.423],[-136.604,-59.105],[-137.3,-58.784],[-137.983,-58.459],[-138.654,-58.13],[-139.312,-57.798],[-139.837,-57.403],[-140.35,-57.007],[-140.853,-56.608],[-141.345,-56.208],[-141.827,-55.806],[-142.299,-55.401],[-142.761,-54.995],[-143.214,-54.588],[-143.658,-54.178],[-144.094,-53.767],[-144.52,-53.355],[-144.939,-52.941],[-145.35,-52.525],[-145.753,-52.108],[-146.149,-51.69],[-146.524,-51.268],[-146.892,-50.845],[-147.253,-50.421],[-147.608,-49.996],[-147.957,-49.57],[-148.3,-49.143],[-148.637,-48.715],[-148.969,-48.286],[-149.294,-47.856],[-149.615,-47.425],[-149.93,-46.993],[-150.24,-46.56],[-150.463,-46.113],[-150.682,-45.665],[-150.898,-45.217],[-151.111,-44.768],[-151.32,-44.319],[-151.526,-43.87],[-151.729,-43.42],[-151.929,-42.97],[-152.232,-42.559],[-152.532,-42.148],[-152.97,-41.809],[-153.403,-41.468],[-153.875,-41.16],[-154.343,-40.851],[-154.807,-40.54],[-155.266,-40.227],[-155.721,-39.912],[-156.172,-39.596],[-156.618,-39.278],[-157.179,-39.083],[-157.737,-38.886],[-158.292,-38.687],[-158.843,-38.484],[-159.392,-38.279],[-159.937,-38.072],[-160.479,-37.862],[-161.019,-37.649],[-161.555,-37.435],[-162.088,-37.217],[-162.684,-37.156],[-163.279,-37.091],[-163.873,-37.024],[-164.465,-36.953],[-165.057,-36.88],[-165.648,-36.804],[-166.237,-36.725],[-166.825,-36.643],[-167.412,-36.558],[-167.998,-36.47],[-168.582,-36.379],[-169.165,-36.286],[-169.746,-36.189],[-170.326,-36.09],[-170.904,-35.988],[-171.481,-35.883],[-172.057,-35.776],[-172.631,-35.666],[-173.203,-35.553],[-173.774,-35.437],[-174.366,-35.387],[-174.958,-35.333],[-175.55,-35.276],[-176.14,-35.217],[-176.73,-35.155],[-177.318,-35.09],[-177.906,-35.022],[-178.492,-34.951],[-179.096,-34.932],[-179.698,-34.911],[179.699,-34.886],[179.097,-34.859],[178.495,-34.829],[177.976,-34.888],[177.457,-34.946],[176.937,-35.001],[176.416,-35.054],[175.895,-35.105],[175.373,-35.154],[174.85,-35.2],[174.251,-35.302],[173.651,-35.4],[173.049,-35.496],[172.445,-35.588],[172.101,-35.923],[171.753,-36.257],[171.403,-36.59]]}},{"type":"Feature","properties":{"boundary_type":"subduction","feature_type":"gpml:SubductionZone","polarity":"Left","overriding_plate_id":22042,"subducting_plate_id":77030,"plate_ids":[22042,77030],"name":"Dom Feliciano - Gariep Belt"},"geometry":{"type":"LineString","coordinates":[[160.816,-49.134],[160.365,-49.423],[159.908,-49.709],[159.445,-49.994],[158.972,-50.39],[158.49,-50.784],[158.0,-51.176],[157.502,-51.566],[156.995,-51.953],[156.48,-52.339],[155.955,-52.722],[155.421,-53.102],[154.878,-53.481],[154.235,-53.761],[153.584,-54.038],[152.925,-54.312],[152.256,-54.582],[151.579,-54.848],[150.892,-55.11],[150.197,-55.368],[149.493,-55.623],[148.779,-55.873],[147.947,-56.044],[147.108,-56.209],[146.261,-56.369],[145.408,-56.523]]}},{"type":"Feature","properties":{"boundary_type":"subduction","feature_type":"gpml:SubductionZone","polarity":"Right","overriding_plate_id":401,"subducting_plate_id":302,"plate_ids":[302,401],"name":"Central Taimyr Belt"},"geometry":{"type":"LineString","coordinates":[[-81.928,7.374],[-81.934,6.924],[-81.94,6.474],[-81.947,6.025],[-81.953,5.575],[-82.137,5.149],[-82.32,4.723],[-82.503,4.297],[-82.686,3.87],[-82.869,3.444],[-83.052,3.018],[-83.234,2.591],[-83.417,2.165],[-83.599,1.738],[-84.051,1.611],[-84.503,1.483],[-84.955,1.356],[-85.407,1.228],[-85.859,1.101],[-86.31,0.973],[-86.762,0.845],[-87.214,0.718],[-87.665,0.59],[-88.117,0.462],[-88.569,0.334],[-88.943,0.106],[-89.317,-0.122],[-89.691,-0.35],[-90.065,-0.578],[-90.439,-0.806],[-90.813,-1.034],[-91.167,-1.365],[-91.521,-1.696],[-91.875,-2.027],[-92.229,-2.358],[-92.584,-2.688],[-92.939,-3.019],[-93.294,-3.35],[-93.649,-3.68],[-94.004,-4.01],[-94.36,-4.34],[-94.716,-4.67],[-95.072,-5.0],[-95.429,-5.329],[-95.786,-5.658],[-96.165,-5.899],[-96.545,-6.139],[-96.924,-6.379],[-97.304,-6.619],[-97.685,-6.858],[-98.065,-7.097],[-98.447,-7.336],[-98.828,-7.574],[-99.21,-7.812],[-99.685,-7.959],[-100.159,-8.106],[-100.635,-8.252],[-101.11,-8.397],[-101.586,-8.542],[-102.062,-8.686],[-102.539,-8.83],[-103.016,-8.973],[-103.493,-9.116],[-103.971,-9.258],[-104.315,-9.61],[-104.66,-9.963],[-105.006,-10.315],[-105.352,-10.666],[-105.699,-11.017],[-106.047,-11.368],[-106.396,-11.719],[-106.746,-12.069],[-107.097,-12.418],[-107.469,-12.746],[-107.841,-13.074],[-108.214,-13.401],[-108.589,-13.727],[-108.964,-14.053],[-109.341,-14.378],[-109.718,-14.703],[-110.097,-15.027],[-110.477,-15.35],[-110.859,-15.664],[-111.243,-15.977],[-111.628,-16.289],[-112.015,-16.601],[-112.402,-16.912],[-112.791,-17.222],[-113.181,-17.531],[-113.572,-17.84],[-113.965,-18.148],[-114.359,-18.455],[-114.755,-18.761]]}},{"type":"Feature","properties":{"boundary_type":"subduction","feature_type":"gpml:SubductionZone","polarity":"Right","overriding_plate_id":98044,"subducting_plate_id":601,"plate_ids":[601,98044],"name":"NC Oceanic subduction"},"geometry":{"type":"LineString","coordinates":[[105.238,30.248],[104.837,30.579],[104.433,30.908],[104.026,31.236],[103.617,31.562],[103.205,31.888],[102.789,32.212],[102.371,32.534],[101.95,32.856],[101.525,33.176],[101.098,33.494],[100.667,33.811],[100.16,34.057],[99.651,34.301],[99.138,34.542],[98.622,34.782],[98.103,35.019],[97.581,35.254],[97.056,35.487],[96.528,35.718],[95.997,35.946],[95.463,36.172],[94.926,36.396],[94.386,36.617],[93.843,36.836],[93.297,37.052],[92.747,37.265],[92.195,37.477],[91.639,37.685],[91.08,37.891],[90.518,38.094],[89.953,38.295],[89.385,38.493],[88.814,38.688],[88.24,38.88],[87.662,39.07],[87.082,39.256],[86.498,39.44],[85.911,39.621],[85.322,39.799],[84.729,39.973],[84.133,40.145],[83.501,40.2],[82.869,40.252],[82.235,40.3],[81.6,40.344],[80.965,40.385],[80.329,40.423],[79.692,40.457],[79.055,40.488],[78.417,40.515],[77.778,40.538],[77.139,40.558],[76.5,40.575],[75.86,40.588],[75.221,40.597],[74.581,40.603],[73.941,40.606],[73.301,40.605],[72.661,40.6],[72.021,40.592],[71.382,40.58],[70.742,40.565],[70.131,40.441],[69.521,40.314],[68.915,40.183],[68.31,40.049],[67.708,39.913],[67.108,39.773],[66.511,39.63],[65.916,39.484],[65.324,39.334],[64.734,39.182],[64.147,39.027],[63.563,38.869],[62.981,38.709],[62.401,38.545],[61.825,38.378],[61.251,38.209],[60.679,38.037],[60.322,37.855],[59.967,37.673]]}},{"type":"Feature","properties":{"boundary_type":"subduction","feature_type":"gpml:SubductionZone","polarity":"Right","overriding_plate_id":98044,"subducting_plate_id":501,"plate_ids":[501,98044],"name":"NC Oceanic subduction"},"geometry":{"type":"LineString","coordinates":[[59.967,37.673],[59.794,37.583]]}},{"type":"Feature","properties":{"boundary_type":"subduction","feature_type":"gpml:SubductionZone","polarity":"Left","overriding_plate_id":606,"subducting_plate_id":501,"plate_ids":[501,606],"name":"Lhasa and India SZ"},"geometry":{"type":"LineString","coordinates":[[88.112,2.451],[88.08,2.028],[88.048,1.606],[88.016,1.183],[87.983,0.761],[87.951,0.338],[88.042,-0.152],[88.132,-0.641],[88.223,-1.131],[88.314,-1.62],[88.404,-2.11],[88.495,-2.599],[88.586,-3.089],[88.677,-3.578],[88.768,-4.068],[88.859,-4.557],[88.95,-5.046],[89.042,-5.536],[89.133,-6.025],[89.225,-6.515],[89.317,-7.004],[89.409,-7.494],[89.501,-7.983],[89.594,-8.472],[89.752,-8.946],[89.911,-9.421],[90.07,-9.895],[90.229,-10.369],[90.389,-10.843]]}},{"type":"Feature","properties":{"boundary_type":"subduction","feature_type":"gpml:SubductionZone","polarity":"Right","overriding_plate_id":1019,"subducting_plate_id":98044,"plate_ids":[1019,98044],"name":"outboard Laurentia SZ"},"geometry":{"type":"LineString","coordinates":[[173.251,7.754],[173.707,7.966],[174.163,8.178],[174.62,8.39],[175.077,8.6],[175.535,8.811],[175.993,9.021],[176.452,9.23],[176.911,9.438],[177.371,9.646],[177.832,9.854],[178.293,10.061],[178.754,10.267],[179.217,10.472],[179.68,10.677],[-179.857,10.881],[-179.393,11.085],[-178.928,11.288],[-178.463,11.49],[-177.99,11.661],[-177.517,11.832],[-177.043,12.002],[-176.569,12.171],[-176.094,12.339],[-175.618,12.507],[-175.142,12.673],[-174.665,12.839],[-174.188,13.004],[-173.71,13.168],[-173.231,13.331],[-172.752,13.494],[-172.272,13.655],[-171.791,13.816],[-171.31,13.975],[-170.828,14.134],[-170.345,14.291],[-169.862,14.448],[-169.378,14.604],[-168.893,14.758],[-168.407,14.912],[-167.921,15.065],[-167.435,15.216],[-166.923,15.264],[-166.412,15.312],[-165.9,15.358],[-165.388,15.403],[-164.875,15.446],[-164.363,15.489],[-163.85,15.53],[-163.337,15.57],[-162.824,15.609],[-162.311,15.647],[-161.797,15.684],[-161.284,15.719],[-160.77,15.753],[-160.256,15.786],[-159.741,15.818],[-159.227,15.849],[-158.713,15.878],[-158.198,15.906],[-157.683,15.933],[-157.168,15.959],[-156.653,15.983],[-156.138,16.006],[-155.623,16.028],[-155.107,16.049],[-154.592,16.069],[-154.076,16.087],[-153.56,16.104],[-153.045,16.12],[-152.53,16.096],[-152.016,16.071],[-151.502,16.044],[-150.988,16.016],[-150.474,15.987],[-149.961,15.957],[-149.447,15.925],[-148.934,15.893],[-148.421,15.859]]}},{"type":"Feature","properties":{"boundary_type":"subduction","feature_type":"gpml:SubductionZone","polarity":"Right","overriding_plate_id":1019,"subducting_plate_id":401,"plate_ids":[401,1019],"name":"outboard Laurentia SZ"},"geometry":{"type":"LineString","coordinates":[[-148.421,15.859],[-147.91,15.824],[-147.399,15.787],[-146.888,15.75],[-146.378,15.711],[-145.868,15.672],[-145.357,15.631],[-144.848,15.589],[-144.338,15.545],[-143.829,15.501],[-143.319,15.455],[-142.81,15.409],[-142.302,15.361],[-141.793,15.311],[-141.285,15.261],[-140.777,15.21],[-140.269,15.157],[-139.762,15.104],[-139.254,15.049],[-138.747,14.993],[-138.241,14.936]]}},{"type":"Feature","properties":{"boundary_type":"subduction","feature_type":"gpml:SubductionZone","polarity":"Right","overriding_plate_id":8011,"subducting_plate_id":98044,"plate_ids":[8011,98044],"name":"Early onset Terra Australis?"},"geometry":{"type":"LineString","coordinates":[[103.031,27.051],[103.245,26.849],[103.564,26.5],[103.881,26.15],[104.197,25.8],[104.51,25.448],[104.822,25.097],[105.132,24.744],[105.44,24.391],[105.746,24.037],[106.115,23.713],[106.483,23.388],[106.848,23.061],[107.212,22.734],[107.574,22.407],[107.935,22.078],[108.293,21.748],[108.651,21.418],[109.006,21.087],[109.36,20.755],[109.69,20.371],[110.019,19.986],[110.346,19.601],[110.672,19.215],[110.996,18.828],[111.319,18.441],[111.64,18.053],[111.959,17.665],[112.239,17.313],[112.517,16.96],[112.795,16.607],[113.071,16.254],[113.346,15.9],[113.621,15.546]]}},{"type":"Feature","properties":{"boundary_type":"subduction","feature_type":"gpml:SubductionZone","polarity":"Left","overriding_plate_id":302,"subducting_plate_id":98043,"plate_ids":[302,98043],"name":"Kuznetsk-Alatau & North Sayan & Chingiz (?) subduction zone"},"geometry":{"type":"LineString","coordinates":[[-69.452,-4.572],[-69.842,-4.28],[-70.232,-3.987],[-70.622,-3.695],[-71.011,-3.403],[-71.4,-3.11],[-71.788,-2.817],[-72.177,-2.524],[-72.565,-2.231],[-72.953,-1.938],[-73.342,-1.645],[-73.729,-1.352],[-74.117,-1.059],[-74.413,-0.656],[-74.708,-0.254],[-75.003,0.148],[-75.298,0.55],[-75.593,0.952],[-75.888,1.355],[-76.184,1.757],[-76.479,2.159],[-76.775,2.561],[-77.071,2.963],[-77.281,3.34],[-77.491,3.717],[-77.701,4.095],[-77.912,4.472],[-78.123,4.849],[-78.474,5.09],[-78.825,5.33],[-79.177,5.571],[-79.528,5.811],[-79.881,6.05],[-80.289,6.316],[-80.698,6.581],[-81.108,6.845],[-81.517,7.11],[-81.928,7.374]]}},{"type":"Feature","properties":{"boundary_type":"subduction","feature_type":"gpml:SubductionZone","polarity":"Left","overriding_plate_id":401,"subducting_plate_id":98043,"plate_ids":[401,98043],"name":"Kuznetsk-Alatau & North Sayan & Chingiz (?) subduction zone"},"geometry":{"type":"LineString","coordinates":[[-81.928,7.374],[-82.007,7.424],[-82.432,7.643],[-82.857,7.86],[-83.283,8.077],[-83.709,8.294],[-84.136,8.511],[-84.544,8.674],[-84.953,8.838],[-85.362,9.0],[-85.771,9.163],[-86.181,9.325],[-86.669,9.415],[-87.157,9.506],[-87.646,9.595],[-88.134,9.684],[-88.623,9.772],[-88.764,9.834]]}},{"type":"Feature","properties":{"boundary_type":"subduction","feature_type":"gpml:SubductionZone","polarity":"Left","overriding_plate_id":701,"subducting_plate_id":201,"plate_ids":[201,701],"name":"Rockelide Belt"},"geometry":{"type":"LineString","coordinates":[[-99.53,-68.17],[-99.034,-68.612],[-98.519,-69.052],[-98.825,-69.492],[-99.144,-69.931],[-99.477,-70.37],[-99.824,-70.807],[-100.084,-71.281],[-100.357,-71.754],[-100.643,-72.227],[-100.945,-72.699],[-101.24,-73.136],[-101.551,-73.573],[-101.878,-74.009],[-102.223,-74.445],[-102.822,-74.911],[-103.458,-75.374],[-104.135,-75.836],[-104.857,-76.296],[-105.628,-76.754],[-106.452,-77.209],[-107.337,-77.662],[-108.287,-78.111],[-109.31,-78.557],[-110.415,-78.999],[-111.611,-79.437],[-112.909,-79.87],[-114.587,-80.242],[-116.396,-80.606],[-118.346,-80.959],[-120.451,-81.302],[-122.724,-81.631],[-125.178,-81.947],[-127.826,-82.247],[-130.679,-82.53],[-133.746,-82.792],[-137.035,-83.033],[-140.545,-83.25],[-144.272,-83.439],[-147.377,-83.767],[-150.815,-84.074],[-154.612,-84.358],[-158.789,-84.615],[-163.358,-84.841],[-168.308,-85.031],[-173.608,-85.182],[-179.199,-85.289],[175.008,-85.35],[169.124,-85.362],[163.27,-85.326],[157.711,-85.312],[152.238,-85.254],[146.942,-85.154],[141.9,-85.015],[137.164,-84.84],[132.766,-84.632],[128.717,-84.395],[125.012,-84.133]]}},{"type":"Feature","properties":{"boundary_type":"ridge","feature_type":"gpml:MidOceanRidge","polarity":null,"overriding_plate_id":null,"subducting_plate_id":null,"plate_ids":[501,98044],"name":"India closure transform"},"geometry":{"type":"LineString","coordinates":[[59.794,37.583],[59.643,38.064],[59.491,38.545],[59.336,39.025],[59.18,39.505],[59.021,39.985],[58.86,40.465],[58.696,40.945],[58.53,41.424],[59.061,41.634],[59.594,41.842],[60.131,42.047],[60.672,42.249],[61.216,42.449],[61.764,42.647],[62.315,42.841],[62.101,43.31],[61.883,43.779],[61.663,44.247],[61.438,44.715],[61.21,45.182],[60.979,45.649],[60.743,46.116],[60.503,46.582],[60.259,47.047],[60.011,47.512],[59.759,47.976],[59.502,48.44],[59.24,48.903],[58.973,49.366],[58.701,49.828],[58.424,50.289],[58.142,50.75],[57.853,51.21],[57.56,51.669],[57.26,52.127],[56.953,52.585],[56.641,53.042],[56.322,53.498],[55.995,53.953],[55.662,54.407],[55.321,54.861],[54.972,55.313],[54.616,55.765],[54.251,56.215],[53.877,56.664],[53.494,57.112],[53.102,57.559],[52.7,58.005],[52.288,58.449],[53.109,58.622],[53.938,58.79],[54.774,58.953],[55.619,59.11],[56.471,59.261],[56.182,59.729],[55.884,60.195],[55.578,60.661],[55.263,61.126],[54.938,61.591],[54.604,62.055],[54.259,62.517],[53.903,62.979],[53.536,63.44],[53.157,63.9],[52.766,64.359]]}},{"type":"Feature","properties":{"boundary_type":"ridge","feature_type":"gpml:MidOceanRidge","polarity":null,"overriding_plate_id":null,"subducting_plate_id":null,"plate_ids":[98043,98044],"name":"India closure transform"},"geometry":{"type":"LineString","coordinates":[[52.766,64.359],[52.533,64.625],[52.296,64.889]]}},{"type":"Feature","properties":{"boundary_type":"ridge","feature_type":"gpml:MidOceanRidge","polarity":null,"overriding_plate_id":null,"subducting_plate_id":null,"plate_ids":[101,302],"name":"Laurentia-Baltica MOR"},"geometry":{"type":"LineString","coordinates":[[-129.963,-50.836],[-129.559,-50.408],[-129.162,-49.978],[-128.772,-49.547],[-128.389,-49.115],[-128.012,-48.681],[-127.642,-48.246],[-127.278,-47.81],[-126.92,-47.373],[-126.568,-46.935],[-125.979,-47.089],[-125.386,-47.241],[-124.789,-47.389],[-124.19,-47.534],[-123.587,-47.677],[-123.261,-47.229],[-122.942,-46.78],[-122.627,-46.33],[-122.318,-45.88],[-122.014,-45.428],[-121.714,-44.976],[-121.42,-44.523],[-121.129,-44.07],[-120.844,-43.615],[-120.562,-43.16],[-120.285,-42.704],[-120.011,-42.248],[-120.496,-42.103],[-120.252,-41.658],[-120.012,-41.213],[-119.776,-40.767],[-119.542,-40.32],[-119.311,-39.874],[-119.084,-39.426],[-118.859,-38.978],[-119.413,-38.834],[-119.209,-38.44],[-119.007,-38.045],[-118.807,-37.65],[-118.609,-37.255],[-118.414,-36.859],[-118.22,-36.463],[-118.718,-36.286],[-119.213,-36.106],[-119.706,-35.924],[-120.197,-35.741],[-120.685,-35.555],[-121.171,-35.368],[-120.914,-34.923],[-120.66,-34.477],[-120.409,-34.031],[-120.16,-33.585],[-119.914,-33.138],[-119.671,-32.69],[-120.142,-32.411],[-120.61,-32.129],[-121.075,-31.846],[-121.538,-31.562],[-121.943,-31.281],[-122.346,-30.999],[-122.746,-30.715],[-123.144,-30.431],[-122.795,-30.046],[-122.449,-29.66],[-122.106,-29.274],[-121.765,-28.886],[-121.427,-28.498],[-121.091,-28.109],[-120.757,-27.719],[-120.426,-27.328],[-120.098,-26.936],[-119.771,-26.544],[-119.447,-26.151],[-119.767,-25.904],[-120.087,-25.657],[-120.404,-25.41],[-120.653,-25.06],[-120.901,-24.71],[-121.147,-24.359],[-120.811,-24.003],[-120.478,-23.645],[-120.146,-23.287],[-119.816,-22.928],[-119.487,-22.568],[-119.161,-22.208],[-118.836,-21.847],[-118.512,-21.486],[-118.19,-21.124],[-117.87,-20.761]]}},{"type":"Feature","properties":{"boundary_type":"ridge","feature_type":"gpml:MidOceanRidge","polarity":null,"overriding_plate_id":null,"subducting_plate_id":null,"plate_ids":[302,401],"name":"Laurentia-Baltica MOR"},"geometry":{"type":"LineString","coordinates":[[-117.87,-20.761],[-117.647,-20.506],[-117.94,-20.223],[-118.233,-19.94],[-118.524,-19.656],[-118.176,-19.323],[-117.83,-18.99],[-117.485,-18.655],[-117.142,-18.321],[-116.8,-17.985],[-116.459,-17.649]]}},{"type":"Feature","properties":{"boundary_type":"ridge","feature_type":"gpml:MidOceanRidge","polarity":null,"overriding_plate_id":null,"subducting_plate_id":null,"plate_ids":[801,8013],"name":"Tasmania-Antarctica MOR"},"geometry":{"type":"LineString","coordinates":[[113.363,12.308],[113.826,12.294],[114.289,12.279],[114.752,12.264],[115.215,12.247],[115.678,12.23],[116.141,12.212],[116.604,12.193],[116.7,11.707],[116.795,11.221],[116.89,10.735],[116.984,10.249],[117.079,9.763],[117.173,9.277],[117.266,8.791],[117.36,8.305],[117.453,7.819],[117.546,7.333],[117.639,6.846],[118.131,6.802],[118.622,6.756],[119.113,6.711],[119.604,6.664],[120.096,6.618],[120.587,6.57],[121.078,6.523],[121.568,6.474],[122.059,6.426],[122.55,6.377],[123.04,6.327],[123.531,6.277],[124.021,6.226],[124.511,6.175],[124.559,5.701],[124.607,5.227],[124.655,4.753],[124.702,4.278],[124.75,3.804],[124.797,3.33],[124.845,2.856],[124.892,2.381],[125.376,2.302],[125.859,2.222],[126.342,2.142],[126.825,2.062],[127.308,1.982],[127.792,1.902],[128.275,1.821],[128.758,1.741],[129.241,1.66],[129.723,1.58],[130.206,1.499],[130.689,1.418],[131.172,1.337],[131.655,1.255],[132.137,1.174],[132.62,1.093],[133.103,1.011],[133.152,0.571],[133.201,0.132],[133.25,-0.308],[133.3,-0.748],[133.349,-1.188],[133.398,-1.628],[133.447,-2.068],[133.497,-2.508],[133.939,-2.571],[134.381,-2.634],[134.823,-2.696],[135.265,-2.759],[135.707,-2.822],[136.15,-2.884],[136.592,-2.946],[136.611,-3.35],[136.631,-3.754],[136.65,-4.158],[136.67,-4.562],[137.137,-4.706],[137.605,-4.849],[138.073,-4.991],[138.542,-5.134],[139.01,-5.276],[139.479,-5.417],[139.948,-5.559],[140.417,-5.7],[140.886,-5.84],[141.356,-5.98],[141.826,-6.12],[142.296,-6.259],[142.766,-6.398],[143.237,-6.537],[143.708,-6.675],[144.179,-6.813],[144.121,-7.286],[144.064,-7.759],[144.007,-8.232],[143.949,-8.705],[143.891,-9.178],[144.349,-9.334],[144.807,-9.49],[145.265,-9.645],[145.724,-9.8],[146.184,-9.954],[146.643,-10.107],[147.104,-10.26],[147.564,-10.412],[148.025,-10.563],[148.487,-10.714],[148.949,-10.864],[149.412,-11.013],[149.874,-11.162],[150.338,-11.31]]}},{"type":"Feature","properties":{"boundary_type":"ridge","feature_type":"gpml:MidOceanRidge","polarity":null,"overriding_plate_id":null,"subducting_plate_id":null,"plate_ids":[8013,22042],"name":"Tasmania-Antarctica MOR"},"geometry":{"type":"LineString","coordinates":[[150.338,-11.31],[150.779,-11.45],[151.221,-11.589],[151.664,-11.728],[152.106,-11.866],[152.549,-12.004],[152.453,-12.41],[152.357,-12.816],[152.26,-13.223],[152.667,-13.416],[153.074,-13.609],[153.482,-13.801],[153.891,-13.992],[154.3,-14.183],[154.71,-14.373]]}},{"type":"Feature","properties":{"boundary_type":"ridge","feature_type":"gpml:MidOceanRidge","polarity":null,"overriding_plate_id":null,"subducting_plate_id":null,"plate_ids":[22042,98044],"name":"Tasmania-Antarctica MOR"},"geometry":{"type":"LineString","coordinates":[[154.71,-14.373],[155.149,-14.576],[155.589,-14.777],[156.03,-14.978],[156.472,-15.178],[156.915,-15.378],[157.358,-15.576],[157.298,-16.011],[157.237,-16.447],[157.176,-16.882],[157.649,-17.069],[158.122,-17.254],[158.596,-17.439],[159.072,-17.622],[159.548,-17.804],[160.025,-17.985],[160.503,-18.165],[160.982,-18.343],[161.462,-18.521],[161.944,-18.697],[162.426,-18.872],[162.909,-19.046],[163.393,-19.218],[163.878,-19.39],[164.364,-19.56]]}},{"type":"Feature","properties":{"boundary_type":"ridge","feature_type":"gpml:MidOceanRidge","polarity":null,"overriding_plate_id":null,"subducting_plate_id":null,"plate_ids":[101,22032],"name":"Pampia-Amazonia MoR"},"geometry":{"type":"LineString","coordinates":[[177.915,-33.783],[178.344,-34.046],[178.776,-34.308],[179.21,-34.568],[179.556,-34.194],[179.898,-33.82],[-179.688,-34.046],[-179.272,-34.27],[-178.854,-34.494],[-178.433,-34.715],[-178.154,-34.447],[-177.877,-34.178],[-177.601,-33.909],[-177.262,-33.584],[-176.925,-33.258],[-176.591,-32.931],[-176.26,-32.603],[-175.828,-32.833],[-175.394,-33.062],[-174.958,-33.289],[-174.519,-33.514],[-174.2,-33.202],[-173.883,-32.888],[-173.568,-32.574],[-173.256,-32.259],[-172.945,-31.943]]}},{"type":"Feature","properties":{"boundary_type":"ridge","feature_type":"gpml:MidOceanRidge","polarity":null,"overriding_plate_id":null,"subducting_plate_id":null,"plate_ids":[101,22032],"name":"RDLP-Pampia MoR"},"geometry":{"type":"LineString","coordinates":[[177.915,-33.783],[177.892,-33.294],[177.869,-32.805],[177.846,-32.316],[177.823,-31.827],[177.8,-31.338],[177.778,-30.849],[177.756,-30.36],[177.734,-29.87],[177.713,-29.381],[177.691,-28.892],[177.673,-28.414],[177.654,-27.936],[177.636,-27.459]]}},{"type":"Feature","properties":{"boundary_type":"ridge","feature_type":"gpml:MidOceanRidge","polarity":null,"overriding_plate_id":null,"subducting_plate_id":null,"plate_ids":[101,22042],"name":"RDLP-Pampia MoR"},"geometry":{"type":"LineString","coordinates":[[177.636,-27.459],[177.63,-27.309],[177.194,-27.352],[176.757,-27.394],[176.561,-26.983],[176.365,-26.572],[176.172,-26.16],[175.98,-25.749],[175.789,-25.337],[175.599,-24.924],[175.411,-24.512],[175.223,-24.099],[175.037,-23.687],[174.527,-23.763],[174.016,-23.838],[173.504,-23.911],[172.982,-23.994],[172.458,-24.076],[171.934,-24.155],[171.41,-24.233],[171.324,-23.785],[171.24,-23.336],[171.156,-22.887],[171.072,-22.439],[170.57,-22.487],[170.067,-22.533],[169.564,-22.578],[169.061,-22.621],[168.557,-22.663],[168.46,-22.207],[167.951,-22.256],[167.442,-22.303],[166.933,-22.349],[166.423,-22.393],[165.913,-22.436],[165.403,-22.477],[164.892,-22.516],[164.381,-22.554],[163.87,-22.591],[163.359,-22.625],[162.847,-22.658],[162.855,-22.508]]}},{"type":"Feature","properties":{"boundary_type":"ridge","feature_type":"gpml:MidOceanRidge","polarity":null,"overriding_plate_id":null,"subducting_plate_id":null,"plate_ids":[101,22032],"name":"Iapetus MoR"},"geometry":{"type":"LineString","coordinates":[[-135.811,-38.678],[-136.442,-38.674],[-137.073,-38.667],[-137.703,-38.656],[-138.334,-38.642],[-138.964,-38.624],[-139.593,-38.603],[-140.222,-38.579],[-140.851,-38.552],[-141.479,-38.521],[-142.107,-38.486],[-142.734,-38.448],[-143.361,-38.407],[-143.986,-38.363],[-144.611,-38.315],[-145.235,-38.264],[-145.858,-38.21],[-146.481,-38.152],[-147.102,-38.092],[-147.722,-38.027],[-148.341,-37.96],[-148.959,-37.889],[-149.575,-37.816],[-150.19,-37.739],[-150.805,-37.658],[-151.417,-37.575],[-152.028,-37.488],[-152.638,-37.399],[-153.247,-37.306],[-153.151,-36.925],[-153.056,-36.543],[-152.962,-36.162],[-152.869,-35.781],[-153.445,-35.665],[-154.018,-35.546],[-154.59,-35.424],[-155.161,-35.299],[-155.729,-35.172],[-156.296,-35.043],[-156.86,-34.91],[-157.423,-34.775],[-157.985,-34.638],[-158.544,-34.498],[-159.101,-34.355],[-159.657,-34.21],[-160.21,-34.062],[-160.762,-33.912],[-160.63,-33.529],[-160.5,-33.145],[-160.371,-32.761],[-160.911,-32.644],[-161.45,-32.525],[-161.988,-32.403],[-162.524,-32.279],[-163.058,-32.153],[-163.591,-32.024],[-164.123,-31.893],[-164.653,-31.76],[-165.181,-31.625],[-165.708,-31.488],[-166.233,-31.348],[-166.757,-31.207],[-167.055,-31.632],[-167.355,-32.057],[-167.657,-32.481],[-167.963,-32.904],[-168.272,-33.327],[-168.583,-33.749],[-169.077,-33.556],[-169.568,-33.361],[-170.057,-33.164],[-170.544,-32.965],[-171.029,-32.764],[-171.511,-32.562],[-171.991,-32.357],[-172.469,-32.151],[-172.945,-31.943]]}},{"type":"Feature","properties":{"boundary_type":"ridge","feature_type":"gpml:MidOceanRidge","polarity":null,"overriding_plate_id":null,"subducting_plate_id":null,"plate_ids":[22032,22042],"name":"RDLP-Amazonia MoR"},"geometry":{"type":"LineString","coordinates":[[177.636,-27.459],[177.171,-27.647],[176.704,-27.833],[176.235,-28.018],[176.359,-28.501],[176.484,-28.983],[176.609,-29.465],[176.736,-29.948],[176.865,-30.43],[176.994,-30.912],[177.125,-31.394],[176.575,-31.544],[176.023,-31.693],[175.469,-31.839],[174.913,-31.983],[174.356,-32.124],[173.797,-32.263],[173.236,-32.399],[172.674,-32.533],[172.11,-32.664],[171.544,-32.793],[170.977,-32.92],[170.408,-33.043],[169.837,-33.164]]}},{"type":"Feature","properties":{"boundary_type":"ridge","feature_type":"gpml:MidOceanRidge","polarity":null,"overriding_plate_id":null,"subducting_plate_id":null,"plate_ids":[201,22042],"name":"RDLP-Amazonia MoR"},"geometry":{"type":"LineString","coordinates":[[169.837,-33.164],[169.706,-33.192],[169.851,-33.666],[169.998,-34.14],[170.146,-34.615],[170.296,-35.089],[170.448,-35.562],[170.601,-36.036],[170.756,-36.509],[170.914,-36.982],[171.073,-37.455],[171.234,-37.928],[170.671,-38.013],[170.107,-38.095],[169.541,-38.174],[168.974,-38.251],[168.406,-38.325],[167.837,-38.397],[167.267,-38.465],[166.695,-38.531],[166.123,-38.594]]}},{"type":"Feature","properties":{"boundary_type":"ridge","feature_type":"gpml:MidOceanRidge","polarity":null,"overriding_plate_id":null,"subducting_plate_id":null,"plate_ids":[501,606],"name":"South China-North China MoR"},"geometry":{"type":"LineString","coordinates":[[88.112,2.451],[87.841,2.595],[87.95,2.861],[88.059,3.128],[87.636,3.353]]}},{"type":"Feature","properties":{"boundary_type":"ridge","feature_type":"gpml:MidOceanRidge","polarity":null,"overriding_plate_id":null,"subducting_plate_id":null,"plate_ids":[501,601],"name":"South China-North China MoR"},"geometry":{"type":"LineString","coordinates":[[87.636,3.353],[87.215,3.577],[86.793,3.801],[86.372,4.025],[85.95,4.248],[85.528,4.472],[85.105,4.695],[84.683,4.918],[84.26,5.14],[83.836,5.363],[83.413,5.585],[82.989,5.806],[82.565,6.028],[82.14,6.249],[81.715,6.47],[81.29,6.69],[80.864,6.91],[80.438,7.13],[80.609,7.555],[80.781,7.981],[80.952,8.406],[81.124,8.831],[81.297,9.256],[80.874,9.437],[80.45,9.617],[80.026,9.796],[79.601,9.975],[79.176,10.154],[78.75,10.331],[78.324,10.509],[77.897,10.685],[77.47,10.862],[77.043,11.037],[76.615,11.212],[76.792,11.657],[76.97,12.102],[77.148,12.547],[77.327,12.992],[77.507,13.437],[77.687,13.882],[77.231,14.062],[76.773,14.242],[76.315,14.42],[75.856,14.598],[75.396,14.775],[74.936,14.951],[74.475,15.126],[74.013,15.3],[73.55,15.473],[73.086,15.645],[72.622,15.816],[72.157,15.986],[71.691,16.156],[71.224,16.324],[71.46,16.763],[71.697,17.202],[71.935,17.641],[72.175,18.08],[72.415,18.518],[71.949,18.698],[71.482,18.876],[71.014,19.053],[70.545,19.229],[70.075,19.404],[69.604,19.578],[69.132,19.75],[68.659,19.922],[68.185,20.092],[67.71,20.26],[67.234,20.428],[66.756,20.594],[66.278,20.758],[65.799,20.922],[65.319,21.084],[64.837,21.245],[64.355,21.404],[63.871,21.562],[63.387,21.719],[63.589,22.149],[63.793,22.578],[63.998,23.007],[64.204,23.436],[64.411,23.865],[64.62,24.293],[64.14,24.432],[63.659,24.569],[63.177,24.705],[62.694,24.839],[62.21,24.972],[61.725,25.103],[61.239,25.232],[60.752,25.36],[60.263,25.486]]}},{"type":"Feature","properties":{"boundary_type":"ridge","feature_type":"gpml:MidOceanRidge","polarity":null,"overriding_plate_id":null,"subducting_plate_id":null,"plate_ids":[801],"name":"NAC-SAC MOR"},"geometry":{"type":"LineString","coordinates":[[113.274,14.558],[113.018,14.295],[112.764,14.033],[112.992,13.675],[113.22,13.317],[113.448,12.96],[113.674,12.601],[113.901,12.243],[114.126,11.885],[113.848,11.755],[113.571,11.625]]}},{"type":"Feature","properties":{"boundary_type":"ridge","feature_type":"gpml:MidOceanRidge","polarity":null,"overriding_plate_id":null,"subducting_plate_id":null,"plate_ids":[801,8011],"name":"NAC-SAC MOR"},"geometry":{"type":"LineString","coordinates":[[113.571,11.625],[113.207,11.454],[112.844,11.282],[112.481,11.11],[112.118,10.937],[112.278,10.731],[111.893,10.539],[111.508,10.346],[111.123,10.153],[110.739,9.959],[110.356,9.765],[110.554,9.446],[110.752,9.127],[110.95,8.808],[110.562,8.643],[110.174,8.478],[109.787,8.312],[109.399,8.146]]}},{"type":"Feature","properties":{"boundary_type":"ridge","feature_type":"gpml:MidOceanRidge","polarity":null,"overriding_plate_id":null,"subducting_plate_id":null,"plate_ids":[101,98044],"name":"Missing-Link ridge"},"geometry":{"type":"LineString","coordinates":[[167.841,-4.068],[168.311,-3.921],[168.782,-3.774],[169.252,-3.627],[169.722,-3.48],[170.193,-3.332],[170.662,-3.184],[171.132,-3.036],[171.602,-2.888],[171.51,-2.466],[171.418,-2.045],[171.326,-1.624],[171.234,-1.202],[171.142,-0.781],[171.05,-0.36],[170.958,0.062],[171.412,0.216],[171.866,0.371],[172.321,0.526],[172.775,0.68],[173.229,0.835],[173.684,0.989],[174.138,1.144],[174.592,1.298]]}},{"type":"Feature","properties":{"boundary_type":"ridge","feature_type":"gpml:MidOceanRidge","polarity":null,"overriding_plate_id":null,"subducting_plate_id":null,"plate_ids":[101,1019],"name":"Missing-Link ridge"},"geometry":{"type":"LineString","coordinates":[[174.592,1.298],[175.054,1.455],[175.516,1.611],[175.978,1.768],[176.44,1.924],[176.902,2.081],[177.364,2.237],[177.826,2.393],[178.289,2.549],[178.751,2.705],[179.214,2.86],[179.092,3.306],[178.971,3.753],[178.849,4.199],[178.727,4.645],[178.605,5.091],[178.483,5.538],[178.361,5.984],[178.238,6.43],[178.712,6.575],[179.186,6.719],[179.66,6.863],[-179.865,7.006],[-179.39,7.149],[-178.915,7.291],[-178.44,7.433],[-177.964,7.574],[-177.488,7.715],[-177.012,7.856],[-176.535,7.995],[-176.058,8.135],[-175.581,8.273],[-175.103,8.411],[-174.625,8.549],[-174.147,8.686],[-173.668,8.822],[-173.189,8.958],[-172.709,9.093],[-172.23,9.228],[-171.75,9.361],[-171.269,9.495],[-170.788,9.627],[-170.307,9.759],[-169.825,9.89],[-169.343,10.021],[-168.861,10.151],[-168.378,10.28],[-167.895,10.408],[-167.411,10.536],[-166.927,10.663],[-166.443,10.789],[-165.958,10.915],[-165.473,11.039],[-165.297,10.595],[-165.122,10.15],[-164.948,9.705],[-164.774,9.261],[-164.6,8.816],[-164.427,8.371],[-164.254,7.926],[-163.763,8.012],[-163.271,8.098],[-162.779,8.184],[-162.287,8.269],[-161.795,8.353],[-161.303,8.437],[-160.81,8.52],[-160.317,8.602],[-159.824,8.684],[-159.331,8.765],[-158.838,8.846],[-158.344,8.926],[-157.85,9.005],[-157.356,9.084],[-156.862,9.162],[-156.367,9.239],[-155.873,9.315],[-155.378,9.391],[-154.882,9.466],[-154.387,9.541],[-153.891,9.615],[-153.396,9.688],[-152.9,9.76],[-152.403,9.832],[-151.907,9.903],[-151.41,9.973],[-150.913,10.043],[-150.416,10.111],[-149.919,10.179],[-149.421,10.247],[-148.923,10.313],[-148.426,10.379],[-147.927,10.444],[-147.429,10.508],[-146.93,10.571],[-146.432,10.634],[-145.933,10.696],[-145.434,10.757],[-144.934,10.817],[-144.435,10.876],[-143.935,10.935],[-143.435,10.993],[-143.322,10.515],[-143.209,10.036],[-143.096,9.558],[-142.984,9.08],[-142.872,8.601],[-142.383,8.663],[-141.894,8.725],[-141.405,8.786],[-140.915,8.846],[-140.425,8.905],[-139.935,8.964],[-139.445,9.023],[-138.955,9.08],[-138.465,9.137],[-137.974,9.194],[-137.484,9.249],[-136.993,9.304]]}},{"type":"Feature","properties":{"boundary_type":"ridge","feature_type":"gpml:MidOceanRidge","polarity":null,"overriding_plate_id":null,"subducting_plate_id":null,"plate_ids":[101,401],"name":"Missing-Link ridge"},"geometry":{"type":"LineString","coordinates":[[-136.993,9.304],[-136.494,9.36],[-135.996,9.414],[-135.497,9.468],[-134.998,9.521],[-134.499,9.573],[-133.999,9.625],[-133.5,9.676],[-133.0,9.726],[-132.501,9.776],[-132.001,9.824]]}},{"type":"Feature","properties":{"boundary_type":"ridge","feature_type":"gpml:MidOceanRidge","polarity":null,"overriding_plate_id":null,"subducting_plate_id":null,"plate_ids":[401,98044],"name":"Siberia MoR"},"geometry":{"type":"LineString","coordinates":[[-148.421,15.859],[-148.275,16.332],[-148.128,16.806],[-147.981,17.279],[-147.832,17.752],[-147.683,18.225],[-147.533,18.698],[-147.383,19.171],[-147.231,19.644],[-147.079,20.116],[-146.926,20.589],[-146.771,21.061],[-146.616,21.533],[-146.46,22.005],[-146.302,22.477],[-146.144,22.949],[-145.984,23.42],[-145.824,23.892],[-145.662,24.363],[-145.499,24.834],[-145.335,25.305],[-145.169,25.776],[-145.002,26.246],[-144.834,26.717],[-144.664,27.187],[-144.493,27.657],[-144.321,28.126],[-144.147,28.596],[-143.971,29.065],[-143.794,29.534],[-144.318,29.584],[-144.842,29.632],[-145.367,29.678],[-145.892,29.721],[-146.418,29.763],[-146.944,29.803],[-146.94,29.825]]}},{"type":"Feature","properties":{"boundary_type":"ridge","feature_type":"gpml:MidOceanRidge","polarity":null,"overriding_plate_id":null,"subducting_plate_id":null,"plate_ids":[501,98043],"name":"MoR"},"geometry":{"type":"LineString","coordinates":[[52.766,64.359],[51.779,64.121],[50.81,63.876],[49.857,63.625],[48.921,63.368],[48.003,63.104],[47.1,62.835],[46.215,62.56],[45.345,62.28],[44.492,61.994],[43.655,61.703],[42.834,61.407],[42.028,61.106],[41.238,60.801],[40.462,60.491],[39.702,60.176],[38.956,59.858],[38.224,59.535],[37.506,59.208],[36.802,58.877],[36.111,58.543],[35.433,58.204],[34.769,57.863],[34.116,57.518],[33.476,57.169],[32.848,56.818],[32.232,56.463],[32.789,56.159],[33.337,55.853],[33.877,55.544],[34.408,55.233],[34.931,54.919],[35.445,54.604],[35.952,54.286],[35.434,53.898],[34.925,53.509],[34.425,53.117],[33.935,52.723],[33.453,52.327],[32.98,51.93],[32.515,51.53],[32.058,51.129],[31.609,50.726],[31.168,50.321],[30.735,49.914],[30.308,49.506],[29.889,49.097],[29.476,48.686],[29.07,48.273],[28.671,47.859],[28.278,47.444],[27.891,47.027],[27.511,46.609],[27.136,46.19],[26.766,45.77],[26.403,45.348],[26.044,44.925],[25.691,44.502],[25.343,44.077],[25.0,43.651],[24.662,43.224],[24.328,42.796],[23.999,42.367],[23.675,41.938],[23.355,41.507],[23.039,41.075],[22.727,40.643],[22.42,40.21],[22.116,39.776],[21.816,39.341],[21.52,38.905],[21.227,38.469],[20.938,38.032],[20.652,37.594],[20.37,37.156],[20.091,36.717],[19.815,36.277],[19.542,35.837],[19.272,35.396],[19.005,34.954],[18.741,34.512],[18.48,34.069],[18.221,33.626],[17.965,33.182],[17.712,32.738],[17.461,32.293],[17.213,31.848],[16.967,31.402],[16.723,30.956],[17.094,30.688],[17.462,30.419],[17.829,30.148],[18.193,29.877],[17.92,29.451],[17.649,29.023],[17.38,28.596],[17.114,28.167],[16.849,27.739],[16.587,27.309],[16.327,26.88],[16.068,26.449],[15.812,26.019],[15.557,25.588],[15.305,25.156],[15.054,24.724],[14.804,24.292],[14.557,23.859],[14.311,23.426],[14.067,22.992],[13.824,22.558],[13.583,22.124],[13.343,21.689],[13.105,21.254],[12.868,20.819],[12.633,20.383],[12.398,19.947],[12.166,19.511],[11.934,19.074],[12.404,18.852],[12.874,18.629],[13.341,18.405],[13.808,18.18],[14.274,17.953],[14.738,17.726],[15.201,17.497],[15.663,17.267],[15.472,16.823],[15.282,16.38],[15.093,15.935],[14.905,15.491],[14.718,15.047],[14.531,14.602],[14.346,14.158],[14.161,13.713],[13.976,13.268],[13.793,12.823],[13.609,12.378],[13.427,11.932],[13.245,11.487],[13.064,11.041],[12.883,10.596],[12.703,10.15],[12.523,9.704],[12.344,9.258],[12.704,9.072],[13.063,8.886],[13.422,8.699],[13.78,8.513],[14.138,8.325],[13.943,7.866],[13.749,7.407],[13.556,6.948],[13.362,6.489],[13.169,6.029],[12.977,5.57],[12.784,5.11],[12.592,4.651],[12.401,4.191],[12.209,3.732],[12.018,3.272],[11.826,2.812],[11.635,2.353],[11.444,1.893],[11.254,1.433],[11.063,0.973],[10.872,0.513],[10.681,0.053],[10.491,-0.406],[10.3,-0.866],[10.109,-1.326],[9.919,-1.786],[10.355,-2.017],[10.792,-2.249],[11.23,-2.48],[11.667,-2.711],[12.104,-2.942],[12.542,-3.172],[12.98,-3.403],[13.418,-3.633],[13.265,-4.081],[13.111,-4.529],[12.957,-4.977],[12.804,-5.425],[12.649,-5.872],[12.495,-6.32],[12.34,-6.768],[12.185,-7.215],[12.03,-7.663],[11.875,-8.111],[11.719,-8.558],[12.099,-8.764],[12.48,-8.97],[12.861,-9.175]]}},{"type":"Feature","properties":{"boundary_type":"ridge","feature_type":"gpml:MidOceanRidge","polarity":null,"overriding_plate_id":null,"subducting_plate_id":null,"plate_ids":[601,606],"name":"North China-Australia divergence"},"geometry":{"type":"LineString","coordinates":[[87.636,3.353],[87.861,3.763],[88.086,4.173],[88.311,4.583],[88.536,4.993],[88.762,5.403],[88.988,5.813],[89.214,6.223],[89.441,6.633],[89.668,7.042],[89.895,7.452],[90.123,7.861],[90.352,8.27]]}},{"type":"Feature","properties":{"boundary_type":"ridge","feature_type":"gpml:MidOceanRidge","polarity":null,"overriding_plate_id":null,"subducting_plate_id":null,"plate_ids":[601,8011],"name":"North China-Australia divergence"},"geometry":{"type":"LineString","coordinates":[[90.352,8.27],[90.521,8.573],[90.691,8.876],[90.861,9.179],[91.243,9.013],[91.626,8.846],[92.008,8.679],[92.39,8.512],[92.618,8.946],[92.846,9.379],[93.075,9.813],[93.305,10.246],[93.535,10.679],[93.766,11.112],[93.997,11.545],[94.23,11.978],[94.463,12.411],[94.697,12.843],[94.931,13.275],[95.167,13.707],[95.403,14.138],[95.64,14.57],[95.878,15.001],[96.118,15.432],[96.358,15.863],[96.599,16.293],[96.289,16.638],[95.978,16.983],[95.666,17.327],[95.907,17.755],[96.149,18.183],[96.392,18.61],[96.636,19.037],[96.882,19.464],[97.129,19.89],[97.377,20.316],[97.626,20.741],[97.877,21.167],[98.13,21.591],[98.384,22.016],[98.639,22.44],[98.896,22.864],[99.155,23.287],[99.415,23.71],[99.677,24.132],[99.94,24.554],[100.206,24.976],[100.473,25.397],[100.742,25.817],[101.04,25.513],[101.337,25.209],[101.632,24.904],[101.908,25.335],[102.185,25.764],[102.465,26.194],[102.747,26.623],[103.031,27.051]]}},{"type":"Feature","properties":{"boundary_type":"ridge","feature_type":"gpml:MidOceanRidge","polarity":null,"overriding_plate_id":null,"subducting_plate_id":null,"plate_ids":[601,98044],"name":"North China-Australia divergence"},"geometry":{"type":"LineString","coordinates":[[103.031,27.051],[103.3,27.452],[103.57,27.853],[103.843,28.254],[104.118,28.654],[104.395,29.053],[104.674,29.452],[104.955,29.851],[105.238,30.248]]}},{"type":"Feature","properties":{"boundary_type":"ridge","feature_type":"gpml:MidOceanRidge","polarity":null,"overriding_plate_id":null,"subducting_plate_id":null,"plate_ids":[98043,98044],"name":"MoR"},"geometry":{"type":"LineString","coordinates":[[52.296,64.889],[52.841,65.226],[53.401,65.561],[53.975,65.894],[54.565,66.224],[55.17,66.553],[56.257,66.338],[57.325,66.116],[58.374,65.887],[59.405,65.651],[59.977,66.087],[60.569,66.521],[61.182,66.953],[61.817,67.382],[62.475,67.809],[63.157,68.233],[63.865,68.655],[64.601,69.073],[65.364,69.488],[66.158,69.899],[66.983,70.307],[67.842,70.71],[68.736,71.11],[69.667,71.505],[70.636,71.895],[71.647,72.281],[72.701,72.661],[73.8,73.035],[74.947,73.403],[76.144,73.764],[77.394,74.119],[78.698,74.466],[80.06,74.805],[81.482,75.135],[82.966,75.457],[84.514,75.768],[86.129,76.069],[87.813,76.359],[89.567,76.638],[91.393,76.903],[93.291,77.156],[95.261,77.394],[97.304,77.617],[99.418,77.824],[101.601,78.015],[103.85,78.189],[106.162,78.344],[108.532,78.48],[110.954,78.597],[113.42,78.693],[115.924,78.769],[118.457,78.823],[121.009,78.856],[123.571,78.868],[126.134,78.857],[128.687,78.825],[131.221,78.772],[133.726,78.697],[136.194,78.602],[138.618,78.486],[140.99,78.351],[143.305,78.196],[145.558,78.024],[147.744,77.834],[149.861,77.627],[151.907,77.405],[153.881,77.167],[155.782,76.916],[157.611,76.65],[159.369,76.373],[161.056,76.083],[162.674,75.783],[164.226,75.472],[165.713,75.151],[167.137,74.821],[168.502,74.482],[169.809,74.135],[171.061,73.781],[172.261,73.42],[173.41,73.052],[174.511,72.678],[175.567,72.299],[176.58,71.914],[177.551,71.523],[178.484,71.129],[179.379,70.729],[-179.76,70.326],[-178.933,69.918],[-178.138,69.507],[-177.373,69.092],[-176.445,69.405],[-175.489,69.712],[-174.506,70.014],[-173.494,70.31],[-172.453,70.601],[-171.381,70.885],[-170.279,71.163],[-169.146,71.434],[-168.45,70.993],[-167.785,70.549],[-167.149,70.103],[-166.539,69.655],[-165.955,69.204],[-165.394,68.752],[-164.856,68.298],[-164.339,67.843],[-163.842,67.385],[-163.363,66.927],[-162.902,66.467],[-162.458,66.005],[-162.03,65.543],[-161.617,65.079],[-161.217,64.614],[-160.832,64.148],[-160.459,63.681],[-160.098,63.213],[-159.748,62.744],[-159.41,62.275],[-159.082,61.804],[-158.763,61.333],[-158.455,60.861],[-158.155,60.389],[-157.864,59.916],[-157.581,59.442],[-157.306,58.967],[-157.038,58.492],[-156.777,58.017],[-156.524,57.541],[-156.277,57.064],[-156.036,56.587],[-155.801,56.11],[-155.572,55.632],[-155.348,55.154],[-155.13,54.675],[-154.917,54.196],[-154.708,53.716],[-154.505,53.236],[-154.306,52.756],[-154.111,52.276],[-153.92,51.795],[-153.734,51.314],[-153.551,50.832],[-153.372,50.351],[-153.197,49.869],[-153.025,49.387],[-152.856,48.904],[-152.691,48.421],[-152.529,47.939],[-152.37,47.455],[-152.213,46.972],[-152.06,46.488],[-151.909,46.005],[-151.761,45.521],[-151.615,45.037],[-151.472,44.552],[-151.331,44.068],[-151.192,43.583],[-151.056,43.098],[-150.922,42.613],[-150.79,42.128],[-150.66,41.643],[-150.531,41.157],[-149.996,41.248],[-149.458,41.337],[-148.919,41.424],[-148.379,41.508],[-147.837,41.589],[-147.762,41.1],[-147.687,40.611],[-147.613,40.122],[-147.541,39.632],[-147.469,39.143],[-147.399,38.654],[-147.329,38.165],[-147.26,37.675],[-147.193,37.186],[-147.126,36.697],[-147.06,36.207],[-146.995,35.718],[-146.93,35.228],[-146.866,34.738],[-146.804,34.249],[-146.741,33.759],[-146.68,33.27],[-146.619,32.78],[-146.559,32.29],[-146.5,31.8],[-146.441,31.311],[-146.382,30.821],[-146.325,30.331],[-146.268,29.841]]}},{"type":"Feature","properties":{"boundary_type":"ridge","feature_type":"gpml:MidOceanRidge","polarity":null,"overriding_plate_id":null,"subducting_plate_id":null,"plate_ids":[501,98043],"name":"Gondwana-Mirovoi MOR"},"geometry":{"type":"LineString","coordinates":[[-25.634,-37.813],[-25.099,-37.581],[-24.567,-37.345],[-24.038,-37.108],[-23.513,-36.868],[-22.991,-36.626],[-22.473,-36.381],[-21.957,-36.135],[-21.445,-35.886],[-20.937,-35.635],[-20.62,-36.036],[-20.301,-36.437],[-19.978,-36.837],[-19.651,-37.236],[-19.149,-36.971],[-18.649,-36.703],[-18.154,-36.434],[-17.662,-36.162],[-17.173,-35.888],[-16.687,-35.613],[-16.205,-35.335],[-15.726,-35.056],[-15.251,-34.774],[-14.779,-34.491],[-14.31,-34.206],[-13.844,-33.92],[-13.381,-33.631],[-12.921,-33.341],[-12.465,-33.049],[-12.011,-32.755],[-11.561,-32.46],[-11.113,-32.164],[-10.668,-31.865],[-10.226,-31.565],[-9.787,-31.264],[-9.351,-30.961],[-8.918,-30.657],[-8.487,-30.351],[-8.059,-30.044],[-7.634,-29.736],[-7.982,-29.461],[-8.329,-29.186],[-8.673,-28.909],[-8.278,-28.566],[-7.886,-28.222],[-7.496,-27.876],[-7.109,-27.53],[-6.724,-27.182],[-6.342,-26.834],[-5.962,-26.484],[-5.584,-26.133],[-5.209,-25.782],[-4.835,-25.429],[-4.464,-25.076],[-4.095,-24.721],[-3.728,-24.366],[-3.364,-24.01],[-3.001,-23.653],[-2.64,-23.295],[-2.281,-22.936],[-1.924,-22.577],[-1.569,-22.217],[-1.216,-21.855],[-0.864,-21.494],[-0.515,-21.131],[-0.167,-20.768],[0.18,-20.404],[0.525,-20.039],[0.868,-19.674],[1.209,-19.308],[1.549,-18.941],[1.888,-18.574],[2.225,-18.207],[2.561,-17.838],[2.895,-17.469],[3.228,-17.1],[3.56,-16.73],[3.89,-16.359],[4.219,-15.988],[4.547,-15.616],[4.873,-15.244],[5.126,-15.553],[5.378,-15.862],[5.632,-16.17],[5.886,-16.478],[6.246,-16.118],[6.604,-15.757],[6.96,-15.395],[7.316,-15.033],[7.67,-14.671],[8.023,-14.307],[8.375,-13.944],[8.726,-13.579],[9.076,-13.215],[9.424,-12.849],[9.772,-12.484],[10.119,-12.118],[10.465,-11.751],[10.81,-11.384],[11.153,-11.017],[11.497,-10.649],[11.839,-10.281],[12.18,-9.913],[12.521,-9.544],[12.861,-9.175]]}},{"type":"Feature","properties":{"boundary_type":"ridge","feature_type":"gpml:MidOceanRidge","polarity":null,"overriding_plate_id":null,"subducting_plate_id":null,"plate_ids":[302,22032],"name":"Amazonia-Baltica MOR"},"geometry":{"type":"LineString","coordinates":[[-20.789,-44.48],[-21.386,-44.729],[-21.988,-44.976],[-22.596,-45.219],[-23.208,-45.459],[-23.826,-45.695],[-24.449,-45.929],[-25.078,-46.158],[-25.711,-46.385],[-26.35,-46.608],[-26.994,-46.827],[-27.643,-47.043],[-28.298,-47.254],[-28.958,-47.463],[-29.623,-47.667],[-30.293,-47.867],[-30.968,-48.064],[-31.648,-48.257],[-32.334,-48.445],[-33.024,-48.63],[-33.72,-48.81],[-34.42,-48.986],[-35.126,-49.158],[-35.836,-49.325],[-36.551,-49.488],[-37.271,-49.647],[-37.995,-49.801],[-38.724,-49.951],[-39.457,-50.096],[-40.195,-50.236],[-40.937,-50.372],[-41.683,-50.503],[-42.434,-50.629],[-42.824,-50.251],[-43.208,-49.872],[-43.587,-49.492],[-43.959,-49.111],[-44.326,-48.729],[-44.687,-48.345],[-45.043,-47.961],[-45.394,-47.575],[-45.739,-47.188],[-46.08,-46.8],[-46.751,-46.995],[-47.426,-47.186],[-48.107,-47.373],[-48.792,-47.557],[-49.482,-47.736],[-50.177,-47.91],[-50.877,-48.081],[-51.581,-48.247],[-52.289,-48.409],[-53.003,-48.567],[-53.72,-48.72],[-54.442,-48.869],[-55.168,-49.013],[-55.898,-49.152],[-56.632,-49.287],[-57.371,-49.418],[-58.113,-49.543],[-58.858,-49.664],[-59.608,-49.78],[-60.361,-49.891],[-61.117,-49.997],[-61.014,-50.429],[-60.909,-50.86],[-60.801,-51.291],[-60.692,-51.722],[-60.581,-52.153],[-61.369,-52.234],[-62.16,-52.31],[-62.953,-52.38],[-63.749,-52.445],[-64.547,-52.505],[-65.348,-52.559],[-66.15,-52.608],[-66.954,-52.652],[-67.759,-52.689],[-68.566,-52.722],[-69.373,-52.749],[-70.182,-52.771],[-70.991,-52.787],[-71.801,-52.797],[-71.727,-53.239],[-71.652,-53.681],[-71.575,-54.122],[-71.496,-54.564],[-71.416,-55.005],[-71.334,-55.447],[-71.249,-55.888],[-71.164,-56.33],[-72.065,-56.328],[-72.966,-56.319],[-73.867,-56.304],[-74.767,-56.282],[-75.665,-56.254],[-76.562,-56.219],[-77.458,-56.178],[-78.351,-56.13],[-79.242,-56.076],[-80.13,-56.015],[-81.015,-55.948],[-81.897,-55.875],[-82.776,-55.795],[-83.651,-55.71],[-84.522,-55.618],[-85.389,-55.52],[-86.251,-55.415],[-87.109,-55.305],[-87.961,-55.189],[-88.809,-55.067],[-89.237,-55.473],[-89.673,-55.879],[-90.119,-56.282],[-90.574,-56.684],[-91.039,-57.084],[-91.514,-57.482],[-91.999,-57.879],[-92.496,-58.274],[-93.003,-58.666],[-93.522,-59.057],[-94.053,-59.445],[-94.596,-59.832],[-95.259,-60.195],[-95.937,-60.555],[-96.774,-60.296],[-97.597,-60.033],[-98.407,-59.765],[-99.204,-59.491],[-99.988,-59.213],[-100.759,-58.93],[-101.364,-59.239],[-101.98,-59.545],[-102.607,-59.847],[-103.245,-60.147],[-103.896,-60.444],[-104.558,-60.737],[-105.232,-61.027],[-105.997,-60.708],[-106.746,-60.384],[-107.481,-60.056],[-108.201,-59.724],[-108.906,-59.388],[-109.598,-59.048],[-110.277,-58.705],[-110.942,-58.359],[-111.493,-58.51],[-112.05,-58.658],[-112.669,-58.354],[-113.277,-58.046],[-113.875,-57.736],[-114.462,-57.423],[-115.04,-57.107],[-115.607,-56.789],[-116.166,-56.468],[-116.714,-56.144],[-117.322,-56.284],[-117.934,-56.422],[-118.484,-56.069],[-119.024,-55.714],[-119.554,-55.357],[-120.074,-54.998],[-120.586,-54.636],[-121.088,-54.272],[-121.854,-54.431],[-122.625,-54.584],[-123.009,-54.257],[-123.386,-53.928],[-123.758,-53.599],[-124.124,-53.268],[-124.797,-53.416],[-125.475,-53.561],[-126.158,-53.702],[-126.845,-53.839],[-127.192,-53.399],[-127.532,-52.959],[-127.865,-52.518],[-128.192,-52.075],[-128.512,-51.632],[-128.826,-51.188],[-129.134,-50.743],[-129.548,-50.791],[-129.963,-50.836]]}},{"type":"Feature","properties":{"boundary_type":"ridge","feature_type":"gpml:MidOceanRidge","polarity":null,"overriding_plate_id":null,"subducting_plate_id":null,"plate_ids":[101,22032],"name":"Amazonia-Baltica MOR"},"geometry":{"type":"LineString","coordinates":[[-129.963,-50.836],[-130.521,-50.895],[-131.081,-50.952],[-131.642,-51.006],[-131.84,-50.535],[-132.035,-50.063],[-132.225,-49.592],[-132.413,-49.12],[-132.596,-48.648],[-132.776,-48.175],[-132.953,-47.702],[-133.127,-47.229],[-133.297,-46.756],[-133.465,-46.283],[-133.629,-45.809],[-133.791,-45.335],[-133.951,-44.861],[-134.107,-44.386],[-134.261,-43.911],[-134.413,-43.437],[-134.562,-42.962],[-134.709,-42.486],[-134.854,-42.011],[-134.997,-41.535],[-135.138,-41.059],[-135.276,-40.584],[-135.413,-40.107],[-135.547,-39.631],[-135.68,-39.155],[-135.811,-38.678]]}},{"type":"Feature","properties":{"boundary_type":"transform","feature_type":"gpml:Transform","polarity":null,"overriding_plate_id":null,"subducting_plate_id":null,"plate_ids":[401,98043],"name":"Siberia-CMT transform"},"geometry":{"type":"LineString","coordinates":[[-84.345,18.87],[-84.493,18.397],[-84.64,17.925],[-84.705,17.496],[-84.771,17.067],[-84.836,16.638],[-84.901,16.21],[-84.966,15.781],[-85.03,15.352],[-85.157,14.911],[-85.283,14.469],[-85.408,14.028],[-85.703,13.678],[-85.996,13.328],[-86.289,12.977],[-86.581,12.626],[-86.872,12.275],[-87.162,11.924],[-87.43,11.576],[-87.698,11.228],[-87.966,10.88],[-88.232,10.531],[-88.498,10.183],[-88.764,9.834]]}},{"type":"Feature","properties":{"boundary_type":"transform","feature_type":"gpml:Transform","polarity":null,"overriding_plate_id":null,"subducting_plate_id":null,"plate_ids":[606,8011],"name":"Aus-India transform"},"geometry":{"type":"LineString","coordinates":[[90.352,8.27],[90.542,7.828],[90.733,7.386],[90.922,6.944],[91.112,6.501],[91.301,6.059],[91.49,5.616],[91.679,5.174],[91.867,4.731],[91.975,4.268],[92.083,3.805],[92.19,3.342],[92.298,2.879],[92.405,2.416],[92.513,1.953],[92.62,1.49],[92.727,1.027],[92.835,0.564],[92.942,0.101],[93.049,-0.362],[93.156,-0.825],[93.264,-1.288],[93.462,-1.74],[93.661,-2.192],[93.86,-2.645],[94.059,-3.097],[94.259,-3.549],[94.458,-4.001],[94.658,-4.453],[94.858,-4.905],[95.058,-5.356],[95.259,-5.808],[95.459,-6.26]]}},{"type":"Feature","properties":{"boundary_type":"transform","feature_type":"gpml:Transform","polarity":null,"overriding_plate_id":null,"subducting_plate_id":null,"plate_ids":[501,8011],"name":"Aus-India transform"},"geometry":{"type":"LineString","coordinates":[[95.459,-6.26],[95.652,-6.692],[95.845,-7.125],[96.039,-7.558],[96.232,-7.99],[96.427,-8.422],[96.757,-8.703],[97.088,-8.984],[97.42,-9.264],[97.752,-9.545],[98.085,-9.824],[98.418,-10.104]]}},{"type":"Feature","properties":{"boundary_type":"transform","feature_type":"gpml:Transform","polarity":null,"overriding_plate_id":null,"subducting_plate_id":null,"plate_ids":[501,801],"name":"Aus-India transform"},"geometry":{"type":"LineString","coordinates":[[98.418,-10.104],[98.756,-10.386],[99.094,-10.668],[99.433,-10.95],[99.773,-11.232],[100.113,-11.513],[100.565,-11.71],[101.017,-11.907],[101.47,-12.104],[101.923,-12.299],[102.378,-12.494],[102.833,-12.688],[103.288,-12.881],[103.745,-13.074],[104.202,-13.265],[104.659,-13.456],[105.118,-13.646],[105.577,-13.835],[106.037,-14.024],[106.498,-14.211],[106.959,-14.398],[107.422,-14.583],[107.885,-14.768],[108.348,-14.952],[108.813,-15.135]]}},{"type":"Feature","properties":{"boundary_type":"transform","feature_type":"gpml:Transform","polarity":null,"overriding_plate_id":null,"subducting_plate_id":null,"plate_ids":[101,401],"name":"transform"},"geometry":{"type":"LineString","coordinates":[[-132.001,9.824],[-131.965,9.336],[-131.93,8.847],[-131.895,8.359],[-131.86,7.87],[-131.825,7.382],[-131.79,6.893],[-131.755,6.405],[-131.651,5.934],[-131.546,5.463],[-131.442,4.992],[-131.338,4.522],[-131.234,4.051],[-131.13,3.58],[-131.026,3.109],[-130.923,2.639],[-130.819,2.168],[-130.716,1.697],[-130.612,1.226],[-130.509,0.755],[-130.406,0.284],[-130.302,-0.186],[-130.094,-0.62],[-129.885,-1.053],[-129.676,-1.486],[-129.467,-1.92],[-129.258,-2.353],[-129.049,-2.786],[-128.84,-3.219],[-128.631,-3.652],[-128.421,-4.085],[-128.211,-4.518],[-128.001,-4.951],[-127.791,-5.384],[-127.58,-5.817],[-127.369,-6.25],[-127.158,-6.683],[-126.947,-7.115],[-126.734,-7.548],[-126.522,-7.98],[-126.274,-8.397],[-126.026,-8.814],[-125.778,-9.231],[-125.529,-9.648],[-125.279,-10.064],[-125.028,-10.48],[-124.777,-10.897],[-124.526,-11.312],[-124.273,-11.728],[-124.02,-12.144],[-123.766,-12.559],[-123.511,-12.974],[-123.255,-13.389],[-122.998,-13.803],[-122.741,-14.217],[-122.482,-14.631],[-122.223,-15.045],[-121.962,-15.458],[-121.701,-15.871],[-121.438,-16.284],[-121.174,-16.697],[-120.909,-17.109],[-120.643,-17.52],[-120.341,-17.882],[-120.036,-18.244],[-119.731,-18.605],[-119.424,-18.966],[-119.116,-19.326],[-118.807,-19.685],[-118.496,-20.045],[-118.184,-20.403],[-117.87,-20.761]]}},{"type":"Feature","properties":{"boundary_type":"transform","feature_type":"gpml:Transform","polarity":null,"overriding_plate_id":null,"subducting_plate_id":null,"plate_ids":[401,98043],"name":"Siberia transform"},"geometry":{"type":"LineString","coordinates":[[-90.598,18.721],[-90.554,19.108],[-90.51,19.495],[-90.466,19.881],[-90.421,20.268],[-90.42,20.49]]}},{"type":"Feature","properties":{"boundary_type":"transform","feature_type":"gpml:Transform","polarity":null,"overriding_plate_id":null,"subducting_plate_id":null,"plate_ids":[201,22032],"name":"Amazonia transform"},"geometry":{"type":"LineString","coordinates":[[169.837,-33.164],[170.028,-33.583],[170.221,-34.001],[170.415,-34.419],[170.612,-34.837],[170.806,-35.276],[171.003,-35.714],[171.202,-36.152],[171.403,-36.59]]}},{"type":"Feature","properties":{"boundary_type":"transform","feature_type":"gpml:Transform","polarity":null,"overriding_plate_id":null,"subducting_plate_id":null,"plate_ids":[101,22042],"name":"Proto-pacific transform"},"geometry":{"type":"LineString","coordinates":[[162.855,-22.508],[163.074,-22.087],[163.292,-21.667],[163.509,-21.246],[163.725,-20.825],[163.939,-20.403],[164.152,-19.981],[164.364,-19.56]]}},{"type":"Feature","properties":{"boundary_type":"transform","feature_type":"gpml:Transform","polarity":null,"overriding_plate_id":null,"subducting_plate_id":null,"plate_ids":[101,98044],"name":"Proto-pacific transform"},"geometry":{"type":"LineString","coordinates":[[164.364,-19.56],[164.561,-19.165],[164.757,-18.77],[164.953,-18.376],[165.147,-17.981],[165.341,-17.585],[165.446,-17.138],[165.551,-16.691],[165.656,-16.243],[165.76,-15.796],[165.863,-15.348],[165.966,-14.901],[166.069,-14.453],[166.171,-14.005],[166.287,-13.529],[166.402,-13.052],[166.517,-12.575],[166.632,-12.099],[166.746,-11.622],[166.859,-11.145],[166.973,-10.668],[167.086,-10.191],[167.198,-9.714],[167.311,-9.237],[167.423,-8.76],[167.534,-8.283],[167.646,-7.806],[167.757,-7.329],[167.868,-6.852],[167.863,-6.388],[167.859,-5.924],[167.854,-5.46],[167.85,-4.996],[167.845,-4.532],[167.841,-4.068]]}},{"type":"Feature","properties":{"boundary_type":"transform","feature_type":"gpml:Transform","polarity":null,"overriding_plate_id":null,"subducting_plate_id":null,"plate_ids":[701,77030],"name":"Azania-Kalahari transform"},"geometry":{"type":"LineString","coordinates":[[109.581,-42.861],[110.243,-42.749],[110.902,-42.634],[111.559,-42.515],[112.213,-42.393],[112.865,-42.266],[113.514,-42.136],[114.16,-42.002],[114.804,-41.865],[115.444,-41.724],[116.017,-41.48],[116.586,-41.234],[117.151,-40.984],[117.711,-40.732],[118.266,-40.477],[118.818,-40.22],[119.366,-39.96],[119.909,-39.697],[120.448,-39.432],[120.983,-39.165],[121.514,-38.895],[122.041,-38.622],[122.284,-38.421],[122.526,-38.219]]}},{"type":"Feature","properties":{"boundary_type":"transform","feature_type":"gpml:Transform","polarity":null,"overriding_plate_id":null,"subducting_plate_id":null,"plate_ids":[801,77030],"name":"Azania-Kalahari transform"},"geometry":{"type":"LineString","coordinates":[[122.535,-36.799],[123.02,-36.702],[123.504,-36.604],[123.986,-36.504],[124.468,-36.402],[125.052,-36.292],[125.635,-36.179],[126.217,-36.063],[126.796,-35.944],[127.374,-35.823],[127.95,-35.699],[128.408,-35.587],[128.865,-35.474],[129.32,-35.359],[129.774,-35.242]]}},{"type":"Feature","properties":{"boundary_type":"transform","feature_type":"gpml:Transform","polarity":null,"overriding_plate_id":null,"subducting_plate_id":null,"plate_ids":[201,22042],"name":"Amazonia-RDLP Transform"},"geometry":{"type":"LineString","coordinates":[[166.123,-38.594],[166.138,-39.063],[166.006,-39.529],[165.872,-39.995],[165.737,-40.461],[165.6,-40.927],[165.46,-41.392],[165.319,-41.858],[165.231,-42.309],[165.141,-42.761],[165.049,-43.213],[164.957,-43.665],[164.863,-44.117],[164.767,-44.568],[164.67,-45.02],[164.572,-45.471],[164.471,-45.923],[164.443,-46.39],[164.414,-46.857],[164.385,-47.325],[164.355,-47.792],[164.324,-48.259],[164.293,-48.727],[164.262,-49.194],[164.229,-49.661],[164.197,-50.129],[164.105,-50.568],[164.012,-51.007],[163.918,-51.446],[163.821,-51.884],[163.723,-52.323],[163.622,-52.762],[163.52,-53.2],[163.305,-53.672],[163.085,-54.144],[162.861,-54.615],[162.631,-55.086],[162.395,-55.556],[162.154,-56.026],[161.907,-56.495],[161.653,-56.964],[161.36,-57.398],[161.06,-57.831],[160.752,-58.264],[160.437,-58.695],[160.114,-59.126],[159.782,-59.556],[159.442,-59.985]]}},{"type":"Feature","properties":{"boundary_type":"transform","feature_type":"gpml:Transform","polarity":null,"overriding_plate_id":null,"subducting_plate_id":null,"plate_ids":[801,22042],"name":"Mawson transform"},"geometry":{"type":"LineString","coordinates":[[135.85,-30.976],[136.244,-30.619],[136.635,-30.262],[137.023,-29.903],[137.409,-29.543],[137.792,-29.182],[138.172,-28.82],[138.549,-28.457],[138.924,-28.092],[139.297,-27.727],[139.667,-27.361],[140.034,-26.994],[140.307,-26.615],[140.578,-26.235],[140.848,-25.854],[141.115,-25.474],[141.381,-25.092],[141.659,-24.761],[141.936,-24.429],[142.21,-24.097],[142.484,-23.764],[142.756,-23.431],[143.003,-23.078],[143.25,-22.725],[143.495,-22.371],[143.739,-22.017],[143.981,-21.662],[144.118,-21.286],[144.253,-20.91],[144.388,-20.534],[144.671,-20.177],[144.952,-19.82],[145.231,-19.462],[145.51,-19.104],[145.787,-18.746],[146.063,-18.387],[146.338,-18.027],[146.615,-17.659],[146.89,-17.291],[147.165,-16.922],[147.438,-16.553],[147.711,-16.183],[147.982,-15.813],[148.252,-15.443],[148.522,-15.072],[148.727,-14.725],[148.931,-14.377],[149.135,-14.028],[149.339,-13.68],[149.541,-13.332],[149.702,-12.927],[149.861,-12.523],[150.021,-12.119],[150.18,-11.714],[150.338,-11.31]]}},{"type":"Feature","properties":{"boundary_type":"transform","feature_type":"gpml:Transform","polarity":null,"overriding_plate_id":null,"subducting_plate_id":null,"plate_ids":[8011],"name":"Aus transform"},"geometry":{"type":"LineString","coordinates":[[113.571,11.625],[113.467,11.967],[113.363,12.308]]}},{"type":"Feature","properties":{"boundary_type":"transform","feature_type":"gpml:Transform","polarity":null,"overriding_plate_id":null,"subducting_plate_id":null,"plate_ids":[801,8011,8013],"name":"Aus transform"},"geometry":{"type":"LineString","coordinates":[[113.363,12.308],[113.249,12.679],[113.135,13.05],[113.02,13.421],[113.105,13.8],[113.189,14.179],[113.274,14.558]]}},{"type":"Feature","properties":{"boundary_type":"transform","feature_type":"gpml:Transform","polarity":null,"overriding_plate_id":null,"subducting_plate_id":null,"plate_ids":[8011,8013],"name":"Aus transform"},"geometry":{"type":"LineString","coordinates":[[113.274,14.558],[113.382,15.04],[113.501,15.293],[113.621,15.546]]}},{"type":"Feature","properties":{"boundary_type":"transform","feature_type":"gpml:Transform","polarity":null,"overriding_plate_id":null,"subducting_plate_id":null,"plate_ids":[8013,98044],"name":"Aus transform"},"geometry":{"type":"LineString","coordinates":[[113.621,15.546],[113.644,15.596]]}},{"type":"Feature","properties":{"boundary_type":"transform","feature_type":"gpml:Transform","polarity":null,"overriding_plate_id":null,"subducting_plate_id":null,"plate_ids":[302,401],"name":"Siberia Transform"},"geometry":{"type":"LineString","coordinates":[[-114.755,-18.761],[-115.02,-18.656],[-115.286,-18.55],[-115.678,-18.25],[-116.069,-17.95],[-116.459,-17.649]]}},{"type":"Feature","properties":{"boundary_type":"transform","feature_type":"gpml:Transform","polarity":null,"overriding_plate_id":null,"subducting_plate_id":null,"plate_ids":[501,606],"name":"small transform between Lhasa and India"},"geometry":{"type":"LineString","coordinates":[[90.389,-10.843],[90.793,-10.599],[91.196,-10.356],[91.463,-10.055],[91.73,-9.754],[91.996,-9.453],[92.327,-9.189],[92.657,-8.925],[92.987,-8.661],[93.316,-8.397],[93.645,-8.132],[93.948,-7.82],[94.251,-7.509],[94.554,-7.197],[94.856,-6.885],[95.158,-6.572],[95.459,-6.26]]}},{"type":"Feature","properties":{"boundary_type":"transform","feature_type":"gpml:Transform","polarity":null,"overriding_plate_id":null,"subducting_plate_id":null,"plate_ids":[8026,77030],"name":"CLB-DML transform"},"geometry":{"type":"LineString","coordinates":[[130.092,-37.208],[130.544,-37.087],[130.994,-36.963],[131.442,-36.839],[131.889,-36.712],[132.492,-36.594],[133.092,-36.473],[133.691,-36.349],[134.287,-36.222],[134.882,-36.092],[135.475,-35.959],[136.062,-35.909],[136.649,-35.856],[137.235,-35.8],[137.82,-35.742],[138.404,-35.68],[138.988,-35.616],[139.57,-35.549],[140.033,-35.403],[140.494,-35.256],[140.953,-35.106]]}},{"type":"Feature","properties":{"boundary_type":"transform","feature_type":"gpml:Transform","polarity":null,"overriding_plate_id":null,"subducting_plate_id":null,"plate_ids":[8026,22042],"name":"CLB-DML transform"},"geometry":{"type":"LineString","coordinates":[[140.953,-35.106],[141.34,-34.979],[141.726,-34.85],[142.11,-34.72]]}},{"type":"Feature","properties":{"boundary_type":"transform","feature_type":"gpml:Transform","polarity":null,"overriding_plate_id":null,"subducting_plate_id":null,"plate_ids":[8013,98044],"name":"Aus transform"},"geometry":{"type":"LineString","coordinates":[[154.71,-14.373],[154.849,-13.916],[154.987,-13.46],[155.125,-13.003],[155.263,-12.546],[155.4,-12.089],[155.537,-11.632],[155.673,-11.175],[155.817,-10.769],[155.962,-10.363],[156.106,-9.957],[156.25,-9.552],[156.393,-9.146],[156.536,-8.74],[156.563,-8.651]]}},{"type":"Feature","properties":{"boundary_type":"transform","feature_type":"gpml:Transform","polarity":null,"overriding_plate_id":null,"subducting_plate_id":null,"plate_ids":[1019,98044],"name":"Transform closing west coast laurentia rift"},"geometry":{"type":"LineString","coordinates":[[174.592,1.298],[174.491,1.787],[174.391,2.277],[174.29,2.766],[174.188,3.256],[174.087,3.745],[173.986,4.235],[173.884,4.724],[173.783,5.213],[173.681,5.703],[173.579,6.192],[173.477,6.682],[173.375,7.171],[173.272,7.66],[173.251,7.754]]}},{"type":"Feature","properties":{"boundary_type":"transform","feature_type":"gpml:Transform","polarity":null,"overriding_plate_id":null,"subducting_plate_id":null,"plate_ids":[401,1019],"name":"Transform closing west coast laurentia rift"},"geometry":{"type":"LineString","coordinates":[[-136.993,9.304],[-137.092,9.762],[-137.192,10.219],[-137.292,10.677],[-137.392,11.134],[-137.493,11.591],[-137.594,12.049],[-137.695,12.506],[-137.797,12.963],[-137.899,13.42],[-138.001,13.877],[-138.104,14.334],[-138.207,14.791],[-138.241,14.936]]}},{"type":"Feature","properties":{"boundary_type":"transform","feature_type":"gpml:Transform","polarity":null,"overriding_plate_id":null,"subducting_plate_id":null,"plate_ids":[501,98043],"name":"ocean transform"},"geometry":{"type":"LineString","coordinates":[[-25.634,-37.813],[-25.322,-38.217],[-25.007,-38.62],[-24.746,-39.019],[-24.481,-39.418],[-24.214,-39.816],[-23.944,-40.213],[-23.67,-40.61],[-23.393,-41.006],[-23.113,-41.402],[-22.829,-41.797],[-22.542,-42.191]]}},{"type":"Feature","properties":{"boundary_type":"transform","feature_type":"gpml:Transform","polarity":null,"overriding_plate_id":null,"subducting_plate_id":null,"plate_ids":[302,501],"name":"ocean transform"},"geometry":{"type":"LineString","coordinates":[[-22.542,-42.191],[-22.259,-42.574],[-21.972,-42.957],[-21.682,-43.339],[-21.388,-43.72],[-21.09,-44.1],[-20.789,-44.48]]}},{"type":"Feature","properties":{"boundary_type":"transform","feature_type":"gpml:Transform","polarity":null,"overriding_plate_id":null,"subducting_plate_id":null,"plate_ids":[501,22032],"name":"ocean transform"},"geometry":{"type":"LineString","coordinates":[[-20.789,-44.48],[-20.449,-44.901],[-20.104,-45.321],[-19.754,-45.74],[-19.399,-46.157],[-19.038,-46.574],[-18.671,-46.99],[-18.299,-47.404],[-17.922,-47.817],[-17.511,-48.214],[-17.094,-48.609],[-16.67,-49.003],[-16.24,-49.395],[-15.803,-49.785],[-15.359,-50.174]]}},{"type":"Feature","properties":{"boundary_type":"transform","feature_type":"gpml:Transform","polarity":null,"overriding_plate_id":null,"subducting_plate_id":null,"plate_ids":[401,98043],"name":"Siberia-ocean transform"},"geometry":{"type":"LineString","coordinates":[[-139.148,29.802],[-139.695,29.819],[-140.243,29.833],[-140.79,29.845],[-141.338,29.855],[-141.886,29.862],[-142.433,29.868],[-142.981,29.871],[-143.529,29.871],[-144.077,29.87],[-144.625,29.866],[-145.172,29.86],[-145.72,29.852],[-146.268,29.841]]}},{"type":"Feature","properties":{"boundary_type":"transform","feature_type":"gpml:Transform","polarity":null,"overriding_plate_id":null,"subducting_plate_id":null,"plate_ids":[401,98044],"name":"Siberia-ocean transform"},"geometry":{"type":"LineString","coordinates":[[-146.268,29.841],[-146.604,29.834],[-146.94,29.825]]}},{"type":"Feature","properties":{"boundary_type":"transform","feature_type":"gpml:Transform","polarity":null,"overriding_plate_id":null,"subducting_plate_id":null,"plate_ids":[201,701],"name":"transform closing WAC plate"},"geometry":{"type":"LineString","coordinates":[[-95.61,-64.297],[-95.99,-64.732],[-96.382,-65.166],[-96.787,-65.599],[-97.205,-66.03],[-97.638,-66.461],[-98.086,-66.89],[-98.55,-67.318],[-99.031,-67.745],[-99.53,-68.17]]}},{"type":"Feature","properties":{"boundary_type":"transform","feature_type":"gpml:Transform","polarity":null,"overriding_plate_id":null,"subducting_plate_id":null,"plate_ids":[501,601],"name":"North China transform"},"geometry":{"type":"LineString","coordinates":[[60.263,25.486],[60.323,25.973],[60.384,26.46],[60.444,26.947],[60.506,27.434],[60.568,27.921],[60.63,28.408],[60.693,28.895],[60.757,29.381],[60.821,29.868],[60.886,30.355],[60.951,30.842],[60.886,31.33],[60.82,31.818],[60.753,32.306],[60.686,32.794],[60.618,33.282],[60.549,33.77],[60.479,34.258],[60.408,34.746],[60.337,35.234],[60.265,35.722],[60.192,36.21],[60.118,36.697],[60.043,37.185],[59.967,37.673]]}}]}