{"type":"FeatureCollection","meta":{"model":"Cao2024","reconstruction_time_ma":230.0,"anchor_plate_id":0,"pygplates_version":"1.0.0","tessellate_degrees":0.5,"polarity_convention":"gpml:subductionPolarity. 'Left'/'Right' names the side of the line, in vertex order, on which the OVERRIDING plate lies. Triangles are drawn on that side.","antimeridian":"Lines are NOT split at +/-180 deg. The renderer works in 3D unit vectors where the dateline is not special; splitting would only add spurious breaks. Do not treat this as RFC 7946 GIS-ready 2D data."},"features":[{"type":"Feature","properties":{"boundary_type":"subduction","feature_type":"gpml:SubductionZone","polarity":"Right","overriding_plate_id":701,"subducting_plate_id":919,"plate_ids":[701,919],"name":"Eastern Gondwana Subduction Zone"},"geometry":{"type":"LineString","coordinates":[[131.89,-71.923],[132.707,-72.303],[133.559,-72.679],[134.447,-73.051],[135.374,-73.42],[136.342,-73.784],[137.352,-74.143],[138.408,-74.498],[139.511,-74.847],[140.665,-75.191],[141.717,-75.606],[142.83,-76.017],[144.009,-76.422],[145.258,-76.821],[146.584,-77.214],[147.991,-77.6],[149.486,-77.978],[151.075,-78.347],[152.766,-78.708],[154.565,-79.058],[156.48,-79.397],[158.517,-79.723],[160.683,-80.036],[162.986,-80.334],[165.429,-80.616],[168.017,-80.881],[170.753,-81.125],[173.636,-81.349],[176.662,-81.55],[178.69,-81.944],[-179.078,-82.326],[-176.618,-82.696],[-173.903,-83.051],[-170.905,-83.388],[-167.595,-83.706],[-163.948,-84.001],[-159.944,-84.27],[-155.571,-84.508],[-150.833,-84.711],[-145.987,-84.954],[-140.697,-85.157],[-134.998,-85.315],[-128.965,-85.425],[-122.709,-85.481],[-116.372,-85.484],[-110.104,-85.431],[-104.048,-85.326],[-98.319,-85.171],[-93.382,-84.987],[-88.825,-84.768],[-84.656,-84.52],[-80.866,-84.245],[-77.433,-83.948],[-74.33,-83.63],[-71.528,-83.297],[-68.982,-82.947],[-66.68,-82.585],[-64.593,-82.213],[-62.698,-81.831],[-60.973,-81.441],[-59.398,-81.044],[-57.957,-80.641],[-56.644,-80.264],[-55.429,-79.882],[-54.302,-79.495],[-53.254,-79.105],[-52.278,-78.712],[-51.367,-78.315],[-50.515,-77.916],[-49.219,-77.537],[-47.999,-77.151],[-46.849,-76.76],[-45.764,-76.365],[-44.74,-75.965],[-43.772,-75.56],[-42.855,-75.153],[-41.903,-74.752],[-40.999,-74.347],[-40.14,-73.939],[-39.322,-73.528],[-38.543,-73.114],[-37.801,-72.697],[-37.092,-72.277],[-36.416,-71.855],[-35.769,-71.431],[-35.15,-71.004],[-34.901,-70.55],[-34.662,-70.095],[-34.434,-69.641],[-34.215,-69.185]]}},{"type":"Feature","properties":{"boundary_type":"subduction","feature_type":"gpml:SubductionZone","polarity":"Left","overriding_plate_id":101,"subducting_plate_id":505,"plate_ids":[101,505],"name":"Monghol-Okhosk Subduction Zone"},"geometry":{"type":"LineString","coordinates":[[69.77,41.993],[70.146,42.321],[70.527,42.647],[70.912,42.973],[71.3,43.297],[71.786,43.614],[72.276,43.929],[72.772,44.242],[73.273,44.552],[73.78,44.861],[74.292,45.167],[74.809,45.471],[75.332,45.773],[75.861,46.072],[76.395,46.369],[76.935,46.663],[77.481,46.955],[78.033,47.244],[78.591,47.53],[79.156,47.814],[79.726,48.095],[80.302,48.373],[80.779,48.759],[81.263,49.144],[81.754,49.527],[82.253,49.907],[82.76,50.285],[83.275,50.662],[83.799,51.035],[84.33,51.407],[84.871,51.776],[85.42,52.142],[85.979,52.506],[86.547,52.867]]}},{"type":"Feature","properties":{"boundary_type":"subduction","feature_type":"gpml:SubductionZone","polarity":"Left","overriding_plate_id":101,"subducting_plate_id":380,"plate_ids":[101,380],"name":"Monghol-Okhosk Subduction Zone"},"geometry":{"type":"LineString","coordinates":[[86.547,52.867],[87.025,53.165],[87.509,53.46],[88.001,53.754],[88.499,54.045],[89.005,54.334],[89.599,54.641],[90.202,54.945],[90.815,55.246],[91.437,55.543],[92.068,55.838],[92.709,56.129],[93.36,56.417],[94.02,56.701],[94.691,56.982],[95.371,57.259],[96.062,57.532],[96.684,57.846],[97.317,58.157],[97.961,58.464],[98.616,58.768],[99.283,59.069],[99.961,59.366],[100.652,59.66],[101.354,59.95],[102.069,60.236],[102.942,60.427],[103.825,60.612],[104.718,60.791],[105.621,60.964],[106.534,61.131],[107.456,61.291],[108.388,61.446],[109.328,61.593],[110.277,61.735],[111.235,61.87],[112.201,61.998],[113.176,62.119],[114.157,62.233],[115.146,62.341],[116.142,62.441],[116.971,62.733],[117.816,63.02],[118.678,63.301],[119.556,63.577],[120.452,63.848],[121.365,64.114],[122.295,64.373],[123.243,64.626],[124.208,64.874],[125.191,65.114],[126.192,65.349],[127.211,65.576],[128.247,65.797],[129.301,66.01],[130.372,66.216],[131.461,66.415],[132.567,66.606],[133.689,66.789],[134.828,66.964],[135.984,67.131]]}},{"type":"Feature","properties":{"boundary_type":"subduction","feature_type":"gpml:SubductionZone","polarity":"Left","overriding_plate_id":101,"subducting_plate_id":131,"plate_ids":[101,131],"name":"NAM Subduction"},"geometry":{"type":"LineString","coordinates":[[-43.458,5.228],[-43.488,4.795],[-43.517,4.363],[-43.546,3.93],[-43.575,3.498]]}},{"type":"Feature","properties":{"boundary_type":"subduction","feature_type":"gpml:SubductionZone","polarity":"Left","overriding_plate_id":101,"subducting_plate_id":902,"plate_ids":[101,902],"name":"NAM Subduction"},"geometry":{"type":"LineString","coordinates":[[-43.575,3.498],[-43.605,3.053],[-43.635,2.609],[-43.613,2.157],[-43.591,1.706],[-43.569,1.254],[-43.546,0.803],[-43.524,0.351],[-43.502,-0.1],[-43.48,-0.552],[-43.458,-1.003],[-43.436,-1.454],[-43.414,-1.906],[-43.253,-2.349],[-43.092,-2.792],[-42.931,-3.236],[-42.77,-3.679],[-42.609,-4.122],[-42.435,-4.512],[-42.26,-4.901],[-42.084,-5.291],[-41.909,-5.68],[-41.734,-6.07],[-41.342,-6.375],[-40.949,-6.681],[-40.556,-6.986],[-40.163,-7.29],[-39.769,-7.595],[-39.515,-7.754],[-39.26,-7.914]]}},{"type":"Feature","properties":{"boundary_type":"subduction","feature_type":"gpml:SubductionZone","polarity":"Right","overriding_plate_id":498,"subducting_plate_id":505,"plate_ids":[498,505],"name":"North Junction Subduction"},"geometry":{"type":"LineString","coordinates":[[123.155,-9.518],[123.565,-9.683]]}},{"type":"Feature","properties":{"boundary_type":"subduction","feature_type":"gpml:SubductionZone","polarity":"Right","overriding_plate_id":498,"subducting_plate_id":926,"plate_ids":[498,926],"name":"North Junction Subduction"},"geometry":{"type":"LineString","coordinates":[[123.565,-9.683],[124.029,-9.87],[124.495,-10.056],[124.96,-10.241],[125.427,-10.426],[125.893,-10.61],[126.361,-10.793],[126.829,-10.976],[127.297,-11.157],[127.766,-11.339],[128.236,-11.519],[128.706,-11.699],[129.177,-11.878],[129.649,-12.056],[130.121,-12.233],[130.593,-12.409],[131.067,-12.585],[131.46,-12.905],[131.855,-13.224],[132.25,-13.542],[132.646,-13.86],[133.044,-14.177],[133.443,-14.493],[133.842,-14.809],[134.243,-15.124],[134.646,-15.438],[135.049,-15.752],[135.454,-16.065],[135.859,-16.377],[136.267,-16.688],[136.675,-16.999],[137.095,-17.25],[137.517,-17.5],[137.939,-17.749],[138.363,-17.998],[138.788,-18.245],[139.214,-18.491],[139.642,-18.737],[140.07,-18.982],[140.5,-19.225],[140.932,-19.468],[141.364,-19.709],[141.798,-19.95],[142.233,-20.189],[142.669,-20.428],[142.99,-20.742],[143.312,-21.056],[143.635,-21.369],[143.959,-21.682]]}},{"type":"Feature","properties":{"boundary_type":"subduction","feature_type":"gpml:SubductionZone","polarity":"Left","overriding_plate_id":701,"subducting_plate_id":919,"plate_ids":[701,919],"name":"Panthalassa Subducting beneath Junction"},"geometry":{"type":"LineString","coordinates":[[149.036,-45.069],[148.614,-44.699],[148.197,-44.327],[147.785,-43.954],[147.378,-43.579],[146.976,-43.203],[146.58,-42.826],[146.188,-42.447],[145.8,-42.067],[145.321,-41.763],[144.847,-41.457],[144.377,-41.149],[143.911,-40.839],[143.564,-40.586],[143.219,-40.331],[142.877,-40.076],[142.69,-39.718],[142.504,-39.361],[142.32,-39.002],[142.152,-38.525],[141.986,-38.047],[141.822,-37.569],[141.605,-37.14],[141.391,-36.71],[141.178,-36.279],[140.968,-35.848],[140.761,-35.417],[140.555,-34.986],[140.352,-34.554],[140.15,-34.122]]}},{"type":"Feature","properties":{"boundary_type":"subduction","feature_type":"gpml:SubductionZone","polarity":"Left","overriding_plate_id":101,"subducting_plate_id":505,"plate_ids":[101,505],"name":"Subduction North Tethys"},"geometry":{"type":"LineString","coordinates":[[34.862,27.036],[35.32,26.913],[35.777,26.789],[36.272,26.717],[36.765,26.644],[37.258,26.569],[37.75,26.492],[38.242,26.413],[38.733,26.333],[39.223,26.251],[39.71,26.222],[40.197,26.191],[40.683,26.158],[41.17,26.124],[41.656,26.088],[42.142,26.051],[42.626,26.138],[43.112,26.223],[43.598,26.306],[44.085,26.388],[44.572,26.469],[45.06,26.547],[45.489,26.692],[45.92,26.837],[46.351,26.979],[46.783,27.121],[47.217,27.261],[47.717,27.427],[48.219,27.59],[48.722,27.752],[49.227,27.912],[49.735,27.97],[50.244,28.026],[50.753,28.08],[51.263,28.132],[51.774,28.182],[52.284,28.23],[52.712,28.422],[53.142,28.612],[53.573,28.801],[54.005,28.988],[54.439,29.174],[54.663,29.553],[54.888,29.932],[55.116,30.311],[55.219,30.65],[55.323,30.989],[55.428,31.328],[55.59,31.685],[55.753,32.042],[55.917,32.398],[56.082,32.755],[56.282,33.137],[56.483,33.518],[56.686,33.899],[56.891,34.279],[57.249,34.632],[57.609,34.983],[57.973,35.333],[58.34,35.682],[58.71,36.029],[59.083,36.376],[59.518,36.722],[59.958,37.066],[60.402,37.408],[60.849,37.749],[61.378,37.97],[61.911,38.189],[62.447,38.406],[62.985,38.62],[63.527,38.832],[64.073,39.041],[64.369,39.434],[64.669,39.826],[64.973,40.217],[65.28,40.607],[65.59,40.997],[65.784,41.378],[65.98,41.759],[66.178,42.14],[66.379,42.52],[66.927,42.653],[67.476,42.784],[68.029,42.912],[68.469,42.685],[68.906,42.456],[69.339,42.226],[69.77,41.993]]}},{"type":"Feature","properties":{"boundary_type":"transform","feature_type":"gpml:Transform","polarity":null,"overriding_plate_id":null,"subducting_plate_id":null,"plate_ids":[498,701],"name":"MesoTethys Transform"},"geometry":{"type":"LineString","coordinates":[[121.016,-18.114],[121.153,-17.635],[121.289,-17.156],[121.425,-16.677],[121.56,-16.198],[121.694,-15.719],[121.827,-15.239],[121.96,-14.76],[122.092,-14.28],[122.224,-13.801],[122.308,-13.421],[122.391,-13.041],[122.475,-12.661]]}},{"type":"Feature","properties":{"boundary_type":"transform","feature_type":"gpml:Transform","polarity":null,"overriding_plate_id":null,"subducting_plate_id":null,"plate_ids":[498,505],"name":"MesoTethys Transform"},"geometry":{"type":"LineString","coordinates":[[122.475,-12.661],[122.573,-12.212],[122.67,-11.763],[122.768,-11.314],[122.865,-10.865],[122.962,-10.416],[123.058,-9.967],[123.155,-9.518]]}},{"type":"Feature","properties":{"boundary_type":"subduction","feature_type":"gpml:SubductionZone","polarity":"Right","overriding_plate_id":701,"subducting_plate_id":919,"plate_ids":[701,919],"name":"Eastern Gondwanaland subduction until 145 Ma"},"geometry":{"type":"LineString","coordinates":[[149.036,-45.069],[148.944,-45.511],[148.851,-45.952],[148.756,-46.394],[148.659,-46.835],[148.561,-47.276],[148.482,-47.724],[148.402,-48.171],[148.321,-48.618],[148.238,-49.065],[148.154,-49.512],[148.068,-49.959],[147.981,-50.406],[147.892,-50.853],[147.801,-51.3],[147.638,-51.776],[147.472,-52.253],[147.302,-52.729],[147.129,-53.205],[146.951,-53.68],[146.77,-54.155],[146.584,-54.63],[146.394,-55.105],[146.2,-55.58],[146.229,-56.065],[146.259,-56.55],[146.29,-57.035],[146.322,-57.521],[146.354,-58.006],[146.388,-58.491],[146.422,-58.976],[146.457,-59.462],[146.494,-59.947],[146.531,-60.432],[146.51,-60.905],[146.489,-61.377],[146.466,-61.85],[146.443,-62.322],[146.419,-62.794],[146.395,-63.267],[146.369,-63.739],[146.073,-64.109],[145.768,-64.478],[145.454,-64.846],[144.892,-65.148],[144.317,-65.448],[143.728,-65.746],[142.834,-66.082],[141.915,-66.413],[140.972,-66.739],[140.005,-67.058],[138.987,-67.365],[137.942,-67.666],[136.871,-67.959],[135.774,-68.245],[135.283,-68.437],[134.785,-68.628],[134.751,-69.104],[134.715,-69.58],[134.289,-69.974],[133.846,-70.366],[133.385,-70.757],[132.907,-71.147],[132.409,-71.536],[131.89,-71.923]]}},{"type":"Feature","properties":{"boundary_type":"subduction","feature_type":"gpml:SubductionZone","polarity":"Left","overriding_plate_id":101,"subducting_plate_id":902,"plate_ids":[101,902],"name":"Koni-Taigonos subduction"},"geometry":{"type":"LineString","coordinates":[[-79.331,64.006],[-78.713,63.663],[-78.109,63.317],[-77.52,62.968],[-76.945,62.617],[-76.383,62.264]]}},{"type":"Feature","properties":{"boundary_type":"subduction","feature_type":"gpml:SubductionZone","polarity":"Left","overriding_plate_id":101,"subducting_plate_id":131,"plate_ids":[101,131],"name":"Koni-Taigonos subduction"},"geometry":{"type":"LineString","coordinates":[[-76.383,62.264],[-75.914,61.96],[-75.453,61.655],[-75.002,61.348],[-74.349,61.019],[-73.71,60.686],[-73.084,60.35],[-72.471,60.012],[-71.87,59.671],[-71.184,59.351],[-70.51,59.029],[-69.849,58.703],[-69.2,58.373],[-68.535,58.112],[-67.881,57.847],[-67.236,57.579],[-66.6,57.308],[-65.974,57.033],[-65.238,56.809],[-64.511,56.58],[-63.792,56.347],[-63.083,56.11],[-62.382,55.868],[-61.615,55.683],[-60.856,55.494],[-60.104,55.299],[-59.36,55.1],[-58.623,54.897],[-57.894,54.689],[-57.146,54.488],[-56.405,54.283],[-55.672,54.073],[-54.946,53.859],[-54.227,53.641],[-53.517,53.418],[-52.813,53.191],[-52.169,53.058],[-51.529,52.922],[-50.893,52.782],[-50.262,52.639],[-49.634,52.493]]}},{"type":"Feature","properties":{"boundary_type":"subduction","feature_type":"gpml:SubductionZone","polarity":"Left","overriding_plate_id":101,"subducting_plate_id":380,"plate_ids":[101,380],"name":"Koni-Taigonos Subduction Zone GS"},"geometry":{"type":"LineString","coordinates":[[-99.095,78.735],[-97.541,78.45],[-96.062,78.157],[-94.654,77.857],[-93.766,77.449],[-92.934,77.038],[-92.151,76.625],[-91.415,76.21],[-90.666,75.829],[-89.955,75.445],[-89.279,75.059],[-88.637,74.672],[-87.968,74.291],[-87.329,73.908],[-86.719,73.524],[-86.136,73.137],[-85.579,72.75],[-85.042,72.368],[-84.527,71.986],[-84.033,71.602],[-83.427,71.295],[-82.84,70.986]]}},{"type":"Feature","properties":{"boundary_type":"subduction","feature_type":"gpml:SubductionZone","polarity":"Left","overriding_plate_id":101,"subducting_plate_id":902,"plate_ids":[101,902],"name":"Koni-Taigonos Subduction Zone GS"},"geometry":{"type":"LineString","coordinates":[[-82.84,70.986],[-82.294,70.689],[-81.765,70.39],[-81.132,69.956],[-80.526,69.52],[-79.943,69.082],[-79.794,68.639],[-79.65,68.197],[-79.511,67.754],[-79.464,67.333],[-79.419,66.912],[-79.375,66.492],[-79.333,66.071],[-79.292,65.65],[-79.252,65.229],[-79.279,64.821],[-79.306,64.414],[-79.331,64.006]]}},{"type":"Feature","properties":{"boundary_type":"subduction","feature_type":"gpml:SubductionZone","polarity":"Right","overriding_plate_id":101,"subducting_plate_id":131,"plate_ids":[101,131],"name":"Western NAM subduction w/hole for Siletzia and before Wrangellia collision"},"geometry":{"type":"LineString","coordinates":[[-43.159,26.959],[-43.071,27.426],[-42.983,27.893],[-42.893,28.36],[-42.803,28.827],[-42.712,29.294],[-42.62,29.761],[-42.659,30.259],[-42.698,30.756],[-42.738,31.253],[-42.779,31.751],[-42.819,32.248],[-42.861,32.745],[-42.902,33.243],[-42.945,33.74],[-42.987,34.237],[-43.03,34.734],[-43.074,35.231],[-43.118,35.729],[-43.189,36.217],[-43.261,36.706],[-43.334,37.195],[-43.407,37.684],[-43.482,38.172],[-43.557,38.661],[-43.634,39.149],[-43.712,39.638],[-43.79,40.126],[-43.87,40.614],[-43.951,41.103],[-44.034,41.591],[-44.117,42.079],[-44.384,42.506],[-44.654,42.932],[-44.928,43.358],[-45.206,43.783],[-45.488,44.207],[-45.774,44.631],[-46.065,45.054],[-46.359,45.476],[-46.817,45.75],[-47.279,46.022],[-47.746,46.293],[-48.217,46.561],[-48.31,47.033],[-48.405,47.505],[-48.502,47.976],[-48.6,48.448],[-48.7,48.92],[-48.803,49.391],[-48.907,49.863],[-49.013,50.334],[-49.121,50.805],[-49.232,51.276],[-49.363,51.682],[-49.497,52.087],[-49.634,52.493]]}},{"type":"Feature","properties":{"boundary_type":"ridge","feature_type":"gpml:MidOceanRidge","polarity":null,"overriding_plate_id":null,"subducting_plate_id":null,"plate_ids":[498,701],"name":"Junction Synthetic MOR"},"geometry":{"type":"LineString","coordinates":[[121.016,-18.114],[121.501,-18.253],[121.987,-18.39],[122.474,-18.526],[122.961,-18.661],[123.449,-18.795],[123.938,-18.927],[124.428,-19.058],[124.918,-19.188],[125.409,-19.316],[125.901,-19.443],[126.394,-19.569],[126.887,-19.694],[127.382,-19.817],[127.877,-19.938],[128.372,-20.059],[128.869,-20.178],[129.366,-20.295],[129.864,-20.412],[129.767,-20.866],[129.67,-21.321],[129.571,-21.776],[129.473,-22.231],[129.373,-22.685],[129.273,-23.14],[129.172,-23.595],[129.071,-24.049],[128.968,-24.504],[128.865,-24.958],[128.761,-25.412],[129.287,-25.53],[129.814,-25.646],[130.342,-25.759],[130.871,-25.871],[131.401,-25.982],[131.932,-26.09],[132.463,-26.196],[132.996,-26.3],[133.53,-26.402],[134.065,-26.503],[134.6,-26.601],[135.137,-26.697],[135.674,-26.791],[135.606,-27.245],[135.537,-27.698],[135.467,-28.152],[135.397,-28.605],[135.919,-28.682],[136.442,-28.756],[136.966,-28.828],[137.491,-28.898],[138.016,-28.967],[138.542,-29.033],[139.069,-29.097],[139.596,-29.159],[140.124,-29.219],[140.652,-29.277],[141.182,-29.333],[141.711,-29.386]]}},{"type":"Feature","properties":{"boundary_type":"ridge","feature_type":"gpml:MidOceanRidge","polarity":null,"overriding_plate_id":null,"subducting_plate_id":null,"plate_ids":[101,701],"name":"Western NeoTethys Transform"},"geometry":{"type":"LineString","coordinates":[[42.828,2.379],[43.137,2.713],[43.447,3.047],[43.756,3.381],[44.066,3.715],[44.376,4.049]]}},{"type":"Feature","properties":{"boundary_type":"ridge","feature_type":"gpml:MidOceanRidge","polarity":null,"overriding_plate_id":null,"subducting_plate_id":null,"plate_ids":[505,701],"name":"Western NeoTethys Transform"},"geometry":{"type":"LineString","coordinates":[[44.376,4.049],[44.697,4.393],[45.018,4.738],[45.339,5.082],[45.66,5.426],[45.982,5.77],[46.304,6.114],[46.627,6.458],[46.918,6.851],[47.21,7.243],[47.502,7.636],[47.795,8.028],[48.088,8.42],[48.382,8.812],[48.677,9.204],[48.972,9.595]]}},{"type":"Feature","properties":{"boundary_type":"ridge","feature_type":"gpml:MidOceanRidge","polarity":null,"overriding_plate_id":null,"subducting_plate_id":null,"plate_ids":[505,701],"name":"Lhasa and Qiangtang (Cimmerian Terranes)-India MOR"},"geometry":{"type":"LineString","coordinates":[[69.766,-13.081],[70.078,-13.276],[70.39,-13.47],[70.701,-13.085],[71.011,-12.7],[71.427,-12.979],[71.844,-13.257],[72.262,-13.534],[72.681,-13.811],[73.1,-14.086],[73.521,-14.361],[73.943,-14.636],[74.366,-14.909],[74.79,-15.182],[75.215,-15.454],[75.641,-15.725],[76.068,-15.996],[76.497,-16.265],[76.926,-16.534],[77.357,-16.802],[77.789,-17.068],[78.222,-17.334],[78.657,-17.599],[79.093,-17.863],[79.53,-18.127],[79.968,-18.389],[80.408,-18.65],[80.849,-18.91],[81.292,-19.169],[81.735,-19.427],[82.181,-19.684],[82.627,-19.939],[83.075,-20.194],[83.525,-20.448],[83.976,-20.7],[84.429,-20.951],[84.883,-21.201],[85.338,-21.45],[85.204,-21.771],[85.068,-22.091],[84.932,-22.412],[85.434,-22.573],[85.937,-22.732],[86.442,-22.89],[86.947,-23.046],[87.454,-23.2],[87.962,-23.353],[88.471,-23.504],[88.981,-23.654],[89.492,-23.802],[90.005,-23.948],[90.518,-24.092],[91.033,-24.235],[91.549,-24.376],[92.066,-24.515],[92.579,-24.664],[93.093,-24.811],[93.607,-24.956],[94.124,-25.099],[94.641,-25.241],[95.159,-25.38],[95.679,-25.518],[96.2,-25.654],[96.722,-25.789],[97.245,-25.921]]}},{"type":"Feature","properties":{"boundary_type":"ridge","feature_type":"gpml:MidOceanRidge","polarity":null,"overriding_plate_id":null,"subducting_plate_id":null,"plate_ids":[505,701],"name":"Iran and Afghanistan (Cimmerian Terranes)-Arabia MOR"},"geometry":{"type":"LineString","coordinates":[[48.972,9.595],[49.342,9.286],[49.711,8.976],[50.08,8.666],[50.449,8.356],[50.816,8.045],[51.183,7.734],[51.55,7.423],[51.916,7.112],[52.281,6.8],[52.646,6.488],[53.011,6.175],[53.375,5.862],[53.739,5.55],[54.102,5.237],[54.465,4.923],[54.828,4.61],[55.19,4.296],[55.552,3.982],[55.914,3.668],[56.275,3.354],[56.636,3.04],[56.997,2.725],[56.766,2.371],[56.536,2.017],[56.932,1.73],[57.328,1.443],[57.724,1.156],[58.12,0.868],[58.516,0.581],[58.912,0.294],[59.308,0.006],[59.704,-0.281],[60.1,-0.569],[60.496,-0.856],[60.892,-1.143],[61.288,-1.431],[61.684,-1.718],[61.468,-2.129],[61.252,-2.541],[61.661,-2.811],[62.069,-3.082],[62.478,-3.352],[62.887,-3.622],[63.296,-3.892],[63.705,-4.162],[64.115,-4.431],[64.525,-4.701],[64.936,-4.97],[65.346,-5.239],[65.757,-5.507],[66.169,-5.776],[66.58,-6.043],[66.993,-6.311],[67.405,-6.578],[67.818,-6.845],[68.232,-7.112],[68.646,-7.378],[69.06,-7.644],[69.475,-7.91],[69.891,-8.175],[70.307,-8.44],[70.724,-8.704],[71.141,-8.968],[71.559,-9.231],[71.977,-9.494],[71.734,-9.893],[71.49,-10.292],[71.246,-10.691],[71.001,-11.09],[70.756,-11.489],[70.509,-11.887],[70.262,-12.285],[70.015,-12.683],[69.766,-13.081]]}},{"type":"Feature","properties":{"boundary_type":"ridge","feature_type":"gpml:MidOceanRidge","polarity":null,"overriding_plate_id":null,"subducting_plate_id":null,"plate_ids":[505,701],"name":"MesoTethys MOR (Sibumasu)"},"geometry":{"type":"LineString","coordinates":[[97.245,-25.921],[97.577,-25.522],[97.907,-25.123],[98.235,-24.723],[98.56,-24.323],[98.884,-23.921],[99.205,-23.519],[99.524,-23.117],[99.842,-22.713],[100.158,-22.31],[100.472,-21.905],[100.784,-21.5],[101.094,-21.094],[101.403,-20.688],[101.71,-20.281],[102.12,-20.535],[102.531,-20.787],[102.943,-21.039],[103.357,-21.29],[103.772,-21.539],[104.189,-21.788],[104.607,-22.036],[105.027,-22.282],[105.306,-21.891],[105.584,-21.499],[105.86,-21.107],[106.135,-20.714],[106.408,-20.321],[106.681,-19.927],[106.951,-19.533],[107.409,-19.681],[107.867,-19.828],[108.326,-19.973],[108.786,-20.117],[109.247,-20.26],[109.709,-20.402],[110.171,-20.543],[110.634,-20.682],[111.099,-20.82],[111.564,-20.957],[111.825,-20.536],[112.085,-20.113],[112.344,-19.691],[112.601,-19.268],[112.857,-18.845],[113.112,-18.422],[113.365,-17.998],[113.618,-17.573],[113.869,-17.149],[114.119,-16.724],[114.367,-16.299],[114.788,-16.462],[115.21,-16.624],[115.632,-16.785],[116.056,-16.945],[116.479,-17.104],[116.904,-17.262],[117.329,-17.42],[117.555,-17.002],[117.779,-16.584],[118.003,-16.165],[118.225,-15.747],[118.447,-15.328],[118.668,-14.909],[118.888,-14.489],[119.107,-14.07],[119.325,-13.65],[119.543,-13.23],[119.95,-13.362],[120.358,-13.493],[120.767,-13.624],[121.176,-13.754],[121.585,-13.883],[121.995,-14.011],[122.155,-13.561],[122.315,-13.111],[122.475,-12.661]]}},{"type":"Feature","properties":{"boundary_type":"other","feature_type":"gpml:ContinentalRift","polarity":null,"overriding_plate_id":null,"subducting_plate_id":null,"plate_ids":[101,701],"name":"NAM - SAM rift"},"geometry":{"type":"LineString","coordinates":[[-41.871,-11.1],[-41.472,-10.992],[-41.073,-10.884],[-40.674,-10.776],[-40.227,-10.708],[-39.78,-10.64],[-39.334,-10.572],[-38.887,-10.503],[-38.441,-10.433],[-37.995,-10.362],[-37.549,-10.291],[-37.103,-10.219],[-36.779,-9.871],[-36.455,-9.523],[-36.132,-9.174],[-36.013,-8.749],[-35.894,-8.324],[-35.775,-7.899],[-35.656,-7.474],[-35.537,-7.049],[-35.213,-6.801],[-34.889,-6.554],[-34.565,-6.306],[-34.242,-6.058],[-33.844,-5.996],[-33.447,-5.933],[-33.049,-5.87],[-32.652,-5.807],[-32.255,-5.743],[-31.852,-5.766],[-31.448,-5.789],[-31.045,-5.812],[-30.642,-5.834],[-30.224,-5.881],[-29.807,-5.928],[-29.389,-5.974],[-28.971,-6.02],[-28.471,-6.001],[-27.971,-5.982],[-27.472,-5.962],[-26.972,-5.942],[-26.472,-5.921],[-25.971,-5.899],[-25.471,-5.877],[-24.97,-5.855],[-24.59,-5.801],[-24.21,-5.747],[-23.83,-5.692],[-23.45,-5.638],[-23.044,-5.653],[-22.638,-5.668],[-22.232,-5.682],[-21.825,-5.696],[-21.397,-5.715],[-20.969,-5.733],[-20.541,-5.751],[-20.112,-5.768],[-19.669,-5.805],[-19.226,-5.841],[-18.782,-5.877],[-18.339,-5.913],[-17.896,-5.948],[-17.476,-5.969],[-17.056,-5.99],[-16.636,-6.011],[-16.217,-6.031],[-15.797,-6.051],[-15.343,-6.031],[-14.889,-6.01]]}},{"type":"Feature","properties":{"boundary_type":"subduction","feature_type":"gpml:SubductionZone","polarity":"Left","overriding_plate_id":101,"subducting_plate_id":131,"plate_ids":[101,131],"name":"NAM Subduction"},"geometry":{"type":"LineString","coordinates":[[-43.159,26.959],[-43.392,26.576],[-43.623,26.192],[-43.852,25.808],[-44.08,25.424],[-44.307,25.04],[-44.541,24.623],[-44.773,24.207],[-45.004,23.79],[-45.233,23.373],[-45.461,22.956],[-45.688,22.538],[-45.913,22.12],[-46.137,21.701],[-46.265,21.237],[-46.392,20.773],[-46.518,20.309],[-46.643,19.845],[-46.768,19.381],[-46.892,18.916],[-47.015,18.452],[-47.138,17.987],[-47.26,17.523],[-47.145,17.095],[-47.032,16.667],[-46.919,16.239],[-46.806,15.811],[-46.694,15.383],[-46.582,14.954],[-46.471,14.526],[-46.314,14.073],[-46.158,13.62],[-46.002,13.166],[-45.847,12.713],[-45.693,12.259],[-45.539,11.806],[-45.385,11.352],[-45.232,10.898],[-45.08,10.444],[-44.928,9.99],[-44.776,9.536],[-44.625,9.082],[-44.474,8.628],[-44.323,8.174],[-44.199,7.753],[-44.075,7.332],[-43.951,6.912],[-43.828,6.491],[-43.704,6.07],[-43.581,5.649],[-43.458,5.228]]}},{"type":"Feature","properties":{"boundary_type":"subduction","feature_type":"gpml:SubductionZone","polarity":"Right","overriding_plate_id":902,"subducting_plate_id":131,"plate_ids":[131,902],"name":"Talkeetna-Bonanza SZ"},"geometry":{"type":"LineString","coordinates":[[-105.494,37.027],[-105.183,36.915],[-104.873,36.802],[-104.429,36.477],[-103.989,36.151],[-103.552,35.823],[-103.119,35.494],[-102.689,35.163],[-102.314,34.873],[-101.942,34.581],[-101.572,34.289],[-101.204,33.995],[-100.84,33.7],[-100.477,33.404],[-100.121,33.049],[-99.768,32.693],[-99.417,32.336],[-99.07,31.978],[-98.724,31.618],[-98.382,31.258],[-98.042,30.898],[-97.689,30.584],[-97.337,30.27],[-96.988,29.954],[-96.641,29.638],[-96.297,29.32],[-95.883,29.001],[-95.472,28.681],[-95.063,28.359],[-94.657,28.036],[-94.254,27.712],[-93.852,27.387],[-93.432,27.133],[-93.014,26.878],[-92.597,26.622],[-92.183,26.364],[-91.77,26.106],[-91.359,25.846],[-90.994,25.508],[-90.63,25.17],[-90.269,24.83],[-89.909,24.489],[-89.551,24.148],[-89.196,23.806],[-88.842,23.463],[-88.49,23.119],[-88.1,22.793],[-87.713,22.467],[-87.328,22.139],[-86.944,21.81],[-86.562,21.481],[-86.182,21.15],[-85.803,20.819],[-85.426,20.487],[-85.051,20.154],[-84.677,19.82],[-84.271,19.524],[-83.866,19.227],[-83.463,18.928],[-83.061,18.629],[-82.66,18.329],[-82.261,18.029],[-81.863,17.727],[-81.467,17.425],[-81.072,17.122],[-80.678,16.818],[-80.285,16.513],[-79.894,16.208],[-79.459,15.963],[-79.024,15.717],[-78.591,15.47],[-78.159,15.222],[-77.728,14.973],[-77.297,14.723],[-76.868,14.473],[-76.44,14.222],[-76.013,13.97],[-75.586,13.718],[-75.161,13.464],[-74.736,13.21],[-74.312,12.956],[-73.89,12.7],[-73.468,12.444],[-73.047,12.188],[-72.626,11.93],[-72.207,11.672],[-71.754,11.484],[-71.301,11.295],[-70.85,11.106],[-70.398,10.916],[-69.948,10.725],[-69.498,10.533],[-69.048,10.341],[-68.6,10.149],[-68.151,9.955],[-67.703,9.761],[-67.256,9.567],[-66.809,9.372],[-66.363,9.176],[-65.917,8.98],[-65.472,8.783],[-65.027,8.586],[-64.583,8.388],[-64.139,8.19],[-63.695,7.991],[-63.252,7.792],[-62.809,7.592],[-62.367,7.392],[-61.925,7.191],[-61.484,6.991],[-61.043,6.789],[-60.574,6.662],[-60.106,6.535],[-59.638,6.407],[-59.171,6.279],[-58.703,6.15],[-58.236,6.021],[-57.769,5.892],[-57.302,5.762],[-56.836,5.632],[-56.369,5.501],[-55.903,5.37],[-55.437,5.239],[-54.971,5.108],[-54.506,4.976],[-54.04,4.843],[-53.575,4.711],[-53.11,4.578],[-52.645,4.445],[-52.18,4.311],[-51.716,4.177],[-51.251,4.043],[-50.787,3.909],[-50.323,3.774],[-49.859,3.64],[-49.395,3.505],[-48.932,3.369],[-48.445,3.382],[-47.958,3.395],[-47.471,3.407],[-46.984,3.419],[-46.497,3.431],[-46.01,3.443],[-45.523,3.455],[-45.036,3.466],[-44.549,3.477],[-44.062,3.487],[-43.575,3.498]]}},{"type":"Feature","properties":{"boundary_type":"transform","feature_type":"gpml:Transform","polarity":null,"overriding_plate_id":null,"subducting_plate_id":null,"plate_ids":[131,902],"name":"northern transform"},"geometry":{"type":"LineString","coordinates":[[-105.494,37.027],[-105.46,37.462],[-105.426,37.898],[-105.391,38.333],[-105.356,38.768],[-105.321,39.204],[-105.285,39.639],[-105.248,40.074],[-105.073,40.509],[-104.895,40.943],[-104.716,41.377],[-104.533,41.81],[-104.348,42.243],[-104.161,42.676],[-103.971,43.109],[-103.611,43.529],[-103.246,43.948],[-102.876,44.366],[-102.5,44.783],[-102.119,45.198],[-101.732,45.613],[-101.34,46.025],[-100.941,46.437],[-100.515,46.812],[-100.082,47.186],[-99.644,47.558],[-99.199,47.928],[-98.748,48.297],[-98.29,48.664],[-97.825,49.029],[-97.354,49.392],[-96.875,49.753],[-96.39,50.112],[-95.897,50.469],[-95.397,50.824],[-94.889,51.177],[-94.373,51.527],[-93.849,51.876],[-93.317,52.222],[-92.817,52.608],[-92.307,52.993],[-91.788,53.376],[-91.26,53.756],[-90.722,54.134],[-90.175,54.51],[-89.617,54.883],[-89.049,55.253],[-88.47,55.621],[-87.88,55.986],[-87.279,56.348],[-86.667,56.707],[-86.043,57.063],[-85.407,57.416],[-84.758,57.765],[-84.097,58.111],[-83.423,58.454],[-82.736,58.793],[-82.035,59.129],[-81.321,59.46],[-80.592,59.788],[-79.849,60.111],[-79.304,60.476],[-78.746,60.838],[-78.175,61.199],[-77.592,61.556],[-76.995,61.911],[-76.383,62.264]]}},{"type":"Feature","properties":{"boundary_type":"subduction","feature_type":"gpml:SubductionZone","polarity":"Right","overriding_plate_id":701,"subducting_plate_id":919,"plate_ids":[701,919],"name":"SAM subduction zone prior to 150Ma"},"geometry":{"type":"LineString","coordinates":[[-38.697,-48.084],[-38.388,-47.684],[-38.084,-47.283],[-37.784,-46.882],[-37.489,-46.479],[-37.198,-46.076],[-36.912,-45.672],[-36.774,-45.198],[-36.638,-44.723],[-36.505,-44.248],[-36.374,-43.773],[-36.245,-43.298],[-36.118,-42.822],[-35.993,-42.347],[-35.869,-41.871],[-35.748,-41.396],[-35.56,-41.007],[-35.375,-40.619],[-35.191,-40.23],[-35.01,-39.841],[-34.831,-39.452],[-34.721,-38.995],[-34.613,-38.539],[-34.506,-38.083],[-34.4,-37.626],[-34.296,-37.17],[-34.193,-36.713],[-34.091,-36.256],[-33.99,-35.799],[-33.909,-35.391],[-33.829,-34.983],[-33.75,-34.575],[-33.816,-34.135],[-33.881,-33.695],[-33.864,-33.354],[-33.847,-33.013],[-33.994,-32.581],[-34.141,-32.149],[-34.426,-31.716],[-34.708,-31.281],[-35.051,-30.931],[-35.391,-30.58],[-35.729,-30.228],[-36.064,-29.875],[-36.397,-29.521],[-36.878,-29.274],[-37.358,-29.025],[-37.62,-28.751],[-37.881,-28.477],[-38.14,-28.203]]}},{"type":"Feature","properties":{"boundary_type":"subduction","feature_type":"gpml:SubductionZone","polarity":"Right","overriding_plate_id":701,"subducting_plate_id":902,"plate_ids":[701,902],"name":"SAM subduction zone prior to 150Ma"},"geometry":{"type":"LineString","coordinates":[[-38.14,-28.203],[-38.463,-27.858],[-38.784,-27.513],[-39.104,-27.167],[-39.421,-26.82],[-39.736,-26.473],[-40.049,-26.125],[-40.361,-25.776],[-40.589,-25.361],[-40.815,-24.947],[-41.04,-24.531],[-41.264,-24.116],[-41.486,-23.7],[-41.707,-23.284],[-41.926,-22.868],[-42.144,-22.451],[-42.36,-22.034],[-42.576,-21.617],[-42.79,-21.199],[-42.926,-20.734],[-43.062,-20.268],[-43.197,-19.802],[-43.331,-19.336],[-43.464,-18.87],[-43.597,-18.404],[-43.728,-17.938],[-43.86,-17.471],[-43.744,-16.991],[-43.629,-16.511],[-43.515,-16.031],[-43.402,-15.55],[-43.289,-15.07],[-43.176,-14.589],[-43.115,-14.311],[-43.066,-14.058],[-42.986,-13.782],[-42.896,-13.414],[-42.835,-13.209],[-42.788,-12.966],[-42.631,-12.587],[-42.499,-12.252],[-42.347,-11.983],[-42.111,-11.558],[-41.942,-11.217],[-41.871,-11.1]]}},{"type":"Feature","properties":{"boundary_type":"subduction","feature_type":"gpml:SubductionZone","polarity":"Right","overriding_plate_id":101,"subducting_plate_id":902,"plate_ids":[101,902],"name":"SAM subduction zone prior to 150Ma"},"geometry":{"type":"LineString","coordinates":[[-41.871,-11.1],[-41.759,-10.914],[-41.539,-10.524],[-41.281,-10.202],[-41.042,-9.887],[-40.873,-9.693],[-40.588,-9.373],[-40.273,-9.02],[-39.974,-8.72],[-39.724,-8.534],[-39.481,-8.237],[-39.301,-8.09],[-39.26,-7.914]]}},{"type":"Feature","properties":{"boundary_type":"other","feature_type":"gpml:ContinentalRift","polarity":null,"overriding_plate_id":null,"subducting_plate_id":null,"plate_ids":[701],"name":"Rift250-174.1"},"geometry":{"type":"LineString","coordinates":[[-14.889,-6.01],[-14.708,-5.601],[-14.527,-5.193],[-14.347,-4.785],[-14.148,-4.375],[-13.95,-3.965],[-13.751,-3.555],[-13.553,-3.145],[-13.355,-2.734],[-13.157,-2.324],[-12.959,-1.914],[-12.761,-1.503],[-12.564,-1.093],[-12.293,-0.739],[-12.022,-0.384],[-11.752,-0.029],[-11.481,0.325],[-11.21,0.68],[-10.94,1.034],[-10.691,1.417],[-10.442,1.8],[-10.193,2.183],[-9.944,2.566],[-9.695,2.949],[-9.582,3.391],[-9.469,3.833],[-9.356,4.275],[-9.242,4.716],[-9.129,5.158],[-9.015,5.6],[-8.818,5.951],[-8.62,6.303],[-8.422,6.654],[-8.224,7.006],[-8.026,7.357],[-7.618,7.59],[-7.209,7.823],[-6.8,8.055],[-6.391,8.287],[-5.981,8.518],[-5.57,8.749],[-5.159,8.98],[-4.715,9.167],[-4.269,9.354],[-3.824,9.54],[-3.377,9.726],[-2.931,9.911],[-2.483,10.096],[-2.108,10.38],[-1.732,10.663],[-1.355,10.946],[-0.977,11.229],[-0.515,11.39],[-0.053,11.551],[0.41,11.711],[0.873,11.87],[1.337,12.028],[1.801,12.186],[2.199,12.434],[2.598,12.682],[2.998,12.929],[3.398,13.176],[3.799,13.422],[4.201,13.667],[4.604,13.912],[5.052,14.085],[5.5,14.257]]}},{"type":"Feature","properties":{"boundary_type":"other","feature_type":"gpml:Fault","polarity":null,"overriding_plate_id":null,"subducting_plate_id":null,"plate_ids":[101,701],"name":"IB Fault"},"geometry":{"type":"LineString","coordinates":[[27.034,8.833],[27.335,8.522],[27.635,8.212],[27.935,7.901],[28.235,7.59],[28.534,7.278],[28.833,6.967],[28.747,6.589],[28.662,6.212],[28.778,5.825],[28.894,5.437],[29.01,5.05],[29.15,4.576],[29.291,4.103]]}},{"type":"Feature","properties":{"boundary_type":"transform","feature_type":"gpml:Transform","polarity":null,"overriding_plate_id":null,"subducting_plate_id":null,"plate_ids":[101],"name":"Proto pre-Adriatic 230Ma geom 334 fix"},"geometry":{"type":"LineString","coordinates":[[25.568,17.023],[25.463,17.335],[25.358,17.648],[25.07,17.838],[24.781,18.027],[24.491,18.216],[24.103,18.465],[23.712,18.712],[23.339,18.894],[22.966,19.075],[22.706,19.378],[22.445,19.68],[22.183,19.982]]}},{"type":"Feature","properties":{"boundary_type":"subduction","feature_type":"gpml:SubductionZone","polarity":"Right","overriding_plate_id":701,"subducting_plate_id":919,"plate_ids":[701,919],"name":"South America trench taken from COB file and RUM"},"geometry":{"type":"LineString","coordinates":[[-34.215,-69.185],[-34.449,-69.122],[-35.145,-68.801],[-35.235,-68.741],[-35.641,-68.395],[-35.943,-68.049],[-36.22,-67.685],[-36.473,-67.368],[-36.57,-67.209],[-36.854,-66.913],[-37.363,-66.556],[-37.797,-66.217],[-38.116,-65.9],[-38.407,-65.622],[-38.575,-65.378],[-38.809,-65.068],[-39.032,-64.72],[-39.103,-64.271],[-39.013,-63.9],[-38.925,-63.672],[-38.833,-63.4],[-38.707,-63.086],[-38.599,-62.839],[-38.492,-62.592],[-38.272,-62.16],[-38.146,-61.8],[-38.094,-61.456],[-38.326,-61.031],[-38.437,-60.755],[-38.529,-60.526],[-38.548,-60.448],[-38.592,-60.191],[-38.646,-59.883],[-38.688,-59.516],[-38.699,-59.207],[-38.705,-58.874],[-38.705,-58.507],[-38.707,-58.239],[-38.71,-57.906],[-38.712,-57.574],[-38.71,-57.141],[-38.695,-56.729],[-38.666,-56.344],[-38.644,-56.076],[-38.622,-55.808],[-38.596,-55.512],[-38.593,-55.039],[-38.601,-54.748],[-38.602,-54.377],[-38.439,-54.066],[-38.375,-53.762],[-38.311,-53.459],[-38.311,-53.459],[-38.386,-52.979],[-38.345,-52.532],[-38.26,-52.159],[-38.175,-51.786],[-38.092,-51.413],[-38.01,-51.039],[-38.131,-50.547],[-38.249,-50.055],[-38.364,-49.562],[-38.477,-49.069],[-38.588,-48.577],[-38.697,-48.084]]}},{"type":"Feature","properties":{"boundary_type":"ridge","feature_type":"gpml:MidOceanRidge","polarity":null,"overriding_plate_id":null,"subducting_plate_id":null,"plate_ids":[902,919],"name":"Farallon-Izanagi ridge"},"geometry":{"type":"LineString","coordinates":[[-122.197,-18.941],[-122.236,-18.837]]}},{"type":"Feature","properties":{"boundary_type":"ridge","feature_type":"gpml:MidOceanRidge","polarity":null,"overriding_plate_id":null,"subducting_plate_id":null,"plate_ids":[902,926],"name":"Farallon-Izanagi ridge"},"geometry":{"type":"LineString","coordinates":[[-122.236,-18.837],[-122.397,-18.402],[-122.558,-17.967],[-122.717,-17.532],[-122.876,-17.096],[-123.035,-16.661],[-123.192,-16.225],[-123.349,-15.79],[-123.505,-15.354],[-123.661,-14.918],[-123.816,-14.482],[-123.996,-14.027],[-124.175,-13.572],[-124.354,-13.117],[-124.532,-12.661],[-124.71,-12.206],[-124.886,-11.75],[-125.063,-11.295],[-125.238,-10.839],[-125.414,-10.383],[-125.588,-9.927],[-125.763,-9.471],[-125.936,-9.014],[-126.11,-8.558],[-126.282,-8.102],[-126.455,-7.645],[-126.627,-7.189],[-126.799,-6.732],[-126.97,-6.276],[-127.141,-5.819],[-127.312,-5.362],[-127.483,-4.905],[-127.653,-4.449],[-127.824,-3.992],[-127.357,-3.839],[-126.892,-3.686],[-126.426,-3.533],[-125.96,-3.38],[-125.495,-3.226],[-125.029,-3.073],[-125.179,-2.599],[-125.329,-2.125],[-125.478,-1.651],[-125.627,-1.177],[-125.777,-0.704],[-125.926,-0.23],[-126.075,0.244],[-126.225,0.718],[-126.374,1.192],[-126.523,1.666],[-126.673,2.139],[-126.822,2.613],[-126.972,3.087],[-127.122,3.561],[-127.272,4.034],[-127.422,4.508],[-127.572,4.982],[-127.723,5.455],[-127.873,5.929],[-128.024,6.403],[-128.176,6.876],[-128.327,7.35],[-128.479,7.823],[-128.632,8.296],[-128.784,8.77],[-128.937,9.243],[-129.091,9.716],[-129.245,10.189],[-129.399,10.662],[-129.554,11.135],[-129.118,11.262],[-128.681,11.388],[-128.245,11.514],[-127.807,11.639],[-127.37,11.764],[-126.932,11.887],[-127.092,12.361],[-127.253,12.834],[-127.415,13.307],[-127.577,13.78],[-127.74,14.253],[-127.904,14.726],[-128.068,15.199],[-128.234,15.672],[-128.399,16.144],[-128.566,16.617],[-128.734,17.089],[-128.902,17.561],[-129.071,18.033],[-129.241,18.505],[-129.412,18.976],[-129.584,19.448],[-129.758,19.919],[-129.932,20.391],[-130.107,20.862],[-130.283,21.332],[-130.46,21.803],[-130.639,22.273],[-130.819,22.744],[-131.0,23.214],[-131.182,23.684],[-131.366,24.153],[-131.551,24.623],[-131.737,25.092],[-131.925,25.561],[-132.114,26.03],[-132.305,26.498],[-132.497,26.966],[-132.691,27.434],[-132.887,27.902],[-133.084,28.369],[-133.283,28.836],[-133.484,29.303],[-133.686,29.77],[-133.891,30.236],[-134.097,30.702],[-133.556,30.879],[-133.013,31.055],[-132.468,31.228],[-131.921,31.399],[-131.372,31.567],[-130.821,31.733],[-131.017,32.196],[-131.216,32.659],[-131.417,33.122],[-131.62,33.584],[-131.825,34.046],[-132.032,34.508],[-132.242,34.969],[-132.454,35.43],[-132.669,35.89],[-132.886,36.35],[-133.105,36.81],[-133.328,37.269],[-133.553,37.728],[-133.78,38.186],[-134.011,38.644],[-134.245,39.102],[-134.481,39.559],[-134.721,40.015],[-134.964,40.472],[-135.211,40.927],[-135.461,41.382],[-135.714,41.837],[-135.971,42.29],[-136.232,42.744],[-136.496,43.196],[-136.765,43.649],[-137.037,44.1],[-137.314,44.551],[-137.595,45.001],[-137.88,45.45],[-137.287,45.676],[-136.688,45.899],[-136.085,46.118],[-135.477,46.335],[-134.864,46.548],[-135.189,46.988],[-135.52,47.427],[-135.856,47.865],[-136.198,48.303],[-136.546,48.739],[-136.9,49.174],[-137.26,49.608],[-137.627,50.041],[-138.0,50.473],[-138.38,50.903],[-138.767,51.332],[-139.162,51.76],[-139.564,52.187],[-139.974,52.612],[-140.392,53.036],[-140.818,53.458],[-141.253,53.879],[-141.696,54.298],[-142.149,54.716],[-142.611,55.131],[-143.083,55.545],[-143.565,55.957],[-144.057,56.368],[-144.56,56.776],[-145.073,57.182],[-145.599,57.586],[-146.136,57.988],[-146.685,58.387],[-147.247,58.784],[-147.821,59.179]]}},{"type":"Feature","properties":{"boundary_type":"ridge","feature_type":"gpml:MidOceanRidge","polarity":null,"overriding_plate_id":null,"subducting_plate_id":null,"plate_ids":[919,926],"name":"Phoenix-Izanagi ridge"},"geometry":{"type":"LineString","coordinates":[[-122.236,-18.837],[-122.685,-19.064],[-123.136,-19.29],[-123.588,-19.515],[-124.041,-19.739],[-124.495,-19.962],[-124.951,-20.184],[-125.408,-20.404],[-125.866,-20.624],[-126.326,-20.842],[-126.787,-21.059],[-127.249,-21.274],[-127.713,-21.489],[-128.178,-21.702],[-128.644,-21.913],[-129.112,-22.124],[-129.581,-22.333],[-130.052,-22.541],[-130.524,-22.747],[-130.997,-22.952],[-131.472,-23.156],[-131.948,-23.358],[-132.426,-23.558],[-132.905,-23.758],[-133.386,-23.955],[-133.622,-23.542],[-133.856,-23.128],[-134.088,-22.714],[-134.32,-22.3],[-134.55,-21.885],[-134.778,-21.47],[-135.25,-21.703],[-135.723,-21.935],[-136.198,-22.166],[-136.674,-22.396],[-137.152,-22.624],[-137.631,-22.85],[-138.112,-23.075],[-138.595,-23.299],[-139.079,-23.521],[-139.565,-23.742],[-140.052,-23.961],[-140.541,-24.179],[-141.032,-24.395],[-141.525,-24.609],[-142.019,-24.822],[-142.515,-25.034],[-143.012,-25.243],[-143.511,-25.451],[-144.012,-25.657],[-144.515,-25.862],[-144.701,-25.425],[-144.887,-24.988],[-145.07,-24.55],[-145.253,-24.113],[-145.434,-23.675],[-145.614,-23.237],[-146.106,-23.443],[-146.599,-23.647],[-147.093,-23.85],[-147.59,-24.052],[-148.087,-24.252],[-148.586,-24.45],[-149.087,-24.646],[-149.59,-24.841],[-150.094,-25.034],[-150.599,-25.226],[-151.106,-25.415],[-151.615,-25.603],[-152.125,-25.79],[-152.637,-25.974],[-153.151,-26.157],[-153.666,-26.337],[-154.182,-26.516],[-154.701,-26.693],[-155.221,-26.869],[-155.742,-27.042],[-155.949,-26.583],[-156.154,-26.124],[-156.357,-25.664],[-156.559,-25.205],[-156.76,-24.745],[-157.27,-24.917],[-157.781,-25.087],[-158.294,-25.256],[-158.808,-25.423],[-159.324,-25.588],[-159.841,-25.752],[-160.36,-25.913],[-160.88,-26.073],[-161.401,-26.231],[-161.924,-26.387],[-162.448,-26.541],[-162.974,-26.693],[-163.501,-26.843],[-164.029,-26.992],[-164.559,-27.138],[-165.09,-27.282],[-165.623,-27.424],[-166.157,-27.565],[-166.692,-27.703],[-167.229,-27.839],[-167.767,-27.973],[-168.306,-28.105],[-168.847,-28.235],[-169.388,-28.362],[-169.932,-28.488],[-170.476,-28.611],[-171.022,-28.733],[-171.569,-28.852],[-172.117,-28.968],[-172.667,-29.083],[-172.838,-28.619],[-173.008,-28.154],[-173.176,-27.689],[-173.343,-27.225],[-173.508,-26.759],[-173.672,-26.294],[-174.218,-26.39],[-174.765,-26.483],[-175.312,-26.574],[-175.86,-26.663],[-176.409,-26.75],[-176.959,-26.835],[-177.51,-26.918],[-178.062,-26.998],[-178.614,-27.077],[-179.167,-27.153],[-179.721,-27.227],[179.724,-27.299],[179.169,-27.369],[178.613,-27.436],[178.056,-27.502],[177.499,-27.565],[176.941,-27.626],[176.383,-27.684],[175.824,-27.741],[175.264,-27.795],[174.704,-27.847],[174.143,-27.897],[173.582,-27.944],[173.02,-27.989],[172.458,-28.032],[171.895,-28.072],[171.332,-28.111],[170.768,-28.146],[170.205,-28.18],[169.641,-28.211],[169.472,-27.738],[169.304,-27.264],[169.139,-26.79],[168.974,-26.316],[168.811,-25.842],[168.649,-25.368],[168.489,-24.893],[168.329,-24.418],[168.171,-23.944],[167.668,-24.126],[167.163,-24.306],[166.656,-24.485],[166.148,-24.662],[165.639,-24.837],[165.128,-25.011],[164.616,-25.182],[164.103,-25.353],[163.588,-25.521],[163.071,-25.687],[162.553,-25.852],[162.034,-26.015],[161.513,-26.176],[160.991,-26.335],[160.467,-26.492],[159.942,-26.647],[159.416,-26.801],[158.888,-26.952],[158.359,-27.101],[157.828,-27.249],[157.296,-27.394],[156.762,-27.538],[156.227,-27.679],[155.691,-27.818],[155.153,-27.955],[154.615,-28.09],[154.074,-28.223],[153.532,-28.354],[152.99,-28.483],[152.445,-28.61],[151.9,-28.734],[151.353,-28.856],[150.804,-28.976],[150.255,-29.094],[149.704,-29.209],[149.152,-29.323],[148.599,-29.434],[148.045,-29.542],[147.489,-29.649],[146.933,-29.753],[146.375,-29.855],[145.816,-29.954],[145.256,-30.051],[144.695,-30.146],[144.133,-30.238],[143.569,-30.328],[143.005,-30.415],[142.44,-30.5],[141.874,-30.583],[141.307,-30.663]]}},{"type":"Feature","properties":{"boundary_type":"ridge","feature_type":"gpml:MidOceanRidge","polarity":null,"overriding_plate_id":null,"subducting_plate_id":null,"plate_ids":[902,919],"name":"Phoenix-Izanagi Mid Ocean Ridge MS 06/11"},"geometry":{"type":"LineString","coordinates":[[-122.197,-18.941],[-121.824,-19.088],[-121.451,-19.234],[-121.077,-19.379],[-120.703,-19.524],[-120.208,-19.69],[-119.713,-19.854],[-119.216,-20.017],[-118.719,-20.179],[-118.22,-20.339],[-117.72,-20.498],[-117.22,-20.655],[-116.718,-20.811],[-116.215,-20.966],[-115.711,-21.119],[-115.206,-21.27],[-114.7,-21.42],[-114.193,-21.569],[-113.685,-21.716],[-113.176,-21.861],[-112.666,-22.005],[-112.155,-22.147],[-111.643,-22.288],[-111.13,-22.427],[-110.616,-22.564],[-110.101,-22.7],[-109.584,-22.834],[-109.067,-22.967],[-108.549,-23.098],[-108.03,-23.227],[-107.51,-23.354],[-106.988,-23.48],[-106.466,-23.604],[-105.943,-23.726],[-105.419,-23.846],[-104.894,-23.965],[-104.368,-24.082],[-103.841,-24.197],[-103.313,-24.31],[-102.784,-24.422],[-102.254,-24.531],[-101.723,-24.639],[-101.192,-24.745],[-100.659,-24.849],[-100.126,-24.951],[-100.171,-25.36],[-100.218,-25.77],[-100.264,-26.18],[-100.311,-26.59],[-100.358,-26.999],[-99.832,-27.091],[-99.305,-27.18],[-98.777,-27.267],[-98.249,-27.353],[-97.72,-27.436],[-97.189,-27.518],[-96.659,-27.597],[-96.127,-27.674],[-95.594,-27.75],[-95.061,-27.823],[-94.527,-27.894],[-93.993,-27.963],[-93.458,-28.03],[-92.922,-28.095],[-92.385,-28.158],[-91.848,-28.219],[-91.31,-28.278],[-90.772,-28.335],[-90.233,-28.389],[-89.694,-28.442],[-89.154,-28.492],[-89.194,-28.966],[-89.234,-29.441],[-89.275,-29.915],[-89.316,-30.39],[-88.761,-30.434],[-88.205,-30.476],[-87.649,-30.516],[-87.093,-30.553],[-86.536,-30.588],[-85.979,-30.621],[-85.421,-30.651],[-84.863,-30.679],[-84.305,-30.704],[-83.746,-30.727],[-83.188,-30.748],[-82.629,-30.766],[-82.07,-30.782],[-81.51,-30.795],[-80.951,-30.806],[-80.391,-30.815],[-79.831,-30.821],[-79.272,-30.825],[-78.712,-30.827],[-78.152,-30.826],[-77.592,-30.822],[-77.578,-31.23],[-77.563,-31.638],[-77.548,-32.046],[-77.533,-32.454],[-76.959,-32.461],[-76.385,-32.466],[-75.81,-32.468],[-75.236,-32.467],[-74.661,-32.464],[-74.087,-32.459],[-73.513,-32.45],[-72.939,-32.439],[-72.365,-32.426],[-71.791,-32.41],[-71.217,-32.391],[-70.644,-32.37],[-70.071,-32.346],[-69.498,-32.32],[-68.926,-32.29],[-68.354,-32.259],[-67.783,-32.225],[-67.211,-32.188],[-66.641,-32.149],[-66.071,-32.107],[-65.501,-32.062],[-64.932,-32.015],[-64.364,-31.966],[-63.796,-31.914],[-63.229,-31.859],[-62.662,-31.802],[-62.097,-31.742],[-61.532,-31.68],[-60.967,-31.616],[-60.404,-31.549],[-59.841,-31.479],[-59.624,-31.933],[-59.404,-32.387],[-59.182,-32.84],[-58.958,-33.294],[-58.383,-33.204],[-57.81,-33.113],[-57.238,-33.019],[-56.667,-32.922],[-56.098,-32.822],[-55.53,-32.72],[-54.963,-32.616],[-54.397,-32.509],[-53.833,-32.399],[-53.27,-32.287],[-52.709,-32.172],[-52.149,-32.055],[-51.59,-31.935],[-51.033,-31.813],[-50.478,-31.689],[-49.924,-31.562],[-49.371,-31.433],[-48.82,-31.301],[-48.271,-31.167],[-47.723,-31.031],[-47.176,-30.892],[-46.632,-30.752],[-46.089,-30.609],[-45.547,-30.463],[-45.007,-30.316],[-44.469,-30.166],[-43.932,-30.014],[-43.397,-29.86],[-42.864,-29.703],[-42.332,-29.545],[-41.802,-29.384],[-41.274,-29.222],[-40.748,-29.057],[-40.223,-28.89],[-39.7,-28.721],[-39.178,-28.55],[-38.658,-28.378],[-38.14,-28.203]]}},{"type":"Feature","properties":{"boundary_type":"subduction","feature_type":"gpml:SubductionZone","polarity":"Left","overriding_plate_id":380,"subducting_plate_id":505,"plate_ids":[380,505],"name":"Southern Eurasia SZ"},"geometry":{"type":"LineString","coordinates":[[103.524,57.254],[104.204,57.123],[104.879,56.989],[105.549,56.851],[106.214,56.71],[106.966,56.445],[107.707,56.175],[108.438,55.901],[109.159,55.622],[109.869,55.34],[110.57,55.053],[111.26,54.763],[111.964,54.484],[112.659,54.202],[113.344,53.915],[114.019,53.625],[114.686,53.331],[115.336,53.062],[115.979,52.789],[116.614,52.513],[117.241,52.234],[117.912,52.068],[118.577,51.897],[119.238,51.723],[119.894,51.545],[120.623,51.461],[121.349,51.372],[122.072,51.278],[122.793,51.18],[123.242,51.142],[123.69,51.103]]}},{"type":"Feature","properties":{"boundary_type":"subduction","feature_type":"gpml:SubductionZone","polarity":"Left","overriding_plate_id":380,"subducting_plate_id":602,"plate_ids":[380,602],"name":"Southern Eurasia SZ"},"geometry":{"type":"LineString","coordinates":[[123.69,51.103],[124.322,51.044],[124.953,50.981],[125.581,50.915],[126.098,50.765],[126.612,50.612],[127.122,50.457],[127.658,50.133],[128.186,49.806],[128.7,49.644],[129.21,49.48],[129.717,49.314],[130.168,48.954],[130.613,48.592],[131.051,48.229],[131.483,47.865],[131.857,47.48],[132.224,47.095],[132.587,46.708],[132.944,46.32],[133.297,45.931],[133.644,45.541],[133.987,45.15],[134.37,44.816],[134.749,44.48],[135.155,44.304],[135.559,44.126],[136.141,44.299],[136.725,44.468],[137.102,44.306],[137.546,44.078],[137.987,43.848],[138.424,43.617],[139.039,43.433],[139.649,43.246],[140.306,43.178],[140.961,43.106],[141.614,43.03]]}},{"type":"Feature","properties":{"boundary_type":"transform","feature_type":"gpml:Transform","polarity":null,"overriding_plate_id":null,"subducting_plate_id":null,"plate_ids":[380,926],"name":"Mongol transform"},"geometry":{"type":"LineString","coordinates":[[153.535,38.197],[154.043,38.241],[154.551,38.283],[155.097,38.276],[155.644,38.266],[156.189,38.254],[156.735,38.239],[157.281,38.221],[157.826,38.201],[158.371,38.179],[158.891,38.124],[159.41,38.067],[159.929,38.008],[160.446,37.946],[160.963,37.883],[161.504,38.133],[162.048,38.381],[162.596,38.627],[163.148,38.87],[163.704,39.111],[164.263,39.349],[164.827,39.584],[165.394,39.816],[165.964,40.046],[166.539,40.272],[167.118,40.496],[167.7,40.717],[168.286,40.935],[168.877,41.151],[169.471,41.363],[170.068,41.572],[170.67,41.777],[171.276,41.98],[171.885,42.18],[172.498,42.376],[172.986,42.7],[173.479,43.022],[173.976,43.342],[174.48,43.66],[174.988,43.976],[175.502,44.289],[176.021,44.6],[176.546,44.908],[177.077,45.214],[177.613,45.518],[178.156,45.819],[178.704,46.118],[179.257,46.414],[179.817,46.707],[-179.617,46.997],[-179.044,47.285],[-178.466,47.57],[-177.881,47.851],[-177.29,48.13],[-176.693,48.406],[-176.089,48.678],[-175.478,48.948],[-174.861,49.214],[-174.237,49.477],[-173.607,49.736],[-172.97,49.992],[-172.326,50.245],[-171.675,50.493],[-171.082,50.796],[-170.482,51.096],[-169.873,51.393],[-169.257,51.686],[-168.632,51.976],[-168.0,52.263],[-167.359,52.547],[-166.711,52.827],[-166.053,53.103],[-165.388,53.376],[-164.713,53.645],[-164.031,53.91],[-163.339,54.171],[-162.639,54.428],[-161.93,54.681],[-161.212,54.93],[-160.486,55.175],[-159.75,55.415],[-159.006,55.651],[-158.252,55.882],[-157.49,56.108],[-156.719,56.33],[-155.939,56.547],[-155.15,56.759],[-154.352,56.966],[-153.545,57.168],[-152.73,57.364],[-151.906,57.556],[-151.073,57.742],[-150.444,58.036],[-149.804,58.326],[-149.154,58.614],[-148.493,58.898],[-147.821,59.179]]}},{"type":"Feature","properties":{"boundary_type":"transform","feature_type":"gpml:Transform","polarity":null,"overriding_plate_id":null,"subducting_plate_id":null,"plate_ids":[380,902],"name":"Mongol transform"},"geometry":{"type":"LineString","coordinates":[[-147.821,59.179],[-147.071,59.483],[-146.307,59.783],[-145.53,60.078],[-144.739,60.368],[-143.933,60.654],[-143.113,60.935],[-142.279,61.211],[-141.43,61.482],[-140.567,61.747],[-139.689,62.007],[-138.795,62.261],[-137.887,62.509],[-136.963,62.751],[-136.025,62.987],[-135.071,63.217],[-134.103,63.44],[-133.119,63.657],[-132.12,63.866]]}},{"type":"Feature","properties":{"boundary_type":"transform","feature_type":"gpml:Transform","polarity":null,"overriding_plate_id":null,"subducting_plate_id":null,"plate_ids":[498,926],"name":"Transform near junction"},"geometry":{"type":"LineString","coordinates":[[143.959,-21.682],[143.827,-22.164],[143.693,-22.646],[143.559,-23.129],[143.424,-23.611],[143.287,-24.093],[143.15,-24.575],[143.011,-25.057],[142.872,-25.538],[142.731,-26.02],[142.589,-26.501],[142.446,-26.982],[142.301,-27.463],[142.156,-27.944],[142.009,-28.425],[141.861,-28.906],[141.711,-29.386]]}},{"type":"Feature","properties":{"boundary_type":"transform","feature_type":"gpml:Transform","polarity":null,"overriding_plate_id":null,"subducting_plate_id":null,"plate_ids":[701,926],"name":"Transform near junction"},"geometry":{"type":"LineString","coordinates":[[141.711,-29.386],[141.577,-29.812],[141.443,-30.237],[141.307,-30.663]]}},{"type":"Feature","properties":{"boundary_type":"transform","feature_type":"gpml:Transform","polarity":null,"overriding_plate_id":null,"subducting_plate_id":null,"plate_ids":[701,919],"name":"Transform near junction"},"geometry":{"type":"LineString","coordinates":[[141.307,-30.663],[141.167,-31.096],[141.026,-31.528],[140.883,-31.961],[140.74,-32.394],[140.594,-32.826],[140.448,-33.258],[140.3,-33.69],[140.15,-34.122]]}},{"type":"Feature","properties":{"boundary_type":"transform","feature_type":"gpml:Transform","polarity":null,"overriding_plate_id":null,"subducting_plate_id":null,"plate_ids":[602,926],"name":"Eastern China Izanagi transform"},"geometry":{"type":"LineString","coordinates":[[145.104,41.143],[144.487,41.064],[143.872,40.982],[143.259,40.897],[142.647,40.808],[142.036,40.716],[141.435,40.792],[140.833,40.865],[140.229,40.934],[139.624,41.0],[139.018,41.063],[138.411,41.123],[137.802,41.18],[137.193,41.233],[136.582,41.283],[136.062,41.051],[135.545,40.816],[135.032,40.579],[134.522,40.34],[134.016,40.098],[133.514,39.854],[133.015,39.608],[132.52,39.36],[132.029,39.11],[131.541,38.858],[131.317,38.649],[131.095,38.439]]}},{"type":"Feature","properties":{"boundary_type":"transform","feature_type":"gpml:Transform","polarity":null,"overriding_plate_id":null,"subducting_plate_id":null,"plate_ids":[380,602],"name":"China collisional transform"},"geometry":{"type":"LineString","coordinates":[[141.614,43.03],[142.067,42.756],[142.516,42.479],[142.961,42.201],[143.358,41.975],[143.752,41.748],[144.144,41.519],[144.625,41.332],[145.104,41.143]]}},{"type":"Feature","properties":{"boundary_type":"transform","feature_type":"gpml:Transform","polarity":null,"overriding_plate_id":null,"subducting_plate_id":null,"plate_ids":[380,926],"name":"China collisional transform"},"geometry":{"type":"LineString","coordinates":[[145.104,41.143],[145.466,40.997],[145.827,40.851],[146.325,40.669],[146.82,40.484],[147.312,40.298],[147.802,40.109],[148.34,40.18],[148.88,40.248],[149.305,40.118],[149.728,39.987],[150.284,39.739],[150.836,39.489],[151.383,39.235],[151.927,38.98],[152.467,38.721],[153.003,38.461],[153.535,38.197]]}},{"type":"Feature","properties":{"boundary_type":"subduction","feature_type":"gpml:SubductionZone","polarity":"Right","overriding_plate_id":380,"subducting_plate_id":505,"plate_ids":[380,505],"name":"Monghol-Okhosk subduction"},"geometry":{"type":"LineString","coordinates":[[103.524,57.254],[102.96,56.9],[102.408,56.544],[101.866,56.185],[101.333,55.824],[100.811,55.461],[100.298,55.095],[99.795,54.728],[98.983,54.652],[98.174,54.57],[97.369,54.483],[96.567,54.391],[95.769,54.294],[94.975,54.191],[94.185,54.083],[93.398,53.97],[92.617,53.852],[91.84,53.729],[91.071,53.62],[90.306,53.507],[89.545,53.388],[88.789,53.265],[88.037,53.137],[87.289,53.005],[86.547,52.867]]}},{"type":"Feature","properties":{"boundary_type":"transform","feature_type":"gpml:Transform","polarity":null,"overriding_plate_id":null,"subducting_plate_id":null,"plate_ids":[505,926],"name":"Southern Eurasia transform"},"geometry":{"type":"LineString","coordinates":[[123.565,-9.683],[123.804,-9.263],[124.043,-8.843],[124.395,-8.569],[124.746,-8.294],[125.097,-8.02],[125.447,-7.745],[125.797,-7.47],[126.243,-7.296],[126.688,-7.122],[127.133,-6.947],[127.578,-6.772],[128.022,-6.597],[128.466,-6.421],[128.91,-6.245],[129.342,-6.015],[129.774,-5.785],[130.205,-5.555],[130.636,-5.324],[131.067,-5.093],[131.497,-4.862],[131.927,-4.631],[132.337,-4.407],[132.746,-4.184],[133.155,-3.961],[133.563,-3.737],[133.972,-3.513],[134.38,-3.289],[134.788,-3.064],[135.196,-2.84],[135.604,-2.615],[135.75,-2.138],[135.896,-1.661],[136.042,-1.185],[136.188,-0.708],[136.334,-0.231],[136.48,0.246],[136.625,0.723],[136.771,1.2],[136.697,1.65],[136.622,2.1],[136.547,2.551],[136.472,3.001],[136.397,3.451],[136.322,3.901],[136.276,4.373],[136.23,4.844],[136.183,5.315],[136.137,5.786],[135.957,6.221],[135.778,6.657],[135.597,7.092],[135.417,7.528],[135.29,7.964],[135.163,8.4],[135.035,8.836],[134.908,9.272],[134.78,9.708],[134.441,10.004],[134.101,10.3],[133.76,10.596],[133.419,10.891],[133.078,11.187],[132.735,11.481],[132.553,11.902],[132.37,12.324],[132.187,12.745],[132.003,13.166],[131.818,13.586],[131.669,14.031],[131.52,14.476],[131.369,14.92],[131.218,15.365],[131.067,15.809],[130.915,16.253],[130.762,16.698],[130.608,17.142],[130.454,17.586],[130.299,18.029],[130.143,18.473]]}},{"type":"Feature","properties":{"boundary_type":"transform","feature_type":"gpml:Transform","polarity":null,"overriding_plate_id":null,"subducting_plate_id":null,"plate_ids":[505,602],"name":"Transform north of SCB"},"geometry":{"type":"LineString","coordinates":[[88.031,32.566],[88.433,32.898],[88.838,33.229],[89.247,33.558],[89.659,33.886],[90.073,34.212],[90.491,34.537],[90.913,34.861],[91.337,35.183],[91.765,35.503],[92.197,35.822],[92.632,36.14],[93.07,36.456],[93.512,36.77],[93.958,37.083],[94.407,37.394],[94.828,37.734],[95.254,38.072],[95.683,38.409],[96.116,38.745],[96.553,39.078],[96.995,39.411],[97.441,39.741],[97.891,40.07],[98.345,40.396],[98.804,40.722],[99.267,41.045],[99.735,41.366],[100.207,41.686],[100.684,42.003],[101.166,42.319],[101.653,42.632],[102.144,42.944],[102.641,43.253],[103.172,43.536],[103.708,43.817],[104.249,44.095],[104.796,44.37],[105.347,44.643],[105.904,44.913],[106.465,45.18],[107.032,45.445],[107.605,45.706],[108.183,45.965],[108.766,46.221],[109.354,46.474],[109.948,46.724],[110.548,46.971],[111.153,47.214],[111.763,47.454],[112.379,47.692],[113.001,47.925],[113.628,48.156],[114.261,48.383],[114.9,48.606],[115.544,48.826],[116.193,49.037],[116.848,49.244],[117.508,49.448],[118.173,49.648],[118.844,49.844],[119.521,50.036],[120.203,50.224],[120.89,50.408],[121.582,50.588],[122.28,50.764],[122.982,50.935],[123.69,51.103]]}},{"type":"Feature","properties":{"boundary_type":"subduction","feature_type":"gpml:SubductionZone","polarity":"Right","overriding_plate_id":602,"subducting_plate_id":926,"plate_ids":[602,926],"name":"Eastern China Izanagi subduction"},"geometry":{"type":"LineString","coordinates":[[131.095,38.439],[130.703,38.067],[130.316,37.692],[129.933,37.317],[129.553,36.941],[129.177,36.563],[128.805,36.184],[128.437,35.804],[128.072,35.423],[127.71,35.04],[127.434,34.638],[127.161,34.235],[126.89,33.832],[126.622,33.427],[126.356,33.023],[126.093,32.617],[125.832,32.212],[125.806,31.73],[125.779,31.249],[125.753,30.767],[125.728,30.285],[125.702,29.804],[125.677,29.322],[125.652,28.841],[125.627,28.359],[125.603,27.877],[125.578,27.396],[125.554,26.914],[125.53,26.433],[125.507,25.951],[125.483,25.469],[125.46,24.988],[125.437,24.506],[125.562,24.025],[125.687,23.544],[125.811,23.063],[125.934,22.581],[126.056,22.1],[126.177,21.618],[126.298,21.136],[126.009,20.757],[125.722,20.378],[125.436,19.997],[125.151,19.617],[124.868,19.236],[124.586,18.854],[124.306,18.473],[124.027,18.09],[123.749,17.708]]}},{"type":"Feature","properties":{"boundary_type":"subduction","feature_type":"gpml:SubductionZone","polarity":"Right","overriding_plate_id":926,"subducting_plate_id":505,"plate_ids":[505,926],"name":"SZ south of SCB"},"geometry":{"type":"LineString","coordinates":[[130.143,18.473],[129.649,18.422],[129.156,18.369],[128.663,18.315],[128.17,18.26],[127.677,18.204],[127.185,18.146],[126.693,18.087],[126.201,18.027],[125.71,17.965],[125.219,17.903],[124.729,17.839],[124.238,17.774],[123.749,17.708]]}},{"type":"Feature","properties":{"boundary_type":"subduction","feature_type":"gpml:SubductionZone","polarity":"Right","overriding_plate_id":602,"subducting_plate_id":505,"plate_ids":[505,602],"name":"SZ south of SCB"},"geometry":{"type":"LineString","coordinates":[[123.749,17.708],[123.631,17.691],[123.131,17.591],[122.632,17.489],[122.134,17.386],[121.636,17.282],[121.138,17.176],[120.641,17.07],[120.145,16.962],[119.649,16.853],[119.154,16.742],[118.659,16.631],[118.147,16.648],[117.635,16.664],[117.123,16.679],[116.61,16.692],[116.098,16.704],[115.586,16.715],[115.073,16.725],[114.56,16.733],[114.048,16.74],[113.548,16.777],[113.049,16.812],[112.549,16.847],[112.049,16.88],[111.549,16.912],[111.048,16.942],[110.548,16.972],[110.047,17.0],[109.546,17.027],[109.074,17.142],[108.602,17.257],[108.129,17.37],[107.656,17.482],[107.182,17.593],[106.707,17.703],[106.266,17.831],[105.824,17.958],[105.381,18.084],[104.938,18.209],[104.494,18.333],[104.05,18.456],[103.605,18.578],[103.159,18.699]]}},{"type":"Feature","properties":{"boundary_type":"transform","feature_type":"gpml:Transform","polarity":null,"overriding_plate_id":null,"subducting_plate_id":null,"plate_ids":[505,602],"name":"transform SCB"},"geometry":{"type":"LineString","coordinates":[[103.159,18.699],[102.673,18.883],[102.186,19.065],[101.698,19.247],[101.209,19.427],[100.719,19.605],[100.227,19.783],[99.735,19.958],[99.241,20.133],[98.846,20.446],[98.45,20.758],[98.052,21.068],[97.653,21.378],[97.251,21.687],[96.848,21.995],[96.443,22.302],[96.049,22.608],[95.652,22.913],[95.254,23.217],[94.853,23.52],[94.451,23.822],[94.047,24.122],[93.642,24.422],[93.234,24.721],[92.824,25.018],[92.412,25.315],[92.116,25.715],[91.817,26.116],[91.516,26.515],[91.214,26.914],[90.909,27.312],[90.601,27.71],[90.292,28.107],[89.98,28.503],[89.666,28.898],[89.468,29.358],[89.269,29.817],[89.067,30.276],[88.864,30.735],[88.659,31.193],[88.451,31.651],[88.242,32.109],[88.031,32.566]]}},{"type":"Feature","properties":{"boundary_type":"subduction","feature_type":"gpml:SubductionZone","polarity":"Left","overriding_plate_id":101,"subducting_plate_id":380,"plate_ids":[101,380],"name":"Monghol-Okhosk Subduction Zone"},"geometry":{"type":"LineString","coordinates":[[102.18,81.842],[102.945,82.323],[103.813,82.802],[104.803,83.28],[105.943,83.755],[107.27,84.228],[108.832,84.696],[110.694,85.161],[112.947,85.619],[115.719,86.068],[119.196,86.507],[123.647,86.928],[129.463,87.326],[137.195,87.687],[147.507,87.991],[160.872,88.209],[176.802,88.308],[-166.723,88.267],[-152.131,88.095],[-140.56,87.823],[-131.826,87.483],[-125.28,87.099],[-120.745,86.692],[-117.22,86.268],[-114.421,85.834],[-112.154,85.391],[-110.285,84.943],[-108.722,84.49],[-107.396,84.034],[-106.259,83.574],[-105.273,83.113],[-104.41,82.65],[-103.65,82.185],[-102.974,81.72],[-102.37,81.253],[-101.826,80.785],[-101.335,80.317],[-100.889,79.848],[-100.482,79.378],[-99.768,79.058],[-99.095,78.735]]}},{"type":"Feature","properties":{"boundary_type":"transform","feature_type":"gpml:Transform","polarity":null,"overriding_plate_id":null,"subducting_plate_id":null,"plate_ids":[101,380],"name":"Monghol-Okhosk transform"},"geometry":{"type":"LineString","coordinates":[[135.984,67.131],[135.339,67.542],[134.671,67.951],[133.979,68.358],[133.263,68.761],[132.52,69.161],[131.749,69.558],[130.949,69.951],[130.119,70.341],[129.257,70.727],[128.361,71.108],[127.429,71.485],[127.094,71.952],[126.742,72.418],[126.371,72.884],[125.981,73.349],[125.568,73.813],[125.132,74.276],[124.67,74.739],[124.179,75.2],[123.658,75.66],[123.103,76.12],[122.512,76.577],[121.879,77.034],[121.201,77.488],[120.472,77.941],[119.688,78.392],[118.842,78.84],[117.457,79.208],[115.977,79.569],[114.393,79.923],[112.696,80.269],[110.877,80.606],[108.926,80.933],[106.832,81.248],[104.587,81.552],[102.18,81.842]]}},{"type":"Feature","properties":{"boundary_type":"subduction","feature_type":"gpml:SubductionZone","polarity":"Left","overriding_plate_id":380,"subducting_plate_id":902,"plate_ids":[380,902],"name":"Mongol sz margin"},"geometry":{"type":"LineString","coordinates":[[-132.12,63.866],[-131.199,64.094],[-130.262,64.316],[-129.31,64.532],[-128.343,64.741],[-127.362,64.944],[-126.365,65.141],[-125.429,65.421],[-124.472,65.695],[-123.495,65.963],[-122.498,66.225],[-121.48,66.48],[-120.441,66.729],[-119.382,66.97],[-118.301,67.205],[-117.2,67.432],[-116.077,67.651],[-114.934,67.863],[-113.771,68.066],[-112.587,68.261],[-111.383,68.447],[-110.16,68.625],[-108.918,68.794],[-107.657,68.953],[-106.379,69.103],[-105.083,69.243],[-103.771,69.374],[-102.444,69.494],[-101.102,69.605],[-99.747,69.705],[-98.38,69.794],[-97.052,69.956],[-95.703,70.108],[-94.335,70.249],[-92.949,70.38],[-91.546,70.5],[-90.127,70.61],[-88.693,70.708],[-87.246,70.795],[-85.787,70.87],[-84.317,70.934],[-82.84,70.986]]}},{"type":"Feature","properties":{"boundary_type":"other","feature_type":"gpml:ContinentalRift","polarity":null,"overriding_plate_id":null,"subducting_plate_id":null,"plate_ids":[101,701],"name":"Menderes-Tores Rift"},"geometry":{"type":"LineString","coordinates":[[42.828,2.379],[42.706,2.355],[42.254,2.239],[41.802,2.123],[41.349,2.006],[40.897,1.89],[40.445,1.773],[39.993,1.656],[39.54,1.54],[39.088,1.423],[38.636,1.306],[38.184,1.189],[37.733,1.071],[37.466,1.493],[37.2,1.915],[36.934,2.336],[36.667,2.758],[36.324,3.039],[35.981,3.32],[35.637,3.601],[35.293,3.881],[35.237,3.525],[35.18,3.17],[34.713,3.117],[34.246,3.064],[33.778,3.01],[33.311,2.957],[32.844,2.903],[32.377,2.849],[31.91,2.795],[31.472,2.997],[31.033,3.198],[30.595,3.399],[30.243,3.532],[29.892,3.665],[29.591,3.884],[29.291,4.103]]}},{"type":"Feature","properties":{"boundary_type":"other","feature_type":"gpml:ContinentalRift","polarity":null,"overriding_plate_id":null,"subducting_plate_id":null,"plate_ids":[101,701],"name":"Ligurian Rift South of Iberia"},"geometry":{"type":"LineString","coordinates":[[15.474,9.999],[14.977,10.038],[14.48,10.077],[13.983,10.115],[13.486,10.152],[13.016,10.272],[12.545,10.391],[12.074,10.509],[11.603,10.627],[11.131,10.744],[10.659,10.86],[10.187,10.975],[9.714,11.09],[9.335,11.381],[8.955,11.671],[8.575,11.96],[8.194,12.249],[7.812,12.538],[7.429,12.826],[7.045,13.113],[6.66,13.4],[6.274,13.686],[5.888,13.972],[5.5,14.257]]}},{"type":"Feature","properties":{"boundary_type":"other","feature_type":"gpml:ContinentalRift","polarity":null,"overriding_plate_id":null,"subducting_plate_id":null,"plate_ids":[101,701],"name":"Ligurian Rift"},"geometry":{"type":"LineString","coordinates":[[15.474,9.999],[15.962,10.028],[16.451,10.056],[16.94,10.083],[17.429,10.11],[17.917,10.136],[18.407,10.162],[18.896,10.186],[19.385,10.21],[19.834,10.149],[20.284,10.088],[20.733,10.025],[21.182,9.963],[21.631,9.899],[22.08,9.835],[22.55,9.812],[23.02,9.787],[23.49,9.762],[23.959,9.737],[24.429,9.711],[24.899,9.684],[25.326,9.515],[25.754,9.345],[26.181,9.175],[26.607,9.004],[27.034,8.833]]}},{"type":"Feature","properties":{"boundary_type":"other","feature_type":"gpml:ContinentalRift","polarity":null,"overriding_plate_id":null,"subducting_plate_id":null,"plate_ids":[101,505],"name":"Rift West of Adria and North of Menderes-Tourides block"},"geometry":{"type":"LineString","coordinates":[[25.568,17.023],[25.91,16.771],[26.25,16.52],[26.589,16.267],[26.973,16.033],[27.355,15.798],[27.737,15.562],[28.091,15.405],[28.444,15.247],[28.593,14.778],[28.741,14.309],[28.888,13.84],[29.035,13.371],[29.181,12.901],[29.327,12.432],[29.472,11.962],[29.583,11.501],[29.695,11.039],[29.806,10.577],[29.916,10.115],[30.026,9.653],[30.136,9.191],[30.246,8.729],[30.355,8.267],[30.506,7.878],[30.657,7.489],[30.807,7.099],[30.957,6.71],[31.107,6.32],[31.564,6.526],[32.022,6.73],[32.48,6.935],[32.939,7.139],[33.398,7.342],[33.857,7.546],[34.317,7.748],[34.777,7.95],[35.162,8.008],[35.546,8.065],[35.931,8.121],[36.316,8.178],[36.644,8.098],[36.972,8.018],[37.299,7.938],[37.587,7.573],[37.875,7.208],[38.162,6.842],[38.456,6.47],[38.75,6.099],[39.043,5.726],[39.336,5.354],[39.766,5.282],[40.196,5.209],[40.625,5.136],[41.055,5.063],[41.484,4.99],[41.898,4.856],[42.311,4.722],[42.725,4.588],[43.138,4.453],[43.551,4.319],[43.964,4.184],[44.376,4.049]]}},{"type":"Feature","properties":{"boundary_type":"transform","feature_type":"gpml:Transform","polarity":null,"overriding_plate_id":null,"subducting_plate_id":null,"plate_ids":[505],"name":"Proto pre-Adriatic transform"},"geometry":{"type":"LineString","coordinates":[[25.568,17.023],[25.463,17.335],[25.358,17.648],[25.07,17.838],[24.781,18.027],[24.491,18.216],[24.103,18.465],[23.712,18.712],[23.339,18.894],[22.966,19.075],[22.706,19.378],[22.445,19.68],[22.183,19.982]]}},{"type":"Feature","properties":{"boundary_type":"other","feature_type":"gpml:ContinentalRift","polarity":null,"overriding_plate_id":null,"subducting_plate_id":null,"plate_ids":[101,505],"name":"Rift Alpine Tethys"},"geometry":{"type":"LineString","coordinates":[[34.862,27.036],[34.506,26.687],[34.152,26.337],[33.8,25.986],[33.45,25.634],[33.102,25.281],[32.756,24.928],[32.412,24.574],[32.07,24.219],[31.73,23.863],[31.392,23.506],[31.055,23.149],[30.721,22.791],[30.388,22.433],[30.057,22.073],[29.671,22.046],[29.283,21.883],[28.896,21.719],[28.509,21.555],[28.124,21.389],[27.954,21.168],[27.785,20.947],[27.508,20.803],[26.987,20.754],[26.468,20.703],[25.948,20.651],[25.429,20.598],[24.91,20.542],[24.391,20.485],[23.873,20.427],[23.356,20.367],[22.838,20.306],[22.321,20.243],[22.183,19.982]]}},{"type":"Feature","properties":{"boundary_type":"other","feature_type":"gpml:ContinentalRift","polarity":null,"overriding_plate_id":null,"subducting_plate_id":null,"plate_ids":[101],"name":"Rift250-174.1"},"geometry":{"type":"LineString","coordinates":[[-14.889,-6.01],[-14.708,-5.601],[-14.527,-5.193],[-14.347,-4.785],[-14.148,-4.375],[-13.95,-3.965],[-13.751,-3.555],[-13.553,-3.145],[-13.355,-2.734],[-13.157,-2.324],[-12.959,-1.914],[-12.761,-1.503],[-12.564,-1.093],[-12.293,-0.739],[-12.022,-0.384],[-11.752,-0.029],[-11.481,0.325],[-11.21,0.68],[-10.94,1.034],[-10.691,1.417],[-10.442,1.8],[-10.193,2.183],[-9.944,2.566],[-9.695,2.949],[-9.582,3.391],[-9.469,3.833],[-9.356,4.275],[-9.242,4.716],[-9.129,5.158],[-9.015,5.6],[-8.818,5.951],[-8.62,6.303],[-8.422,6.654],[-8.224,7.006],[-8.026,7.357],[-7.618,7.59],[-7.209,7.823],[-6.8,8.055],[-6.391,8.287],[-5.981,8.518],[-5.57,8.749],[-5.159,8.98],[-4.715,9.167],[-4.269,9.354],[-3.824,9.54],[-3.377,9.726],[-2.931,9.911],[-2.483,10.096],[-2.108,10.38],[-1.732,10.663],[-1.355,10.946],[-0.977,11.229],[-0.515,11.39],[-0.053,11.551],[0.41,11.711],[0.873,11.87],[1.337,12.028],[1.801,12.186],[2.199,12.434],[2.598,12.682],[2.998,12.929],[3.398,13.176],[3.799,13.422],[4.201,13.667],[4.604,13.912],[5.052,14.085],[5.5,14.257]]}}]}