{"type":"FeatureCollection","meta":{"model":"Cao2024","reconstruction_time_ma":775.0,"anchor_plate_id":0,"pygplates_version":"1.0.0","tessellate_degrees":0.5,"polarity_convention":"gpml:subductionPolarity. 'Left'/'Right' names the side of the line, in vertex order, on which the OVERRIDING plate lies. Triangles are drawn on that side.","antimeridian":"Lines are NOT split at +/-180 deg. The renderer works in 3D unit vectors where the dateline is not special; splitting would only add spurious breaks. Do not treat this as RFC 7946 GIS-ready 2D data."},"features":[{"type":"Feature","properties":{"boundary_type":"subduction","feature_type":"gpml:SubductionZone","polarity":"Right","overriding_plate_id":701,"subducting_plate_id":5031,"plate_ids":[701,5031],"name":"Imorona-Itsindro-TOAST SZ"},"geometry":{"type":"LineString","coordinates":[[14.274,-6.668],[14.329,-6.231],[14.383,-5.793],[14.438,-5.356],[14.492,-4.919],[14.546,-4.482],[14.601,-4.044],[14.655,-3.607],[14.657,-3.173],[14.659,-2.739],[14.66,-2.305],[14.662,-1.871],[14.664,-1.437],[14.666,-1.003],[15.007,-0.748],[15.348,-0.492],[15.689,-0.237],[16.03,0.019],[16.371,0.274],[16.727,0.143],[17.082,0.012],[17.438,-0.119],[17.794,-0.251],[18.2,-0.268],[18.606,-0.285],[19.013,-0.303],[19.419,-0.32],[19.886,-0.197],[20.352,-0.074],[20.819,0.049],[21.286,0.172],[21.752,0.295],[22.199,0.245],[22.646,0.194],[23.092,0.144],[23.53,0.107],[23.969,0.07],[24.407,0.033]]}},{"type":"Feature","properties":{"boundary_type":"subduction","feature_type":"gpml:SubductionZone","polarity":"Right","overriding_plate_id":701,"subducting_plate_id":501,"plate_ids":[501,701],"name":"Imorona-Itsindro-TOAST SZ"},"geometry":{"type":"LineString","coordinates":[[24.407,0.033],[24.76,0.003],[25.183,-0.093],[25.606,-0.19],[26.029,-0.286],[26.408,-0.224],[26.787,-0.163],[27.166,-0.101],[27.545,-0.039],[27.86,-0.272],[28.174,-0.505],[28.489,-0.738],[28.844,-0.837],[29.199,-0.937],[29.555,-1.037],[29.935,-1.076],[30.316,-1.114],[30.697,-1.153],[31.077,-1.192],[31.338,-1.052],[31.598,-0.913],[31.954,-1.058],[32.31,-1.202],[32.667,-1.347],[33.117,-1.485],[33.567,-1.622],[33.848,-1.631],[34.129,-1.64],[34.452,-1.497],[34.776,-1.353],[35.035,-1.106],[35.295,-0.86],[35.554,-0.613],[35.921,-0.318],[36.289,-0.023],[36.656,0.272],[36.896,0.608],[37.136,0.943],[37.376,1.279],[37.616,1.614],[38.035,1.711],[38.454,1.808],[38.873,1.905],[39.258,1.863],[39.643,1.821],[40.028,1.779],[40.413,1.737],[40.858,1.811],[41.303,1.886],[41.749,1.96],[42.185,1.859],[42.622,1.757],[43.059,1.656],[43.496,1.555],[43.933,1.453],[44.377,1.307],[44.822,1.16],[45.266,1.013],[45.711,0.866],[46.155,0.719],[46.6,0.573],[47.044,0.426],[47.489,0.279],[47.933,0.132],[48.377,-0.015],[48.758,-0.272],[49.138,-0.529],[49.518,-0.786],[49.899,-1.042],[50.279,-1.299],[50.659,-1.556],[51.04,-1.812],[51.421,-2.069],[51.886,-2.042],[52.351,-2.016],[52.816,-1.99],[53.282,-1.963],[53.747,-1.937],[54.212,-1.91],[54.677,-1.883],[55.142,-1.856],[55.608,-1.829],[56.044,-1.806],[56.48,-1.782],[56.916,-1.759],[57.352,-1.736],[57.788,-1.712],[58.224,-1.688],[58.71,-1.617],[59.197,-1.546],[59.683,-1.475],[60.17,-1.403],[60.656,-1.332],[61.143,-1.26],[61.629,-1.189],[62.116,-1.117],[62.498,-0.984],[62.881,-0.851],[63.263,-0.718],[63.646,-0.586]]}},{"type":"Feature","properties":{"boundary_type":"subduction","feature_type":"gpml:SubductionZone","polarity":"Right","overriding_plate_id":801,"subducting_plate_id":701,"plate_ids":[701,801],"name":"Antarctica SZ"},"geometry":{"type":"LineString","coordinates":[[64.705,-21.354],[64.703,-20.864],[64.701,-20.375],[64.699,-19.885],[64.697,-19.395],[64.695,-18.906],[64.615,-18.44],[64.534,-17.974],[64.454,-17.507],[64.375,-17.041],[64.296,-16.575],[64.217,-16.109],[64.139,-15.642],[64.061,-15.176],[63.983,-14.71],[63.906,-14.243],[63.829,-13.777],[63.752,-13.31],[63.676,-12.844],[63.627,-12.349],[63.578,-11.853],[63.529,-11.358],[63.481,-10.863],[63.432,-10.368],[63.384,-9.873],[63.336,-9.378],[63.288,-8.883],[63.24,-8.387],[63.193,-7.892],[63.21,-7.403],[63.227,-6.914],[63.244,-6.424],[63.261,-5.935],[63.278,-5.446],[63.295,-4.956],[63.312,-4.467],[63.329,-3.978],[63.346,-3.488],[63.396,-3.005],[63.446,-2.521],[63.496,-2.037],[63.546,-1.553],[63.596,-1.069],[63.646,-0.586]]}},{"type":"Feature","properties":{"boundary_type":"subduction","feature_type":"gpml:SubductionZone","polarity":"Right","overriding_plate_id":801,"subducting_plate_id":501,"plate_ids":[501,801],"name":"Antarctica SZ"},"geometry":{"type":"LineString","coordinates":[[63.646,-0.586],[63.697,-0.092],[63.748,0.401],[63.799,0.895],[63.85,1.388],[63.9,1.882],[63.951,2.375],[64.002,2.869],[64.053,3.362],[64.104,3.856],[64.156,4.349],[64.207,4.843],[64.258,5.336],[64.394,5.816],[64.53,6.295],[64.666,6.774],[64.803,7.253],[64.94,7.732],[65.077,8.211],[65.214,8.69],[65.352,9.169],[65.491,9.648],[65.629,10.127],[65.768,10.606],[65.908,11.085],[66.048,11.564],[66.188,12.042],[66.329,12.521],[66.47,12.999],[66.612,13.478],[66.755,13.956],[66.902,14.419],[67.05,14.882],[67.199,15.345],[67.349,15.808],[67.499,16.27],[67.649,16.733],[67.801,17.195],[67.953,17.657],[68.106,18.12],[68.26,18.582],[68.415,19.044],[68.57,19.505],[68.727,19.967],[68.884,20.429],[69.042,20.89],[69.202,21.351],[69.362,21.812],[69.43,22.284],[69.499,22.756],[69.568,23.228],[69.638,23.7],[69.708,24.172],[69.779,24.644],[69.85,25.115],[69.922,25.587],[69.994,26.059],[70.067,26.531],[70.141,27.002],[70.215,27.474]]}},{"type":"Feature","properties":{"boundary_type":"subduction","feature_type":"gpml:SubductionZone","polarity":"Right","overriding_plate_id":101,"subducting_plate_id":401,"plate_ids":[101,401],"name":"Offshore Baltica SZ?"},"geometry":{"type":"LineString","coordinates":[[148.581,3.085],[148.917,2.755],[149.252,2.424],[149.587,2.094],[149.922,1.763],[150.257,1.432],[150.592,1.102],[150.927,0.771],[151.262,0.44],[151.641,0.133],[152.02,-0.175],[152.399,-0.482],[152.778,-0.789],[153.157,-1.096],[153.536,-1.403],[153.916,-1.71],[154.295,-2.017],[154.675,-2.324],[155.055,-2.631],[155.435,-2.937],[155.815,-3.244],[156.195,-3.55],[156.576,-3.857],[156.957,-4.163],[157.338,-4.469],[157.72,-4.774],[158.102,-5.08],[158.484,-5.385],[158.923,-5.591],[159.363,-5.797],[159.803,-6.003],[160.244,-6.209],[160.685,-6.414],[161.126,-6.618],[161.567,-6.822],[162.009,-7.026],[162.452,-7.23],[162.894,-7.433],[163.337,-7.635],[163.781,-7.837],[164.225,-8.039],[164.669,-8.24],[165.114,-8.441],[165.615,-8.395],[166.116,-8.349],[166.617,-8.302],[167.118,-8.255],[167.619,-8.207],[168.119,-8.158],[168.62,-8.109],[169.12,-8.059],[169.62,-8.009],[170.12,-7.958],[170.62,-7.906],[171.12,-7.854],[171.62,-7.801],[172.119,-7.748],[172.619,-7.694],[173.118,-7.639],[173.617,-7.584],[174.116,-7.528],[174.615,-7.472],[175.114,-7.415],[175.613,-7.358],[176.111,-7.3],[176.61,-7.241],[177.108,-7.182],[177.606,-7.122],[178.104,-7.062],[178.602,-7.002],[179.1,-6.941],[179.597,-6.879],[-179.905,-6.817],[-179.408,-6.754],[-178.911,-6.691],[-178.414,-6.627],[-177.917,-6.563],[-177.42,-6.498],[-177.003,-6.233],[-176.587,-5.968],[-176.171,-5.702],[-175.756,-5.437],[-175.341,-5.17],[-174.926,-4.904],[-174.512,-4.637],[-174.098,-4.371],[-173.684,-4.103],[-173.271,-3.836]]}},{"type":"Feature","properties":{"boundary_type":"subduction","feature_type":"gpml:SubductionZone","polarity":"Right","overriding_plate_id":98041,"subducting_plate_id":401,"plate_ids":[401,98041],"name":"Offshore Baltica SZ?"},"geometry":{"type":"LineString","coordinates":[[-173.271,-3.836],[-172.882,-3.584],[-172.493,-3.332],[-172.104,-3.08],[-171.716,-2.827],[-171.327,-2.575],[-170.939,-2.322],[-170.551,-2.07],[-170.239,-1.737],[-169.928,-1.404],[-169.616,-1.07],[-169.304,-0.737],[-168.993,-0.404],[-168.681,-0.071],[-168.37,0.262],[-168.059,0.595],[-167.747,0.929],[-167.72,0.969]]}},{"type":"Feature","properties":{"boundary_type":"subduction","feature_type":"gpml:SubductionZone","polarity":"Left","overriding_plate_id":5031,"subducting_plate_id":5906,"plate_ids":[5031,5906],"name":"ANS accretion"},"geometry":{"type":"LineString","coordinates":[[-7.698,-4.607],[-7.474,-5.046],[-7.341,-5.482],[-7.208,-5.919],[-7.075,-6.355],[-6.941,-6.791],[-6.808,-7.227],[-6.674,-7.663],[-6.327,-7.849],[-5.981,-8.034],[-5.634,-8.219],[-5.263,-8.321],[-4.891,-8.422],[-4.576,-8.632],[-4.26,-8.842],[-3.944,-9.052],[-3.759,-9.421],[-3.573,-9.791],[-3.386,-10.16],[-3.122,-10.435],[-2.857,-10.709],[-2.648,-10.913],[-2.439,-11.117],[-2.21,-11.545],[-1.98,-11.973],[-1.749,-12.4],[-1.518,-12.828]]}},{"type":"Feature","properties":{"boundary_type":"subduction","feature_type":"gpml:SubductionZone","polarity":"Right","overriding_plate_id":701,"subducting_plate_id":5916,"plate_ids":[701,5916],"name":"ES SZ"},"geometry":{"type":"LineString","coordinates":[[-15.435,-27.104],[-15.419,-27.107],[-14.877,-27.198],[-14.334,-27.288],[-13.791,-27.375],[-13.246,-27.46],[-12.7,-27.543],[-12.256,-27.723],[-11.81,-27.902],[-11.363,-28.079],[-10.914,-28.254],[-10.464,-28.428],[-9.943,-28.606],[-9.419,-28.783],[-8.894,-28.957],[-8.367,-29.129],[-7.839,-29.299],[-7.309,-29.467],[-6.801,-29.414],[-6.293,-29.359],[-5.787,-29.303],[-5.28,-29.244],[-4.775,-29.183],[-4.27,-29.121],[-3.756,-29.044],[-3.244,-28.965],[-2.732,-28.885],[-2.221,-28.802],[-1.711,-28.718],[-1.201,-28.632],[-0.801,-28.516]]}},{"type":"Feature","properties":{"boundary_type":"subduction","feature_type":"gpml:SubductionZone","polarity":"Right","overriding_plate_id":701,"subducting_plate_id":77521,"plate_ids":[701,77521],"name":"ES SZ"},"geometry":{"type":"LineString","coordinates":[[-0.801,-28.516],[-0.262,-28.357],[0.276,-28.196],[0.761,-28.254],[1.248,-28.309],[1.734,-28.363],[2.222,-28.415],[2.647,-28.66],[3.074,-28.904],[3.455,-29.209],[3.839,-29.512],[4.265,-29.603],[4.692,-29.692],[5.12,-29.78],[5.663,-29.943],[6.208,-30.103],[6.754,-30.262],[7.302,-30.418],[7.852,-30.572],[8.393,-30.701],[8.935,-30.829],[9.479,-30.954],[10.024,-31.077],[10.435,-31.135],[10.847,-31.191]]}},{"type":"Feature","properties":{"boundary_type":"subduction","feature_type":"gpml:SubductionZone","polarity":"Left","overriding_plate_id":701,"subducting_plate_id":5916,"plate_ids":[701,5916],"name":"Sa'al SZ"},"geometry":{"type":"LineString","coordinates":[[-15.435,-27.104],[-15.634,-26.643],[-15.831,-26.181],[-16.027,-25.719],[-16.221,-25.257],[-16.414,-24.795],[-16.605,-24.332],[-16.822,-23.894],[-17.038,-23.455],[-17.252,-23.016],[-17.465,-22.577],[-17.677,-22.137],[-17.887,-21.697],[-18.096,-21.257],[-18.304,-20.817],[-18.51,-20.377],[-18.715,-19.936],[-18.92,-19.495],[-18.929,-19.079],[-18.938,-18.663],[-18.947,-18.247],[-18.956,-17.832],[-18.965,-17.416],[-19.1,-17.011],[-19.234,-16.606],[-19.367,-16.2],[-19.5,-15.795],[-19.632,-15.39]]}},{"type":"Feature","properties":{"boundary_type":"subduction","feature_type":"gpml:SubductionZone","polarity":"Left","overriding_plate_id":701,"subducting_plate_id":5031,"plate_ids":[701,5031],"name":"Sa'al SZ"},"geometry":{"type":"LineString","coordinates":[[-19.632,-15.39],[-19.784,-14.923],[-19.935,-14.455],[-20.086,-13.988],[-20.236,-13.521],[-20.385,-13.053],[-20.534,-12.585],[-20.682,-12.118],[-20.487,-11.658],[-20.292,-11.198],[-20.097,-10.738],[-20.166,-10.27],[-20.235,-9.801],[-20.279,-9.326],[-20.322,-8.85],[-20.366,-8.375],[-20.409,-7.9],[-20.452,-7.424],[-20.495,-6.949],[-20.508,-6.47],[-20.52,-5.992],[-20.533,-5.513],[-20.545,-5.034],[-20.558,-4.556],[-20.57,-4.077],[-20.583,-3.599],[-20.595,-3.12],[-20.608,-2.641],[-20.62,-2.163],[-20.633,-1.684],[-20.645,-1.206],[-20.784,-0.732],[-20.922,-0.259],[-21.061,0.215],[-21.2,0.688],[-21.338,1.162],[-21.477,1.635],[-21.616,2.109],[-21.754,2.582],[-21.893,3.055],[-22.032,3.529],[-22.171,4.002],[-22.311,4.476],[-22.45,4.949],[-22.59,5.422],[-22.73,5.895],[-22.87,6.369],[-23.01,6.842],[-23.151,7.315],[-23.292,7.788],[-23.433,8.261],[-23.575,8.734],[-23.717,9.207],[-23.86,9.68],[-24.002,10.153],[-24.146,10.626],[-24.289,11.098],[-24.433,11.571],[-24.578,12.044],[-24.723,12.516],[-24.869,12.988],[-25.015,13.461],[-25.023,13.957],[-25.03,14.453],[-25.038,14.949],[-25.046,15.445],[-25.054,15.941],[-25.061,16.437],[-25.069,16.933],[-25.077,17.429],[-25.085,17.925],[-25.093,18.421],[-25.101,18.917],[-25.109,19.413],[-25.117,19.909],[-25.126,20.405],[-25.134,20.901],[-25.142,21.397],[-25.181,21.86],[-25.22,22.322],[-25.26,22.784],[-25.299,23.246],[-25.339,23.708],[-25.38,24.17],[-25.42,24.633],[-25.461,25.095],[-25.502,25.557]]}},{"type":"Feature","properties":{"boundary_type":"subduction","feature_type":"gpml:SubductionZone","polarity":"Left","overriding_plate_id":701,"subducting_plate_id":980421,"plate_ids":[701,980421],"name":"Sa'al SZ"},"geometry":{"type":"LineString","coordinates":[[-25.502,25.557],[-25.547,26.052],[-25.592,26.548],[-25.637,27.043]]}},{"type":"Feature","properties":{"boundary_type":"subduction","feature_type":"gpml:SubductionZone","polarity":"Right","overriding_plate_id":701,"subducting_plate_id":5031,"plate_ids":[701,5031],"name":"Ethiopian SZ"},"geometry":{"type":"LineString","coordinates":[[19.657,-13.618],[19.53,-13.249],[19.404,-12.88],[19.278,-12.51],[19.152,-12.141],[18.948,-11.746],[18.744,-11.351],[18.541,-10.956],[18.338,-10.561],[18.136,-10.166],[17.935,-9.771],[17.667,-9.386],[17.401,-9.002],[17.135,-8.617],[16.869,-8.232],[16.604,-7.846],[16.34,-7.461],[16.007,-7.139],[15.674,-6.816]]}},{"type":"Feature","properties":{"boundary_type":"subduction","feature_type":"gpml:SubductionZone","polarity":"Left","overriding_plate_id":5916,"subducting_plate_id":701,"plate_ids":[701,5916],"name":"SES SZ"},"geometry":{"type":"LineString","coordinates":[[12.156,-24.906],[11.933,-24.782],[11.661,-24.727],[11.388,-24.671],[11.17,-24.494],[10.953,-24.317],[10.548,-24.089],[10.144,-23.86],[10.088,-23.444],[10.031,-23.027],[9.969,-22.7]]}},{"type":"Feature","properties":{"boundary_type":"subduction","feature_type":"gpml:SubductionZone","polarity":"Left","overriding_plate_id":701,"subducting_plate_id":5916,"plate_ids":[701,5916],"name":"WES suture"},"geometry":{"type":"LineString","coordinates":[[11.311,-30.496],[11.0,-30.415],[10.924,-30.368]]}},{"type":"Feature","properties":{"boundary_type":"subduction","feature_type":"gpml:SubductionZone","polarity":"Left","overriding_plate_id":77521,"subducting_plate_id":5916,"plate_ids":[5916,77521],"name":"WES suture"},"geometry":{"type":"LineString","coordinates":[[10.924,-30.368],[10.477,-30.088],[10.034,-29.807],[9.592,-29.525],[9.207,-29.161],[8.823,-28.796],[8.443,-28.43],[8.065,-28.063],[7.708,-27.764],[7.353,-27.463],[6.951,-27.128],[6.552,-26.792],[6.207,-26.672],[5.844,-26.557],[5.461,-26.532],[5.078,-26.507],[4.695,-26.481],[4.157,-26.419],[3.619,-26.355],[3.082,-26.289],[2.545,-26.221],[2.009,-26.151],[1.547,-26.096],[1.086,-26.039],[0.625,-25.98],[0.164,-25.921]]}},{"type":"Feature","properties":{"boundary_type":"subduction","feature_type":"gpml:SubductionZone","polarity":"Right","overriding_plate_id":501,"subducting_plate_id":980421,"plate_ids":[501,980421],"name":"Seychelles SZ"},"geometry":{"type":"LineString","coordinates":[[36.212,34.983],[35.893,35.016],[35.573,35.049],[35.045,35.296],[34.513,35.541],[33.979,35.783],[33.441,36.024],[32.899,36.261],[32.355,36.497],[31.807,36.73],[31.256,36.96],[30.701,37.188],[30.144,37.413],[29.678,37.747],[29.208,38.078],[28.734,38.408],[28.256,38.736],[27.773,39.062],[27.286,39.386],[26.794,39.708],[26.298,40.028],[25.797,40.346],[25.291,40.661],[24.78,40.975],[24.265,41.286],[23.745,41.594],[23.219,41.901],[22.689,42.205],[22.154,42.506],[21.613,42.805],[21.28,43.188],[20.942,43.57],[20.601,43.951],[20.255,44.332],[19.904,44.711],[19.549,45.089],[19.189,45.465],[18.824,45.841],[18.313,46.169],[17.796,46.494],[17.273,46.817],[16.743,47.137],[16.207,47.455],[15.976,47.858],[15.742,48.26],[15.504,48.662],[15.218,49.066],[14.928,49.469],[14.633,49.871],[14.076,50.161],[13.513,50.449],[12.942,50.733],[12.365,51.015],[11.78,51.294],[11.189,51.571],[10.59,51.844],[9.984,52.114],[9.428,52.255],[8.869,52.394],[8.306,52.531],[7.867,52.879],[7.421,53.225],[6.968,53.569],[6.354,53.859],[5.732,54.145],[5.101,54.428],[4.347,54.569],[3.589,54.705],[2.825,54.836],[2.363,55.239],[1.891,55.64],[1.41,56.039],[1.047,56.408],[0.677,56.777],[0.299,57.144],[-0.418,57.378],[-1.144,57.608],[-1.879,57.834],[-2.623,58.056],[-3.377,58.273],[-4.114,58.474],[-4.858,58.671],[-5.612,58.863],[-6.373,59.051]]}},{"type":"Feature","properties":{"boundary_type":"subduction","feature_type":"gpml:SubductionZone","polarity":"Left","overriding_plate_id":4014,"subducting_plate_id":401,"plate_ids":[401,4014],"name":"Central Angara SZ"},"geometry":{"type":"LineString","coordinates":[[139.998,37.325],[140.535,37.546],[141.075,37.764],[141.618,37.979],[142.165,38.192],[142.714,38.402],[143.267,38.61],[143.823,38.815],[144.382,39.018],[144.944,39.217],[145.524,39.321],[146.105,39.421],[146.687,39.519],[147.271,39.614],[147.857,39.706],[148.445,39.794],[149.033,39.88],[149.668,39.896],[150.303,39.908],[150.938,39.916],[151.573,39.921],[152.209,39.922],[152.844,39.921],[153.479,39.915],[154.114,39.906],[154.749,39.894],[155.327,40.03],[155.908,40.163],[156.49,40.293],[157.075,40.42],[157.663,40.544],[158.252,40.665],[158.843,40.783],[159.437,40.898],[160.041,40.906],[160.646,40.911],[161.25,40.913],[161.855,40.911],[162.459,40.906],[163.117,40.943],[163.774,40.976],[164.433,41.005],[165.092,41.031],[165.751,41.052],[166.411,41.07],[167.072,41.084],[167.732,41.095],[168.393,41.102],[169.053,41.104],[169.714,41.103],[170.372,41.132],[171.031,41.156],[171.691,41.177],[172.35,41.193],[172.949,41.069],[173.544,40.942],[174.138,40.811],[174.729,40.678],[175.318,40.541],[175.904,40.401],[176.488,40.259],[177.07,40.114],[177.649,39.965],[178.225,39.814]]}},{"type":"Feature","properties":{"boundary_type":"subduction","feature_type":"gpml:SubductionZone","polarity":"Right","overriding_plate_id":4014,"subducting_plate_id":456,"plate_ids":[456,4014],"name":"Taimyr SZ"},"geometry":{"type":"LineString","coordinates":[[-178.861,62.179],[-178.581,61.774],[-178.309,61.37],[-178.043,60.964],[-177.785,60.558],[-177.532,60.152],[-177.286,59.745],[-177.19,59.253],[-177.097,58.76],[-177.007,58.267],[-176.919,57.775],[-176.833,57.282],[-176.749,56.789],[-176.668,56.296],[-176.589,55.804],[-176.717,55.357],[-176.843,54.911],[-176.965,54.465],[-177.086,54.018],[-177.203,53.572],[-177.318,53.125],[-177.431,52.678],[-177.541,52.231],[-177.649,51.784],[-177.88,51.324],[-178.105,50.864],[-178.327,50.404],[-178.544,49.943],[-178.757,49.481],[-178.966,49.02],[-179.171,48.558],[-179.372,48.095],[-179.57,47.632],[-179.765,47.169],[-179.956,46.706],[179.857,46.242],[179.672,45.778],[179.49,45.314],[179.312,44.849],[179.136,44.384],[178.963,43.919],[178.793,43.454],[178.718,42.999],[178.645,42.544],[178.572,42.089],[178.501,41.634],[178.431,41.179],[178.361,40.724],[178.293,40.269],[178.225,39.814]]}},{"type":"Feature","properties":{"boundary_type":"subduction","feature_type":"gpml:SubductionZone","polarity":"Right","overriding_plate_id":401,"subducting_plate_id":456,"plate_ids":[401,456],"name":"Taimyr SZ"},"geometry":{"type":"LineString","coordinates":[[178.225,39.814],[178.167,39.418],[178.344,38.952],[178.519,38.487],[178.692,38.021],[178.862,37.555],[179.031,37.089],[179.197,36.623],[179.143,36.269],[179.09,35.914],[179.037,35.56]]}},{"type":"Feature","properties":{"boundary_type":"subduction","feature_type":"gpml:SubductionZone","polarity":"Right","overriding_plate_id":401,"subducting_plate_id":98041,"plate_ids":[401,98041],"name":"Taimyr SZ"},"geometry":{"type":"LineString","coordinates":[[179.037,35.56],[178.98,35.173],[178.924,34.786],[178.868,34.399],[179.008,33.972],[179.148,33.545],[179.286,33.118],[179.422,32.691],[179.558,32.264],[179.692,31.836],[179.994,31.491],[-179.705,31.145],[-179.407,30.798],[-179.11,30.451],[-178.613,30.279],[-178.117,30.105],[-177.623,29.93],[-177.087,29.786],[-176.553,29.64],[-176.02,29.491],[-175.74,29.245],[-175.461,28.999],[-175.386,28.572],[-175.312,28.145],[-175.202,27.707],[-175.093,27.269],[-174.984,26.83],[-174.876,26.392],[-174.77,25.954],[-174.664,25.515],[-174.558,25.077],[-174.454,24.638],[-174.298,24.203],[-174.143,23.767],[-173.989,23.331],[-173.837,22.895],[-173.685,22.459],[-173.534,22.023],[-173.384,21.586],[-173.235,21.15],[-173.087,20.713],[-172.866,20.282],[-172.647,19.851],[-172.429,19.42],[-172.213,18.989],[-171.997,18.557],[-171.783,18.126],[-171.569,17.693],[-171.357,17.261],[-171.145,16.829],[-170.935,16.396],[-170.725,15.963],[-170.516,15.53],[-170.309,15.096],[-170.102,14.663],[-169.896,14.229],[-169.69,13.795],[-169.579,13.331],[-169.468,12.867],[-169.358,12.404],[-169.248,11.94],[-169.139,11.476],[-169.029,11.012],[-168.921,10.547],[-168.812,10.083],[-168.704,9.619],[-168.596,9.155],[-168.488,8.691],[-168.381,8.226],[-168.274,7.762],[-168.167,7.298],[-168.06,6.834],[-167.954,6.369],[-167.848,5.905],[-167.85,5.415],[-167.852,4.925],[-167.854,4.435],[-167.857,3.945],[-167.859,3.454],[-167.831,2.957],[-167.803,2.46],[-167.776,1.963],[-167.748,1.466],[-167.72,0.969]]}},{"type":"Feature","properties":{"boundary_type":"subduction","feature_type":"gpml:SubductionZone","polarity":"Left","overriding_plate_id":801,"subducting_plate_id":501,"plate_ids":[501,801],"name":"East Asian Terranes?"},"geometry":{"type":"LineString","coordinates":[[132.335,44.216],[132.037,44.39],[131.433,44.608],[130.825,44.822],[130.212,45.034],[129.595,45.242],[128.973,45.447],[128.347,45.649],[127.716,45.847],[127.081,46.041],[126.441,46.232],[125.797,46.42],[125.148,46.604],[124.495,46.784],[123.838,46.96],[123.15,46.952],[122.462,46.939],[121.775,46.922],[121.088,46.902],[120.376,46.86],[119.665,46.813],[118.955,46.762],[118.247,46.707],[117.54,46.647],[116.834,46.584],[116.131,46.515],[115.429,46.443],[114.923,46.149],[114.423,45.853],[113.928,45.554],[113.438,45.254],[112.954,44.951],[112.474,44.647],[112.0,44.34],[111.53,44.032],[111.066,43.721],[110.606,43.409],[110.071,43.196],[109.539,42.981],[109.011,42.764],[108.487,42.544],[107.967,42.321],[107.948,42.318]]}},{"type":"Feature","properties":{"boundary_type":"subduction","feature_type":"gpml:SubductionZone","polarity":"Left","overriding_plate_id":606,"subducting_plate_id":501,"plate_ids":[501,606],"name":"East Asian Terranes?"},"geometry":{"type":"LineString","coordinates":[[107.948,42.318],[107.337,42.197],[106.729,42.073],[106.123,41.946],[105.519,41.816],[104.918,41.683],[104.32,41.546],[103.724,41.407],[103.107,41.47],[102.488,41.529],[101.869,41.586],[101.248,41.639],[100.627,41.688],[100.004,41.735],[99.427,41.639],[98.851,41.541],[98.278,41.44],[97.706,41.336],[97.136,41.23],[96.567,41.12],[96.001,41.008],[95.467,41.08],[94.932,41.15],[94.396,41.218],[93.789,41.156],[93.183,41.092],[92.579,41.025],[91.976,40.954],[91.374,40.88],[90.774,40.803],[90.175,40.723],[89.577,40.64],[88.981,40.554],[88.437,40.399],[87.896,40.242],[87.357,40.082],[86.821,39.919],[86.288,39.754],[85.757,39.587],[85.228,39.418],[84.702,39.246],[84.175,38.966],[83.652,38.684],[83.133,38.4],[82.619,38.114],[82.108,37.826],[81.601,37.535],[81.098,37.242],[80.599,36.947],[80.104,36.65],[79.613,36.351],[79.126,36.05],[78.642,35.747],[78.162,35.442],[77.686,35.135],[77.213,34.826],[76.744,34.516],[76.278,34.204],[75.874,33.838],[75.473,33.471],[75.076,33.103],[74.682,32.734],[74.292,32.363],[73.905,31.992],[73.52,31.619],[73.139,31.245],[72.761,30.87],[72.386,30.493],[72.014,30.116],[71.644,29.738],[71.278,29.358],[70.914,28.978],[70.553,28.597],[70.194,28.214],[69.838,27.831]]}},{"type":"Feature","properties":{"boundary_type":"subduction","feature_type":"gpml:SubductionZone","polarity":"Left","overriding_plate_id":501,"subducting_plate_id":456,"plate_ids":[456,501],"name":"Jiangang SZ"},"geometry":{"type":"LineString","coordinates":[[172.239,61.578],[171.433,61.785],[170.616,61.986],[170.091,62.366],[169.553,62.745],[169.002,63.121],[168.435,63.495],[167.854,63.867],[167.257,64.237],[166.645,64.604],[166.015,64.968],[165.368,65.33],[164.703,65.689],[164.457,66.119],[164.202,66.549],[163.939,66.978],[163.666,67.407],[163.382,67.835],[163.089,68.263],[162.805,68.735],[162.509,69.206],[162.2,69.677],[161.877,70.147],[161.539,70.617],[161.185,71.086],[160.814,71.555],[160.673,72.038],[160.526,72.521],[160.37,73.004],[160.205,73.487],[160.031,73.969],[159.846,74.452],[159.649,74.934],[159.44,75.416],[159.217,75.898],[158.978,76.38],[158.723,76.862],[158.448,77.343],[158.152,77.824],[157.34,78.17],[156.48,78.513],[155.568,78.853],[154.6,79.191],[154.251,79.614],[153.871,80.036],[153.459,80.457],[153.009,80.878],[152.516,81.299],[150.78,81.685],[148.877,82.063],[146.788,82.432],[144.49,82.789],[141.957,83.134],[139.988,83.576],[137.733,84.008],[135.132,84.431],[132.114,84.839],[128.59,85.232],[124.455,85.603],[119.59,85.947],[113.873,86.257],[107.207,86.523],[99.415,86.685],[90.998,86.78],[82.269,86.802],[73.619,86.751],[65.418,86.628],[57.93,86.443],[51.285,86.203],[45.495,85.918],[40.502,85.598],[36.213,85.249],[30.974,85.026],[26.218,84.766],[21.937,84.474],[18.104,84.154],[14.681,83.811],[11.626,83.448],[8.897,83.068],[6.455,82.675],[4.264,82.27],[2.292,81.855],[0.512,81.431],[-1.1,81.0],[-2.565,80.563],[-3.347,80.205],[-4.074,79.846]]}},{"type":"Feature","properties":{"boundary_type":"transform","feature_type":"gpml:Transform","polarity":null,"overriding_plate_id":null,"subducting_plate_id":null,"plate_ids":[101,701],"name":"Oceanic SZ (part of TOAST?)"},"geometry":{"type":"LineString","coordinates":[[79.329,-46.616],[78.844,-46.305],[78.364,-45.991],[77.89,-45.676],[77.422,-45.358],[76.958,-45.039],[76.5,-44.718],[76.047,-44.395],[75.598,-44.07],[75.155,-43.744],[74.716,-43.416],[74.283,-43.086],[73.925,-42.685],[73.571,-42.283],[73.222,-41.88],[72.878,-41.475],[72.537,-41.07],[72.201,-40.664],[71.869,-40.257],[71.541,-39.849],[71.217,-39.439],[70.897,-39.03],[70.58,-38.619],[70.267,-38.207],[69.957,-37.795],[69.651,-37.381],[69.348,-36.967],[69.049,-36.552],[68.753,-36.137],[68.46,-35.721],[68.169,-35.304],[67.882,-34.886],[67.598,-34.468],[67.317,-34.049],[67.1,-33.599],[66.886,-33.149],[66.674,-32.698],[66.464,-32.248],[66.257,-31.797],[66.051,-31.345],[65.847,-30.893],[65.645,-30.441],[65.445,-29.989],[65.247,-29.536],[65.051,-29.083],[64.856,-28.63],[64.663,-28.176],[64.471,-27.723],[64.282,-27.269],[64.093,-26.814],[63.907,-26.36],[63.721,-25.905],[63.537,-25.45],[63.476,-24.993],[63.414,-24.536],[63.353,-24.079],[63.293,-23.623],[63.233,-23.166],[63.173,-22.709],[63.114,-22.252],[63.055,-21.795]]}},{"type":"Feature","properties":{"boundary_type":"subduction","feature_type":"gpml:SubductionZone","polarity":"Left","overriding_plate_id":701,"subducting_plate_id":980421,"plate_ids":[701,980421],"name":"Tarim subduction"},"geometry":{"type":"LineString","coordinates":[[-64.189,-1.273],[-64.261,-0.799],[-64.333,-0.325],[-64.405,0.15],[-64.476,0.624],[-64.548,1.098],[-64.62,1.572],[-64.691,2.046],[-64.763,2.52],[-64.835,2.995],[-64.907,3.469],[-64.979,3.943],[-65.051,4.417],[-65.123,4.891],[-65.196,5.365],[-65.268,5.839],[-65.34,6.3],[-65.413,6.76],[-65.485,7.221],[-65.558,7.681],[-65.631,8.141],[-65.704,8.602],[-65.777,9.062],[-65.85,9.522],[-65.924,9.982],[-65.997,10.443],[-66.071,10.903],[-66.145,11.363],[-66.22,11.823]]}},{"type":"Feature","properties":{"boundary_type":"subduction","feature_type":"gpml:SubductionZone","polarity":"Left","overriding_plate_id":580,"subducting_plate_id":980421,"plate_ids":[580,980421],"name":"Tarim subduction"},"geometry":{"type":"LineString","coordinates":[[-66.22,11.823],[-66.296,12.293],[-66.373,12.763],[-66.449,13.233],[-66.527,13.703],[-66.604,14.173],[-66.682,14.642],[-66.76,15.112],[-66.744,15.581],[-66.727,16.05],[-66.711,16.519],[-66.694,16.988],[-66.678,17.457],[-66.661,17.926],[-66.644,18.394],[-66.627,18.863],[-66.61,19.332],[-66.593,19.801],[-66.434,20.264],[-66.274,20.727],[-66.113,21.19],[-65.951,21.653],[-65.788,22.115],[-65.624,22.577],[-65.459,23.04],[-65.293,23.502],[-65.125,23.963],[-64.956,24.425],[-64.786,24.886],[-64.615,25.348],[-64.443,25.809],[-64.269,26.27],[-64.094,26.73],[-63.917,27.191],[-63.634,27.618],[-63.349,28.045],[-63.061,28.471],[-62.771,28.897],[-62.479,29.322],[-62.184,29.747],[-61.887,30.171],[-61.587,30.594],[-61.285,31.016],[-60.98,31.438],[-60.672,31.859],[-60.362,32.279],[-60.048,32.699],[-59.732,33.117],[-59.412,33.535],[-59.089,33.952],[-58.764,34.369],[-58.435,34.784],[-58.102,35.199],[-57.767,35.612],[-57.427,36.025],[-57.374,36.47],[-57.32,36.915],[-57.265,37.36],[-57.209,37.805],[-57.153,38.25],[-57.096,38.695],[-57.039,39.14],[-56.98,39.585],[-56.921,40.029]]}},{"type":"Feature","properties":{"boundary_type":"subduction","feature_type":"gpml:SubductionZone","polarity":"Left","overriding_plate_id":580,"subducting_plate_id":501,"plate_ids":[501,580],"name":"Tarim subduction"},"geometry":{"type":"LineString","coordinates":[[-56.921,40.029],[-56.86,40.486],[-56.798,40.943],[-56.734,41.4],[-56.67,41.857],[-56.605,42.314],[-56.539,42.771],[-56.792,43.229],[-57.049,43.687],[-57.31,44.144],[-57.575,44.601],[-57.844,45.057],[-58.117,45.513],[-58.395,45.968],[-58.677,46.422],[-58.964,46.875],[-59.256,47.328],[-59.553,47.78],[-59.785,48.219],[-60.021,48.658],[-60.26,49.096],[-60.505,49.534],[-60.753,49.971],[-61.006,50.407],[-61.264,50.843],[-61.527,51.279],[-61.794,51.714],[-62.067,52.148],[-62.345,52.582],[-62.629,53.015],[-62.919,53.447],[-63.199,53.88],[-63.486,54.312],[-63.778,54.744],[-64.077,55.175],[-64.383,55.605],[-64.695,56.035],[-65.014,56.464],[-65.341,56.892],[-65.644,57.338],[-65.955,57.784],[-66.273,58.229],[-66.6,58.673],[-66.935,59.116],[-67.278,59.559],[-67.631,60.0],[-67.994,60.441],[-68.366,60.88],[-68.749,61.319],[-69.143,61.756],[-69.548,62.192],[-70.096,62.622],[-70.66,63.049],[-71.241,63.475],[-71.84,63.898],[-72.457,64.318],[-73.093,64.736],[-73.749,65.15],[-74.425,65.562],[-75.123,65.971],[-75.844,66.376],[-76.589,66.779],[-76.594,66.78]]}},{"type":"Feature","properties":{"boundary_type":"subduction","feature_type":"gpml:SubductionZone","polarity":"Left","overriding_plate_id":456,"subducting_plate_id":501,"plate_ids":[456,501],"name":"Tarim subduction"},"geometry":{"type":"LineString","coordinates":[[-76.594,66.78],[-77.527,67.085],[-78.484,67.384],[-79.465,67.678],[-80.538,67.807],[-81.623,67.929],[-82.719,68.044]]}},{"type":"Feature","properties":{"boundary_type":"subduction","feature_type":"gpml:SubductionZone","polarity":"Right","overriding_plate_id":501,"subducting_plate_id":980421,"plate_ids":[501,980421],"name":"northwestern india sub zone"},"geometry":{"type":"LineString","coordinates":[[-6.373,59.051],[-7.255,58.859],[-8.127,58.662],[-8.99,58.459],[-9.842,58.25],[-10.684,58.035],[-11.516,57.815],[-12.337,57.59],[-13.149,57.359],[-13.95,57.123],[-14.741,56.882],[-15.522,56.636],[-16.292,56.386],[-17.052,56.13],[-17.884,55.974],[-18.709,55.811],[-19.527,55.643],[-20.337,55.47],[-21.141,55.292],[-21.937,55.108],[-22.726,54.919],[-23.507,54.725],[-24.281,54.526],[-25.047,54.322],[-25.806,54.113],[-26.556,53.9],[-27.3,53.682],[-28.035,53.46],[-28.763,53.233],[-29.483,53.001],[-30.195,52.765],[-30.899,52.525],[-31.596,52.281],[-32.285,52.033],[-32.966,51.781],[-33.64,51.525],[-34.306,51.265],[-34.965,51.002],[-35.616,50.735],[-36.264,50.483],[-36.905,50.228],[-37.539,49.97],[-38.166,49.708],[-38.786,49.443],[-39.4,49.174],[-40.007,48.902],[-40.607,48.627],[-41.201,48.349],[-41.789,48.068],[-42.37,47.784],[-42.944,47.498],[-43.513,47.208],[-44.075,46.915],[-44.631,46.62],[-45.181,46.322],[-45.725,46.022],[-46.263,45.719],[-46.795,45.413],[-47.322,45.105],[-47.843,44.795],[-48.358,44.482],[-48.868,44.167],[-49.372,43.85],[-49.871,43.531],[-50.274,43.13],[-50.671,42.729],[-51.064,42.326],[-51.451,41.921],[-51.834,41.515],[-52.212,41.109],[-52.585,40.7]]}},{"type":"Feature","properties":{"boundary_type":"subduction","feature_type":"gpml:SubductionZone","polarity":"Right","overriding_plate_id":101,"subducting_plate_id":701,"plate_ids":[101,701],"name":"Proto Avalonia-Cadomia"},"geometry":{"type":"LineString","coordinates":[[-173.61,-51.884],[-173.219,-52.247],[-172.821,-52.608],[-172.417,-52.968],[-172.007,-53.326],[-171.589,-53.683],[-171.102,-54.077],[-170.605,-54.469],[-170.099,-54.859],[-169.583,-55.247],[-169.057,-55.632],[-168.52,-56.015],[-167.973,-56.396],[-167.414,-56.774],[-166.845,-57.15],[-166.263,-57.523],[-165.67,-57.894],[-165.064,-58.262],[-164.446,-58.626],[-163.815,-58.988],[-163.17,-59.346],[-162.717,-59.785],[-162.251,-60.222],[-161.773,-60.658],[-161.282,-61.091],[-160.778,-61.523],[-160.259,-61.953],[-159.725,-62.381],[-159.176,-62.807],[-158.61,-63.231],[-158.029,-63.652],[-157.429,-64.071],[-156.811,-64.487],[-156.175,-64.901],[-155.518,-65.312],[-154.841,-65.72],[-154.142,-66.124],[-153.42,-66.526],[-152.675,-66.924],[-151.905,-67.319],[-151.11,-67.709],[-150.287,-68.096],[-149.437,-68.479],[-148.748,-68.901],[-148.031,-69.321],[-147.286,-69.737],[-146.512,-70.15],[-145.706,-70.56],[-144.867,-70.966],[-143.993,-71.368],[-143.081,-71.766],[-142.131,-72.159],[-141.14,-72.548],[-140.105,-72.932],[-139.025,-73.31],[-137.896,-73.682],[-136.717,-74.048],[-136.412,-74.506],[-136.09,-74.964],[-135.748,-75.422],[-135.385,-75.879],[-134.997,-76.336],[-134.584,-76.792],[-134.141,-77.247],[-133.666,-77.702],[-133.156,-78.155],[-132.605,-78.608],[-132.009,-79.059],[-131.581,-79.546],[-131.112,-80.033],[-130.596,-80.518],[-130.024,-81.003],[-129.387,-81.486],[-128.675,-81.969],[-127.872,-82.45],[-126.961,-82.93],[-125.919,-83.407],[-124.715,-83.882],[-123.309,-84.354],[-121.65,-84.822],[-119.664,-85.284],[-117.251,-85.74],[-116.149,-86.189],[-114.755,-86.636],[-112.935,-87.081],[-110.465,-87.522],[-106.938,-87.956],[-101.547,-88.378],[-92.521,-88.776],[-75.786,-89.116],[-45.148,-89.308],[-9.283,-89.231],[13.25,-88.942]]}},{"type":"Feature","properties":{"boundary_type":"subduction","feature_type":"gpml:SubductionZone","polarity":"Right","overriding_plate_id":101,"subducting_plate_id":98041,"plate_ids":[101,98041],"name":"Proto Avalonia(?) SZ"},"geometry":{"type":"LineString","coordinates":[[-173.271,-3.836],[-173.084,-4.272],[-172.896,-4.707],[-172.709,-5.143],[-172.521,-5.579],[-172.333,-6.014],[-172.145,-6.45],[-171.956,-6.885],[-171.767,-7.32],[-171.577,-7.755],[-171.388,-8.191],[-171.197,-8.626],[-171.007,-9.061],[-170.816,-9.495],[-170.624,-9.93],[-170.432,-10.365],[-170.354,-10.847],[-170.276,-11.33],[-170.197,-11.812],[-170.118,-12.294],[-170.039,-12.777],[-169.96,-13.259],[-169.88,-13.741],[-169.8,-14.223],[-169.72,-14.706],[-169.639,-15.188],[-169.558,-15.67],[-169.476,-16.152],[-169.394,-16.634],[-169.312,-17.116],[-169.229,-17.598],[-169.146,-18.08],[-169.062,-18.562],[-168.978,-19.044],[-168.894,-19.526],[-168.85,-20.016],[-168.805,-20.506],[-168.761,-20.996],[-168.716,-21.485],[-168.671,-21.975],[-168.625,-22.465],[-168.58,-22.955],[-168.533,-23.445],[-168.487,-23.934],[-168.44,-24.424],[-168.393,-24.914],[-168.345,-25.404],[-168.297,-25.893],[-168.249,-26.383],[-168.2,-26.873],[-168.151,-27.362],[-168.101,-27.852],[-168.051,-28.342],[-168.001,-28.831],[-167.95,-29.321],[-167.992,-29.809],[-168.035,-30.297],[-168.078,-30.785],[-168.122,-31.272],[-168.166,-31.76],[-168.211,-32.248],[-168.256,-32.736],[-168.302,-33.224],[-168.348,-33.711],[-168.394,-34.199],[-168.441,-34.687],[-168.489,-35.174],[-168.538,-35.662],[-168.586,-36.15],[-168.636,-36.637],[-168.686,-37.125],[-168.737,-37.613],[-168.788,-38.1],[-168.841,-38.588],[-168.893,-39.075],[-168.947,-39.563],[-169.001,-40.05],[-169.057,-40.538],[-169.113,-41.025],[-169.169,-41.513],[-169.227,-42.0]]}},{"type":"Feature","properties":{"boundary_type":"subduction","feature_type":"gpml:SubductionZone","polarity":"Right","overriding_plate_id":101,"subducting_plate_id":701,"plate_ids":[101,701],"name":"Proto Avalonia(?) SZ"},"geometry":{"type":"LineString","coordinates":[[-169.227,-42.0],[-169.264,-42.304],[-169.3,-42.608],[-169.434,-43.091],[-169.57,-43.573],[-169.708,-44.055],[-169.848,-44.537],[-169.99,-45.019],[-170.135,-45.501],[-170.283,-45.982],[-170.433,-46.464],[-170.586,-46.945],[-170.741,-47.426],[-170.9,-47.907],[-171.179,-48.352],[-171.464,-48.796],[-171.754,-49.239],[-172.049,-49.682],[-172.35,-50.124],[-172.656,-50.566],[-172.968,-51.006],[-173.286,-51.446],[-173.61,-51.884]]}},{"type":"Feature","properties":{"boundary_type":"subduction","feature_type":"gpml:SubductionZone","polarity":"Left","overriding_plate_id":101,"subducting_plate_id":701,"plate_ids":[101,701],"name":"sz"},"geometry":{"type":"LineString","coordinates":[[89.144,-65.791],[88.714,-66.246],[88.269,-66.7],[87.807,-67.152],[87.327,-67.603],[86.829,-68.053],[86.311,-68.501],[85.772,-68.947],[85.423,-69.42],[85.058,-69.893],[84.676,-70.364],[84.276,-70.835],[83.856,-71.305],[83.416,-71.774],[82.954,-72.242],[82.467,-72.709],[81.954,-73.174],[81.413,-73.638],[80.841,-74.101],[80.236,-74.562],[79.595,-75.021],[78.914,-75.479],[78.19,-75.934],[77.418,-76.387],[76.595,-76.838],[76.279,-77.323],[75.938,-77.808],[75.57,-78.293],[75.17,-78.777],[74.734,-79.26],[74.258,-79.743],[73.736,-80.225],[73.16,-80.706],[72.522,-81.186],[71.811,-81.665],[71.014,-82.142],[70.115,-82.618],[69.093,-83.092],[67.922,-83.563],[66.567,-84.031],[64.984,-84.495],[63.112,-84.955],[61.981,-85.439],[60.583,-85.92],[58.813,-86.399],[56.504,-86.873],[53.378,-87.341],[48.941,-87.797],[42.257,-88.233],[31.471,-88.63],[13.25,-88.942]]}},{"type":"Feature","properties":{"boundary_type":"ridge","feature_type":"gpml:MidOceanRidge","polarity":null,"overriding_plate_id":null,"subducting_plate_id":null,"plate_ids":[401,801],"name":"Australia-Antarctica-Laurentia MOR"},"geometry":{"type":"LineString","coordinates":[[143.235,31.372],[142.692,31.203],[142.151,31.031],[141.612,30.857],[141.075,30.68],[140.54,30.502],[140.007,30.321],[139.475,30.138],[138.946,29.953],[138.419,29.766],[137.894,29.576],[137.37,29.385],[137.519,28.935],[137.666,28.485],[137.812,28.035],[137.957,27.585],[138.1,27.134],[137.571,27.011],[137.043,26.885],[136.516,26.758],[135.99,26.628],[135.466,26.497],[134.943,26.363],[134.42,26.228],[133.9,26.091],[133.38,25.952],[132.861,25.811],[132.344,25.668],[131.828,25.524],[131.314,25.378],[130.8,25.23],[130.288,25.08],[129.777,24.928]]}},{"type":"Feature","properties":{"boundary_type":"ridge","feature_type":"gpml:MidOceanRidge","polarity":null,"overriding_plate_id":null,"subducting_plate_id":null,"plate_ids":[101,801],"name":"Australia-Antarctica-Laurentia MOR"},"geometry":{"type":"LineString","coordinates":[[129.777,24.928],[129.512,24.848],[129.247,24.768],[129.437,24.312],[129.626,23.856],[129.813,23.399],[130.0,22.942],[130.185,22.485],[130.369,22.027],[129.872,21.865],[129.376,21.702],[128.881,21.537],[128.388,21.37],[127.896,21.202],[127.404,21.033],[126.914,20.862],[126.425,20.69],[125.937,20.517],[125.45,20.342],[124.965,20.166],[124.48,19.988],[123.997,19.809],[123.514,19.629],[123.033,19.448],[122.553,19.265],[122.073,19.081],[121.595,18.896],[121.118,18.709],[120.642,18.522],[120.841,18.099],[121.038,17.677],[121.235,17.254],[121.431,16.831],[121.626,16.408],[121.82,15.984],[122.014,15.561],[122.206,15.137],[122.398,14.713],[122.589,14.289],[122.121,14.081],[121.654,13.872],[121.187,13.662],[120.722,13.451],[120.257,13.239],[119.794,13.027],[119.331,12.814],[118.868,12.6],[118.407,12.385],[117.946,12.169],[117.486,11.953],[117.027,11.735],[116.568,11.517],[116.111,11.299],[115.654,11.079],[115.197,10.859],[114.742,10.639],[114.286,10.417],[113.832,10.195],[113.378,9.973],[112.925,9.75],[113.064,9.296],[113.203,8.842],[113.341,8.389],[113.479,7.935],[113.617,7.481],[113.177,7.254],[112.738,7.026],[112.3,6.798],[111.861,6.57],[111.423,6.341],[110.986,6.112],[110.549,5.882],[110.112,5.652],[109.676,5.422],[109.24,5.191],[108.804,4.961],[108.368,4.729],[107.933,4.498],[107.498,4.266],[107.064,4.035],[106.629,3.802],[106.195,3.57],[105.761,3.337],[105.327,3.105],[104.894,2.872],[104.461,2.639],[104.027,2.405],[103.594,2.172],[103.489,2.449],[103.383,2.725],[102.939,2.532],[102.495,2.34],[102.051,2.147],[101.607,1.954],[101.163,1.761],[100.72,1.567],[100.276,1.374],[99.833,1.181],[99.389,0.987],[98.946,0.793],[98.503,0.6],[98.059,0.406],[97.616,0.213],[97.173,0.019],[96.73,-0.175],[96.287,-0.369],[95.843,-0.562],[95.4,-0.756],[94.957,-0.949],[94.513,-1.143],[94.07,-1.336],[93.627,-1.53],[93.183,-1.723],[93.206,-2.179],[93.229,-2.636],[92.787,-2.86],[92.345,-3.084],[91.903,-3.308],[91.46,-3.531],[91.017,-3.755],[90.574,-3.978],[90.131,-4.201],[90.211,-4.666],[90.291,-5.13],[90.372,-5.595],[90.452,-6.06],[90.533,-6.524],[90.614,-6.989],[90.695,-7.453],[90.776,-7.918],[90.857,-8.382],[90.939,-8.847],[91.021,-9.311],[90.61,-9.504],[90.2,-9.696],[89.788,-9.887],[89.853,-10.361],[89.919,-10.836],[89.984,-11.311],[90.05,-11.785],[90.116,-12.26],[90.182,-12.734],[90.249,-13.208],[90.316,-13.683],[90.383,-14.157],[90.45,-14.632],[90.518,-15.106],[90.586,-15.581],[90.654,-16.055],[90.722,-16.529],[90.791,-17.004],[90.86,-17.478],[90.93,-17.952],[91.0,-18.426],[91.07,-18.9],[91.141,-19.375],[90.773,-19.483],[90.405,-19.59],[90.036,-19.696],[90.051,-20.128],[90.067,-20.559],[90.082,-20.99],[90.098,-21.421],[90.114,-21.852],[89.596,-21.925],[89.077,-21.996],[88.558,-22.065],[88.038,-22.133],[87.518,-22.199],[86.998,-22.264],[86.477,-22.326],[86.362,-21.851],[86.247,-21.376],[86.134,-20.9],[86.021,-20.425],[85.909,-19.949],[85.798,-19.474],[85.687,-18.998],[85.577,-18.522],[85.467,-18.046],[85.358,-17.57],[85.25,-17.094],[85.142,-16.618],[84.628,-16.675],[84.114,-16.731],[83.6,-16.786],[83.085,-16.839],[82.57,-16.891],[82.055,-16.942],[81.539,-16.991],[81.023,-17.039],[80.507,-17.086],[79.991,-17.132],[79.474,-17.176],[78.957,-17.219],[78.44,-17.26],[77.923,-17.301],[77.429,-17.427],[76.935,-17.551],[76.441,-17.675],[75.945,-17.798],[75.449,-17.919],[74.953,-18.039],[74.455,-18.157],[73.957,-18.275],[73.459,-18.391],[72.959,-18.505],[72.46,-18.619],[71.959,-18.731],[71.458,-18.842],[70.956,-18.951],[70.453,-19.059],[69.95,-19.166],[69.446,-19.271],[68.941,-19.375],[68.436,-19.478],[67.93,-19.579],[67.424,-19.679],[66.916,-19.777],[66.409,-19.874],[65.9,-19.97],[65.391,-20.064],[64.882,-20.156],[64.883,-20.539],[64.884,-20.922],[64.885,-21.304],[64.705,-21.354]]}},{"type":"Feature","properties":{"boundary_type":"ridge","feature_type":"gpml:MidOceanRidge","polarity":null,"overriding_plate_id":null,"subducting_plate_id":null,"plate_ids":[101,701],"name":"Australia-Antarctica-Laurentia MOR"},"geometry":{"type":"LineString","coordinates":[[64.705,-21.354],[64.293,-21.466],[63.881,-21.576],[63.468,-21.686],[63.055,-21.795]]}},{"type":"Feature","properties":{"boundary_type":"ridge","feature_type":"gpml:MidOceanRidge","polarity":null,"overriding_plate_id":null,"subducting_plate_id":null,"plate_ids":[5906,5916],"name":"ANS ridge"},"geometry":{"type":"LineString","coordinates":[[-17.874,-13.881],[-17.502,-14.218],[-17.128,-14.553],[-16.753,-14.889],[-16.376,-15.223],[-15.999,-15.557],[-15.62,-15.89],[-15.24,-16.223],[-14.83,-16.512],[-14.419,-16.799],[-14.006,-17.086],[-13.592,-17.373],[-13.177,-17.658],[-12.76,-17.942],[-12.343,-18.226],[-11.923,-18.508],[-11.6,-18.154],[-11.279,-17.799],[-10.958,-17.444],[-10.639,-17.088],[-10.322,-16.732],[-10.005,-16.375],[-9.689,-16.018],[-9.375,-15.66],[-9.062,-15.302],[-8.749,-14.943],[-8.35,-15.228],[-7.949,-15.512],[-7.547,-15.795],[-7.144,-16.078],[-6.74,-16.359],[-6.335,-16.641],[-5.928,-16.921]]}},{"type":"Feature","properties":{"boundary_type":"ridge","feature_type":"gpml:MidOceanRidge","polarity":null,"overriding_plate_id":null,"subducting_plate_id":null,"plate_ids":[5031,5916],"name":"ANS ridge"},"geometry":{"type":"LineString","coordinates":[[-5.928,-16.921],[-5.514,-17.205],[-5.098,-17.488],[-4.681,-17.771],[-4.262,-18.053],[-3.842,-18.333],[-3.403,-18.581],[-2.962,-18.828],[-2.52,-19.074],[-2.077,-19.318],[-1.632,-19.562],[-1.186,-19.805],[-0.738,-20.046],[-0.29,-20.286],[0.161,-20.526],[0.612,-20.763],[1.065,-21.0],[1.337,-20.57],[1.607,-20.14],[1.875,-19.709],[2.143,-19.278],[2.579,-19.492],[3.017,-19.705],[3.456,-19.917],[3.896,-20.128],[4.338,-20.338],[4.78,-20.547],[5.224,-20.755],[5.669,-20.962],[6.115,-21.167],[6.563,-21.371],[7.011,-21.516],[7.46,-21.659],[7.91,-21.802],[8.361,-21.943],[8.813,-22.082],[9.266,-22.221],[9.72,-22.358],[10.174,-22.494]]}},{"type":"Feature","properties":{"boundary_type":"ridge","feature_type":"gpml:MidOceanRidge","polarity":null,"overriding_plate_id":null,"subducting_plate_id":null,"plate_ids":[606,801],"name":"Lhasa back-arc? ridge"},"geometry":{"type":"LineString","coordinates":[[73.385,24.337],[73.741,24.69],[74.1,25.042],[74.46,25.394],[74.822,25.744],[75.187,26.094],[75.553,26.442],[75.922,26.79],[76.293,27.137],[76.667,27.482],[77.043,27.827],[77.421,28.171],[77.802,28.514],[78.185,28.855],[78.57,29.196],[78.959,29.535],[79.306,29.171],[79.65,28.807],[79.992,28.441],[80.332,28.075],[80.752,28.395],[81.174,28.714],[81.598,29.031],[82.026,29.347],[82.456,29.662],[82.888,29.975],[83.324,30.287],[83.762,30.597],[84.203,30.906],[84.647,31.213],[85.093,31.519],[85.543,31.823],[85.996,32.126],[86.451,32.427],[86.91,32.726],[87.372,33.024],[87.836,33.32],[88.304,33.614],[88.554,33.301],[88.803,32.988],[89.049,32.674],[89.294,32.36],[89.789,32.629],[90.286,32.895],[90.787,33.159],[91.29,33.422],[91.797,33.682],[92.306,33.941],[92.819,34.197],[93.335,34.451],[93.854,34.703],[94.376,34.952],[94.901,35.2],[95.186,34.88],[95.469,34.561],[95.75,34.24],[96.029,33.919],[96.512,34.162],[96.997,34.403],[97.485,34.642],[97.977,34.879],[98.471,35.114],[98.967,35.347],[99.467,35.578],[99.97,35.807],[100.475,36.034],[100.983,36.259],[101.331,35.884],[101.674,35.508],[102.015,35.131],[102.352,34.753],[102.686,34.374],[103.018,33.994],[103.552,34.22],[104.089,34.443],[104.628,34.664],[105.171,34.883],[105.716,35.099],[106.264,35.313],[106.816,35.524],[107.37,35.733],[107.927,35.939],[108.487,36.142],[109.049,36.343],[109.615,36.542],[109.906,36.103],[110.195,35.664],[110.48,35.225],[110.762,34.784],[111.192,35.011],[111.624,35.235]]}},{"type":"Feature","properties":{"boundary_type":"ridge","feature_type":"gpml:MidOceanRidge","polarity":null,"overriding_plate_id":null,"subducting_plate_id":null,"plate_ids":[456,4014],"name":"India-Siberia ridge"},"geometry":{"type":"LineString","coordinates":[[-178.861,62.179],[-179.856,62.116],[179.154,62.046],[178.169,61.969],[177.188,61.885],[176.214,61.794],[175.245,61.696],[174.283,61.591],[173.327,61.48],[172.378,61.362]]}},{"type":"Feature","properties":{"boundary_type":"ridge","feature_type":"gpml:MidOceanRidge","polarity":null,"overriding_plate_id":null,"subducting_plate_id":null,"plate_ids":[501,4014],"name":"India-Siberia ridge"},"geometry":{"type":"LineString","coordinates":[[172.378,61.362],[171.378,61.229],[170.386,61.089],[169.403,60.942],[168.43,60.788],[167.466,60.627],[166.511,60.458],[165.567,60.284],[164.633,60.102],[163.71,59.914],[162.797,59.72],[161.895,59.519],[161.003,59.313],[160.123,59.1],[159.253,58.881],[158.395,58.657],[157.547,58.427],[156.711,58.191],[155.886,57.95],[155.072,57.704],[154.269,57.453],[154.636,57.012],[154.994,56.57],[155.344,56.127],[154.58,55.881],[153.826,55.631],[153.081,55.376],[152.346,55.116],[151.621,54.853],[150.905,54.585],[150.198,54.313],[149.501,54.036],[148.813,53.756],[148.135,53.472],[147.465,53.184],[146.804,52.893],[146.152,52.597],[145.509,52.299],[144.875,51.997],[144.249,51.691],[143.632,51.382],[143.023,51.07],[142.422,50.755],[141.829,50.437],[141.244,50.116],[140.668,49.792],[140.098,49.465],[139.537,49.135],[138.982,48.803],[138.435,48.468],[137.896,48.13],[137.363,47.79],[136.837,47.448],[136.318,47.103],[135.806,46.756],[135.301,46.407],[134.801,46.055],[134.309,45.701]]}},{"type":"Feature","properties":{"boundary_type":"ridge","feature_type":"gpml:MidOceanRidge","polarity":null,"overriding_plate_id":null,"subducting_plate_id":null,"plate_ids":[501,801],"name":"India-Siberia ridge"},"geometry":{"type":"LineString","coordinates":[[134.309,45.701],[133.906,45.407],[133.507,45.112],[133.112,44.814],[132.721,44.516],[132.335,44.216]]}},{"type":"Feature","properties":{"boundary_type":"ridge","feature_type":"gpml:MidOceanRidge","polarity":null,"overriding_plate_id":null,"subducting_plate_id":null,"plate_ids":[456,98041],"name":"India-Siberia ridge"},"geometry":{"type":"LineString","coordinates":[[179.037,35.56],[179.607,35.715],[-179.821,35.867],[-179.247,36.016],[-178.67,36.163],[-178.092,36.306],[-177.511,36.447],[-176.929,36.586],[-176.344,36.721],[-175.757,36.853],[-175.168,36.983],[-174.578,37.11],[-173.985,37.233],[-173.39,37.354],[-172.794,37.472],[-172.195,37.586],[-171.595,37.698],[-170.993,37.807],[-170.389,37.912],[-169.784,38.015],[-169.177,38.114],[-168.568,38.21],[-167.958,38.303],[-167.346,38.393],[-166.732,38.48],[-166.117,38.564],[-165.501,38.644],[-164.884,38.721],[-164.265,38.795],[-163.645,38.865],[-163.023,38.933],[-162.401,38.997],[-161.777,39.057],[-161.152,39.114],[-160.527,39.168],[-159.9,39.219],[-159.273,39.266],[-159.353,38.796],[-159.432,38.325],[-159.511,37.855],[-159.588,37.385],[-159.664,36.914],[-159.739,36.443],[-159.814,35.973],[-159.205,36.032],[-158.596,36.087],[-157.986,36.14],[-157.375,36.19],[-156.763,36.236],[-156.151,36.279],[-155.538,36.32],[-154.924,36.357],[-154.31,36.391],[-153.695,36.422],[-153.08,36.449],[-152.464,36.474],[-151.848,36.495],[-151.232,36.513],[-150.615,36.528],[-149.999,36.54],[-149.382,36.549],[-148.765,36.554],[-148.148,36.556],[-147.53,36.556],[-146.913,36.552],[-146.296,36.544],[-145.679,36.534],[-145.063,36.52],[-144.446,36.503],[-143.83,36.484],[-143.214,36.46],[-143.196,36.016],[-143.178,35.571],[-143.16,35.127],[-143.143,34.682],[-143.125,34.238],[-143.108,33.793],[-143.091,33.349],[-143.074,32.904],[-142.495,32.835],[-141.918,32.763],[-141.341,32.689],[-140.765,32.612],[-140.19,32.532],[-139.617,32.45],[-139.044,32.365],[-138.472,32.277],[-137.902,32.187],[-137.333,32.095],[-136.765,31.999],[-136.198,31.902],[-135.632,31.802]]}},{"type":"Feature","properties":{"boundary_type":"ridge","feature_type":"gpml:MidOceanRidge","polarity":null,"overriding_plate_id":null,"subducting_plate_id":null,"plate_ids":[580,98041],"name":"India-Siberia ridge"},"geometry":{"type":"LineString","coordinates":[[-135.632,31.802],[-135.088,31.703],[-134.546,31.602],[-134.005,31.498],[-133.466,31.393],[-132.927,31.285],[-132.39,31.175],[-131.854,31.062],[-131.319,30.948],[-130.786,30.831],[-130.253,30.712],[-129.723,30.591],[-129.193,30.468]]}},{"type":"Feature","properties":{"boundary_type":"ridge","feature_type":"gpml:MidOceanRidge","polarity":null,"overriding_plate_id":null,"subducting_plate_id":null,"plate_ids":[501,980421],"name":"MOR"},"geometry":{"type":"LineString","coordinates":[[31.575,20.174],[31.189,20.372],[30.802,20.569],[30.413,20.766]]}},{"type":"Feature","properties":{"boundary_type":"ridge","feature_type":"gpml:MidOceanRidge","polarity":null,"overriding_plate_id":null,"subducting_plate_id":null,"plate_ids":[5031,980421],"name":"MOR"},"geometry":{"type":"LineString","coordinates":[[30.413,20.766],[29.958,20.994],[29.502,21.221],[29.043,21.448],[28.584,21.672],[28.123,21.896],[27.661,22.118],[27.197,22.339],[26.732,22.559],[26.265,22.777],[25.797,22.994],[25.327,23.21],[24.856,23.424],[24.383,23.637],[23.909,23.848],[23.433,24.058],[22.956,24.267],[22.477,24.473],[21.996,24.679],[21.514,24.883],[21.025,25.111],[20.535,25.337],[20.042,25.561],[19.548,25.784],[19.052,26.005],[18.554,26.225],[18.054,26.443],[17.552,26.659],[17.048,26.873],[16.543,27.086],[16.035,27.296],[15.526,27.505],[15.015,27.712],[14.501,27.917],[13.986,28.12],[13.469,28.322],[13.141,27.986],[12.815,27.651],[12.491,27.314],[12.169,26.977],[11.655,27.115],[11.14,27.252],[10.625,27.386],[10.107,27.519],[9.589,27.65],[9.069,27.779],[8.549,27.906],[8.026,28.031],[7.503,28.154],[6.979,28.275],[6.453,28.394],[5.926,28.511],[5.398,28.626],[4.869,28.739],[4.339,28.85],[3.808,28.959],[3.275,29.066],[3.12,28.638],[2.966,28.21],[2.813,27.781],[2.271,27.898],[1.727,28.013],[1.182,28.126],[0.637,28.237],[0.09,28.346],[-0.458,28.452],[-1.008,28.556],[-1.558,28.658],[-2.109,28.758],[-2.661,28.855],[-3.215,28.951],[-3.769,29.044],[-4.325,29.134],[-4.881,29.223],[-5.438,29.309],[-5.996,29.393],[-6.555,29.474],[-7.115,29.553],[-7.676,29.63],[-8.238,29.704],[-8.361,29.271],[-8.484,28.839],[-8.605,28.406],[-8.725,27.972],[-8.845,27.539],[-8.963,27.106],[-9.08,26.672],[-9.197,26.239],[-9.742,26.246],[-10.288,26.251],[-10.833,26.254],[-11.378,26.254],[-11.924,26.253],[-12.469,26.25],[-13.015,26.244],[-13.56,26.237],[-14.105,26.227],[-14.65,26.216],[-15.195,26.202],[-15.74,26.187],[-16.285,26.169],[-16.829,26.149],[-17.373,26.127],[-17.918,26.103],[-18.461,26.077],[-19.005,26.05],[-19.548,26.02],[-20.091,25.988],[-20.634,25.954],[-21.177,25.917],[-21.719,25.879],[-22.26,25.839],[-22.802,25.797],[-23.343,25.753],[-23.883,25.707],[-24.423,25.659],[-24.963,25.609],[-25.502,25.557]]}},{"type":"Feature","properties":{"boundary_type":"ridge","feature_type":"gpml:MidOceanRidge","polarity":null,"overriding_plate_id":null,"subducting_plate_id":null,"plate_ids":[501,980421],"name":"ocean"},"geometry":{"type":"LineString","coordinates":[[31.575,20.174],[31.929,20.403],[32.285,20.631],[32.641,20.859],[32.998,21.085],[33.357,21.312],[33.602,20.979],[33.846,20.645],[34.089,20.311],[34.331,19.977],[34.783,20.234],[35.236,20.49],[35.69,20.745],[36.146,20.998],[36.603,21.25],[37.062,21.501],[37.523,21.751],[37.985,22.0],[38.449,22.247],[38.914,22.493],[39.381,22.737]]}},{"type":"Feature","properties":{"boundary_type":"ridge","feature_type":"gpml:MidOceanRidge","polarity":null,"overriding_plate_id":null,"subducting_plate_id":null,"plate_ids":[701,980421],"name":"ocean"},"geometry":{"type":"LineString","coordinates":[[-64.189,-1.273],[-63.842,-0.922],[-63.495,-0.57],[-63.148,-0.219],[-62.801,0.132],[-62.454,0.484],[-62.106,0.835],[-61.759,1.186],[-61.412,1.537],[-61.064,1.889],[-60.717,2.24],[-60.369,2.591],[-60.021,2.942],[-59.673,3.292],[-59.325,3.643],[-58.976,3.994],[-58.627,4.344],[-58.278,4.694],[-57.928,5.044],[-57.578,5.394],[-57.227,5.744],[-56.877,6.093],[-56.525,6.443],[-56.173,6.792],[-55.821,7.14],[-55.468,7.489],[-55.115,7.837],[-54.761,8.185],[-54.406,8.533],[-54.051,8.88],[-53.695,9.227],[-53.338,9.573],[-52.981,9.92],[-52.623,10.265],[-52.264,10.611],[-51.904,10.956],[-51.544,11.3],[-51.182,11.645],[-50.82,11.988],[-50.457,12.332],[-50.092,12.674],[-49.727,13.017],[-49.361,13.358],[-48.994,13.7],[-48.626,14.04],[-48.256,14.381],[-47.886,14.72],[-47.514,15.059],[-47.141,15.397],[-46.767,15.735],[-46.392,16.072],[-46.015,16.409],[-45.637,16.745],[-45.258,17.08],[-44.941,16.771],[-44.625,16.461],[-44.309,16.151],[-43.995,15.841],[-43.682,15.53],[-43.37,15.218],[-42.968,15.526],[-42.565,15.834],[-42.161,16.14],[-41.755,16.446],[-41.349,16.751],[-40.941,17.055],[-40.531,17.358],[-40.12,17.66],[-39.708,17.962],[-39.295,18.263],[-38.88,18.563],[-38.463,18.862],[-38.045,19.16],[-37.626,19.457],[-37.205,19.753],[-36.783,20.048],[-36.358,20.342],[-35.933,20.635],[-35.505,20.927],[-35.076,21.218],[-34.646,21.508],[-34.213,21.797],[-33.779,22.084],[-33.343,22.371],[-32.905,22.656],[-32.466,22.94],[-32.024,23.223],[-31.581,23.505],[-31.136,23.785],[-30.689,24.064],[-30.24,24.342],[-29.789,24.618],[-29.336,24.894],[-28.881,25.167],[-28.424,25.44],[-27.965,25.711],[-27.503,25.98],[-27.04,26.248],[-26.575,26.515],[-26.107,26.78],[-25.637,27.043]]}},{"type":"Feature","properties":{"boundary_type":"ridge","feature_type":"gpml:MidOceanRidge","polarity":null,"overriding_plate_id":null,"subducting_plate_id":null,"plate_ids":[501,5031],"name":"ANS-Mozambique Ocean ridge"},"geometry":{"type":"LineString","coordinates":[[24.407,0.033],[24.559,0.496],[24.711,0.958],[24.863,1.421],[25.015,1.883],[25.168,2.346],[25.32,2.808],[25.473,3.271],[25.626,3.733],[25.779,4.196],[25.932,4.658],[26.085,5.121],[26.239,5.583],[26.392,6.045],[26.546,6.508],[26.701,6.97],[26.334,7.053],[25.966,7.136],[25.599,7.218],[25.757,7.687],[25.916,8.155],[26.074,8.623],[26.234,9.092],[26.393,9.56],[26.553,10.028],[26.714,10.496],[26.875,10.964],[27.036,11.432],[27.198,11.9],[27.361,12.367],[27.524,12.835],[27.688,13.303],[27.852,13.77],[28.018,14.237],[28.183,14.705],[28.35,15.172],[28.517,15.639],[28.685,16.105],[28.854,16.572],[29.023,17.039],[29.194,17.505],[29.365,17.971],[29.537,18.437],[29.711,18.903],[29.885,19.369],[30.06,19.835],[30.236,20.3],[30.413,20.766]]}},{"type":"Feature","properties":{"boundary_type":"ridge","feature_type":"gpml:MidOceanRidge","polarity":null,"overriding_plate_id":null,"subducting_plate_id":null,"plate_ids":[701,98041],"name":"Mirovoi Ridge"},"geometry":{"type":"LineString","coordinates":[[-169.227,-42.0],[-168.759,-42.343],[-168.286,-42.685],[-167.808,-43.024],[-167.325,-43.362],[-166.836,-43.697],[-166.342,-44.03],[-165.842,-44.361],[-165.337,-44.69],[-164.826,-45.017],[-164.309,-45.341],[-163.786,-45.663],[-163.256,-45.983],[-162.721,-46.3],[-162.18,-46.614],[-161.632,-46.926],[-161.078,-47.235],[-160.518,-47.542],[-159.951,-47.846],[-159.377,-48.147],[-158.854,-47.799],[-158.338,-47.449],[-157.829,-47.097],[-157.327,-46.742],[-156.831,-46.386],[-156.342,-46.027],[-155.859,-45.666],[-155.383,-45.303],[-154.912,-44.938],[-154.447,-44.571],[-153.989,-44.203],[-153.535,-43.832],[-153.088,-43.46],[-152.646,-43.086],[-152.209,-42.711],[-151.778,-42.333],[-151.352,-41.955],[-150.931,-41.574],[-150.514,-41.192],[-150.103,-40.809],[-149.696,-40.424],[-149.294,-40.038],[-148.897,-39.65],[-148.504,-39.261],[-148.115,-38.871],[-147.731,-38.479],[-147.351,-38.087],[-146.974,-37.693],[-146.602,-37.297],[-146.234,-36.901],[-145.869,-36.504],[-145.508,-36.105],[-145.151,-35.705],[-144.798,-35.305],[-144.448,-34.903],[-144.101,-34.5],[-143.758,-34.097],[-143.418,-33.692],[-143.081,-33.287],[-142.747,-32.88],[-142.416,-32.473],[-142.089,-32.065],[-141.764,-31.656],[-141.442,-31.246],[-141.123,-30.835],[-140.806,-30.424],[-140.492,-30.012],[-140.181,-29.599],[-139.872,-29.185],[-139.566,-28.771],[-139.263,-28.356],[-138.961,-27.94],[-138.662,-27.524],[-138.365,-27.107],[-138.071,-26.69],[-137.778,-26.272],[-137.488,-25.853],[-137.2,-25.433],[-136.913,-25.014],[-136.629,-24.593],[-136.346,-24.172],[-136.066,-23.751],[-135.787,-23.329],[-135.51,-22.906],[-135.235,-22.483],[-134.961,-22.06],[-134.689,-21.636],[-134.419,-21.212],[-134.15,-20.787],[-133.883,-20.362],[-133.617,-19.936],[-133.352,-19.51],[-133.089,-19.084]]}},{"type":"Feature","properties":{"boundary_type":"ridge","feature_type":"gpml:MidOceanRidge","polarity":null,"overriding_plate_id":null,"subducting_plate_id":null,"plate_ids":[580,701],"name":"Mirovoi Ridge"},"geometry":{"type":"LineString","coordinates":[[-131.494,-20.615],[-131.815,-20.31],[-132.136,-20.004],[-132.455,-19.698],[-132.773,-19.391],[-133.089,-19.084]]}},{"type":"Feature","properties":{"boundary_type":"ridge","feature_type":"gpml:MidOceanRidge","polarity":null,"overriding_plate_id":null,"subducting_plate_id":null,"plate_ids":[580,98041],"name":"Mirovoi Ridge"},"geometry":{"type":"LineString","coordinates":[[-133.089,-19.084],[-133.452,-18.73],[-133.813,-18.376],[-134.172,-18.021],[-134.53,-17.665],[-134.887,-17.309],[-135.242,-16.951],[-135.596,-16.594],[-135.949,-16.235],[-136.3,-15.877],[-136.65,-15.517],[-136.999,-15.157],[-137.346,-14.797],[-137.693,-14.436],[-138.038,-14.074],[-138.383,-13.712],[-138.726,-13.35],[-139.068,-12.987],[-139.409,-12.623],[-139.749,-12.259],[-140.089,-11.895],[-140.427,-11.53],[-140.765,-11.165],[-141.101,-10.8],[-141.437,-10.434],[-141.772,-10.068],[-142.106,-9.701],[-142.44,-9.335],[-142.773,-8.968],[-143.105,-8.6],[-143.436,-8.232],[-143.767,-7.864],[-144.098,-7.496],[-144.427,-7.128],[-144.757,-6.759],[-145.085,-6.39],[-145.414,-6.021],[-145.057,-5.675],[-144.7,-5.329],[-144.345,-4.982],[-143.989,-4.636],[-143.634,-4.289],[-143.279,-3.942],[-142.924,-3.595],[-142.57,-3.248],[-142.216,-2.901],[-141.862,-2.553],[-141.508,-2.206],[-141.155,-1.858],[-140.801,-1.51],[-140.448,-1.162],[-140.095,-0.815],[-139.742,-0.467],[-139.388,-0.119],[-139.035,0.229],[-138.682,0.577],[-138.329,0.925],[-137.976,1.272],[-137.623,1.62],[-137.269,1.968],[-136.916,2.315],[-136.562,2.663],[-136.208,3.01],[-135.854,3.358],[-135.499,3.705],[-135.145,4.052],[-134.79,4.399],[-135.153,4.734],[-135.516,5.068],[-135.88,5.403],[-136.244,5.737],[-136.609,6.071],[-136.974,6.405],[-137.339,6.738],[-137.705,7.072],[-138.072,7.404],[-138.439,7.737],[-138.807,8.069],[-139.175,8.401],[-139.544,8.733],[-139.914,9.064],[-140.284,9.395],[-140.655,9.726],[-141.027,10.056],[-141.399,10.386],[-141.772,10.715],[-142.147,11.044],[-142.521,11.372],[-142.897,11.7],[-143.274,12.028],[-143.652,12.355],[-144.03,12.681],[-144.41,13.007],[-144.79,13.332],[-145.172,13.657],[-144.838,14.026],[-144.504,14.396],[-144.168,14.764],[-143.831,15.132],[-143.493,15.5],[-143.154,15.867],[-142.813,16.234],[-142.471,16.6],[-142.128,16.965],[-141.784,17.33],[-141.438,17.694],[-141.091,18.058],[-140.742,18.421],[-140.392,18.783],[-140.041,19.145],[-139.687,19.506],[-139.333,19.867],[-138.976,20.226],[-138.618,20.585],[-138.259,20.944],[-137.897,21.301],[-137.534,21.658],[-137.169,22.014],[-136.802,22.369],[-136.434,22.723],[-136.063,23.076],[-135.691,23.429],[-135.316,23.781],[-134.94,24.131],[-134.561,24.481],[-134.18,24.83],[-133.797,25.178],[-133.412,25.525],[-133.025,25.871],[-132.636,26.216],[-132.244,26.56],[-131.849,26.902],[-131.453,27.244],[-131.054,27.584],[-130.652,27.924],[-130.248,28.262],[-129.842,28.599],[-129.432,28.935],[-129.02,29.269],[-128.606,29.603],[-128.8,29.891],[-128.996,30.18],[-129.193,30.468]]}},{"type":"Feature","properties":{"boundary_type":"ridge","feature_type":"gpml:MidOceanRidge","polarity":null,"overriding_plate_id":null,"subducting_plate_id":null,"plate_ids":[580,701],"name":"Tarim-SM MOR"},"geometry":{"type":"LineString","coordinates":[[-131.494,-20.615],[-130.97,-20.673],[-130.446,-20.729],[-129.922,-20.784],[-129.397,-20.838],[-128.871,-20.889],[-128.346,-20.939],[-127.82,-20.988],[-127.294,-21.035],[-126.767,-21.08],[-126.24,-21.124],[-125.713,-21.166],[-125.185,-21.206],[-124.658,-21.245],[-124.13,-21.282],[-123.601,-21.317],[-123.073,-21.351],[-122.544,-21.383],[-122.015,-21.414],[-121.486,-21.443],[-120.956,-21.47],[-120.427,-21.495],[-119.897,-21.519],[-119.367,-21.541],[-118.837,-21.562],[-118.306,-21.58],[-117.776,-21.598],[-117.245,-21.613],[-116.715,-21.627],[-116.184,-21.639],[-115.653,-21.649],[-115.122,-21.658],[-114.591,-21.665],[-114.06,-21.67],[-113.529,-21.674],[-112.998,-21.676],[-112.467,-21.676],[-111.936,-21.675],[-111.405,-21.672],[-110.874,-21.667],[-110.343,-21.66],[-109.812,-21.652],[-109.281,-21.642],[-108.751,-21.631],[-108.22,-21.617],[-107.689,-21.602],[-107.159,-21.586],[-106.629,-21.568],[-106.098,-21.548],[-105.568,-21.526],[-105.039,-21.503],[-104.509,-21.478],[-103.979,-21.451],[-103.45,-21.423],[-102.921,-21.393],[-102.392,-21.361],[-101.863,-21.328],[-101.335,-21.293],[-100.807,-21.256],[-100.779,-21.724],[-100.75,-22.192],[-100.721,-22.659],[-100.692,-23.127],[-100.663,-23.595],[-100.634,-24.063],[-100.604,-24.53],[-100.574,-24.998],[-100.042,-24.914],[-99.51,-24.828],[-98.978,-24.74],[-98.448,-24.651],[-97.918,-24.559],[-97.389,-24.466],[-96.861,-24.37],[-96.334,-24.273],[-95.807,-24.175],[-95.281,-24.074],[-94.757,-23.971],[-94.232,-23.867],[-93.709,-23.761],[-93.187,-23.653],[-92.665,-23.544],[-92.145,-23.433],[-91.625,-23.32],[-91.106,-23.205],[-90.588,-23.089],[-90.071,-22.971],[-89.555,-22.851],[-89.04,-22.729],[-88.526,-22.606],[-88.012,-22.482],[-87.5,-22.355],[-86.988,-22.227],[-86.478,-22.098],[-85.968,-21.967],[-85.459,-21.834],[-84.952,-21.7],[-84.445,-21.564],[-83.939,-21.427],[-83.434,-21.288],[-82.93,-21.148],[-82.427,-21.006],[-81.925,-20.863],[-81.424,-20.718],[-81.517,-20.232],[-81.608,-19.747],[-81.699,-19.262],[-81.79,-18.776],[-81.88,-18.291],[-81.97,-17.805],[-82.059,-17.319],[-82.147,-16.834],[-82.235,-16.348],[-82.323,-15.862],[-82.41,-15.376],[-82.497,-14.891],[-82.584,-14.405],[-82.122,-14.253],[-81.66,-14.099],[-81.2,-13.945],[-80.74,-13.79],[-80.28,-13.635],[-79.821,-13.478],[-79.363,-13.321],[-78.906,-13.162],[-78.449,-13.003],[-77.992,-12.843],[-77.536,-12.683],[-77.081,-12.521],[-76.626,-12.359],[-76.172,-12.196],[-75.718,-12.032],[-75.265,-11.868],[-74.813,-11.703]]}},{"type":"Feature","properties":{"boundary_type":"transform","feature_type":"gpml:Transform","polarity":null,"overriding_plate_id":null,"subducting_plate_id":null,"plate_ids":[701,5916],"name":"ANS-SM transform"},"geometry":{"type":"LineString","coordinates":[[9.969,-22.7],[10.174,-22.494]]}},{"type":"Feature","properties":{"boundary_type":"transform","feature_type":"gpml:Transform","polarity":null,"overriding_plate_id":null,"subducting_plate_id":null,"plate_ids":[701,5031],"name":"ANS-SM transform"},"geometry":{"type":"LineString","coordinates":[[10.174,-22.494],[10.461,-22.205],[10.746,-21.915],[11.029,-21.625],[11.422,-21.322],[11.814,-21.018],[12.204,-20.714],[12.592,-20.408],[12.978,-20.101],[13.364,-19.794],[13.732,-19.496],[14.098,-19.198],[14.464,-18.899],[14.828,-18.599],[15.191,-18.298],[15.552,-17.997],[15.912,-17.695],[16.272,-17.393],[16.601,-17.032],[16.929,-16.671],[17.255,-16.31],[17.581,-15.948],[17.905,-15.585],[18.228,-15.222],[18.515,-14.902],[18.802,-14.581],[19.088,-14.261],[19.373,-13.94],[19.657,-13.618]]}},{"type":"Feature","properties":{"boundary_type":"transform","feature_type":"gpml:Transform","polarity":null,"overriding_plate_id":null,"subducting_plate_id":null,"plate_ids":[5031,5906],"name":"ANS transform"},"geometry":{"type":"LineString","coordinates":[[-5.928,-16.921],[-5.554,-16.583],[-5.181,-16.245],[-4.81,-15.906],[-4.439,-15.566],[-4.07,-15.226],[-3.702,-14.885],[-3.335,-14.543],[-2.97,-14.201],[-2.605,-13.859],[-2.242,-13.515],[-1.879,-13.172],[-1.518,-12.828]]}},{"type":"Feature","properties":{"boundary_type":"transform","feature_type":"gpml:Transform","polarity":null,"overriding_plate_id":null,"subducting_plate_id":null,"plate_ids":[5031,5906],"name":"ANS transform"},"geometry":{"type":"LineString","coordinates":[[-7.698,-4.607],[-8.054,-4.942],[-8.41,-5.277],[-8.766,-5.612],[-9.123,-5.947],[-9.48,-6.281],[-9.838,-6.616],[-10.196,-6.95],[-10.555,-7.284],[-10.914,-7.617],[-11.274,-7.95],[-11.634,-8.283],[-11.995,-8.616],[-12.357,-8.948],[-12.719,-9.28],[-13.082,-9.611],[-13.446,-9.942],[-13.81,-10.273],[-14.175,-10.604],[-14.541,-10.933],[-14.908,-11.263],[-15.276,-11.592],[-15.644,-11.92],[-16.013,-12.249],[-16.384,-12.576],[-16.755,-12.903],[-17.127,-13.23],[-17.5,-13.556],[-17.874,-13.881]]}},{"type":"Feature","properties":{"boundary_type":"transform","feature_type":"gpml:Transform","polarity":null,"overriding_plate_id":null,"subducting_plate_id":null,"plate_ids":[5031,5916],"name":"ANS transform"},"geometry":{"type":"LineString","coordinates":[[-17.874,-13.881],[-18.224,-14.184],[-18.575,-14.486],[-18.926,-14.788],[-19.279,-15.089],[-19.632,-15.39]]}},{"type":"Feature","properties":{"boundary_type":"transform","feature_type":"gpml:Transform","polarity":null,"overriding_plate_id":null,"subducting_plate_id":null,"plate_ids":[5916,77521],"name":"WES transform"},"geometry":{"type":"LineString","coordinates":[[-0.801,-28.516],[-0.766,-28.137],[-0.606,-27.759],[-0.447,-27.38],[-0.29,-27.001],[-0.137,-26.641],[0.014,-26.281],[0.164,-25.921]]}},{"type":"Feature","properties":{"boundary_type":"transform","feature_type":"gpml:Transform","polarity":null,"overriding_plate_id":null,"subducting_plate_id":null,"plate_ids":[701,5916],"name":"transform"},"geometry":{"type":"LineString","coordinates":[[12.156,-24.906],[12.089,-25.372],[12.021,-25.838],[11.953,-26.304],[11.884,-26.77],[11.815,-27.236],[11.745,-27.702],[11.674,-28.168],[11.603,-28.633],[11.531,-29.099],[11.459,-29.565],[11.385,-30.031],[11.311,-30.496]]}},{"type":"Feature","properties":{"boundary_type":"transform","feature_type":"gpml:Transform","polarity":null,"overriding_plate_id":null,"subducting_plate_id":null,"plate_ids":[456,501],"name":"SC-Tarim transform"},"geometry":{"type":"LineString","coordinates":[[-4.074,79.846],[-6.775,79.948],[-9.525,80.028],[-12.313,80.085],[-15.126,80.119],[-17.951,80.129],[-20.775,80.116],[-23.586,80.079],[-26.369,80.019],[-29.113,79.937],[-31.807,79.832],[-34.442,79.705],[-37.007,79.558],[-39.498,79.391],[-41.908,79.205],[-44.233,79.001],[-46.472,78.779],[-48.621,78.542],[-50.683,78.29],[-52.656,78.024],[-54.542,77.744],[-56.419,77.448],[-58.209,77.14],[-59.916,76.82],[-61.541,76.49],[-63.09,76.149],[-64.564,75.8],[-65.968,75.441],[-67.306,75.075],[-68.58,74.701],[-69.794,74.321],[-70.952,73.934],[-72.056,73.541],[-73.11,73.142],[-74.116,72.739],[-75.077,72.331],[-75.996,71.918],[-76.875,71.501],[-77.717,71.08],[-78.523,70.655],[-79.295,70.227],[-80.037,69.796],[-80.748,69.362],[-81.431,68.926],[-82.087,68.486],[-82.719,68.044]]}},{"type":"Feature","properties":{"boundary_type":"transform","feature_type":"gpml:Transform","polarity":null,"overriding_plate_id":null,"subducting_plate_id":null,"plate_ids":[501,980421],"name":"Tarim Transform"},"geometry":{"type":"LineString","coordinates":[[-52.585,40.7],[-53.21,40.615],[-53.833,40.525],[-54.454,40.433],[-55.074,40.337],[-55.691,40.238],[-56.307,40.135],[-56.921,40.029]]}},{"type":"Feature","properties":{"boundary_type":"transform","feature_type":"gpml:Transform","polarity":null,"overriding_plate_id":null,"subducting_plate_id":null,"plate_ids":[101,401],"name":"Siberia-Rodinia transform"},"geometry":{"type":"LineString","coordinates":[[148.581,3.085],[148.157,3.307],[147.732,3.529],[147.307,3.751],[146.882,3.972],[146.456,4.194],[146.031,4.415],[145.605,4.636],[145.179,4.856],[144.881,5.245],[144.583,5.634],[144.285,6.022],[143.986,6.411],[143.687,6.799],[143.387,7.187],[143.087,7.575],[142.787,7.963],[142.503,8.343],[142.219,8.724],[141.934,9.104],[141.649,9.484],[141.363,9.864],[141.077,10.243],[140.79,10.622],[140.502,11.001],[140.213,11.38],[139.924,11.759],[139.634,12.137],[139.343,12.515],[139.051,12.892],[138.798,13.305],[138.545,13.718],[138.29,14.131],[138.035,14.543],[137.778,14.955],[137.521,15.367],[137.262,15.779],[137.003,16.19],[136.743,16.601],[136.481,17.011],[136.218,17.421],[135.911,17.802],[135.602,18.182],[135.292,18.562],[134.98,18.941],[134.667,19.32],[134.353,19.698],[134.037,20.076],[133.719,20.453],[133.4,20.829],[133.08,21.205],[132.757,21.581],[132.433,21.955],[132.108,22.329],[131.78,22.703],[131.451,23.075],[131.12,23.447],[130.787,23.819],[130.453,24.189],[130.116,24.559],[129.777,24.928]]}},{"type":"Feature","properties":{"boundary_type":"transform","feature_type":"gpml:Transform","polarity":null,"overriding_plate_id":null,"subducting_plate_id":null,"plate_ids":[801,4014],"name":"Siberia-Australia transform"},"geometry":{"type":"LineString","coordinates":[[134.309,45.701],[134.648,45.268],[134.982,44.834],[135.311,44.399],[135.636,43.963],[135.955,43.525],[136.27,43.088],[136.581,42.649],[136.887,42.209],[137.189,41.769],[137.486,41.328],[137.78,40.886],[138.07,40.443],[138.356,40.0],[138.638,39.556],[138.917,39.111],[139.192,38.665],[139.464,38.219],[139.733,37.773],[139.998,37.325]]}},{"type":"Feature","properties":{"boundary_type":"transform","feature_type":"gpml:Transform","polarity":null,"overriding_plate_id":null,"subducting_plate_id":null,"plate_ids":[401,801],"name":"Siberia-Australia transform"},"geometry":{"type":"LineString","coordinates":[[139.998,37.325],[140.245,36.903],[140.49,36.48],[140.732,36.057],[140.971,35.633],[141.208,35.209],[141.442,34.785],[141.674,34.36],[141.904,33.934],[142.131,33.508],[142.356,33.082],[142.579,32.655],[142.8,32.228],[143.019,31.8],[143.235,31.372]]}},{"type":"Feature","properties":{"boundary_type":"transform","feature_type":"gpml:Transform","polarity":null,"overriding_plate_id":null,"subducting_plate_id":null,"plate_ids":[701,5031],"name":"transform"},"geometry":{"type":"LineString","coordinates":[[15.674,-6.816],[15.356,-6.782],[14.995,-6.744],[14.635,-6.706],[14.274,-6.668]]}},{"type":"Feature","properties":{"boundary_type":"transform","feature_type":"gpml:Transform","polarity":null,"overriding_plate_id":null,"subducting_plate_id":null,"plate_ids":[701,77521],"name":"transform"},"geometry":{"type":"LineString","coordinates":[[10.924,-30.368],[10.884,-30.763],[10.843,-31.157],[10.847,-31.191]]}},{"type":"Feature","properties":{"boundary_type":"transform","feature_type":"gpml:Transform","polarity":null,"overriding_plate_id":null,"subducting_plate_id":null,"plate_ids":[456,580],"name":"Tarim-Kunlun-Mirovoi transform"},"geometry":{"type":"LineString","coordinates":[[-135.632,31.802],[-135.436,32.262],[-135.238,32.722],[-135.038,33.181],[-134.836,33.641],[-134.631,34.1],[-134.425,34.558],[-134.216,35.016],[-134.005,35.474],[-133.791,35.932],[-133.575,36.389],[-133.357,36.846],[-133.135,37.302],[-132.912,37.758],[-132.685,38.213],[-132.455,38.668],[-132.223,39.123],[-131.987,39.577],[-131.749,40.031],[-131.507,40.484],[-131.262,40.937],[-131.013,41.389],[-130.621,41.786],[-130.225,42.183],[-129.823,42.577],[-129.417,42.971],[-129.005,43.363],[-128.588,43.753],[-128.165,44.142],[-127.737,44.53],[-127.303,44.915],[-126.863,45.299],[-126.417,45.682],[-125.965,46.062],[-125.507,46.441],[-125.043,46.818],[-124.572,47.193],[-124.094,47.566],[-123.609,47.937],[-123.117,48.306],[-122.619,48.673],[-122.113,49.038],[-121.599,49.4],[-121.078,49.76],[-120.585,50.142],[-120.084,50.522],[-119.575,50.9],[-119.058,51.275],[-118.532,51.648],[-117.998,52.019],[-117.454,52.387],[-116.902,52.753],[-116.34,53.116],[-115.769,53.476],[-115.188,53.834],[-114.597,54.189],[-113.995,54.541],[-113.384,54.889],[-112.762,55.235],[-112.128,55.578],[-111.484,55.917],[-110.829,56.252],[-110.162,56.585],[-109.483,56.913],[-108.792,57.238],[-108.089,57.559],[-107.445,57.905],[-106.788,58.248],[-106.119,58.587],[-105.437,58.923],[-104.741,59.255],[-104.032,59.583],[-103.308,59.908],[-102.571,60.228],[-101.819,60.544],[-101.053,60.856],[-100.271,61.164],[-99.474,61.467],[-98.662,61.765],[-97.834,62.058],[-96.99,62.346],[-96.129,62.629],[-95.253,62.907],[-94.359,63.179],[-93.449,63.445],[-92.522,63.705],[-91.578,63.96],[-90.617,64.208],[-89.639,64.45],[-88.643,64.685],[-87.631,64.913],[-86.601,65.134],[-85.554,65.348],[-84.491,65.555],[-83.41,65.754],[-82.313,65.946],[-81.2,66.129],[-80.072,66.305],[-78.927,66.472],[-77.768,66.63],[-76.594,66.78]]}},{"type":"Feature","properties":{"boundary_type":"transform","feature_type":"gpml:Transform","polarity":null,"overriding_plate_id":null,"subducting_plate_id":null,"plate_ids":[606,801],"name":"Lhasa transform"},"geometry":{"type":"LineString","coordinates":[[107.948,42.318],[108.258,41.897],[108.565,41.476],[108.868,41.054],[109.167,40.632],[109.462,40.208],[109.754,39.784],[110.041,39.359],[110.326,38.934],[110.607,38.507],[110.885,38.08],[111.159,37.653],[111.247,37.185],[111.333,36.718],[111.418,36.251],[111.503,35.783],[111.586,35.316],[111.624,35.235]]}},{"type":"Feature","properties":{"boundary_type":"transform","feature_type":"gpml:Transform","polarity":null,"overriding_plate_id":null,"subducting_plate_id":null,"plate_ids":[501,606],"name":"Transform"},"geometry":{"type":"LineString","coordinates":[[69.838,27.831],[70.215,27.474]]}},{"type":"Feature","properties":{"boundary_type":"transform","feature_type":"gpml:Transform","polarity":null,"overriding_plate_id":null,"subducting_plate_id":null,"plate_ids":[606,801],"name":"Transform"},"geometry":{"type":"LineString","coordinates":[[70.215,27.474],[70.576,27.129],[70.934,26.783],[71.291,26.436],[71.645,26.088],[71.997,25.74],[72.347,25.39],[72.695,25.04],[73.041,24.689],[73.385,24.337]]}},{"type":"Feature","properties":{"boundary_type":"transform","feature_type":"gpml:Transform","polarity":null,"overriding_plate_id":null,"subducting_plate_id":null,"plate_ids":[456,501],"name":"SC transform"},"geometry":{"type":"LineString","coordinates":[[172.378,61.362],[172.239,61.578]]}},{"type":"Feature","properties":{"boundary_type":"transform","feature_type":"gpml:Transform","polarity":null,"overriding_plate_id":null,"subducting_plate_id":null,"plate_ids":[501,980421],"name":"ocean transform"},"geometry":{"type":"LineString","coordinates":[[36.212,34.983],[36.298,34.516],[36.383,34.048],[36.468,33.581],[36.551,33.114],[36.633,32.647],[36.715,32.18],[36.795,31.712],[36.875,31.245],[36.954,30.777],[37.032,30.31],[37.11,29.842],[37.245,29.4],[37.379,28.957],[37.512,28.514],[37.644,28.071],[37.775,27.628],[37.905,27.184],[38.034,26.741],[38.161,26.298],[38.288,25.854],[38.414,25.41],[38.539,24.966],[38.71,24.521],[38.879,24.075],[39.048,23.629],[39.215,23.183],[39.381,22.737]]}},{"type":"Feature","properties":{"boundary_type":"transform","feature_type":"gpml:Transform","polarity":null,"overriding_plate_id":null,"subducting_plate_id":null,"plate_ids":[580,701],"name":"ocean transform"},"geometry":{"type":"LineString","coordinates":[[-74.813,-11.703],[-74.793,-11.248],[-74.773,-10.793],[-74.754,-10.338],[-74.734,-9.883],[-74.688,-9.403],[-74.642,-8.924],[-74.596,-8.445],[-74.55,-7.965],[-74.505,-7.486],[-74.459,-7.007],[-74.414,-6.527],[-74.368,-6.048],[-74.323,-5.569],[-74.278,-5.089],[-74.233,-4.61],[-74.188,-4.13],[-74.143,-3.651],[-74.098,-3.172],[-74.053,-2.692],[-74.008,-2.213],[-73.963,-1.733],[-73.918,-1.254],[-73.873,-0.775],[-73.828,-0.295],[-73.783,0.184],[-73.739,0.664],[-73.567,1.123],[-73.394,1.583],[-73.222,2.043],[-73.05,2.502],[-72.877,2.962],[-72.705,3.422],[-72.532,3.881],[-72.359,4.341],[-72.186,4.8],[-72.012,5.26],[-71.839,5.719],[-71.665,6.179],[-71.392,6.549],[-71.119,6.919],[-70.846,7.29],[-70.572,7.66],[-70.297,8.03],[-70.022,8.399],[-69.747,8.769],[-69.471,9.138],[-69.112,9.438],[-68.753,9.738],[-68.393,10.037],[-68.033,10.336],[-67.672,10.634],[-67.31,10.932],[-66.947,11.23],[-66.584,11.527],[-66.22,11.823]]}},{"type":"Feature","properties":{"boundary_type":"transform","feature_type":"gpml:Transform","polarity":null,"overriding_plate_id":null,"subducting_plate_id":null,"plate_ids":[101,701],"name":"Cong-SM transform"},"geometry":{"type":"LineString","coordinates":[[79.329,-46.616],[79.479,-47.102],[79.632,-47.588],[79.787,-48.074],[79.946,-48.56],[80.108,-49.046],[80.273,-49.531],[80.441,-50.016],[80.613,-50.501],[80.788,-50.985],[80.967,-51.469],[81.15,-51.953],[81.337,-52.437],[81.527,-52.92],[81.723,-53.404],[81.922,-53.886],[82.127,-54.369],[82.336,-54.851],[82.55,-55.332],[82.77,-55.814],[82.995,-56.295],[83.226,-56.775],[83.463,-57.255],[83.706,-57.735],[83.955,-58.214],[84.211,-58.692],[84.475,-59.171],[84.746,-59.648],[85.025,-60.125],[85.312,-60.601],[85.607,-61.077],[85.912,-61.552],[86.226,-62.027],[86.55,-62.5],[86.884,-62.973],[87.23,-63.445],[87.587,-63.916],[87.956,-64.387],[88.338,-64.856],[88.734,-65.324],[89.144,-65.791]]}}]}