{"type":"FeatureCollection","meta":{"model":"Cao2024","reconstruction_time_ma":1605.0,"anchor_plate_id":0,"pygplates_version":"1.0.0","tessellate_degrees":0.5,"polarity_convention":"gpml:subductionPolarity. 'Left'/'Right' names the side of the line, in vertex order, on which the OVERRIDING plate lies. Triangles are drawn on that side.","antimeridian":"Lines are NOT split at +/-180 deg. The renderer works in 3D unit vectors where the dateline is not special; splitting would only add spurious breaks. Do not treat this as RFC 7946 GIS-ready 2D data."},"features":[{"type":"Feature","properties":{"boundary_type":"subduction","feature_type":"gpml:SubductionZone","polarity":"Left","overriding_plate_id":101,"subducting_plate_id":90106,"plate_ids":[101,90106],"name":"eastern Laurentia-greenland-western baltica"},"geometry":{"type":"LineString","coordinates":[[-165.202,39.349],[-165.276,39.007],[-165.213,38.514],[-165.15,38.021],[-165.089,37.528],[-165.028,37.035],[-164.969,36.542],[-164.91,36.048],[-164.851,35.555],[-164.794,35.062],[-164.737,34.568],[-164.681,34.075],[-164.625,33.582],[-164.57,33.088],[-164.516,32.595],[-164.462,32.101],[-164.409,31.608]]}},{"type":"Feature","properties":{"boundary_type":"subduction","feature_type":"gpml:SubductionZone","polarity":"Left","overriding_plate_id":101,"subducting_plate_id":803,"plate_ids":[101,803],"name":"eastern Laurentia-greenland-western baltica"},"geometry":{"type":"LineString","coordinates":[[-164.409,31.608],[-164.368,31.229],[-164.328,30.849],[-164.288,30.47],[-164.258,29.983],[-164.227,29.496],[-164.196,29.008],[-164.166,28.521],[-164.137,28.034],[-164.107,27.546],[-164.078,27.059],[-164.049,26.572],[-164.02,26.084],[-163.991,25.597],[-163.963,25.11],[-163.935,24.622],[-163.907,24.135],[-163.88,23.648],[-163.852,23.16],[-163.825,22.673],[-163.798,22.186],[-163.771,21.698],[-163.744,21.211]]}},{"type":"Feature","properties":{"boundary_type":"subduction","feature_type":"gpml:SubductionZone","polarity":"Left","overriding_plate_id":101,"subducting_plate_id":803,"plate_ids":[101,803],"name":"SouthIndia_SZ"},"geometry":{"type":"LineString","coordinates":[[-158.155,-7.086],[-157.872,-7.46],[-157.589,-7.834],[-157.305,-8.207],[-157.021,-8.581],[-156.736,-8.954],[-156.45,-9.327],[-156.164,-9.699],[-155.877,-10.072],[-155.576,-10.428],[-155.274,-10.783],[-154.972,-11.138],[-154.668,-11.493],[-154.364,-11.847],[-154.059,-12.202],[-153.754,-12.555],[-153.447,-12.909],[-153.14,-13.262],[-152.831,-13.615],[-152.522,-13.967],[-152.212,-14.319],[-152.058,-14.768],[-151.904,-15.217],[-151.75,-15.666],[-151.594,-16.114],[-151.438,-16.563],[-151.281,-17.011],[-151.123,-17.46],[-150.965,-17.908],[-150.806,-18.356],[-150.646,-18.804],[-150.485,-19.252],[-150.323,-19.699],[-150.161,-20.147],[-149.997,-20.594],[-149.832,-21.041],[-149.667,-21.488],[-149.678,-21.988],[-149.69,-22.487],[-149.701,-22.987],[-149.713,-23.486],[-149.725,-23.985],[-149.737,-24.485],[-149.749,-24.984],[-149.761,-25.484],[-149.773,-25.983],[-149.785,-26.482],[-149.798,-26.982],[-149.81,-27.481],[-149.984,-27.938],[-150.159,-28.395],[-150.336,-28.852],[-150.514,-29.309],[-150.694,-29.765],[-150.876,-30.221],[-151.059,-30.677],[-151.244,-31.132],[-151.431,-31.588],[-151.62,-32.043],[-151.81,-32.497],[-152.003,-32.952],[-152.142,-33.388],[-152.282,-33.823],[-152.424,-34.258],[-152.568,-34.694],[-152.713,-35.128],[-152.86,-35.563]]}},{"type":"Feature","properties":{"boundary_type":"subduction","feature_type":"gpml:SubductionZone","polarity":"Right","overriding_plate_id":801,"subducting_plate_id":80104,"plate_ids":[801,80104],"name":"NorthChina_SZ"},"geometry":{"type":"LineString","coordinates":[[-83.16,22.789],[-83.135,22.768]]}},{"type":"Feature","properties":{"boundary_type":"subduction","feature_type":"gpml:SubductionZone","polarity":"Right","overriding_plate_id":801,"subducting_plate_id":90107,"plate_ids":[801,90107],"name":"NorthChina_SZ"},"geometry":{"type":"LineString","coordinates":[[-83.135,22.768],[-82.787,22.473],[-82.44,22.177],[-82.095,21.88],[-81.751,21.582],[-81.409,21.284],[-81.158,20.87],[-80.909,20.457],[-80.662,20.042],[-80.415,19.628],[-80.17,19.213],[-79.926,18.798],[-79.684,18.382],[-79.442,17.966],[-79.405,17.495],[-79.368,17.024],[-79.332,16.552],[-79.295,16.081],[-79.259,15.61],[-79.223,15.138],[-79.187,14.667],[-79.151,14.196],[-79.116,13.724],[-79.08,13.253],[-79.338,12.862],[-79.595,12.472],[-79.852,12.081],[-80.107,11.689],[-80.362,11.298],[-80.616,10.906],[-80.87,10.514],[-81.123,10.122],[-81.375,9.729],[-81.627,9.337],[-81.878,8.944],[-82.129,8.551],[-82.379,8.158],[-82.731,7.839],[-83.082,7.52],[-83.433,7.2],[-83.783,6.881],[-84.133,6.561],[-84.483,6.24],[-84.832,5.92],[-85.18,5.599],[-85.528,5.278],[-85.876,4.957],[-86.224,4.636],[-86.571,4.314],[-86.918,3.993]]}},{"type":"Feature","properties":{"boundary_type":"subduction","feature_type":"gpml:SubductionZone","polarity":"Right","overriding_plate_id":801,"subducting_plate_id":811001,"plate_ids":[801,811001],"name":"SouthAustralia_SZ"},"geometry":{"type":"LineString","coordinates":[[-85.299,53.122],[-85.2,52.729],[-85.084,52.274],[-84.97,51.819],[-84.859,51.364],[-84.749,50.909],[-84.642,50.454],[-84.537,49.999],[-84.433,49.544],[-84.332,49.089],[-84.485,48.6],[-84.635,48.112],[-84.782,47.623],[-84.926,47.135],[-85.068,46.646],[-85.207,46.156],[-85.343,45.667],[-85.478,45.178],[-85.61,44.688],[-85.74,44.198],[-85.867,43.708],[-85.993,43.218],[-86.116,42.728],[-86.324,42.442]]}},{"type":"Feature","properties":{"boundary_type":"subduction","feature_type":"gpml:SubductionZone","polarity":"Right","overriding_plate_id":801,"subducting_plate_id":80104,"plate_ids":[801,80104],"name":"SouthAustralia_SZ"},"geometry":{"type":"LineString","coordinates":[[-86.324,42.442],[-86.552,42.123],[-86.778,41.805],[-87.001,41.486]]}},{"type":"Feature","properties":{"boundary_type":"subduction","feature_type":"gpml:SubductionZone","polarity":"Left","overriding_plate_id":101,"subducting_plate_id":90106,"plate_ids":[101,90106],"name":"Eastern_Laurentia_SZ"},"geometry":{"type":"LineString","coordinates":[[-156.282,78.305],[-157.797,78.011],[-159.24,77.71],[-160.246,77.288],[-161.188,76.864],[-162.071,76.436],[-162.902,76.005],[-163.684,75.571],[-164.421,75.135],[-165.116,74.697],[-165.774,74.257],[-166.085,73.798],[-166.379,73.339],[-166.657,72.879],[-166.922,72.419],[-167.173,71.959],[-167.412,71.499],[-167.64,71.038],[-167.858,70.577],[-168.065,70.115],[-168.264,69.654],[-168.454,69.192],[-168.637,68.73],[-168.812,68.267],[-168.973,67.776],[-169.128,67.285],[-169.277,66.794],[-169.42,66.302],[-169.557,65.81],[-169.69,65.319],[-169.817,64.827],[-169.94,64.335],[-170.059,63.843],[-170.173,63.351],[-170.284,62.858],[-170.391,62.366],[-170.507,61.906],[-170.62,61.447],[-170.73,60.987],[-170.837,60.527],[-170.94,60.067],[-171.041,59.607],[-171.139,59.147],[-171.234,58.686],[-171.327,58.226],[-171.418,57.766],[-171.506,57.305],[-171.388,56.827],[-171.273,56.349],[-171.16,55.871],[-171.051,55.392],[-170.944,54.914],[-170.839,54.435],[-170.737,53.957],[-170.637,53.478],[-170.539,52.999],[-170.444,52.52],[-170.351,52.041],[-170.128,51.571],[-169.91,51.101],[-169.696,50.631],[-169.487,50.16],[-169.281,49.688],[-169.08,49.217],[-168.882,48.745],[-168.688,48.272],[-168.498,47.8],[-168.311,47.327],[-168.127,46.854],[-167.947,46.38],[-167.769,45.906],[-167.595,45.432],[-167.393,44.966],[-167.195,44.5],[-167.0,44.033],[-166.808,43.566],[-166.619,43.098],[-166.433,42.631],[-166.249,42.163],[-166.069,41.694],[-165.89,41.226],[-165.715,40.757],[-165.542,40.288],[-165.371,39.819],[-165.202,39.349]]}},{"type":"Feature","properties":{"boundary_type":"subduction","feature_type":"gpml:SubductionZone","polarity":"Left","overriding_plate_id":801,"subducting_plate_id":80104,"plate_ids":[801,80104],"name":"South_NorthAustralia_SZ"},"geometry":{"type":"LineString","coordinates":[[-83.16,22.789],[-83.059,23.261],[-82.958,23.733],[-82.855,24.205],[-82.752,24.677],[-82.648,25.149],[-82.543,25.621],[-82.438,26.092],[-82.331,26.564],[-82.224,27.036],[-82.116,27.507],[-82.007,27.978],[-81.897,28.45],[-81.785,28.921],[-81.673,29.392],[-81.56,29.863],[-81.446,30.334],[-81.331,30.805],[-81.214,31.275],[-81.339,31.733],[-81.464,32.191],[-81.591,32.649],[-81.72,33.106],[-81.849,33.564],[-81.98,34.021],[-82.113,34.478],[-82.246,34.935],[-82.382,35.392],[-82.519,35.849],[-82.657,36.306],[-82.797,36.762],[-82.939,37.218],[-83.083,37.674],[-83.456,38.061],[-83.833,38.447],[-84.214,38.831],[-84.599,39.215],[-84.988,39.597],[-85.382,39.977],[-85.78,40.356],[-86.182,40.734],[-86.589,41.111],[-87.001,41.486]]}},{"type":"Feature","properties":{"boundary_type":"subduction","feature_type":"gpml:SubductionZone","polarity":"Left","overriding_plate_id":801,"subducting_plate_id":101,"plate_ids":[101,801],"name":"South_NorthAustralia_SZ"},"geometry":{"type":"LineString","coordinates":[[-147.32,78.868],[-146.557,78.451],[-145.846,78.032],[-145.183,77.612],[-144.562,77.19],[-143.981,76.767],[-143.435,76.343],[-142.921,75.918],[-142.437,75.491],[-141.313,75.082],[-140.247,74.668],[-139.237,74.25],[-138.278,73.826],[-137.366,73.399],[-136.5,72.968],[-135.675,72.533],[-134.889,72.095],[-134.139,71.655],[-133.424,71.211],[-132.741,70.765],[-132.087,70.316],[-131.462,69.865],[-130.863,69.412],[-130.197,68.972],[-129.558,68.53],[-128.943,68.086],[-128.352,67.639],[-127.783,67.19],[-127.234,66.739],[-126.706,66.287],[-126.196,65.832],[-125.704,65.376],[-125.228,64.919],[-124.769,64.46],[-124.325,63.999],[-123.895,63.537],[-123.479,63.075],[-123.076,62.61],[-122.685,62.145],[-122.307,61.679],[-121.847,61.23],[-121.4,60.779],[-120.965,60.328],[-120.542,59.874],[-120.131,59.42],[-119.73,58.964],[-119.34,58.507],[-118.96,58.049],[-118.59,57.589],[-118.229,57.129],[-117.877,56.668],[-117.533,56.205],[-117.198,55.742],[-116.864,55.295],[-116.537,54.847],[-116.218,54.398],[-115.906,53.949],[-115.6,53.498],[-115.3,53.047],[-115.007,52.595],[-114.72,52.142],[-114.439,51.689],[-114.163,51.235],[-113.893,50.781],[-113.628,50.325],[-113.459,49.868],[-113.293,49.411],[-113.13,48.953],[-112.97,48.495],[-112.813,48.037],[-112.659,47.579],[-112.507,47.121],[-112.358,46.662],[-112.212,46.203],[-112.068,45.744],[-112.102,45.254],[-112.136,44.763],[-112.169,44.273],[-112.201,43.783],[-112.233,43.292],[-112.264,42.802],[-112.295,42.311],[-112.326,41.821],[-112.356,41.33],[-112.385,40.84],[-112.415,40.35],[-112.443,39.859],[-112.471,39.369],[-112.476,38.873],[-112.48,38.378],[-112.484,37.883],[-112.488,37.387],[-112.493,36.892],[-112.497,36.396],[-112.501,35.901],[-112.505,35.406],[-112.508,34.91],[-112.512,34.415],[-112.516,33.92],[-112.23,33.506],[-111.947,33.092],[-111.666,32.677],[-111.388,32.262],[-111.112,31.846],[-110.839,31.43],[-110.568,31.013],[-110.3,30.595],[-110.033,30.177],[-109.77,29.758],[-109.508,29.339],[-109.249,28.919],[-108.991,28.499],[-108.736,28.078],[-108.482,27.657],[-108.231,27.235],[-107.884,26.868],[-107.539,26.501],[-107.196,26.133],[-106.855,25.764],[-106.516,25.394],[-106.18,25.024],[-105.845,24.652],[-105.513,24.28],[-105.182,23.908],[-104.854,23.534],[-104.527,23.16],[-104.202,22.785],[-103.879,22.41],[-103.505,22.117],[-103.132,21.824],[-102.761,21.53],[-102.392,21.235],[-102.024,20.939],[-101.658,20.642],[-101.293,20.345],[-100.929,20.047],[-100.567,19.748]]}},{"type":"Feature","properties":{"boundary_type":"subduction","feature_type":"gpml:SubductionZone","polarity":"Left","overriding_plate_id":701,"subducting_plate_id":101,"plate_ids":[101,701],"name":"Siberia_SZ"},"geometry":{"type":"LineString","coordinates":[[-99.799,10.654],[-100.236,10.877],[-100.673,11.1],[-101.11,11.322],[-101.548,11.543],[-101.988,11.764],[-102.427,11.984],[-102.868,12.203],[-103.309,12.422],[-103.751,12.64],[-104.193,12.857],[-104.637,13.074],[-105.081,13.289],[-105.565,13.281],[-106.049,13.272],[-106.533,13.262],[-107.017,13.251],[-107.501,13.239],[-107.984,13.227],[-108.468,13.213],[-108.952,13.198],[-109.435,13.183],[-109.919,13.167],[-110.402,13.149],[-110.886,13.131],[-111.369,13.112],[-111.852,13.092],[-112.321,12.952],[-112.789,12.811],[-113.257,12.67],[-113.724,12.527],[-114.191,12.384],[-114.657,12.24],[-115.122,12.095],[-115.587,11.95],[-116.052,11.803],[-116.516,11.656],[-116.979,11.508],[-117.442,11.36],[-117.905,11.21],[-118.367,11.06],[-118.829,10.91],[-119.29,10.758],[-119.751,10.606],[-120.211,10.453],[-120.647,10.211],[-121.082,9.968],[-121.517,9.724],[-121.951,9.48],[-122.384,9.235],[-122.817,8.99],[-123.25,8.744],[-123.681,8.498],[-124.112,8.251],[-124.543,8.004],[-124.973,7.756],[-125.403,7.508],[-125.832,7.26],[-126.26,7.011],[-126.688,6.761],[-127.116,6.512],[-127.269,6.041],[-127.422,5.57],[-127.575,5.099],[-127.728,4.628],[-127.88,4.157],[-128.032,3.686],[-128.184,3.215],[-128.336,2.744],[-128.488,2.273],[-128.64,1.802],[-128.791,1.331],[-128.943,0.86],[-129.094,0.389],[-129.246,-0.082],[-129.397,-0.553],[-129.549,-1.024],[-129.7,-1.495],[-129.852,-1.966],[-129.961,-2.434],[-130.07,-2.902],[-130.179,-3.37],[-130.288,-3.837],[-130.397,-4.305],[-130.507,-4.773],[-130.616,-5.241],[-130.726,-5.708],[-130.836,-6.176],[-130.946,-6.644],[-131.057,-7.111],[-131.167,-7.579],[-131.278,-8.047],[-131.389,-8.514],[-131.501,-8.982],[-131.612,-9.449],[-131.724,-9.917],[-131.836,-10.384],[-131.949,-10.852],[-132.062,-11.319],[-132.175,-11.786],[-132.289,-12.254],[-132.403,-12.721],[-132.521,-13.189],[-132.639,-13.658],[-132.758,-14.126],[-132.877,-14.594],[-132.996,-15.062],[-133.117,-15.531],[-133.237,-15.999],[-133.358,-16.467],[-133.48,-16.935],[-133.603,-17.403],[-133.726,-17.87],[-133.85,-18.338],[-133.974,-18.806],[-134.099,-19.273],[-134.225,-19.741],[-134.351,-20.208],[-134.479,-20.676],[-134.607,-21.143],[-134.736,-21.61],[-134.865,-22.077],[-134.996,-22.544],[-135.127,-23.011],[-135.26,-23.477]]}},{"type":"Feature","properties":{"boundary_type":"subduction","feature_type":"gpml:SubductionZone","polarity":"Left","overriding_plate_id":801,"subducting_plate_id":811001,"plate_ids":[801,811001],"name":"NorthwesternMawson_SZ"},"geometry":{"type":"LineString","coordinates":[[-85.299,53.122],[-84.763,53.49],[-84.218,53.855],[-83.663,54.219],[-83.098,54.579],[-82.524,54.937],[-81.921,55.261],[-81.308,55.581],[-80.685,55.898],[-80.052,56.212],[-79.409,56.523],[-78.755,56.831],[-78.09,57.135],[-77.415,57.435],[-76.787,57.739],[-76.149,58.04],[-75.5,58.337],[-74.841,58.632],[-74.17,58.922],[-73.488,59.21],[-72.937,59.575],[-72.375,59.939],[-71.8,60.3],[-71.213,60.658],[-70.612,61.014],[-69.998,61.367],[-69.847,61.838],[-69.692,62.308],[-69.531,62.778],[-69.365,63.248],[-69.194,63.718],[-69.631,64.174],[-70.083,64.629],[-70.551,65.082]]}},{"type":"Feature","properties":{"boundary_type":"subduction","feature_type":"gpml:SubductionZone","polarity":"Left","overriding_plate_id":801,"subducting_plate_id":90106,"plate_ids":[801,90106],"name":"NorthwesternMawson_SZ"},"geometry":{"type":"LineString","coordinates":[[-70.551,65.082],[-70.994,65.497],[-71.451,65.911],[-71.924,66.323],[-72.412,66.734],[-72.917,67.143],[-73.439,67.55],[-74.246,67.901],[-75.077,68.247],[-75.933,68.589],[-76.816,68.927],[-77.726,69.26],[-78.664,69.588],[-79.631,69.911],[-80.628,70.229],[-81.656,70.54],[-82.716,70.846],[-83.809,71.146],[-84.744,71.516],[-85.717,71.881],[-86.727,72.241],[-87.778,72.596],[-88.87,72.945],[-90.007,73.288],[-91.189,73.624],[-92.419,73.954],[-93.698,74.277],[-95.03,74.591],[-96.414,74.897],[-97.854,75.195],[-99.117,75.529],[-100.438,75.856],[-101.82,76.176],[-103.265,76.487],[-104.775,76.79],[-106.355,77.083],[-108.005,77.367],[-109.728,77.64],[-111.526,77.902],[-113.401,78.151],[-115.353,78.388],[-117.383,78.611],[-119.49,78.82],[-121.939,78.929],[-124.432,79.017],[-126.96,79.085],[-129.514,79.133],[-132.086,79.158],[-134.665,79.163],[-137.24,79.146],[-139.803,79.108],[-142.343,79.048],[-144.852,78.968],[-147.32,78.868]]}},{"type":"Feature","properties":{"boundary_type":"subduction","feature_type":"gpml:SubductionZone","polarity":"Left","overriding_plate_id":101,"subducting_plate_id":90106,"plate_ids":[101,90106],"name":"NorthwesternMawson_SZ"},"geometry":{"type":"LineString","coordinates":[[-147.32,78.868],[-149.64,78.753],[-151.91,78.62],[-154.125,78.471],[-156.282,78.305]]}},{"type":"Feature","properties":{"boundary_type":"subduction","feature_type":"gpml:SubductionZone","polarity":"Right","overriding_plate_id":801,"subducting_plate_id":90107,"plate_ids":[801,90107],"name":"Cathaysia_SZ"},"geometry":{"type":"LineString","coordinates":[[-86.918,3.993],[-86.729,3.531],[-86.54,3.068],[-86.351,2.606],[-86.162,2.144],[-85.974,1.682],[-85.785,1.22],[-85.597,0.757],[-85.408,0.295],[-85.22,-0.167],[-85.032,-0.63],[-84.843,-1.092],[-84.655,-1.554],[-84.466,-2.016],[-84.211,-2.446],[-83.956,-2.875],[-83.7,-3.305],[-83.444,-3.734],[-83.188,-4.163],[-82.932,-4.592],[-82.675,-5.021],[-82.419,-5.45],[-82.161,-5.879],[-81.903,-6.308],[-81.645,-6.736],[-81.387,-7.165],[-81.128,-7.593],[-80.868,-8.021],[-80.608,-8.449],[-80.326,-8.719],[-80.043,-8.988]]}},{"type":"Feature","properties":{"boundary_type":"subduction","feature_type":"gpml:SubductionZone","polarity":"Left","overriding_plate_id":201,"subducting_plate_id":803,"plate_ids":[201,803],"name":"Amazonia_SZ"},"geometry":{"type":"LineString","coordinates":[[142.2,-4.903],[141.932,-5.232],[141.664,-5.56],[141.395,-5.889]]}},{"type":"Feature","properties":{"boundary_type":"subduction","feature_type":"gpml:SubductionZone","polarity":"Left","overriding_plate_id":201,"subducting_plate_id":90105,"plate_ids":[201,90105],"name":"Amazonia_SZ"},"geometry":{"type":"LineString","coordinates":[[141.395,-5.889],[141.083,-6.269],[140.77,-6.65],[140.457,-7.03],[140.143,-7.41],[139.829,-7.79],[139.514,-8.17],[139.199,-8.549],[138.883,-8.928],[138.566,-9.307],[138.249,-9.686],[137.931,-10.064],[137.612,-10.442],[137.292,-10.819],[136.972,-11.197],[136.651,-11.574],[136.329,-11.95],[136.006,-12.327],[135.682,-12.703],[135.357,-13.078],[135.031,-13.453],[134.704,-13.828],[134.376,-14.202],[134.047,-14.576],[133.717,-14.949],[133.386,-15.322],[133.053,-15.694],[132.72,-16.066],[132.385,-16.438],[132.048,-16.808],[131.711,-17.179],[131.372,-17.548],[131.032,-17.917],[130.69,-18.286],[130.347,-18.654],[130.002,-19.021],[129.656,-19.388],[129.308,-19.754],[128.959,-20.119],[128.608,-20.484],[128.255,-20.847],[127.901,-21.211],[127.545,-21.573],[127.187,-21.935],[126.827,-22.296],[126.466,-22.656],[126.102,-23.015],[125.823,-23.426],[125.542,-23.837],[125.258,-24.247],[124.974,-24.657],[124.687,-25.066],[124.398,-25.475],[124.107,-25.883],[123.815,-26.29],[123.52,-26.697],[123.223,-27.104],[122.924,-27.509],[122.623,-27.914],[122.319,-28.319],[122.014,-28.722],[121.705,-29.125],[121.395,-29.527],[121.082,-29.929],[120.766,-30.33],[120.448,-30.73],[120.127,-31.129],[119.804,-31.527],[119.625,-32.003],[119.445,-32.478],[119.263,-32.953],[119.078,-33.428],[118.892,-33.903],[118.704,-34.377],[118.514,-34.851],[118.321,-35.325],[118.126,-35.798],[117.929,-36.271],[117.729,-36.744],[117.527,-37.216],[117.323,-37.688],[117.115,-38.16],[116.905,-38.631],[116.693,-39.102],[116.477,-39.573],[116.258,-40.043],[116.239,-40.53],[116.218,-41.017],[116.198,-41.504],[116.177,-41.992],[116.156,-42.479],[116.135,-42.966],[116.113,-43.453],[116.091,-43.94],[116.069,-44.427],[116.046,-44.915],[116.023,-45.402],[115.999,-45.889],[115.975,-46.376],[115.951,-46.863],[115.926,-47.351],[115.9,-47.838],[115.875,-48.325],[115.848,-48.812],[115.821,-49.299],[115.794,-49.786],[116.039,-50.255],[116.29,-50.723],[116.545,-51.191],[116.806,-51.658],[117.072,-52.125],[117.343,-52.591],[117.621,-53.056],[117.904,-53.521],[118.194,-53.985],[118.491,-54.448],[118.794,-54.911],[119.104,-55.373],[119.421,-55.834],[119.746,-56.294],[120.079,-56.753],[120.421,-57.211],[120.77,-57.669],[121.129,-58.125],[121.497,-58.58],[121.875,-59.035],[122.263,-59.488],[122.661,-59.94],[123.071,-60.391],[123.491,-60.84],[123.924,-61.288],[124.37,-61.735],[124.828,-62.18],[125.3,-62.624],[125.787,-63.066],[126.288,-63.506],[126.805,-63.945],[127.338,-64.381],[127.889,-64.816],[128.458,-65.248],[129.045,-65.679],[129.653,-66.107],[130.281,-66.532],[130.931,-66.955],[131.604,-67.375],[132.3,-67.792],[133.022,-68.206],[133.771,-68.617],[134.547,-69.025],[135.353,-69.428],[136.189,-69.828],[137.057,-70.224],[137.96,-70.616],[138.897,-71.003],[139.872,-71.384],[140.886,-71.761],[141.942,-72.132],[143.04,-72.498],[144.183,-72.857],[145.372,-73.209],[146.611,-73.554],[147.901,-73.892],[149.244,-74.221],[150.642,-74.542],[152.097,-74.854],[153.611,-75.156],[155.185,-75.448],[156.821,-75.729],[158.52,-75.998],[159.676,-76.121]]}},{"type":"Feature","properties":{"boundary_type":"transform","feature_type":"gpml:Transform","polarity":null,"overriding_plate_id":null,"subducting_plate_id":null,"plate_ids":[101,801],"name":""},"geometry":{"type":"LineString","coordinates":[[-100.567,19.748],[-100.524,19.269],[-100.483,18.791],[-100.441,18.312],[-100.399,17.834],[-100.358,17.355],[-100.317,16.876],[-100.276,16.398],[-100.235,15.919],[-100.195,15.441],[-100.155,14.962],[-100.114,14.483],[-100.075,14.005],[-100.035,13.526],[-99.995,13.047],[-99.956,12.569],[-99.916,12.09],[-99.877,11.611],[-99.838,11.133],[-99.799,10.654]]}},{"type":"Feature","properties":{"boundary_type":"transform","feature_type":"gpml:Transform","polarity":null,"overriding_plate_id":null,"subducting_plate_id":null,"plate_ids":[701,801],"name":""},"geometry":{"type":"LineString","coordinates":[[-99.799,10.654],[-99.761,10.186],[-99.724,9.719],[-99.686,9.251],[-99.648,8.783],[-99.611,8.316],[-99.573,7.848],[-99.536,7.38],[-99.499,6.913],[-99.462,6.445],[-99.425,5.977],[-99.388,5.51],[-99.351,5.042],[-99.14,4.602],[-98.929,4.163],[-98.719,3.724],[-98.509,3.284],[-98.299,2.844],[-98.089,2.405],[-97.879,1.965],[-97.67,1.526],[-97.46,1.086],[-97.251,0.646],[-97.041,0.206],[-96.832,-0.233],[-96.622,-0.673],[-96.413,-1.113],[-96.204,-1.552],[-95.994,-1.992],[-95.784,-2.432],[-95.574,-2.871],[-95.364,-3.311],[-95.154,-3.75],[-94.944,-4.19],[-94.733,-4.629],[-94.522,-5.069],[-94.311,-5.508],[-94.1,-5.947],[-93.888,-6.386],[-93.676,-6.825],[-93.463,-7.264],[-93.25,-7.703],[-93.037,-8.142],[-92.823,-8.581],[-92.5,-8.955],[-92.177,-9.329],[-91.853,-9.703],[-91.529,-10.077],[-91.203,-10.45],[-90.877,-10.823],[-90.55,-11.196],[-90.223,-11.568],[-89.894,-11.94],[-89.565,-12.312],[-89.234,-12.683],[-88.903,-13.054],[-88.57,-13.424],[-88.237,-13.794],[-87.902,-14.163],[-87.567,-14.532],[-87.23,-14.901],[-86.892,-15.269],[-86.553,-15.636],[-86.213,-16.003],[-85.871,-16.37],[-85.528,-16.736],[-85.184,-17.101],[-84.839,-17.466],[-84.492,-17.83],[-84.144,-18.193],[-83.794,-18.556],[-83.443,-18.918],[-83.09,-19.28],[-82.735,-19.641],[-82.38,-20.001],[-82.022,-20.361],[-81.663,-20.719],[-81.302,-21.077],[-80.939,-21.435],[-80.575,-21.791],[-80.209,-22.147],[-79.84,-22.502],[-79.47,-22.856],[-79.099,-23.209],[-78.725,-23.561],[-78.349,-23.912],[-77.971,-24.263],[-77.591,-24.612],[-77.209,-24.961]]}},{"type":"Feature","properties":{"boundary_type":"transform","feature_type":"gpml:Transform","polarity":null,"overriding_plate_id":null,"subducting_plate_id":null,"plate_ids":[201,803],"name":""},"geometry":{"type":"LineString","coordinates":[[142.2,-4.903],[142.597,-5.209],[142.994,-5.514],[143.392,-5.819],[143.79,-6.123],[144.188,-6.428],[144.587,-6.732],[144.987,-7.035],[145.387,-7.339],[145.787,-7.642],[146.188,-7.944],[146.59,-8.247],[146.992,-8.549],[147.395,-8.85],[147.799,-9.151],[148.203,-9.452],[148.608,-9.752],[149.014,-10.051],[149.42,-10.35],[149.827,-10.649],[150.235,-10.947],[150.644,-11.245],[151.054,-11.542],[151.464,-11.838],[151.876,-12.134],[152.288,-12.429],[152.702,-12.724],[153.116,-13.018],[153.531,-13.311],[153.947,-13.603],[154.365,-13.895],[154.783,-14.187],[155.202,-14.477],[155.623,-14.767],[156.044,-15.056],[156.467,-15.344],[156.891,-15.631],[157.316,-15.918],[157.742,-16.204],[158.17,-16.489],[158.599,-16.773],[159.029,-17.056],[159.46,-17.338],[159.893,-17.619],[160.327,-17.9],[160.763,-18.179],[161.199,-18.457],[161.638,-18.735],[162.077,-19.011],[162.519,-19.286],[162.961,-19.561],[163.405,-19.834],[163.851,-20.106],[164.298,-20.377],[164.747,-20.647],[165.198,-20.915],[165.65,-21.183],[166.103,-21.449],[166.558,-21.714],[167.015,-21.978],[167.474,-22.24],[167.941,-22.49],[168.409,-22.738],[168.879,-22.985],[169.351,-23.231],[169.825,-23.475],[170.3,-23.717],[170.777,-23.958],[171.256,-24.198],[171.737,-24.436],[172.219,-24.673],[172.703,-24.908],[173.19,-25.142],[173.678,-25.373],[174.167,-25.604],[174.659,-25.832],[175.153,-26.06],[175.648,-26.285],[176.146,-26.509],[176.645,-26.73],[177.147,-26.951],[177.65,-27.169],[178.155,-27.385],[178.662,-27.6],[179.172,-27.813],[179.683,-28.024],[-179.804,-28.233],[-179.289,-28.44],[-178.771,-28.646],[-178.252,-28.849],[-177.731,-29.05],[-177.208,-29.249],[-176.682,-29.447],[-176.155,-29.642],[-175.625,-29.835],[-175.094,-30.026],[-174.56,-30.215],[-174.025,-30.401],[-173.487,-30.586],[-172.948,-30.768],[-172.406,-30.948],[-171.862,-31.125],[-171.317,-31.301],[-170.769,-31.474],[-170.219,-31.645],[-169.667,-31.813],[-169.114,-31.979],[-168.558,-32.143],[-168.0,-32.304],[-167.441,-32.462],[-166.879,-32.619],[-166.315,-32.772],[-165.75,-32.923],[-165.182,-33.072],[-164.613,-33.218],[-164.042,-33.362],[-163.469,-33.502],[-162.894,-33.64],[-162.317,-33.776],[-161.738,-33.909],[-161.158,-34.039],[-160.576,-34.166],[-159.992,-34.291],[-159.406,-34.413],[-158.819,-34.532],[-158.23,-34.648],[-157.639,-34.761],[-157.047,-34.872],[-156.453,-34.979],[-155.858,-35.084],[-155.261,-35.186],[-154.663,-35.285],[-154.063,-35.38],[-153.462,-35.473],[-152.86,-35.563]]}},{"type":"Feature","properties":{"boundary_type":"transform","feature_type":"gpml:Transform","polarity":null,"overriding_plate_id":null,"subducting_plate_id":null,"plate_ids":[101,201],"name":""},"geometry":{"type":"LineString","coordinates":[[-152.86,-35.563],[-152.266,-35.649],[-151.671,-35.731],[-151.075,-35.811],[-150.478,-35.888],[-149.879,-35.961],[-149.28,-36.032],[-148.679,-36.1],[-148.078,-36.165],[-147.475,-36.227],[-146.872,-36.285],[-146.267,-36.341],[-145.662,-36.394],[-145.056,-36.443],[-144.449,-36.49],[-143.842,-36.533],[-143.234,-36.573],[-142.625,-36.611],[-142.016,-36.645],[-141.406,-36.676],[-140.795,-36.704],[-140.185,-36.729]]}},{"type":"Feature","properties":{"boundary_type":"transform","feature_type":"gpml:Transform","polarity":null,"overriding_plate_id":null,"subducting_plate_id":null,"plate_ids":[101,701],"name":""},"geometry":{"type":"LineString","coordinates":[[-135.26,-23.477],[-135.427,-23.916],[-135.596,-24.354],[-135.765,-24.793],[-135.936,-25.231],[-136.108,-25.669],[-136.281,-26.107],[-136.456,-26.544],[-136.632,-26.981],[-136.809,-27.418],[-136.988,-27.855],[-137.168,-28.292],[-137.35,-28.728],[-137.533,-29.164],[-137.687,-29.639],[-137.841,-30.113],[-137.997,-30.587],[-138.155,-31.061],[-138.314,-31.534],[-138.475,-32.007],[-138.638,-32.481],[-138.802,-32.954],[-138.968,-33.426],[-139.136,-33.899],[-139.306,-34.371],[-139.478,-34.843],[-139.651,-35.315],[-139.827,-35.786],[-140.005,-36.258],[-140.185,-36.729]]}},{"type":"Feature","properties":{"boundary_type":"transform","feature_type":"gpml:Transform","polarity":null,"overriding_plate_id":null,"subducting_plate_id":null,"plate_ids":[201,701],"name":""},"geometry":{"type":"LineString","coordinates":[[-140.185,-36.729],[-140.369,-37.206],[-140.556,-37.682],[-140.746,-38.158],[-140.937,-38.634],[-141.132,-39.11],[-141.329,-39.585],[-141.528,-40.06],[-141.731,-40.535],[-141.936,-41.009],[-142.145,-41.483],[-142.356,-41.957],[-142.571,-42.43],[-142.789,-42.902],[-143.01,-43.375],[-143.235,-43.847],[-143.463,-44.318],[-143.695,-44.789],[-143.931,-45.259],[-144.171,-45.729],[-144.415,-46.199],[-144.663,-46.668],[-144.915,-47.136],[-145.172,-47.604],[-145.433,-48.071],[-145.7,-48.538],[-145.971,-49.004],[-146.247,-49.469],[-146.529,-49.934],[-146.816,-50.398],[-147.109,-50.861],[-147.408,-51.324],[-147.712,-51.786],[-148.023,-52.247],[-148.341,-52.707],[-148.665,-53.166],[-148.997,-53.624],[-149.335,-54.082],[-149.681,-54.538],[-150.035,-54.994],[-150.397,-55.448],[-150.768,-55.901],[-151.147,-56.354],[-151.512,-56.801],[-151.885,-57.248],[-152.268,-57.693],[-152.66,-58.137],[-153.062,-58.58],[-153.474,-59.022],[-153.897,-59.462],[-154.332,-59.901],[-154.777,-60.338],[-155.235,-60.774],[-155.706,-61.208],[-156.189,-61.641],[-156.686,-62.072],[-157.198,-62.501],[-157.724,-62.928],[-158.266,-63.353],[-158.825,-63.776],[-159.4,-64.197],[-159.993,-64.615]]}},{"type":"Feature","properties":{"boundary_type":"transform","feature_type":"gpml:Transform","polarity":null,"overriding_plate_id":null,"subducting_plate_id":null,"plate_ids":[201,90105],"name":""},"geometry":{"type":"LineString","coordinates":[[-159.993,-64.615],[-160.604,-65.031],[-161.234,-65.444],[-161.885,-65.855],[-162.556,-66.262],[-163.25,-66.667],[-163.967,-67.069],[-164.707,-67.467],[-165.473,-67.862],[-166.265,-68.253],[-167.085,-68.64],[-167.933,-69.023],[-168.811,-69.402],[-169.72,-69.776],[-170.662,-70.145],[-171.638,-70.509],[-172.65,-70.868],[-173.698,-71.221],[-174.784,-71.567],[-175.911,-71.908],[-177.078,-72.242],[-178.289,-72.568],[-179.544,-72.887],[179.156,-73.198],[177.809,-73.501],[176.413,-73.794],[174.969,-74.078],[173.474,-74.353],[171.928,-74.616],[170.331,-74.869],[168.682,-75.11],[166.981,-75.339],[165.229,-75.555],[163.427,-75.758],[161.575,-75.947],[159.676,-76.121]]}},{"type":"Feature","properties":{"boundary_type":"ridge","feature_type":"gpml:MidOceanRidge","polarity":null,"overriding_plate_id":null,"subducting_plate_id":null,"plate_ids":[803,90106],"name":""},"geometry":{"type":"LineString","coordinates":[[-164.409,31.608],[-164.951,31.73],[-165.494,31.85],[-166.039,31.967],[-166.586,32.082],[-167.133,32.195],[-167.682,32.305],[-168.232,32.413],[-168.784,32.519],[-169.343,32.376],[-169.899,32.23],[-170.454,32.082],[-171.007,31.932],[-171.559,31.779],[-172.108,31.624],[-172.656,31.466],[-173.201,31.306],[-173.745,31.144],[-174.287,30.98],[-174.828,30.813],[-175.366,30.644],[-175.902,30.473],[-176.437,30.3],[-176.969,30.124],[-177.5,29.947],[-178.029,29.767],[-178.556,29.585],[-178.957,29.237],[-179.356,28.888],[-179.752,28.537],[179.854,28.186],[179.463,27.833],[179.074,27.479],[178.688,27.124],[178.305,26.768],[177.924,26.411],[177.545,26.053],[177.169,25.695],[176.794,25.335],[176.422,24.974],[176.053,24.612],[175.511,24.675],[174.97,24.735],[174.427,24.794],[173.884,24.85],[173.341,24.905],[172.797,24.957],[172.253,25.008],[171.709,25.057],[171.163,25.103],[170.618,25.148],[170.072,25.191],[169.526,25.232],[168.979,25.27],[168.432,25.307],[167.885,25.342],[167.337,25.374],[166.79,25.405],[166.241,25.433],[165.693,25.46],[165.145,25.484],[164.596,25.507],[164.047,25.527],[163.497,25.546],[162.948,25.562],[162.399,25.576],[161.849,25.589],[161.763,25.184],[161.677,24.78],[161.591,24.375],[161.507,23.971],[161.423,23.566],[160.889,23.487],[160.355,23.406],[159.823,23.324],[159.291,23.239],[158.76,23.153],[158.229,23.065],[157.699,22.975],[157.17,22.883],[156.642,22.79],[156.114,22.695],[155.587,22.598],[155.061,22.499],[154.535,22.399],[154.011,22.297],[153.487,22.193],[152.964,22.088],[152.441,21.981],[151.92,21.873],[151.399,21.762],[150.879,21.65],[150.36,21.537],[149.842,21.422],[149.324,21.305],[148.807,21.187],[148.291,21.067],[147.776,20.945],[147.262,20.823],[146.749,20.698],[146.237,20.572],[145.725,20.445],[145.214,20.316],[144.704,20.185],[144.195,20.053],[143.687,19.92],[143.18,19.785],[142.673,19.649],[142.168,19.511],[141.663,19.372],[141.159,19.231],[140.656,19.09],[140.154,18.946],[139.652,18.802],[139.152,18.656],[138.652,18.509],[138.154,18.36],[137.656,18.21],[137.159,18.059]]}},{"type":"Feature","properties":{"boundary_type":"ridge","feature_type":"gpml:MidOceanRidge","polarity":null,"overriding_plate_id":null,"subducting_plate_id":null,"plate_ids":[90106,90107],"name":""},"geometry":{"type":"LineString","coordinates":[[15.146,-0.072],[14.942,-0.495],[14.739,-0.918],[14.535,-1.342],[14.332,-1.765],[14.128,-2.188],[13.924,-2.611],[13.72,-3.035],[13.516,-3.458],[13.312,-3.881],[13.108,-4.304],[12.903,-4.727]]}},{"type":"Feature","properties":{"boundary_type":"ridge","feature_type":"gpml:MidOceanRidge","polarity":null,"overriding_plate_id":null,"subducting_plate_id":null,"plate_ids":[90105,90107],"name":""},"geometry":{"type":"LineString","coordinates":[[12.903,-4.727],[12.688,-5.171],[12.472,-5.615],[12.256,-6.059],[12.04,-6.503],[11.823,-6.947],[11.606,-7.39],[11.389,-7.834],[11.171,-8.277],[10.953,-8.721],[10.734,-9.164],[10.514,-9.607],[10.294,-10.05],[10.073,-10.493],[9.852,-10.936],[9.63,-11.378],[9.407,-11.821],[9.184,-12.263],[8.96,-12.705],[8.735,-13.147],[8.509,-13.588],[8.283,-14.03],[8.055,-14.471],[7.827,-14.912],[7.598,-15.353],[7.367,-15.793],[7.136,-16.233],[6.904,-16.674],[6.671,-17.113],[6.436,-17.553],[6.201,-17.992],[5.964,-18.431],[5.726,-18.87],[5.487,-19.308],[5.246,-19.746],[5.004,-20.184],[4.761,-20.621],[4.516,-21.058],[4.27,-21.495],[4.023,-21.931],[3.774,-22.367],[3.523,-22.803],[3.271,-23.238],[3.017,-23.673],[2.761,-24.107],[2.504,-24.541],[2.245,-24.974],[1.984,-25.407],[1.721,-25.84],[1.457,-26.272],[1.19,-26.704],[0.921,-27.135],[0.65,-27.565],[0.377,-27.995],[0.102,-28.425],[-0.175,-28.854],[-0.455,-29.282],[-0.737,-29.71],[-1.021,-30.137],[-1.308,-30.564],[-1.598,-30.99],[-1.89,-31.415],[-2.184,-31.839],[-1.881,-32.267],[-1.575,-32.695],[-1.266,-33.121],[-0.954,-33.547],[-0.639,-33.972],[-0.321,-34.396],[0.0,-34.819],[0.325,-35.242],[0.653,-35.664],[0.985,-36.084],[1.32,-36.504],[1.659,-36.923],[2.002,-37.341],[2.348,-37.758],[2.698,-38.173],[3.053,-38.588],[3.411,-39.002],[3.774,-39.414],[4.141,-39.826],[4.512,-40.236],[4.888,-40.645],[5.269,-41.053],[5.654,-41.46],[6.044,-41.865],[6.439,-42.269],[6.839,-42.671],[7.245,-43.073],[7.656,-43.472],[8.072,-43.871],[8.494,-44.267],[8.921,-44.662],[9.354,-45.056],[9.794,-45.448],[10.239,-45.838],[10.691,-46.226],[11.149,-46.613],[11.614,-46.997],[12.085,-47.38],[12.564,-47.761],[13.049,-48.14],[13.542,-48.517],[14.042,-48.891],[14.549,-49.264],[15.064,-49.634],[15.588,-50.002],[16.119,-50.367],[16.658,-50.73],[17.206,-51.091],[17.762,-51.448],[18.327,-51.804],[18.901,-52.156],[19.484,-52.506],[20.076,-52.852],[20.678,-53.196],[21.29,-53.537],[21.911,-53.874],[22.543,-54.208],[23.185,-54.539],[23.837,-54.867],[24.5,-55.191],[25.173,-55.511],[25.858,-55.827],[25.297,-56.21],[24.725,-56.59],[24.141,-56.967],[23.546,-57.342],[22.938,-57.713],[22.318,-58.082],[21.685,-58.448],[21.038,-58.81],[20.378,-59.169],[19.704,-59.525],[19.016,-59.877],[18.313,-60.226],[17.595,-60.57],[16.862,-60.911],[16.113,-61.248],[15.348,-61.58],[14.566,-61.908],[13.767,-62.232],[12.952,-62.551],[12.118,-62.865],[11.267,-63.174],[10.398,-63.478],[9.51,-63.776],[8.604,-64.069],[7.678,-64.356],[6.733,-64.638],[5.768,-64.913],[4.784,-65.181],[3.78,-65.443],[2.756,-65.699],[1.711,-65.947],[0.647,-66.188],[-0.438,-66.422],[-1.543,-66.647],[-2.668,-66.866],[-3.813,-67.075],[-4.977,-67.277],[-6.161,-67.47],[-7.363,-67.654],[-8.584,-67.829],[-9.823,-67.995],[-11.08,-68.152],[-12.353,-68.299],[-13.642,-68.436],[-14.946,-68.563],[-16.264,-68.68],[-17.596,-68.786],[-18.94,-68.882],[-20.295,-68.967],[-21.659,-69.042],[-23.032,-69.105],[-24.413,-69.158],[-25.8,-69.199],[-27.191,-69.229],[-28.585,-69.248],[-29.981,-69.256],[-31.377,-69.252],[-32.772,-69.237],[-34.164,-69.211],[-35.553,-69.174],[-36.936,-69.125],[-38.312,-69.066],[-39.68,-68.995],[-41.038,-68.914],[-42.386,-68.822],[-43.722,-68.719],[-45.045,-68.606],[-46.355,-68.483],[-47.649,-68.349],[-48.928,-68.206],[-50.191,-68.053],[-51.436,-67.89],[-52.664,-67.719],[-53.873,-67.538],[-55.064,-67.348],[-56.235,-67.149],[-57.387,-66.942],[-58.519,-66.727],[-59.631,-66.504],[-60.723,-66.273],[-61.795,-66.035],[-62.846,-65.789],[-63.878,-65.536],[-64.889,-65.277],[-65.881,-65.01],[-66.853,-64.738],[-67.805,-64.459],[-68.737,-64.174],[-69.651,-63.883],[-70.545,-63.586]]}},{"type":"Feature","properties":{"boundary_type":"ridge","feature_type":"gpml:MidOceanRidge","polarity":null,"overriding_plate_id":null,"subducting_plate_id":null,"plate_ids":[803,90105],"name":""},"geometry":{"type":"LineString","coordinates":[[136.624,18.435],[136.423,17.979],[136.224,17.524],[136.025,17.068],[135.828,16.612],[135.631,16.156],[135.435,15.7],[135.24,15.243],[135.046,14.787],[134.853,14.33],[134.66,13.873],[134.469,13.416],[134.278,12.959],[134.087,12.501],[133.898,12.044],[133.709,11.586],[133.52,11.129],[133.333,10.671],[133.145,10.213],[132.959,9.755],[132.772,9.296],[132.587,8.838],[132.402,8.38],[132.217,7.921],[132.032,7.463],[131.848,7.004],[131.665,6.545],[131.482,6.087],[131.299,5.628],[131.116,5.169],[130.934,4.71],[130.751,4.251],[131.202,4.049],[131.653,3.846],[132.104,3.643],[132.554,3.44],[133.005,3.236],[133.455,3.033],[133.905,2.829],[134.355,2.625],[134.804,2.421],[135.254,2.216],[135.703,2.012],[136.152,1.807],[136.601,1.603],[137.05,1.398],[137.499,1.193],[137.948,0.988],[138.397,0.783],[138.846,0.578],[139.295,0.373],[139.743,0.168],[140.192,-0.037],[140.641,-0.242],[140.449,-0.659],[140.256,-1.076],[140.064,-1.493],[139.871,-1.91],[139.679,-2.327],[139.486,-2.744],[139.293,-3.161],[139.1,-3.578],[138.907,-3.995],[138.713,-4.411],[139.096,-4.623],[139.478,-4.835],[139.861,-5.046],[140.244,-5.257],[140.627,-5.468],[141.011,-5.678],[141.395,-5.889]]}},{"type":"Feature","properties":{"boundary_type":"ridge","feature_type":"gpml:MidOceanRidge","polarity":null,"overriding_plate_id":null,"subducting_plate_id":null,"plate_ids":[701,90107],"name":""},"geometry":{"type":"LineString","coordinates":[[-62.076,-56.01],[-62.28,-56.244],[-62.486,-56.478],[-62.872,-56.908],[-63.267,-57.337],[-63.672,-57.765],[-64.086,-58.191],[-64.511,-58.616],[-64.945,-59.04],[-65.391,-59.462],[-65.848,-59.883],[-66.316,-60.302],[-66.797,-60.719],[-67.29,-61.135],[-67.797,-61.548],[-68.317,-61.96],[-68.851,-62.37],[-69.4,-62.778],[-69.965,-63.183],[-70.545,-63.586]]}},{"type":"Feature","properties":{"boundary_type":"ridge","feature_type":"gpml:MidOceanRidge","polarity":null,"overriding_plate_id":null,"subducting_plate_id":null,"plate_ids":[701,90105],"name":""},"geometry":{"type":"LineString","coordinates":[[-70.545,-63.586],[-71.161,-63.999],[-71.794,-64.409],[-72.447,-64.817],[-73.12,-65.221],[-73.814,-65.622],[-74.529,-66.02],[-75.267,-66.415],[-76.029,-66.806],[-76.815,-67.193],[-77.627,-67.576],[-78.465,-67.955],[-79.331,-68.33],[-80.225,-68.7],[-81.15,-69.065],[-82.106,-69.425],[-83.094,-69.78],[-84.115,-70.128],[-85.171,-70.471],[-86.263,-70.808],[-87.393,-71.137],[-88.56,-71.46],[-89.767,-71.776],[-91.014,-72.083],[-92.303,-72.382],[-93.635,-72.673],[-95.01,-72.955],[-96.428,-73.227],[-97.892,-73.489],[-99.4,-73.74],[-100.953,-73.981],[-102.551,-74.21],[-104.194,-74.427],[-105.05,-73.997],[-105.861,-73.564],[-106.632,-73.128],[-107.365,-72.689],[-108.063,-72.248],[-108.728,-71.804],[-109.363,-71.358],[-109.968,-70.91],[-110.547,-70.46],[-111.101,-70.009],[-111.631,-69.555],[-112.139,-69.101],[-112.626,-68.644],[-113.094,-68.187],[-114.392,-68.28],[-115.7,-68.362],[-117.018,-68.434],[-118.342,-68.496],[-119.674,-68.548],[-121.011,-68.588],[-122.352,-68.619],[-123.696,-68.638],[-125.042,-68.647],[-126.389,-68.645],[-127.734,-68.632],[-129.077,-68.609],[-130.417,-68.575],[-131.752,-68.53],[-133.082,-68.475],[-134.404,-68.409],[-135.718,-68.333],[-137.022,-68.247],[-138.316,-68.15],[-139.599,-68.044],[-140.87,-67.927],[-142.127,-67.801],[-143.37,-67.665],[-144.599,-67.52],[-145.812,-67.366],[-147.009,-67.203],[-148.19,-67.031],[-149.353,-66.85],[-150.499,-66.661],[-151.628,-66.464],[-152.738,-66.259],[-153.83,-66.046],[-154.904,-65.825],[-155.959,-65.597],[-156.995,-65.362],[-158.013,-65.12],[-159.012,-64.871],[-159.993,-64.615]]}},{"type":"Feature","properties":{"boundary_type":"subduction","feature_type":"gpml:SubductionZone","polarity":"Right","overriding_plate_id":801,"subducting_plate_id":90107,"plate_ids":[801,90107],"name":"SaoFrancisco_SZ"},"geometry":{"type":"LineString","coordinates":[[-80.043,-8.988],[-80.013,-9.458],[-79.982,-9.929],[-79.952,-10.399],[-79.921,-10.87],[-79.891,-11.34],[-79.86,-11.811],[-79.829,-12.281],[-79.798,-12.752],[-79.767,-13.222],[-79.736,-13.693],[-79.705,-14.163],[-79.673,-14.634],[-79.642,-15.104],[-79.61,-15.575],[-79.578,-16.045],[-79.546,-16.516],[-79.42,-16.987],[-79.294,-17.458],[-79.167,-17.929],[-79.039,-18.4],[-78.91,-18.871],[-78.781,-19.342],[-78.651,-19.812],[-78.52,-20.283],[-78.388,-20.753],[-78.256,-21.224],[-78.123,-21.694],[-77.988,-22.164],[-77.853,-22.634],[-77.717,-23.104],[-77.58,-23.574],[-77.442,-24.044],[-77.326,-24.502],[-77.209,-24.961]]}},{"type":"Feature","properties":{"boundary_type":"subduction","feature_type":"gpml:SubductionZone","polarity":"Right","overriding_plate_id":701,"subducting_plate_id":90107,"plate_ids":[701,90107],"name":"SaoFrancisco_SZ"},"geometry":{"type":"LineString","coordinates":[[-77.209,-24.961],[-77.092,-25.412],[-76.975,-25.863],[-76.857,-26.314],[-76.738,-26.765],[-76.618,-27.216],[-76.497,-27.667],[-76.375,-28.118],[-76.252,-28.569],[-76.128,-29.019],[-76.002,-29.469],[-75.876,-29.92],[-75.7,-30.381],[-75.522,-30.843],[-75.342,-31.304],[-75.161,-31.765],[-74.978,-32.226],[-74.793,-32.686],[-74.606,-33.147],[-74.417,-33.607],[-74.226,-34.066],[-74.033,-34.526],[-73.838,-34.985],[-73.641,-35.443],[-73.441,-35.902],[-73.239,-36.36],[-73.035,-36.818],[-72.828,-37.275],[-72.619,-37.732],[-72.407,-38.189],[-72.192,-38.645],[-71.975,-39.101],[-71.814,-39.559],[-71.652,-40.016],[-71.487,-40.474],[-71.319,-40.931],[-71.15,-41.388],[-70.978,-41.845],[-70.803,-42.302],[-70.626,-42.758],[-70.446,-43.214],[-70.264,-43.67],[-70.079,-44.125],[-69.891,-44.58],[-69.7,-45.035],[-69.506,-45.489],[-69.309,-45.943],[-69.108,-46.397],[-68.904,-46.851],[-68.632,-47.304],[-68.356,-47.757],[-68.074,-48.209],[-67.787,-48.661],[-67.496,-49.112],[-67.198,-49.562],[-66.896,-50.011],[-66.587,-50.46],[-66.273,-50.907],[-65.953,-51.354],[-65.626,-51.8],[-65.293,-52.245],[-64.953,-52.689],[-64.606,-53.132],[-64.252,-53.574],[-63.89,-54.015],[-63.521,-54.455],[-63.143,-54.894],[-62.794,-55.267],[-62.439,-55.639],[-62.076,-56.01]]}},{"type":"Feature","properties":{"boundary_type":"subduction","feature_type":"gpml:SubductionZone","polarity":"Left","overriding_plate_id":101,"subducting_plate_id":803,"plate_ids":[101,803],"name":"Baltica_SZ"},"geometry":{"type":"LineString","coordinates":[[-163.744,21.211],[-163.513,20.798],[-163.284,20.385],[-163.055,19.972],[-162.828,19.558],[-162.602,19.144],[-162.377,18.73],[-162.153,18.315],[-161.921,17.903],[-161.69,17.49],[-161.461,17.078],[-161.232,16.665],[-161.004,16.251],[-160.778,15.838],[-160.552,15.424],[-160.327,15.01],[-160.103,14.596],[-159.88,14.182],[-159.775,13.728],[-159.671,13.274],[-159.567,12.82],[-159.463,12.366],[-159.36,11.912],[-159.257,11.458],[-159.154,11.004],[-159.052,10.55],[-158.95,10.095],[-159.011,9.64],[-159.071,9.185],[-159.132,8.731],[-159.192,8.276],[-159.252,7.821],[-159.312,7.366],[-159.372,6.911],[-159.431,6.456],[-159.491,6.001],[-159.55,5.546],[-159.61,5.091],[-159.669,4.636],[-159.666,4.173],[-159.663,3.71],[-159.66,3.247],[-159.656,2.785],[-159.653,2.322],[-159.65,1.859],[-159.647,1.396],[-159.644,0.933],[-159.641,0.471],[-159.637,0.008],[-159.634,-0.455],[-159.631,-0.918],[-159.554,-1.367],[-159.478,-1.817],[-159.401,-2.266],[-159.324,-2.716],[-159.247,-3.165],[-159.17,-3.615],[-159.093,-4.064],[-159.016,-4.514],[-158.938,-4.963],[-158.861,-5.413],[-158.685,-5.831],[-158.508,-6.249],[-158.332,-6.668],[-158.155,-7.086]]}},{"type":"Feature","properties":{"boundary_type":"ridge","feature_type":"gpml:MidOceanRidge","polarity":null,"overriding_plate_id":null,"subducting_plate_id":null,"plate_ids":[803,90106],"name":""},"geometry":{"type":"LineString","coordinates":[[137.159,18.059],[136.892,18.247],[136.624,18.435]]}},{"type":"Feature","properties":{"boundary_type":"ridge","feature_type":"gpml:MidOceanRidge","polarity":null,"overriding_plate_id":null,"subducting_plate_id":null,"plate_ids":[90105,90106],"name":""},"geometry":{"type":"LineString","coordinates":[[136.624,18.435],[136.204,18.728],[135.782,19.019],[135.359,19.31],[134.935,19.6],[134.508,19.889],[134.081,20.177],[133.652,20.464],[133.221,20.75],[132.788,21.035],[132.354,21.318],[131.918,21.601],[131.481,21.882],[131.041,22.163],[130.6,22.442],[130.158,22.72],[129.713,22.996],[129.267,23.272],[128.818,23.546],[128.368,23.819],[127.916,24.09],[127.462,24.36],[127.006,24.629],[126.549,24.897],[126.089,25.163],[125.627,25.427],[125.163,25.691],[124.697,25.952],[124.229,26.212],[123.759,26.471],[123.287,26.728],[122.813,26.984],[122.336,27.238],[121.858,27.49],[121.377,27.741],[120.894,27.99],[120.409,28.237],[119.921,28.483],[119.431,28.727],[118.939,28.969],[118.445,29.209],[117.948,29.448],[117.449,29.684],[116.948,29.919],[116.444,30.152],[115.938,30.383],[115.43,30.612],[114.919,30.839],[114.405,31.064],[113.89,31.287],[113.372,31.508],[112.851,31.726],[112.328,31.943],[111.803,32.157],[111.275,32.37],[110.744,32.58],[110.211,32.788],[109.676,32.993],[109.138,33.196],[108.598,33.397],[108.055,33.596],[107.51,33.792],[106.962,33.986],[106.411,34.177],[105.859,34.366],[105.303,34.553],[104.746,34.737],[104.185,34.918],[103.623,35.097],[103.058,35.273],[102.894,34.794],[102.733,34.316],[102.573,33.837],[102.415,33.358],[102.259,32.879],[102.105,32.4],[101.952,31.92],[101.801,31.44],[101.651,30.961],[101.503,30.481],[101.356,30.0],[101.211,29.52],[101.067,29.039],[100.924,28.559],[100.783,28.078],[100.643,27.597],[100.504,27.116],[100.366,26.635],[100.23,26.153],[100.095,25.672],[99.96,25.19],[99.827,24.708],[99.286,24.77],[98.744,24.83],[98.202,24.888],[97.659,24.945],[97.116,24.999],[96.573,25.051],[96.028,25.101],[95.484,25.15],[94.939,25.196],[94.394,25.24],[93.848,25.282],[93.302,25.323],[92.755,25.361],[92.208,25.397],[91.661,25.431],[91.114,25.463],[90.566,25.493],[90.018,25.522],[89.47,25.548],[88.921,25.572],[88.373,25.594],[87.824,25.614],[87.275,25.631],[86.725,25.647],[86.176,25.661],[85.627,25.673],[85.077,25.682],[84.527,25.69],[83.978,25.696],[83.428,25.699],[82.878,25.7],[82.328,25.7],[81.779,25.697],[81.229,25.692],[80.679,25.685],[80.13,25.677],[80.163,25.185],[80.195,24.693],[80.227,24.201],[80.259,23.709],[80.291,23.218],[80.323,22.726],[80.354,22.234],[80.385,21.742],[80.416,21.25],[80.447,20.758],[80.478,20.267],[79.96,20.156],[79.444,20.043],[78.929,19.93],[78.414,19.814],[77.9,19.697],[77.386,19.579],[76.874,19.459],[76.362,19.338],[75.851,19.216],[75.341,19.092],[74.831,18.966],[74.322,18.84],[73.814,18.711],[73.307,18.582],[72.801,18.451],[72.295,18.319],[71.79,18.185],[71.286,18.05],[70.783,17.914],[70.28,17.777],[69.778,17.638],[69.277,17.498],[68.777,17.357],[68.278,17.214],[67.779,17.071],[67.281,16.926],[66.784,16.78],[66.288,16.632],[65.792,16.484],[65.297,16.334],[64.803,16.183],[64.31,16.031],[63.817,15.878],[63.325,15.724],[62.834,15.569],[62.344,15.412],[61.854,15.255],[61.366,15.096],[60.878,14.937],[60.39,14.776],[59.903,14.614],[59.418,14.452],[58.932,14.288],[58.448,14.124],[57.964,13.958],[57.481,13.791],[56.998,13.624],[56.517,13.456],[56.035,13.286],[55.555,13.116],[55.075,12.945],[54.596,12.773],[54.118,12.6],[53.64,12.426],[53.807,11.984],[53.973,11.541],[54.139,11.098],[54.304,10.655],[54.469,10.211],[54.633,9.768],[54.797,9.325],[54.961,8.881],[55.124,8.438],[55.287,7.994],[55.449,7.551],[55.611,7.107],[55.773,6.663],[55.287,6.544],[54.8,6.425],[54.315,6.305],[53.829,6.185],[53.343,6.064],[52.858,5.943],[52.373,5.821],[51.888,5.699],[51.404,5.577],[50.919,5.454],[50.435,5.331],[49.951,5.207],[49.467,5.083],[48.984,4.959],[48.5,4.834],[48.017,4.709],[47.534,4.584],[47.051,4.458],[46.568,4.332],[46.086,4.206],[45.603,4.079],[45.121,3.952],[44.639,3.825],[44.157,3.697],[43.675,3.57],[43.193,3.442],[42.712,3.314],[42.23,3.185],[41.749,3.056],[41.268,2.928],[40.787,2.798],[40.306,2.669],[39.825,2.54],[39.344,2.41],[38.863,2.28],[38.383,2.15],[37.902,2.02],[37.422,1.89],[36.941,1.759],[36.461,1.629],[35.981,1.498],[35.5,1.368],[35.02,1.237],[34.54,1.106],[34.06,0.975],[33.58,0.844],[33.1,0.713],[32.62,0.581],[32.14,0.45],[31.66,0.319],[31.18,0.188],[30.7,0.056],[30.22,-0.075],[29.74,-0.206],[29.26,-0.338],[28.78,-0.469],[28.301,-0.6],[27.821,-0.731],[27.341,-0.862],[26.861,-0.993],[26.38,-1.124],[25.9,-1.255],[25.42,-1.386],[24.94,-1.517],[24.46,-1.647],[23.979,-1.778],[23.499,-1.908],[23.018,-2.039],[22.538,-2.169],[22.057,-2.299],[21.576,-2.428],[21.096,-2.558],[20.615,-2.688],[20.134,-2.817],[19.653,-2.946],[19.171,-3.075],[18.69,-3.203],[18.208,-3.332],[17.727,-3.46],[17.245,-3.588],[16.763,-3.715],[16.281,-3.843],[15.799,-3.97],[15.317,-4.097],[14.834,-4.223],[14.352,-4.35],[13.869,-4.476],[13.386,-4.601],[12.903,-4.727]]}},{"type":"Feature","properties":{"boundary_type":"subduction","feature_type":"gpml:SubductionZone","polarity":"Right","overriding_plate_id":80104,"subducting_plate_id":811001,"plate_ids":[80104,811001],"name":""},"geometry":{"type":"LineString","coordinates":[[-86.324,42.442],[-85.853,42.138],[-85.385,41.833],[-84.923,41.526],[-84.465,41.217],[-84.011,40.906],[-83.561,40.593],[-83.116,40.279],[-82.674,39.963],[-82.237,39.646],[-81.804,39.326],[-81.375,39.006],[-81.203,38.574],[-81.033,38.142],[-80.865,37.71],[-80.699,37.278],[-80.534,36.846],[-80.372,36.413],[-80.212,35.98],[-80.053,35.547],[-79.896,35.114],[-79.74,34.68],[-79.752,34.219],[-79.764,33.757],[-79.776,33.296],[-79.787,32.834],[-79.798,32.373],[-79.81,31.911],[-79.821,31.45],[-79.832,30.988]]}},{"type":"Feature","properties":{"boundary_type":"subduction","feature_type":"gpml:SubductionZone","polarity":"Right","overriding_plate_id":80104,"subducting_plate_id":90107,"plate_ids":[80104,90107],"name":""},"geometry":{"type":"LineString","coordinates":[[-79.832,30.988],[-79.843,30.522],[-79.854,30.055],[-79.876,29.59],[-79.898,29.125],[-79.92,28.66],[-79.941,28.195],[-79.962,27.729],[-79.984,27.264],[-80.005,26.799],[-80.213,26.387],[-80.421,25.975],[-80.626,25.562],[-80.831,25.149],[-81.034,24.736],[-81.236,24.323],[-81.436,23.909],[-81.635,23.495],[-82.007,23.311],[-82.378,23.126],[-82.748,22.941],[-83.135,22.768]]}},{"type":"Feature","properties":{"boundary_type":"subduction","feature_type":"gpml:SubductionZone","polarity":"Right","overriding_plate_id":80101,"subducting_plate_id":90106,"plate_ids":[80101,90106],"name":""},"geometry":{"type":"LineString","coordinates":[[-30.711,56.127],[-30.264,55.75],[-29.825,55.37],[-29.395,54.989],[-28.973,54.607],[-28.558,54.223],[-28.152,53.838],[-27.881,53.403],[-27.615,52.967],[-27.355,52.531],[-27.099,52.094],[-26.849,51.657],[-26.604,51.219],[-26.363,50.781],[-26.126,50.342],[-25.894,49.903],[-25.838,49.41],[-25.783,48.917],[-25.729,48.424],[-25.675,47.932],[-25.623,47.439],[-25.572,46.946],[-25.522,46.453],[-25.771,46.04],[-26.016,45.626],[-26.257,45.212],[-26.495,44.797],[-26.73,44.382],[-26.961,43.967],[-27.189,43.551],[-27.414,43.134],[-27.737,42.714],[-28.056,42.292],[-28.37,41.87],[-28.681,41.447],[-28.987,41.023],[-29.29,40.599],[-29.588,40.173],[-29.883,39.747],[-30.174,39.32],[-30.546,38.977],[-30.915,38.633],[-31.28,38.288]]}},{"type":"Feature","properties":{"boundary_type":"subduction","feature_type":"gpml:SubductionZone","polarity":"Right","overriding_plate_id":80101,"subducting_plate_id":90107,"plate_ids":[80101,90107],"name":""},"geometry":{"type":"LineString","coordinates":[[-31.28,38.288],[-31.659,37.924],[-32.035,37.559],[-32.407,37.192],[-32.776,36.825],[-33.141,36.456],[-33.502,36.087],[-33.944,35.774],[-34.382,35.46],[-34.816,35.144],[-35.247,34.827],[-35.675,34.508],[-36.099,34.187],[-36.52,33.866],[-36.939,33.542],[-37.354,33.218],[-37.885,33.037],[-38.415,32.854],[-38.942,32.668],[-39.467,32.481],[-39.99,32.291],[-40.511,32.099],[-41.029,31.905],[-41.546,31.709],[-42.06,31.511],[-42.572,31.311],[-43.082,31.109],[-43.589,30.905],[-44.095,30.698]]}},{"type":"Feature","properties":{"boundary_type":"transform","feature_type":"gpml:Transform","polarity":null,"overriding_plate_id":null,"subducting_plate_id":null,"plate_ids":[90107,811001],"name":""},"geometry":{"type":"LineString","coordinates":[[-79.832,30.988],[-79.263,31.063],[-78.694,31.135],[-78.123,31.205],[-77.552,31.272],[-76.98,31.337],[-76.408,31.399],[-75.834,31.458],[-75.26,31.515],[-74.685,31.57],[-74.11,31.622],[-73.534,31.671],[-72.957,31.718],[-72.38,31.762]]}},{"type":"Feature","properties":{"boundary_type":"transform","feature_type":"gpml:Transform","polarity":null,"overriding_plate_id":null,"subducting_plate_id":null,"plate_ids":[80101,90107],"name":""},"geometry":{"type":"LineString","coordinates":[[-72.38,31.762],[-71.802,31.803],[-71.224,31.842],[-70.646,31.878],[-70.067,31.912],[-69.487,31.943],[-68.907,31.971],[-68.327,31.997],[-67.747,32.02],[-67.166,32.04],[-66.585,32.058],[-66.004,32.073],[-65.423,32.086],[-64.842,32.095],[-64.26,32.103],[-63.679,32.107],[-63.097,32.109],[-62.515,32.108],[-61.934,32.105],[-61.352,32.099],[-60.771,32.09],[-60.189,32.078],[-59.608,32.064],[-59.027,32.047],[-58.446,32.028],[-57.866,32.006],[-57.286,31.981],[-56.706,31.954],[-56.126,31.924],[-55.547,31.891],[-54.968,31.856],[-54.39,31.818],[-53.812,31.778],[-53.235,31.735],[-52.659,31.689],[-52.082,31.641],[-51.507,31.59],[-50.932,31.537],[-50.358,31.481],[-49.785,31.422],[-49.212,31.361],[-48.64,31.298],[-48.069,31.231],[-47.498,31.163],[-46.929,31.092],[-46.36,31.018],[-45.792,30.942],[-45.226,30.863],[-44.66,30.782],[-44.095,30.698]]}},{"type":"Feature","properties":{"boundary_type":"ridge","feature_type":"gpml:MidOceanRidge","polarity":null,"overriding_plate_id":null,"subducting_plate_id":null,"plate_ids":[80101,811001],"name":""},"geometry":{"type":"LineString","coordinates":[[-68.519,64.976],[-68.394,64.507],[-68.272,64.037],[-68.155,63.568],[-68.042,63.098],[-67.932,62.628],[-67.825,62.158],[-67.722,61.688],[-67.622,61.218],[-67.525,60.747],[-67.431,60.277],[-67.339,59.807],[-67.25,59.336],[-67.164,58.866],[-67.079,58.395],[-66.997,57.925],[-66.917,57.454],[-67.718,57.371],[-68.515,57.283],[-69.308,57.19],[-70.097,57.092],[-70.882,56.989],[-71.662,56.881],[-72.438,56.769],[-73.209,56.651],[-73.029,56.207],[-72.854,55.762],[-72.682,55.318],[-72.514,54.873],[-72.35,54.428],[-72.189,53.982],[-72.032,53.537],[-71.878,53.091],[-71.727,52.645],[-72.447,52.544],[-73.163,52.438],[-73.876,52.329],[-74.585,52.214],[-75.29,52.096],[-75.191,51.601],[-75.094,51.106],[-74.999,50.611],[-74.906,50.116],[-74.815,49.621],[-74.725,49.126],[-74.638,48.63],[-74.552,48.135],[-74.468,47.639],[-74.385,47.144],[-74.304,46.648],[-74.224,46.153],[-74.146,45.657],[-74.069,45.161],[-73.994,44.666],[-73.92,44.17],[-73.847,43.674],[-73.775,43.178],[-73.704,42.682],[-73.635,42.186],[-73.566,41.69],[-73.499,41.194],[-73.433,40.698],[-73.367,40.201],[-73.303,39.705],[-73.239,39.209],[-73.177,38.713],[-73.115,38.216],[-73.054,37.72],[-72.994,37.224],[-72.935,36.727],[-72.876,36.231],[-72.818,35.734],[-72.761,35.238],[-72.705,34.741],[-72.649,34.245],[-72.594,33.748],[-72.539,33.252],[-72.486,32.755],[-72.432,32.258],[-72.38,31.762]]}},{"type":"Feature","properties":{"boundary_type":"subduction","feature_type":"gpml:SubductionZone","polarity":"Right","overriding_plate_id":811001,"subducting_plate_id":90106,"plate_ids":[90106,811001],"name":""},"geometry":{"type":"LineString","coordinates":[[-70.551,65.082],[-69.533,65.033],[-68.519,64.976]]}},{"type":"Feature","properties":{"boundary_type":"subduction","feature_type":"gpml:SubductionZone","polarity":"Right","overriding_plate_id":80101,"subducting_plate_id":90106,"plate_ids":[80101,90106],"name":""},"geometry":{"type":"LineString","coordinates":[[-68.519,64.976],[-67.37,64.904],[-66.227,64.822],[-65.091,64.732],[-63.964,64.633],[-62.844,64.526],[-61.734,64.41],[-60.634,64.286],[-59.544,64.154],[-58.464,64.014],[-57.396,63.865],[-56.339,63.709],[-55.294,63.546],[-54.261,63.375],[-53.241,63.196],[-52.233,63.01],[-51.238,62.817],[-50.257,62.618],[-49.289,62.411],[-48.334,62.198],[-47.393,61.978],[-46.466,61.752],[-45.552,61.52],[-44.652,61.282],[-43.766,61.038],[-42.893,60.788],[-42.034,60.533],[-41.189,60.272],[-40.357,60.006],[-39.539,59.735],[-38.734,59.459],[-37.942,59.178],[-37.163,58.892],[-36.397,58.602],[-35.643,58.307],[-34.903,58.007],[-34.174,57.704],[-33.458,57.396],[-32.754,57.085],[-32.061,56.769],[-31.38,56.45],[-30.711,56.127]]}},{"type":"Feature","properties":{"boundary_type":"ridge","feature_type":"gpml:MidOceanRidge","polarity":null,"overriding_plate_id":null,"subducting_plate_id":null,"plate_ids":[90106,90107],"name":""},"geometry":{"type":"LineString","coordinates":[[15.146,-0.072],[14.806,0.285],[14.466,0.641],[14.126,0.998],[13.786,1.355],[13.446,1.711],[13.106,2.068],[12.766,2.424],[12.425,2.781],[12.084,3.137],[11.743,3.493],[11.402,3.849],[11.061,4.205],[10.719,4.561],[10.377,4.916],[10.034,5.272],[9.691,5.627],[9.348,5.982],[9.004,6.337],[8.66,6.692],[8.315,7.046],[7.97,7.4],[7.624,7.754],[7.277,8.107],[6.93,8.461],[6.583,8.814],[6.234,9.166],[5.885,9.518],[5.535,9.87],[5.185,10.222],[4.834,10.573],[4.482,10.924],[4.129,11.274],[3.775,11.624],[3.42,11.974],[3.065,12.323],[2.708,12.672],[2.351,13.02],[1.992,13.368],[1.633,13.715],[1.272,14.062],[0.91,14.408],[0.547,14.753],[0.183,15.098],[-0.182,15.443],[-0.548,15.786],[-0.916,16.13],[-1.285,16.472],[-1.655,16.814],[-2.08,16.527],[-2.504,16.239],[-2.927,15.949],[-3.349,15.66],[-3.769,15.369],[-4.189,15.077],[-4.607,14.785],[-5.024,14.492],[-5.44,14.198],[-5.855,13.904],[-6.268,13.609],[-6.681,13.313],[-7.093,13.016],[-7.504,12.719],[-7.838,13.089],[-8.173,13.459],[-8.51,13.828],[-8.847,14.197],[-9.186,14.565],[-9.525,14.933],[-9.866,15.3],[-10.208,15.666],[-10.551,16.033],[-10.896,16.398],[-11.242,16.763],[-11.589,17.128],[-11.937,17.492],[-12.287,17.855],[-12.638,18.217],[-12.991,18.579],[-13.346,18.941],[-13.701,19.301],[-14.059,19.661],[-14.418,20.021],[-14.778,20.379],[-15.141,20.737],[-15.505,21.094],[-15.871,21.45],[-16.238,21.806],[-16.608,22.16],[-16.979,22.514],[-17.352,22.867],[-17.727,23.219],[-17.422,23.555],[-17.116,23.89],[-16.807,24.225],[-16.498,24.559],[-16.186,24.893],[-16.533,25.265],[-16.882,25.637],[-17.233,26.008],[-17.586,26.378],[-17.942,26.747],[-18.3,27.116],[-18.66,27.483],[-19.023,27.849],[-19.388,28.215],[-19.755,28.579],[-20.125,28.943],[-20.498,29.305],[-20.874,29.667],[-21.252,30.027],[-21.633,30.386],[-22.016,30.744],[-22.403,31.101],[-22.792,31.457],[-23.185,31.812],[-23.58,32.165],[-23.979,32.518],[-24.38,32.869],[-24.785,33.218],[-25.193,33.567],[-25.605,33.914],[-26.019,34.259],[-26.438,34.603],[-26.859,34.946],[-27.284,35.287],[-27.713,35.627],[-28.146,35.966],[-28.582,36.302],[-29.022,36.637],[-29.465,36.971],[-29.913,37.303],[-30.364,37.633],[-30.82,37.961],[-31.28,38.288]]}}]}