{"type":"FeatureCollection","meta":{"model":"Cao2024","reconstruction_time_ma":700.0,"anchor_plate_id":0,"pygplates_version":"1.0.0","tessellate_degrees":0.5,"polarity_convention":"gpml:subductionPolarity. 'Left'/'Right' names the side of the line, in vertex order, on which the OVERRIDING plate lies. Triangles are drawn on that side.","antimeridian":"Lines are NOT split at +/-180 deg. The renderer works in 3D unit vectors where the dateline is not special; splitting would only add spurious breaks. Do not treat this as RFC 7946 GIS-ready 2D data."},"features":[{"type":"Feature","properties":{"boundary_type":"subduction","feature_type":"gpml:SubductionZone","polarity":"Right","overriding_plate_id":701,"subducting_plate_id":5032,"plate_ids":[701,5032],"name":"Mozambique Belt"},"geometry":{"type":"LineString","coordinates":[[14.891,-31.717],[14.88,-31.302],[14.869,-30.888],[14.858,-30.473],[14.848,-30.059],[14.701,-29.602],[14.555,-29.145],[14.411,-28.688],[14.334,-28.265],[14.257,-27.842],[14.18,-27.419],[14.044,-27.015],[13.909,-26.611],[13.775,-26.206],[13.642,-25.801],[13.51,-25.397],[13.525,-25.056],[13.539,-24.716],[13.554,-24.375],[13.964,-24.199],[14.373,-24.022],[14.78,-23.843],[15.319,-23.838],[15.857,-23.83],[16.395,-23.821],[16.804,-23.976],[17.214,-24.129],[17.624,-24.282],[18.036,-24.434],[18.484,-24.43],[18.931,-24.425],[19.379,-24.419],[19.826,-24.411],[20.274,-24.402],[20.806,-24.339],[21.338,-24.275],[21.87,-24.208],[22.401,-24.14],[22.931,-24.07],[23.315,-23.952],[23.699,-23.834],[24.195,-23.671],[24.689,-23.506],[25.036,-23.387],[25.383,-23.268],[25.729,-23.148],[26.111,-23.013],[26.493,-22.876],[26.874,-22.738],[27.308,-22.463],[27.742,-22.187],[28.17,-22.004],[28.596,-21.819],[29.022,-21.634],[29.447,-21.448],[29.881,-21.38],[30.315,-21.311],[30.749,-21.242],[31.182,-21.171],[31.656,-21.048],[32.129,-20.925],[32.601,-20.8],[33.073,-20.674],[33.596,-20.641],[34.118,-20.608],[34.178,-20.613]]}},{"type":"Feature","properties":{"boundary_type":"subduction","feature_type":"gpml:SubductionZone","polarity":"Right","overriding_plate_id":715,"subducting_plate_id":98043,"plate_ids":[715,98043],"name":"ANS SZ"},"geometry":{"type":"LineString","coordinates":[[-14.697,-30.94],[-14.241,-31.01],[-13.785,-31.078]]}},{"type":"Feature","properties":{"boundary_type":"subduction","feature_type":"gpml:SubductionZone","polarity":"Right","overriding_plate_id":715,"subducting_plate_id":5031,"plate_ids":[715,5031],"name":"ANS SZ"},"geometry":{"type":"LineString","coordinates":[[-13.785,-31.078],[-13.535,-31.115],[-13.08,-31.265],[-12.624,-31.413],[-12.226,-31.476],[-11.826,-31.538],[-11.427,-31.599],[-11.043,-31.739],[-10.657,-31.878],[-10.271,-32.016],[-9.796,-32.149],[-9.32,-32.281],[-8.843,-32.411],[-8.409,-32.443],[-7.975,-32.473],[-7.541,-32.502],[-6.988,-32.588],[-6.434,-32.672],[-6.053,-32.793],[-5.671,-32.913],[-5.288,-33.031],[-4.698,-33.094],[-4.106,-33.154],[-3.591,-33.114],[-3.076,-33.073],[-2.561,-33.029],[-2.14,-32.878],[-1.721,-32.726],[-1.304,-32.572],[-0.887,-32.417],[-0.447,-32.411],[-0.007,-32.405],[0.433,-32.396],[1.01,-32.421],[1.588,-32.443],[2.165,-32.462],[2.643,-32.487],[3.121,-32.509],[3.599,-32.53],[4.022,-32.416],[4.444,-32.301],[4.864,-32.184],[5.285,-32.096],[5.705,-32.006],[6.123,-31.915],[6.551,-31.755],[6.977,-31.594],[7.401,-31.431],[7.824,-31.266],[8.391,-31.317],[8.958,-31.366],[9.526,-31.412],[9.992,-31.493],[10.459,-31.573],[10.856,-31.655],[11.253,-31.735],[11.651,-31.814],[12.041,-31.93],[12.432,-32.045],[12.823,-32.159],[13.168,-32.039]]}},{"type":"Feature","properties":{"boundary_type":"subduction","feature_type":"gpml:SubductionZone","polarity":"Right","overriding_plate_id":715,"subducting_plate_id":5032,"plate_ids":[715,5032],"name":"ANS SZ"},"geometry":{"type":"LineString","coordinates":[[13.168,-32.039],[13.613,-31.881]]}},{"type":"Feature","properties":{"boundary_type":"subduction","feature_type":"gpml:SubductionZone","polarity":"Right","overriding_plate_id":701,"subducting_plate_id":5032,"plate_ids":[701,5032],"name":"ANS SZ"},"geometry":{"type":"LineString","coordinates":[[13.613,-31.881],[13.983,-31.748],[14.437,-31.733],[14.891,-31.717]]}},{"type":"Feature","properties":{"boundary_type":"subduction","feature_type":"gpml:SubductionZone","polarity":"Right","overriding_plate_id":401,"subducting_plate_id":3003,"plate_ids":[401,3003],"name":"SZ"},"geometry":{"type":"LineString","coordinates":[[158.834,0.799],[159.197,1.13],[159.561,1.462],[159.965,1.735],[160.37,2.008],[160.775,2.28],[161.18,2.553],[161.585,2.825],[161.99,3.098],[162.396,3.37],[162.802,3.642],[163.208,3.914],[163.614,4.186],[164.02,4.457],[164.427,4.728],[164.835,4.999],[165.242,5.27],[165.65,5.54],[166.058,5.811],[166.535,5.919],[167.011,6.026],[167.488,6.133],[167.965,6.24],[168.442,6.346],[168.92,6.452],[169.397,6.558],[169.875,6.663],[170.353,6.767],[170.831,6.871],[171.31,6.975],[171.788,7.078],[172.267,7.181],[172.746,7.283],[173.226,7.384],[173.705,7.485],[174.185,7.586],[174.665,7.686],[175.14,7.716],[175.615,7.746],[176.09,7.775],[176.565,7.803],[177.04,7.831],[177.515,7.858],[177.991,7.885],[178.466,7.723],[178.941,7.561],[179.416,7.398],[179.89,7.234],[-179.636,7.07],[-179.162,6.906],[-178.689,6.741],[-178.216,6.575],[-177.743,6.409],[-177.27,6.243],[-176.798,6.076],[-176.326,5.909],[-175.855,5.742],[-175.384,5.574],[-174.913,5.406],[-174.442,5.237],[-174.103,4.989],[-173.765,4.74],[-173.427,4.491],[-173.09,4.242],[-172.752,3.993],[-172.415,3.744],[-172.055,3.408],[-171.696,3.071],[-171.338,2.734],[-170.979,2.397],[-170.621,2.06],[-170.262,1.723],[-169.904,1.386],[-169.546,1.049],[-169.188,0.712],[-168.83,0.374],[-168.473,0.037],[-168.115,-0.3],[-167.757,-0.637],[-167.415,-0.91],[-167.074,-1.182],[-166.732,-1.454],[-166.39,-1.726],[-166.048,-1.998],[-165.709,-2.256],[-165.37,-2.513],[-165.031,-2.771],[-164.692,-3.029]]}},{"type":"Feature","properties":{"boundary_type":"subduction","feature_type":"gpml:SubductionZone","polarity":"Left","overriding_plate_id":77148,"subducting_plate_id":714,"plate_ids":[714,77148],"name":"Dahomenides"},"geometry":{"type":"LineString","coordinates":[[-25.028,-66.941],[-23.915,-67.174],[-22.781,-67.399],[-21.625,-67.616],[-20.448,-67.824],[-19.25,-68.024],[-18.032,-68.215],[-16.794,-68.397],[-15.697,-68.545],[-14.586,-68.685],[-13.461,-68.818],[-12.323,-68.943],[-11.173,-69.06]]}},{"type":"Feature","properties":{"boundary_type":"subduction","feature_type":"gpml:SubductionZone","polarity":"Left","overriding_plate_id":715,"subducting_plate_id":714,"plate_ids":[714,715],"name":"Dahomenides"},"geometry":{"type":"LineString","coordinates":[[-11.173,-69.06],[-9.818,-69.188],[-8.449,-69.304],[-7.065,-69.409],[-5.669,-69.504],[-4.261,-69.587],[-2.842,-69.658],[-1.415,-69.718],[0.02,-69.767],[1.46,-69.804],[2.831,-69.804],[4.201,-69.794],[5.569,-69.773],[6.933,-69.742],[8.293,-69.7],[9.647,-69.647],[10.994,-69.584],[12.332,-69.511],[13.66,-69.428],[14.978,-69.335],[16.283,-69.232],[17.576,-69.119],[18.855,-68.996],[19.894,-68.937],[20.927,-68.872]]}},{"type":"Feature","properties":{"boundary_type":"subduction","feature_type":"gpml:SubductionZone","polarity":"Right","overriding_plate_id":5031,"subducting_plate_id":98043,"plate_ids":[5031,98043],"name":"ANS formation"},"geometry":{"type":"LineString","coordinates":[[-12.957,-24.613],[-13.169,-24.191],[-13.379,-23.768],[-13.588,-23.345],[-13.795,-22.922],[-13.857,-22.435],[-13.918,-21.947],[-13.978,-21.459],[-14.039,-20.972],[-14.099,-20.484],[-14.158,-19.996],[-14.217,-19.509],[-14.276,-19.021],[-14.334,-18.533],[-14.392,-18.046],[-14.45,-17.558],[-14.508,-17.07],[-14.565,-16.582],[-14.622,-16.094],[-14.678,-15.607],[-14.735,-15.119]]}},{"type":"Feature","properties":{"boundary_type":"subduction","feature_type":"gpml:SubductionZone","polarity":"Right","overriding_plate_id":5031,"subducting_plate_id":801,"plate_ids":[801,5031],"name":"ANS formation"},"geometry":{"type":"LineString","coordinates":[[-14.735,-15.119],[-14.765,-14.856],[-14.658,-14.399],[-14.551,-13.942],[-14.444,-13.485],[-14.339,-13.028],[-14.233,-12.571],[-14.128,-12.113],[-14.023,-11.656],[-13.919,-11.199],[-13.814,-10.741],[-13.559,-10.408],[-13.304,-10.074],[-13.049,-9.74],[-12.795,-9.406],[-12.525,-9.107],[-12.254,-8.809],[-11.87,-8.483],[-11.487,-8.157],[-11.105,-7.831],[-10.793,-7.624],[-10.482,-7.418],[-10.171,-7.21],[-9.801,-6.987],[-9.43,-6.763],[-9.042,-6.611],[-8.653,-6.459],[-8.299,-6.391],[-7.945,-6.322],[-7.539,-6.323],[-7.132,-6.324],[-6.753,-6.233],[-6.374,-6.141],[-6.094,-5.929],[-5.814,-5.717],[-5.534,-5.505],[-5.218,-5.286],[-4.903,-5.066],[-4.588,-4.846],[-4.267,-4.65],[-3.946,-4.454],[-3.554,-4.367],[-3.162,-4.279],[-2.797,-4.229],[-2.431,-4.179],[-2.065,-4.129],[-1.65,-4.119],[-1.235,-4.109],[-0.82,-4.098],[-0.445,-4.082],[-0.071,-4.066],[0.304,-4.05],[0.757,-4.086],[1.21,-4.122],[1.575,-4.319],[1.94,-4.516],[2.305,-4.713],[2.768,-4.894],[3.231,-5.075],[3.695,-5.256],[4.158,-5.436],[4.622,-5.615],[5.086,-5.795],[5.551,-5.974],[6.016,-6.153],[6.481,-6.331],[6.946,-6.509],[7.412,-6.686],[7.805,-6.867],[8.199,-7.048]]}},{"type":"Feature","properties":{"boundary_type":"subduction","feature_type":"gpml:SubductionZone","polarity":"Right","overriding_plate_id":5032,"subducting_plate_id":801,"plate_ids":[801,5032],"name":"ANS formation"},"geometry":{"type":"LineString","coordinates":[[8.199,-7.048],[8.606,-7.234],[9.013,-7.419],[9.42,-7.605],[9.828,-7.79],[10.236,-7.974],[10.644,-8.158],[11.034,-8.266],[11.425,-8.372],[11.816,-8.479],[12.207,-8.585],[12.598,-8.691]]}},{"type":"Feature","properties":{"boundary_type":"subduction","feature_type":"gpml:SubductionZone","polarity":"Right","overriding_plate_id":77148,"subducting_plate_id":98043,"plate_ids":[77148,98043],"name":"northern SM SZ?"},"geometry":{"type":"LineString","coordinates":[[-37.36,-49.807],[-37.179,-49.858],[-36.505,-49.792],[-35.832,-49.722],[-35.161,-49.648],[-34.54,-49.421],[-33.926,-49.19]]}},{"type":"Feature","properties":{"boundary_type":"subduction","feature_type":"gpml:SubductionZone","polarity":"Right","overriding_plate_id":715,"subducting_plate_id":98043,"plate_ids":[715,98043],"name":"northern SM SZ?"},"geometry":{"type":"LineString","coordinates":[[-33.926,-49.19],[-33.387,-48.983],[-32.853,-48.774],[-32.435,-48.376],[-32.024,-47.976],[-31.618,-47.575],[-31.22,-47.172],[-31.097,-46.769],[-30.977,-46.367],[-30.858,-45.964],[-30.454,-45.677],[-30.054,-45.389],[-29.659,-45.099],[-29.267,-44.808],[-28.744,-44.549],[-28.226,-44.288],[-27.712,-44.025],[-27.203,-43.759],[-26.698,-43.491],[-26.198,-43.22],[-25.658,-42.952],[-25.123,-42.682],[-24.592,-42.408],[-24.067,-42.133],[-23.545,-41.855],[-23.028,-41.575],[-22.516,-41.292],[-22.15,-40.942],[-21.787,-40.592],[-21.429,-40.24],[-21.074,-39.887],[-20.722,-39.532],[-20.375,-39.177],[-20.03,-38.821],[-19.69,-38.464],[-19.434,-38.009],[-19.182,-37.554],[-18.932,-37.098],[-18.686,-36.641],[-18.442,-36.184],[-18.029,-35.814],[-17.62,-35.442],[-17.215,-35.069],[-16.9,-34.711],[-16.588,-34.351],[-16.278,-33.991],[-15.971,-33.63],[-15.667,-33.268],[-15.403,-32.924],[-15.142,-32.579],[-14.882,-32.233],[-14.625,-31.887],[-14.572,-31.602],[-14.52,-31.317],[-14.697,-30.94]]}},{"type":"Feature","properties":{"boundary_type":"subduction","feature_type":"gpml:SubductionZone","polarity":"Left","overriding_plate_id":801,"subducting_plate_id":98044,"plate_ids":[801,98044],"name":"Alxa SZ"},"geometry":{"type":"LineString","coordinates":[[-33.996,52.145],[-33.717,51.706],[-33.443,51.266],[-33.175,50.826],[-32.911,50.385],[-32.653,49.943],[-32.399,49.501],[-31.953,49.155],[-31.513,48.807],[-31.079,48.458],[-30.652,48.107],[-30.23,47.754],[-29.814,47.4],[-29.403,47.045],[-28.998,46.688],[-28.598,46.329],[-28.431,45.854],[-28.266,45.379],[-28.105,44.903],[-27.946,44.428],[-27.79,43.952],[-27.631,43.527],[-27.474,43.102],[-27.319,42.677],[-27.166,42.252],[-27.016,41.827],[-26.867,41.401],[-26.692,40.954],[-26.52,40.507],[-26.349,40.06],[-26.181,39.612],[-26.016,39.164],[-25.852,38.716]]}},{"type":"Feature","properties":{"boundary_type":"subduction","feature_type":"gpml:SubductionZone","polarity":"Left","overriding_plate_id":801,"subducting_plate_id":580,"plate_ids":[580,801],"name":"Alxa SZ"},"geometry":{"type":"LineString","coordinates":[[-25.852,38.716],[-25.709,38.319],[-25.567,37.922],[-25.427,37.525],[-25.026,37.156],[-24.63,36.786],[-24.237,36.414],[-23.848,36.041],[-23.463,35.667],[-23.081,35.291],[-22.703,34.915],[-22.328,34.537],[-21.957,34.158],[-21.596,33.863],[-21.237,33.567],[-20.882,33.27],[-20.528,32.972],[-20.177,32.673],[-19.828,32.373],[-19.531,31.967]]}},{"type":"Feature","properties":{"boundary_type":"subduction","feature_type":"gpml:SubductionZone","polarity":"Left","overriding_plate_id":77147,"subducting_plate_id":714,"plate_ids":[714,77147],"name":"foras Granulite Unit SZ"},"geometry":{"type":"LineString","coordinates":[[-61.293,-57.249],[-60.939,-57.636],[-60.578,-58.022],[-60.21,-58.406],[-59.588,-58.753],[-58.954,-59.097],[-58.308,-59.437],[-57.648,-59.775],[-56.975,-60.109],[-56.462,-60.509],[-55.936,-60.908],[-55.397,-61.305],[-54.844,-61.699],[-54.277,-62.092],[-53.695,-62.482],[-53.098,-62.869],[-52.452,-63.057]]}},{"type":"Feature","properties":{"boundary_type":"subduction","feature_type":"gpml:SubductionZone","polarity":"Right","overriding_plate_id":77148,"subducting_plate_id":715,"plate_ids":[715,77148],"name":"East Saharan Craton - Aouzeguer Terrane SZ"},"geometry":{"type":"LineString","coordinates":[[-33.926,-49.19],[-33.605,-49.623],[-33.277,-50.054],[-32.944,-50.485],[-32.44,-50.851],[-31.927,-51.214],[-31.407,-51.575],[-30.878,-51.933],[-30.341,-52.29],[-29.762,-52.577],[-29.176,-52.861],[-28.582,-53.142],[-27.98,-53.42],[-27.472,-53.654],[-26.958,-53.885],[-26.439,-54.114],[-25.833,-54.231],[-25.223,-54.344],[-24.611,-54.455],[-23.958,-54.642],[-23.299,-54.826],[-22.635,-55.005],[-21.965,-55.182],[-21.263,-55.378],[-20.556,-55.57],[-19.841,-55.758],[-19.119,-55.942],[-18.461,-56.116],[-17.798,-56.286],[-17.129,-56.453],[-16.454,-56.616],[-15.953,-56.776],[-15.448,-56.933],[-14.83,-57.086],[-14.207,-57.235],[-13.579,-57.382],[-12.958,-57.591],[-12.329,-57.798],[-11.694,-58.001],[-11.051,-58.202],[-10.214,-58.347],[-9.371,-58.486],[-8.521,-58.62]]}},{"type":"Feature","properties":{"boundary_type":"subduction","feature_type":"gpml:SubductionZone","polarity":"Left","overriding_plate_id":3003,"subducting_plate_id":401,"plate_ids":[401,3003],"name":"Taimyr SZ"},"geometry":{"type":"LineString","coordinates":[[-164.692,-3.029],[-164.484,-3.355],[-164.277,-3.682],[-164.029,-4.074],[-163.782,-4.467],[-163.534,-4.86],[-163.286,-5.252],[-163.037,-5.645],[-162.789,-6.037],[-162.525,-6.414],[-162.262,-6.791],[-161.998,-7.168],[-161.733,-7.544],[-161.468,-7.921],[-161.202,-8.297],[-160.936,-8.673],[-160.67,-9.049],[-160.494,-9.446],[-160.318,-9.842],[-160.142,-10.239],[-159.965,-10.635],[-159.788,-11.031],[-159.61,-11.428],[-159.432,-11.824],[-159.192,-12.215],[-158.951,-12.607],[-158.709,-12.998],[-158.467,-13.389],[-158.224,-13.78],[-157.98,-14.17],[-157.736,-14.56],[-157.677,-15.008],[-157.618,-15.456],[-157.559,-15.904],[-157.5,-16.352],[-157.44,-16.799],[-157.38,-17.247],[-157.32,-17.695],[-157.25,-18.1],[-157.179,-18.506]]}},{"type":"Feature","properties":{"boundary_type":"subduction","feature_type":"gpml:SubductionZone","polarity":"Right","overriding_plate_id":101,"subducting_plate_id":3003,"plate_ids":[101,3003],"name":"Offshore Timan ocean arc?"},"geometry":{"type":"LineString","coordinates":[[-167.044,-21.254],[-166.855,-21.685],[-166.665,-22.115],[-166.474,-22.546],[-166.281,-22.976],[-166.088,-23.406],[-165.893,-23.836],[-165.696,-24.265],[-165.499,-24.694],[-165.076,-24.975],[-164.652,-25.254],[-164.225,-25.532],[-163.797,-25.809],[-163.366,-26.085],[-162.934,-26.359],[-162.499,-26.633],[-162.062,-26.904],[-161.624,-27.175],[-161.183,-27.444],[-160.74,-27.711],[-160.295,-27.978],[-159.847,-28.243],[-159.363,-28.447],[-158.876,-28.65],[-158.388,-28.851],[-157.897,-29.05],[-157.405,-29.248],[-156.911,-29.443],[-156.415,-29.637],[-155.917,-29.829],[-155.417,-30.019],[-154.916,-30.208],[-154.412,-30.394],[-153.907,-30.578]]}},{"type":"Feature","properties":{"boundary_type":"subduction","feature_type":"gpml:SubductionZone","polarity":"Right","overriding_plate_id":714,"subducting_plate_id":3003,"plate_ids":[714,3003],"name":"Offshore Timan ocean arc?"},"geometry":{"type":"LineString","coordinates":[[-153.907,-30.578],[-153.793,-30.619],[-153.31,-30.876],[-152.824,-31.13],[-152.336,-31.383],[-151.845,-31.634],[-151.352,-31.883],[-150.856,-32.13],[-150.357,-32.375],[-149.855,-32.618],[-149.351,-32.859],[-148.844,-33.098],[-148.334,-33.335]]}},{"type":"Feature","properties":{"boundary_type":"subduction","feature_type":"gpml:SubductionZone","polarity":"Right","overriding_plate_id":580,"subducting_plate_id":98044,"plate_ids":[580,98044],"name":"Tarim Oceanic arc"},"geometry":{"type":"LineString","coordinates":[[-46.012,15.357],[-45.761,15.779],[-45.508,16.202],[-45.255,16.624],[-45.0,17.046],[-44.745,17.467],[-44.488,17.888],[-44.23,18.309],[-43.94,18.707],[-43.648,19.104],[-43.356,19.501],[-43.062,19.897],[-42.766,20.292],[-42.469,20.688],[-42.17,21.082],[-41.87,21.477],[-41.568,21.87],[-41.265,22.263],[-40.96,22.656],[-40.618,22.996],[-40.274,23.335],[-39.928,23.673],[-39.581,24.011],[-39.231,24.348],[-38.88,24.684],[-38.527,25.019],[-38.172,25.353],[-37.815,25.687],[-37.456,26.019],[-37.096,26.351],[-36.732,26.682],[-36.397,26.905]]}},{"type":"Feature","properties":{"boundary_type":"subduction","feature_type":"gpml:SubductionZone","polarity":"Left","overriding_plate_id":98046,"subducting_plate_id":98044,"plate_ids":[98044,98046],"name":"Missing-Link subduction"},"geometry":{"type":"LineString","coordinates":[[157.607,21.514],[157.112,21.599],[156.616,21.683],[156.12,21.765],[155.624,21.846],[155.127,21.926],[154.629,22.004],[154.131,22.08],[153.633,22.155],[153.133,22.228],[152.634,22.3],[152.134,22.37],[151.633,22.439],[151.171,22.643],[150.708,22.847],[150.243,23.048],[149.777,23.249],[149.31,23.448],[148.841,23.646],[148.371,23.842],[147.9,24.037],[147.427,24.23],[146.952,24.422],[146.476,24.613],[145.999,24.802],[145.52,24.989],[145.04,25.175],[144.558,25.359],[144.075,25.542],[143.591,25.723],[143.105,25.903],[142.615,26.118],[142.125,26.332],[141.632,26.544],[141.137,26.754],[140.641,26.963],[140.142,27.169],[139.642,27.375],[139.14,27.578],[138.637,27.779],[138.131,27.979],[137.623,28.177],[137.114,28.373],[136.603,28.567],[136.09,28.759],[135.575,28.949],[135.058,29.137],[134.539,29.323],[134.018,29.507],[133.496,29.69],[132.971,29.87],[132.445,30.048],[131.917,30.224],[131.386,30.397],[130.854,30.569],[130.321,30.738],[129.878,31.053],[129.433,31.367],[128.985,31.679],[128.533,31.989],[128.079,32.298],[127.621,32.605],[127.161,32.91],[126.697,33.214],[126.23,33.516],[125.76,33.816],[125.286,34.115],[124.809,34.411],[124.329,34.706],[123.845,34.999],[123.358,35.29],[122.867,35.579],[122.373,35.866],[121.875,36.151],[121.374,36.433],[120.869,36.714],[120.36,36.993],[119.848,37.269],[119.331,37.543],[118.811,37.815],[118.288,38.085],[117.76,38.352],[117.228,38.617],[116.693,38.879],[116.153,39.139],[115.61,39.397],[115.062,39.651],[114.511,39.904],[113.955,40.153],[113.395,40.4],[112.832,40.645],[112.264,40.886],[111.778,41.179],[111.289,41.47],[110.795,41.758],[110.296,42.045],[109.793,42.329],[109.285,42.611],[108.773,42.891],[108.256,43.169],[107.735,43.444],[107.208,43.717],[106.677,43.987],[106.165,44.278],[105.647,44.566],[105.125,44.853],[104.597,45.136],[104.063,45.418],[103.525,45.697],[102.981,45.973],[102.432,46.246],[101.877,46.517],[101.317,46.786],[100.751,47.051],[100.179,47.314]]}},{"type":"Feature","properties":{"boundary_type":"subduction","feature_type":"gpml:SubductionZone","polarity":"Left","overriding_plate_id":3003,"subducting_plate_id":714,"plate_ids":[714,3003],"name":"Avalonia-Ganderia subduction zone"},"geometry":{"type":"LineString","coordinates":[[-148.496,-33.604],[-148.153,-33.438],[-147.596,-33.417],[-147.04,-33.393],[-146.484,-33.367],[-145.928,-33.338],[-145.373,-33.307],[-144.818,-33.274],[-144.264,-33.238],[-143.703,-33.217],[-143.142,-33.194],[-142.582,-33.168],[-142.021,-33.14],[-141.462,-33.11],[-140.902,-33.077],[-140.344,-33.041],[-139.785,-33.003],[-139.227,-32.962],[-138.67,-32.919],[-138.113,-32.874],[-137.557,-32.826],[-136.977,-32.751],[-136.399,-32.674],[-135.821,-32.594],[-135.244,-32.511],[-134.669,-32.426],[-134.094,-32.338],[-133.521,-32.247],[-132.949,-32.154],[-132.378,-32.059],[-131.808,-31.961],[-131.24,-31.86],[-130.672,-31.757],[-130.106,-31.651],[-129.542,-31.543],[-128.978,-31.432],[-128.416,-31.319],[-127.856,-31.203],[-127.296,-31.085],[-126.738,-30.965],[-126.182,-30.842],[-125.627,-30.717],[-125.073,-30.589],[-124.521,-30.459],[-123.971,-30.327],[-123.422,-30.193],[-122.874,-30.056],[-122.328,-29.917],[-121.768,-29.797],[-121.21,-29.676],[-120.654,-29.552],[-120.098,-29.425],[-119.544,-29.296],[-118.992,-29.165],[-118.441,-29.032],[-117.891,-28.897],[-117.343,-28.759],[-116.796,-28.619],[-116.242,-28.544],[-115.688,-28.467],[-115.135,-28.388],[-114.584,-28.306],[-114.033,-28.222],[-113.483,-28.136],[-112.933,-28.048],[-112.385,-27.958],[-111.838,-27.865],[-111.291,-27.77],[-110.746,-27.674],[-110.223,-27.611],[-109.702,-27.546],[-109.18,-27.48],[-108.66,-27.411],[-108.14,-27.341],[-107.621,-27.269],[-107.102,-27.194],[-106.584,-27.118],[-106.067,-27.04],[-105.551,-26.96],[-105.035,-26.879],[-104.52,-26.795],[-104.006,-26.709],[-103.518,-26.676],[-103.03,-26.641],[-102.543,-26.605],[-102.056,-26.566],[-101.569,-26.526],[-101.083,-26.485],[-100.597,-26.442],[-100.059,-26.442],[-99.521,-26.441],[-98.984,-26.438],[-98.446,-26.433],[-97.908,-26.426],[-97.371,-26.417],[-96.833,-26.406],[-96.296,-26.392],[-95.758,-26.377],[-95.221,-26.36],[-94.684,-26.341],[-94.153,-26.392],[-93.621,-26.442],[-93.089,-26.49],[-92.556,-26.535]]}},{"type":"Feature","properties":{"boundary_type":"subduction","feature_type":"gpml:SubductionZone","polarity":"Left","overriding_plate_id":98043,"subducting_plate_id":714,"plate_ids":[714,98043],"name":"Avalonia-Ganderia subduction zone"},"geometry":{"type":"LineString","coordinates":[[-92.556,-26.535],[-92.17,-26.567]]}},{"type":"Feature","properties":{"boundary_type":"subduction","feature_type":"gpml:SubductionZone","polarity":"Left","overriding_plate_id":22053,"subducting_plate_id":701,"plate_ids":[701,22053],"name":"Brasilia Belt"},"geometry":{"type":"LineString","coordinates":[[89.717,-43.894],[89.519,-44.346],[89.318,-44.798],[89.113,-45.249],[88.906,-45.7],[88.695,-46.151],[88.423,-46.536],[88.148,-46.919],[87.869,-47.303],[87.586,-47.685],[87.298,-48.067],[86.878,-48.442],[86.452,-48.816],[86.02,-49.189],[85.581,-49.559],[85.135,-49.928],[84.683,-50.295],[84.223,-50.661],[83.756,-51.024],[83.282,-51.386],[82.756,-51.684],[82.223,-51.979],[81.682,-52.272],[81.135,-52.563],[80.58,-52.85],[80.018,-53.136],[79.851,-53.578],[79.681,-54.02],[79.507,-54.461],[79.329,-54.903],[79.148,-55.344],[78.962,-55.785],[78.772,-56.225],[78.716,-56.708],[78.659,-57.191],[78.6,-57.674],[78.539,-58.157],[78.477,-58.64],[78.413,-59.123],[78.347,-59.606],[78.279,-60.089]]}},{"type":"Feature","properties":{"boundary_type":"subduction","feature_type":"gpml:SubductionZone","polarity":"Left","overriding_plate_id":22053,"subducting_plate_id":701,"plate_ids":[701,22053],"name":"Goias Arc and Brasilia Belt"},"geometry":{"type":"LineString","coordinates":[[65.376,-58.412],[64.854,-58.78],[64.321,-59.147],[63.777,-59.511],[63.221,-59.872],[62.653,-60.232],[62.072,-60.589],[61.478,-60.943],[60.871,-61.295],[60.457,-61.628],[60.034,-61.96],[59.601,-62.291],[59.009,-62.543],[58.406,-62.792],[57.794,-63.039],[56.809,-63.238],[55.811,-63.43],[54.8,-63.615],[53.776,-63.792],[53.191,-64.19],[52.589,-64.586],[51.969,-64.98],[51.331,-65.371],[50.674,-65.759],[49.997,-66.144],[49.298,-66.526],[48.579,-66.905]]}},{"type":"Feature","properties":{"boundary_type":"subduction","feature_type":"gpml:SubductionZone","polarity":"Left","overriding_plate_id":714,"subducting_plate_id":701,"plate_ids":[701,714],"name":"Goias Arc and Brasilia Belt"},"geometry":{"type":"LineString","coordinates":[[48.579,-66.905],[47.905,-67.246],[47.212,-67.585],[46.274,-67.87],[45.312,-68.151],[44.326,-68.425],[43.317,-68.694],[42.283,-68.957],[41.225,-69.213],[40.142,-69.462],[39.034,-69.705],[37.9,-69.94],[36.741,-70.169],[35.371,-70.266],[33.988,-70.354],[32.594,-70.431],[31.19,-70.497],[29.778,-70.552],[28.458,-70.579],[27.134,-70.596],[25.809,-70.603],[24.483,-70.601],[23.159,-70.589],[21.836,-70.568],[20.613,-70.61],[19.384,-70.644]]}},{"type":"Feature","properties":{"boundary_type":"subduction","feature_type":"gpml:SubductionZone","polarity":"Left","overriding_plate_id":77148,"subducting_plate_id":77144,"plate_ids":[77144,77148],"name":"Serouenent Terrane accretion"},"geometry":{"type":"LineString","coordinates":[[-46.081,-53.971],[-45.526,-54.251],[-44.963,-54.529],[-44.393,-54.804],[-43.815,-55.076],[-43.023,-55.27],[-42.223,-55.459],[-41.415,-55.642],[-40.584,-55.801],[-39.745,-55.955],[-38.9,-56.102],[-38.049,-56.244],[-37.191,-56.38],[-36.506,-56.481],[-35.817,-56.577],[-35.125,-56.67],[-34.43,-56.759],[-33.932,-56.82],[-33.242,-57.004],[-32.545,-57.184],[-31.841,-57.36],[-31.144,-57.555],[-30.44,-57.747],[-29.819,-58.0],[-29.189,-58.25],[-28.551,-58.498],[-27.903,-58.742]]}},{"type":"Feature","properties":{"boundary_type":"subduction","feature_type":"gpml:SubductionZone","polarity":"Left","overriding_plate_id":77144,"subducting_plate_id":77147,"plate_ids":[77144,77147],"name":"Hoggar assembly"},"geometry":{"type":"LineString","coordinates":[[-60.141,-55.395],[-59.847,-55.769],[-59.548,-56.142],[-59.243,-56.515],[-58.932,-56.887],[-58.555,-57.235],[-58.172,-57.582],[-57.781,-57.928],[-57.383,-58.272],[-56.857,-58.592],[-56.321,-58.91],[-55.775,-59.226],[-55.22,-59.539],[-54.654,-59.85],[-54.101,-60.209],[-53.536,-60.567],[-52.959,-60.922],[-52.368,-61.275],[-51.62,-61.623],[-50.855,-61.967],[-50.072,-62.307],[-49.744,-62.436]]}},{"type":"Feature","properties":{"boundary_type":"subduction","feature_type":"gpml:SubductionZone","polarity":"Left","overriding_plate_id":77144,"subducting_plate_id":714,"plate_ids":[714,77144],"name":"Hoggar assembly"},"geometry":{"type":"LineString","coordinates":[[-49.744,-62.436],[-48.936,-62.746],[-48.11,-63.051],[-47.268,-63.352],[-46.407,-63.647],[-45.574,-63.884],[-44.726,-64.116],[-43.865,-64.343],[-42.989,-64.565],[-42.099,-64.781],[-41.194,-64.992],[-40.276,-65.198],[-39.267,-65.377],[-38.244,-65.55],[-37.208,-65.715],[-36.159,-65.874],[-35.097,-66.025],[-34.022,-66.169],[-32.936,-66.305],[-31.838,-66.434],[-31.773,-66.44]]}},{"type":"Feature","properties":{"boundary_type":"subduction","feature_type":"gpml:SubductionZone","polarity":"Left","overriding_plate_id":77148,"subducting_plate_id":714,"plate_ids":[714,77148],"name":"Hoggar assembly"},"geometry":{"type":"LineString","coordinates":[[-31.773,-66.44],[-30.669,-66.544],[-29.556,-66.639],[-28.435,-66.727],[-27.306,-66.806],[-26.17,-66.877],[-25.028,-66.941]]}},{"type":"Feature","properties":{"boundary_type":"subduction","feature_type":"gpml:SubductionZone","polarity":"Right","overriding_plate_id":98043,"subducting_plate_id":714,"plate_ids":[714,98043],"name":""},"geometry":{"type":"LineString","coordinates":[[-38.749,-50.583],[-39.453,-50.383],[-40.151,-50.178],[-40.843,-49.97],[-41.529,-49.758],[-42.209,-49.541],[-42.882,-49.321],[-43.55,-49.096],[-44.212,-48.868],[-44.867,-48.636],[-45.517,-48.4],[-46.161,-48.161],[-46.798,-47.918],[-47.43,-47.672],[-48.055,-47.422],[-48.675,-47.169],[-49.343,-46.979],[-50.007,-46.784],[-50.666,-46.586],[-51.32,-46.383],[-51.969,-46.177],[-52.613,-45.968],[-53.252,-45.755],[-53.887,-45.538],[-54.516,-45.318],[-55.141,-45.094],[-55.76,-44.868],[-56.375,-44.637],[-56.985,-44.404],[-57.59,-44.167],[-58.19,-43.927],[-58.785,-43.684],[-59.376,-43.438],[-59.962,-43.189],[-60.542,-42.937],[-61.118,-42.682],[-61.69,-42.424],[-62.256,-42.163],[-62.818,-41.9],[-63.376,-41.634],[-63.928,-41.365],[-64.477,-41.093],[-65.02,-40.819],[-65.559,-40.543],[-66.094,-40.264],[-66.624,-39.982],[-67.137,-39.72],[-67.646,-39.456],[-68.151,-39.189],[-68.652,-38.921],[-69.149,-38.65],[-69.643,-38.377],[-70.133,-38.102],[-70.619,-37.825],[-71.102,-37.546],[-71.58,-37.266],[-72.056,-36.983],[-72.528,-36.698],[-72.996,-36.412],[-73.461,-36.123],[-73.922,-35.833],[-74.381,-35.541],[-74.879,-35.298],[-75.374,-35.053],[-75.867,-34.805],[-76.357,-34.556],[-76.843,-34.304],[-77.327,-34.051],[-77.808,-33.796],[-78.286,-33.539],[-78.761,-33.28],[-79.233,-33.02],[-79.702,-32.757],[-80.169,-32.493],[-80.633,-32.227],[-81.094,-31.96],[-81.553,-31.691],[-82.009,-31.42],[-82.462,-31.148],[-82.913,-30.874],[-83.418,-30.656],[-83.921,-30.436],[-84.422,-30.215],[-84.92,-29.991],[-85.416,-29.766],[-85.91,-29.539],[-86.402,-29.31],[-86.892,-29.079],[-87.379,-28.846],[-87.864,-28.612],[-88.347,-28.376],[-88.828,-28.138],[-89.306,-27.899],[-89.783,-27.658],[-90.257,-27.415],[-90.73,-27.171],[-91.2,-26.925],[-91.686,-26.747],[-92.17,-26.567]]}},{"type":"Feature","properties":{"boundary_type":"ridge","feature_type":"gpml:MidOceanRidge","polarity":null,"overriding_plate_id":null,"subducting_plate_id":null,"plate_ids":[801,98043],"name":"Tarim-Lut MOR"},"geometry":{"type":"LineString","coordinates":[[-29.177,-6.539],[-29.114,-6.119],[-29.05,-5.7],[-28.987,-5.28],[-28.924,-4.86],[-28.861,-4.441],[-28.798,-4.021]]}},{"type":"Feature","properties":{"boundary_type":"ridge","feature_type":"gpml:MidOceanRidge","polarity":null,"overriding_plate_id":null,"subducting_plate_id":null,"plate_ids":[580,801],"name":"Tarim-Lut MOR"},"geometry":{"type":"LineString","coordinates":[[-28.798,-4.021],[-28.725,-3.534],[-28.653,-3.046],[-28.58,-2.559],[-28.507,-2.072],[-28.434,-1.584],[-28.362,-1.097],[-28.289,-0.609],[-28.216,-0.122],[-28.144,0.366],[-28.071,0.853],[-27.998,1.341],[-28.304,1.552],[-28.609,1.764],[-28.915,1.975],[-28.857,2.463],[-28.8,2.95],[-28.742,3.438],[-28.684,3.925],[-28.626,4.412],[-28.569,4.9],[-28.511,5.387],[-28.453,5.875],[-28.394,6.362],[-28.336,6.85],[-28.278,7.337],[-28.219,7.824],[-28.161,8.312],[-28.102,8.799],[-28.043,9.287],[-27.984,9.774],[-27.925,10.261],[-28.315,10.252],[-28.706,10.243],[-29.097,10.232],[-28.998,10.686],[-28.9,11.14],[-28.801,11.593],[-28.701,12.047],[-28.602,12.5],[-28.502,12.954],[-28.401,13.407],[-28.3,13.86],[-28.199,14.314],[-28.098,14.767],[-27.996,15.22],[-27.893,15.673],[-27.79,16.126],[-27.444,16.056],[-27.098,15.984],[-26.988,16.459],[-26.878,16.934],[-26.768,17.409],[-26.657,17.884],[-26.545,18.359],[-26.433,18.834],[-26.32,19.308],[-26.206,19.783],[-26.092,20.257],[-26.548,20.314],[-27.005,20.369],[-26.867,20.851],[-26.728,21.334],[-26.588,21.816],[-26.447,22.298],[-26.306,22.78],[-26.163,23.262],[-26.019,23.744],[-25.874,24.226],[-25.728,24.707],[-25.581,25.189],[-25.433,25.67],[-25.033,25.69],[-24.634,25.709]]}},{"type":"Feature","properties":{"boundary_type":"ridge","feature_type":"gpml:MidOceanRidge","polarity":null,"overriding_plate_id":null,"subducting_plate_id":null,"plate_ids":[3003,98043],"name":"Mirovoi MOR"},"geometry":{"type":"LineString","coordinates":[[-93.125,-16.164],[-93.1,-16.658],[-93.074,-17.152],[-93.048,-17.646],[-93.022,-18.139],[-92.996,-18.633],[-92.97,-19.127],[-92.944,-19.621],[-92.918,-20.115],[-92.891,-20.609],[-92.864,-21.103],[-92.837,-21.597],[-92.81,-22.091],[-92.783,-22.584],[-92.755,-23.078],[-92.727,-23.572],[-92.699,-24.066],[-92.671,-24.56],[-92.643,-25.054],[-92.614,-25.548],[-92.585,-26.041],[-92.556,-26.535]]}},{"type":"Feature","properties":{"boundary_type":"ridge","feature_type":"gpml:MidOceanRidge","polarity":null,"overriding_plate_id":null,"subducting_plate_id":null,"plate_ids":[701,801],"name":"Aus-Azania MoR"},"geometry":{"type":"LineString","coordinates":[[66.459,-12.516],[66.173,-12.116],[65.888,-11.717],[65.605,-11.317],[65.322,-10.916],[65.039,-10.516],[64.758,-10.115],[64.477,-9.714],[64.197,-9.313],[63.917,-8.911],[63.638,-8.51],[63.924,-8.277],[64.209,-8.045],[63.933,-7.653],[63.658,-7.261],[63.384,-6.87],[63.11,-6.477],[62.836,-6.085],[62.563,-5.693],[62.29,-5.301]]}},{"type":"Feature","properties":{"boundary_type":"ridge","feature_type":"gpml:MidOceanRidge","polarity":null,"overriding_plate_id":null,"subducting_plate_id":null,"plate_ids":[801,5032],"name":"Aus-Azania MoR"},"geometry":{"type":"LineString","coordinates":[[62.29,-5.301],[62.068,-4.98],[61.846,-4.66],[61.624,-4.339]]}},{"type":"Feature","properties":{"boundary_type":"ridge","feature_type":"gpml:MidOceanRidge","polarity":null,"overriding_plate_id":null,"subducting_plate_id":null,"plate_ids":[801,5032],"name":"Mawson sea?"},"geometry":{"type":"LineString","coordinates":[[59.124,-5.793],[58.898,-5.402],[58.673,-5.01],[58.448,-4.619],[58.223,-4.227],[57.999,-3.836],[57.775,-3.444],[57.55,-3.052],[57.326,-2.66],[57.103,-2.268],[56.774,-2.457],[56.445,-2.646],[56.116,-2.835],[55.787,-3.024],[55.496,-2.629],[55.206,-2.235],[54.915,-1.84],[54.625,-1.446],[54.335,-1.051],[54.044,-0.656],[53.754,-0.262],[53.464,0.133],[53.174,0.528],[52.884,0.922],[52.594,1.317],[52.303,1.712],[52.013,2.106],[51.722,2.501],[51.431,2.895],[51.141,3.289],[50.849,3.684],[50.558,4.078],[50.284,3.877],[50.011,3.677],[49.737,3.476],[49.527,3.747],[49.317,4.018],[49.107,4.289]]}},{"type":"Feature","properties":{"boundary_type":"ridge","feature_type":"gpml:MidOceanRidge","polarity":null,"overriding_plate_id":null,"subducting_plate_id":null,"plate_ids":[3003,98044],"name":"MOR of unnamed large oceanic plate"},"geometry":{"type":"LineString","coordinates":[[158.317,26.017],[158.864,25.978],[159.41,25.936],[159.956,25.892],[160.502,25.846],[161.047,25.799],[161.592,25.749],[162.136,25.697],[162.679,25.643],[163.223,25.587],[163.765,25.529],[164.307,25.469],[164.849,25.407],[165.39,25.343],[165.93,25.277],[166.47,25.209],[167.009,25.139],[167.548,25.068],[168.086,24.994],[168.623,24.918],[169.16,24.841],[169.696,24.761],[170.231,24.68],[170.765,24.597],[171.299,24.511],[171.832,24.424],[172.365,24.335],[172.896,24.245],[173.427,24.152],[173.957,24.058],[173.971,24.511],[173.985,24.964],[173.998,25.417],[174.012,25.87],[174.556,25.8],[175.098,25.728],[175.64,25.654],[176.182,25.578],[176.722,25.501],[177.262,25.421],[177.802,25.339],[178.34,25.255],[178.878,25.17],[179.415,25.082],[179.951,24.992],[-179.513,24.901],[-178.979,24.807],[-178.445,24.712],[-177.912,24.615],[-177.38,24.516],[-176.848,24.415],[-176.318,24.312],[-175.788,24.207],[-175.26,24.101],[-174.732,23.993],[-174.205,23.883],[-173.679,23.771],[-173.154,23.657],[-172.629,23.542],[-172.106,23.425],[-171.584,23.306],[-171.062,23.185],[-170.542,23.063],[-170.022,22.939],[-169.504,22.813],[-168.986,22.686],[-168.47,22.556],[-167.954,22.426],[-167.439,22.293],[-166.926,22.159],[-166.413,22.024],[-165.901,21.887],[-165.391,21.748],[-164.881,21.608],[-164.372,21.466],[-163.864,21.322],[-163.358,21.178],[-162.852,21.031],[-162.347,20.883],[-161.843,20.734],[-161.34,20.583],[-160.839,20.431],[-160.338,20.277],[-159.838,20.122],[-159.339,19.965],[-158.842,19.807],[-158.345,19.648],[-157.849,19.487],[-157.354,19.325],[-156.86,19.162],[-156.367,18.997],[-155.876,18.831],[-155.816,19.269],[-155.757,19.708],[-155.697,20.146],[-155.636,20.584],[-155.576,21.022],[-155.082,20.851],[-154.588,20.679],[-154.096,20.506],[-153.606,20.331],[-153.116,20.155],[-152.627,19.978],[-152.14,19.799],[-151.653,19.619],[-151.168,19.438],[-150.684,19.255],[-150.2,19.071],[-149.718,18.886],[-149.237,18.699],[-148.757,18.512],[-148.278,18.323],[-147.8,18.133],[-147.324,17.942],[-146.848,17.749],[-146.373,17.556],[-145.899,17.361],[-145.426,17.165],[-144.955,16.968],[-144.484,16.771],[-144.014,16.571],[-143.545,16.371],[-143.078,16.17],[-142.611,15.968],[-142.145,15.765],[-141.68,15.561],[-141.216,15.356],[-140.752,15.15],[-140.29,14.943],[-139.829,14.735],[-139.368,14.526],[-138.909,14.316],[-138.45,14.106],[-137.992,13.894],[-137.535,13.682],[-137.079,13.469],[-136.623,13.255],[-136.168,13.04],[-135.715,12.824],[-135.262,12.608],[-134.809,12.391],[-134.358,12.173],[-133.907,11.954],[-133.457,11.735],[-133.007,11.515],[-132.559,11.294],[-132.111,11.073],[-131.873,11.49],[-131.634,11.907],[-131.395,12.324],[-131.155,12.741],[-130.914,13.157],[-130.672,13.574],[-130.429,13.99],[-130.186,14.405],[-129.941,14.821],[-129.696,15.236],[-129.449,15.651],[-129.202,16.066],[-128.954,16.48],[-128.704,16.894],[-128.454,17.308],[-128.202,17.722],[-127.752,17.472],[-127.303,17.221],[-126.855,16.969],[-126.408,16.716],[-125.963,16.462],[-125.518,16.207],[-125.075,15.951],[-124.633,15.695],[-124.192,15.437],[-123.752,15.179],[-123.314,14.92],[-122.876,14.659],[-122.439,14.399],[-122.004,14.137],[-121.569,13.874],[-121.135,13.611],[-120.703,13.347],[-120.271,13.082],[-119.84,12.817],[-119.41,12.551],[-118.981,12.284],[-118.553,12.016],[-118.126,11.748],[-117.699,11.479],[-117.274,11.21],[-116.849,10.94],[-116.425,10.669],[-116.001,10.398],[-115.579,10.126],[-115.157,9.854],[-114.736,9.581],[-114.315,9.308],[-113.895,9.034],[-113.476,8.76],[-113.058,8.485],[-112.64,8.21],[-112.222,7.935],[-111.805,7.658],[-111.389,7.382],[-110.973,7.105],[-110.558,6.828],[-110.143,6.551],[-109.729,6.273],[-109.315,5.995],[-108.901,5.716],[-108.488,5.437],[-108.076,5.158],[-107.663,4.879],[-107.251,4.599],[-106.84,4.319],[-106.428,4.039],[-106.017,3.759],[-105.606,3.479],[-105.196,3.198],[-104.785,2.917],[-105.015,2.487],[-105.244,2.056],[-105.473,1.626],[-105.702,1.195],[-105.931,0.765],[-106.16,0.334],[-106.389,-0.096],[-106.618,-0.527],[-106.209,-0.812],[-105.8,-1.098],[-105.392,-1.384],[-104.983,-1.669],[-104.574,-1.954],[-104.165,-2.24],[-103.755,-2.525],[-103.346,-2.81],[-102.936,-3.095],[-102.526,-3.379],[-102.116,-3.664],[-101.706,-3.948],[-101.295,-4.233],[-100.884,-4.517],[-100.473,-4.8],[-100.061,-5.084],[-99.649,-5.367],[-99.237,-5.65],[-98.824,-5.933],[-98.411,-6.215],[-97.998,-6.497],[-97.583,-6.779],[-97.169,-7.06],[-96.754,-7.341],[-96.338,-7.621],[-95.922,-7.902],[-95.505,-8.181],[-95.088,-8.461],[-94.67,-8.74],[-94.251,-9.018],[-93.832,-9.296],[-93.412,-9.574],[-92.992,-9.851],[-92.571,-10.127],[-92.149,-10.403],[-91.726,-10.678],[-91.303,-10.953],[-90.878,-11.227],[-90.453,-11.501],[-90.027,-11.774],[-89.601,-12.046],[-89.173,-12.318],[-88.744,-12.589],[-88.315,-12.859],[-87.885,-13.129],[-87.453,-13.398],[-87.021,-13.666]]}},{"type":"Feature","properties":{"boundary_type":"ridge","feature_type":"gpml:MidOceanRidge","polarity":null,"overriding_plate_id":null,"subducting_plate_id":null,"plate_ids":[3003,98043],"name":"MOR of unnamed large oceanic plate"},"geometry":{"type":"LineString","coordinates":[[-93.125,-16.164],[-92.65,-15.978],[-92.177,-15.79],[-91.704,-15.602],[-91.232,-15.413],[-90.761,-15.223],[-90.29,-15.031],[-89.821,-14.839],[-89.352,-14.646],[-88.884,-14.452],[-88.417,-14.257],[-87.951,-14.061],[-87.486,-13.864],[-87.021,-13.666]]}},{"type":"Feature","properties":{"boundary_type":"ridge","feature_type":"gpml:MidOceanRidge","polarity":null,"overriding_plate_id":null,"subducting_plate_id":null,"plate_ids":[98043,98044],"name":"MOR of unnamed large oceanic plate"},"geometry":{"type":"LineString","coordinates":[[-87.021,-13.666],[-86.557,-13.468],[-86.094,-13.268],[-85.632,-13.068],[-85.17,-12.867],[-84.709,-12.665],[-84.249,-12.462],[-83.79,-12.259],[-83.331,-12.054],[-82.873,-11.849],[-82.416,-11.644],[-81.959,-11.437],[-81.503,-11.23],[-81.048,-11.022],[-80.594,-10.814],[-80.14,-10.605],[-79.686,-10.395],[-79.233,-10.184],[-78.781,-9.973],[-78.33,-9.761],[-77.879,-9.549],[-77.428,-9.336],[-76.978,-9.123],[-76.529,-8.909],[-76.08,-8.694],[-75.632,-8.479],[-75.184,-8.264],[-74.736,-8.048],[-74.29,-7.831],[-73.843,-7.614],[-73.566,-7.955],[-73.287,-8.296],[-73.009,-8.637],[-72.73,-8.977],[-72.45,-9.318],[-71.968,-9.192],[-71.487,-9.065],[-71.006,-8.937],[-70.525,-8.809],[-70.045,-8.68],[-69.565,-8.551],[-69.085,-8.421],[-68.606,-8.29],[-68.127,-8.159],[-67.648,-8.027],[-67.17,-7.895],[-66.692,-7.762],[-66.214,-7.629],[-65.737,-7.495],[-65.259,-7.361],[-64.783,-7.226],[-64.306,-7.09],[-63.83,-6.955],[-63.354,-6.818],[-62.878,-6.681],[-62.402,-6.544],[-61.927,-6.407],[-61.452,-6.268],[-60.977,-6.13],[-60.503,-5.991],[-60.028,-5.851],[-59.554,-5.712],[-59.081,-5.572],[-58.607,-5.431],[-58.134,-5.29],[-57.661,-5.149],[-57.188,-5.007],[-56.715,-4.865],[-56.242,-4.723],[-55.77,-4.58],[-55.298,-4.437],[-54.826,-4.294],[-54.354,-4.151],[-53.883,-4.007],[-53.411,-3.863],[-52.94,-3.718],[-52.469,-3.574],[-51.998,-3.429],[-51.75,-3.839],[-51.501,-4.249],[-51.252,-4.658],[-51.003,-5.068],[-50.754,-5.477],[-50.504,-5.887],[-50.045,-5.708],[-49.586,-5.528],[-49.127,-5.348],[-48.669,-5.168],[-48.21,-4.988],[-47.752,-4.807],[-47.295,-4.626],[-46.837,-4.445],[-46.38,-4.263],[-45.923,-4.081],[-45.466,-3.899],[-45.01,-3.716],[-44.553,-3.534],[-44.097,-3.351],[-43.641,-3.168],[-43.185,-2.984],[-42.729,-2.801],[-42.273,-2.617],[-41.818,-2.433],[-41.363,-2.25],[-40.907,-2.065],[-40.452,-1.881],[-39.997,-1.697],[-39.542,-1.512],[-39.087,-1.328],[-38.632,-1.143],[-38.178,-0.958],[-37.723,-0.774]]}},{"type":"Feature","properties":{"boundary_type":"ridge","feature_type":"gpml:MidOceanRidge","polarity":null,"overriding_plate_id":null,"subducting_plate_id":null,"plate_ids":[101,701],"name":"Laurentia-Kalahari"},"geometry":{"type":"LineString","coordinates":[[97.588,-29.832],[97.141,-29.891],[96.694,-29.949],[96.717,-29.456],[96.739,-28.964],[96.761,-28.471],[96.783,-27.979],[96.805,-27.486],[96.826,-26.994],[96.848,-26.501],[96.869,-26.009],[96.89,-25.516],[96.911,-25.024],[96.931,-24.531],[96.952,-24.039],[96.972,-23.546],[96.992,-23.053],[97.012,-22.561],[97.032,-22.068],[97.052,-21.576],[97.071,-21.083],[97.091,-20.591],[96.739,-20.677],[96.386,-20.764],[96.4,-20.292],[96.413,-19.82],[96.427,-19.348],[96.44,-18.876],[96.454,-18.404],[96.467,-17.932],[96.48,-17.461],[96.493,-16.989],[96.506,-16.517],[96.519,-16.045],[96.532,-15.573],[96.545,-15.101],[96.558,-14.629],[96.571,-14.157],[96.169,-14.121],[95.768,-14.084],[95.366,-14.046],[95.389,-13.566],[95.411,-13.085],[95.433,-12.605],[95.456,-12.125],[95.478,-11.644],[95.029,-11.615],[94.579,-11.585],[94.611,-11.103],[94.643,-10.62],[94.675,-10.138],[94.707,-9.656],[94.739,-9.173],[94.77,-8.691],[94.802,-8.208],[94.833,-7.726],[94.864,-7.244],[94.896,-6.761],[94.927,-6.279],[94.958,-5.796],[94.989,-5.314],[95.02,-4.832],[95.051,-4.349],[95.082,-3.867],[95.113,-3.384],[95.144,-2.902],[95.175,-2.42],[95.206,-1.937],[95.236,-1.455],[95.267,-0.972],[95.298,-0.49],[95.329,-0.008],[95.36,0.475]]}},{"type":"Feature","properties":{"boundary_type":"ridge","feature_type":"gpml:MidOceanRidge","polarity":null,"overriding_plate_id":null,"subducting_plate_id":null,"plate_ids":[701,801],"name":"Laurentia-Kalahari"},"geometry":{"type":"LineString","coordinates":[[95.36,0.475],[95.391,0.974],[95.423,1.473],[95.455,1.972],[95.487,2.471],[95.001,2.487],[94.514,2.504],[94.028,2.52],[93.541,2.536],[93.055,2.552],[92.568,2.567],[92.082,2.583],[91.595,2.598],[91.109,2.613],[90.622,2.628],[90.136,2.643],[89.649,2.657],[89.163,2.671],[89.296,3.04],[89.43,3.408],[89.564,3.776],[89.178,3.829],[88.791,3.882]]}},{"type":"Feature","properties":{"boundary_type":"ridge","feature_type":"gpml:MidOceanRidge","polarity":null,"overriding_plate_id":null,"subducting_plate_id":null,"plate_ids":[101,801],"name":"Laur rift unknown?"},"geometry":{"type":"LineString","coordinates":[[95.36,0.475],[95.797,0.447],[96.234,0.419],[96.67,0.391],[97.107,0.363]]}},{"type":"Feature","properties":{"boundary_type":"ridge","feature_type":"gpml:MidOceanRidge","polarity":null,"overriding_plate_id":null,"subducting_plate_id":null,"plate_ids":[101,98046],"name":"Laur rift unknown?"},"geometry":{"type":"LineString","coordinates":[[97.107,0.363],[97.538,0.336],[97.969,0.308],[98.4,0.281],[98.831,0.253],[98.925,0.72],[99.019,1.187],[99.112,1.654],[99.206,2.121],[99.3,2.588],[99.394,3.055],[99.804,3.22],[100.213,3.385],[100.623,3.55],[101.032,3.715],[101.442,3.879],[101.852,4.043],[102.262,4.208],[102.673,4.371],[102.786,4.775],[102.899,5.178],[103.013,5.582],[103.126,5.985],[103.24,6.389],[103.354,6.792],[103.853,6.84],[104.351,6.887],[104.85,6.933],[105.349,6.979],[105.848,7.025],[106.347,7.07],[106.846,7.114],[107.345,7.158],[107.845,7.202],[108.344,7.245],[108.844,7.287],[109.343,7.329],[109.843,7.37],[110.343,7.411],[110.843,7.451],[111.343,7.49],[111.843,7.529],[112.343,7.568],[112.843,7.606],[113.343,7.643],[113.844,7.68],[114.344,7.716],[114.845,7.751],[115.346,7.786],[115.846,7.821],[116.347,7.854],[116.848,7.888],[117.349,7.92],[117.85,7.952],[118.352,7.983],[118.853,8.014],[119.354,8.044],[119.856,8.074],[120.357,8.103],[120.859,8.131],[121.36,8.159],[121.862,8.186],[122.364,8.213],[122.865,8.239],[123.367,8.264],[123.869,8.288],[123.845,8.715],[123.821,9.141],[123.796,9.568],[123.772,9.994],[123.747,10.421],[124.243,10.404],[124.739,10.387],[125.235,10.37],[125.731,10.351],[126.226,10.332],[126.722,10.311],[127.217,10.291],[127.713,10.269],[128.208,10.247],[128.704,10.223],[129.199,10.2],[129.694,10.175],[130.189,10.15],[130.684,10.123],[131.179,10.097],[131.674,10.069],[132.169,10.041],[132.663,10.012],[133.158,9.982],[133.653,9.951],[134.147,9.92],[134.641,9.888],[135.135,9.856],[135.63,9.822],[136.124,9.788],[136.618,9.753],[137.111,9.718],[137.605,9.681],[138.099,9.644],[138.592,9.607],[139.086,9.568],[139.579,9.529],[140.072,9.49],[140.194,9.956],[140.316,10.422],[140.439,10.888],[140.562,11.354],[141.066,11.405],[141.57,11.455],[142.075,11.504],[142.579,11.552],[143.084,11.599],[143.589,11.646],[144.094,11.691],[144.6,11.736],[145.105,11.78],[145.611,11.822],[146.116,11.864],[146.622,11.905],[147.128,11.945],[147.635,11.985],[148.141,12.023],[148.647,12.06],[149.154,12.097],[149.661,12.132],[150.168,12.167],[150.675,12.201],[151.182,12.234],[151.689,12.265],[152.197,12.296],[152.704,12.326],[153.212,12.356],[153.72,12.384],[154.227,12.411],[154.235,12.894],[154.242,13.377],[154.249,13.861],[154.256,14.344],[154.264,14.827],[154.271,15.311],[154.278,15.794],[154.286,16.277],[154.293,16.761],[154.301,17.244],[154.308,17.727],[154.775,17.724],[155.243,17.719],[155.71,17.713],[156.178,17.706],[156.645,17.698],[157.112,17.689],[157.58,17.679]]}},{"type":"Feature","properties":{"boundary_type":"ridge","feature_type":"gpml:MidOceanRidge","polarity":null,"overriding_plate_id":null,"subducting_plate_id":null,"plate_ids":[801,98044],"name":"Aus rift unknown?"},"geometry":{"type":"LineString","coordinates":[[90.849,68.847],[90.96,68.356],[91.067,67.865],[91.169,67.374],[91.267,66.883],[91.361,66.392],[91.452,65.901],[91.539,65.409],[91.623,64.918],[91.704,64.427],[91.782,63.935],[91.858,63.444],[91.931,62.952],[92.001,62.461],[92.069,61.969],[92.135,61.478],[92.199,60.986],[92.261,60.494],[92.321,60.003],[92.38,59.511],[92.437,59.019],[92.492,58.528],[92.545,58.036],[92.598,57.544],[92.648,57.052],[92.698,56.56],[92.746,56.068],[92.793,55.576],[92.839,55.085],[92.883,54.593],[92.927,54.101],[92.97,53.609],[93.011,53.117],[93.052,52.625],[93.092,52.133],[93.131,51.641],[93.169,51.149],[93.206,50.657],[92.561,50.403],[91.924,50.146],[91.293,49.885],[90.669,49.621],[90.052,49.353],[89.441,49.082],[88.837,48.808],[88.24,48.531],[88.383,48.054],[88.524,47.577],[88.662,47.1],[88.797,46.622],[88.93,46.144],[89.061,45.666],[89.19,45.188],[89.316,44.71],[89.441,44.232],[89.563,43.753],[89.684,43.275]]}},{"type":"Feature","properties":{"boundary_type":"ridge","feature_type":"gpml:MidOceanRidge","polarity":null,"overriding_plate_id":null,"subducting_plate_id":null,"plate_ids":[801,98046],"name":"Aus rift unknown?"},"geometry":{"type":"LineString","coordinates":[[89.684,43.275],[89.798,42.815],[89.91,42.355],[90.02,41.895],[90.129,41.435],[90.237,40.974],[90.343,40.514],[90.448,40.053],[90.973,39.896],[91.496,39.736],[91.523,39.246],[91.55,38.756],[91.577,38.265],[91.603,37.775],[91.629,37.284],[91.655,36.794],[91.68,36.304],[91.705,35.813],[91.729,35.323],[91.754,34.832],[91.778,34.342],[91.801,33.852],[91.825,33.361],[91.848,32.871],[91.871,32.38],[91.894,31.89],[91.916,31.399],[91.938,30.909],[91.96,30.418],[91.982,29.928],[92.004,29.437],[92.025,28.947],[92.046,28.456],[92.067,27.966],[92.088,27.476],[92.109,26.985],[92.129,26.495],[92.149,26.004],[92.169,25.514],[92.189,25.023],[92.209,24.533],[92.229,24.042],[92.248,23.552],[92.267,23.061],[92.287,22.57],[92.306,22.08],[92.324,21.589],[92.343,21.099],[92.362,20.608],[92.38,20.118],[92.399,19.627],[92.417,19.137],[92.921,19.113],[93.425,19.087],[93.929,19.06],[94.433,19.032],[94.936,19.002],[95.439,18.971],[95.943,18.939],[96.445,18.905],[96.948,18.87],[97.451,18.834],[97.953,18.796],[98.455,18.757],[98.957,18.716],[98.903,18.22],[98.85,17.725],[98.797,17.229],[98.744,16.733],[98.692,16.237],[98.64,15.741],[98.588,15.245],[98.536,14.749],[98.485,14.253],[98.434,13.757],[98.383,13.261],[98.332,12.765],[98.282,12.269],[98.231,11.773],[98.181,11.277],[98.131,10.781],[98.081,10.285],[98.032,9.789],[97.982,9.293],[97.933,8.797],[97.884,8.301],[97.834,7.805],[97.785,7.309],[97.737,6.813],[97.688,6.317],[97.639,5.821],[97.59,5.325],[97.542,4.828],[97.493,4.332],[97.445,3.836],[97.397,3.34],[97.348,2.844],[97.3,2.348],[97.252,1.852],[97.204,1.356],[97.156,0.86],[97.107,0.363]]}},{"type":"Feature","properties":{"boundary_type":"ridge","feature_type":"gpml:MidOceanRidge","polarity":null,"overriding_plate_id":null,"subducting_plate_id":null,"plate_ids":[401,3003],"name":"siberia-Timan small ridge"},"geometry":{"type":"LineString","coordinates":[[-163.961,-19.735],[-164.255,-20.068],[-164.551,-20.4],[-164.848,-20.732],[-165.146,-21.064],[-165.446,-21.395],[-165.747,-21.726],[-166.049,-22.056],[-166.382,-21.789],[-166.714,-21.522],[-167.044,-21.254]]}},{"type":"Feature","properties":{"boundary_type":"ridge","feature_type":"gpml:MidOceanRidge","polarity":null,"overriding_plate_id":null,"subducting_plate_id":null,"plate_ids":[101,401],"name":"siberia-Timan small ridge"},"geometry":{"type":"LineString","coordinates":[[-167.044,-21.254],[-167.445,-20.927],[-167.843,-20.6],[-168.24,-20.271],[-168.636,-19.942],[-169.029,-19.612],[-169.422,-19.281],[-169.736,-19.623],[-170.052,-19.965],[-170.369,-20.306],[-170.687,-20.646],[-171.007,-20.986],[-171.328,-21.326],[-171.651,-21.664],[-171.975,-22.002],[-172.301,-22.34],[-172.629,-22.677],[-172.994,-22.362],[-173.358,-22.047],[-173.721,-21.731],[-174.082,-21.414],[-174.441,-21.096],[-174.847,-21.414],[-175.255,-21.731],[-175.665,-22.046],[-176.077,-22.361],[-176.49,-22.675],[-176.906,-22.988],[-177.323,-23.299],[-177.742,-23.61],[-178.163,-23.919],[-178.587,-24.228],[-179.012,-24.535],[-179.439,-24.841],[-179.869,-25.145],[179.699,-25.449],[179.266,-25.751],[178.83,-26.052],[178.391,-26.351],[177.951,-26.649],[177.508,-26.946],[177.063,-27.241],[176.615,-27.535],[176.165,-27.828]]}},{"type":"Feature","properties":{"boundary_type":"ridge","feature_type":"gpml:MidOceanRidge","polarity":null,"overriding_plate_id":null,"subducting_plate_id":null,"plate_ids":[101,714],"name":"Amazonia-WAC ridge"},"geometry":{"type":"LineString","coordinates":[[99.447,-64.063],[100.551,-63.973],[101.648,-63.875],[102.736,-63.768],[103.817,-63.653],[104.888,-63.53],[105.949,-63.4],[107.001,-63.261],[108.042,-63.115],[109.073,-62.961],[110.093,-62.8],[111.101,-62.631],[112.098,-62.456],[113.082,-62.273],[114.123,-62.313],[115.166,-62.346],[116.212,-62.37],[117.258,-62.387],[118.306,-62.396],[119.354,-62.397],[120.402,-62.39],[121.449,-62.375],[122.494,-62.353],[123.538,-62.322],[124.58,-62.284],[125.618,-62.238],[126.653,-62.184],[127.684,-62.123],[128.711,-62.054],[129.733,-61.977],[130.749,-61.893],[131.76,-61.801],[132.764,-61.702],[133.762,-61.596],[134.753,-61.482],[135.674,-61.558],[136.599,-61.627],[137.528,-61.689],[138.461,-61.746],[139.398,-61.796],[140.337,-61.839],[141.278,-61.877],[141.508,-61.482],[141.732,-61.088],[141.951,-60.693],[142.889,-60.805],[143.832,-60.912],[144.782,-61.011],[145.738,-61.104],[146.699,-61.19],[147.665,-61.269],[148.636,-61.342],[149.611,-61.407],[150.59,-61.465],[151.572,-61.517],[152.558,-61.561],[153.546,-61.598],[154.536,-61.628],[155.527,-61.651],[156.521,-61.684],[157.516,-61.709],[158.513,-61.727],[159.511,-61.738],[160.509,-61.742],[161.507,-61.739],[162.504,-61.728],[163.501,-61.71],[164.497,-61.685],[165.49,-61.652],[166.481,-61.613],[167.47,-61.566],[168.455,-61.512],[169.436,-61.451],[170.414,-61.383],[171.387,-61.308],[172.355,-61.226],[172.353,-60.798],[172.351,-60.37],[172.349,-59.942],[173.285,-59.944],[174.221,-59.939],[175.157,-59.928],[176.091,-59.91],[177.025,-59.886],[177.957,-59.855],[178.887,-59.817],[179.815,-59.773],[-179.259,-59.722],[-178.337,-59.665],[-177.418,-59.601],[-176.503,-59.531],[-175.591,-59.455],[-174.684,-59.372],[-173.773,-59.267],[-172.868,-59.156],[-171.968,-59.038],[-171.075,-58.914],[-170.188,-58.784],[-169.308,-58.648],[-168.435,-58.506],[-167.57,-58.358],[-166.711,-58.204],[-165.861,-58.045],[-165.018,-57.88],[-164.182,-57.709],[-163.355,-57.533],[-162.536,-57.352],[-161.725,-57.165],[-160.922,-56.974],[-160.127,-56.777],[-159.341,-56.575],[-158.563,-56.368],[-157.794,-56.156],[-158.216,-55.731],[-158.63,-55.305],[-159.034,-54.877],[-159.43,-54.448],[-159.817,-54.017],[-160.197,-53.586],[-160.569,-53.153],[-160.933,-52.719],[-161.29,-52.284],[-161.641,-51.848],[-161.984,-51.411],[-162.321,-50.972],[-162.652,-50.533],[-162.977,-50.093],[-163.296,-49.653],[-163.609,-49.211],[-163.916,-48.768],[-164.218,-48.325],[-164.515,-47.881],[-164.807,-47.436],[-165.094,-46.99],[-165.376,-46.544],[-165.654,-46.097],[-165.927,-45.649],[-166.196,-45.201],[-166.46,-44.752],[-165.88,-44.542],[-165.305,-44.328],[-164.734,-44.112],[-164.166,-43.893],[-163.603,-43.672],[-163.938,-43.257],[-164.269,-42.842],[-164.595,-42.426],[-164.917,-42.008],[-165.234,-41.59],[-165.547,-41.171],[-165.857,-40.752],[-166.162,-40.331],[-166.464,-39.91],[-166.762,-39.488],[-167.057,-39.065],[-167.348,-38.641],[-167.635,-38.217],[-167.919,-37.792],[-168.2,-37.366],[-168.478,-36.939],[-168.753,-36.512],[-168.187,-36.333],[-167.624,-36.151],[-167.064,-35.966],[-166.506,-35.778],[-165.951,-35.588],[-165.398,-35.396],[-164.848,-35.201],[-164.301,-35.003],[-163.756,-34.803],[-163.214,-34.601],[-162.675,-34.396],[-162.139,-34.189],[-161.605,-33.979],[-161.073,-33.768],[-160.544,-33.554],[-160.018,-33.337],[-159.495,-33.119],[-158.974,-32.898],[-158.456,-32.675],[-157.94,-32.451],[-157.427,-32.224],[-156.917,-31.994],[-156.409,-31.763],[-155.903,-31.53],[-155.4,-31.295],[-154.9,-31.058],[-154.402,-30.819],[-153.907,-30.578]]}},{"type":"Feature","properties":{"boundary_type":"ridge","feature_type":"gpml:MidOceanRidge","polarity":null,"overriding_plate_id":null,"subducting_plate_id":null,"plate_ids":[101,714],"name":"Parana-Rodinia ridge"},"geometry":{"type":"LineString","coordinates":[[99.447,-64.063],[99.137,-63.583],[98.837,-63.102],[98.547,-62.621],[98.266,-62.139],[97.994,-61.657],[97.73,-61.174],[97.475,-60.691],[97.227,-60.207],[96.986,-59.722],[96.752,-59.238],[96.524,-58.752],[96.303,-58.267],[96.088,-57.781],[95.878,-57.295],[95.674,-56.808],[95.475,-56.321],[95.281,-55.834],[95.092,-55.346]]}},{"type":"Feature","properties":{"boundary_type":"ridge","feature_type":"gpml:MidOceanRidge","polarity":null,"overriding_plate_id":null,"subducting_plate_id":null,"plate_ids":[101,22053],"name":"Parana-Rodinia ridge"},"geometry":{"type":"LineString","coordinates":[[95.092,-55.346],[94.919,-54.888],[94.75,-54.43],[94.584,-53.972],[94.422,-53.513],[94.264,-53.055],[94.109,-52.596],[93.957,-52.136],[93.808,-51.677],[93.662,-51.217],[93.519,-50.758],[93.379,-50.298],[93.241,-49.837],[93.106,-49.377],[93.821,-49.248],[94.533,-49.114],[95.241,-48.975],[95.129,-48.518],[95.02,-48.061],[94.912,-47.604],[94.807,-47.146],[94.703,-46.689],[94.601,-46.231],[94.501,-45.774],[94.402,-45.316],[94.305,-44.858],[94.209,-44.4],[94.115,-43.942],[94.023,-43.484]]}},{"type":"Feature","properties":{"boundary_type":"ridge","feature_type":"gpml:MidOceanRidge","polarity":null,"overriding_plate_id":null,"subducting_plate_id":null,"plate_ids":[101,701],"name":"Parana-Rodinia ridge"},"geometry":{"type":"LineString","coordinates":[[94.023,-43.484],[93.948,-43.111],[93.875,-42.739],[93.802,-42.366]]}},{"type":"Feature","properties":{"boundary_type":"transform","feature_type":"gpml:Transform","polarity":null,"overriding_plate_id":null,"subducting_plate_id":null,"plate_ids":[701,714],"name":"Transform?"},"geometry":{"type":"LineString","coordinates":[[19.384,-70.644],[19.795,-70.203],[20.188,-69.76],[20.565,-69.317],[20.927,-68.872]]}},{"type":"Feature","properties":{"boundary_type":"transform","feature_type":"gpml:Transform","polarity":null,"overriding_plate_id":null,"subducting_plate_id":null,"plate_ids":[701,715],"name":"Transform?"},"geometry":{"type":"LineString","coordinates":[[20.927,-68.872],[21.256,-68.451],[21.574,-68.03],[21.833,-67.593],[22.084,-67.157],[22.325,-66.72],[22.558,-66.283],[22.783,-65.845],[23.0,-65.407],[22.851,-64.94],[22.706,-64.472],[22.567,-64.005],[22.432,-63.537],[22.301,-63.07],[22.175,-62.602],[22.052,-62.134],[21.934,-61.666],[21.818,-61.198],[21.672,-60.826]]}},{"type":"Feature","properties":{"boundary_type":"transform","feature_type":"gpml:Transform","polarity":null,"overriding_plate_id":null,"subducting_plate_id":null,"plate_ids":[5031,98043],"name":"transform"},"geometry":{"type":"LineString","coordinates":[[-13.785,-31.078],[-13.722,-30.617],[-13.66,-30.155],[-13.599,-29.693],[-13.538,-29.232],[-13.478,-28.77],[-13.418,-28.308],[-13.359,-27.846],[-13.3,-27.384],[-13.242,-26.922],[-13.184,-26.461],[-13.127,-25.999],[-13.07,-25.537],[-13.013,-25.075],[-12.957,-24.613]]}},{"type":"Feature","properties":{"boundary_type":"transform","feature_type":"gpml:Transform","polarity":null,"overriding_plate_id":null,"subducting_plate_id":null,"plate_ids":[5031,5032],"name":"transform"},"geometry":{"type":"LineString","coordinates":[[8.199,-7.048],[8.292,-7.521],[8.385,-7.994],[8.479,-8.467],[8.573,-8.94],[8.667,-9.413],[8.761,-9.886],[8.855,-10.359],[9.013,-10.828],[9.172,-11.298],[9.331,-11.767],[9.491,-12.236],[9.651,-12.705],[9.812,-13.174],[9.973,-13.643],[10.135,-14.112],[10.298,-14.581],[10.369,-15.066],[10.441,-15.552],[10.512,-16.037],[10.584,-16.523],[10.657,-17.008],[10.73,-17.494],[10.803,-17.979],[10.876,-18.464],[10.95,-18.95],[11.025,-19.435],[11.1,-19.92],[11.175,-20.406],[11.251,-20.891],[11.327,-21.376],[11.404,-21.861],[11.481,-22.346],[11.559,-22.831],[11.638,-23.316],[11.717,-23.801],[11.797,-24.286],[11.877,-24.771],[11.958,-25.256],[12.039,-25.741],[12.121,-26.226],[12.204,-26.71],[12.288,-27.195],[12.372,-27.68],[12.457,-28.164],[12.543,-28.649],[12.63,-29.133],[12.717,-29.617],[12.805,-30.102],[12.895,-30.586],[12.985,-31.07],[13.076,-31.555],[13.168,-32.039]]}},{"type":"Feature","properties":{"boundary_type":"transform","feature_type":"gpml:Transform","polarity":null,"overriding_plate_id":null,"subducting_plate_id":null,"plate_ids":[3003,98044],"name":"transform"},"geometry":{"type":"LineString","coordinates":[[158.317,26.017],[158.215,25.598],[158.114,25.179],[158.014,24.76],[157.914,24.34],[157.814,23.921],[157.716,23.502],[157.618,23.082],[157.615,22.69],[157.612,22.298],[157.609,21.906],[157.607,21.514]]}},{"type":"Feature","properties":{"boundary_type":"transform","feature_type":"gpml:Transform","polarity":null,"overriding_plate_id":null,"subducting_plate_id":null,"plate_ids":[3003,98046],"name":"transform"},"geometry":{"type":"LineString","coordinates":[[157.607,21.514],[157.603,21.035],[157.6,20.555],[157.596,20.076],[157.593,19.597],[157.59,19.117],[157.586,18.638],[157.583,18.159],[157.58,17.679]]}},{"type":"Feature","properties":{"boundary_type":"transform","feature_type":"gpml:Transform","polarity":null,"overriding_plate_id":null,"subducting_plate_id":null,"plate_ids":[101,3003],"name":"transform"},"geometry":{"type":"LineString","coordinates":[[157.58,17.679],[157.576,17.188],[157.573,16.697],[157.57,16.206],[157.566,15.714],[157.563,15.223],[157.56,14.732],[157.556,14.241],[157.553,13.749],[157.55,13.258],[157.547,12.767],[157.543,12.276],[157.54,11.785],[157.537,11.293],[157.534,10.802],[157.585,10.312],[157.635,9.823],[157.685,9.333],[157.736,8.843],[157.786,8.353],[157.836,7.864],[157.885,7.374],[157.935,6.884],[157.985,6.394],[158.034,5.905],[158.084,5.415],[158.133,4.925],[158.182,4.435],[158.232,3.945],[158.281,3.456],[158.373,3.013],[158.465,2.57],[158.558,2.127],[158.65,1.684],[158.742,1.242],[158.834,0.799]]}},{"type":"Feature","properties":{"boundary_type":"transform","feature_type":"gpml:Transform","polarity":null,"overriding_plate_id":null,"subducting_plate_id":null,"plate_ids":[101,401],"name":"transform"},"geometry":{"type":"LineString","coordinates":[[158.834,0.799],[158.928,0.349],[159.021,-0.101],[159.115,-0.551],[159.208,-1.0],[159.302,-1.45],[159.395,-1.9],[159.489,-2.35],[159.583,-2.8],[159.677,-3.249],[159.858,-3.689],[160.04,-4.129],[160.223,-4.569],[160.405,-5.008],[160.588,-5.448],[160.771,-5.887],[160.954,-6.327],[161.138,-6.766],[161.322,-7.206],[161.506,-7.645],[161.69,-8.084],[161.875,-8.523],[162.061,-8.962],[162.247,-9.401],[162.433,-9.84],[162.62,-10.279],[162.807,-10.717],[162.995,-11.156],[163.184,-11.594],[163.373,-12.033],[163.609,-12.45],[163.846,-12.866],[164.083,-13.283],[164.322,-13.699],[164.561,-14.115],[164.801,-14.531],[165.042,-14.946],[165.284,-15.362],[165.527,-15.777],[165.771,-16.191],[166.016,-16.606],[166.262,-17.02],[166.509,-17.434],[166.757,-17.848],[167.006,-18.261],[167.257,-18.674],[167.508,-19.086],[167.838,-19.468],[168.168,-19.849],[168.5,-20.229],[168.834,-20.609],[169.17,-20.988],[169.507,-21.367],[169.846,-21.745],[170.187,-22.122],[170.529,-22.498],[170.874,-22.874],[171.22,-23.249],[171.569,-23.623],[171.919,-23.996],[172.271,-24.369],[172.626,-24.741],[172.982,-25.111],[173.372,-25.455],[173.764,-25.797],[174.158,-26.138],[174.555,-26.479],[174.954,-26.818],[175.355,-27.156],[175.759,-27.492],[176.165,-27.828]]}},{"type":"Feature","properties":{"boundary_type":"transform","feature_type":"gpml:Transform","polarity":null,"overriding_plate_id":null,"subducting_plate_id":null,"plate_ids":[77144,77148],"name":"Hoggar transform"},"geometry":{"type":"LineString","coordinates":[[-27.903,-58.742],[-27.832,-59.112],[-27.759,-59.483],[-27.684,-59.853],[-27.665,-60.255],[-27.645,-60.656],[-27.624,-61.058],[-27.603,-61.459],[-27.727,-61.877],[-27.854,-62.295],[-27.985,-62.712],[-28.12,-63.13],[-28.509,-63.519],[-28.908,-63.906],[-29.318,-64.293],[-29.741,-64.678],[-30.175,-65.062],[-30.558,-65.408],[-30.952,-65.753],[-31.357,-66.097],[-31.773,-66.44]]}},{"type":"Feature","properties":{"boundary_type":"transform","feature_type":"gpml:Transform","polarity":null,"overriding_plate_id":null,"subducting_plate_id":null,"plate_ids":[714,77147],"name":"Iforas granulitic unit transform"},"geometry":{"type":"LineString","coordinates":[[-52.452,-63.057],[-51.659,-62.891],[-50.994,-62.719],[-50.337,-62.544],[-49.744,-62.436]]}},{"type":"Feature","properties":{"boundary_type":"transform","feature_type":"gpml:Transform","polarity":null,"overriding_plate_id":null,"subducting_plate_id":null,"plate_ids":[401,3003],"name":"Siberia transform"},"geometry":{"type":"LineString","coordinates":[[-163.961,-19.735],[-163.461,-19.764],[-162.96,-19.791],[-162.459,-19.818],[-161.959,-19.843],[-161.457,-19.866],[-160.946,-19.736],[-160.435,-19.604],[-159.925,-19.471],[-159.416,-19.337],[-158.908,-19.201],[-158.474,-19.028],[-158.041,-18.855],[-157.61,-18.681],[-157.179,-18.506]]}},{"type":"Feature","properties":{"boundary_type":"transform","feature_type":"gpml:Transform","polarity":null,"overriding_plate_id":null,"subducting_plate_id":null,"plate_ids":[580,801],"name":"Tarim transform"},"geometry":{"type":"LineString","coordinates":[[-24.634,25.709],[-24.433,26.137],[-24.23,26.565],[-24.026,26.993],[-23.82,27.421],[-23.612,27.848],[-23.373,28.256],[-23.132,28.663],[-22.889,29.07],[-22.644,29.477],[-22.397,29.883],[-22.149,30.289],[-21.898,30.695],[-21.43,30.953],[-20.959,31.209],[-20.486,31.464],[-20.01,31.716],[-19.531,31.967]]}},{"type":"Feature","properties":{"boundary_type":"transform","feature_type":"gpml:Transform","polarity":null,"overriding_plate_id":null,"subducting_plate_id":null,"plate_ids":[701,801],"name":"Transform"},"geometry":{"type":"LineString","coordinates":[[66.459,-12.516],[66.806,-12.287],[67.153,-12.059],[67.499,-11.83],[67.844,-11.6],[68.179,-11.265],[68.514,-10.93],[68.847,-10.594],[69.18,-10.258],[69.512,-9.922],[69.843,-9.585],[70.174,-9.248],[70.504,-8.911],[70.833,-8.573],[71.162,-8.235],[71.49,-7.897],[71.818,-7.559],[72.145,-7.22],[72.472,-6.881],[72.798,-6.542],[73.124,-6.203],[73.559,-5.962],[73.993,-5.72],[74.427,-5.478],[74.861,-5.235],[75.295,-4.993],[75.728,-4.75],[76.16,-4.506],[76.593,-4.263],[77.025,-4.019],[77.457,-3.775],[77.889,-3.531],[78.32,-3.286],[78.751,-3.042],[79.182,-2.797],[79.567,-2.503],[79.951,-2.208],[80.335,-1.914],[80.718,-1.619],[81.102,-1.324],[81.486,-1.029],[81.869,-0.735],[82.253,-0.44],[82.636,-0.145],[83.019,0.15],[83.403,0.445],[83.786,0.74],[84.17,1.035],[84.554,1.329],[84.977,1.585],[85.4,1.841],[85.823,2.097],[86.246,2.352],[86.67,2.608],[87.094,2.863],[87.518,3.118],[87.942,3.373],[88.366,3.628],[88.791,3.882]]}},{"type":"Feature","properties":{"boundary_type":"transform","feature_type":"gpml:Transform","polarity":null,"overriding_plate_id":null,"subducting_plate_id":null,"plate_ids":[801,5032],"name":"TOAST-DML compressive(?) transform"},"geometry":{"type":"LineString","coordinates":[[59.124,-5.793],[59.541,-5.552],[59.958,-5.31],[60.375,-5.067],[60.792,-4.825],[61.208,-4.582],[61.624,-4.339]]}},{"type":"Feature","properties":{"boundary_type":"transform","feature_type":"gpml:Transform","polarity":null,"overriding_plate_id":null,"subducting_plate_id":null,"plate_ids":[801,5032],"name":"Mawson sea transform"},"geometry":{"type":"LineString","coordinates":[[12.598,-8.691],[12.894,-8.343],[13.189,-7.995],[13.484,-7.647],[13.778,-7.298],[14.072,-6.95],[14.365,-6.601],[14.658,-6.252],[14.951,-5.903],[15.346,-5.633],[15.741,-5.363],[16.136,-5.092],[16.531,-4.822],[16.925,-4.551],[17.319,-4.28],[17.712,-4.008],[18.106,-3.737],[18.499,-3.465],[18.891,-3.193],[19.284,-2.921],[19.677,-2.649],[20.069,-2.376],[20.461,-2.104],[20.853,-1.831],[21.245,-1.559],[21.637,-1.286],[22.028,-1.013],[22.42,-0.741],[22.895,-0.634],[23.37,-0.528],[23.845,-0.422],[24.32,-0.315],[24.795,-0.209],[25.27,-0.103],[25.745,0.004],[26.22,0.11],[26.695,0.217],[27.17,0.323],[27.645,0.429],[28.12,0.536],[28.595,0.642],[29.07,0.748],[29.545,0.854],[30.02,0.96],[30.495,1.067],[30.969,1.143],[31.443,1.22],[31.917,1.297],[32.391,1.374],[32.865,1.45],[33.339,1.527],[33.813,1.603],[34.288,1.68],[34.762,1.756],[35.236,1.832],[35.71,1.908],[36.185,1.984],[36.659,2.059],[37.133,2.135],[37.608,2.21],[38.082,2.286],[38.557,2.361],[39.031,2.436],[39.506,2.51],[39.981,2.585],[40.46,2.677],[40.94,2.768],[41.42,2.859],[41.899,2.951],[42.379,3.041],[42.859,3.132],[43.339,3.223],[43.819,3.313],[44.3,3.403],[44.78,3.493],[45.26,3.582],[45.741,3.671],[46.221,3.76],[46.702,3.849],[47.183,3.938],[47.663,4.026],[48.144,4.114],[48.625,4.201],[49.107,4.289]]}},{"type":"Feature","properties":{"boundary_type":"transform","feature_type":"gpml:Transform","polarity":null,"overriding_plate_id":null,"subducting_plate_id":null,"plate_ids":[701,5032],"name":"Azania-Kalahari transform"},"geometry":{"type":"LineString","coordinates":[[34.178,-20.613],[34.598,-20.442],[35.017,-20.271],[35.435,-20.098],[35.853,-19.925],[36.269,-19.75],[36.684,-19.575],[37.099,-19.398],[37.593,-19.252],[38.086,-19.104],[38.578,-18.955],[39.069,-18.805],[39.559,-18.653],[40.049,-18.5],[40.537,-18.346],[41.025,-18.191],[41.512,-18.034],[41.998,-17.876],[42.483,-17.717],[42.967,-17.557],[43.45,-17.396],[43.86,-17.148],[44.269,-16.9],[44.677,-16.651],[45.084,-16.401],[45.489,-16.15],[45.894,-15.898],[46.298,-15.646],[46.7,-15.393],[47.145,-15.141],[47.589,-14.887],[48.032,-14.633],[48.474,-14.377],[48.915,-14.121],[49.355,-13.865],[49.794,-13.607],[50.232,-13.349],[50.669,-13.089],[51.105,-12.83],[51.541,-12.569],[51.975,-12.308],[52.412,-12.084],[52.847,-11.86],[53.282,-11.636],[53.717,-11.41],[54.15,-11.184],[54.583,-10.958],[55.015,-10.73],[55.447,-10.503],[55.878,-10.274],[56.308,-10.045],[56.738,-9.816],[57.167,-9.586],[57.596,-9.355],[58.024,-9.124],[58.355,-8.815],[58.686,-8.505],[59.016,-8.195],[59.346,-7.885],[59.675,-7.575],[60.004,-7.264],[60.332,-6.954],[60.66,-6.643],[60.988,-6.331],[61.315,-6.02],[61.64,-5.78],[61.965,-5.541],[62.29,-5.301]]}},{"type":"Feature","properties":{"boundary_type":"transform","feature_type":"gpml:Transform","polarity":null,"overriding_plate_id":null,"subducting_plate_id":null,"plate_ids":[801,98043],"name":"India closure transform"},"geometry":{"type":"LineString","coordinates":[[-29.177,-6.539],[-28.933,-6.881],[-28.688,-7.223],[-28.443,-7.564],[-28.198,-7.906],[-27.952,-8.247],[-27.706,-8.589],[-27.31,-8.828],[-26.912,-9.066],[-26.514,-9.305],[-26.116,-9.543],[-25.717,-9.78],[-25.317,-10.017],[-24.917,-10.253],[-24.516,-10.489],[-24.115,-10.725],[-23.713,-10.96],[-23.31,-11.194],[-22.907,-11.428],[-22.464,-11.637],[-22.021,-11.846],[-21.577,-12.054],[-21.133,-12.261],[-20.688,-12.468],[-20.242,-12.674],[-19.795,-12.879],[-19.348,-13.084],[-18.899,-13.287],[-18.45,-13.49],[-18.001,-13.692],[-17.55,-13.893],[-17.099,-14.094],[-16.647,-14.293],[-16.194,-14.492],[-15.741,-14.69],[-15.406,-14.833],[-15.07,-14.976],[-14.735,-15.119]]}},{"type":"Feature","properties":{"boundary_type":"transform","feature_type":"gpml:Transform","polarity":null,"overriding_plate_id":null,"subducting_plate_id":null,"plate_ids":[801,98044],"name":"Transform"},"geometry":{"type":"LineString","coordinates":[[-33.996,52.145],[-33.386,52.469],[-32.766,52.79],[-32.137,53.107],[-31.5,53.421],[-30.852,53.732],[-30.195,54.039],[-29.529,54.343],[-28.852,54.642],[-28.165,54.938],[-27.469,55.23],[-26.762,55.518],[-26.045,55.802],[-25.317,56.082],[-24.579,56.357],[-23.83,56.628],[-23.07,56.894],[-22.404,57.231],[-21.725,57.563],[-21.034,57.892],[-20.33,58.218],[-19.613,58.539],[-18.883,58.856],[-18.139,59.169],[-17.382,59.478],[-16.611,59.782],[-15.826,60.082],[-15.026,60.376],[-14.212,60.666],[-13.384,60.951],[-12.541,61.231],[-11.682,61.506],[-10.809,61.775],[-9.92,62.038],[-9.016,62.295],[-8.096,62.547],[-7.161,62.792],[-6.211,63.032],[-5.245,63.264],[-4.263,63.49],[-3.469,63.832],[-2.655,64.17],[-1.821,64.503],[-0.966,64.831],[-0.091,65.154],[0.806,65.472],[1.724,65.784],[2.665,66.091],[3.629,66.392],[4.616,66.687],[5.627,66.975],[6.661,67.257],[7.72,67.532],[8.803,67.8],[9.911,68.061],[11.044,68.314],[12.202,68.559],[13.391,68.79],[14.604,69.012],[15.841,69.225],[17.102,69.43],[18.387,69.625],[19.695,69.81],[21.026,69.986],[22.378,70.151],[23.752,70.306],[25.146,70.451],[26.559,70.584],[27.99,70.707],[29.438,70.818],[30.901,70.918],[32.378,71.006],[33.868,71.083],[35.368,71.147],[36.861,71.159],[38.355,71.158],[39.847,71.146],[41.337,71.122],[42.823,71.086],[44.302,71.038],[45.773,70.979],[47.234,70.908],[48.684,70.826],[50.121,70.732],[51.545,70.627],[52.952,70.512],[54.343,70.385],[55.717,70.248],[57.071,70.101],[58.405,69.944],[59.796,69.995],[61.193,70.036],[62.595,70.066],[64.0,70.084],[65.407,70.092],[66.814,70.088],[68.22,70.074],[69.623,70.048],[71.022,70.012],[72.416,69.964],[73.802,69.906],[75.18,69.837],[76.548,69.757],[77.905,69.667],[79.25,69.567],[80.582,69.456],[81.9,69.335],[83.2,69.294],[84.495,69.243],[85.783,69.183],[87.063,69.113],[88.335,69.034],[89.597,68.945],[90.849,68.847]]}},{"type":"Feature","properties":{"boundary_type":"transform","feature_type":"gpml:Transform","polarity":null,"overriding_plate_id":null,"subducting_plate_id":null,"plate_ids":[580,98043],"name":"Transform closing Tarim plate"},"geometry":{"type":"LineString","coordinates":[[-28.798,-4.021],[-29.269,-3.852],[-29.74,-3.683],[-30.211,-3.513],[-30.681,-3.343],[-31.151,-3.173],[-31.622,-3.002],[-32.092,-2.832],[-32.561,-2.661],[-33.031,-2.49],[-33.501,-2.319],[-33.97,-2.148],[-34.44,-1.976],[-34.909,-1.805],[-35.378,-1.633],[-35.847,-1.461],[-36.316,-1.29],[-36.785,-1.118],[-37.254,-0.946],[-37.723,-0.774]]}},{"type":"Feature","properties":{"boundary_type":"transform","feature_type":"gpml:Transform","polarity":null,"overriding_plate_id":null,"subducting_plate_id":null,"plate_ids":[580,98044],"name":"Transform closing Tarim plate"},"geometry":{"type":"LineString","coordinates":[[-37.723,-0.774],[-38.006,-0.67],[-38.246,-0.266],[-38.485,0.137],[-38.725,0.54],[-38.965,0.943],[-39.205,1.346],[-39.445,1.749],[-39.685,2.152],[-39.925,2.555],[-40.166,2.958],[-40.406,3.361],[-40.647,3.764],[-40.888,4.167],[-41.129,4.569],[-41.405,4.971],[-41.682,5.373],[-41.959,5.774],[-42.236,6.175],[-42.514,6.577],[-42.792,6.978],[-43.071,7.378],[-43.35,7.779],[-43.63,8.18],[-43.91,8.58],[-44.191,8.98],[-44.473,9.38],[-44.755,9.78],[-44.858,10.245],[-44.961,10.709],[-45.064,11.174],[-45.168,11.639],[-45.272,12.104],[-45.377,12.569],[-45.482,13.034],[-45.587,13.498],[-45.692,13.963],[-45.799,14.428],[-45.905,14.892],[-46.012,15.357]]}},{"type":"Feature","properties":{"boundary_type":"transform","feature_type":"gpml:Transform","polarity":null,"overriding_plate_id":null,"subducting_plate_id":null,"plate_ids":[580,98044],"name":"Transform closing Tarim plate"},"geometry":{"type":"LineString","coordinates":[[-36.397,26.905],[-36.262,27.303],[-36.127,27.701],[-35.991,28.099],[-35.853,28.496],[-35.516,28.877],[-35.176,29.258],[-34.834,29.637],[-34.489,30.015],[-34.142,30.393],[-33.791,30.769],[-33.438,31.145],[-33.083,31.52],[-32.724,31.894],[-32.362,32.266],[-31.998,32.638],[-31.63,33.009],[-31.26,33.378],[-30.886,33.746],[-30.509,34.114],[-30.128,34.48],[-29.758,34.871],[-29.385,35.261],[-29.008,35.65],[-28.627,36.038],[-28.243,36.424],[-27.854,36.809],[-27.462,37.193],[-27.066,37.576],[-26.665,37.957],[-26.261,38.337],[-25.852,38.716]]}},{"type":"Feature","properties":{"boundary_type":"transform","feature_type":"gpml:Transform","polarity":null,"overriding_plate_id":null,"subducting_plate_id":null,"plate_ids":[715,77148],"name":"Hoggar transform"},"geometry":{"type":"LineString","coordinates":[[-8.521,-58.62],[-8.484,-58.974],[-8.446,-59.328],[-8.407,-59.682],[-8.664,-60.141],[-8.928,-60.599],[-9.2,-61.057],[-9.481,-61.514],[-9.769,-61.97],[-10.066,-62.426],[-10.15,-62.893],[-10.237,-63.36],[-10.326,-63.827],[-10.418,-64.294],[-10.514,-64.761],[-10.613,-65.228],[-10.716,-65.695],[-10.773,-66.176],[-10.833,-66.657],[-10.896,-67.137],[-10.961,-67.618],[-11.028,-68.099],[-11.099,-68.58],[-11.173,-69.06]]}},{"type":"Feature","properties":{"boundary_type":"transform","feature_type":"gpml:Transform","polarity":null,"overriding_plate_id":null,"subducting_plate_id":null,"plate_ids":[701,715],"name":"Congo-SM transform"},"geometry":{"type":"LineString","coordinates":[[13.613,-31.881],[13.677,-32.354],[13.742,-32.827],[13.808,-33.3],[13.874,-33.773],[13.941,-34.246],[14.007,-34.742],[14.073,-35.237],[14.141,-35.732],[14.209,-36.228],[14.278,-36.723],[14.349,-37.218],[14.42,-37.714],[14.492,-38.209],[14.565,-38.704],[14.639,-39.199],[14.714,-39.694],[14.79,-40.189],[14.867,-40.684],[14.946,-41.179],[15.025,-41.674],[15.106,-42.168],[15.188,-42.663],[15.272,-43.158],[15.357,-43.652],[15.443,-44.147],[15.531,-44.641],[15.62,-45.136],[15.711,-45.63],[15.803,-46.124],[15.897,-46.618],[15.993,-47.113],[16.09,-47.607],[16.19,-48.101],[16.291,-48.594],[16.394,-49.088],[16.5,-49.582],[16.608,-50.075],[16.717,-50.569],[16.83,-51.062],[16.944,-51.555],[17.061,-52.049],[17.252,-52.51],[17.447,-52.971],[17.647,-53.432],[17.85,-53.892],[18.059,-54.353],[18.272,-54.812],[18.49,-55.272],[18.712,-55.731],[18.941,-56.189],[19.174,-56.647],[19.414,-57.105],[19.66,-57.562],[19.924,-58.03],[20.196,-58.498],[20.475,-58.965],[20.762,-59.431],[21.057,-59.897],[21.36,-60.362],[21.672,-60.826]]}},{"type":"Feature","properties":{"boundary_type":"transform","feature_type":"gpml:Transform","polarity":null,"overriding_plate_id":null,"subducting_plate_id":null,"plate_ids":[701,22053],"name":"Parana transform"},"geometry":{"type":"LineString","coordinates":[[94.023,-43.484],[93.962,-43.5],[93.359,-43.566],[92.755,-43.628],[92.149,-43.688],[91.543,-43.744],[90.935,-43.797],[90.327,-43.847],[89.717,-43.894]]}},{"type":"Feature","properties":{"boundary_type":"transform","feature_type":"gpml:Transform","polarity":null,"overriding_plate_id":null,"subducting_plate_id":null,"plate_ids":[101,701],"name":"Kalahari-Amazonia transform"},"geometry":{"type":"LineString","coordinates":[[93.802,-42.366],[93.967,-41.91],[94.129,-41.455],[94.289,-40.999],[94.447,-40.543],[94.602,-40.087],[94.756,-39.63],[94.907,-39.174],[95.09,-38.705],[95.27,-38.236],[95.448,-37.767],[95.624,-37.298],[95.798,-36.828],[95.969,-36.358],[96.139,-35.888],[96.306,-35.418],[96.472,-34.947],[96.635,-34.476],[96.797,-34.005],[96.889,-33.542],[96.979,-33.078],[97.069,-32.615],[97.157,-32.151],[97.245,-31.688],[97.332,-31.224],[97.418,-30.76],[97.503,-30.296],[97.588,-29.832]]}},{"type":"Feature","properties":{"boundary_type":"transform","feature_type":"gpml:Transform","polarity":null,"overriding_plate_id":null,"subducting_plate_id":null,"plate_ids":[98044,98046],"name":"Ocean transform"},"geometry":{"type":"LineString","coordinates":[[100.179,47.314],[99.562,47.053],[98.95,46.79],[98.344,46.523],[97.744,46.252],[97.15,45.979],[96.563,45.703],[95.913,45.5],[95.269,45.293],[94.63,45.082],[93.995,44.868],[93.365,44.65],[92.739,44.429],[92.119,44.205],[91.503,43.977],[90.892,43.746],[90.285,43.512],[89.684,43.275]]}},{"type":"Feature","properties":{"boundary_type":"subduction","feature_type":"gpml:SubductionZone","polarity":"Right","overriding_plate_id":714,"subducting_plate_id":3003,"plate_ids":[714,3003],"name":"Avalonia transform"},"geometry":{"type":"LineString","coordinates":[[-148.334,-33.335],[-148.496,-33.604]]}},{"type":"Feature","properties":{"boundary_type":"transform","feature_type":"gpml:Transform","polarity":null,"overriding_plate_id":null,"subducting_plate_id":null,"plate_ids":[714,77147],"name":"Iforas granulitic unit transform"},"geometry":{"type":"LineString","coordinates":[[-61.293,-57.249],[-61.104,-56.775],[-60.92,-56.3],[-60.656,-55.999],[-60.396,-55.697],[-60.141,-55.395]]}},{"type":"Feature","properties":{"boundary_type":"transform","feature_type":"gpml:Transform","polarity":null,"overriding_plate_id":null,"subducting_plate_id":null,"plate_ids":[714,77144],"name":"Iforas granulitic unit transform"},"geometry":{"type":"LineString","coordinates":[[-60.141,-55.395],[-60.07,-55.311]]}},{"type":"Feature","properties":{"boundary_type":"transform","feature_type":"gpml:Transform","polarity":null,"overriding_plate_id":null,"subducting_plate_id":null,"plate_ids":[701,22053],"name":"Goias-Parana transform"},"geometry":{"type":"LineString","coordinates":[[65.376,-58.412],[66.252,-58.573],[67.136,-58.728],[68.028,-58.877],[68.927,-59.02],[69.834,-59.156],[70.748,-59.286],[71.668,-59.41],[72.595,-59.527],[73.529,-59.637],[74.468,-59.741],[75.413,-59.838],[76.364,-59.929],[77.319,-60.012],[78.279,-60.089]]}},{"type":"Feature","properties":{"boundary_type":"transform","feature_type":"gpml:Transform","polarity":null,"overriding_plate_id":null,"subducting_plate_id":null,"plate_ids":[714,22053],"name":"Goias Massif-WAC transform"},"geometry":{"type":"LineString","coordinates":[[48.579,-66.905],[49.761,-66.899],[50.942,-66.885],[52.122,-66.862],[53.299,-66.83],[54.472,-66.789],[55.641,-66.74],[56.805,-66.682],[58.007,-66.597],[59.201,-66.502],[60.385,-66.399],[61.559,-66.287],[62.722,-66.166],[63.873,-66.037],[65.013,-65.898],[66.14,-65.752],[67.254,-65.597],[68.354,-65.435],[69.441,-65.264],[70.499,-65.04],[71.539,-64.809],[72.561,-64.571],[73.566,-64.326],[74.552,-64.074],[75.52,-63.815],[76.471,-63.55],[77.403,-63.279],[78.319,-63.002],[79.217,-62.719],[80.097,-62.431],[80.961,-62.137],[81.808,-61.837],[82.638,-61.533],[83.452,-61.224],[84.251,-60.91],[85.033,-60.591],[85.8,-60.268],[86.552,-59.94],[87.289,-59.608],[88.012,-59.273],[88.721,-58.933],[89.415,-58.59],[90.096,-58.242],[90.764,-57.892],[91.419,-57.537],[92.061,-57.18],[92.691,-56.819],[93.309,-56.455],[93.915,-56.089],[94.509,-55.719],[95.092,-55.346]]}},{"type":"Feature","properties":{"boundary_type":"transform","feature_type":"gpml:Transform","polarity":null,"overriding_plate_id":null,"subducting_plate_id":null,"plate_ids":[77148,98043],"name":""},"geometry":{"type":"LineString","coordinates":[[-37.36,-49.807],[-37.818,-50.067],[-38.281,-50.326],[-38.749,-50.583]]}},{"type":"Feature","properties":{"boundary_type":"transform","feature_type":"gpml:Transform","polarity":null,"overriding_plate_id":null,"subducting_plate_id":null,"plate_ids":[714,77148],"name":""},"geometry":{"type":"LineString","coordinates":[[-38.749,-50.583],[-39.288,-50.873],[-39.834,-51.16],[-40.386,-51.445],[-40.945,-51.728],[-41.512,-52.007],[-42.085,-52.284],[-42.666,-52.558],[-43.254,-52.829],[-43.849,-53.098],[-44.398,-53.32],[-44.954,-53.54],[-45.514,-53.757],[-46.081,-53.971]]}},{"type":"Feature","properties":{"boundary_type":"transform","feature_type":"gpml:Transform","polarity":null,"overriding_plate_id":null,"subducting_plate_id":null,"plate_ids":[714,77144],"name":""},"geometry":{"type":"LineString","coordinates":[[-46.081,-53.971],[-46.709,-54.203],[-47.343,-54.432],[-47.985,-54.657],[-48.634,-54.879],[-49.29,-55.097],[-50.091,-55.199],[-50.896,-55.295],[-51.705,-55.386],[-52.517,-55.471],[-53.333,-55.551],[-54.152,-55.626],[-54.898,-55.607],[-55.644,-55.583],[-56.388,-55.555],[-57.132,-55.523],[-57.874,-55.486],[-58.614,-55.444],[-59.344,-55.379],[-60.07,-55.311]]}}]}